{"type":"FeatureCollection","features":[{"type":"Feature","id":"01","properties":{"code":"01"},"geometry":{"type":"Polygon","coordinates":[[[17.55448,58.98267],[17.44329,58.99502],[17.43924,58.98125],[17.37517,58.98236],[17.31921,59.0491],[17.32069,59.14011],[17.2572,59.1802],[17.24367,59.21458],[17.27482,59.24555],[17.34779,59.27906],[17.33505,59.35174],[17.42561,59.35135],[17.41092,59.36622],[17.43571,59.44174],[17.50435,59.44054],[17.46482,59.5074],[17.58108,59.54974],[17.52796,59.58909],[17.51614,59.6236],[17.57797,59.6402],[17.57575,59.66213],[17.62678,59.67485],[17.62954,59.69421],[17.7223,59.68405],[17.72836,59.66352],[17.75269,59.66051],[17.77834,59.69063],[17.81601,59.67798],[17.89476,59.71058],[17.94656,59.71106],[18.02035,59.74533],[18.04349,59.73391],[18.05089,59.74361],[18.08517,59.73856],[18.13069,59.81908],[18.25742,59.83511],[18.27341,59.85059],[18.36474,59.86451],[18.40321,59.89288],[18.37715,59.9364],[18.39028,59.95362],[18.42337,59.95633],[18.42722,59.98186],[18.47336,60.0043],[18.38845,60.04123],[18.44479,60.05861],[18.49198,60.10388],[18.51421,60.16067],[18.6768,60.15509],[18.69299,60.1761],[18.67273,60.19462],[18.69665,60.20687],[18.68361,60.23933],[18.90585,60.27804],[19.13214,60.30071],[19.0832,60.19168],[20.00838,59.54746],[19.83919,59.30973],[19.74643,59.25925],[19.45548,59.15778],[19.09472,58.93475],[18.83391,58.8032],[18.17851,58.54341],[17.95122,58.48889],[17.79531,58.67143],[17.7867,58.77789],[17.66963,58.82624],[17.62532,58.93499],[17.55925,58.95181],[17.55448,58.98267]]]}},{"type":"Feature","id":"03","properties":{"code":"03"},"geometry":{"type":"Polygon","coordinates":[[[17.57788,59.55817],[17.56856,59.5404],[17.54522,59.54427],[17.51639,59.51796],[17.46482,59.5074],[17.50435,59.44054],[17.43571,59.44174],[17.4151,59.38347],[17.38336,59.39685],[17.38908,59.41407],[17.36496,59.41663],[17.35391,59.43778],[17.20782,59.4626],[17.11784,59.52627],[17.08388,59.53071],[17.064,59.511],[17.03016,59.5084],[16.96591,59.52035],[16.9213,59.54763],[16.85414,59.66764],[16.72749,59.77501],[16.80804,59.81571],[16.81809,59.83647],[16.80101,59.8441],[16.83713,59.86155],[16.80051,59.86962],[16.77306,59.89427],[16.80212,59.90868],[16.79433,59.94587],[16.76136,59.95115],[16.7892,59.96576],[16.74122,59.98067],[16.71618,60.01086],[16.72747,60.04337],[16.69197,60.08334],[16.7473,60.13594],[16.70479,60.19509],[16.77904,60.18992],[16.80261,60.21212],[16.90491,60.23949],[16.88644,60.25491],[16.9197,60.28562],[16.98052,60.29527],[17.00206,60.27492],[17.05847,60.27297],[17.08241,60.25921],[17.1129,60.26932],[17.1031,60.28083],[17.19382,60.30081],[17.21361,60.36499],[17.18908,60.38227],[17.1923,60.40412],[17.21764,60.43396],[17.25383,60.43521],[17.25661,60.42447],[17.28783,60.44681],[17.38189,60.67694],[17.39559,60.68576],[17.7095,60.70837],[17.95716,60.90691],[18.2229,60.81213],[18.99553,60.68217],[19.14676,60.63174],[19.20793,60.58907],[19.13366,60.30104],[18.90585,60.27804],[18.68361,60.23933],[18.69665,60.20687],[18.67273,60.19462],[18.69299,60.1761],[18.6768,60.15509],[18.51421,60.16067],[18.49198,60.10388],[18.44479,60.05861],[18.38845,60.04123],[18.47336,60.0043],[18.42722,59.98186],[18.42337,59.95633],[18.38389,59.94568],[18.4045,59.89439],[18.36474,59.86451],[18.27341,59.85059],[18.24871,59.83333],[18.13069,59.81908],[18.08517,59.73856],[18.05089,59.74361],[18.04349,59.73391],[18.02035,59.74533],[17.94656,59.71106],[17.89476,59.71058],[17.81601,59.67798],[17.77834,59.69063],[17.75269,59.66051],[17.72836,59.66352],[17.7223,59.68405],[17.62954,59.69421],[17.62678,59.67485],[17.57575,59.66213],[17.57797,59.6402],[17.51614,59.6236],[17.52796,59.58909],[17.57788,59.55817]]]}},{"type":"Feature","id":"04","properties":{"code":"04"},"geometry":{"type":"Polygon","coordinates":[[[17.56928,58.39898],[17.14899,58.50334],[17.13093,58.55007],[17.06983,58.59066],[16.97243,58.58099],[16.89009,58.60099],[16.82738,58.59427],[16.74995,58.6271],[16.68978,58.67562],[16.63919,58.67552],[16.62827,58.68993],[16.5845,58.69793],[16.3858,58.70359],[16.36864,58.75284],[16.32745,58.77957],[16.30459,58.76833],[16.3103,58.79154],[16.26361,58.83223],[16.19164,58.83904],[16.18025,58.85848],[16.10218,58.88579],[16.08221,58.91954],[15.91153,58.96241],[15.8429,59.01494],[15.81537,59.01875],[15.7804,58.96922],[15.74121,58.95097],[15.72074,58.98958],[15.66531,58.98203],[15.65572,59.01155],[15.61667,59.02258],[15.64098,59.03453],[15.63991,59.05411],[15.71051,59.07742],[15.70727,59.10101],[15.79425,59.10971],[15.76204,59.19792],[15.89274,59.23048],[15.86514,59.28617],[15.87712,59.28018],[15.88056,59.30309],[15.90251,59.29636],[15.91119,59.31563],[15.94247,59.32275],[15.95437,59.34944],[16.03513,59.36926],[16.07232,59.35197],[16.15768,59.34624],[16.26648,59.36195],[16.27365,59.38853],[16.30668,59.39939],[16.24968,59.40954],[16.25426,59.45246],[16.3227,59.45288],[16.37151,59.46729],[16.41073,59.45976],[16.66558,59.49228],[16.71138,59.48806],[16.7569,59.50203],[16.8338,59.4984],[16.90628,59.47958],[16.9506,59.49396],[16.96591,59.52035],[17.064,59.511],[17.08388,59.53071],[17.14154,59.51624],[17.15904,59.48534],[17.20782,59.4626],[17.35391,59.43778],[17.36496,59.41663],[17.38908,59.41407],[17.38336,59.39685],[17.4151,59.38347],[17.42561,59.35135],[17.33505,59.35174],[17.34779,59.27906],[17.27482,59.24555],[17.24367,59.21458],[17.2572,59.1802],[17.32069,59.14011],[17.31921,59.0491],[17.37517,58.98236],[17.43924,58.98125],[17.44329,58.99502],[17.55448,58.98267],[17.55925,58.95181],[17.62532,58.93499],[17.66963,58.82624],[17.7867,58.77789],[17.79531,58.67143],[17.95122,58.48889],[17.56928,58.39898]]]}},{"type":"Feature","id":"05","properties":{"code":"05"},"geometry":{"type":"Polygon","coordinates":[[[15.54238,57.79012],[15.55421,57.7726],[15.43058,57.74502],[15.45248,57.73235],[15.42161,57.70475],[15.33331,57.6996],[15.28253,57.71496],[15.15473,57.70618],[15.12816,57.71678],[15.08869,57.77278],[15.07795,57.83859],[14.99425,57.90665],[15.0127,57.92421],[14.9866,57.94231],[15.01801,57.95827],[15.00924,57.98737],[15.06664,57.9853],[15.08128,57.99895],[15.02765,58.04969],[15.03884,58.05673],[14.97579,58.1337],[14.98592,58.14938],[14.92697,58.13428],[14.89213,58.13776],[14.89232,58.12387],[14.91678,58.12024],[14.88654,58.09886],[14.89778,58.08533],[14.76564,58.08614],[14.75923,58.10382],[14.6159,58.09661],[14.46827,58.13109],[14.41774,58.19106],[14.52043,58.35596],[14.80665,58.66505],[14.92922,58.69682],[14.97246,58.6834],[15.01158,58.70558],[15.03454,58.70429],[15.06695,58.75436],[15.13252,58.78705],[15.11907,58.79084],[15.13812,58.82065],[15.19826,58.81473],[15.21901,58.84275],[15.24696,58.83834],[15.26282,58.86514],[15.29518,58.84979],[15.32527,58.85929],[15.34759,58.82921],[15.3814,58.84693],[15.40286,58.84195],[15.41358,58.8069],[15.42427,58.82199],[15.45402,58.82106],[15.44065,58.86417],[15.53074,58.86455],[15.58599,58.8965],[15.55497,58.9564],[15.59035,58.95955],[15.62908,58.98318],[15.67766,58.97419],[15.68719,58.98939],[15.72074,58.98958],[15.74121,58.95097],[15.7804,58.96922],[15.82075,59.01843],[15.8721,58.99953],[15.86545,58.99056],[15.91153,58.96241],[16.08221,58.91954],[16.10218,58.88579],[16.18025,58.85848],[16.19164,58.83904],[16.26361,58.83223],[16.3103,58.79154],[16.30459,58.76833],[16.32745,58.77957],[16.36864,58.75284],[16.3858,58.70359],[16.5845,58.69793],[16.62827,58.68993],[16.63919,58.67552],[16.68978,58.67562],[16.74995,58.6271],[16.82738,58.59427],[16.89009,58.60099],[16.97243,58.58099],[17.06983,58.59066],[17.13093,58.55007],[17.14899,58.50334],[17.56928,58.39898],[17.54228,58.28031],[17.35303,57.99956],[16.89612,58.00429],[16.82081,58.02674],[16.80421,57.99729],[16.74316,58.00048],[16.72744,57.98487],[16.68221,57.9992],[16.65786,57.99262],[16.62747,58.00279],[16.59254,58.05097],[16.60688,58.05307],[16.55071,58.1093],[16.53251,58.1162],[16.49084,58.08888],[16.41075,58.13071],[16.36339,58.13013],[16.33254,58.11725],[16.26478,58.14244],[16.20361,58.10458],[16.17745,58.11021],[16.1627,58.08961],[16.17824,58.0644],[16.14921,58.06183],[16.1285,58.08559],[16.06989,58.06992],[16.02722,58.07372],[16.00692,58.08792],[15.98803,58.07644],[16.01604,58.06064],[15.99549,58.02197],[16.04978,57.98767],[16.09274,57.97824],[16.01899,57.94373],[16.06397,57.89899],[16.06244,57.87334],[15.94417,57.80331],[15.89558,57.82964],[15.82234,57.81656],[15.76757,57.85163],[15.67711,57.85989],[15.63953,57.84893],[15.59909,57.85366],[15.60805,57.83057],[15.54238,57.79012]]]}},{"type":"Feature","id":"06","properties":{"code":"06"},"geometry":{"type":"Polygon","coordinates":[[[14.0168,57.05182],[13.98999,57.02935],[13.97569,57.04149],[13.92477,57.04059],[13.91032,57.01842],[13.87442,57.01839],[13.85413,56.9982],[13.80249,57.02877],[13.73312,57.036],[13.6807,56.9721],[13.63041,56.98621],[13.59546,57.01525],[13.59888,57.0633],[13.57372,57.0628],[13.52725,57.0874],[13.50072,57.07356],[13.48903,57.11384],[13.45335,57.09649],[13.44037,57.11028],[13.38717,57.1139],[13.28934,57.10343],[13.2723,57.09122],[13.22698,57.09688],[13.23371,57.07906],[13.16189,57.05153],[13.19031,57.05836],[13.19638,57.05078],[13.12226,57.02518],[13.11626,57.06436],[13.08121,57.08355],[13.09908,57.12848],[13.07707,57.12759],[13.15146,57.17805],[13.19929,57.25035],[13.24297,57.25974],[13.26191,57.24923],[13.28743,57.28269],[13.28213,57.30745],[13.36871,57.32155],[13.38782,57.34104],[13.43302,57.34904],[13.43565,57.36905],[13.46842,57.37127],[13.48186,57.39322],[13.5116,57.39822],[13.5142,57.42821],[13.68857,57.55829],[13.66424,57.61505],[13.70763,57.63829],[13.72249,57.69169],[13.6942,57.70574],[13.72969,57.71838],[13.7143,57.73064],[13.75388,57.77344],[13.73146,57.84529],[13.76636,57.87843],[13.76147,57.89339],[13.79195,57.90925],[13.76585,57.93773],[13.72905,57.93127],[13.68814,57.97683],[13.71962,57.97617],[13.72067,57.99168],[13.77373,58.00644],[13.75285,58.02532],[13.77177,58.02422],[13.79003,58.05596],[13.7916,58.04768],[13.80501,58.05553],[13.86523,58.0412],[13.86892,58.05094],[13.94889,58.03426],[13.96295,58.00783],[14.0696,58.02515],[14.06469,58.03891],[14.11631,58.07534],[14.12877,58.14633],[14.16866,58.12835],[14.31426,58.13178],[14.41773,58.19107],[14.46827,58.13109],[14.54964,58.10514],[14.64354,58.09571],[14.75923,58.10382],[14.76564,58.08614],[14.80878,58.08269],[14.89778,58.08533],[14.88654,58.09886],[14.91678,58.12024],[14.89232,58.12387],[14.89213,58.13776],[14.92697,58.13428],[14.97791,58.15183],[15.03884,58.05673],[15.02765,58.04969],[15.08128,57.99895],[15.06664,57.9853],[15.00924,57.98737],[15.01801,57.95827],[14.9866,57.94231],[15.0127,57.92421],[14.99425,57.90665],[15.07795,57.83859],[15.07383,57.80621],[15.12816,57.71678],[15.17721,57.70465],[15.28253,57.71496],[15.33331,57.6996],[15.41959,57.70707],[15.4397,57.68495],[15.66567,57.59929],[15.63087,57.5931],[15.57651,57.5479],[15.61721,57.5417],[15.65455,57.50188],[15.62251,57.48721],[15.61391,57.44117],[15.5969,57.43492],[15.5524,57.46825],[15.50844,57.44799],[15.50496,57.45725],[15.49778,57.41248],[15.52915,57.40638],[15.52404,57.3844],[15.49515,57.37408],[15.51801,57.36373],[15.52165,57.33874],[15.51319,57.30742],[15.46994,57.30647],[15.48225,57.27869],[15.45752,57.26995],[15.52768,57.23362],[15.51377,57.20087],[15.40157,57.22601],[15.3348,57.22842],[15.31304,57.21652],[15.24153,57.22068],[15.23398,57.22964],[15.20008,57.20759],[15.13196,57.23856],[15.12117,57.22952],[15.15609,57.19445],[15.14573,57.17461],[15.12672,57.19037],[15.08077,57.19623],[15.03793,57.16307],[15.01117,57.16405],[14.99912,57.14218],[14.92416,57.13332],[14.90232,57.13568],[14.87133,57.19803],[14.75043,57.22814],[14.65614,57.20298],[14.60678,57.20441],[14.61087,57.18065],[14.55701,57.18762],[14.53868,57.16068],[14.4872,57.15201],[14.44957,57.16297],[14.42416,57.14351],[14.41259,57.15537],[14.3623,57.1506],[14.34812,57.14483],[14.36058,57.12025],[14.33738,57.11269],[14.35767,57.09646],[14.35992,57.05766],[14.338,57.0558],[14.33054,57.02335],[14.34941,57.00324],[14.37904,56.99968],[14.36698,56.98144],[14.39492,56.96296],[14.32499,56.88288],[14.30125,56.87924],[14.25584,56.88674],[14.2268,56.90978],[14.21613,56.95496],[14.19177,56.95781],[14.18035,56.98871],[14.1531,56.99842],[14.15239,57.02941],[14.09481,57.0211],[14.09101,57.04112],[14.0168,57.05182]]]}},{"type":"Feature","id":"07","properties":{"code":"07"},"geometry":{"type":"Polygon","coordinates":[[[15.20889,56.45952],[15.21448,56.44037],[15.18682,56.42799],[15.14594,56.43653],[15.12463,56.4551],[15.04978,56.45207],[15.05034,56.43772],[15.03315,56.45078],[15.00088,56.44564],[14.96542,56.40021],[14.90442,56.36135],[14.85975,56.35888],[14.77919,56.38246],[14.67872,56.38723],[14.59713,56.44373],[14.34411,56.48443],[14.27428,56.50657],[14.23295,56.49093],[14.17987,56.4941],[14.12581,56.50552],[14.11899,56.52489],[14.09145,56.53282],[14.0624,56.52687],[14.0252,56.46792],[13.90175,56.45714],[13.87692,56.43678],[13.79396,56.4482],[13.69635,56.42464],[13.50053,56.40562],[13.4612,56.42778],[13.44977,56.47218],[13.46479,56.51396],[13.43989,56.57126],[13.40253,56.59249],[13.36414,56.6651],[13.32827,56.68769],[13.30779,56.68547],[13.32511,56.70757],[13.29816,56.82365],[13.33791,56.83824],[13.33463,56.87416],[13.35896,56.85729],[13.44369,56.8798],[13.48727,56.87106],[13.52988,56.89129],[13.58227,56.89007],[13.66203,56.91355],[13.68742,56.92681],[13.6807,56.9721],[13.74688,57.03852],[13.76223,57.02581],[13.80249,57.02877],[13.84295,56.99788],[13.87442,57.01839],[13.91032,57.01842],[13.92477,57.04059],[13.97569,57.04149],[13.98999,57.02935],[14.0168,57.05182],[14.09101,57.04112],[14.09481,57.0211],[14.15239,57.02941],[14.1531,56.99842],[14.18035,56.98871],[14.19177,56.95781],[14.21613,56.95496],[14.22844,56.90828],[14.25584,56.88674],[14.32323,56.88194],[14.39492,56.96296],[14.36698,56.98144],[14.37904,56.99968],[14.34941,57.00324],[14.33054,57.02335],[14.338,57.0558],[14.35992,57.05766],[14.35767,57.09646],[14.33738,57.11269],[14.36058,57.12025],[14.34812,57.14483],[14.41259,57.15537],[14.42442,57.14354],[14.44957,57.16297],[14.4872,57.15201],[14.53868,57.16068],[14.55589,57.18729],[14.61087,57.18065],[14.60678,57.20441],[14.65614,57.20298],[14.71804,57.22476],[14.78922,57.22508],[14.87133,57.19803],[14.90232,57.13568],[14.92416,57.13332],[14.99912,57.14218],[15.01117,57.16405],[15.03793,57.16307],[15.08077,57.19623],[15.12672,57.19037],[15.14573,57.17461],[15.15609,57.19445],[15.12117,57.22952],[15.13196,57.23856],[15.20008,57.20759],[15.23398,57.22964],[15.24229,57.22059],[15.31304,57.21652],[15.3348,57.22842],[15.38038,57.22693],[15.48179,57.21188],[15.55521,57.18893],[15.55131,57.14729],[15.64011,57.12861],[15.65373,57.10216],[15.72127,57.07551],[15.81185,57.00782],[15.83368,56.94351],[15.7992,56.91061],[15.70109,56.91524],[15.66687,56.90277],[15.55545,56.9297],[15.52017,56.91406],[15.55619,56.87406],[15.53773,56.86174],[15.55314,56.8226],[15.53844,56.80581],[15.44737,56.79725],[15.44485,56.77904],[15.36829,56.78065],[15.36084,56.75797],[15.39222,56.72049],[15.42512,56.71052],[15.4098,56.6822],[15.42401,56.67125],[15.40009,56.65623],[15.41915,56.63949],[15.36714,56.6023],[15.3917,56.58343],[15.38429,56.55353],[15.35923,56.56638],[15.33737,56.48909],[15.36467,56.48213],[15.32032,56.45551],[15.28683,56.4567],[15.26437,56.471],[15.20889,56.45952]]]}},{"type":"Feature","id":"08","properties":{"code":"08"},"geometry":{"type":"Polygon","coordinates":[[[16.22368,56.30529],[16.03139,56.3198],[16.01163,56.29741],[15.94268,56.31961],[15.84185,56.32275],[15.73579,56.41452],[15.67737,56.42496],[15.65677,56.46195],[15.63601,56.45708],[15.59923,56.47205],[15.58194,56.49619],[15.52388,56.50249],[15.50534,56.47405],[15.38648,56.50062],[15.36468,56.48214],[15.33738,56.48904],[15.35923,56.56638],[15.38429,56.55353],[15.3917,56.58343],[15.36714,56.6023],[15.41915,56.63949],[15.40009,56.65623],[15.42401,56.67125],[15.4098,56.6822],[15.42506,56.71319],[15.39222,56.72049],[15.36084,56.75797],[15.36829,56.78065],[15.44485,56.77904],[15.44737,56.79725],[15.53844,56.80581],[15.55314,56.8226],[15.53773,56.86174],[15.55619,56.87406],[15.51928,56.90065],[15.54174,56.92743],[15.59564,56.92575],[15.66687,56.90277],[15.70109,56.91524],[15.7992,56.91061],[15.83527,56.95625],[15.8256,56.99551],[15.72127,57.07551],[15.68015,57.08467],[15.6414,57.11096],[15.64011,57.12861],[15.55131,57.14729],[15.55521,57.18893],[15.51276,57.20396],[15.52768,57.23362],[15.45759,57.26969],[15.48225,57.27869],[15.46994,57.30647],[15.51319,57.30742],[15.52165,57.33874],[15.51801,57.36373],[15.49515,57.37408],[15.52404,57.3844],[15.52915,57.40638],[15.49778,57.41248],[15.50496,57.45725],[15.50844,57.44799],[15.5524,57.46825],[15.5969,57.43492],[15.61391,57.44117],[15.62251,57.48721],[15.65455,57.50188],[15.61721,57.5417],[15.57651,57.5479],[15.63087,57.5931],[15.66567,57.59929],[15.4397,57.68495],[15.42054,57.70353],[15.45248,57.73235],[15.43058,57.74502],[15.55421,57.7726],[15.54235,57.79017],[15.60805,57.83057],[15.59909,57.85366],[15.76757,57.85163],[15.82234,57.81656],[15.89558,57.82964],[15.94417,57.80331],[16.06244,57.87334],[16.06397,57.89899],[16.01899,57.94373],[16.09274,57.97824],[16.04978,57.98767],[15.99549,58.02197],[16.01604,58.06064],[15.98803,58.07644],[16.00692,58.08792],[16.02722,58.07372],[16.06989,58.06992],[16.1285,58.08559],[16.14921,58.06183],[16.17824,58.0644],[16.1627,58.08961],[16.17745,58.11021],[16.20361,58.10458],[16.26478,58.14244],[16.33254,58.11725],[16.36339,58.13013],[16.41075,58.13071],[16.49084,58.08888],[16.53251,58.1162],[16.55071,58.1093],[16.60688,58.05307],[16.59254,58.05097],[16.62747,58.00279],[16.65786,57.99262],[16.68221,57.9992],[16.72744,57.98487],[16.74316,58.00048],[16.80421,57.99729],[16.82081,58.02674],[16.89612,58.00429],[17.35303,57.99956],[17.23469,57.82561],[17.27521,57.69492],[17.25163,57.61498],[17.4632,57.43759],[17.51339,57.34674],[17.51822,57.29125],[17.21389,56.78032],[17.10081,56.65688],[17.05637,56.54265],[16.98435,56.45518],[16.88503,56.25873],[16.80621,56.14974],[16.74615,56.09673],[16.59947,56.02442],[16.21948,55.91413],[16.22368,56.30529]]]}},{"type":"Feature","id":"09","properties":{"code":"09"},"geometry":{"type":"Polygon","coordinates":[[[17.84308,57.68536],[18.01536,57.78248],[18.17598,57.95027],[18.4681,58.08175],[18.60282,58.12018],[18.98872,58.17838],[18.87475,58.25044],[18.79464,58.38168],[18.82079,58.47215],[18.92856,58.5505],[19.06859,58.58964],[19.24282,58.59544],[19.46086,58.56205],[19.61671,58.494],[19.69036,58.42056],[19.70052,58.33776],[19.6485,58.26109],[19.53256,58.18641],[19.63039,58.14376],[19.69245,58.09066],[19.71904,58.03694],[19.72289,57.93404],[19.66444,57.84984],[19.28401,57.56741],[19.35844,57.46874],[19.35742,57.41392],[19.32838,57.35476],[18.62285,56.82683],[18.48271,56.7542],[18.27994,56.70712],[18.1795,56.70134],[18.01477,56.71465],[17.91343,56.74286],[17.8269,56.79065],[17.78049,56.84003],[17.75954,56.89317],[17.7835,57.05012],[17.76405,57.11004],[17.65412,57.16738],[17.59732,57.2384],[17.60271,57.34491],[17.64406,57.39576],[17.71193,57.43964],[17.74746,57.5892],[17.84308,57.68536]]]}},{"type":"Feature","id":"10","properties":{"code":"10"},"geometry":{"type":"Polygon","coordinates":[[[15.15826,55.89823],[15.06289,55.84113],[14.98045,55.81536],[14.79894,55.7968],[14.59533,55.755],[14.53275,56.01201],[14.58625,56.12917],[14.56664,56.22412],[14.5185,56.21417],[14.46751,56.23925],[14.46615,56.22469],[14.44087,56.22905],[14.43077,56.28956],[14.40546,56.29422],[14.40872,56.3042],[14.39015,56.30133],[14.41378,56.40022],[14.47251,56.40824],[14.51455,56.45999],[14.61485,56.43768],[14.67872,56.38723],[14.77919,56.38246],[14.85975,56.35888],[14.90442,56.36135],[14.96542,56.40021],[14.97923,56.43403],[15.01398,56.44876],[15.05034,56.43772],[15.04978,56.45207],[15.12463,56.4551],[15.14594,56.43653],[15.18682,56.42799],[15.21448,56.44037],[15.20863,56.45945],[15.26437,56.471],[15.28683,56.4567],[15.32032,56.45551],[15.38118,56.49989],[15.50534,56.47405],[15.52388,56.50249],[15.54867,56.50354],[15.58576,56.49524],[15.59923,56.47205],[15.63601,56.45708],[15.65644,56.46217],[15.67737,56.42496],[15.73579,56.41452],[15.84185,56.32275],[15.94268,56.31961],[16.01163,56.29741],[16.04234,56.32273],[16.22368,56.30529],[16.21948,55.91413],[16.0256,55.85635],[15.90391,55.78306],[15.77306,55.75103],[15.62589,55.75103],[15.48136,55.78881],[15.30656,55.88961],[15.15826,55.89823]]]}},{"type":"Feature","id":"12","properties":{"code":"12"},"geometry":{"type":"Polygon","coordinates":[[[13.78285,55.21813],[13.37665,55.13734],[12.9966,55.1683],[12.92297,55.14837],[12.71173,55.30206],[12.69446,55.34977],[12.6408,55.33667],[12.60942,55.43112],[12.71412,55.4886],[12.72828,55.54027],[12.8802,55.61357],[12.89405,55.64358],[12.69873,55.83625],[12.64639,55.92584],[12.64686,56.05475],[12.45932,56.15125],[12.36519,56.2148],[12.38839,56.24019],[12.3404,56.27063],[12.32587,56.3025],[12.11746,56.38316],[12.24085,56.55722],[12.79711,56.55217],[12.89555,56.4495],[12.95774,56.43996],[12.96858,56.41139],[12.95285,56.39212],[12.96799,56.38904],[12.94981,56.36932],[12.99205,56.35723],[13.14864,56.35287],[13.19599,56.32414],[13.30481,56.38525],[13.4612,56.42778],[13.50053,56.40562],[13.54262,56.40379],[13.79396,56.4482],[13.87692,56.43678],[13.90175,56.45714],[14.0252,56.46792],[14.0624,56.52687],[14.09145,56.53282],[14.11899,56.52489],[14.12581,56.50552],[14.17987,56.4941],[14.23295,56.49093],[14.27428,56.50657],[14.34411,56.48443],[14.51455,56.45999],[14.47251,56.40824],[14.41378,56.40022],[14.39015,56.30133],[14.40872,56.3042],[14.40546,56.29422],[14.43077,56.28956],[14.44087,56.22905],[14.46615,56.22469],[14.46751,56.23925],[14.5185,56.21417],[14.56664,56.22412],[14.58625,56.12917],[14.53275,56.01201],[14.59533,55.755],[14.70173,55.60628],[14.1685,55.1777],[13.9897,55.18456],[13.85254,55.21806],[13.78285,55.21813]]]}},{"type":"Feature","id":"13","properties":{"code":"13"},"geometry":{"type":"Polygon","coordinates":[[[12.95486,56.43822],[12.89555,56.4495],[12.79711,56.55217],[12.24085,56.55722],[12.29875,56.637],[12.0058,56.97309],[11.68417,57.17306],[11.58585,57.38304],[11.45355,57.50018],[11.77911,57.49967],[11.81803,57.55642],[11.98785,57.56506],[12.01267,57.54567],[12.07506,57.5509],[12.17543,57.56483],[12.27723,57.59754],[12.34095,57.56172],[12.31157,57.52098],[12.34452,57.48878],[12.3228,57.46076],[12.4061,57.43077],[12.4195,57.40066],[12.38445,57.34699],[12.43221,57.31505],[12.43022,57.26936],[12.49283,57.28679],[12.50458,57.28106],[12.53723,57.31949],[12.60471,57.34693],[12.62252,57.33193],[12.64357,57.32986],[12.65526,57.34138],[12.6754,57.32999],[12.69238,57.33461],[12.75868,57.2734],[12.80754,57.30111],[12.83615,57.26972],[12.92986,57.26375],[12.95416,57.2412],[12.91443,57.21983],[12.91216,57.18062],[12.9388,57.17321],[12.97396,57.18325],[13.03901,57.18029],[13.02091,57.15749],[13.05239,57.14644],[13.09672,57.15874],[13.08121,57.08355],[13.12104,57.05751],[13.12118,57.02514],[13.19638,57.05078],[13.19031,57.05836],[13.16189,57.05153],[13.23371,57.07906],[13.22698,57.09688],[13.2723,57.09122],[13.35415,57.11355],[13.43999,57.11037],[13.45335,57.09649],[13.48903,57.11384],[13.50072,57.07356],[13.52725,57.0874],[13.57372,57.0628],[13.59888,57.0633],[13.59546,57.01525],[13.63041,56.98621],[13.66418,56.9846],[13.69357,56.96354],[13.68742,56.92681],[13.58227,56.89007],[13.52988,56.89129],[13.48727,56.87106],[13.44369,56.8798],[13.35896,56.85729],[13.33463,56.87416],[13.33791,56.83824],[13.29816,56.82365],[13.32511,56.70757],[13.30779,56.68547],[13.32827,56.68769],[13.36414,56.6651],[13.40253,56.59249],[13.43989,56.57126],[13.46479,56.51396],[13.44988,56.46787],[13.46735,56.43179],[13.29286,56.38057],[13.2288,56.33248],[13.19599,56.32414],[13.14864,56.35287],[12.99205,56.35723],[12.94981,56.36932],[12.96799,56.38904],[12.95285,56.39212],[12.96858,56.41139],[12.95486,56.43822]]]}},{"type":"Feature","id":"14","properties":{"code":"14"},"geometry":{"type":"Polygon","coordinates":[[[12.27517,57.59673],[12.17543,57.56483],[12.07506,57.5509],[12.01267,57.54567],[11.98785,57.56506],[11.81803,57.55642],[11.77911,57.49967],[11.45355,57.50018],[11.20256,57.67466],[11.14757,57.83464],[10.99692,57.9804],[10.84806,58.25804],[10.64903,58.48816],[10.5935,58.76217],[10.63891,58.89227],[11.06641,58.97739],[11.11714,59.01506],[11.1535,59.07926],[11.33991,59.11498],[11.46462,58.99117],[11.45574,58.88924],[11.53741,58.87742],[11.5534,58.89893],[11.57249,58.88783],[11.57782,58.89749],[11.59063,58.89072],[11.652,58.90623],[11.67586,58.93506],[11.71051,59.03368],[11.77623,59.08799],[11.76362,59.11454],[11.78299,59.20664],[11.8119,59.23202],[11.92389,59.22461],[11.94842,59.24967],[12.08457,59.17636],[12.10825,59.19565],[12.0822,59.25724],[12.18532,59.24999],[12.21463,59.26369],[12.23746,59.25497],[12.27395,59.18886],[12.31274,59.19679],[12.34709,59.17365],[12.4587,59.19285],[12.45452,59.17369],[12.41508,59.1691],[12.46066,59.1528],[12.46216,59.1304],[12.5171,59.13077],[12.57785,59.11202],[12.61902,59.1417],[12.63493,59.18095],[12.65548,59.18611],[12.65449,59.17633],[12.69544,59.17077],[12.75455,59.13085],[12.77014,59.04382],[12.89963,58.81427],[13.1795,58.75557],[13.2532,58.72533],[13.42508,58.74594],[13.33854,58.8124],[13.42422,58.95939],[13.58881,59.05933],[14.04413,59.02865],[14.0382,59.04295],[14.07501,59.05024],[14.22423,59.04546],[14.23172,59.02924],[14.29785,59.01222],[14.28524,58.94833],[14.32362,58.92166],[14.32391,58.90373],[14.395,58.88363],[14.39905,58.86427],[14.3788,58.86583],[14.36004,58.85006],[14.38957,58.84577],[14.38254,58.82983],[14.42144,58.79473],[14.47051,58.78103],[14.47682,58.71337],[14.54599,58.71873],[14.54069,58.67691],[14.62636,58.69426],[14.62165,58.73735],[14.69123,58.74012],[14.69893,58.69663],[14.77882,58.64617],[14.67346,58.51007],[14.52043,58.35596],[14.41774,58.19106],[14.31426,58.13178],[14.16866,58.12835],[14.12877,58.14633],[14.11631,58.07534],[14.06469,58.03891],[14.0696,58.02515],[13.96295,58.00783],[13.94889,58.03426],[13.86892,58.05094],[13.86523,58.0412],[13.80501,58.05553],[13.7916,58.04768],[13.79003,58.05596],[13.77177,58.02422],[13.75285,58.02532],[13.77373,58.00644],[13.72067,57.99168],[13.71962,57.97617],[13.68814,57.97683],[13.72905,57.93127],[13.76585,57.93773],[13.79195,57.90925],[13.76147,57.89339],[13.76636,57.87843],[13.73146,57.84529],[13.75388,57.77344],[13.7143,57.73064],[13.72969,57.71838],[13.6942,57.70574],[13.72249,57.69169],[13.72482,57.66943],[13.70763,57.63829],[13.66424,57.61505],[13.68857,57.55829],[13.5142,57.42821],[13.5116,57.39822],[13.48186,57.39322],[13.46842,57.37127],[13.43565,57.36905],[13.43302,57.34904],[13.38782,57.34104],[13.36871,57.32155],[13.28213,57.30745],[13.28743,57.28269],[13.26191,57.24923],[13.24297,57.25974],[13.19929,57.25035],[13.11695,57.14933],[13.10015,57.14555],[13.0953,57.15916],[13.05239,57.14644],[13.02091,57.15749],[13.03901,57.18029],[12.97396,57.18325],[12.9388,57.17321],[12.91216,57.18062],[12.91443,57.21983],[12.95416,57.2412],[12.93171,57.26297],[12.83615,57.26972],[12.80754,57.30111],[12.75868,57.2734],[12.69238,57.33461],[12.6754,57.32999],[12.66166,57.34142],[12.64357,57.32986],[12.62252,57.33193],[12.62313,57.344],[12.59128,57.34299],[12.53723,57.31949],[12.50458,57.28106],[12.49283,57.28679],[12.43022,57.26936],[12.43221,57.31505],[12.38445,57.34699],[12.4195,57.40066],[12.40451,57.43419],[12.3228,57.46076],[12.34452,57.48878],[12.31157,57.52098],[12.34095,57.56172],[12.27517,57.59673]]]}},{"type":"Feature","id":"17","properties":{"code":"17"},"geometry":{"type":"Polygon","coordinates":[[[13.42508,58.74594],[13.2532,58.72533],[13.1795,58.75557],[12.89963,58.81427],[12.77014,59.04382],[12.75455,59.13085],[12.65548,59.18611],[12.57511,59.11189],[12.54705,59.12584],[12.45742,59.13216],[12.46066,59.1528],[12.41508,59.1691],[12.45452,59.17369],[12.4587,59.19285],[12.34709,59.17365],[12.31274,59.19679],[12.27395,59.18886],[12.23746,59.25497],[12.21463,59.26369],[12.18532,59.24999],[12.0822,59.25724],[12.10825,59.19565],[12.08457,59.17636],[11.94842,59.24967],[11.92389,59.22461],[11.82615,59.23783],[11.81625,59.34474],[11.77987,59.38646],[11.69113,59.58955],[11.72056,59.62549],[11.77889,59.64299],[11.85571,59.6483],[11.88922,59.69321],[11.94592,59.70015],[11.92602,59.794],[11.83976,59.84123],[11.88483,59.85605],[11.88481,59.87177],[11.98522,59.90073],[12.05346,59.88594],[12.17429,59.88981],[12.231,59.92752],[12.34114,59.96567],[12.48052,60.07302],[12.54191,60.19338],[12.4988,60.32365],[12.60605,60.40593],[12.60688,60.51274],[12.51578,60.60015],[12.51102,60.64246],[12.39537,60.73389],[12.33279,60.89017],[12.22399,61.01308],[12.44761,61.05073],[12.61034,61.04654],[12.67023,61.056],[12.6987,60.99812],[13.15947,60.7551],[13.19418,60.68479],[13.24877,60.68611],[13.46808,60.45942],[13.54234,60.42247],[13.67083,60.40336],[13.82797,60.25477],[13.96552,60.1752],[14.01193,60.19111],[13.95107,60.251],[14.02291,60.24235],[14.02368,60.22884],[14.1492,60.23066],[14.19689,60.16328],[14.2127,60.09574],[14.43704,60.02572],[14.45655,59.97301],[14.33179,59.95181],[14.36641,59.91199],[14.42301,59.90126],[14.41485,59.82178],[14.43471,59.77094],[14.4,59.7421],[14.47571,59.52906],[14.43575,59.54224],[14.3908,59.51377],[14.46932,59.43969],[14.40966,59.41361],[14.30731,59.28729],[14.28956,59.15937],[14.29596,59.12708],[14.34006,59.08409],[14.29785,59.01222],[14.23172,59.02924],[14.22423,59.04546],[14.17997,59.04079],[14.142,59.05248],[14.0382,59.04295],[14.04413,59.02865],[13.58881,59.05933],[13.42422,58.95939],[13.33854,58.8124],[13.42508,58.74594]]]}},{"type":"Feature","id":"18","properties":{"code":"18"},"geometry":{"type":"Polygon","coordinates":[[[14.62165,58.73735],[14.62636,58.69426],[14.53676,58.67751],[14.54599,58.71873],[14.47682,58.71337],[14.47051,58.78103],[14.42144,58.79473],[14.38254,58.82983],[14.38957,58.84577],[14.36004,58.85006],[14.3788,58.86583],[14.39905,58.86427],[14.395,58.88363],[14.32391,58.90373],[14.32362,58.92166],[14.28524,58.94833],[14.34006,59.08409],[14.29596,59.12708],[14.28956,59.15937],[14.30731,59.28729],[14.40966,59.41361],[14.46932,59.43969],[14.3908,59.51377],[14.43575,59.54224],[14.47571,59.52906],[14.4,59.7421],[14.43471,59.77094],[14.41485,59.82178],[14.42301,59.90126],[14.36641,59.91199],[14.33179,59.95181],[14.45655,59.97301],[14.43704,60.02572],[14.75363,59.99718],[14.73734,60.08175],[14.80766,60.11093],[14.8507,60.10419],[14.83818,60.08836],[14.90478,60.05134],[15.01343,60.05739],[15.03404,60.03918],[15.04763,60.04948],[15.07768,60.04112],[15.12546,60.00842],[15.20542,60.00178],[15.36465,59.87713],[15.45697,59.83531],[15.42588,59.79556],[15.5054,59.79607],[15.55397,59.72361],[15.51254,59.65256],[15.52105,59.63343],[15.61569,59.63047],[15.63664,59.59124],[15.62849,59.52006],[15.70475,59.53894],[15.71965,59.51135],[15.68548,59.47742],[15.71283,59.4758],[15.7309,59.40964],[15.60397,59.39655],[15.59996,59.36682],[15.63532,59.33395],[15.6077,59.28873],[15.69168,59.27053],[15.72654,59.2234],[15.79817,59.23052],[15.76204,59.19792],[15.7976,59.12288],[15.78014,59.10499],[15.70727,59.10101],[15.71051,59.07742],[15.63991,59.05411],[15.64098,59.03453],[15.61667,59.02258],[15.65572,59.01155],[15.66531,58.98203],[15.68754,58.98091],[15.64158,58.97392],[15.62908,58.98318],[15.59035,58.95955],[15.55497,58.9564],[15.58599,58.8965],[15.53074,58.86455],[15.44065,58.86417],[15.45402,58.82106],[15.42427,58.82199],[15.41358,58.8069],[15.40286,58.84195],[15.3814,58.84693],[15.34759,58.82921],[15.32527,58.85929],[15.29518,58.84979],[15.26282,58.86514],[15.24696,58.83834],[15.21901,58.84275],[15.19826,58.81473],[15.13812,58.82065],[15.11907,58.79084],[15.13252,58.78705],[15.06695,58.75436],[15.03454,58.70429],[15.01158,58.70558],[14.97246,58.6834],[14.92922,58.69682],[14.80665,58.66505],[14.77882,58.64617],[14.69893,58.69663],[14.69123,58.74012],[14.62165,58.73735]]]}},{"type":"Feature","id":"19","properties":{"code":"19"},"geometry":{"type":"Polygon","coordinates":[[[15.72654,59.2234],[15.69168,59.27053],[15.6077,59.28873],[15.63532,59.33395],[15.59938,59.37322],[15.60397,59.39655],[15.62938,59.4046],[15.73016,59.40857],[15.71283,59.4758],[15.68548,59.47742],[15.71727,59.51936],[15.70475,59.53894],[15.62849,59.52006],[15.63664,59.59124],[15.61569,59.63047],[15.54595,59.62862],[15.51506,59.64233],[15.55397,59.72361],[15.5121,59.78751],[15.5054,59.79607],[15.42588,59.79556],[15.45697,59.83531],[15.42224,59.85415],[15.46045,59.89466],[15.48779,59.89829],[15.47339,59.9097],[15.49297,59.93604],[15.53123,59.95716],[15.60198,59.94806],[15.62346,59.93414],[15.68175,59.93792],[15.71954,59.97373],[15.6986,60.01536],[15.73188,60.02552],[15.68234,60.05199],[15.70657,60.0451],[15.73808,60.08006],[15.7123,60.08194],[15.765,60.13063],[15.72636,60.1283],[15.72537,60.14491],[15.76704,60.14809],[15.80142,60.17748],[15.88198,60.1663],[15.94626,60.18498],[16.02395,60.18215],[16.05188,60.14861],[16.13221,60.13863],[16.16387,60.1203],[16.1418,60.0925],[16.18413,60.076],[16.22267,60.08252],[16.2887,60.06993],[16.3872,60.08141],[16.43807,60.12477],[16.53895,60.13739],[16.52703,60.16462],[16.54359,60.17513],[16.70479,60.19509],[16.7473,60.13594],[16.69197,60.08334],[16.72747,60.04337],[16.71618,60.01086],[16.74122,59.98067],[16.7892,59.96576],[16.76136,59.95115],[16.79433,59.94587],[16.80212,59.90868],[16.77306,59.89427],[16.80051,59.86962],[16.83713,59.86155],[16.80101,59.8441],[16.81809,59.83647],[16.80804,59.81571],[16.72753,59.77489],[16.85438,59.66735],[16.9213,59.54763],[16.96591,59.52035],[16.9506,59.49396],[16.88451,59.47996],[16.8338,59.4984],[16.7569,59.50203],[16.71138,59.48806],[16.66558,59.49228],[16.41073,59.45976],[16.37151,59.46729],[16.3227,59.45288],[16.25426,59.45246],[16.24968,59.40954],[16.30668,59.39939],[16.27365,59.38853],[16.26648,59.36195],[16.15768,59.34624],[16.07232,59.35197],[16.03513,59.36926],[15.95437,59.34944],[15.94247,59.32275],[15.91119,59.31563],[15.90251,59.29636],[15.88056,59.30309],[15.87712,59.28018],[15.86514,59.28617],[15.89274,59.23048],[15.76204,59.19792],[15.79817,59.23052],[15.72654,59.2234]]]}},{"type":"Feature","id":"20","properties":{"code":"20"},"geometry":{"type":"Polygon","coordinates":[[[15.00805,60.05676],[14.90478,60.05134],[14.83818,60.08836],[14.8507,60.10419],[14.80766,60.11093],[14.73734,60.08175],[14.75363,59.99718],[14.43704,60.02572],[14.2127,60.09574],[14.19689,60.16328],[14.1492,60.23066],[14.02368,60.22884],[14.02291,60.24235],[13.95107,60.251],[14.01193,60.19111],[13.96552,60.1752],[13.82797,60.25477],[13.67083,60.40336],[13.54234,60.42247],[13.46808,60.45942],[13.24877,60.68611],[13.19418,60.68479],[13.15947,60.7551],[13.08164,60.80582],[12.6987,60.99812],[12.67023,61.056],[12.70703,61.14327],[12.79035,61.19705],[12.87085,61.3565],[12.56932,61.56875],[12.41961,61.56298],[12.13767,61.72382],[12.29937,62.2675],[12.60781,62.21478],[12.80655,62.2202],[12.90264,62.14185],[12.95144,62.13342],[13.00348,62.06576],[13.0386,62.07143],[13.15868,62.01966],[13.28614,62.05808],[13.29354,62.01162],[13.39193,62.00081],[13.20032,61.9291],[13.26132,61.91282],[13.38316,61.83397],[13.51154,61.70976],[13.49733,61.702],[13.49623,61.71349],[13.48992,61.68999],[13.55922,61.6435],[13.59838,61.65633],[13.97679,61.6214],[14.28509,61.60825],[14.33613,61.59937],[14.39458,61.56391],[14.44649,61.59459],[14.67663,61.59125],[14.65382,61.56119],[14.67496,61.52828],[14.65588,61.50089],[14.67981,61.48612],[14.73077,61.49664],[14.90023,61.4966],[15.09322,61.48412],[15.15326,61.59579],[15.20496,61.50387],[15.30083,61.42612],[15.65735,61.21562],[15.68032,61.11327],[15.76196,61.04964],[15.92135,61.00766],[16.13101,60.99214],[16.25515,60.86383],[16.38625,60.78681],[16.37701,60.74356],[16.30763,60.70619],[16.3178,60.68946],[16.23841,60.62311],[16.13649,60.61031],[16.19482,60.53531],[16.27133,60.49222],[16.25124,60.4866],[16.27941,60.48547],[16.39262,60.37933],[16.52959,60.34784],[16.61518,60.27887],[16.62933,60.23857],[16.69144,60.21487],[16.70479,60.19509],[16.54359,60.17513],[16.52703,60.16462],[16.53895,60.13739],[16.43807,60.12477],[16.3872,60.08141],[16.2887,60.06993],[16.22267,60.08252],[16.18413,60.076],[16.1418,60.0925],[16.16387,60.1203],[16.13221,60.13863],[16.05188,60.14861],[16.02395,60.18215],[15.94626,60.18498],[15.88198,60.1663],[15.80142,60.17748],[15.76704,60.14809],[15.72537,60.14491],[15.72636,60.1283],[15.765,60.13063],[15.7123,60.08194],[15.73808,60.08006],[15.70657,60.0451],[15.68234,60.05199],[15.73188,60.02552],[15.6986,60.01536],[15.71954,59.97373],[15.68175,59.93792],[15.62346,59.93414],[15.60198,59.94806],[15.53123,59.95716],[15.47339,59.9097],[15.48779,59.89829],[15.46045,59.89466],[15.42224,59.85415],[15.36465,59.87713],[15.20542,60.00178],[15.12546,60.00842],[15.07768,60.04112],[15.04763,60.04948],[15.03404,60.03918],[15.00805,60.05676]]]}},{"type":"Feature","id":"21","properties":{"code":"21"},"geometry":{"type":"Polygon","coordinates":[[[16.54275,60.33998],[16.39262,60.37933],[16.27941,60.48547],[16.25124,60.4866],[16.27133,60.49222],[16.19482,60.53531],[16.13649,60.61031],[16.23841,60.62311],[16.3178,60.68946],[16.30763,60.70619],[16.37701,60.74356],[16.38625,60.78681],[16.25515,60.86383],[16.13101,60.99214],[15.92135,61.00766],[15.76196,61.04964],[15.68032,61.11327],[15.65735,61.21562],[15.30083,61.42612],[15.20496,61.50387],[15.15326,61.59579],[15.09322,61.48412],[14.90023,61.4966],[14.73077,61.49664],[14.67935,61.48616],[14.65588,61.50089],[14.67496,61.52828],[14.65382,61.56119],[14.67663,61.59125],[14.44649,61.59459],[14.49938,61.62588],[14.52476,61.78459],[14.68638,61.90162],[14.78524,61.80465],[14.85628,61.78359],[14.76089,61.86414],[14.80584,61.8862],[14.86537,61.80899],[14.92785,61.82131],[14.90938,61.88054],[15.04496,61.86801],[15.04758,61.82388],[15.0918,61.81912],[15.10863,61.84397],[15.08544,61.89617],[15.11589,61.89444],[15.11247,61.93546],[15.14062,61.95218],[15.11056,61.95683],[15.09214,61.99685],[15.41715,62.11139],[15.42925,62.1449],[15.39924,62.19484],[15.35674,62.21362],[15.32612,62.27199],[15.50535,62.33863],[15.61316,62.34349],[16.01333,62.25922],[16.23116,62.2343],[16.52093,62.23301],[16.80141,62.20283],[16.96184,62.16294],[17.20704,62.16122],[17.2164,62.15024],[17.31967,62.15701],[18.11638,62.08718],[17.76648,61.1711],[17.88378,60.93466],[17.95716,60.90691],[17.7095,60.70837],[17.39559,60.68576],[17.38189,60.67694],[17.28783,60.44681],[17.25661,60.42447],[17.25383,60.43521],[17.21764,60.43396],[17.1923,60.40412],[17.18908,60.38227],[17.21361,60.36499],[17.1987,60.30777],[17.15755,60.28742],[17.1031,60.28083],[17.1129,60.26932],[17.08241,60.25921],[17.05847,60.27297],[17.00206,60.27492],[16.9686,60.29525],[16.90888,60.2815],[16.88623,60.25356],[16.90491,60.23949],[16.80261,60.21212],[16.77904,60.18992],[16.70479,60.19509],[16.69144,60.21487],[16.62933,60.23857],[16.61518,60.27887],[16.54275,60.33998]]]}},{"type":"Feature","id":"22","properties":{"code":"22"},"geometry":{"type":"Polygon","coordinates":[[[16.13046,62.69121],[16.2457,62.71018],[16.3699,62.69627],[16.41877,62.77111],[16.67019,62.91688],[16.99898,62.94697],[16.60155,63.17313],[16.27544,63.30111],[16.28733,63.31095],[16.24776,63.31194],[16.09596,63.36918],[16.1315,63.38301],[16.13952,63.42127],[16.05079,63.44756],[16.01735,63.43064],[15.96583,63.44413],[15.99746,63.55064],[15.79207,63.65782],[15.89894,63.683],[15.9058,63.66422],[15.98152,63.65303],[16.08716,63.70432],[16.22387,63.66121],[16.2708,63.65974],[16.31928,63.69773],[16.3409,63.69049],[16.6142,63.71399],[16.56608,63.83134],[16.58125,63.8732],[16.71862,64.02738],[16.87832,63.95069],[17.73344,63.8801],[18.40648,63.99579],[18.47448,63.96372],[18.46541,63.93199],[18.40644,63.92659],[18.4855,63.84265],[18.59437,63.82255],[18.68443,63.82034],[18.72194,63.80639],[18.7573,63.81043],[18.81997,63.77348],[18.90147,63.78259],[18.96187,63.76047],[18.95066,63.72897],[18.99711,63.7313],[19.18184,63.59843],[19.60776,63.10202],[19.40954,63.06791],[18.28798,62.4175],[18.11638,62.08718],[17.31967,62.15701],[17.2164,62.15024],[17.20704,62.16122],[16.96184,62.16294],[16.80141,62.20283],[16.52093,62.23301],[16.23116,62.2343],[16.01333,62.25922],[15.61316,62.34349],[15.50535,62.33863],[15.32612,62.27199],[15.2846,62.29295],[15.15264,62.24998],[14.93951,62.32033],[14.86528,62.39078],[14.87514,62.40225],[14.80123,62.40406],[14.7964,62.46454],[14.85042,62.4668],[14.78109,62.59077],[14.96712,62.6008],[15.09354,62.58407],[15.12768,62.55909],[15.2451,62.6004],[15.63959,62.63479],[15.96538,62.71278],[16.13046,62.69121]]]}},{"type":"Feature","id":"23","properties":{"code":"23"},"geometry":{"type":"Polygon","coordinates":[[[14.80123,62.40406],[14.87514,62.40225],[14.86528,62.39078],[14.93951,62.32033],[15.15264,62.24998],[15.2846,62.29295],[15.32612,62.27199],[15.35674,62.21362],[15.39924,62.19484],[15.42925,62.1449],[15.41715,62.11139],[15.09214,61.99685],[15.11056,61.95683],[15.14062,61.95218],[15.11247,61.93546],[15.11589,61.89444],[15.08544,61.89617],[15.10863,61.84397],[15.0918,61.81912],[15.04758,61.82388],[15.04496,61.86801],[14.90938,61.88054],[14.92785,61.82131],[14.86537,61.80899],[14.80584,61.8862],[14.76089,61.86414],[14.85628,61.78359],[14.78524,61.80465],[14.68638,61.90162],[14.67294,61.89662],[14.52476,61.78459],[14.49938,61.62588],[14.39458,61.56391],[14.33613,61.59937],[14.28509,61.60825],[13.97679,61.6214],[13.59838,61.65633],[13.55922,61.6435],[13.48992,61.68999],[13.49623,61.71349],[13.49733,61.702],[13.51154,61.70976],[13.38316,61.83397],[13.26132,61.91282],[13.20032,61.9291],[13.39193,62.00081],[13.29354,62.01162],[13.28614,62.05808],[13.15868,62.01966],[13.0386,62.07143],[13.00348,62.06576],[12.95144,62.13342],[12.90264,62.14185],[12.80655,62.2202],[12.60781,62.21478],[12.29937,62.2675],[12.05614,62.61192],[12.13638,62.74792],[12.07469,62.90255],[12.21823,63.00033],[11.97458,63.26923],[12.21288,63.47859],[12.14977,63.59395],[12.29946,63.67198],[12.33058,63.71507],[12.68357,63.97422],[12.92672,64.05795],[13.21111,64.09537],[13.7154,64.04629],[13.96753,64.00797],[14.15711,64.19506],[14.11387,64.46248],[14.08523,64.47825],[13.89118,64.50713],[13.65426,64.58034],[13.70547,64.63996],[14.32599,65.11892],[14.61303,65.00236],[14.69751,64.99049],[14.71174,64.96075],[14.77853,64.93983],[14.77231,64.91355],[14.84138,64.8924],[14.83737,64.87815],[14.97393,64.84614],[15.03527,64.79141],[15.03291,64.7604],[15.18624,64.74046],[15.29118,64.67749],[15.33445,64.66904],[15.34145,64.64671],[15.24095,64.63483],[15.31558,64.62072],[15.37009,64.5837],[15.42773,64.58343],[15.43962,64.5572],[15.52076,64.53215],[15.57952,64.44343],[15.64717,64.44798],[15.63617,64.5196],[15.70437,64.538],[15.74025,64.404],[15.8691,64.38198],[15.85356,64.37561],[16.02235,64.3328],[16.01971,64.26909],[16.04255,64.24887],[16.14477,64.26765],[16.21925,64.26398],[16.71862,64.02738],[16.58125,63.8732],[16.56608,63.83134],[16.6142,63.71399],[16.3409,63.69049],[16.31928,63.69773],[16.2708,63.65974],[16.22387,63.66121],[16.08716,63.70432],[15.98152,63.65303],[15.9058,63.66422],[15.89894,63.683],[15.79207,63.65782],[15.99746,63.55064],[15.96583,63.44413],[16.01735,63.43064],[16.05079,63.44756],[16.13952,63.42127],[16.1315,63.38301],[16.09596,63.36918],[16.24776,63.31194],[16.28733,63.31095],[16.27544,63.30111],[16.60155,63.17313],[16.99898,62.94697],[16.67019,62.91688],[16.41877,62.77111],[16.3699,62.69627],[16.2457,62.71018],[16.13046,62.69121],[15.96538,62.71278],[15.63959,62.63479],[15.2451,62.6004],[15.12768,62.55909],[15.09354,62.58407],[14.96712,62.6008],[14.78109,62.59077],[14.85042,62.4668],[14.7964,62.46454],[14.80123,62.40406]]]}},{"type":"Feature","id":"24","properties":{"code":"24"},"geometry":{"type":"Polygon","coordinates":[[[18.81997,63.77348],[18.7573,63.81043],[18.72194,63.80639],[18.68443,63.82034],[18.59437,63.82255],[18.4855,63.84265],[18.40644,63.92659],[18.46541,63.93199],[18.47448,63.96372],[18.40648,63.99579],[17.73344,63.8801],[16.87832,63.95069],[16.21925,64.26398],[16.14477,64.26765],[16.04255,64.24887],[16.01971,64.26909],[16.02235,64.3328],[15.85356,64.37561],[15.8691,64.38198],[15.74025,64.404],[15.70437,64.538],[15.63617,64.5196],[15.64717,64.44798],[15.57952,64.44343],[15.52076,64.53215],[15.43962,64.5572],[15.42773,64.58343],[15.37009,64.5837],[15.31558,64.62072],[15.24095,64.63483],[15.34145,64.64671],[15.33445,64.66904],[15.29118,64.67749],[15.18624,64.74046],[15.03291,64.7604],[15.03527,64.79141],[14.97393,64.84614],[14.83737,64.87815],[14.84138,64.8924],[14.77231,64.91355],[14.77853,64.93983],[14.71174,64.96075],[14.69751,64.99049],[14.61303,65.00236],[14.32599,65.11892],[14.3788,65.24762],[14.50683,65.30973],[14.49877,65.5213],[14.54147,65.70075],[14.62548,65.81181],[14.51629,66.13258],[15.03568,66.15356],[15.48473,66.28246],[15.45394,66.34535],[15.7714,66.29082],[16.52919,66.05359],[16.77195,66.03203],[17.67562,65.65622],[18.0311,65.60253],[18.03396,65.58767],[18.0723,65.57671],[18.10157,65.59414],[18.14721,65.58873],[18.14433,65.57654],[18.17796,65.57654],[18.19523,65.55488],[18.34205,65.4939],[18.42556,65.49681],[18.5802,65.4401],[18.72034,65.43668],[18.75123,65.4046],[18.83392,65.37141],[18.87343,65.37195],[19.01531,65.33079],[19.03317,65.3074],[19.09672,65.30511],[19.26016,65.25474],[19.27294,65.24087],[19.25184,65.24213],[19.2442,65.21894],[19.33942,65.18672],[19.39035,65.14282],[19.60757,65.19864],[19.89482,65.38095],[20.80554,65.20928],[21.2659,65.16349],[21.94545,64.90236],[21.81681,64.83612],[22.06551,64.50539],[22.06808,64.39603],[21.90001,64.22609],[21.50213,64.04151],[21.39706,63.95724],[21.47097,63.81805],[21.45958,63.73501],[21.42429,63.68177],[21.36738,63.63358],[20.93621,63.52186],[20.69287,63.48518],[20.39621,63.3335],[20.16357,63.16643],[19.97312,63.16805],[19.84325,63.13539],[19.60776,63.10202],[19.18184,63.59843],[18.99711,63.7313],[18.95066,63.72897],[18.96187,63.76047],[18.90147,63.78259],[18.81997,63.77348]]]}},{"type":"Feature","id":"25","properties":{"code":"25"},"geometry":{"type":"Polygon","coordinates":[[[21.2659,65.16349],[20.80554,65.20928],[19.89482,65.38095],[19.60757,65.19864],[19.39035,65.14282],[19.33942,65.18672],[19.2442,65.21894],[19.25184,65.24213],[19.27294,65.24087],[19.26016,65.25474],[19.09672,65.30511],[19.03317,65.3074],[19.01531,65.33079],[18.87343,65.37195],[18.83392,65.37141],[18.75123,65.4046],[18.72034,65.43668],[18.5802,65.4401],[18.42556,65.49681],[18.34205,65.4939],[18.19523,65.55488],[18.17796,65.57654],[18.14433,65.57654],[18.14721,65.58873],[18.10157,65.59414],[18.0723,65.57671],[18.03396,65.58767],[18.0311,65.60253],[17.67562,65.65622],[16.77195,66.03203],[16.52919,66.05359],[15.7714,66.29082],[15.45394,66.34535],[15.37723,66.48431],[15.62137,66.59434],[16.03876,66.91245],[16.19402,66.98259],[16.38776,67.04546],[16.4041,67.20497],[16.08983,67.43528],[16.158,67.51916],[16.40757,67.53403],[16.49488,67.59446],[16.55628,67.64719],[16.73812,67.91421],[17.18051,68.05046],[17.28152,68.11881],[17.66475,68.03838],[17.89976,67.96937],[18.15136,68.19879],[18.10109,68.40604],[18.12592,68.53651],[18.40569,68.58188],[18.62122,68.50696],[18.9838,68.51696],[19.9214,68.35601],[20.22654,68.49081],[19.9375,68.55794],[20.05225,68.59107],[20.20284,68.66592],[20.33587,68.80231],[20.30659,68.92618],[20.06005,69.04576],[20.54864,69.05997],[20.77492,69.03265],[20.91167,68.96874],[20.89235,68.94167],[20.84354,68.93646],[20.9034,68.90028],[20.87805,68.89352],[20.99667,68.89675],[21.23665,68.81296],[21.29899,68.76239],[21.39113,68.76451],[21.42981,68.69159],[21.62371,68.66234],[21.70951,68.62546],[21.71743,68.5903],[21.88894,68.58438],[22.00629,68.53307],[22.04505,68.4792],[22.11545,68.48214],[22.15246,68.47011],[22.19274,68.48022],[22.22237,68.47299],[22.34812,68.48209],[22.34261,68.44465],[22.43347,68.46483],[22.46829,68.4413],[22.55567,68.43414],[22.57241,68.42217],[22.6392,68.4343],[22.64536,68.41706],[22.73429,68.38507],[22.79978,68.39358],[22.84461,68.38334],[22.84526,68.3607],[22.91608,68.33381],[22.97171,68.33226],[23.05663,68.30738],[23.07719,68.26695],[23.14349,68.24683],[23.15239,68.13673],[23.26035,68.15692],[23.30628,68.14928],[23.38863,68.0477],[23.53441,68.00587],[23.57362,67.97241],[23.65074,67.9609],[23.64314,67.91667],[23.51732,67.88481],[23.4777,67.84283],[23.4772,67.70166],[23.49237,67.66427],[23.55898,67.61996],[23.53971,67.57893],[23.50755,67.56336],[23.45608,67.56199],[23.48386,67.538],[23.39414,67.48539],[23.41188,67.46699],[23.4966,67.44604],[23.54751,67.4612],[23.70993,67.44573],[23.76364,67.42979],[23.71706,67.38592],[23.73947,67.34961],[23.77465,67.33743],[23.72311,67.28268],[23.56167,67.26165],[23.54626,67.22519],[23.59587,67.20754],[23.5514,67.171],[23.65505,67.10344],[23.67062,67.06682],[23.73769,67.01841],[23.86179,66.95435],[23.86467,66.91873],[23.93621,66.88356],[23.99535,66.8212],[23.98097,66.78559],[23.91113,66.79541],[23.91574,66.77187],[23.87939,66.76292],[23.90779,66.72112],[23.86471,66.65489],[23.88511,66.61509],[23.85799,66.55788],[23.7866,66.53669],[23.79512,66.51724],[23.73027,66.50872],[23.71928,66.47681],[23.65022,66.45498],[23.64343,66.42459],[23.68922,66.38742],[23.6456,66.30141],[23.72805,66.19516],[23.92066,66.1599],[23.93833,66.07672],[24.04537,66.00196],[24.04227,65.96321],[24.11793,65.92674],[24.15294,65.86258],[24.12556,65.85778],[24.15532,65.8155],[24.12755,65.77838],[24.17218,65.72528],[24.17768,65.66036],[24.13275,65.51537],[23.91203,65.36541],[23.68451,65.32751],[23.08975,65.28446],[23.02865,65.18263],[22.94864,65.13852],[22.84309,65.10533],[22.67139,65.08198],[22.49896,65.08643],[21.94545,64.90236],[21.48798,65.08557],[21.2659,65.16349]]]}}]}