{"type":"FeatureCollection","features":[{"type":"Feature","id":"0115R001","properties":{"code":"0115R001","name":"Karby-Brottby"},"geometry":{"type":"Polygon","coordinates":[[[18.23952,59.57425],[18.24228,59.57388],[18.24472,59.57319],[18.24679,59.5722],[18.24805,59.57121],[18.2544,59.57036],[18.25706,59.56971],[18.25969,59.56852],[18.26145,59.56697],[18.26243,59.56481],[18.26204,59.56301],[18.26015,59.56109],[18.25871,59.5603],[18.25661,59.55955],[18.25705,59.55821],[18.25682,59.5568],[18.25589,59.55543],[18.25433,59.55425],[18.25255,59.55339],[18.25015,59.55267],[18.24746,59.55227],[18.24424,59.55216],[18.24067,59.55236],[18.23823,59.55218],[18.23617,59.55224],[18.23352,59.55264],[18.23148,59.55324],[18.22895,59.55268],[18.2269,59.55248],[18.22285,59.55257],[18.21724,59.55206],[18.21305,59.5521],[18.20945,59.55257],[18.20488,59.55399],[18.20263,59.55534],[18.20151,59.55641],[18.20065,59.55786],[18.20042,59.55939],[18.20074,59.56051],[18.20146,59.56158],[18.20377,59.56337],[18.20364,59.5646],[18.20415,59.56604],[18.20628,59.56806],[18.20953,59.56943],[18.21295,59.57006],[18.21622,59.57018],[18.21952,59.56982],[18.22262,59.57025],[18.22619,59.5702],[18.22821,59.57201],[18.23084,59.5732],[18.23534,59.57411],[18.23952,59.57425]]]}},{"type":"Feature","id":"0115R002","properties":{"code":"0115R002","name":"Lindholmen"},"geometry":{"type":"Polygon","coordinates":[[[18.10497,59.60395],[18.10772,59.60368],[18.11026,59.60307],[18.1131,59.60188],[18.11453,59.60104],[18.11585,59.59978],[18.11728,59.59765],[18.1176,59.59659],[18.11909,59.59562],[18.12009,59.5946],[18.12087,59.59266],[18.12306,59.5922],[18.12504,59.59151],[18.12701,59.59042],[18.12815,59.58941],[18.12911,59.58768],[18.12894,59.58578],[18.128,59.5844],[18.12559,59.58218],[18.12162,59.57979],[18.1193,59.57764],[18.11727,59.5766],[18.1148,59.57585],[18.11188,59.57542],[18.11053,59.57432],[18.10913,59.57355],[18.10747,59.57294],[18.10539,59.57245],[18.10375,59.57164],[18.10192,59.57104],[18.09791,59.57044],[18.09303,59.57053],[18.08905,59.57126],[18.08589,59.57269],[18.08422,59.57426],[18.08262,59.5773],[18.08257,59.57872],[18.08346,59.5804],[18.08343,59.58174],[18.08398,59.58308],[18.08516,59.5844],[18.08891,59.58724],[18.08958,59.58811],[18.08736,59.58921],[18.08573,59.59074],[18.0846,59.59366],[18.08465,59.59546],[18.0856,59.59699],[18.08758,59.59849],[18.09055,59.59968],[18.09342,59.60024],[18.09496,59.60151],[18.09704,59.60264],[18.10075,59.60368],[18.10497,59.60395]]]}},{"type":"Feature","id":"0115R003","properties":{"code":"0115R003","name":"Vallentuna centrala tätort"},"geometry":{"type":"Polygon","coordinates":[[[18.08096,59.54871],[18.08005,59.54769],[18.0796,59.54664],[18.07989,59.54485],[18.07968,59.54276],[18.08042,59.53979],[18.08217,59.54013],[18.08489,59.53887],[18.08472,59.53859],[18.08749,59.53869],[18.09068,59.53849],[18.09008,59.53686],[18.09028,59.53408],[18.09172,59.53415],[18.09387,59.53357],[18.09722,59.53209],[18.0976,59.53078],[18.0929,59.53023],[18.0908,59.53017],[18.08096,59.5315],[18.07831,59.53153],[18.07619,59.52848],[18.07504,59.52754],[18.07265,59.52616],[18.07187,59.5265],[18.07101,59.52623],[18.06788,59.52776],[18.06373,59.5277],[18.06646,59.53084],[18.066,59.53087],[18.06673,59.53272],[18.06725,59.53266],[18.068,59.53382],[18.06558,59.5341],[18.06191,59.53483],[18.06009,59.53545],[18.05665,59.5373],[18.0573,59.53752],[18.06114,59.53798],[18.0639,59.53928],[18.06576,59.53975],[18.0668,59.53982],[18.06707,59.54372],[18.06479,59.54375],[18.06319,59.54354],[18.06277,59.5472],[18.06215,59.54734],[18.062,59.54764],[18.0622,59.54846],[18.06453,59.54868],[18.06377,59.54951],[18.06487,59.54974],[18.06509,59.55065],[18.06555,59.551],[18.06798,59.55098],[18.06859,59.55136],[18.07014,59.55053],[18.06985,59.54989],[18.07018,59.54996],[18.07125,59.54969],[18.07171,59.55009],[18.07289,59.54972],[18.07322,59.54894],[18.07389,59.54877],[18.07399,59.54971],[18.07462,59.55025],[18.07647,59.55117],[18.07895,59.55407],[18.08038,59.55384],[18.08063,59.55282],[18.08273,59.55252],[18.08096,59.54871]]]}},{"type":"Feature","id":"0115R004","properties":{"code":"0115R004","name":"Vallentuna landsbygd"},"geometry":{"type":"Polygon","coordinates":[[[18.33203,59.67783],[18.33257,59.67567],[18.33459,59.67363],[18.33918,59.67061],[18.34732,59.66598],[18.35115,59.66292],[18.35325,59.66166],[18.35892,59.65918],[18.36523,59.65555],[18.36825,59.65432],[18.37047,59.65424],[18.37971,59.65523],[18.38945,59.65141],[18.38354,59.63972],[18.37942,59.63533],[18.37739,59.63417],[18.37448,59.63035],[18.37501,59.62879],[18.38035,59.62746],[18.39202,59.62023],[18.39329,59.61337],[18.39059,59.61056],[18.38726,59.60265],[18.40113,59.60058],[18.40832,59.60041],[18.41444,59.59856],[18.42731,59.59202],[18.43546,59.57097],[18.43386,59.56881],[18.43717,59.56637],[18.43213,59.56517],[18.43152,59.56537],[18.4305,59.56518],[18.42955,59.56485],[18.42952,59.56464],[18.42093,59.56223],[18.4167,59.55797],[18.41248,59.55923],[18.41068,59.55794],[18.40948,59.55778],[18.40897,59.55802],[18.40806,59.55947],[18.40861,59.56039],[18.40734,59.56078],[18.40758,59.56108],[18.40739,59.56209],[18.40801,59.56266],[18.40668,59.56378],[18.40591,59.56356],[18.40501,59.5617],[18.4026,59.56277],[18.39717,59.56194],[18.38204,59.559],[18.36852,59.55877],[18.36839,59.55862],[18.37434,59.55748],[18.38074,59.55321],[18.37881,59.54748],[18.37826,59.54442],[18.37087,59.54271],[18.36693,59.54237],[18.36605,59.54471],[18.35206,59.54605],[18.34208,59.54515],[18.33808,59.5444],[18.32832,59.54409],[18.32474,59.54016],[18.32286,59.53896],[18.31965,59.53608],[18.31841,59.53306],[18.30884,59.53144],[18.30148,59.53081],[18.29924,59.53088],[18.29193,59.52951],[18.2879,59.52793],[18.26269,59.524],[18.26025,59.52395],[18.26001,59.52289],[18.26206,59.51963],[18.26403,59.51543],[18.2575,59.51076],[18.25777,59.50702],[18.25238,59.50641],[18.24499,59.50513],[18.23775,59.5058],[18.23168,59.50575],[18.22874,59.5047],[18.2248,59.50476],[18.2195,59.50417],[18.21709,59.50179],[18.21547,59.49956],[18.21143,59.49654],[18.2094,59.49613],[18.20493,59.49349],[18.20174,59.49224],[18.19688,59.49784],[18.17174,59.50322],[18.16723,59.50297],[18.1585,59.49993],[18.14876,59.49752],[18.14658,59.49607],[18.14544,59.49602],[18.14515,59.49519],[18.14316,59.49425],[18.14295,59.49365],[18.1416,59.49226],[18.14706,59.48564],[18.1386,59.48881],[18.13871,59.49243],[18.13154,59.49393],[18.12438,59.49337],[18.11791,59.49441],[18.11582,59.49561],[18.11396,59.50154],[18.10969,59.5028],[18.10835,59.50281],[18.1082,59.50247],[18.10723,59.50249],[18.10674,59.50443],[18.10443,59.50685],[18.10409,59.50814],[18.10323,59.50931],[18.10434,59.51085],[18.10455,59.51263],[18.10542,59.51476],[18.1069,59.51394],[18.10927,59.51311],[18.11149,59.51265],[18.11367,59.51244],[18.11656,59.5125],[18.11884,59.5128],[18.12141,59.51347],[18.1231,59.51419],[18.12665,59.51634],[18.12883,59.51802],[18.1299,59.51931],[18.13038,59.52107],[18.13315,59.52216],[18.13464,59.52299],[18.13628,59.52443],[18.13919,59.52598],[18.14065,59.52762],[18.14108,59.52957],[18.14035,59.53133],[18.1389,59.53271],[18.13573,59.53454],[18.13256,59.53564],[18.12685,59.53673],[18.12389,59.53692],[18.12097,59.53673],[18.12106,59.53753],[18.12334,59.53883],[18.12477,59.5404],[18.12747,59.54155],[18.12962,59.54311],[18.13059,59.54419],[18.13166,59.5462],[18.13144,59.54941],[18.13095,59.55082],[18.12862,59.55334],[18.12587,59.55544],[18.12322,59.55664],[18.1198,59.55741],[18.11545,59.55772],[18.11149,59.55734],[18.11064,59.55839],[18.10946,59.55929],[18.10743,59.56027],[18.10539,59.56087],[18.10408,59.56189],[18.10163,59.56312],[18.09922,59.5639],[18.09584,59.5644],[18.09175,59.56431],[18.08673,59.56443],[18.08255,59.56372],[18.08023,59.56284],[18.07832,59.56164],[18.07704,59.56021],[18.07656,59.55876],[18.07463,59.5585],[18.07108,59.55947],[18.06687,59.55974],[18.06411,59.55947],[18.06067,59.55876],[18.05724,59.55872],[18.05447,59.55835],[18.05145,59.55743],[18.0485,59.55563],[18.046,59.55472],[18.04522,59.55596],[18.04416,59.55689],[18.03817,59.55992],[18.0359,59.5606],[18.03324,59.56104],[18.03106,59.56114],[18.02829,59.56096],[18.02506,59.56024],[18.02288,59.55931],[18.02075,59.55771],[18.01974,59.55644],[18.01812,59.5505],[18.0184,59.54849],[18.01948,59.54696],[18.02159,59.54547],[18.02406,59.5445],[18.02737,59.54383],[18.03076,59.54371],[18.03118,59.54232],[18.03196,59.54129],[18.03351,59.54011],[18.03506,59.53936],[18.03685,59.53878],[18.03907,59.53835],[18.04357,59.53687],[18.04678,59.53633],[18.04932,59.53492],[18.05068,59.53375],[18.05444,59.5314],[18.05605,59.52991],[18.05912,59.52848],[18.057,59.52692],[18.05606,59.5252],[18.05392,59.52489],[18.05157,59.52422],[18.04883,59.52276],[18.0442,59.52112],[18.04246,59.52004],[18.04135,59.51879],[18.04087,59.5176],[18.0396,59.51673],[18.03848,59.51549],[18.03782,59.51342],[18.03622,59.51073],[18.03585,59.50914],[18.02769,59.51058],[18.02003,59.51118],[18.01716,59.50991],[18.0156,59.50698],[18.01194,59.50788],[18.00918,59.50794],[18.00986,59.50919],[18.00895,59.51036],[18.00909,59.51127],[18.00947,59.51192],[18.01072,59.51244],[18.01299,59.5157],[18.01249,59.51764],[18.01139,59.51849],[18.0136,59.5194],[18.01449,59.5213],[18.01453,59.52339],[18.01066,59.52251],[18.00569,59.522],[18.00081,59.52038],[18.00042,59.52165],[18.0004,59.52637],[18.00072,59.52788],[17.99768,59.53125],[17.99127,59.53418],[17.98548,59.53445],[17.98323,59.53561],[17.9822,59.53747],[17.98137,59.53811],[17.98119,59.54021],[17.9796,59.54139],[17.98122,59.54222],[17.98086,59.54256],[17.97854,59.54311],[17.97553,59.54332],[17.96788,59.54505],[17.97062,59.54827],[17.97183,59.55073],[17.97301,59.5514],[17.9735,59.55628],[17.9768,59.55784],[17.9759,59.55998],[17.97601,59.56222],[17.97565,59.56379],[17.98375,59.56447],[17.98458,59.56552],[17.9846,59.56607],[17.98711,59.56642],[17.99369,59.56696],[17.99636,59.56571],[17.99754,59.56647],[17.99848,59.566],[18.00172,59.56666],[18.00316,59.56648],[18.00406,59.56701],[18.00719,59.56783],[18.01005,59.56931],[18.01028,59.57008],[18.01336,59.57077],[18.01778,59.57036],[18.02069,59.56765],[18.02245,59.56798],[18.02882,59.56778],[18.01807,59.57619],[18.01526,59.57494],[18.01395,59.57466],[18.01208,59.57744],[18.00967,59.57689],[18.01024,59.57878],[18.01109,59.57958],[18.01086,59.58179],[18.01372,59.5881],[18.01679,59.59306],[18.01357,59.59613],[18.01486,59.59689],[18.01574,59.59985],[18.01469,59.6014],[18.01471,59.60262],[18.01364,59.60587],[18.01329,59.61001],[18.01502,59.61641],[18.01316,59.62376],[18.02032,59.62593],[18.01534,59.63782],[18.01837,59.63707],[18.02365,59.63682],[18.0276,59.63626],[18.02961,59.63569],[18.03355,59.63535],[18.03696,59.63562],[18.049,59.63583],[18.05529,59.63652],[18.06179,59.63666],[18.06606,59.63713],[18.0716,59.63665],[18.08193,59.63711],[18.09154,59.63543],[18.09594,59.63672],[18.09231,59.64351],[18.09364,59.65038],[18.0888,59.65631],[18.09186,59.65869],[18.10676,59.6628],[18.11542,59.66673],[18.11813,59.6682],[18.123,59.66964],[18.13011,59.67041],[18.12926,59.67202],[18.12756,59.67291],[18.12671,59.67368],[18.12878,59.67441],[18.12813,59.67717],[18.14023,59.67992],[18.14295,59.68085],[18.1453,59.68119],[18.14798,59.6822],[18.15329,59.68356],[18.1564,59.6745],[18.1566,59.67238],[18.15879,59.66834],[18.16456,59.66903],[18.16737,59.66902],[18.17011,59.66921],[18.17196,59.66954],[18.18091,59.66765],[18.18459,59.66772],[18.18757,59.66875],[18.1917,59.66963],[18.19595,59.67021],[18.20097,59.6695],[18.20795,59.66802],[18.21204,59.66787],[18.213,59.67021],[18.2252,59.66804],[18.22634,59.6689],[18.23267,59.66983],[18.23764,59.67034],[18.24031,59.67134],[18.24549,59.67281],[18.25226,59.67353],[18.25451,59.67424],[18.25999,59.67689],[18.27515,59.68318],[18.28587,59.68632],[18.29078,59.68525],[18.29321,59.67926],[18.29905,59.67672],[18.30457,59.68065],[18.3117,59.68333],[18.31635,59.68536],[18.31927,59.68722],[18.32078,59.68914],[18.33203,59.67783]],[[18.22821,59.57201],[18.22619,59.5702],[18.22262,59.57025],[18.21952,59.56982],[18.21622,59.57018],[18.21229,59.56999],[18.20891,59.56925],[18.20584,59.56776],[18.20397,59.56571],[18.20364,59.5646],[18.20377,59.56337],[18.20146,59.56158],[18.20048,59.55974],[18.20046,59.55853],[18.201,59.55715],[18.20185,59.55603],[18.20339,59.55482],[18.20555,59.55371],[18.20867,59.55276],[18.21158,59.55222],[18.21393,59.55207],[18.21738,59.55207],[18.22285,59.55257],[18.22496,59.55243],[18.22757,59.55253],[18.23148,59.55324],[18.23352,59.55264],[18.23617,59.55224],[18.23823,59.55218],[18.24067,59.55236],[18.24356,59.55216],[18.24669,59.55222],[18.24952,59.55254],[18.25259,59.55341],[18.25479,59.55454],[18.25645,59.55611],[18.25706,59.55787],[18.25661,59.55955],[18.25871,59.5603],[18.26015,59.56109],[18.26127,59.562],[18.2622,59.56334],[18.26244,59.56444],[18.26214,59.56585],[18.26119,59.56729],[18.25969,59.56852],[18.25766,59.5695],[18.2557,59.5701],[18.24805,59.57121],[18.24679,59.5722],[18.24472,59.57319],[18.24228,59.57388],[18.23952,59.57425],[18.23599,59.57419],[18.23146,59.57339],[18.22821,59.57201]],[[18.08263,59.57727],[18.08422,59.57426],[18.08511,59.57328],[18.08681,59.57215],[18.08905,59.57126],[18.09162,59.57069],[18.09377,59.57048],[18.09786,59.57044],[18.10063,59.57075],[18.10316,59.57142],[18.10539,59.57245],[18.10861,59.57333],[18.11053,59.57432],[18.11188,59.57542],[18.11541,59.576],[18.11842,59.57713],[18.12017,59.5783],[18.12162,59.57979],[18.12559,59.58218],[18.128,59.5844],[18.12894,59.58578],[18.12919,59.5869],[18.12887,59.58835],[18.12785,59.58972],[18.12647,59.59078],[18.1249,59.59157],[18.12306,59.5922],[18.12087,59.59266],[18.12011,59.59457],[18.11909,59.59562],[18.1176,59.59659],[18.1171,59.59798],[18.11525,59.60045],[18.1131,59.60188],[18.11086,59.60286],[18.10903,59.60341],[18.10636,59.60386],[18.10418,59.60396],[18.1014,59.60378],[18.0988,59.60325],[18.09598,59.60212],[18.09342,59.60024],[18.09055,59.59968],[18.08821,59.59881],[18.08673,59.59796],[18.0856,59.59699],[18.08484,59.5959],[18.0845,59.59468],[18.08537,59.5914],[18.08695,59.58951],[18.08958,59.58811],[18.08891,59.58724],[18.0848,59.58408],[18.0838,59.58275],[18.08338,59.58139],[18.08346,59.5804],[18.08251,59.57838],[18.08263,59.57727]]]}},{"type":"Feature","id":"0115R005","properties":{"code":"0115R005","name":"Vallentuna södra tätort"},"geometry":{"type":"Polygon","coordinates":[[[18.06788,59.52776],[18.07101,59.52623],[18.07187,59.5265],[18.07219,59.52636],[18.07117,59.52517],[18.07104,59.52451],[18.07301,59.52006],[18.07276,59.51876],[18.0713,59.51741],[18.07219,59.51714],[18.07514,59.51734],[18.07747,59.51827],[18.079,59.51959],[18.08023,59.51954],[18.08473,59.52001],[18.08735,59.51974],[18.08745,59.5199],[18.08944,59.52003],[18.08967,59.52044],[18.09115,59.52052],[18.09156,59.52089],[18.1029,59.51801],[18.10715,59.51673],[18.10542,59.51476],[18.10455,59.51263],[18.10434,59.51085],[18.10323,59.50931],[18.10409,59.50814],[18.10443,59.50685],[18.10674,59.50443],[18.10723,59.50249],[18.10306,59.50254],[18.10317,59.50183],[18.10264,59.50185],[18.10198,59.50239],[18.1013,59.50241],[18.0996,59.5029],[18.0996,59.50326],[18.09461,59.50349],[18.07578,59.50548],[18.06602,59.50452],[18.06585,59.50483],[18.06093,59.5048],[18.06104,59.50514],[18.05217,59.50635],[18.03585,59.50914],[18.03622,59.51073],[18.03782,59.51342],[18.03848,59.51549],[18.0396,59.51673],[18.04087,59.5176],[18.04183,59.51943],[18.04368,59.52085],[18.04523,59.52156],[18.04883,59.52276],[18.05157,59.52422],[18.05392,59.52489],[18.05606,59.5252],[18.05652,59.52628],[18.0576,59.5275],[18.06098,59.52667],[18.06373,59.5277],[18.06788,59.52776]]]}},{"type":"Feature","id":"0115R006","properties":{"code":"0115R006","name":"Vallentuna västra tätort"},"geometry":{"type":"Polygon","coordinates":[[[18.09343,59.56443],[18.08739,59.56012],[18.08613,59.55877],[18.08275,59.55252],[18.08063,59.55282],[18.08038,59.55384],[18.07895,59.55407],[18.07647,59.55117],[18.07462,59.55025],[18.07399,59.54971],[18.07389,59.54877],[18.07322,59.54894],[18.07289,59.54972],[18.07171,59.55009],[18.07125,59.54969],[18.07018,59.54996],[18.06985,59.54989],[18.07014,59.55053],[18.06859,59.55136],[18.06798,59.55098],[18.06555,59.551],[18.06509,59.55065],[18.06487,59.54974],[18.06377,59.54951],[18.06453,59.54868],[18.0622,59.54846],[18.062,59.54764],[18.06215,59.54734],[18.06277,59.5472],[18.06319,59.54354],[18.06479,59.54375],[18.06707,59.54372],[18.0668,59.53982],[18.06576,59.53975],[18.0639,59.53928],[18.06114,59.53798],[18.0573,59.53752],[18.05665,59.5373],[18.06009,59.53545],[18.06191,59.53483],[18.06558,59.5341],[18.068,59.53382],[18.06725,59.53266],[18.06673,59.53272],[18.066,59.53087],[18.06646,59.53084],[18.06373,59.5277],[18.06098,59.52667],[18.0576,59.5275],[18.05912,59.52848],[18.05605,59.52991],[18.05444,59.5314],[18.05068,59.53375],[18.04932,59.53492],[18.04678,59.53633],[18.04357,59.53687],[18.03907,59.53835],[18.03685,59.53878],[18.03506,59.53936],[18.03351,59.54011],[18.03196,59.54129],[18.03118,59.54232],[18.03076,59.54371],[18.02737,59.54383],[18.02385,59.54456],[18.02113,59.54572],[18.01911,59.54737],[18.01828,59.54883],[18.01812,59.5505],[18.01974,59.55644],[18.02072,59.55769],[18.02241,59.55903],[18.02393,59.55982],[18.02629,59.56059],[18.029,59.56104],[18.03179,59.56113],[18.03454,59.56087],[18.03655,59.56043],[18.03924,59.55946],[18.04098,59.55839],[18.04375,59.55716],[18.04521,59.55598],[18.046,59.55472],[18.0485,59.55563],[18.05044,59.55694],[18.05202,59.55766],[18.05586,59.55858],[18.06067,59.55876],[18.06476,59.55957],[18.0676,59.55975],[18.07108,59.55947],[18.07463,59.5585],[18.07656,59.55876],[18.07704,59.56021],[18.07798,59.56134],[18.07976,59.5626],[18.08197,59.56354],[18.08394,59.56406],[18.08673,59.56443],[18.09175,59.56431],[18.09343,59.56443]]]}},{"type":"Feature","id":"0115R007","properties":{"code":"0115R007","name":"Vallentuna östra tätort"},"geometry":{"type":"Polygon","coordinates":[[[18.11146,59.5574],[18.11621,59.55771],[18.1198,59.55741],[18.12188,59.55703],[18.12542,59.5557],[18.12862,59.55334],[18.13045,59.55148],[18.13128,59.55013],[18.13176,59.54725],[18.13154,59.54585],[18.12962,59.54311],[18.12747,59.54155],[18.12477,59.5404],[18.12334,59.53883],[18.12106,59.53753],[18.12097,59.53673],[18.12389,59.53692],[18.12685,59.53673],[18.13194,59.53578],[18.13455,59.53504],[18.13621,59.5343],[18.13938,59.53234],[18.14057,59.53101],[18.14108,59.52957],[18.14081,59.52795],[18.13954,59.52627],[18.13826,59.52535],[18.13628,59.52443],[18.1341,59.52265],[18.13038,59.52107],[18.13005,59.51964],[18.12944,59.51864],[18.12664,59.51634],[18.1231,59.51419],[18.12141,59.51347],[18.1182,59.51269],[18.11501,59.51242],[18.11214,59.51256],[18.11004,59.51291],[18.10641,59.51418],[18.10553,59.51469],[18.10715,59.51673],[18.1029,59.51801],[18.09156,59.52089],[18.09115,59.52052],[18.08967,59.52044],[18.08944,59.52003],[18.08745,59.5199],[18.08735,59.51974],[18.08473,59.52001],[18.08023,59.51954],[18.079,59.51959],[18.07747,59.51827],[18.07514,59.51734],[18.07285,59.51707],[18.0713,59.51741],[18.07276,59.51876],[18.07301,59.52006],[18.07118,59.52388],[18.07117,59.52517],[18.07219,59.52636],[18.07265,59.52616],[18.07504,59.52754],[18.07616,59.52845],[18.07831,59.53153],[18.08096,59.5315],[18.0908,59.53017],[18.0929,59.53023],[18.0976,59.53078],[18.09722,59.53209],[18.09387,59.53357],[18.09172,59.53415],[18.09028,59.53408],[18.09008,59.53686],[18.09068,59.53849],[18.08749,59.53869],[18.08472,59.53859],[18.08489,59.53887],[18.08217,59.54013],[18.08042,59.53979],[18.07968,59.54276],[18.07989,59.54485],[18.0796,59.54664],[18.08005,59.54769],[18.08096,59.54871],[18.08547,59.55778],[18.08739,59.56012],[18.09343,59.56443],[18.09656,59.56435],[18.09982,59.56375],[18.10213,59.56289],[18.10408,59.56189],[18.10539,59.56087],[18.10743,59.56027],[18.10946,59.55929],[18.11146,59.5574]]]}}]}