{"type":"FeatureCollection","features":[{"type":"Feature","id":"0117R006","properties":{"code":"0117R006","name":"Norrgårdshöjden"},"geometry":{"type":"Polygon","coordinates":[[[18.30537,59.48747],[18.30647,59.48708],[18.30727,59.48653],[18.30777,59.48491],[18.30871,59.48346],[18.30843,59.48267],[18.30731,59.48128],[18.30711,59.48011],[18.30677,59.47988],[18.30509,59.48004],[18.30592,59.48092],[18.30484,59.48108],[18.30299,59.48184],[18.30206,59.4819],[18.30285,59.48285],[18.30391,59.48344],[18.30371,59.48537],[18.30239,59.48717],[18.30422,59.48752],[18.30537,59.48747]]]}},{"type":"Feature","id":"0117R007","properties":{"code":"0117R007","name":"Roslagskulla-Furusundsleden"},"geometry":{"type":"Polygon","coordinates":[[[18.5821,59.59954],[18.58379,59.59639],[18.58467,59.59563],[18.58427,59.59545],[18.58683,59.59072],[18.59174,59.58607],[18.59569,59.58367],[18.5964,59.58289],[18.60063,59.58461],[18.60805,59.58705],[18.61328,59.58208],[18.61899,59.58138],[18.62363,59.58111],[18.62836,59.5812],[18.62985,59.58051],[18.63028,59.58067],[18.6323,59.57887],[18.63331,59.57962],[18.63374,59.58062],[18.63352,59.58069],[18.63439,59.5818],[18.64313,59.5898],[18.64182,59.59308],[18.6426,59.59448],[18.65424,59.58367],[18.67118,59.57356],[18.6272,59.55874],[18.62229,59.55873],[18.60331,59.5531],[18.58936,59.54645],[18.57958,59.54355],[18.5815,59.53576],[18.55231,59.52179],[18.54263,59.51834],[18.52227,59.50531],[18.52604,59.50544],[18.5273,59.50221],[18.51228,59.49788],[18.5065,59.49552],[18.50195,59.49252],[18.49594,59.47988],[18.49296,59.46711],[18.47506,59.46335],[18.46698,59.45701],[18.44781,59.45965],[18.43568,59.45829],[18.43294,59.45045],[18.41177,59.44369],[18.39422,59.44217],[18.39456,59.44793],[18.39401,59.4486],[18.39687,59.45021],[18.3992,59.45206],[18.40021,59.45351],[18.4021,59.45459],[18.40334,59.45559],[18.40536,59.45851],[18.40573,59.45966],[18.40939,59.46316],[18.41537,59.46797],[18.42766,59.47515],[18.42907,59.47546],[18.43495,59.47974],[18.43602,59.48202],[18.43553,59.48411],[18.43366,59.4863],[18.43207,59.48756],[18.4303,59.48849],[18.42932,59.48991],[18.42782,59.49114],[18.4258,59.49212],[18.42398,59.49268],[18.41983,59.49354],[18.41776,59.49378],[18.41374,59.49376],[18.41043,59.49328],[18.40663,59.49333],[18.40337,59.49303],[18.40184,59.49315],[18.40076,59.49458],[18.39908,59.49577],[18.39688,59.49672],[18.3944,59.49737],[18.39324,59.49923],[18.39322,59.50039],[18.39257,59.50177],[18.39124,59.50305],[18.38887,59.50438],[18.38689,59.50508],[18.38405,59.50565],[18.38187,59.50583],[18.37821,59.50579],[18.37613,59.50646],[18.37413,59.50683],[18.37234,59.50768],[18.37045,59.50827],[18.3685,59.50953],[18.36619,59.5104],[18.36417,59.51086],[18.3559,59.51208],[18.35457,59.51388],[18.35296,59.51504],[18.35078,59.51598],[18.34756,59.5167],[18.34405,59.51687],[18.34125,59.5166],[18.33713,59.5157],[18.33425,59.51453],[18.33152,59.51582],[18.32666,59.51684],[18.3246,59.51794],[18.3222,59.51872],[18.31774,59.51942],[18.31422,59.51936],[18.31218,59.51906],[18.30771,59.518],[18.30509,59.51791],[18.30238,59.51746],[18.29948,59.51646],[18.29743,59.51519],[18.29408,59.51511],[18.29077,59.51451],[18.28901,59.5139],[18.28572,59.51225],[18.28376,59.5109],[18.28031,59.5099],[18.27978,59.51029],[18.27824,59.51311],[18.27534,59.51622],[18.27329,59.51764],[18.27114,59.51856],[18.26848,59.51919],[18.26553,59.51947],[18.2622,59.51933],[18.26001,59.52289],[18.26025,59.52395],[18.26269,59.524],[18.2879,59.52793],[18.29193,59.52951],[18.29924,59.53088],[18.30148,59.53081],[18.30884,59.53144],[18.31841,59.53306],[18.31965,59.53608],[18.32286,59.53896],[18.32474,59.54016],[18.32832,59.54409],[18.33808,59.5444],[18.34208,59.54515],[18.35206,59.54605],[18.36605,59.54471],[18.36693,59.54237],[18.37087,59.54271],[18.37826,59.54442],[18.37881,59.54748],[18.38074,59.55321],[18.37434,59.55748],[18.36839,59.55862],[18.36852,59.55877],[18.38204,59.559],[18.39717,59.56194],[18.4026,59.56277],[18.40501,59.5617],[18.40591,59.56356],[18.40668,59.56378],[18.40801,59.56266],[18.40739,59.56209],[18.40758,59.56108],[18.40734,59.56078],[18.40861,59.56039],[18.40806,59.55947],[18.40897,59.55802],[18.40948,59.55778],[18.41068,59.55794],[18.41248,59.55923],[18.4167,59.55797],[18.42093,59.56223],[18.42952,59.56464],[18.42955,59.56485],[18.4305,59.56518],[18.43152,59.56537],[18.43213,59.56517],[18.43717,59.56637],[18.44015,59.56406],[18.44351,59.56022],[18.44528,59.55948],[18.46622,59.56428],[18.46907,59.56706],[18.47083,59.56503],[18.47129,59.56378],[18.47264,59.56379],[18.47303,59.56539],[18.47279,59.56827],[18.4722,59.56887],[18.47204,59.56998],[18.47301,59.57102],[18.47257,59.57115],[18.47271,59.5714],[18.47337,59.57132],[18.47903,59.57365],[18.48833,59.57457],[18.48865,59.57503],[18.48654,59.57732],[18.4805,59.57839],[18.4786,59.57947],[18.47998,59.58046],[18.47985,59.58612],[18.48654,59.59093],[18.48854,59.59462],[18.48856,59.59525],[18.49102,59.59584],[18.49139,59.59645],[18.49306,59.59734],[18.49989,59.59008],[18.53757,59.59501],[18.54929,59.59465],[18.5525,59.59372],[18.55227,59.59158],[18.55439,59.58943],[18.55331,59.58585],[18.55695,59.58725],[18.56515,59.59302],[18.56945,59.59562],[18.57188,59.59585],[18.58225,59.59993],[18.5821,59.59954]]]}},{"type":"Feature","id":"0117R001","properties":{"code":"0117R001","name":"Berga"},"geometry":{"type":"Polygon","coordinates":[[[18.29496,59.49432],[18.29989,59.48934],[18.30173,59.49017],[18.30225,59.48952],[18.30317,59.48971],[18.30431,59.48828],[18.30389,59.48819],[18.3043,59.48766],[18.30422,59.48752],[18.30239,59.48717],[18.30371,59.48537],[18.30391,59.48344],[18.30285,59.48285],[18.30231,59.48206],[18.30146,59.48178],[18.29654,59.48113],[18.2951,59.48121],[18.29497,59.48168],[18.29316,59.48141],[18.29277,59.48178],[18.29226,59.48164],[18.29225,59.48063],[18.28802,59.4806],[18.28485,59.48132],[18.28309,59.48223],[18.27719,59.48721],[18.27499,59.48926],[18.27505,59.48948],[18.27893,59.49029],[18.28698,59.49247],[18.29496,59.49432]]]}},{"type":"Feature","id":"0117R002","properties":{"code":"0117R002","name":"Brevik-Lervik-Flaxenvik"},"geometry":{"type":"Polygon","coordinates":[[[18.39688,59.49672],[18.40005,59.49517],[18.40184,59.49315],[18.40337,59.49303],[18.40663,59.49333],[18.41043,59.49328],[18.41374,59.49376],[18.41773,59.49379],[18.41983,59.49354],[18.42337,59.49282],[18.42637,59.49189],[18.42866,59.49054],[18.4303,59.48849],[18.43288,59.48698],[18.4353,59.48446],[18.43586,59.48342],[18.43602,59.48205],[18.43495,59.47974],[18.42907,59.47546],[18.42766,59.47515],[18.41537,59.46797],[18.40939,59.46316],[18.40573,59.45966],[18.40536,59.45851],[18.40334,59.45559],[18.4021,59.45459],[18.40021,59.45351],[18.3992,59.45206],[18.39687,59.45021],[18.39401,59.4486],[18.39456,59.44793],[18.39422,59.44217],[18.37461,59.43997],[18.36083,59.43709],[18.35543,59.4396],[18.34674,59.44471],[18.31888,59.45055],[18.32175,59.45521],[18.3206,59.45847],[18.32262,59.45935],[18.323,59.45999],[18.32295,59.46073],[18.32238,59.46147],[18.32284,59.4632],[18.32261,59.46432],[18.32283,59.46604],[18.32576,59.46647],[18.32928,59.46646],[18.32973,59.46594],[18.33262,59.46769],[18.33312,59.46833],[18.33272,59.47019],[18.33575,59.47063],[18.33691,59.47123],[18.33807,59.47074],[18.33928,59.47056],[18.33916,59.47036],[18.34026,59.46997],[18.34117,59.47015],[18.34212,59.46984],[18.34352,59.4697],[18.3449,59.46977],[18.34452,59.46989],[18.34439,59.47065],[18.34874,59.47093],[18.34939,59.4703],[18.34949,59.46934],[18.34797,59.46801],[18.35243,59.46765],[18.35433,59.46592],[18.35742,59.46751],[18.35521,59.47309],[18.35283,59.47693],[18.35158,59.48127],[18.36126,59.47996],[18.36778,59.49575],[18.36925,59.49719],[18.37207,59.49762],[18.38349,59.49705],[18.3944,59.49737],[18.39688,59.49672]]]}},{"type":"Feature","id":"0117R003","properties":{"code":"0117R003","name":"Hacksta-Centrumområdet"},"geometry":{"type":"Polygon","coordinates":[[[18.3241,59.4899],[18.32284,59.48813],[18.31909,59.48635],[18.31532,59.484],[18.313,59.48142],[18.30573,59.479],[18.30525,59.47889],[18.30131,59.47972],[18.29696,59.48027],[18.29225,59.48063],[18.29226,59.48164],[18.29277,59.48178],[18.29316,59.48141],[18.29497,59.48168],[18.2951,59.48121],[18.29699,59.48113],[18.30257,59.48192],[18.30484,59.48108],[18.30592,59.48092],[18.30509,59.48004],[18.30587,59.4799],[18.30705,59.48],[18.30731,59.48128],[18.30857,59.4829],[18.30865,59.48375],[18.30777,59.48491],[18.30727,59.48653],[18.30584,59.48736],[18.30422,59.48752],[18.30389,59.48819],[18.30431,59.48828],[18.30317,59.48971],[18.30225,59.48952],[18.3032,59.4901],[18.30885,59.49107],[18.31439,59.49108],[18.32182,59.49054],[18.32257,59.49089],[18.3241,59.4899]]]}},{"type":"Feature","id":"0117R004","properties":{"code":"0117R004","name":"Ljusterö-omkringliggande skärgård"},"geometry":{"type":"Polygon","coordinates":[[[18.726,59.58232],[18.73412,59.57657],[18.73468,59.57319],[18.73685,59.56854],[18.73194,59.55157],[18.73735,59.54959],[18.74684,59.55087],[18.75119,59.54991],[18.76028,59.5511],[18.76768,59.55157],[18.78453,59.55018],[18.81124,59.55463],[18.83782,59.55727],[18.84671,59.54791],[18.85228,59.54689],[18.86119,59.54569],[18.91583,59.54539],[18.92733,59.53775],[18.96691,59.53914],[19.00201,59.51573],[18.97338,59.49694],[18.93725,59.48263],[18.91323,59.46533],[18.88726,59.45878],[18.8736,59.45965],[18.86763,59.47357],[18.8395,59.4713],[18.82852,59.46443],[18.79333,59.45508],[18.76728,59.45076],[18.75086,59.45546],[18.74352,59.45538],[18.74168,59.45618],[18.74078,59.45883],[18.73574,59.46097],[18.73175,59.46435],[18.72912,59.46498],[18.72661,59.46514],[18.71811,59.46461],[18.71205,59.4633],[18.71043,59.46335],[18.7076,59.46383],[18.70552,59.46488],[18.70314,59.46788],[18.69949,59.46742],[18.69749,59.46756],[18.68733,59.47059],[18.67255,59.4622],[18.63588,59.45434],[18.63824,59.44498],[18.63077,59.43745],[18.62717,59.4298],[18.62198,59.42666],[18.62198,59.42355],[18.62438,59.41628],[18.6234,59.41419],[18.62116,59.41228],[18.61985,59.41023],[18.62245,59.40729],[18.62252,59.40529],[18.61883,59.40386],[18.6117,59.40455],[18.60661,59.4032],[18.59717,59.40188],[18.59278,59.40037],[18.57573,59.41111],[18.57344,59.41279],[18.56502,59.42047],[18.55769,59.42047],[18.55215,59.42192],[18.54958,59.42047],[18.53281,59.42006],[18.51253,59.44668],[18.49296,59.46711],[18.49594,59.47988],[18.50195,59.49252],[18.5065,59.49552],[18.51228,59.49788],[18.5273,59.50221],[18.52604,59.50544],[18.52227,59.50531],[18.54263,59.51834],[18.55231,59.52179],[18.5815,59.53576],[18.57958,59.54355],[18.58936,59.54645],[18.60331,59.5531],[18.62229,59.55873],[18.6272,59.55874],[18.67118,59.57356],[18.67898,59.57455],[18.68553,59.57842],[18.69998,59.57899],[18.726,59.58232]]]}},{"type":"Feature","id":"0117R005","properties":{"code":"0117R005","name":"Margeretelunds centrum"},"geometry":{"type":"Polygon","coordinates":[[[18.33795,59.48211],[18.34735,59.48186],[18.35158,59.48127],[18.35283,59.47693],[18.35521,59.47309],[18.35742,59.46751],[18.35433,59.46592],[18.35243,59.46765],[18.34797,59.46801],[18.34949,59.46934],[18.34939,59.4703],[18.34874,59.47093],[18.34439,59.47065],[18.34452,59.46989],[18.3449,59.46977],[18.34352,59.4697],[18.34212,59.46984],[18.34117,59.47015],[18.34026,59.46997],[18.33916,59.47036],[18.33928,59.47056],[18.33807,59.47074],[18.33691,59.47123],[18.33575,59.47063],[18.33272,59.47019],[18.33312,59.46833],[18.33262,59.46769],[18.32973,59.46594],[18.32928,59.46646],[18.32576,59.46647],[18.32283,59.46604],[18.31871,59.46673],[18.31491,59.4697],[18.31576,59.46984],[18.31348,59.47094],[18.31153,59.47271],[18.31634,59.47566],[18.31788,59.47626],[18.32179,59.47729],[18.32232,59.47771],[18.32423,59.47733],[18.32491,59.47692],[18.32948,59.48282],[18.33312,59.48264],[18.33795,59.48211]]]}},{"type":"Feature","id":"0117R008","properties":{"code":"0117R008","name":"Rydbo"},"geometry":{"type":"Polygon","coordinates":[[[18.19688,59.49784],[18.20174,59.49224],[18.20501,59.49353],[18.20877,59.4938],[18.21939,59.49555],[18.22586,59.49539],[18.23249,59.49495],[18.23519,59.49421],[18.23112,59.48943],[18.22876,59.48537],[18.22879,59.48287],[18.2301,59.48085],[18.22864,59.47991],[18.22676,59.4781],[18.2254,59.47598],[18.22348,59.4749],[18.22216,59.47366],[18.22148,59.47225],[18.22164,59.47047],[18.22256,59.46911],[18.22387,59.46807],[18.22428,59.46671],[18.22538,59.46538],[18.22808,59.4637],[18.23122,59.46223],[18.23523,59.46132],[18.24127,59.46092],[18.24339,59.46092],[18.24732,59.46127],[18.24858,59.45567],[18.24646,59.45505],[18.24446,59.45409],[18.24303,59.45291],[18.242,59.45154],[18.23898,59.45037],[18.23676,59.44872],[18.23576,59.44739],[18.23533,59.44607],[18.23531,59.44494],[18.23579,59.4437],[18.23338,59.44299],[18.2297,59.44242],[18.22735,59.44176],[18.22424,59.44022],[18.22271,59.43866],[18.2222,59.43721],[18.22241,59.43585],[18.2233,59.43446],[18.22474,59.43314],[18.22184,59.43192],[18.22282,59.43014],[18.22116,59.42914],[18.22101,59.42763],[18.2226,59.42681],[18.22272,59.42581],[18.22383,59.42432],[18.2183,59.41944],[18.21728,59.41825],[18.21211,59.41743],[18.21063,59.41638],[18.2097,59.41406],[18.20669,59.41446],[18.2039,59.41598],[18.19961,59.4175],[18.19657,59.41827],[18.19107,59.42109],[18.18746,59.4307],[18.18596,59.4318],[18.18423,59.43251],[18.18205,59.43283],[18.17599,59.43259],[18.16864,59.4346],[18.12178,59.41218],[18.144,59.4335],[18.14612,59.43716],[18.13981,59.4404],[18.14412,59.44445],[18.14009,59.4464],[18.1382,59.44952],[18.1386,59.454],[18.14039,59.45627],[18.14275,59.45677],[18.14237,59.46],[18.14989,59.46476],[18.15058,59.46513],[18.15165,59.46529],[18.1512,59.46609],[18.15166,59.46668],[18.15366,59.46784],[18.15261,59.46831],[18.15293,59.46907],[18.15055,59.47112],[18.15071,59.47124],[18.14881,59.47395],[18.14203,59.47776],[18.14096,59.48134],[18.14706,59.48564],[18.1416,59.49226],[18.14295,59.49365],[18.14316,59.49425],[18.14515,59.49519],[18.14544,59.49602],[18.14658,59.49607],[18.14876,59.49752],[18.1585,59.49993],[18.16723,59.50297],[18.17174,59.50322],[18.19688,59.49784]]]}},{"type":"Feature","id":"0117R009","properties":{"code":"0117R009","name":"Skånsta-Singö"},"geometry":{"type":"Polygon","coordinates":[[[18.35353,59.5147],[18.35489,59.51355],[18.3559,59.51208],[18.36417,59.51086],[18.36619,59.5104],[18.3685,59.50953],[18.37045,59.50827],[18.37234,59.50768],[18.37413,59.50683],[18.37613,59.50646],[18.37821,59.50579],[18.38187,59.50583],[18.3847,59.50556],[18.38689,59.50508],[18.38873,59.50444],[18.39124,59.50305],[18.39257,59.50177],[18.39322,59.50039],[18.39324,59.49923],[18.3944,59.49737],[18.38349,59.49705],[18.37207,59.49762],[18.36925,59.49719],[18.36778,59.49575],[18.36126,59.47996],[18.34735,59.48186],[18.33686,59.48215],[18.33312,59.48264],[18.32948,59.48282],[18.32491,59.47692],[18.32423,59.47733],[18.32151,59.47795],[18.32101,59.47867],[18.31964,59.47941],[18.31915,59.48041],[18.31717,59.48135],[18.31624,59.48146],[18.31478,59.48118],[18.313,59.48142],[18.31532,59.484],[18.31909,59.48635],[18.32284,59.48813],[18.3241,59.4899],[18.32257,59.49089],[18.31612,59.49627],[18.31479,59.49624],[18.31457,59.49673],[18.31427,59.49692],[18.31398,59.49686],[18.31136,59.49865],[18.30876,59.50073],[18.30873,59.50204],[18.30905,59.50241],[18.30993,59.5025],[18.31017,59.50222],[18.31246,59.50298],[18.31165,59.50399],[18.30981,59.50367],[18.31011,59.50329],[18.30897,59.50352],[18.30897,59.50453],[18.30748,59.50558],[18.3084,59.50577],[18.31029,59.50578],[18.31101,59.50514],[18.31103,59.5048],[18.31703,59.50561],[18.31832,59.50237],[18.32125,59.49875],[18.33277,59.49947],[18.34247,59.50088],[18.34432,59.50072],[18.34505,59.50153],[18.34242,59.5021],[18.33927,59.50358],[18.3373,59.50477],[18.3374,59.50579],[18.34269,59.50917],[18.342,59.51005],[18.34368,59.51024],[18.34514,59.51065],[18.34402,59.51249],[18.35149,59.51438],[18.35317,59.51431],[18.35353,59.5147]]]}},{"type":"Feature","id":"0117R010","properties":{"code":"0117R010","name":"Stava-Smedby-Sjökarby"},"geometry":{"type":"Polygon","coordinates":[[[18.33094,59.51599],[18.33425,59.51453],[18.33713,59.5157],[18.34062,59.51648],[18.34473,59.51688],[18.3469,59.51677],[18.34955,59.51632],[18.3519,59.51555],[18.35353,59.5147],[18.35317,59.51431],[18.35149,59.51438],[18.34402,59.51249],[18.34514,59.51065],[18.34368,59.51024],[18.342,59.51005],[18.34269,59.50917],[18.3374,59.50579],[18.3373,59.50477],[18.33927,59.50358],[18.34242,59.5021],[18.34505,59.50153],[18.34432,59.50072],[18.34247,59.50088],[18.33277,59.49947],[18.32125,59.49875],[18.31832,59.50237],[18.31703,59.50561],[18.31103,59.5048],[18.31101,59.50514],[18.31029,59.50578],[18.3084,59.50577],[18.30748,59.50558],[18.30897,59.50453],[18.30897,59.50352],[18.31011,59.50329],[18.30981,59.50367],[18.31165,59.50399],[18.31246,59.50298],[18.31017,59.50222],[18.30993,59.5025],[18.30905,59.50241],[18.30873,59.50204],[18.30876,59.50073],[18.31136,59.49865],[18.31398,59.49686],[18.31427,59.49692],[18.31457,59.49673],[18.31479,59.49624],[18.31612,59.49627],[18.32257,59.49089],[18.32182,59.49054],[18.31564,59.49104],[18.30885,59.49107],[18.3032,59.4901],[18.30225,59.48952],[18.30173,59.49017],[18.29989,59.48934],[18.29496,59.49432],[18.28698,59.49247],[18.27893,59.49029],[18.27505,59.48948],[18.2598,59.49216],[18.25102,59.49266],[18.23653,59.49384],[18.23249,59.49495],[18.22586,59.49539],[18.21939,59.49555],[18.20877,59.4938],[18.20501,59.49353],[18.2094,59.49613],[18.21143,59.49654],[18.21547,59.49956],[18.21709,59.50179],[18.2195,59.50417],[18.2248,59.50476],[18.22874,59.5047],[18.23168,59.50575],[18.23775,59.5058],[18.24499,59.50513],[18.25238,59.50641],[18.25777,59.50702],[18.2575,59.51076],[18.26403,59.51543],[18.2622,59.51933],[18.26553,59.51947],[18.26848,59.51919],[18.27114,59.51856],[18.27329,59.51764],[18.27534,59.51622],[18.27824,59.51311],[18.27978,59.51029],[18.28031,59.5099],[18.28376,59.5109],[18.28572,59.51225],[18.28901,59.5139],[18.29077,59.51451],[18.29408,59.51511],[18.29743,59.51519],[18.29948,59.51646],[18.30238,59.51746],[18.30509,59.51791],[18.30771,59.518],[18.31218,59.51906],[18.31422,59.51936],[18.31774,59.51942],[18.3222,59.51872],[18.3246,59.51794],[18.32666,59.51684],[18.33094,59.51599]]]}},{"type":"Feature","id":"0117R011","properties":{"code":"0117R011","name":"Svinninge"},"geometry":{"type":"Polygon","coordinates":[[[18.29853,59.45682],[18.2983,59.45444],[18.30162,59.45344],[18.30788,59.45209],[18.31888,59.45055],[18.31352,59.44607],[18.31444,59.44354],[18.30592,59.44005],[18.29802,59.43729],[18.29358,59.43633],[18.29568,59.43468],[18.29378,59.42965],[18.28015,59.4312],[18.27444,59.43165],[18.25375,59.43255],[18.24762,59.43202],[18.24056,59.43236],[18.22995,59.43344],[18.22474,59.43314],[18.22406,59.43367],[18.22258,59.43547],[18.22219,59.43687],[18.22253,59.43833],[18.22352,59.43964],[18.22508,59.44075],[18.22791,59.44195],[18.22975,59.44243],[18.23338,59.44299],[18.23579,59.4437],[18.23531,59.44494],[18.23533,59.44607],[18.23576,59.44739],[18.23676,59.44872],[18.23898,59.45037],[18.242,59.45154],[18.24303,59.45291],[18.24446,59.45409],[18.24759,59.45542],[18.25012,59.45594],[18.25227,59.45611],[18.25692,59.45595],[18.25924,59.45568],[18.26269,59.45659],[18.26649,59.45686],[18.26972,59.45822],[18.27461,59.45934],[18.27739,59.4603],[18.27981,59.46075],[18.28248,59.46092],[18.28514,59.46075],[18.28727,59.46035],[18.28868,59.45993],[18.28832,59.45918],[18.29323,59.45787],[18.29853,59.45682]]]}},{"type":"Feature","id":"0117R012","properties":{"code":"0117R012","name":"Söra"},"geometry":{"type":"Polygon","coordinates":[[[18.31665,59.48144],[18.31915,59.48041],[18.31975,59.47931],[18.32101,59.47867],[18.32151,59.47795],[18.32232,59.47771],[18.32179,59.47729],[18.31788,59.47626],[18.31634,59.47566],[18.31153,59.47271],[18.30915,59.47512],[18.30764,59.47475],[18.30157,59.47845],[18.30013,59.47876],[18.30004,59.47862],[18.29817,59.47874],[18.29347,59.47775],[18.29225,59.48063],[18.29369,59.48062],[18.30131,59.47972],[18.30525,59.47889],[18.31283,59.48139],[18.31478,59.48118],[18.31665,59.48144]]]}},{"type":"Feature","id":"0117R013","properties":{"code":"0117R013","name":"Tuna"},"geometry":{"type":"Polygon","coordinates":[[[18.30063,59.47869],[18.3019,59.47829],[18.30692,59.47533],[18.30798,59.47422],[18.30827,59.47221],[18.30736,59.46957],[18.30676,59.46515],[18.30581,59.46674],[18.30231,59.46854],[18.30136,59.46824],[18.29905,59.46806],[18.29503,59.46669],[18.29306,59.46626],[18.29013,59.46854],[18.28879,59.4689],[18.29127,59.47091],[18.2922,59.47491],[18.29338,59.47695],[18.29347,59.47775],[18.29817,59.47874],[18.30063,59.47869]]]}},{"type":"Feature","id":"0117R014","properties":{"code":"0117R014","name":"Täljö-Runö"},"geometry":{"type":"Polygon","coordinates":[[[18.23653,59.49384],[18.25102,59.49266],[18.2598,59.49216],[18.27505,59.48948],[18.27499,59.48926],[18.27719,59.48721],[18.28355,59.48195],[18.2858,59.48103],[18.28802,59.4806],[18.29225,59.48063],[18.29349,59.4777],[18.29338,59.47695],[18.2922,59.47491],[18.29127,59.47091],[18.28879,59.4689],[18.29013,59.46854],[18.29265,59.4667],[18.29606,59.46286],[18.29777,59.46166],[18.29819,59.46069],[18.30034,59.45956],[18.3018,59.45823],[18.30223,59.45745],[18.30564,59.45483],[18.30788,59.45209],[18.30162,59.45344],[18.2983,59.45444],[18.29853,59.45682],[18.29323,59.45787],[18.28832,59.45918],[18.28868,59.45993],[18.28642,59.46053],[18.28382,59.46088],[18.28113,59.46088],[18.27801,59.46044],[18.27461,59.45934],[18.26972,59.45822],[18.26649,59.45686],[18.26269,59.45659],[18.25924,59.45568],[18.25294,59.45612],[18.25083,59.45602],[18.24858,59.45567],[18.24732,59.46127],[18.24199,59.4609],[18.23458,59.46141],[18.23067,59.46243],[18.22662,59.4645],[18.22474,59.46604],[18.22387,59.46807],[18.22203,59.46976],[18.22144,59.47118],[18.22158,59.47259],[18.22274,59.4743],[18.2254,59.47598],[18.22676,59.4781],[18.22864,59.47991],[18.2301,59.48085],[18.22879,59.48287],[18.22857,59.48452],[18.2289,59.4857],[18.23001,59.48716],[18.23112,59.48943],[18.23519,59.49421],[18.23653,59.49384]]]}},{"type":"Feature","id":"0117R015","properties":{"code":"0117R015","name":"Österskär"},"geometry":{"type":"Polygon","coordinates":[[[18.30915,59.47512],[18.31348,59.47094],[18.31576,59.46984],[18.31491,59.4697],[18.31871,59.46673],[18.32283,59.46604],[18.32261,59.46432],[18.32284,59.4632],[18.32238,59.46147],[18.32295,59.46073],[18.323,59.45999],[18.32262,59.45935],[18.3206,59.45847],[18.32175,59.45521],[18.31888,59.45055],[18.30788,59.45209],[18.30564,59.45483],[18.30223,59.45745],[18.3018,59.45823],[18.30034,59.45956],[18.29819,59.46069],[18.29777,59.46166],[18.29606,59.46286],[18.29306,59.46626],[18.29503,59.46669],[18.29905,59.46806],[18.30136,59.46824],[18.30231,59.46854],[18.30581,59.46674],[18.30629,59.4656],[18.30682,59.46516],[18.30667,59.4659],[18.30718,59.46746],[18.30736,59.46957],[18.3083,59.4724],[18.30764,59.47475],[18.30915,59.47512]]]}}]}