{"type":"FeatureCollection","features":[{"type":"Feature","id":"0127R015","properties":{"code":"0127R015","name":"Tullinge villastad"},"geometry":{"type":"Polygon","coordinates":[[[17.90505,59.22759],[17.91918,59.22719],[17.92839,59.22251],[17.92735,59.2113],[17.92524,59.21134],[17.91714,59.20968],[17.91749,59.20998],[17.916,59.2122],[17.91577,59.21348],[17.91487,59.21477],[17.91386,59.21528],[17.91196,59.21567],[17.90748,59.21583],[17.90634,59.21642],[17.90294,59.21723],[17.90116,59.21653],[17.89962,59.21773],[17.89939,59.21859],[17.90111,59.22137],[17.90056,59.22371],[17.9012,59.22419],[17.90174,59.22412],[17.90266,59.22543],[17.90505,59.22759]]]}},{"type":"Feature","id":"0127R001","properties":{"code":"0127R001","name":"Albyberget"},"geometry":{"type":"Polygon","coordinates":[[[17.85151,59.24302],[17.86209,59.24298],[17.86204,59.24204],[17.85444,59.24084],[17.85421,59.24074],[17.85443,59.23986],[17.84789,59.23914],[17.8475,59.23844],[17.8442,59.23846],[17.84051,59.239],[17.83713,59.23873],[17.83649,59.23941],[17.83463,59.24025],[17.83616,59.24102],[17.83727,59.24191],[17.83897,59.24435],[17.84095,59.24509],[17.84245,59.24511],[17.85057,59.2434],[17.85151,59.24302]]]}},{"type":"Feature","id":"0127R002","properties":{"code":"0127R002","name":"Albydalen"},"geometry":{"type":"Polygon","coordinates":[[[17.87394,59.24284],[17.87359,59.24149],[17.87362,59.23674],[17.87936,59.23302],[17.87953,59.23226],[17.87847,59.2308],[17.87626,59.22979],[17.87668,59.22948],[17.87515,59.22868],[17.87355,59.22926],[17.8745,59.22951],[17.87371,59.23019],[17.86206,59.22926],[17.845,59.2273],[17.83565,59.22761],[17.83556,59.22728],[17.8339,59.22751],[17.83345,59.22774],[17.82588,59.22857],[17.82092,59.22938],[17.81507,59.23139],[17.8157,59.23721],[17.8329,59.23963],[17.83463,59.24025],[17.83649,59.23941],[17.83713,59.23873],[17.84051,59.239],[17.8442,59.23846],[17.8475,59.23844],[17.84789,59.23914],[17.85443,59.23986],[17.85421,59.24074],[17.85444,59.24084],[17.86204,59.24204],[17.86209,59.24298],[17.86716,59.24204],[17.86856,59.24198],[17.87394,59.24284]]]}},{"type":"Feature","id":"0127R003","properties":{"code":"0127R003","name":"Brantbrink-Tullingeskog-Rörmossen"},"geometry":{"type":"Polygon","coordinates":[[[17.92735,59.2113],[17.92786,59.20327],[17.93378,59.19502],[17.9315,59.19354],[17.92712,59.19208],[17.92905,59.19058],[17.92766,59.18978],[17.92041,59.19029],[17.91808,59.18902],[17.91676,59.18858],[17.91606,59.1887],[17.91339,59.19022],[17.91183,59.19066],[17.90157,59.18725],[17.8972,59.18931],[17.89223,59.19275],[17.88931,59.19366],[17.88533,59.19536],[17.88319,59.19572],[17.88179,59.1962],[17.88231,59.19645],[17.88163,59.19845],[17.88086,59.19886],[17.88502,59.1997],[17.89079,59.20168],[17.89201,59.20196],[17.89241,59.20177],[17.89367,59.20201],[17.89519,59.20272],[17.89689,59.20283],[17.89761,59.20365],[17.89872,59.20395],[17.89881,59.20425],[17.89995,59.20483],[17.90191,59.20451],[17.91158,59.20713],[17.91314,59.20806],[17.91451,59.20836],[17.91499,59.20871],[17.91649,59.20913],[17.91714,59.20968],[17.92524,59.21134],[17.92735,59.2113]]]}},{"type":"Feature","id":"0127R004","properties":{"code":"0127R004","name":"Eriksberg-Sturehov"},"geometry":{"type":"Polygon","coordinates":[[[17.73839,59.26852],[17.75352,59.26675],[17.76365,59.2666],[17.76908,59.26176],[17.77769,59.25943],[17.78315,59.26004],[17.78298,59.25919],[17.78971,59.25584],[17.79903,59.25035],[17.79938,59.24989],[17.79928,59.24848],[17.80192,59.2465],[17.80548,59.24443],[17.80963,59.24416],[17.81164,59.24421],[17.81252,59.24394],[17.81713,59.24401],[17.83796,59.24281],[17.83727,59.24191],[17.83528,59.24055],[17.8329,59.23963],[17.8157,59.23721],[17.81507,59.23139],[17.81409,59.23174],[17.81069,59.23091],[17.80739,59.23058],[17.80529,59.23064],[17.80272,59.23102],[17.79303,59.2286],[17.78882,59.22725],[17.78583,59.22484],[17.78324,59.2209],[17.76953,59.22663],[17.77198,59.22877],[17.77287,59.23139],[17.77233,59.23401],[17.77355,59.2354],[17.7716,59.23762],[17.77257,59.23926],[17.76303,59.24122],[17.75713,59.24067],[17.74899,59.24381],[17.74686,59.24542],[17.7466,59.24728],[17.74274,59.24888],[17.73567,59.24997],[17.73292,59.26204],[17.73121,59.26624],[17.73421,59.26829],[17.73839,59.26852]]]}},{"type":"Feature","id":"0127R005","properties":{"code":"0127R005","name":"Fittja"},"geometry":{"type":"Polygon","coordinates":[[[17.86444,59.26233],[17.87246,59.26028],[17.87217,59.25555],[17.87099,59.25435],[17.87171,59.25241],[17.87064,59.25107],[17.87072,59.2508],[17.87238,59.24973],[17.87491,59.24896],[17.87311,59.24664],[17.8729,59.24566],[17.87296,59.2447],[17.87403,59.24318],[17.87394,59.24284],[17.86856,59.24198],[17.86716,59.24204],[17.86209,59.24298],[17.85213,59.24293],[17.84934,59.24369],[17.84208,59.24516],[17.84297,59.2465],[17.84479,59.24805],[17.84632,59.2484],[17.85092,59.25016],[17.85254,59.24995],[17.8535,59.25001],[17.85286,59.25202],[17.85427,59.25451],[17.85452,59.25591],[17.85374,59.25765],[17.85405,59.25836],[17.85123,59.26013],[17.8453,59.26606],[17.84806,59.26739],[17.85583,59.26727],[17.86444,59.26233]]]}},{"type":"Feature","id":"0127R006","properties":{"code":"0127R006","name":"Grödinge"},"geometry":{"type":"Polygon","coordinates":[[[17.93503,59.19329],[17.93817,59.19139],[17.94693,59.19097],[17.9644,59.18794],[17.97039,59.17761],[17.97159,59.16792],[17.97841,59.16143],[17.98331,59.1572],[17.98483,59.15669],[17.96642,59.15199],[17.94335,59.14359],[17.93177,59.14249],[17.91652,59.13059],[17.91416,59.12845],[17.92158,59.12018],[17.91181,59.11824],[17.91439,59.11084],[17.9115,59.10982],[17.91183,59.10896],[17.9034,59.10722],[17.9037,59.10622],[17.90582,59.10639],[17.90786,59.10629],[17.90918,59.10665],[17.91142,59.10633],[17.91391,59.10747],[17.91588,59.10774],[17.91612,59.10709],[17.91359,59.10331],[17.90389,59.09995],[17.89316,59.09551],[17.88851,59.09356],[17.86983,59.08494],[17.85694,59.08402],[17.84355,59.08655],[17.8302,59.08876],[17.824,59.09228],[17.82232,59.09438],[17.78848,59.08984],[17.77669,59.09518],[17.76068,59.09737],[17.75198,59.09231],[17.73983,59.08301],[17.74257,59.08107],[17.74564,59.06334],[17.73573,59.05725],[17.71843,59.05082],[17.71439,59.0445],[17.69968,59.0443],[17.67523,59.06592],[17.68303,59.0687],[17.66298,59.08756],[17.67406,59.09879],[17.68968,59.10124],[17.69522,59.10164],[17.68857,59.11439],[17.68569,59.1269],[17.68217,59.13264],[17.69895,59.13708],[17.70852,59.14423],[17.72651,59.14688],[17.72862,59.15541],[17.72965,59.15648],[17.7349,59.1559],[17.73679,59.15674],[17.73514,59.16011],[17.73686,59.16035],[17.73872,59.161],[17.73937,59.16407],[17.7407,59.16595],[17.73559,59.16675],[17.73062,59.16721],[17.7318,59.16952],[17.73542,59.16906],[17.7428,59.17161],[17.73629,59.17571],[17.73615,59.17636],[17.73899,59.17673],[17.74411,59.1779],[17.74759,59.17812],[17.75394,59.17933],[17.7567,59.17821],[17.76079,59.17726],[17.76843,59.17653],[17.77195,59.17666],[17.77454,59.17715],[17.77635,59.17775],[17.77957,59.17929],[17.78114,59.18052],[17.78387,59.18068],[17.78984,59.18158],[17.79355,59.18254],[17.79617,59.17962],[17.79827,59.17829],[17.79581,59.17775],[17.79411,59.17715],[17.79145,59.17758],[17.78925,59.17768],[17.78694,59.17756],[17.78484,59.17724],[17.78119,59.17602],[17.77887,59.17437],[17.77538,59.17374],[17.7729,59.17302],[17.77031,59.17166],[17.76832,59.16981],[17.76763,59.16806],[17.76785,59.16618],[17.7692,59.16442],[17.77242,59.16212],[17.77392,59.1613],[17.77628,59.16047],[17.77915,59.15995],[17.78306,59.15984],[17.78886,59.15923],[17.79205,59.15742],[17.7956,59.1565],[17.80082,59.15593],[17.80433,59.15594],[17.80871,59.1567],[17.81194,59.15776],[17.81341,59.15859],[17.81467,59.15968],[17.81978,59.1627],[17.8229,59.16245],[17.82574,59.1626],[17.829,59.16328],[17.83139,59.16424],[17.83342,59.16571],[17.83442,59.16719],[17.83474,59.16897],[17.83406,59.17095],[17.83829,59.17129],[17.84148,59.17208],[17.84399,59.17332],[17.84594,59.17528],[17.84836,59.17703],[17.85328,59.17781],[17.85672,59.17904],[17.859,59.18081],[17.85982,59.18259],[17.86475,59.18376],[17.86767,59.18529],[17.87052,59.18776],[17.87147,59.18987],[17.87399,59.18951],[17.87802,59.18943],[17.88543,59.19037],[17.88736,59.18887],[17.89003,59.18773],[17.89327,59.18707],[17.89654,59.18695],[17.89656,59.18532],[17.8974,59.18382],[17.89933,59.18222],[17.90087,59.18042],[17.90306,59.17881],[17.90549,59.17622],[17.90722,59.17506],[17.91036,59.17389],[17.9137,59.17333],[17.91741,59.17333],[17.92091,59.17394],[17.92568,59.17544],[17.92847,59.17659],[17.93041,59.178],[17.93129,59.17932],[17.93144,59.18104],[17.93038,59.18287],[17.9299,59.18492],[17.92947,59.18545],[17.92766,59.18508],[17.92926,59.18971],[17.92766,59.18978],[17.92905,59.19058],[17.92712,59.19208],[17.9315,59.19354],[17.93378,59.19502],[17.93503,59.19329]]]}},{"type":"Feature","id":"0127R007","properties":{"code":"0127R007","name":"Hallunda"},"geometry":{"type":"Polygon","coordinates":[[[17.81476,59.25159],[17.81502,59.25048],[17.82441,59.25013],[17.82475,59.25081],[17.82635,59.25094],[17.82713,59.25002],[17.82857,59.25019],[17.83668,59.24977],[17.8365,59.24828],[17.83589,59.24742],[17.83525,59.24454],[17.83427,59.24349],[17.83226,59.24319],[17.82344,59.24363],[17.82339,59.24473],[17.82406,59.24767],[17.81809,59.24823],[17.81602,59.24817],[17.81177,59.24836],[17.81244,59.25],[17.8122,59.25127],[17.81305,59.25159],[17.81476,59.25159]]]}},{"type":"Feature","id":"0127R008","properties":{"code":"0127R008","name":"Kassmyra-Skäcklinge"},"geometry":{"type":"Polygon","coordinates":[[[17.82751,59.19137],[17.83153,59.18736],[17.83317,59.1874],[17.83361,59.18711],[17.83328,59.18701],[17.83364,59.18702],[17.83435,59.18749],[17.83417,59.18795],[17.83454,59.18808],[17.83515,59.1877],[17.83613,59.1881],[17.83836,59.18793],[17.83978,59.18845],[17.84189,59.18828],[17.84392,59.18891],[17.84486,59.18761],[17.84675,59.18792],[17.84798,59.18729],[17.84798,59.18675],[17.8466,59.1864],[17.84631,59.18591],[17.84788,59.18492],[17.84788,59.18407],[17.85152,59.17982],[17.85454,59.17815],[17.8507,59.17733],[17.84836,59.17703],[17.84594,59.17528],[17.84475,59.17392],[17.84367,59.17312],[17.83794,59.17359],[17.82412,59.17407],[17.8102,59.17846],[17.8096,59.18001],[17.81198,59.18004],[17.81316,59.18047],[17.81448,59.18134],[17.81577,59.18422],[17.81819,59.18744],[17.82396,59.19198],[17.82431,59.19211],[17.82594,59.19191],[17.82751,59.19137]]]}},{"type":"Feature","id":"0127R009","properties":{"code":"0127R009","name":"Lanthem-Tullinge centrum-Tullingeberg"},"geometry":{"type":"Polygon","coordinates":[[[17.91158,59.20713],[17.90191,59.20451],[17.89995,59.20483],[17.89881,59.20425],[17.89872,59.20395],[17.89761,59.20365],[17.89689,59.20283],[17.89519,59.20272],[17.89367,59.20201],[17.89241,59.20177],[17.89201,59.20196],[17.88977,59.20143],[17.88502,59.1997],[17.88398,59.19958],[17.88344,59.19932],[17.88086,59.19886],[17.87699,59.20015],[17.87696,59.20056],[17.87808,59.20136],[17.87916,59.20109],[17.87945,59.2024],[17.87903,59.20764],[17.878,59.20835],[17.8804,59.20838],[17.88372,59.20914],[17.88509,59.20928],[17.88624,59.20954],[17.88744,59.21031],[17.89606,59.21192],[17.89595,59.21219],[17.89685,59.21354],[17.89885,59.21563],[17.90294,59.21723],[17.90634,59.21642],[17.90748,59.21583],[17.91196,59.21567],[17.91386,59.21528],[17.91487,59.21477],[17.9154,59.21411],[17.916,59.2122],[17.91749,59.20998],[17.91649,59.20913],[17.91499,59.20871],[17.91451,59.20836],[17.91314,59.20806],[17.91158,59.20713]]]}},{"type":"Feature","id":"0127R010","properties":{"code":"0127R010","name":"Norsborg"},"geometry":{"type":"Polygon","coordinates":[[[17.81177,59.24836],[17.81809,59.24823],[17.82406,59.24767],[17.82339,59.24473],[17.82344,59.24363],[17.81713,59.24401],[17.81252,59.24394],[17.81164,59.24421],[17.80963,59.24416],[17.80548,59.24443],[17.80192,59.2465],[17.79928,59.24848],[17.79938,59.24989],[17.81184,59.24879],[17.81177,59.24836]]]}},{"type":"Feature","id":"0127R011","properties":{"code":"0127R011","name":"Riksten"},"geometry":{"type":"Polygon","coordinates":[[[17.91339,59.19022],[17.91606,59.1887],[17.91676,59.18858],[17.91808,59.18902],[17.92041,59.19029],[17.92926,59.18971],[17.92766,59.18508],[17.92947,59.18545],[17.92968,59.18525],[17.93022,59.18426],[17.93038,59.18287],[17.9312,59.18173],[17.9315,59.1807],[17.93141,59.17966],[17.9307,59.17832],[17.92975,59.1774],[17.92799,59.17635],[17.92091,59.17394],[17.91824,59.17342],[17.91589,59.17326],[17.91305,59.1734],[17.91097,59.17374],[17.90891,59.17434],[17.90677,59.17531],[17.90447,59.17717],[17.90267,59.17916],[17.90087,59.18042],[17.89933,59.18222],[17.89735,59.18387],[17.90427,59.18605],[17.90157,59.18725],[17.9098,59.19006],[17.91183,59.19066],[17.91339,59.19022]]]}},{"type":"Feature","id":"0127R012","properties":{"code":"0127R012","name":"Slagsta"},"geometry":{"type":"Polygon","coordinates":[[[17.8453,59.26606],[17.85123,59.26013],[17.85405,59.25836],[17.85374,59.25765],[17.85452,59.25591],[17.85427,59.25451],[17.85286,59.25202],[17.8535,59.25001],[17.85254,59.24995],[17.85092,59.25016],[17.84632,59.2484],[17.84479,59.24805],[17.84297,59.2465],[17.84208,59.24516],[17.84095,59.24509],[17.83897,59.24435],[17.83796,59.24281],[17.83218,59.24311],[17.83427,59.24349],[17.83525,59.24454],[17.83589,59.24742],[17.8365,59.24828],[17.83668,59.24977],[17.82857,59.25019],[17.82713,59.25002],[17.82635,59.25094],[17.82475,59.25081],[17.82441,59.25013],[17.81502,59.25048],[17.81476,59.25159],[17.81305,59.25159],[17.8122,59.25127],[17.81244,59.25],[17.81184,59.24879],[17.79938,59.24989],[17.79903,59.25035],[17.79601,59.25222],[17.78971,59.25584],[17.78298,59.25919],[17.78315,59.26004],[17.78498,59.26025],[17.79202,59.26333],[17.80187,59.26318],[17.80855,59.26209],[17.81851,59.26176],[17.83249,59.26168],[17.84093,59.26396],[17.8453,59.26606]]]}},{"type":"Feature","id":"0127R013","properties":{"code":"0127R013","name":"Storvreten"},"geometry":{"type":"Polygon","coordinates":[[[17.87516,59.20041],[17.8774,59.20009],[17.88159,59.19856],[17.88231,59.19645],[17.88179,59.1962],[17.88319,59.19572],[17.88533,59.19536],[17.88931,59.19366],[17.89223,59.19275],[17.8972,59.18931],[17.90427,59.18605],[17.89735,59.18387],[17.89656,59.18532],[17.89654,59.18695],[17.89327,59.18707],[17.89003,59.18773],[17.88736,59.18887],[17.88543,59.19037],[17.87802,59.18943],[17.87399,59.18951],[17.87147,59.18987],[17.87052,59.18776],[17.86729,59.18501],[17.86419,59.18357],[17.85982,59.18259],[17.85946,59.18151],[17.85839,59.18017],[17.85672,59.17904],[17.85454,59.17815],[17.85152,59.17982],[17.84788,59.18407],[17.84788,59.18492],[17.84631,59.18591],[17.8466,59.1864],[17.84798,59.18675],[17.84798,59.18729],[17.84675,59.18792],[17.84486,59.18761],[17.84392,59.18891],[17.84189,59.18828],[17.83978,59.18845],[17.83836,59.18793],[17.83613,59.1881],[17.83515,59.1877],[17.83454,59.18808],[17.83417,59.18795],[17.83435,59.18749],[17.83402,59.18715],[17.83328,59.18701],[17.83361,59.18711],[17.83317,59.1874],[17.83153,59.18736],[17.83017,59.18858],[17.82932,59.18979],[17.82776,59.19095],[17.82751,59.19137],[17.82929,59.19251],[17.82948,59.19357],[17.83163,59.19508],[17.83424,59.19594],[17.83524,59.19658],[17.83898,59.19695],[17.84048,59.19811],[17.84205,59.19805],[17.84411,59.1983],[17.84502,59.19794],[17.84582,59.19723],[17.84719,59.1971],[17.84985,59.19821],[17.85193,59.19879],[17.85194,59.1992],[17.85642,59.19926],[17.85644,59.19913],[17.86051,59.19899],[17.86084,59.19899],[17.86083,59.19916],[17.86162,59.19917],[17.86164,59.19899],[17.86518,59.19894],[17.86766,59.19927],[17.8713,59.2004],[17.87168,59.20044],[17.87147,59.20015],[17.87176,59.20004],[17.87285,59.20045],[17.87516,59.20041]]]}},{"type":"Feature","id":"0127R014","properties":{"code":"0127R014","name":"Tullinge parkhem"},"geometry":{"type":"Polygon","coordinates":[[[17.88,59.22707],[17.88351,59.22386],[17.89403,59.22656],[17.9018,59.22778],[17.90505,59.22759],[17.90266,59.22543],[17.90174,59.22412],[17.9012,59.22419],[17.90056,59.22371],[17.90111,59.22137],[17.89939,59.21859],[17.89962,59.21773],[17.90116,59.21653],[17.89885,59.21563],[17.89685,59.21354],[17.89595,59.21219],[17.89606,59.21192],[17.88744,59.21031],[17.88624,59.20954],[17.88509,59.20928],[17.88372,59.20914],[17.8804,59.20838],[17.878,59.20835],[17.87604,59.20971],[17.87463,59.2114],[17.8739,59.21366],[17.87369,59.21762],[17.87047,59.2206],[17.87721,59.22096],[17.8771,59.22192],[17.87779,59.22337],[17.87666,59.22376],[17.87605,59.22457],[17.87472,59.22503],[17.87499,59.22643],[17.87581,59.22812],[17.87515,59.22868],[17.87668,59.22948],[17.88,59.22707]]]}},{"type":"Feature","id":"0127R016","properties":{"code":"0127R016","name":"Tumba centrum-Segersjö-Sandstugan"},"geometry":{"type":"Polygon","coordinates":[[[17.8059,59.20014],[17.80649,59.19848],[17.80825,59.19912],[17.80858,59.19893],[17.80901,59.19673],[17.81252,59.19717],[17.81724,59.19846],[17.8175,59.19821],[17.81914,59.19866],[17.81944,59.19846],[17.82031,59.19869],[17.82058,59.19847],[17.82194,59.19884],[17.82105,59.19953],[17.82363,59.20028],[17.83227,59.19975],[17.84792,59.19943],[17.85194,59.1992],[17.85193,59.19879],[17.84985,59.19821],[17.84719,59.1971],[17.84582,59.19723],[17.84502,59.19794],[17.84411,59.1983],[17.84205,59.19805],[17.84048,59.19811],[17.83898,59.19695],[17.83524,59.19658],[17.83424,59.19594],[17.83163,59.19508],[17.82948,59.19357],[17.82929,59.19251],[17.82751,59.19137],[17.82594,59.19191],[17.82431,59.19211],[17.8251,59.1928],[17.82504,59.19305],[17.82427,59.19335],[17.82454,59.19365],[17.81922,59.19498],[17.81832,59.19539],[17.81326,59.19361],[17.81012,59.19293],[17.80219,59.19713],[17.79976,59.19608],[17.79848,59.19471],[17.79647,59.19632],[17.795,59.19691],[17.79283,59.19851],[17.79263,59.20236],[17.78931,59.21127],[17.78409,59.22055],[17.78324,59.2209],[17.78583,59.22484],[17.78882,59.22725],[17.79303,59.2286],[17.7989,59.23003],[17.80296,59.22276],[17.80159,59.22066],[17.80235,59.22056],[17.80304,59.22017],[17.8039,59.218],[17.80545,59.21562],[17.80589,59.2143],[17.80553,59.21288],[17.8083,59.2114],[17.80949,59.21134],[17.80947,59.20668],[17.81047,59.20536],[17.80788,59.20473],[17.80817,59.20376],[17.80734,59.20264],[17.80706,59.20107],[17.8059,59.20014]]]}},{"type":"Feature","id":"0127R017","properties":{"code":"0127R017","name":"Tuna"},"geometry":{"type":"Polygon","coordinates":[[[17.82604,59.20931],[17.82701,59.20896],[17.82722,59.20831],[17.82907,59.2075],[17.83078,59.20726],[17.83302,59.20656],[17.83405,59.2066],[17.83508,59.20608],[17.83641,59.20495],[17.83616,59.20399],[17.82506,59.20538],[17.82444,59.20579],[17.82505,59.20654],[17.82495,59.20833],[17.82442,59.20909],[17.82468,59.20949],[17.82604,59.20931]]]}},{"type":"Feature","id":"0127R018","properties":{"code":"0127R018","name":"Uttran-Broäng"},"geometry":{"type":"Polygon","coordinates":[[[17.80219,59.19713],[17.81012,59.19293],[17.81142,59.19311],[17.81832,59.19539],[17.81922,59.19498],[17.82454,59.19365],[17.82427,59.19335],[17.82504,59.19305],[17.8251,59.1928],[17.81819,59.18744],[17.81577,59.18422],[17.81474,59.18163],[17.81377,59.1808],[17.81198,59.18004],[17.8096,59.18001],[17.80796,59.18138],[17.80541,59.18244],[17.79578,59.18],[17.79355,59.18254],[17.78984,59.18158],[17.78387,59.18068],[17.78114,59.18052],[17.77957,59.17929],[17.77635,59.17775],[17.77454,59.17715],[17.77195,59.17666],[17.76843,59.17653],[17.76079,59.17726],[17.7567,59.17821],[17.75394,59.17933],[17.74759,59.17812],[17.74411,59.1779],[17.73899,59.17673],[17.73615,59.17636],[17.73562,59.17872],[17.73789,59.18146],[17.74602,59.18176],[17.75072,59.18411],[17.75671,59.1851],[17.76046,59.18451],[17.7643,59.18598],[17.76888,59.18704],[17.77383,59.18757],[17.77604,59.18853],[17.77704,59.18946],[17.77997,59.1903],[17.78522,59.19061],[17.78773,59.19044],[17.79068,59.19111],[17.79212,59.19117],[17.79321,59.19172],[17.79305,59.19218],[17.79411,59.19306],[17.79529,59.19368],[17.79848,59.19471],[17.79976,59.19608],[17.80219,59.19713]]]}},{"type":"Feature","id":"0127R019","properties":{"code":"0127R019","name":"Vretarna-Hamra"},"geometry":{"type":"Polygon","coordinates":[[[17.81409,59.23174],[17.82092,59.22938],[17.82588,59.22857],[17.83345,59.22774],[17.8339,59.22751],[17.83556,59.22728],[17.83565,59.22761],[17.845,59.2273],[17.86206,59.22926],[17.87371,59.23019],[17.8745,59.22951],[17.87355,59.22926],[17.87515,59.22868],[17.87581,59.22812],[17.87499,59.22643],[17.87472,59.22503],[17.87605,59.22457],[17.8765,59.22387],[17.87784,59.22324],[17.87717,59.22217],[17.87721,59.22096],[17.87047,59.2206],[17.87369,59.21762],[17.8739,59.21366],[17.87463,59.2114],[17.87604,59.20971],[17.87903,59.20764],[17.87945,59.2024],[17.87916,59.20109],[17.87808,59.20136],[17.87696,59.20056],[17.87699,59.20015],[17.87325,59.20049],[17.87176,59.20004],[17.87147,59.20015],[17.87168,59.20044],[17.87017,59.20013],[17.86766,59.19927],[17.86518,59.19894],[17.86164,59.19899],[17.86162,59.19917],[17.86083,59.19916],[17.86084,59.19899],[17.86051,59.19899],[17.85644,59.19913],[17.85642,59.19926],[17.85194,59.1992],[17.84266,59.1996],[17.83644,59.19961],[17.82964,59.19985],[17.82363,59.20028],[17.82105,59.19953],[17.82194,59.19884],[17.82058,59.19847],[17.82031,59.19869],[17.81944,59.19846],[17.81914,59.19866],[17.8175,59.19821],[17.81724,59.19846],[17.81252,59.19717],[17.80901,59.19673],[17.80858,59.19893],[17.80825,59.19912],[17.80649,59.19848],[17.8059,59.20014],[17.80706,59.20107],[17.80734,59.20264],[17.80817,59.20376],[17.80788,59.20473],[17.81047,59.20536],[17.80947,59.20668],[17.80949,59.21134],[17.8083,59.2114],[17.80553,59.21288],[17.80589,59.2143],[17.80545,59.21562],[17.8039,59.218],[17.80304,59.22017],[17.80235,59.22056],[17.80159,59.22066],[17.80296,59.22276],[17.7989,59.23003],[17.80272,59.23102],[17.80529,59.23064],[17.80739,59.23058],[17.81069,59.23091],[17.81409,59.23174]],[[17.82532,59.20949],[17.82468,59.20949],[17.82442,59.20909],[17.82495,59.20833],[17.82505,59.20654],[17.82444,59.20579],[17.82506,59.20538],[17.83616,59.20399],[17.83627,59.20521],[17.83405,59.2066],[17.83302,59.20656],[17.83078,59.20726],[17.82907,59.2075],[17.82722,59.20831],[17.82701,59.20896],[17.82532,59.20949]]]}},{"type":"Feature","id":"0127R020","properties":{"code":"0127R020","name":"Vårsta"},"geometry":{"type":"Polygon","coordinates":[[[17.8102,59.17846],[17.82412,59.17407],[17.83794,59.17359],[17.84367,59.17312],[17.84202,59.17229],[17.83965,59.17155],[17.8368,59.1711],[17.83406,59.17095],[17.83474,59.16897],[17.83442,59.16719],[17.83311,59.1654],[17.83091,59.164],[17.82842,59.16311],[17.82574,59.1626],[17.8229,59.16245],[17.81978,59.1627],[17.81467,59.15968],[17.81287,59.15825],[17.8095,59.15689],[17.80582,59.15612],[17.80301,59.15587],[17.80082,59.15593],[17.79497,59.1566],[17.79154,59.15764],[17.78886,59.15923],[17.78306,59.15984],[17.77915,59.15995],[17.77569,59.16064],[17.77285,59.16185],[17.76889,59.16472],[17.7677,59.16662],[17.76768,59.16843],[17.76834,59.16983],[17.76994,59.17137],[17.77167,59.17247],[17.77345,59.17322],[17.77587,59.17385],[17.77887,59.17437],[17.78119,59.17602],[17.78423,59.1771],[17.78694,59.17756],[17.78925,59.17768],[17.79145,59.17758],[17.79411,59.17715],[17.79581,59.17775],[17.79827,59.17829],[17.79578,59.18],[17.80541,59.18244],[17.80796,59.18138],[17.8096,59.18001],[17.8102,59.17846]]]}}]}