{"type":"FeatureCollection","features":[{"type":"Feature","id":"0140R001","properties":{"code":"0140R001","name":"Nykvarn"},"geometry":{"type":"Polygon","coordinates":[[[17.44813,59.1937],[17.4541,59.19346],[17.45825,59.19391],[17.46196,59.19374],[17.46465,59.19321],[17.47363,59.19065],[17.47572,59.18953],[17.47738,59.18783],[17.47895,59.1813],[17.47841,59.17991],[17.47724,59.17853],[17.47555,59.17737],[17.47339,59.17648],[17.47142,59.17599],[17.46868,59.17566],[17.46311,59.17566],[17.46049,59.17583],[17.46033,59.17497],[17.46068,59.17272],[17.46044,59.17152],[17.45877,59.16931],[17.45809,59.16731],[17.45664,59.16584],[17.45702,59.16403],[17.45938,59.16063],[17.46015,59.15895],[17.46019,59.15702],[17.45924,59.15506],[17.45748,59.15357],[17.45549,59.15264],[17.45324,59.15202],[17.45168,59.15054],[17.44891,59.14916],[17.44377,59.14796],[17.43975,59.14774],[17.43588,59.1483],[17.43312,59.14931],[17.42883,59.15205],[17.42732,59.15362],[17.42413,59.1549],[17.42143,59.15681],[17.41894,59.15636],[17.41619,59.15621],[17.4129,59.1564],[17.41031,59.15687],[17.4071,59.15813],[17.4043,59.16054],[17.40163,59.1613],[17.39935,59.16254],[17.39838,59.16343],[17.3972,59.1652],[17.39712,59.16733],[17.39642,59.16812],[17.39446,59.16902],[17.39318,59.16993],[17.39174,59.17148],[17.39105,59.17292],[17.39107,59.1747],[17.39216,59.17639],[17.39424,59.17783],[17.39672,59.17876],[17.39353,59.1807],[17.39207,59.18212],[17.39138,59.18399],[17.39172,59.18631],[17.3924,59.18783],[17.3935,59.18899],[17.39528,59.19013],[17.39752,59.19101],[17.40157,59.19187],[17.40611,59.19223],[17.40905,59.19216],[17.41144,59.1931],[17.41405,59.19365],[17.41823,59.19381],[17.42471,59.19286],[17.42747,59.19325],[17.42971,59.19329],[17.43169,59.1944],[17.43361,59.19509],[17.43625,59.19565],[17.43908,59.19585],[17.44192,59.19569],[17.44416,59.19528],[17.44657,59.1945],[17.44813,59.1937]]]}},{"type":"Feature","id":"0140R002","properties":{"code":"0140R002","name":"Taxinge"},"geometry":{"type":"Polygon","coordinates":[[[17.34994,59.26826],[17.35333,59.25875],[17.34523,59.25402],[17.36559,59.24939],[17.37176,59.24667],[17.38185,59.2477],[17.3919,59.24444],[17.39841,59.24159],[17.40337,59.24411],[17.40511,59.24329],[17.40789,59.2438],[17.40831,59.24366],[17.40871,59.24395],[17.41008,59.24358],[17.40986,59.24314],[17.41011,59.24293],[17.41089,59.24295],[17.40967,59.24944],[17.4109,59.24912],[17.41142,59.2495],[17.41331,59.24941],[17.4193,59.24974],[17.41998,59.24921],[17.41962,59.24894],[17.42383,59.24651],[17.42637,59.24655],[17.42688,59.24292],[17.42287,59.24005],[17.42674,59.23848],[17.42504,59.23741],[17.40854,59.2333],[17.40693,59.23141],[17.39249,59.22505],[17.38533,59.22422],[17.37997,59.2199],[17.37866,59.21758],[17.3783,59.2175],[17.36516,59.20343],[17.36275,59.20003],[17.36437,59.18984],[17.34816,59.16979],[17.34704,59.16521],[17.34821,59.16154],[17.34669,59.15892],[17.34393,59.15699],[17.34795,59.15506],[17.34568,59.1508],[17.33811,59.14625],[17.33686,59.14129],[17.32998,59.14215],[17.32669,59.14122],[17.32541,59.14118],[17.32309,59.14172],[17.32086,59.1434],[17.31677,59.1449],[17.31575,59.14614],[17.31277,59.14824],[17.30858,59.15001],[17.30759,59.15142],[17.30762,59.1528],[17.30702,59.15349],[17.30708,59.15407],[17.3067,59.1543],[17.30605,59.15422],[17.30601,59.15358],[17.3017,59.15997],[17.29715,59.16434],[17.28413,59.16853],[17.27697,59.16957],[17.27947,59.17104],[17.27257,59.17484],[17.26866,59.17537],[17.26824,59.17687],[17.26744,59.1773],[17.26709,59.1778],[17.26279,59.17998],[17.26194,59.17981],[17.25787,59.17979],[17.2572,59.1802],[17.25882,59.18193],[17.26107,59.18244],[17.26326,59.18163],[17.26367,59.18224],[17.26617,59.18204],[17.26895,59.18261],[17.26682,59.18513],[17.26689,59.18794],[17.26572,59.18918],[17.26479,59.1926],[17.26354,59.19188],[17.26257,59.19666],[17.24809,59.1993],[17.24442,59.20415],[17.24949,59.20428],[17.25151,59.20809],[17.24779,59.21206],[17.24712,59.21205],[17.24546,59.21269],[17.24462,59.21403],[17.24367,59.21458],[17.24612,59.21611],[17.24634,59.21648],[17.24649,59.21923],[17.25221,59.22009],[17.25476,59.22141],[17.25617,59.2224],[17.25753,59.22292],[17.25891,59.22253],[17.26029,59.22254],[17.26085,59.22229],[17.26157,59.2226],[17.26455,59.22743],[17.27186,59.23453],[17.27263,59.23647],[17.27351,59.24075],[17.27489,59.24418],[17.27482,59.24555],[17.28137,59.24545],[17.29304,59.24704],[17.29103,59.24945],[17.29323,59.24959],[17.29378,59.25018],[17.30181,59.24983],[17.30893,59.25213],[17.30389,59.25661],[17.31037,59.26633],[17.34156,59.2736],[17.34994,59.26826]]]}},{"type":"Feature","id":"0140R003","properties":{"code":"0140R003","name":"Turinge"},"geometry":{"type":"Polygon","coordinates":[[[17.42674,59.23848],[17.43365,59.23569],[17.43403,59.23597],[17.43677,59.23554],[17.43625,59.2347],[17.44639,59.23058],[17.44646,59.23028],[17.47454,59.22879],[17.48258,59.22387],[17.50202,59.22891],[17.51255,59.2304],[17.519,59.23104],[17.5233,59.23266],[17.53354,59.23068],[17.53845,59.22913],[17.54134,59.21937],[17.54653,59.21956],[17.54917,59.21955],[17.55102,59.21935],[17.55466,59.21834],[17.55671,59.21685],[17.55955,59.20877],[17.56123,59.20753],[17.56212,59.20568],[17.55782,59.19988],[17.55923,59.19955],[17.55981,59.19891],[17.55918,59.19759],[17.56032,59.1966],[17.55941,59.19551],[17.5582,59.19537],[17.55748,59.19511],[17.55601,59.1973],[17.54926,59.19481],[17.54794,59.18959],[17.54416,59.18882],[17.54905,59.18431],[17.54694,59.17966],[17.54322,59.18045],[17.53458,59.18025],[17.51469,59.17578],[17.50617,59.17595],[17.50311,59.17562],[17.50293,59.17485],[17.50499,59.17332],[17.49833,59.15892],[17.49427,59.1559],[17.48956,59.15433],[17.48572,59.15359],[17.48324,59.15169],[17.48353,59.15024],[17.48221,59.14607],[17.48233,59.14317],[17.48361,59.14084],[17.48502,59.13924],[17.49474,59.13567],[17.47469,59.12859],[17.47612,59.12706],[17.47529,59.12469],[17.47132,59.1193],[17.46831,59.12455],[17.46665,59.12445],[17.46535,59.1247],[17.4639,59.12507],[17.46415,59.12577],[17.46311,59.1256],[17.46454,59.12847],[17.46403,59.12911],[17.46576,59.12933],[17.46148,59.13693],[17.45271,59.13462],[17.45767,59.13086],[17.45736,59.12986],[17.4631,59.12419],[17.45955,59.12267],[17.45307,59.12353],[17.44629,59.12409],[17.43812,59.1235],[17.42573,59.12389],[17.41816,59.12513],[17.4014,59.13099],[17.35526,59.13442],[17.34403,59.13763],[17.33686,59.14129],[17.33811,59.14625],[17.34568,59.1508],[17.34795,59.15506],[17.34393,59.15699],[17.34669,59.15892],[17.34821,59.16154],[17.34704,59.16521],[17.34816,59.16979],[17.36437,59.18984],[17.36275,59.20003],[17.36516,59.20343],[17.3783,59.2175],[17.37866,59.21758],[17.37997,59.2199],[17.38533,59.22422],[17.39249,59.22505],[17.40693,59.23141],[17.40854,59.2333],[17.42504,59.23741],[17.42674,59.23848]],[[17.43908,59.19585],[17.43625,59.19565],[17.43361,59.19509],[17.43169,59.1944],[17.42971,59.19329],[17.42747,59.19325],[17.42471,59.19286],[17.41889,59.19376],[17.41536,59.19379],[17.41203,59.19326],[17.40905,59.19216],[17.40545,59.1922],[17.40009,59.19166],[17.39809,59.19119],[17.39577,59.19036],[17.39386,59.18928],[17.3924,59.18783],[17.39183,59.18675],[17.39138,59.18399],[17.39165,59.18287],[17.3926,59.1815],[17.39392,59.18043],[17.39672,59.17876],[17.39427,59.17785],[17.39252,59.17672],[17.39138,59.17539],[17.39092,59.17363],[17.39153,59.1718],[17.39286,59.17023],[17.39446,59.16902],[17.39642,59.16812],[17.39712,59.16733],[17.3972,59.1652],[17.39867,59.16312],[17.40112,59.16151],[17.4043,59.16054],[17.40592,59.15896],[17.40759,59.15787],[17.41031,59.15687],[17.41355,59.15634],[17.41758,59.15624],[17.42143,59.15681],[17.42413,59.1549],[17.42732,59.15362],[17.42883,59.15205],[17.43361,59.14908],[17.43711,59.14803],[17.44112,59.14772],[17.44444,59.14807],[17.44778,59.1488],[17.44961,59.14943],[17.45168,59.15054],[17.45324,59.15202],[17.45549,59.15264],[17.45748,59.15357],[17.45947,59.15538],[17.46026,59.15736],[17.46015,59.15895],[17.45938,59.16063],[17.45702,59.16403],[17.45664,59.16584],[17.45809,59.16731],[17.45877,59.16931],[17.46044,59.17152],[17.46068,59.17272],[17.46033,59.17497],[17.46049,59.17583],[17.46311,59.17566],[17.46868,59.17566],[17.47142,59.17599],[17.47339,59.17648],[17.47555,59.17737],[17.47724,59.17853],[17.4786,59.18023],[17.47898,59.18167],[17.47732,59.18792],[17.47572,59.18953],[17.4731,59.19086],[17.46261,59.19364],[17.45892,59.19392],[17.4541,59.19346],[17.45057,59.1937],[17.44823,59.19363],[17.44657,59.1945],[17.44416,59.19528],[17.44192,59.19569],[17.43908,59.19585]]]}}]}