{"type":"FeatureCollection","features":[{"type":"Feature","id":"0163R018","properties":{"code":"0163R018","name":"Töjnan"},"geometry":{"type":"Polygon","coordinates":[[[17.93209,59.43168],[17.93701,59.4279],[17.94016,59.42705],[17.94292,59.42495],[17.94578,59.42573],[17.94686,59.42464],[17.94683,59.42434],[17.94544,59.42335],[17.9465,59.4226],[17.94052,59.41867],[17.9385,59.41761],[17.93968,59.41566],[17.94068,59.41496],[17.93982,59.41477],[17.92969,59.41891],[17.92856,59.41818],[17.92632,59.41942],[17.92417,59.42029],[17.92457,59.42038],[17.92224,59.42168],[17.91989,59.42358],[17.91996,59.42442],[17.91509,59.42687],[17.91845,59.43215],[17.921,59.43503],[17.92368,59.43531],[17.93092,59.43647],[17.93155,59.4325],[17.93209,59.43168]]]}},{"type":"Feature","id":"0163R017","properties":{"code":"0163R017","name":"Tegelhagen-Silverdal"},"geometry":{"type":"Polygon","coordinates":[[[17.99392,59.41319],[17.99855,59.41014],[17.99799,59.40876],[18.00002,59.40364],[18.00587,59.39981],[18.00251,59.39926],[17.99613,59.39898],[17.9927,59.39814],[17.98524,59.39817],[17.98509,59.39796],[17.98592,59.39744],[17.98735,59.39691],[17.98732,59.39639],[17.98175,59.39512],[17.9757,59.39843],[17.97267,59.40045],[17.97356,59.4007],[17.97615,59.39953],[17.97199,59.40235],[17.95946,59.4077],[17.96038,59.40803],[17.96154,59.40886],[17.96177,59.40944],[17.96752,59.41056],[17.96831,59.4105],[17.96914,59.41012],[17.97124,59.41028],[17.97145,59.41059],[17.97901,59.41211],[17.97918,59.41191],[17.99347,59.41483],[17.99392,59.41319]]]}},{"type":"Feature","id":"0163R001","properties":{"code":"0163R001","name":"Bagarby"},"geometry":{"type":"Polygon","coordinates":[[[17.94659,59.43004],[17.9516,59.42487],[17.94834,59.42367],[17.9465,59.4226],[17.94544,59.42335],[17.9469,59.42449],[17.94578,59.42573],[17.94292,59.42495],[17.94016,59.42705],[17.93701,59.4279],[17.93547,59.42894],[17.93754,59.42951],[17.93997,59.42975],[17.94197,59.42951],[17.94249,59.42899],[17.94659,59.43004]]]}},{"type":"Feature","id":"0163R002","properties":{"code":"0163R002","name":"Edsberg"},"geometry":{"type":"Polygon","coordinates":[[[17.95972,59.45041],[17.96049,59.45012],[17.96082,59.45035],[17.96161,59.45029],[17.96214,59.44968],[17.96374,59.44981],[17.96661,59.44943],[17.9671,59.44921],[17.96708,59.44859],[17.96762,59.44886],[17.96859,59.44898],[17.97025,59.44862],[17.9716,59.44785],[17.97425,59.4478],[17.9752,59.44751],[17.97598,59.4476],[17.97662,59.44674],[17.97692,59.44677],[17.9768,59.44703],[17.97745,59.44711],[17.9789,59.44661],[17.97936,59.44559],[17.97747,59.44537],[17.97678,59.44428],[17.97279,59.44429],[17.97006,59.44382],[17.96572,59.44343],[17.95987,59.44516],[17.95586,59.44568],[17.95567,59.44688],[17.95651,59.44672],[17.95806,59.44759],[17.95867,59.44854],[17.95786,59.44894],[17.95845,59.44976],[17.95972,59.45041]]]}},{"type":"Feature","id":"0163R003","properties":{"code":"0163R003","name":"Edsviken-Kummelby"},"geometry":{"type":"Polygon","coordinates":[[[17.98649,59.42148],[17.9915,59.41793],[17.99325,59.41563],[17.99347,59.41483],[17.97918,59.41191],[17.97901,59.41211],[17.97145,59.41059],[17.97124,59.41028],[17.97069,59.41022],[17.96997,59.41027],[17.96871,59.41082],[17.96835,59.41126],[17.96811,59.41264],[17.9669,59.41376],[17.96355,59.41474],[17.96209,59.41544],[17.96016,59.4176],[17.95912,59.42023],[17.9587,59.42062],[17.96322,59.42124],[17.96466,59.42101],[17.9671,59.42178],[17.96943,59.42294],[17.96914,59.42317],[17.97169,59.42422],[17.97152,59.42468],[17.97378,59.42542],[17.97738,59.42739],[17.98224,59.42562],[17.98649,59.42148]]]}},{"type":"Feature","id":"0163R004","properties":{"code":"0163R004","name":"Eriksberg-Fågelsången"},"geometry":{"type":"Polygon","coordinates":[[[17.9516,59.42487],[17.95515,59.41941],[17.95914,59.42017],[17.96016,59.4176],[17.96209,59.41544],[17.96355,59.41474],[17.96653,59.41394],[17.96744,59.41338],[17.96441,59.41233],[17.96192,59.41171],[17.96095,59.4116],[17.96056,59.4125],[17.95959,59.41232],[17.96041,59.41087],[17.9618,59.40941],[17.96154,59.40886],[17.96038,59.40803],[17.95946,59.4077],[17.95289,59.41043],[17.94512,59.41284],[17.93982,59.41477],[17.94068,59.41496],[17.93968,59.41566],[17.9385,59.41761],[17.94052,59.41867],[17.94734,59.42316],[17.9516,59.42487]]]}},{"type":"Feature","id":"0163R005","properties":{"code":"0163R005","name":"Falkberget-Södra Sjöberg"},"geometry":{"type":"Polygon","coordinates":[[[17.99845,59.43887],[18.00351,59.4337],[18.00159,59.4328],[18.0009,59.4335],[17.99993,59.43327],[18.00007,59.43307],[17.99843,59.43306],[17.99673,59.43355],[17.99593,59.43315],[17.99445,59.43373],[17.99445,59.43424],[17.9922,59.43401],[17.99469,59.42953],[17.9955,59.42866],[18.00636,59.43079],[18.00782,59.42921],[18.01084,59.42735],[18.0078,59.42664],[18.00162,59.42616],[18.00102,59.42523],[18.00004,59.42457],[17.99967,59.42369],[17.99724,59.42125],[17.9915,59.41793],[17.98649,59.42148],[17.98224,59.42562],[17.97016,59.43005],[17.968,59.4313],[17.96701,59.43086],[17.96289,59.43415],[17.96823,59.43645],[17.96873,59.43649],[17.97046,59.43595],[17.9707,59.43546],[17.9725,59.4357],[17.97247,59.43604],[17.97535,59.43735],[17.97606,59.43793],[17.98556,59.43639],[17.99123,59.43473],[17.99306,59.43502],[17.99323,59.43657],[17.9953,59.43659],[17.99607,59.43675],[17.99636,59.43818],[17.99807,59.43815],[17.99845,59.43887]]]}},{"type":"Feature","id":"0163R006","properties":{"code":"0163R006","name":"Gillbo-Gillberga"},"geometry":{"type":"Polygon","coordinates":[[[17.87803,59.4874],[17.87903,59.4873],[17.88115,59.48754],[17.881,59.4888],[17.88012,59.49026],[17.88725,59.49133],[17.90796,59.4832],[17.91386,59.47649],[17.90785,59.47645],[17.90789,59.47572],[17.90611,59.47574],[17.90597,59.47271],[17.90522,59.47238],[17.90509,59.47141],[17.89208,59.47423],[17.88734,59.47487],[17.8828,59.47507],[17.87031,59.47487],[17.86546,59.47508],[17.85887,59.47567],[17.84844,59.47728],[17.84527,59.47758],[17.86397,59.48048],[17.86576,59.48165],[17.86718,59.48333],[17.86597,59.48814],[17.8662,59.48908],[17.86574,59.49055],[17.86737,59.49216],[17.87441,59.49041],[17.87486,59.48993],[17.87799,59.48832],[17.87803,59.4874]]]}},{"type":"Feature","id":"0163R007","properties":{"code":"0163R007","name":"Helenelunds centrum"},"geometry":{"type":"Polygon","coordinates":[[[17.96779,59.41308],[17.96835,59.41126],[17.969,59.41061],[17.96997,59.41027],[17.96914,59.41012],[17.96831,59.4105],[17.96752,59.41056],[17.96177,59.40944],[17.96041,59.41087],[17.95959,59.41232],[17.96056,59.4125],[17.96095,59.4116],[17.96307,59.41194],[17.96744,59.41338],[17.96779,59.41308]]]}},{"type":"Feature","id":"0163R008","properties":{"code":"0163R008","name":"Häggvik-Klasro"},"geometry":{"type":"Polygon","coordinates":[[[17.93657,59.45416],[17.94251,59.44897],[17.94198,59.44883],[17.94388,59.44769],[17.94219,59.44714],[17.94372,59.44631],[17.94426,59.4456],[17.9447,59.44563],[17.94551,59.44424],[17.94718,59.4431],[17.94662,59.44263],[17.94554,59.4422],[17.94092,59.44077],[17.94096,59.44015],[17.93971,59.44051],[17.93847,59.44219],[17.93765,59.44189],[17.93867,59.44071],[17.93661,59.44012],[17.94074,59.43599],[17.93933,59.43547],[17.93673,59.43583],[17.93591,59.43611],[17.93514,59.43755],[17.93092,59.43647],[17.92368,59.43531],[17.92411,59.43781],[17.92376,59.43968],[17.9203,59.44586],[17.91889,59.44998],[17.924,59.4508],[17.92708,59.45071],[17.92792,59.4511],[17.92785,59.45125],[17.92841,59.4513],[17.93002,59.45273],[17.93657,59.45416]]]}},{"type":"Feature","id":"0163R009","properties":{"code":"0163R009","name":"Knista"},"geometry":{"type":"Polygon","coordinates":[[[17.93591,59.43611],[17.93933,59.43547],[17.94074,59.43599],[17.94659,59.43004],[17.94249,59.42899],[17.94197,59.42951],[17.93997,59.42975],[17.93754,59.42951],[17.93547,59.42894],[17.93173,59.43215],[17.93092,59.43647],[17.93514,59.43755],[17.93591,59.43611]]]}},{"type":"Feature","id":"0163R010","properties":{"code":"0163R010","name":"Landsnora-Kvarnskogen"},"geometry":{"type":"Polygon","coordinates":[[[17.96263,59.44439],[17.96572,59.44343],[17.97006,59.44382],[17.97279,59.44429],[17.97678,59.44428],[17.97574,59.4422],[17.9755,59.44224],[17.97502,59.44145],[17.97906,59.44134],[17.9825,59.44057],[17.98933,59.43731],[17.99067,59.43633],[17.99181,59.43481],[17.99123,59.43473],[17.98556,59.43639],[17.97606,59.43793],[17.97535,59.43735],[17.97247,59.43604],[17.9725,59.4357],[17.9707,59.43546],[17.97046,59.43595],[17.96873,59.43649],[17.96823,59.43645],[17.96289,59.43415],[17.95716,59.43887],[17.95404,59.43907],[17.95249,59.43897],[17.95089,59.43795],[17.95011,59.44127],[17.94952,59.4419],[17.94595,59.44385],[17.94501,59.4448],[17.9447,59.44563],[17.94507,59.44591],[17.94629,59.44613],[17.95206,59.44597],[17.95831,59.44544],[17.96263,59.44439]]]}},{"type":"Feature","id":"0163R011","properties":{"code":"0163R011","name":"Norrviken"},"geometry":{"type":"Polygon","coordinates":[[[17.91962,59.47007],[17.92036,59.46891],[17.9279,59.46849],[17.92886,59.4633],[17.93657,59.45416],[17.93002,59.45273],[17.92841,59.4513],[17.92785,59.45125],[17.92792,59.4511],[17.92708,59.45071],[17.924,59.4508],[17.91889,59.44998],[17.9196,59.44804],[17.90782,59.44904],[17.90729,59.45034],[17.91485,59.4535],[17.91302,59.45573],[17.9138,59.45586],[17.91153,59.45866],[17.91063,59.46136],[17.9105,59.46384],[17.91084,59.46597],[17.91269,59.47014],[17.91709,59.46969],[17.91962,59.47007]]]}},{"type":"Feature","id":"0163R012","properties":{"code":"0163R012","name":"Nytorp-Hersby-Skansen"},"geometry":{"type":"Polygon","coordinates":[[[17.95011,59.44127],[17.95089,59.43795],[17.95249,59.43897],[17.95404,59.43907],[17.95716,59.43887],[17.96701,59.43086],[17.968,59.4313],[17.97016,59.43005],[17.97738,59.42739],[17.97378,59.42542],[17.97152,59.42468],[17.97169,59.42422],[17.96914,59.42317],[17.96943,59.42294],[17.9671,59.42178],[17.96466,59.42101],[17.96332,59.42124],[17.95913,59.4207],[17.9587,59.42062],[17.95914,59.42017],[17.95515,59.41941],[17.9516,59.42487],[17.954,59.42585],[17.95459,59.42656],[17.95459,59.42706],[17.95306,59.42908],[17.94949,59.43256],[17.94993,59.4345],[17.94799,59.43445],[17.94661,59.43415],[17.94569,59.43341],[17.94483,59.43339],[17.94372,59.43296],[17.93661,59.44012],[17.93867,59.44071],[17.93761,59.44184],[17.93847,59.44219],[17.93971,59.44051],[17.94096,59.44015],[17.94092,59.44077],[17.94554,59.4422],[17.94662,59.44263],[17.94718,59.4431],[17.94952,59.4419],[17.95011,59.44127]]]}},{"type":"Feature","id":"0163R013","properties":{"code":"0163R013","name":"Rotebro centrum"},"geometry":{"type":"Polygon","coordinates":[[[17.91386,59.47649],[17.91962,59.47007],[17.91709,59.46969],[17.91607,59.46975],[17.91005,59.47054],[17.90509,59.47141],[17.90522,59.47238],[17.90597,59.47271],[17.90611,59.47574],[17.90789,59.47572],[17.90785,59.47645],[17.91386,59.47649]]]}},{"type":"Feature","id":"0163R014","properties":{"code":"0163R014","name":"Rotsunda"},"geometry":{"type":"Polygon","coordinates":[[[17.92636,59.49607],[17.92679,59.49609],[17.9275,59.49562],[17.92791,59.49572],[17.92839,59.4955],[17.93223,59.49306],[17.93791,59.49044],[17.94394,59.48839],[17.94718,59.48688],[17.94883,59.48642],[17.9356,59.48001],[17.92743,59.47783],[17.92746,59.47075],[17.9279,59.46849],[17.92036,59.46891],[17.91904,59.47089],[17.90796,59.4832],[17.91033,59.48479],[17.9117,59.48664],[17.92141,59.49732],[17.92131,59.49747],[17.92636,59.49607]]]}},{"type":"Feature","id":"0163R015","properties":{"code":"0163R015","name":"Sjöbergs centrum"},"geometry":{"type":"Polygon","coordinates":[[[17.99445,59.43373],[17.99593,59.43315],[17.99673,59.43355],[17.99901,59.43304],[18.00007,59.43307],[17.99993,59.43327],[18.0009,59.4335],[18.00159,59.4328],[18.00351,59.4337],[18.00636,59.43079],[17.9955,59.42866],[17.99469,59.42953],[17.9922,59.43401],[17.99445,59.43424],[17.99445,59.43373]]]}},{"type":"Feature","id":"0163R016","properties":{"code":"0163R016","name":"Sollentuna centrum"},"geometry":{"type":"Polygon","coordinates":[[[17.94372,59.43296],[17.94483,59.43339],[17.94569,59.43341],[17.94661,59.43415],[17.94799,59.43445],[17.94993,59.4345],[17.94949,59.43256],[17.95306,59.42908],[17.95459,59.42706],[17.95459,59.42656],[17.954,59.42585],[17.9516,59.42487],[17.94147,59.43525],[17.94372,59.43296]]]}},{"type":"Feature","id":"0163R019","properties":{"code":"0163R019","name":"Vaxmora-Väsjön"},"geometry":{"type":"Polygon","coordinates":[[[17.98385,59.46475],[17.98416,59.46361],[17.98949,59.46403],[17.99119,59.46136],[17.9919,59.45889],[17.99787,59.45662],[17.99777,59.45586],[18.00268,59.45005],[18.00666,59.44436],[18.00698,59.44138],[17.99845,59.43887],[17.99807,59.43815],[17.99636,59.43818],[17.99623,59.43684],[17.9953,59.43659],[17.99323,59.43657],[17.99306,59.43502],[17.99181,59.43481],[17.99067,59.43633],[17.98933,59.43731],[17.9825,59.44057],[17.97906,59.44134],[17.97502,59.44145],[17.9755,59.44224],[17.97574,59.4422],[17.97593,59.44254],[17.97571,59.44257],[17.97747,59.44537],[17.97936,59.44559],[17.9789,59.44661],[17.97745,59.44711],[17.9768,59.44703],[17.97692,59.44677],[17.97662,59.44674],[17.97598,59.4476],[17.9752,59.44751],[17.97425,59.4478],[17.9716,59.44785],[17.97025,59.44862],[17.96859,59.44898],[17.96762,59.44886],[17.96708,59.44859],[17.9671,59.44921],[17.96661,59.44943],[17.96374,59.44981],[17.96214,59.44968],[17.96161,59.45029],[17.96082,59.45035],[17.96049,59.45012],[17.95972,59.45041],[17.95845,59.44976],[17.95786,59.44894],[17.95867,59.44854],[17.95806,59.44759],[17.95651,59.44672],[17.95567,59.44688],[17.95586,59.44568],[17.94733,59.44617],[17.94557,59.44602],[17.94426,59.4456],[17.94372,59.44631],[17.94219,59.44714],[17.94388,59.44769],[17.94222,59.44861],[17.94198,59.44883],[17.94251,59.44897],[17.94229,59.44921],[17.93657,59.45416],[17.92886,59.4633],[17.92746,59.47075],[17.92743,59.47783],[17.9356,59.48001],[17.94883,59.48642],[17.95049,59.48596],[17.95463,59.48246],[17.95881,59.47703],[17.98095,59.46874],[17.97949,59.46539],[17.98385,59.46475]]]}},{"type":"Feature","id":"0163R020","properties":{"code":"0163R020","name":"Viby-Järvafältet"},"geometry":{"type":"Polygon","coordinates":[[[17.86862,59.47493],[17.87344,59.47485],[17.8828,59.47507],[17.88934,59.47465],[17.89263,59.47412],[17.90509,59.47141],[17.91269,59.47014],[17.91084,59.46597],[17.9105,59.46384],[17.91063,59.46136],[17.91153,59.45866],[17.9138,59.45586],[17.91302,59.45573],[17.91485,59.4535],[17.90729,59.45034],[17.90782,59.44904],[17.9196,59.44804],[17.92109,59.4442],[17.92376,59.43968],[17.92411,59.43781],[17.92368,59.43531],[17.921,59.43503],[17.9198,59.43393],[17.91757,59.43454],[17.91623,59.43537],[17.91253,59.43579],[17.91209,59.43669],[17.91057,59.43728],[17.90734,59.43796],[17.90639,59.43739],[17.9044,59.43762],[17.90412,59.43873],[17.90284,59.44009],[17.90114,59.44028],[17.89875,59.44006],[17.89365,59.43694],[17.89167,59.4351],[17.89094,59.43296],[17.88918,59.43163],[17.88845,59.4302],[17.89059,59.42913],[17.8904,59.42862],[17.89384,59.42662],[17.89119,59.42542],[17.89012,59.4262],[17.87804,59.42829],[17.87863,59.42893],[17.87868,59.42958],[17.87787,59.43091],[17.87794,59.43128],[17.87882,59.43231],[17.87966,59.43259],[17.87944,59.43335],[17.87815,59.43409],[17.87782,59.43512],[17.87566,59.4363],[17.87497,59.43691],[17.87534,59.44072],[17.87442,59.44317],[17.87416,59.44525],[17.87597,59.44799],[17.87432,59.44907],[17.87349,59.45074],[17.86732,59.4539],[17.85038,59.45384],[17.84416,59.45427],[17.84718,59.45632],[17.84565,59.46167],[17.83691,59.46527],[17.83409,59.46466],[17.83447,59.46681],[17.83343,59.4676],[17.83374,59.4681],[17.8243,59.46832],[17.82491,59.4706],[17.83267,59.47566],[17.84527,59.47758],[17.84844,59.47728],[17.85887,59.47567],[17.86862,59.47493]]]}}]}