{"type":"FeatureCollection","features":[{"type":"Feature","id":"0192R001","properties":{"code":"0192R001","name":"Nynäshamns nordöstra kommundel"},"geometry":{"type":"Polygon","coordinates":[[[17.96273,59.11718],[17.9707,59.10638],[17.98736,59.09668],[17.98252,59.09316],[17.98172,59.0933],[17.98,59.09251],[17.97893,59.09237],[17.97918,59.09115],[17.97946,59.09105],[17.97149,59.08555],[17.96067,59.08434],[17.95257,59.069],[17.94934,59.06111],[17.9569,59.06018],[17.95532,59.05689],[17.95481,59.05064],[17.95788,59.05005],[17.97648,59.05242],[17.97824,59.04709],[17.99678,59.04776],[18.00235,59.04363],[18.00465,59.03926],[18.00428,59.03569],[18.01276,59.0242],[18.01964,59.0221],[18.0217,59.01877],[18.03337,59.00985],[18.03561,59.00428],[18.04223,59.00328],[18.04848,58.99822],[18.05435,58.99584],[18.04761,58.98596],[18.04969,58.98515],[17.92731,58.98468],[17.92612,58.98649],[17.92348,58.98815],[17.91987,58.98917],[17.91595,58.98944],[17.91407,58.99096],[17.91337,58.99253],[17.91143,58.99423],[17.91036,58.996],[17.90843,58.99749],[17.90431,58.99906],[17.90261,58.99913],[17.89775,59.0013],[17.89435,59.00098],[17.88998,59.00087],[17.88665,59.00036],[17.88486,58.9998],[17.88306,58.99894],[17.88082,58.99845],[17.8791,58.99784],[17.87764,58.99707],[17.87635,58.99602],[17.87262,59.00014],[17.87349,59.00062],[17.87026,59.00594],[17.87852,59.02126],[17.84775,59.02199],[17.8473,59.02394],[17.84629,59.02529],[17.84465,59.02646],[17.8424,59.02744],[17.84122,59.02871],[17.83989,59.0296],[17.8374,59.03084],[17.83508,59.0316],[17.83241,59.03204],[17.83015,59.03214],[17.83126,59.03411],[17.83123,59.03594],[17.829,59.03801],[17.82896,59.03644],[17.82704,59.0351],[17.81753,59.03508],[17.81648,59.03143],[17.81104,59.03663],[17.80231,59.03874],[17.80044,59.03984],[17.79112,59.03876],[17.79058,59.04145],[17.78764,59.04148],[17.77849,59.03845],[17.77874,59.03664],[17.77546,59.03608],[17.77387,59.03799],[17.76158,59.03664],[17.75918,59.03221],[17.74701,59.03483],[17.71928,59.03641],[17.71439,59.0445],[17.71843,59.05082],[17.73573,59.05725],[17.74564,59.06334],[17.74257,59.08107],[17.73983,59.08301],[17.75198,59.09231],[17.76068,59.09737],[17.77669,59.09518],[17.78848,59.08984],[17.82232,59.09438],[17.824,59.09228],[17.8302,59.08876],[17.84355,59.08655],[17.85694,59.08402],[17.86983,59.08494],[17.88851,59.09356],[17.89316,59.09551],[17.90389,59.09995],[17.91359,59.10331],[17.91612,59.10709],[17.91588,59.10774],[17.91391,59.10747],[17.91142,59.10633],[17.90918,59.10665],[17.90786,59.10629],[17.90582,59.10639],[17.9037,59.10622],[17.9034,59.10722],[17.91183,59.10896],[17.9115,59.10982],[17.91439,59.11084],[17.91181,59.11824],[17.92158,59.12018],[17.92611,59.12045],[17.92612,59.1207],[17.92866,59.11973],[17.92701,59.11758],[17.92777,59.11683],[17.92938,59.11615],[17.93464,59.11559],[17.93713,59.11654],[17.9397,59.11669],[17.9439,59.12135],[17.95288,59.11995],[17.96273,59.11718]]]}},{"type":"Feature","id":"0192R002","properties":{"code":"0192R002","name":"Nynäshamns stad-norra"},"geometry":{"type":"Polygon","coordinates":[[[17.97865,58.92516],[17.98121,58.91601],[17.96904,58.9119],[17.96723,58.91038],[17.95848,58.91186],[17.95779,58.91179],[17.95685,58.91044],[17.95475,58.9088],[17.9542,58.90896],[17.95317,58.91041],[17.95242,58.911],[17.95091,58.91144],[17.94883,58.91255],[17.94628,58.91431],[17.94509,58.91483],[17.94482,58.91528],[17.94373,58.91511],[17.94263,58.91521],[17.94181,58.91561],[17.9402,58.91573],[17.93868,58.91506],[17.93672,58.91634],[17.9355,58.91648],[17.93295,58.91418],[17.93115,58.9139],[17.92863,58.91193],[17.92914,58.9106],[17.92821,58.91043],[17.92766,58.90624],[17.92765,58.9028],[17.91337,58.89209],[17.91157,58.88944],[17.90751,58.8954],[17.91211,58.89945],[17.91061,58.90015],[17.91422,58.91048],[17.9167,58.9159],[17.9189,58.91904],[17.91815,58.92118],[17.91878,58.92416],[17.91998,58.92663],[17.9213,58.928],[17.92252,58.92884],[17.92776,58.93111],[17.9288,58.93042],[17.93293,58.92882],[17.93596,58.92693],[17.94202,58.92411],[17.94446,58.92406],[17.94623,58.92444],[17.94722,58.92492],[17.95104,58.92765],[17.95788,58.93124],[17.96159,58.93442],[17.96379,58.93698],[17.96454,58.93827],[17.96553,58.93918],[17.96764,58.9401],[17.9724,58.94443],[17.98429,58.93982],[17.98263,58.92841],[17.97728,58.92707],[17.97865,58.92516]]]}},{"type":"Feature","id":"0192R003","properties":{"code":"0192R003","name":"Nynäshamns stad-södra"},"geometry":{"type":"Polygon","coordinates":[[[17.93388,58.89684],[17.93488,58.89655],[17.93641,58.89745],[17.93673,58.8974],[17.93665,58.89692],[17.93694,58.89677],[17.93661,58.89624],[17.93796,58.89598],[17.9407,58.89668],[17.94729,58.89917],[17.95002,58.89756],[17.9572,58.89787],[17.95611,58.89478],[17.95567,58.89492],[17.9513,58.89078],[17.94695,58.8883],[17.94586,58.88857],[17.94561,58.88843],[17.94969,58.88696],[17.94571,58.87486],[17.94118,58.87349],[17.93058,58.87503],[17.92174,58.87149],[17.91664,58.87515],[17.91441,58.87474],[17.91228,58.87306],[17.91165,58.86942],[17.90973,58.86918],[17.90405,58.87346],[17.90428,58.8788],[17.91337,58.89209],[17.92686,58.9022],[17.92973,58.89971],[17.93036,58.89965],[17.931,58.89927],[17.93174,58.89922],[17.93271,58.89759],[17.93388,58.89684]]]}},{"type":"Feature","id":"0192R004","properties":{"code":"0192R004","name":"Nynäshamns stad-västra"},"geometry":{"type":"Polygon","coordinates":[[[17.93672,58.91634],[17.93868,58.91506],[17.9402,58.91573],[17.9411,58.91575],[17.94263,58.91521],[17.94275,58.91449],[17.94239,58.91113],[17.94144,58.90932],[17.9396,58.90745],[17.93748,58.90597],[17.93874,58.90379],[17.93885,58.90274],[17.93265,58.89929],[17.931,58.89927],[17.93036,58.89965],[17.92973,58.89971],[17.92686,58.9022],[17.92765,58.9028],[17.92766,58.90624],[17.92821,58.91043],[17.92914,58.9106],[17.92863,58.91193],[17.93115,58.9139],[17.93295,58.91418],[17.9355,58.91648],[17.93672,58.91634]]]}},{"type":"Feature","id":"0192R005","properties":{"code":"0192R005","name":"Nynäshamns stad-östra"},"geometry":{"type":"Polygon","coordinates":[[[17.94482,58.91528],[17.94509,58.91483],[17.94628,58.91431],[17.94883,58.91255],[17.95091,58.91144],[17.95242,58.911],[17.95443,58.90886],[17.95475,58.9088],[17.95685,58.91044],[17.95779,58.91179],[17.95848,58.91186],[17.96723,58.91038],[17.96534,58.90878],[17.9598,58.90198],[17.95746,58.89775],[17.9572,58.89787],[17.95002,58.89756],[17.94729,58.89917],[17.9407,58.89668],[17.93796,58.89598],[17.93661,58.89624],[17.93694,58.89677],[17.93665,58.89692],[17.93673,58.8974],[17.93641,58.89745],[17.93488,58.89655],[17.93388,58.89684],[17.93271,58.89759],[17.93174,58.89922],[17.93265,58.89929],[17.93336,58.89962],[17.93885,58.90274],[17.93874,58.90379],[17.93748,58.90597],[17.94051,58.90831],[17.94204,58.91039],[17.94266,58.91238],[17.94263,58.91521],[17.94373,58.91511],[17.94482,58.91528]]]}},{"type":"Feature","id":"0192R006","properties":{"code":"0192R006","name":"Nynäshamns södra kommundel"},"geometry":{"type":"Polygon","coordinates":[[[18.05304,58.98378],[18.05395,58.98229],[18.05447,58.98063],[18.05405,58.9787],[18.05396,58.97503],[18.04762,58.96879],[18.04468,58.96047],[18.04171,58.95783],[18.04241,58.95371],[18.06122,58.9461],[18.07426,58.94683],[18.07692,58.94338],[18.075,58.93192],[18.07755,58.92316],[18.02751,58.88218],[18.0014,58.86431],[17.99333,58.8437],[18.11191,58.76898],[18.36501,58.61844],[18.2723,58.58108],[18.25631,58.57423],[18.23734,58.56703],[18.21807,58.55932],[18.20012,58.55156],[18.18945,58.54739],[18.17851,58.54341],[18.16732,58.53964],[18.15588,58.53607],[18.14422,58.53271],[18.13234,58.52956],[18.12026,58.52663],[18.10799,58.52392],[18.09555,58.52144],[18.07788,58.51835],[17.95122,58.48889],[17.79531,58.67143],[17.7867,58.77789],[17.72521,58.79794],[17.71785,58.8153],[17.72712,58.84287],[17.76974,58.84194],[17.79646,58.86066],[17.8091,58.86981],[17.8123,58.8796],[17.82433,58.89148],[17.82179,58.8968],[17.81651,58.90136],[17.81356,58.90347],[17.80126,58.91449],[17.79992,58.91578],[17.79415,58.92301],[17.78752,58.92915],[17.79313,58.9325],[17.79352,58.93238],[17.79355,58.93212],[17.80082,58.93664],[17.8011,58.93705],[17.80003,58.93861],[17.80054,58.93993],[17.80142,58.94075],[17.8035,58.9413],[17.80457,58.94133],[17.80546,58.94085],[17.80712,58.941],[17.8365,58.95992],[17.83656,58.96238],[17.83721,58.96209],[17.83789,58.96224],[17.83813,58.96592],[17.84369,58.96806],[17.84332,58.96889],[17.85942,58.97533],[17.85941,58.97613],[17.86197,58.97655],[17.86766,58.97797],[17.87107,58.97858],[17.87073,58.97708],[17.87114,58.97565],[17.87227,58.97412],[17.87487,58.97207],[17.87845,58.97064],[17.88109,58.97016],[17.88369,58.97003],[17.88707,58.96902],[17.89118,58.96869],[17.89393,58.96889],[17.89592,58.96923],[17.89933,58.97045],[17.90161,58.97224],[17.90373,58.97179],[17.90579,58.97159],[17.90788,58.97159],[17.91056,58.97191],[17.91343,58.97269],[17.91616,58.97403],[17.91856,58.97458],[17.92018,58.97521],[17.92218,58.97635],[17.92482,58.97826],[17.9258,58.97922],[17.92689,58.98109],[17.92745,58.98293],[17.92731,58.98468],[18.04969,58.98515],[18.05304,58.98378]],[[17.96764,58.9401],[17.96553,58.93918],[17.96454,58.93827],[17.96379,58.93698],[17.96159,58.93442],[17.95788,58.93124],[17.95104,58.92765],[17.94722,58.92492],[17.94547,58.92421],[17.94329,58.92401],[17.94202,58.92411],[17.93596,58.92693],[17.93293,58.92882],[17.9288,58.93042],[17.92776,58.93111],[17.92252,58.92884],[17.92023,58.92695],[17.91892,58.9245],[17.91821,58.92188],[17.91826,58.9205],[17.9189,58.91904],[17.9167,58.9159],[17.91422,58.91048],[17.91061,58.90015],[17.91211,58.89945],[17.90751,58.8954],[17.91157,58.88944],[17.90428,58.8788],[17.90405,58.87346],[17.90973,58.86918],[17.91165,58.86942],[17.91228,58.87306],[17.91441,58.87474],[17.91664,58.87515],[17.92174,58.87149],[17.93058,58.87503],[17.94118,58.87349],[17.94571,58.87486],[17.94969,58.88696],[17.94561,58.88843],[17.94586,58.88857],[17.94695,58.8883],[17.9513,58.89078],[17.95567,58.89492],[17.95611,58.89478],[17.9572,58.89787],[17.95746,58.89775],[17.9598,58.90198],[17.96534,58.90878],[17.96904,58.9119],[17.98121,58.91601],[17.97865,58.92516],[17.97728,58.92707],[17.98263,58.92841],[17.98429,58.93982],[17.9724,58.94443],[17.96764,58.9401]]]}},{"type":"Feature","id":"0192R007","properties":{"code":"0192R007","name":"Nynäshamns västra kommundel"},"geometry":{"type":"Polygon","coordinates":[[[17.79058,59.04145],[17.79112,59.03876],[17.80044,59.03984],[17.80231,59.03874],[17.81104,59.03663],[17.81648,59.03143],[17.81753,59.03508],[17.82704,59.0351],[17.82896,59.03644],[17.829,59.03801],[17.83123,59.03594],[17.83126,59.03411],[17.83015,59.03214],[17.83241,59.03204],[17.83508,59.0316],[17.8374,59.03084],[17.83989,59.0296],[17.84122,59.02871],[17.8424,59.02744],[17.84465,59.02646],[17.84629,59.02529],[17.8473,59.02394],[17.84775,59.02199],[17.87852,59.02126],[17.87026,59.00594],[17.87349,59.00062],[17.87262,59.00014],[17.87635,58.99602],[17.87516,58.99378],[17.87532,58.9907],[17.87503,58.9895],[17.87348,58.98647],[17.87276,58.98343],[17.87248,58.98025],[17.87107,58.97858],[17.86766,58.97797],[17.86197,58.97655],[17.85941,58.97613],[17.85942,58.97533],[17.84332,58.96889],[17.84369,58.96806],[17.83813,58.96592],[17.83789,58.96224],[17.83721,58.96209],[17.83656,58.96238],[17.8365,58.95992],[17.80712,58.941],[17.80546,58.94085],[17.80457,58.94133],[17.8035,58.9413],[17.80142,58.94075],[17.80054,58.93993],[17.80003,58.93861],[17.8011,58.93705],[17.80082,58.93664],[17.79355,58.93212],[17.79352,58.93238],[17.79313,58.9325],[17.78752,58.92915],[17.79415,58.92301],[17.79992,58.91578],[17.80126,58.91449],[17.81356,58.90347],[17.81651,58.90136],[17.82179,58.8968],[17.82433,58.89148],[17.8123,58.8796],[17.8091,58.86981],[17.79646,58.86066],[17.76974,58.84194],[17.72712,58.84287],[17.71577,58.86805],[17.71238,58.87684],[17.70864,58.88433],[17.71742,58.90562],[17.7111,58.91764],[17.72533,58.94259],[17.71735,58.96038],[17.72369,58.97004],[17.72714,58.98376],[17.7294,59.0147],[17.72769,59.02264],[17.71928,59.03641],[17.74701,59.03483],[17.75918,59.03221],[17.76158,59.03664],[17.77387,59.03799],[17.77546,59.03608],[17.77874,59.03664],[17.77849,59.03845],[17.78764,59.04148],[17.79058,59.04145]]]}},{"type":"Feature","id":"0192R008","properties":{"code":"0192R008","name":"Ösmo centrala"},"geometry":{"type":"Polygon","coordinates":[[[17.89775,59.0013],[17.90261,58.99913],[17.90431,58.99906],[17.90843,58.99749],[17.91036,58.996],[17.91143,58.99423],[17.91337,58.99253],[17.91407,58.99096],[17.91595,58.98944],[17.91848,58.98936],[17.92115,58.98891],[17.92295,58.98836],[17.92495,58.98738],[17.92615,58.98647],[17.92714,58.98514],[17.92737,58.98256],[17.9258,58.97922],[17.92218,58.97635],[17.91968,58.97499],[17.91616,58.97403],[17.91343,58.97269],[17.91061,58.97192],[17.90788,58.97159],[17.90443,58.9717],[17.90161,58.97224],[17.89978,58.97071],[17.89656,58.96939],[17.89323,58.96881],[17.8891,58.96876],[17.8864,58.96916],[17.88369,58.97003],[17.88109,58.97016],[17.8791,58.97049],[17.87536,58.9718],[17.874,58.97265],[17.87197,58.97445],[17.87097,58.97601],[17.87079,58.97779],[17.87142,58.97917],[17.87248,58.98025],[17.87276,58.98343],[17.87348,58.98647],[17.87503,58.9895],[17.87532,58.9907],[17.87516,58.99378],[17.87569,58.99517],[17.87685,58.99649],[17.87962,58.99805],[17.88306,58.99894],[17.88486,58.9998],[17.88665,59.00036],[17.88998,59.00087],[17.89435,59.00098],[17.89775,59.0013]]]}}]}