{"type":"FeatureCollection","features":[{"type":"Feature","id":"0305R001","properties":{"code":"0305R001","name":"Centrala Bålsta-Mansängen"},"geometry":{"type":"Polygon","coordinates":[[[17.53414,59.57388],[17.54291,59.57167],[17.54445,59.57153],[17.54516,59.5616],[17.5466,59.56015],[17.54473,59.55917],[17.54416,59.55925],[17.54413,59.55975],[17.54335,59.56045],[17.53964,59.56178],[17.53835,59.56287],[17.53183,59.5605],[17.52907,59.56253],[17.52775,59.56203],[17.52724,59.56233],[17.52645,59.56202],[17.52473,59.56302],[17.5242,59.56277],[17.52215,59.56422],[17.52094,59.56377],[17.5201,59.56422],[17.52108,59.56516],[17.52334,59.56655],[17.52577,59.56755],[17.52759,59.56693],[17.52911,59.56757],[17.52963,59.56755],[17.53014,59.56776],[17.52969,59.56773],[17.53071,59.56825],[17.52958,59.5691],[17.53106,59.56968],[17.53018,59.57025],[17.53304,59.57285],[17.53746,59.57292],[17.53401,59.57376],[17.53414,59.57388]]]}},{"type":"Feature","id":"0305R002","properties":{"code":"0305R002","name":"Dyarne-Fånäs-Kalmarsand"},"geometry":{"type":"Polygon","coordinates":[[[17.54597,59.5729],[17.54742,59.57162],[17.54865,59.57143],[17.54914,59.57116],[17.55139,59.57263],[17.57845,59.55928],[17.57649,59.55885],[17.5802,59.55718],[17.58025,59.55191],[17.58108,59.54974],[17.57002,59.54219],[17.56856,59.5404],[17.56619,59.54005],[17.56436,59.54164],[17.54522,59.54427],[17.54842,59.54995],[17.53487,59.55406],[17.53339,59.55416],[17.53207,59.555],[17.53173,59.55635],[17.53491,59.55683],[17.53348,59.5588],[17.53391,59.55894],[17.53183,59.5605],[17.53835,59.56287],[17.53964,59.56178],[17.54335,59.56045],[17.54413,59.55975],[17.54435,59.55915],[17.54473,59.55917],[17.5466,59.56015],[17.54516,59.5616],[17.54448,59.57153],[17.54375,59.57197],[17.54597,59.5729]]]}},{"type":"Feature","id":"0305R003","properties":{"code":"0305R003","name":"Håbo landsbygd"},"geometry":{"type":"Polygon","coordinates":[[[17.60991,59.74473],[17.6411,59.73097],[17.64743,59.72971],[17.65318,59.7292],[17.65191,59.7236],[17.64895,59.72265],[17.6483,59.72192],[17.64746,59.71981],[17.64012,59.71547],[17.63936,59.71335],[17.63443,59.7077],[17.63304,59.70429],[17.6283,59.69829],[17.62623,59.69941],[17.62401,59.70014],[17.62125,59.70145],[17.61832,59.70243],[17.61428,59.70314],[17.61221,59.70399],[17.6103,59.70448],[17.60824,59.70477],[17.60544,59.70485],[17.59953,59.70435],[17.59588,59.7035],[17.59421,59.70283],[17.59254,59.70183],[17.5909,59.70006],[17.58769,59.69959],[17.58526,59.6989],[17.5833,59.69793],[17.58187,59.69675],[17.58086,59.69489],[17.58063,59.6936],[17.58088,59.69253],[17.58181,59.69122],[17.58164,59.6901],[17.58189,59.68903],[17.58318,59.68736],[17.58628,59.68538],[17.58254,59.68468],[17.57996,59.68388],[17.57678,59.68245],[17.57509,59.68131],[17.57364,59.67995],[17.57283,59.67859],[17.57272,59.67715],[17.57332,59.67577],[17.57461,59.67448],[17.57647,59.67342],[17.57933,59.6723],[17.58405,59.6711],[17.58867,59.66856],[17.59095,59.66767],[17.59351,59.66706],[17.5961,59.66676],[17.59825,59.6667],[17.60216,59.66694],[17.5993,59.66527],[17.59365,59.66413],[17.57943,59.66404],[17.57575,59.66213],[17.57358,59.65814],[17.57448,59.65586],[17.57886,59.65329],[17.58423,59.65112],[17.59045,59.64976],[17.58824,59.64696],[17.58659,59.64578],[17.58121,59.64265],[17.57733,59.63983],[17.57483,59.63869],[17.57161,59.63784],[17.56045,59.63772],[17.54529,59.63474],[17.54282,59.63545],[17.53961,59.63526],[17.53189,59.63056],[17.53006,59.63035],[17.52796,59.62921],[17.52709,59.62779],[17.51614,59.6236],[17.51356,59.61155],[17.51519,59.60967],[17.52033,59.60859],[17.5218,59.60554],[17.51979,59.60135],[17.52474,59.5952],[17.52685,59.59116],[17.52369,59.59118],[17.5208,59.59078],[17.51829,59.59006],[17.51627,59.58907],[17.51256,59.58969],[17.51032,59.59061],[17.50769,59.59122],[17.50548,59.59146],[17.50258,59.59144],[17.49916,59.59092],[17.49336,59.58926],[17.49131,59.58887],[17.48742,59.58895],[17.48259,59.58814],[17.47952,59.58705],[17.477,59.58521],[17.47609,59.58371],[17.47608,59.58182],[17.47513,59.58014],[17.4664,59.57859],[17.46391,59.57788],[17.46144,59.57657],[17.45948,59.57445],[17.45903,59.57308],[17.45915,59.57203],[17.45966,59.57101],[17.4609,59.56977],[17.47035,59.56329],[17.47394,59.56178],[17.47818,59.56042],[17.4799,59.55969],[17.48123,59.55807],[17.47856,59.55761],[17.47592,59.55741],[17.47325,59.55685],[17.47033,59.55566],[17.46839,59.55416],[17.46742,59.55231],[17.46746,59.54962],[17.46865,59.54772],[17.47136,59.54596],[17.46758,59.54125],[17.46754,59.53966],[17.46489,59.53659],[17.46034,59.5327],[17.47508,59.52877],[17.48357,59.5261],[17.49051,59.52469],[17.51928,59.52169],[17.51639,59.51796],[17.50973,59.51564],[17.48815,59.51306],[17.46482,59.5074],[17.43368,59.54661],[17.40968,59.56048],[17.39939,59.56946],[17.39633,59.57479],[17.37778,59.59728],[17.37973,59.6076],[17.38604,59.62237],[17.38345,59.62648],[17.3851,59.63081],[17.39148,59.63464],[17.39795,59.64529],[17.39832,59.649],[17.39769,59.65019],[17.39518,59.65255],[17.39471,59.65331],[17.39449,59.65373],[17.39487,59.6556],[17.39382,59.65714],[17.39161,59.65844],[17.39049,59.65874],[17.38378,59.66202],[17.38216,59.66482],[17.39343,59.66337],[17.41367,59.6619],[17.41527,59.66128],[17.41815,59.66084],[17.42057,59.66026],[17.42188,59.6596],[17.42506,59.66113],[17.43034,59.66301],[17.43505,59.66372],[17.43865,59.6638],[17.44422,59.66283],[17.44662,59.66221],[17.44808,59.66205],[17.4506,59.66211],[17.45461,59.66287],[17.4666,59.66429],[17.47411,59.66644],[17.47464,59.66943],[17.47842,59.67375],[17.48291,59.67747],[17.48853,59.68118],[17.50139,59.68315],[17.50892,59.68366],[17.50803,59.69362],[17.51917,59.69847],[17.52038,59.70364],[17.52457,59.70954],[17.53505,59.71242],[17.542,59.71558],[17.53645,59.72039],[17.53589,59.72578],[17.53857,59.73329],[17.56521,59.73406],[17.58098,59.73856],[17.58339,59.73883],[17.60991,59.74473]]]}},{"type":"Feature","id":"0305R004","properties":{"code":"0305R004","name":"Norra Ullevi-Södra Ullevi-Åsen"},"geometry":{"type":"Polygon","coordinates":[[[17.52393,59.5821],[17.52942,59.58056],[17.53495,59.57873],[17.53858,59.57734],[17.54339,59.57482],[17.5383,59.57283],[17.53414,59.57388],[17.53401,59.57376],[17.53746,59.57292],[17.53304,59.57285],[17.53023,59.5703],[17.5136,59.57756],[17.51278,59.57897],[17.51253,59.57961],[17.51427,59.57993],[17.51341,59.5804],[17.51301,59.58033],[17.5119,59.58192],[17.51353,59.58223],[17.51499,59.58421],[17.52393,59.5821]]]}},{"type":"Feature","id":"0305R005","properties":{"code":"0305R005","name":"Skörby-Gillmarken-Åkerby"},"geometry":{"type":"Polygon","coordinates":[[[17.48175,59.57752],[17.48908,59.57362],[17.49104,59.57232],[17.49217,59.57116],[17.50175,59.57303],[17.50189,59.5733],[17.50259,59.57318],[17.50324,59.5734],[17.50464,59.57293],[17.50498,59.57317],[17.50567,59.57255],[17.50889,59.57141],[17.50632,59.56989],[17.50423,59.56948],[17.50472,59.56889],[17.50408,59.56849],[17.505,59.5674],[17.50217,59.5669],[17.49902,59.566],[17.49991,59.56474],[17.499,59.56454],[17.49942,59.56367],[17.49892,59.56353],[17.49899,59.56325],[17.49617,59.56307],[17.49246,59.56128],[17.49199,59.56173],[17.49058,59.56135],[17.49128,59.56068],[17.4895,59.55982],[17.49005,59.55894],[17.49119,59.55829],[17.48936,59.55772],[17.48123,59.55807],[17.4799,59.55969],[17.47193,59.56255],[17.46989,59.56357],[17.4609,59.56977],[17.45928,59.57169],[17.45917,59.57378],[17.46071,59.57596],[17.46285,59.57742],[17.46573,59.57844],[17.47513,59.58014],[17.48175,59.57752]]]}},{"type":"Feature","id":"0305R006","properties":{"code":"0305R006","name":"Slottsskogen-Söderskogen"},"geometry":{"type":"Polygon","coordinates":[[[17.60752,59.70483],[17.61092,59.70434],[17.61428,59.70314],[17.61704,59.70273],[17.61895,59.70224],[17.62623,59.69941],[17.6283,59.69829],[17.62727,59.69699],[17.62954,59.69421],[17.63027,59.68715],[17.63169,59.68446],[17.63142,59.68176],[17.62678,59.67485],[17.61706,59.67399],[17.60983,59.67142],[17.60216,59.66694],[17.59825,59.6667],[17.5961,59.66676],[17.59351,59.66706],[17.59033,59.66787],[17.58867,59.66856],[17.58405,59.6711],[17.57933,59.6723],[17.57597,59.67365],[17.57422,59.67479],[17.57312,59.67609],[17.57272,59.67718],[17.57283,59.67859],[17.57436,59.6807],[17.5773,59.68272],[17.58189,59.68451],[17.58628,59.68538],[17.58357,59.68705],[17.5823,59.68832],[17.58168,59.68973],[17.58181,59.69122],[17.58076,59.69287],[17.58069,59.69431],[17.58121,59.69576],[17.58289,59.69766],[17.58473,59.69868],[17.58643,59.69928],[17.5909,59.70006],[17.59181,59.70122],[17.59298,59.70213],[17.59475,59.70308],[17.59651,59.7037],[17.59887,59.70425],[17.60239,59.70466],[17.60752,59.70483]]]}},{"type":"Feature","id":"0305R007","properties":{"code":"0305R007","name":"Södra Bålsta-Kalmar landsbygd"},"geometry":{"type":"Polygon","coordinates":[[[17.52215,59.56422],[17.5242,59.56277],[17.52473,59.56302],[17.52645,59.56202],[17.52724,59.56233],[17.52775,59.56203],[17.52907,59.56253],[17.53391,59.55894],[17.53348,59.5588],[17.53491,59.55683],[17.53173,59.55635],[17.53207,59.555],[17.53339,59.55416],[17.53487,59.55406],[17.54842,59.54995],[17.54115,59.53745],[17.52692,59.53155],[17.51928,59.52169],[17.49051,59.52469],[17.48357,59.5261],[17.47508,59.52877],[17.46034,59.5327],[17.46489,59.53659],[17.46754,59.53966],[17.46758,59.54125],[17.47136,59.54596],[17.46984,59.54677],[17.46836,59.54803],[17.46762,59.54918],[17.46724,59.55071],[17.46751,59.55265],[17.46806,59.55375],[17.46939,59.55505],[17.47094,59.55598],[17.47464,59.55719],[17.48123,59.55807],[17.48936,59.55772],[17.49119,59.55829],[17.49394,59.55671],[17.4974,59.55559],[17.4987,59.5553],[17.50121,59.55578],[17.50636,59.5552],[17.50781,59.55453],[17.50933,59.55344],[17.51034,59.55394],[17.51053,59.55463],[17.50999,59.55489],[17.50989,59.55521],[17.51081,59.5555],[17.51166,59.55507],[17.51243,59.55634],[17.51347,59.55694],[17.52366,59.55798],[17.5231,59.55917],[17.5222,59.5597],[17.52264,59.56128],[17.52193,59.56176],[17.52072,59.56203],[17.52134,59.56312],[17.52094,59.56377],[17.52215,59.56422]]]}},{"type":"Feature","id":"0305R008","properties":{"code":"0305R008","name":"Västerdalen-Eneby-Väppebyberget"},"geometry":{"type":"Polygon","coordinates":[[[17.51132,59.57101],[17.51161,59.56984],[17.5144,59.56818],[17.51534,59.5682],[17.51843,59.56951],[17.52334,59.56655],[17.52108,59.56516],[17.5201,59.56422],[17.52094,59.56377],[17.52134,59.56312],[17.52072,59.56203],[17.52193,59.56176],[17.52264,59.56128],[17.5222,59.5597],[17.5231,59.55917],[17.52366,59.55798],[17.51347,59.55694],[17.51243,59.55634],[17.51166,59.55507],[17.51081,59.5555],[17.50989,59.55521],[17.50999,59.55489],[17.51053,59.55463],[17.51034,59.55394],[17.50933,59.55344],[17.50781,59.55453],[17.50636,59.5552],[17.50121,59.55578],[17.4987,59.5553],[17.49394,59.55671],[17.49005,59.55894],[17.4895,59.55982],[17.49128,59.56068],[17.49058,59.56135],[17.49199,59.56173],[17.49246,59.56128],[17.49617,59.56307],[17.49899,59.56325],[17.49892,59.56353],[17.49942,59.56367],[17.499,59.56454],[17.49991,59.56474],[17.49902,59.566],[17.50217,59.5669],[17.505,59.5674],[17.50408,59.56849],[17.50472,59.56889],[17.50423,59.56948],[17.50632,59.56989],[17.50889,59.57141],[17.51132,59.57101]]]}},{"type":"Feature","id":"0305R009","properties":{"code":"0305R009","name":"Västerhagen-Västerängen"},"geometry":{"type":"Polygon","coordinates":[[[17.51128,59.57615],[17.51302,59.57691],[17.5136,59.57756],[17.52164,59.57413],[17.53023,59.5703],[17.53096,59.56977],[17.52958,59.5691],[17.53071,59.56825],[17.52969,59.56773],[17.53014,59.56776],[17.52963,59.56755],[17.52911,59.56757],[17.52759,59.56693],[17.52577,59.56755],[17.52337,59.56653],[17.51843,59.56951],[17.51534,59.5682],[17.5144,59.56818],[17.51161,59.56984],[17.51132,59.57101],[17.50889,59.57141],[17.50567,59.57255],[17.50498,59.57317],[17.50464,59.57293],[17.5032,59.57339],[17.50415,59.5761],[17.50741,59.57669],[17.50788,59.57808],[17.50889,59.57838],[17.51128,59.57615]]]}},{"type":"Feature","id":"0305R010","properties":{"code":"0305R010","name":"Västerskog-Graneberg"},"geometry":{"type":"Polygon","coordinates":[[[17.52369,59.59118],[17.52685,59.59116],[17.52796,59.58909],[17.53582,59.58477],[17.54349,59.57998],[17.54703,59.57598],[17.55075,59.57476],[17.55056,59.57364],[17.55139,59.57263],[17.54914,59.57116],[17.54865,59.57143],[17.54742,59.57162],[17.54597,59.5729],[17.54375,59.57197],[17.54448,59.57153],[17.54291,59.57167],[17.5383,59.57283],[17.54339,59.57482],[17.54146,59.57596],[17.53858,59.57734],[17.53495,59.57873],[17.52942,59.58056],[17.52393,59.5821],[17.51499,59.58421],[17.51353,59.58223],[17.5119,59.58192],[17.51301,59.58033],[17.51341,59.5804],[17.51427,59.57993],[17.51253,59.57961],[17.5136,59.57756],[17.51302,59.57691],[17.51128,59.57615],[17.50889,59.57838],[17.50788,59.57808],[17.50741,59.57669],[17.50415,59.5761],[17.5032,59.57339],[17.50259,59.57318],[17.50189,59.5733],[17.50175,59.57303],[17.49217,59.57116],[17.49104,59.57232],[17.48735,59.57461],[17.48175,59.57752],[17.47513,59.58014],[17.47608,59.58182],[17.47623,59.58404],[17.47729,59.58551],[17.47952,59.58705],[17.48321,59.58828],[17.48742,59.58895],[17.49131,59.58887],[17.49336,59.58926],[17.49916,59.59092],[17.50258,59.59144],[17.50548,59.59146],[17.50769,59.59122],[17.51032,59.59061],[17.51256,59.58969],[17.51627,59.58907],[17.51829,59.59006],[17.5208,59.59078],[17.52369,59.59118]]]}}]}