{"type":"FeatureCollection","features":[{"type":"Feature","id":"0319R001","properties":{"code":"0319R001","name":"Skutskär centrala-Skutskär nordvästra"},"geometry":{"type":"Polygon","coordinates":[[[17.39427,60.66164],[17.39497,60.65134],[17.40072,60.64576],[17.40238,60.64291],[17.40109,60.64276],[17.40079,60.64027],[17.40134,60.64],[17.40245,60.63845],[17.40153,60.63833],[17.40072,60.63777],[17.40123,60.63591],[17.40183,60.6357],[17.40195,60.63304],[17.40519,60.63319],[17.40502,60.63367],[17.40549,60.6338],[17.40554,60.63403],[17.40812,60.63393],[17.41149,60.63234],[17.41688,60.63186],[17.41824,60.63147],[17.41746,60.63099],[17.41635,60.62811],[17.41752,60.627],[17.41614,60.62668],[17.41539,60.62619],[17.42185,60.62107],[17.42384,60.61908],[17.42323,60.61898],[17.42118,60.61964],[17.41977,60.62048],[17.41904,60.62028],[17.41724,60.6204],[17.41692,60.62077],[17.41585,60.62096],[17.41387,60.62098],[17.4138,60.62046],[17.41049,60.62081],[17.41045,60.62121],[17.40895,60.62138],[17.40782,60.62187],[17.40649,60.62186],[17.4067,60.62098],[17.40646,60.62088],[17.40676,60.62057],[17.40645,60.62009],[17.40554,60.62014],[17.40573,60.62083],[17.40491,60.62111],[17.40302,60.61955],[17.40207,60.61831],[17.39652,60.62102],[17.39626,60.62084],[17.39301,60.62191],[17.39431,60.62211],[17.39286,60.62292],[17.3921,60.62563],[17.39104,60.62618],[17.38781,60.62728],[17.38627,60.62656],[17.38591,60.62661],[17.38935,60.62799],[17.39049,60.62902],[17.3919,60.62983],[17.39203,60.6307],[17.39103,60.63073],[17.38943,60.62928],[17.38682,60.62804],[17.38207,60.62653],[17.3784,60.62592],[17.37473,60.6259],[17.37155,60.62634],[17.36844,60.6273],[17.36629,60.62851],[17.36904,60.63793],[17.36856,60.63787],[17.3686,60.63845],[17.36934,60.63873],[17.37364,60.65055],[17.37123,60.65212],[17.3693,60.65305],[17.37079,60.65555],[17.37112,60.65725],[17.37567,60.65699],[17.38189,60.67694],[17.39559,60.68576],[17.39427,60.66164]]]}},{"type":"Feature","id":"0319R002","properties":{"code":"0319R002","name":"Skutskär nordöstra"},"geometry":{"type":"Polygon","coordinates":[[[17.46194,60.6473],[17.45684,60.64333],[17.45008,60.64164],[17.44706,60.63942],[17.4493,60.6377],[17.45009,60.6359],[17.44976,60.63394],[17.4491,60.63269],[17.44912,60.63067],[17.44835,60.62928],[17.44646,60.62775],[17.44598,60.62684],[17.44059,60.62825],[17.43691,60.62489],[17.43417,60.61929],[17.43143,60.61901],[17.43063,60.62065],[17.42965,60.62095],[17.42948,60.62141],[17.42693,60.62233],[17.42749,60.62308],[17.42487,60.6244],[17.424,60.62562],[17.42388,60.6266],[17.4214,60.62624],[17.41889,60.62635],[17.41711,60.62691],[17.41752,60.627],[17.41635,60.62811],[17.41746,60.63099],[17.41824,60.63147],[17.41688,60.63186],[17.41149,60.63234],[17.40812,60.63393],[17.40554,60.63403],[17.40549,60.6338],[17.40502,60.63367],[17.40519,60.63319],[17.40195,60.63304],[17.40183,60.6357],[17.40123,60.63591],[17.40072,60.63777],[17.40153,60.63833],[17.40245,60.63845],[17.40134,60.64],[17.40079,60.64027],[17.40109,60.64276],[17.40238,60.64291],[17.40072,60.64576],[17.39497,60.65134],[17.39427,60.66164],[17.39559,60.68576],[17.46194,60.6473]]]}},{"type":"Feature","id":"0319R003","properties":{"code":"0319R003","name":"Skutskär södra"},"geometry":{"type":"Polygon","coordinates":[[[17.44598,60.62684],[17.44479,60.62565],[17.44347,60.62484],[17.43987,60.62356],[17.44427,60.61855],[17.44682,60.61716],[17.45087,60.6144],[17.45362,60.61172],[17.45413,60.61038],[17.45405,60.60935],[17.45334,60.60803],[17.45197,60.60684],[17.45004,60.60586],[17.44829,60.60529],[17.44626,60.60488],[17.44336,60.60464],[17.44115,60.6047],[17.43643,60.60524],[17.43406,60.60571],[17.43171,60.60648],[17.43158,60.60465],[17.42993,60.60266],[17.42688,60.60112],[17.42289,60.60025],[17.41816,60.59986],[17.41516,60.59989],[17.40881,60.60057],[17.40562,60.60142],[17.40249,60.60295],[17.40095,60.60423],[17.39945,60.60683],[17.39898,60.6092],[17.39607,60.61037],[17.39412,60.61187],[17.39323,60.6136],[17.39324,60.61468],[17.39372,60.61582],[17.39327,60.61634],[17.39002,60.61687],[17.38758,60.61768],[17.38531,60.61898],[17.38365,60.62045],[17.38284,60.62184],[17.38285,60.6236],[17.38371,60.62501],[17.38521,60.62622],[17.38781,60.62728],[17.39104,60.62618],[17.3921,60.62563],[17.39286,60.62292],[17.39431,60.62211],[17.39301,60.62191],[17.39626,60.62084],[17.39652,60.62102],[17.40207,60.61831],[17.40302,60.61955],[17.40491,60.62111],[17.40573,60.62083],[17.40554,60.62014],[17.40645,60.62009],[17.40676,60.62057],[17.40646,60.62088],[17.4067,60.62098],[17.40649,60.62186],[17.40782,60.62187],[17.40895,60.62138],[17.41045,60.62121],[17.41049,60.62081],[17.4138,60.62046],[17.41387,60.62098],[17.41585,60.62096],[17.41692,60.62077],[17.41724,60.6204],[17.41904,60.62028],[17.41977,60.62048],[17.42118,60.61964],[17.42323,60.61898],[17.42384,60.61908],[17.42185,60.62107],[17.41539,60.62619],[17.41614,60.62668],[17.4171,60.62691],[17.41889,60.62635],[17.4214,60.62624],[17.42388,60.6266],[17.424,60.62562],[17.42487,60.6244],[17.42749,60.62308],[17.42693,60.62233],[17.42948,60.62141],[17.42965,60.62095],[17.43063,60.62065],[17.43143,60.61901],[17.43417,60.61929],[17.43691,60.62489],[17.44059,60.62825],[17.44598,60.62684]]]}},{"type":"Feature","id":"0319R004","properties":{"code":"0319R004","name":"Älvkarleby"},"geometry":{"type":"Polygon","coordinates":[[[17.45952,60.58653],[17.46253,60.58616],[17.46588,60.58521],[17.46832,60.58386],[17.47018,60.58204],[17.47138,60.57969],[17.47182,60.57751],[17.47168,60.57615],[17.47109,60.57492],[17.47274,60.57421],[17.47447,60.57304],[17.47582,60.57094],[17.47592,60.56798],[17.47535,60.56675],[17.4745,60.5658],[17.47446,60.56522],[17.47681,60.56359],[17.47787,60.56191],[17.47815,60.55994],[17.47759,60.55814],[17.4765,60.55683],[17.47474,60.55568],[17.47307,60.55498],[17.47047,60.55431],[17.46766,60.55398],[17.46547,60.55397],[17.4613,60.55432],[17.45704,60.55503],[17.4563,60.55367],[17.45486,60.55241],[17.45281,60.55138],[17.45034,60.55064],[17.44826,60.55029],[17.44538,60.55014],[17.43828,60.55062],[17.43513,60.55133],[17.43294,60.5523],[17.42849,60.55262],[17.42481,60.55363],[17.42181,60.55531],[17.41891,60.55825],[17.41828,60.55966],[17.41839,60.56108],[17.41949,60.56308],[17.42299,60.56726],[17.42308,60.5694],[17.42356,60.57055],[17.42511,60.57212],[17.42737,60.57329],[17.42837,60.57462],[17.4296,60.57556],[17.43188,60.57665],[17.43583,60.5776],[17.43719,60.57824],[17.43899,60.5801],[17.4441,60.58316],[17.44672,60.58408],[17.44923,60.58462],[17.4509,60.58537],[17.45348,60.5861],[17.45654,60.58652],[17.45952,60.58653]]]}},{"type":"Feature","id":"0319R005","properties":{"code":"0319R005","name":"Älvkarlebys omland"},"geometry":{"type":"Polygon","coordinates":[[[18.10156,60.85203],[17.71612,60.60392],[17.65973,60.59955],[17.57381,60.57611],[17.56372,60.57257],[17.54573,60.56415],[17.51535,60.56209],[17.47964,60.53933],[17.49991,60.53394],[17.5109,60.53353],[17.51116,60.53156],[17.51252,60.52827],[17.51348,60.5273],[17.51505,60.52651],[17.51313,60.52679],[17.50414,60.51864],[17.50125,60.51943],[17.49447,60.51334],[17.49971,60.51273],[17.49943,60.51138],[17.50134,60.51108],[17.5007,60.50939],[17.50171,60.50902],[17.50245,60.50899],[17.50224,60.50875],[17.50172,60.50878],[17.5018,60.5085],[17.50037,60.50855],[17.50008,60.50777],[17.49241,60.50692],[17.48721,60.49665],[17.47675,60.49758],[17.47763,60.48998],[17.43383,60.46346],[17.4144,60.46013],[17.41251,60.4634],[17.41019,60.46173],[17.41082,60.46149],[17.4082,60.45979],[17.40673,60.46003],[17.40616,60.46034],[17.40596,60.46015],[17.39369,60.46213],[17.39456,60.4641],[17.39658,60.46676],[17.39514,60.46735],[17.38323,60.46349],[17.38229,60.46391],[17.38039,60.46417],[17.38035,60.46463],[17.38107,60.46469],[17.38233,60.46519],[17.38255,60.46506],[17.38329,60.46524],[17.38096,60.46614],[17.37902,60.46648],[17.37686,60.46506],[17.37711,60.46674],[17.37487,60.46669],[17.37318,60.46546],[17.37225,60.46569],[17.37243,60.46639],[17.37031,60.46673],[17.36986,60.46635],[17.36809,60.46593],[17.3661,60.4662],[17.36553,60.46682],[17.36387,60.46636],[17.36328,60.46642],[17.36479,60.46928],[17.36294,60.46965],[17.36158,60.47155],[17.3575,60.47059],[17.35747,60.4716],[17.35549,60.47139],[17.35482,60.47322],[17.35276,60.47329],[17.35124,60.47026],[17.34967,60.46975],[17.35161,60.46904],[17.35036,60.46765],[17.34566,60.46807],[17.3459,60.46857],[17.3455,60.46872],[17.34418,60.46819],[17.34223,60.46837],[17.3437,60.46908],[17.34491,60.46897],[17.34509,60.46924],[17.3444,60.46941],[17.34568,60.47008],[17.34314,60.46967],[17.34043,60.47083],[17.3404,60.47114],[17.33665,60.47133],[17.33558,60.4706],[17.33455,60.47047],[17.33532,60.46974],[17.33749,60.4697],[17.33796,60.46923],[17.3378,60.46876],[17.3349,60.469],[17.33413,60.46994],[17.33304,60.46988],[17.33208,60.46925],[17.32091,60.47026],[17.32311,60.44751],[17.28783,60.44681],[17.28931,60.45414],[17.29786,60.46482],[17.30092,60.48955],[17.29892,60.48986],[17.29946,60.49077],[17.29894,60.49216],[17.30009,60.49314],[17.30022,60.49442],[17.30146,60.4944],[17.30272,60.5089],[17.32173,60.53704],[17.34893,60.58617],[17.36531,60.62527],[17.36629,60.62851],[17.36844,60.6273],[17.37155,60.62634],[17.37473,60.6259],[17.3784,60.62592],[17.38207,60.62653],[17.38682,60.62804],[17.38943,60.62928],[17.39103,60.63073],[17.39203,60.6307],[17.3919,60.62983],[17.39049,60.62902],[17.38935,60.62799],[17.38569,60.6265],[17.38371,60.62501],[17.38276,60.62326],[17.38315,60.62115],[17.3849,60.6193],[17.38703,60.61793],[17.39002,60.61687],[17.39327,60.61634],[17.39372,60.61582],[17.39319,60.61432],[17.39363,60.61254],[17.39563,60.61063],[17.39898,60.6092],[17.39945,60.60683],[17.40095,60.60423],[17.40349,60.60239],[17.40562,60.60142],[17.40816,60.60069],[17.41025,60.60037],[17.41666,60.59983],[17.42433,60.60046],[17.42806,60.60158],[17.43032,60.60298],[17.43158,60.60465],[17.43171,60.60648],[17.43406,60.60571],[17.43788,60.60504],[17.44191,60.60466],[17.44553,60.60479],[17.44829,60.60529],[17.45107,60.60632],[17.45306,60.60772],[17.45394,60.60901],[17.45396,60.61106],[17.45269,60.61282],[17.45134,60.61406],[17.44769,60.6166],[17.44427,60.61855],[17.43987,60.62356],[17.44297,60.6246],[17.44479,60.62565],[17.44578,60.62657],[17.44646,60.62775],[17.44835,60.62928],[17.44899,60.63031],[17.4491,60.63269],[17.45002,60.63488],[17.45003,60.63624],[17.44902,60.63801],[17.44706,60.63942],[17.45008,60.64164],[17.45684,60.64333],[17.46194,60.6473],[17.39559,60.68576],[17.7095,60.70837],[17.95716,60.90691],[18.10156,60.85203]],[[17.45813,60.58657],[17.45499,60.58636],[17.45285,60.58596],[17.44923,60.58462],[17.44493,60.58349],[17.4431,60.58268],[17.43899,60.5801],[17.43719,60.57824],[17.43583,60.5776],[17.43188,60.57665],[17.4296,60.57556],[17.42837,60.57462],[17.42737,60.57329],[17.42511,60.57212],[17.4238,60.5709],[17.42308,60.5694],[17.42299,60.56726],[17.41949,60.56308],[17.41873,60.5618],[17.41824,60.56037],[17.41868,60.5586],[17.42147,60.55561],[17.42315,60.5544],[17.42703,60.55292],[17.42983,60.55243],[17.43294,60.5523],[17.43513,60.55133],[17.43828,60.55062],[17.44538,60.55014],[17.44826,60.55029],[17.45034,60.55064],[17.45281,60.55138],[17.45486,60.55241],[17.4563,60.55367],[17.45704,60.55503],[17.4613,60.55432],[17.46547,60.55397],[17.46766,60.55398],[17.47047,60.55431],[17.47307,60.55498],[17.47474,60.55568],[17.4765,60.55683],[17.47759,60.55814],[17.47815,60.55994],[17.47787,60.56191],[17.47681,60.56359],[17.47446,60.56522],[17.4745,60.5658],[17.47535,60.56675],[17.47592,60.56798],[17.47582,60.57094],[17.47447,60.57304],[17.47274,60.57421],[17.47109,60.57492],[17.47168,60.57615],[17.47182,60.57751],[17.47138,60.57969],[17.47018,60.58204],[17.46793,60.58414],[17.46533,60.58542],[17.46187,60.58628],[17.45813,60.58657]]]}}]}