{"type":"FeatureCollection","features":[{"type":"Feature","id":"0331R001","properties":{"code":"0331R001","name":"Heby omland"},"geometry":{"type":"Polygon","coordinates":[[[16.7473,60.13594],[16.76172,60.13486],[16.77028,60.12987],[16.77067,60.12986],[16.77077,60.12958],[16.77462,60.1274],[16.77901,60.12607],[16.77632,60.12442],[16.77779,60.11881],[16.77631,60.11883],[16.79549,60.10112],[16.81391,60.10707],[16.83695,60.10736],[16.84598,60.10789],[16.85078,60.10873],[16.85267,60.10658],[16.84939,60.10597],[16.84495,60.10071],[16.8383,60.10397],[16.83741,60.10402],[16.83913,60.09333],[16.84423,60.09307],[16.84628,60.09197],[16.84662,60.0911],[16.84579,60.09004],[16.8449,60.08982],[16.84482,60.09033],[16.83914,60.08638],[16.83822,60.08396],[16.84175,60.08123],[16.85637,60.07816],[16.87408,60.07591],[16.87502,60.07701],[16.87556,60.07697],[16.87514,60.07642],[16.87561,60.07632],[16.87616,60.07694],[16.87927,60.07655],[16.87875,60.07529],[16.89939,60.07219],[16.91397,60.07501],[16.91856,60.07842],[16.91994,60.07766],[16.92074,60.0776],[16.92131,60.07687],[16.92279,60.07632],[16.92438,60.07656],[16.92601,60.07649],[16.92795,60.07592],[16.92875,60.07531],[16.92958,60.07567],[16.92998,60.07632],[16.92824,60.07741],[16.92752,60.07842],[16.92623,60.0786],[16.92447,60.07827],[16.92328,60.0786],[16.92313,60.07922],[16.92163,60.07977],[16.92061,60.07993],[16.92612,60.08397],[16.92779,60.08363],[16.92834,60.08415],[16.92761,60.08482],[16.9277,60.08512],[16.93812,60.09252],[16.93658,60.09297],[16.93579,60.09356],[16.93693,60.09448],[16.93916,60.09423],[16.93964,60.09347],[16.94702,60.09915],[16.95186,60.09884],[16.95451,60.09832],[16.97703,60.0956],[16.99173,60.09142],[17.00136,60.08736],[17.01272,60.08511],[17.01358,60.08595],[17.01375,60.08791],[17.01577,60.08841],[17.02112,60.08653],[17.02205,60.08458],[17.02276,60.08408],[17.02266,60.08319],[17.03293,60.08126],[17.03543,60.08055],[17.0387,60.0814],[17.04369,60.07951],[17.04401,60.07974],[17.04472,60.07958],[17.04489,60.07974],[17.04524,60.07896],[17.0461,60.07955],[17.04633,60.07941],[17.04997,60.07982],[17.04829,60.08067],[17.05074,60.08055],[17.05058,60.0803],[17.0527,60.07994],[17.05367,60.08069],[17.06094,60.07903],[17.05735,60.07252],[17.05586,60.0713],[17.04798,60.06932],[17.04417,60.06553],[17.04162,60.0643],[17.03253,60.05221],[17.04113,60.04902],[17.05114,60.0491],[17.05106,60.04753],[17.04695,60.0475],[17.04427,60.0451],[17.0595,60.04087],[17.05764,60.03925],[17.09804,60.03056],[17.10152,60.03416],[17.10364,60.03348],[17.11109,60.03212],[17.11838,60.03039],[17.11366,60.02847],[17.11563,60.01591],[17.09302,60.00636],[17.05607,59.99738],[17.03319,59.98878],[17.0252,59.98751],[17.02771,59.98603],[17.02388,59.98006],[17.02893,59.97973],[17.03102,59.97878],[17.02959,59.97782],[17.02357,59.97782],[17.01551,59.97668],[17.01461,59.97629],[17.01304,59.96428],[17.01598,59.96531],[17.01635,59.96577],[17.03079,59.96298],[17.02865,59.96032],[17.01132,59.958],[17.00404,59.95532],[16.99134,59.95202],[16.98798,59.95147],[16.99245,59.9543],[16.9887,59.95547],[16.98147,59.95655],[16.9783,59.95738],[16.97483,59.95509],[16.96177,59.95688],[16.96391,59.95601],[16.96137,59.95509],[16.96157,59.95315],[16.96095,59.95258],[16.9564,59.95183],[16.95999,59.94804],[16.95632,59.94651],[16.95353,59.94593],[16.9506,59.94472],[16.94895,59.94352],[16.94808,59.94239],[16.94584,59.94164],[16.94392,59.94056],[16.94104,59.93743],[16.94043,59.93625],[16.94031,59.93513],[16.94062,59.93402],[16.94152,59.93276],[16.94107,59.93081],[16.94137,59.92964],[16.94226,59.92841],[16.94197,59.92651],[16.9422,59.92501],[16.93815,59.92195],[16.93857,59.92141],[16.9377,59.92031],[16.9376,59.91943],[16.9366,59.91895],[16.93623,59.91839],[16.93618,59.91723],[16.92825,59.91097],[16.92221,59.90517],[16.92026,59.90153],[16.92186,59.89782],[16.92093,59.89277],[16.92387,59.88962],[16.92484,59.88972],[16.92631,59.88955],[16.92963,59.89012],[16.93253,59.88854],[16.93569,59.8876],[16.93529,59.88578],[16.93349,59.88497],[16.93185,59.88246],[16.93737,59.8794],[16.93784,59.87717],[16.93654,59.87611],[16.93719,59.87407],[16.9313,59.87334],[16.93238,59.87134],[16.93417,59.87129],[16.93535,59.87051],[16.93423,59.86929],[16.9345,59.86879],[16.9343,59.86724],[16.93329,59.86747],[16.9315,59.86743],[16.93,59.86708],[16.92775,59.86473],[16.92567,59.86508],[16.91916,59.86375],[16.91811,59.86314],[16.91739,59.8631],[16.91667,59.86342],[16.91642,59.8646],[16.91521,59.86511],[16.91578,59.8663],[16.91548,59.86666],[16.9148,59.86687],[16.91468,59.86774],[16.91365,59.86761],[16.91272,59.86796],[16.90979,59.86838],[16.88255,59.86737],[16.85743,59.86385],[16.8585,59.86588],[16.84283,59.87076],[16.83219,59.873],[16.82864,59.87454],[16.82157,59.87605],[16.81228,59.87699],[16.80409,59.88003],[16.79901,59.8815],[16.77792,59.89],[16.77306,59.89427],[16.77778,59.90571],[16.78712,59.9055],[16.80212,59.90868],[16.80007,59.91404],[16.79922,59.91892],[16.79884,59.91874],[16.79841,59.9188],[16.79925,59.92029],[16.79686,59.93059],[16.79433,59.94587],[16.79371,59.94587],[16.79387,59.94482],[16.79211,59.94285],[16.79159,59.94254],[16.79071,59.94253],[16.79145,59.9459],[16.78714,59.94792],[16.78628,59.95],[16.78553,59.95052],[16.78537,59.95143],[16.78409,59.95273],[16.78223,59.95335],[16.781,59.95341],[16.77959,59.95431],[16.77815,59.95439],[16.77679,59.95533],[16.77591,59.95492],[16.77515,59.95388],[16.77419,59.95354],[16.7745,59.95353],[16.77392,59.95296],[16.77326,59.953],[16.77363,59.95348],[16.77311,59.95301],[16.77186,59.95308],[16.77133,59.95241],[16.76863,59.95188],[16.7688,59.95128],[16.76947,59.95097],[16.76913,59.95067],[16.7694,59.95017],[16.76913,59.9499],[16.7678,59.94945],[16.76619,59.94944],[16.76503,59.9491],[16.76306,59.9492],[16.76185,59.95014],[16.76136,59.95115],[16.7614,59.95335],[16.76283,59.95485],[16.76514,59.95643],[16.76935,59.96032],[16.7706,59.96228],[16.77141,59.96275],[16.77165,59.96381],[16.77425,59.96335],[16.77538,59.96243],[16.77659,59.96247],[16.77661,59.96345],[16.77613,59.96448],[16.77648,59.96516],[16.77716,59.96525],[16.77729,59.96431],[16.77779,59.96394],[16.77748,59.96379],[16.77767,59.96301],[16.78361,59.96205],[16.78348,59.96285],[16.78414,59.96316],[16.7839,59.96329],[16.7892,59.96576],[16.77434,59.97431],[16.76167,59.97503],[16.7551,59.97633],[16.75013,59.977],[16.74295,59.97975],[16.74122,59.98067],[16.73823,59.98287],[16.73667,59.98529],[16.73667,59.98709],[16.73428,59.9893],[16.73492,59.99095],[16.73525,59.99322],[16.734,59.9971],[16.7337,60.00202],[16.72679,60.00097],[16.72365,60.00124],[16.72245,60.00314],[16.72278,60.00379],[16.72269,60.00466],[16.72227,60.00502],[16.72112,60.00507],[16.72008,60.0055],[16.72008,60.00619],[16.71901,60.00618],[16.71928,60.00756],[16.71822,60.00827],[16.71618,60.01086],[16.71638,60.01132],[16.71836,60.01234],[16.71813,60.01316],[16.72131,60.01622],[16.72276,60.0196],[16.72406,60.02504],[16.72682,60.03222],[16.72768,60.03632],[16.72803,60.04104],[16.72747,60.04337],[16.71168,60.05618],[16.71753,60.05746],[16.70743,60.07171],[16.70313,60.07408],[16.70097,60.07615],[16.69997,60.07757],[16.69508,60.0804],[16.6938,60.08134],[16.69197,60.08334],[16.71417,60.08937],[16.70516,60.10896],[16.72863,60.11105],[16.73231,60.11259],[16.73218,60.11544],[16.73524,60.11773],[16.7275,60.12087],[16.7473,60.13594]],[[16.86346,59.96951],[16.85927,59.96907],[16.85443,59.96754],[16.85171,59.96577],[16.85053,59.96377],[16.8473,59.96368],[16.84528,59.96343],[16.84281,59.96281],[16.84119,59.96215],[16.83886,59.96044],[16.83769,59.95775],[16.8381,59.9557],[16.84007,59.95352],[16.83704,59.9536],[16.83427,59.9533],[16.82638,59.95118],[16.8232,59.94961],[16.82211,59.94863],[16.82129,59.94723],[16.8212,59.94566],[16.8221,59.94386],[16.82029,59.942],[16.8194,59.93935],[16.81976,59.93711],[16.82056,59.93575],[16.82178,59.93467],[16.82369,59.93362],[16.82673,59.93268],[16.83134,59.93213],[16.8331,59.93117],[16.83493,59.93052],[16.83605,59.92949],[16.83744,59.92867],[16.84008,59.92771],[16.8402,59.9274],[16.83781,59.92581],[16.83655,59.92403],[16.83613,59.92232],[16.8366,59.9209],[16.83809,59.91935],[16.84047,59.91804],[16.84307,59.91719],[16.84651,59.91667],[16.85324,59.91653],[16.85545,59.91676],[16.85759,59.91722],[16.86205,59.91858],[16.86407,59.9195],[16.86569,59.92061],[16.86673,59.92193],[16.86884,59.92024],[16.8724,59.91889],[16.8767,59.91831],[16.88114,59.91856],[16.88453,59.91939],[16.88716,59.92059],[16.88873,59.92182],[16.88973,59.92341],[16.88989,59.92479],[16.88934,59.9262],[16.8859,59.92987],[16.88728,59.93126],[16.8878,59.93276],[16.88925,59.93377],[16.89035,59.93519],[16.8907,59.93658],[16.89045,59.93805],[16.88932,59.94],[16.88754,59.94148],[16.88406,59.9429],[16.88071,59.94359],[16.88289,59.94681],[16.88315,59.94889],[16.88177,59.95102],[16.88051,59.95195],[16.87857,59.95287],[16.87913,59.95433],[16.87878,59.95608],[16.8751,59.95997],[16.87518,59.96108],[16.87624,59.96321],[16.87587,59.96511],[16.87431,59.96684],[16.87135,59.96838],[16.86795,59.96922],[16.86346,59.96951]]]}},{"type":"Feature","id":"0331R002","properties":{"code":"0331R002","name":"Heby västra"},"geometry":{"type":"Polygon","coordinates":[[[16.84406,59.95604],[16.84536,59.95507],[16.84687,59.9548],[16.84797,59.95467],[16.84924,59.95492],[16.84983,59.95423],[16.85104,59.9538],[16.85259,59.95356],[16.85307,59.95327],[16.85522,59.95349],[16.85544,59.95199],[16.85851,59.95221],[16.85852,59.95197],[16.85893,59.95193],[16.85761,59.95111],[16.85697,59.95022],[16.85724,59.9485],[16.85765,59.94795],[16.85731,59.94664],[16.85598,59.94437],[16.85515,59.94366],[16.85751,59.94285],[16.85909,59.94295],[16.86337,59.94049],[16.86561,59.93821],[16.86811,59.93673],[16.87023,59.93361],[16.8699,59.93341],[16.86616,59.93339],[16.86614,59.93314],[16.86528,59.93269],[16.8665,59.93218],[16.86675,59.93124],[16.86749,59.93041],[16.86718,59.92938],[16.86677,59.92924],[16.86774,59.92909],[16.86762,59.92859],[16.86877,59.92827],[16.86885,59.92693],[16.87003,59.92671],[16.86932,59.92618],[16.87071,59.92538],[16.87082,59.92489],[16.87017,59.92462],[16.87105,59.92421],[16.8705,59.92391],[16.87115,59.92326],[16.86358,59.92254],[16.86258,59.92216],[16.86327,59.92138],[16.86374,59.92013],[16.86357,59.91994],[16.86142,59.91931],[16.86171,59.9186],[16.86146,59.91838],[16.85678,59.91702],[16.85324,59.91653],[16.84719,59.91663],[16.84434,59.91693],[16.841,59.91783],[16.83852,59.91906],[16.8366,59.9209],[16.83617,59.92301],[16.83751,59.9255],[16.83861,59.92648],[16.8402,59.9274],[16.84008,59.92771],[16.83744,59.92867],[16.83605,59.92949],[16.83493,59.93052],[16.8331,59.93117],[16.83134,59.93213],[16.82673,59.93268],[16.82314,59.93387],[16.82088,59.93542],[16.81966,59.93747],[16.81941,59.93938],[16.82011,59.94164],[16.82077,59.94267],[16.8221,59.94386],[16.8212,59.94566],[16.82129,59.94723],[16.82211,59.94863],[16.8232,59.94961],[16.82638,59.95118],[16.82951,59.95192],[16.83296,59.95303],[16.83631,59.95355],[16.84007,59.95352],[16.83881,59.95481],[16.84241,59.95547],[16.84378,59.95602],[16.84406,59.95604]]]}},{"type":"Feature","id":"0331R003","properties":{"code":"0331R003","name":"Heby östra"},"geometry":{"type":"Polygon","coordinates":[[[16.8642,59.96951],[16.86795,59.96922],[16.87062,59.96862],[16.8735,59.96739],[16.87536,59.96584],[16.87602,59.96477],[16.87626,59.96355],[16.87602,59.96239],[16.87518,59.96108],[16.8751,59.95997],[16.87878,59.95608],[16.87913,59.95433],[16.87857,59.95287],[16.88051,59.95195],[16.88177,59.95102],[16.88315,59.94889],[16.88289,59.94681],[16.88071,59.94359],[16.88406,59.9429],[16.88754,59.94148],[16.88932,59.94],[16.89056,59.93771],[16.89068,59.93623],[16.89009,59.93474],[16.88925,59.93377],[16.8878,59.93276],[16.88728,59.93126],[16.8859,59.92987],[16.88844,59.9274],[16.88956,59.92583],[16.88992,59.92445],[16.8895,59.92287],[16.88807,59.92122],[16.88608,59.92002],[16.88337,59.91903],[16.87961,59.91838],[16.87583,59.91836],[16.87179,59.91905],[16.86884,59.92024],[16.86673,59.92193],[16.86494,59.92002],[16.86146,59.91838],[16.86171,59.9186],[16.86142,59.91931],[16.86357,59.91994],[16.86374,59.92013],[16.86327,59.92138],[16.86258,59.92216],[16.86386,59.92259],[16.87115,59.92326],[16.8705,59.92391],[16.87105,59.92421],[16.87017,59.92462],[16.87082,59.92489],[16.87071,59.92538],[16.86932,59.92618],[16.87003,59.92671],[16.86885,59.92693],[16.86877,59.92827],[16.86762,59.92859],[16.86774,59.92909],[16.86677,59.92924],[16.86718,59.92938],[16.86749,59.93041],[16.86675,59.93124],[16.8665,59.93218],[16.86528,59.93269],[16.86614,59.93314],[16.86616,59.93339],[16.8699,59.93341],[16.87023,59.93361],[16.86848,59.93628],[16.86793,59.93686],[16.86561,59.93821],[16.86337,59.94049],[16.85909,59.94295],[16.85751,59.94285],[16.85515,59.94366],[16.85598,59.94437],[16.85731,59.94664],[16.85765,59.94795],[16.85724,59.9485],[16.85697,59.95022],[16.85761,59.95111],[16.85893,59.95193],[16.85852,59.95197],[16.85851,59.95221],[16.85544,59.95199],[16.85522,59.95349],[16.85307,59.95327],[16.85259,59.95356],[16.85104,59.9538],[16.84983,59.95423],[16.84924,59.95492],[16.84797,59.95467],[16.84536,59.95507],[16.84406,59.95604],[16.84241,59.95547],[16.83881,59.95481],[16.8378,59.95637],[16.8377,59.95778],[16.8384,59.95979],[16.8395,59.96106],[16.84119,59.96215],[16.84281,59.96281],[16.84528,59.96343],[16.8473,59.96368],[16.85053,59.96377],[16.85171,59.96577],[16.85443,59.96754],[16.85927,59.96907],[16.862,59.96945],[16.8642,59.96951]]]}},{"type":"Feature","id":"0331R004","properties":{"code":"0331R004","name":"Morgongåva tätort"},"geometry":{"type":"Polygon","coordinates":[[[16.96584,59.94867],[16.97079,59.94845],[16.97355,59.94802],[16.97652,59.94704],[16.97876,59.94562],[16.98009,59.94357],[16.9802,59.94217],[16.97974,59.94089],[16.98286,59.93973],[16.98519,59.93793],[16.98748,59.93297],[16.9874,59.93105],[16.99009,59.92955],[16.99161,59.92781],[16.99197,59.92636],[16.99161,59.92491],[16.99046,59.92346],[16.98871,59.92228],[16.98636,59.92131],[16.98375,59.9207],[16.98106,59.92046],[16.97835,59.92057],[16.97448,59.92126],[16.96988,59.92237],[16.96685,59.92185],[16.96547,59.92078],[16.96399,59.92005],[16.95993,59.91883],[16.95581,59.91833],[16.95208,59.91853],[16.94874,59.91916],[16.94645,59.92003],[16.94395,59.92163],[16.94278,59.92295],[16.94198,59.92616],[16.94226,59.92841],[16.94137,59.92964],[16.94107,59.93081],[16.94152,59.93276],[16.94036,59.93478],[16.94059,59.93668],[16.94355,59.94027],[16.9453,59.94139],[16.94808,59.94239],[16.94928,59.94382],[16.9512,59.94504],[16.95353,59.94593],[16.95632,59.94651],[16.95842,59.94751],[16.96025,59.94808],[16.96297,59.94855],[16.96584,59.94867]]]}},{"type":"Feature","id":"0331R005","properties":{"code":"0331R005","name":"Nora-Harbo omland"},"geometry":{"type":"Polygon","coordinates":[[[16.99219,60.28755],[17.00062,60.27573],[17.00206,60.27492],[17.01543,60.27317],[17.02181,60.27319],[17.04167,60.27537],[17.05847,60.27297],[17.08241,60.25921],[17.07299,60.25774],[17.06477,60.25683],[17.05507,60.25532],[17.0654,60.24707],[17.06488,60.24686],[17.06586,60.24604],[17.0669,60.24379],[17.06797,60.24389],[17.07152,60.2378],[17.03411,60.23818],[17.07985,60.23374],[17.08077,60.23248],[17.06623,60.21823],[17.04759,60.2028],[17.05092,60.17934],[17.04741,60.17819],[17.05198,60.17347],[17.05074,60.17002],[17.0523,60.16944],[17.04887,60.16564],[17.05142,60.16429],[17.05499,60.16372],[17.05789,60.16209],[17.05936,60.16067],[17.06487,60.16103],[17.06506,60.16143],[17.06798,60.16123],[17.08143,60.14723],[17.08308,60.14667],[17.08522,60.1449],[17.08137,60.1299],[17.08322,60.12576],[17.08277,60.11678],[17.09436,60.11333],[17.10236,60.11293],[17.11221,60.10906],[17.12099,60.10692],[17.12493,60.10621],[17.12904,60.10797],[17.14022,60.1193],[17.1447,60.12045],[17.15062,60.12319],[17.1513,60.1233],[17.15696,60.12766],[17.15876,60.12706],[17.16371,60.12667],[17.16428,60.12646],[17.16614,60.12665],[17.1682,60.1263],[17.16901,60.12592],[17.16986,60.12597],[17.16778,60.13331],[17.1647,60.13225],[17.16495,60.13493],[17.16198,60.13689],[17.16207,60.13714],[17.1657,60.13736],[17.16522,60.1383],[17.17021,60.14908],[17.16765,60.15048],[17.16658,60.15293],[17.16564,60.15354],[17.16579,60.15385],[17.16823,60.15325],[17.16926,60.15323],[17.16957,60.15378],[17.17081,60.15421],[17.17234,60.15384],[17.17601,60.15351],[17.17726,60.15553],[17.17569,60.15615],[17.1774,60.15892],[17.18065,60.16117],[17.18129,60.16191],[17.18506,60.16194],[17.18817,60.16246],[17.19584,60.16258],[17.19759,60.16147],[17.19842,60.16173],[17.198,60.16207],[17.19867,60.16235],[17.20236,60.16041],[17.20237,60.16126],[17.20364,60.16364],[17.20723,60.16292],[17.20869,60.16375],[17.21173,60.16113],[17.21254,60.16126],[17.21457,60.15976],[17.21565,60.15848],[17.24976,60.14979],[17.2755,60.14564],[17.29942,60.15277],[17.32176,60.1335],[17.32295,60.12631],[17.31429,60.11718],[17.3161,60.11314],[17.30854,60.10711],[17.30313,60.10862],[17.29775,60.10599],[17.30869,60.0861],[17.3076,60.07776],[17.30273,60.06454],[17.29444,60.05992],[17.29337,60.05862],[17.29334,60.05779],[17.29109,60.05618],[17.28842,60.05313],[17.28818,60.0524],[17.28709,60.05163],[17.27933,60.04369],[17.25225,60.03858],[17.23072,60.04073],[17.20675,60.0448],[17.19279,60.03348],[17.1791,60.02591],[17.17031,60.01996],[17.16001,60.00663],[17.14738,60.00079],[17.14199,60.0002],[17.14407,60.00145],[17.14489,60.0014],[17.1454,60.00181],[17.14441,60.00303],[17.1463,60.00496],[17.14852,60.00644],[17.14805,60.00688],[17.14636,60.00751],[17.14634,60.00888],[17.11563,60.01591],[17.11366,60.02847],[17.11838,60.03039],[17.11109,60.03212],[17.10364,60.03348],[17.10152,60.03416],[17.09804,60.03056],[17.05764,60.03925],[17.0595,60.04087],[17.04427,60.0451],[17.04695,60.0475],[17.05106,60.04753],[17.05114,60.0491],[17.04113,60.04902],[17.03253,60.05221],[17.04162,60.0643],[17.04417,60.06553],[17.04798,60.06932],[17.05586,60.0713],[17.05735,60.07252],[17.06094,60.07903],[17.05367,60.08069],[17.0527,60.07994],[17.05058,60.0803],[17.05074,60.08055],[17.04829,60.08067],[17.04997,60.07982],[17.04633,60.07941],[17.0461,60.07955],[17.04524,60.07896],[17.04489,60.07974],[17.04472,60.07958],[17.04401,60.07974],[17.04369,60.07951],[17.0387,60.0814],[17.03543,60.08055],[17.03293,60.08126],[17.02266,60.08319],[17.02276,60.08408],[17.02205,60.08458],[17.02112,60.08653],[17.01577,60.08841],[17.01375,60.08791],[17.01358,60.08595],[17.01272,60.08511],[17.00136,60.08736],[16.99173,60.09142],[16.97703,60.0956],[16.95451,60.09832],[16.95186,60.09884],[16.94702,60.09915],[16.93964,60.09347],[16.93916,60.09423],[16.93693,60.09448],[16.93579,60.09356],[16.93658,60.09297],[16.93812,60.09252],[16.9277,60.08512],[16.92761,60.08482],[16.92834,60.08415],[16.92779,60.08363],[16.92612,60.08397],[16.92061,60.07993],[16.92163,60.07977],[16.92313,60.07922],[16.92328,60.0786],[16.92447,60.07827],[16.92623,60.0786],[16.92752,60.07842],[16.92824,60.07741],[16.92998,60.07632],[16.92958,60.07567],[16.92875,60.07531],[16.92795,60.07592],[16.92601,60.07649],[16.92438,60.07656],[16.92279,60.07632],[16.92131,60.07687],[16.92074,60.0776],[16.91994,60.07766],[16.91856,60.07842],[16.91397,60.07501],[16.89939,60.07219],[16.87875,60.07529],[16.87927,60.07655],[16.87616,60.07694],[16.87561,60.07632],[16.87514,60.07642],[16.87556,60.07697],[16.87502,60.07701],[16.87408,60.07591],[16.86419,60.07711],[16.85637,60.07816],[16.84175,60.08123],[16.83822,60.08396],[16.83914,60.08638],[16.84482,60.09033],[16.8449,60.08982],[16.84579,60.09004],[16.84662,60.0911],[16.84628,60.09197],[16.84423,60.09307],[16.83913,60.09333],[16.83741,60.10402],[16.8383,60.10397],[16.84495,60.10071],[16.84939,60.10597],[16.85267,60.10658],[16.85078,60.10873],[16.84598,60.10789],[16.83695,60.10736],[16.81391,60.10707],[16.79549,60.10112],[16.77631,60.11883],[16.77779,60.11881],[16.77632,60.12442],[16.77901,60.12607],[16.77462,60.1274],[16.77077,60.12958],[16.77067,60.12986],[16.77028,60.12987],[16.76172,60.13486],[16.7473,60.13594],[16.73985,60.14586],[16.7394,60.14685],[16.73809,60.14811],[16.73803,60.14912],[16.73907,60.1511],[16.73861,60.15216],[16.73895,60.15262],[16.73786,60.15401],[16.73514,60.15635],[16.7346,60.15749],[16.73431,60.16054],[16.73305,60.16177],[16.73319,60.16418],[16.73363,60.16564],[16.73068,60.16949],[16.72712,60.17327],[16.72616,60.17299],[16.72386,60.17584],[16.72429,60.17606],[16.72392,60.17681],[16.71647,60.1849],[16.71264,60.18628],[16.71119,60.18715],[16.71005,60.18911],[16.70686,60.19263],[16.70682,60.19416],[16.70503,60.19472],[16.70479,60.19509],[16.70709,60.19591],[16.70837,60.19615],[16.71203,60.19608],[16.71686,60.19489],[16.72399,60.19565],[16.72759,60.19527],[16.73389,60.19513],[16.75006,60.18864],[16.77904,60.18992],[16.78582,60.1958],[16.79673,60.19767],[16.79947,60.19958],[16.7975,60.2038],[16.80025,60.20604],[16.80261,60.21212],[16.8229,60.21678],[16.84182,60.21684],[16.85036,60.22436],[16.85415,60.22463],[16.85435,60.22489],[16.85394,60.22498],[16.85396,60.22527],[16.8531,60.22548],[16.8535,60.22573],[16.85467,60.22597],[16.85547,60.22477],[16.85605,60.2248],[16.85634,60.22512],[16.85711,60.22528],[16.8567,60.22486],[16.86453,60.22544],[16.87087,60.22731],[16.87582,60.23058],[16.90491,60.23949],[16.89666,60.24473],[16.8921,60.24331],[16.88821,60.24451],[16.88757,60.24624],[16.88623,60.25356],[16.88644,60.25491],[16.88752,60.25567],[16.89146,60.25969],[16.89608,60.26158],[16.90295,60.26631],[16.90223,60.2678],[16.90758,60.26913],[16.91185,60.26921],[16.91216,60.26938],[16.91313,60.27086],[16.91292,60.27206],[16.91212,60.27315],[16.91092,60.274],[16.91069,60.27467],[16.91123,60.27637],[16.90946,60.27866],[16.90888,60.2815],[16.92098,60.28485],[16.91924,60.28533],[16.9197,60.28562],[16.92156,60.28502],[16.92925,60.28718],[16.96175,60.28731],[16.96373,60.28857],[16.96318,60.2902],[16.96101,60.29238],[16.96683,60.29309],[16.9686,60.29525],[16.98052,60.29527],[16.99219,60.28755]],[[16.92704,60.1707],[16.92638,60.16897],[16.92243,60.168],[16.91956,60.16639],[16.91801,60.16452],[16.91776,60.16289],[16.914,60.16198],[16.90879,60.15987],[16.90673,60.15847],[16.90568,60.15698],[16.9054,60.15552],[16.90611,60.1527],[16.90543,60.15117],[16.90562,60.14947],[16.90506,60.14779],[16.90564,60.14581],[16.90714,60.14426],[16.90903,60.14321],[16.91142,60.14241],[16.91474,60.14183],[16.91903,60.1418],[16.92528,60.14268],[16.92837,60.14358],[16.93126,60.14518],[16.93425,60.14476],[16.93714,60.14465],[16.93928,60.1448],[16.94302,60.14546],[16.9491,60.14718],[16.95131,60.14808],[16.95334,60.14955],[16.95463,60.1513],[16.9549,60.15305],[16.95453,60.15446],[16.95346,60.15578],[16.95208,60.15675],[16.95465,60.15832],[16.95605,60.16029],[16.95643,60.1618],[16.95595,60.16343],[16.95651,60.16521],[16.95597,60.16703],[16.95664,60.16826],[16.95877,60.16994],[16.95954,60.17165],[16.95948,60.17283],[16.95901,60.17385],[16.95677,60.1762],[16.95427,60.17742],[16.95079,60.17826],[16.94643,60.17857],[16.9425,60.17819],[16.93976,60.17749],[16.93652,60.17599],[16.93421,60.17541],[16.93254,60.17472],[16.92847,60.17209],[16.92704,60.1707]]]}},{"type":"Feature","id":"0331R006","properties":{"code":"0331R006","name":"Tärnsjö tätort"},"geometry":{"type":"Polygon","coordinates":[[[16.9478,60.17854],[16.95244,60.17794],[16.95586,60.17673],[16.95813,60.17499],[16.95921,60.17352],[16.95955,60.17249],[16.95902,60.17028],[16.95819,60.16933],[16.95664,60.16826],[16.95597,60.16703],[16.95651,60.16521],[16.95595,60.16343],[16.95643,60.1618],[16.95605,60.16029],[16.95465,60.15832],[16.95208,60.15675],[16.95408,60.15513],[16.95487,60.15339],[16.95463,60.1513],[16.95334,60.14955],[16.9518,60.14835],[16.94968,60.14737],[16.94363,60.14561],[16.93999,60.1449],[16.93566,60.14466],[16.93126,60.14518],[16.92893,60.14382],[16.92657,60.14298],[16.91903,60.1418],[16.91542,60.14177],[16.91142,60.14241],[16.90903,60.14321],[16.90716,60.14424],[16.90586,60.14548],[16.9052,60.14676],[16.9051,60.14822],[16.90562,60.14947],[16.90543,60.15117],[16.90611,60.1527],[16.90558,60.1543],[16.90544,60.1562],[16.90673,60.15847],[16.90879,60.15987],[16.91339,60.16176],[16.91776,60.16289],[16.91818,60.16486],[16.9196,60.16641],[16.92243,60.168],[16.92638,60.16897],[16.92683,60.17038],[16.92766,60.17142],[16.93254,60.17472],[16.93421,60.17541],[16.93652,60.17599],[16.93861,60.17705],[16.94119,60.17791],[16.94434,60.17846],[16.9478,60.17854]]]}},{"type":"Feature","id":"0331R007","properties":{"code":"0331R007","name":"Vittinge omland"},"geometry":{"type":"Polygon","coordinates":[[[17.11563,60.01591],[17.14634,60.00888],[17.14636,60.00751],[17.14805,60.00688],[17.14852,60.00644],[17.1463,60.00496],[17.14441,60.00303],[17.1454,60.00181],[17.14489,60.0014],[17.14407,60.00145],[17.14199,60.0002],[17.13754,59.99972],[17.12736,59.99986],[17.10793,59.99712],[17.0846,59.99064],[17.08551,59.98363],[17.08397,59.97797],[17.07985,59.97223],[17.08476,59.97136],[17.10671,59.97063],[17.11324,59.96924],[17.12442,59.9711],[17.12772,59.96675],[17.13308,59.95414],[17.1292,59.94593],[17.12746,59.92454],[17.12544,59.92493],[17.12365,59.91924],[17.12705,59.91858],[17.12648,59.90619],[17.12545,59.90619],[17.12517,59.90552],[17.12406,59.89982],[17.1264,59.8913],[17.12786,59.88791],[17.11845,59.88854],[17.11885,59.88307],[17.11479,59.88478],[17.11117,59.884],[17.11119,59.88268],[17.09109,59.87047],[17.0775,59.85857],[17.0613,59.85407],[17.05546,59.84978],[17.03846,59.8416],[17.03969,59.84139],[17.03946,59.84074],[17.03975,59.84015],[17.04282,59.8385],[17.04232,59.83831],[17.04258,59.83758],[17.03798,59.83659],[17.02662,59.83352],[17.02444,59.83279],[17.02106,59.83019],[17.01582,59.82924],[17.01588,59.82869],[17.0146,59.82879],[17.01242,59.82814],[17.01046,59.82818],[17.00943,59.82861],[17.00747,59.8284],[17.00677,59.82862],[17.00654,59.82834],[17.00586,59.82828],[17.0046,59.82856],[17.00232,59.82847],[17.00072,59.8294],[17.00151,59.83087],[16.99976,59.83147],[16.98756,59.84193],[16.98251,59.84434],[16.9779,59.84594],[16.96426,59.85489],[16.96039,59.85913],[16.96097,59.8624],[16.93808,59.86622],[16.9343,59.86724],[16.9345,59.86879],[16.93423,59.86929],[16.93535,59.87051],[16.93417,59.87129],[16.93238,59.87134],[16.9313,59.87334],[16.93719,59.87407],[16.93654,59.87611],[16.93784,59.87717],[16.93737,59.8794],[16.93185,59.88246],[16.93349,59.88497],[16.93529,59.88578],[16.93569,59.8876],[16.93253,59.88854],[16.92963,59.89012],[16.92631,59.88955],[16.92484,59.88972],[16.92387,59.88962],[16.92093,59.89277],[16.92186,59.89782],[16.92026,59.90153],[16.92221,59.90517],[16.92825,59.91097],[16.93618,59.91723],[16.93623,59.91839],[16.9366,59.91895],[16.9376,59.91943],[16.9377,59.92031],[16.93857,59.92141],[16.93815,59.92195],[16.9422,59.92501],[16.94248,59.92358],[16.94327,59.92228],[16.94432,59.92134],[16.94645,59.92003],[16.95002,59.91885],[16.95508,59.91832],[16.95789,59.91848],[16.96059,59.91899],[16.9645,59.92027],[16.96685,59.92185],[16.96988,59.92237],[16.97448,59.92126],[16.97835,59.92057],[16.98106,59.92046],[16.98375,59.9207],[16.98636,59.92131],[16.98815,59.922],[16.98972,59.92288],[16.99114,59.92416],[16.99195,59.92602],[16.99161,59.92781],[16.99009,59.92955],[16.9874,59.93105],[16.98737,59.9333],[16.98565,59.93723],[16.98491,59.93824],[16.98286,59.93973],[16.97974,59.94089],[16.9802,59.94217],[16.98008,59.9436],[16.97937,59.94497],[16.97838,59.94593],[16.97542,59.94748],[16.97151,59.94837],[16.96437,59.94865],[16.96226,59.94846],[16.95988,59.94798],[16.9564,59.95183],[16.96095,59.95258],[16.96157,59.95315],[16.96137,59.95509],[16.96391,59.95601],[16.96177,59.95688],[16.97483,59.95509],[16.9783,59.95738],[16.98147,59.95655],[16.9887,59.95547],[16.99245,59.9543],[16.98798,59.95147],[16.99134,59.95202],[17.00404,59.95532],[17.01132,59.958],[17.02865,59.96032],[17.03079,59.96298],[17.01635,59.96577],[17.01598,59.96531],[17.01304,59.96428],[17.01461,59.97629],[17.01551,59.97668],[17.02357,59.97782],[17.02959,59.97782],[17.03102,59.97878],[17.02893,59.97973],[17.02388,59.98006],[17.02771,59.98603],[17.0252,59.98751],[17.03319,59.98878],[17.05607,59.99738],[17.09302,60.00636],[17.11563,60.01591]]]}},{"type":"Feature","id":"0331R008","properties":{"code":"0331R008","name":"Östervåla omland"},"geometry":{"type":"Polygon","coordinates":[[[17.23592,60.29112],[17.24313,60.28851],[17.24818,60.28604],[17.2653,60.27598],[17.26838,60.27305],[17.26877,60.2735],[17.26929,60.27361],[17.27078,60.27356],[17.27084,60.27333],[17.26939,60.27212],[17.27544,60.26643],[17.28455,60.2587],[17.29797,60.25776],[17.30309,60.25699],[17.31418,60.25382],[17.32862,60.24735],[17.33528,60.24582],[17.33998,60.24742],[17.34584,60.24565],[17.37511,60.22844],[17.36946,60.21083],[17.36475,60.21097],[17.36321,60.19563],[17.35869,60.19362],[17.33575,60.15673],[17.32176,60.1335],[17.29942,60.15277],[17.2755,60.14564],[17.24976,60.14979],[17.21565,60.15848],[17.21457,60.15976],[17.21254,60.16126],[17.21173,60.16113],[17.20869,60.16375],[17.20723,60.16292],[17.20364,60.16364],[17.20237,60.16126],[17.20236,60.16041],[17.19867,60.16235],[17.198,60.16207],[17.19842,60.16173],[17.19759,60.16147],[17.19584,60.16258],[17.18817,60.16246],[17.1905,60.16295],[17.19287,60.16379],[17.1947,60.16487],[17.19621,60.1663],[17.19775,60.16857],[17.19812,60.17],[17.19717,60.1729],[17.196,60.17432],[17.19644,60.17516],[17.19902,60.17666],[17.20281,60.17585],[17.2079,60.17505],[17.2134,60.17497],[17.21614,60.1752],[17.21983,60.17618],[17.22289,60.17791],[17.22442,60.17926],[17.22528,60.18111],[17.2251,60.18257],[17.22419,60.18396],[17.22251,60.18527],[17.22026,60.18636],[17.21722,60.18724],[17.21478,60.18758],[17.21189,60.18764],[17.20752,60.18871],[17.20193,60.18956],[17.19995,60.19097],[17.19772,60.19188],[17.19486,60.19409],[17.19215,60.19526],[17.18951,60.19586],[17.18596,60.19612],[17.1815,60.19577],[17.17718,60.19469],[17.1749,60.19519],[17.17272,60.19542],[17.16987,60.1954],[17.16776,60.19514],[17.16581,60.1947],[17.16263,60.1943],[17.16011,60.19358],[17.15807,60.19259],[17.15581,60.19072],[17.15367,60.18957],[17.15055,60.1895],[17.14838,60.18924],[17.14645,60.18881],[17.14284,60.18758],[17.14081,60.18659],[17.13963,60.18568],[17.13841,60.18362],[17.13866,60.181],[17.13933,60.17997],[17.14079,60.17875],[17.14346,60.17752],[17.14673,60.17678],[17.14888,60.17659],[17.15724,60.1764],[17.16142,60.17454],[17.16506,60.17329],[17.16789,60.17191],[17.17005,60.17126],[17.1721,60.17022],[17.17193,60.16684],[17.17232,60.1658],[17.17345,60.16452],[17.17517,60.16343],[17.17679,60.16277],[17.17864,60.16228],[17.18129,60.16191],[17.18065,60.16117],[17.1774,60.15892],[17.17569,60.15615],[17.17726,60.15553],[17.17601,60.15351],[17.17234,60.15384],[17.17081,60.15421],[17.16957,60.15378],[17.16926,60.15323],[17.16823,60.15325],[17.16579,60.15385],[17.16564,60.15354],[17.16658,60.15293],[17.16765,60.15048],[17.17021,60.14908],[17.16522,60.1383],[17.1657,60.13736],[17.16207,60.13714],[17.16198,60.13689],[17.16495,60.13493],[17.1647,60.13225],[17.16778,60.13331],[17.16986,60.12597],[17.16901,60.12592],[17.1682,60.1263],[17.16614,60.12665],[17.16428,60.12646],[17.16371,60.12667],[17.15876,60.12706],[17.15696,60.12766],[17.1513,60.1233],[17.15062,60.12319],[17.1447,60.12045],[17.14022,60.1193],[17.12904,60.10797],[17.12493,60.10621],[17.12099,60.10692],[17.11221,60.10906],[17.10236,60.11293],[17.09436,60.11333],[17.08277,60.11678],[17.08322,60.12576],[17.08137,60.1299],[17.08522,60.1449],[17.08308,60.14667],[17.08143,60.14723],[17.06798,60.16123],[17.06506,60.16143],[17.06487,60.16103],[17.05936,60.16067],[17.05789,60.16209],[17.05499,60.16372],[17.05142,60.16429],[17.04887,60.16564],[17.0523,60.16944],[17.05074,60.17002],[17.05198,60.17347],[17.04741,60.17819],[17.05092,60.17934],[17.04759,60.2028],[17.06623,60.21823],[17.08077,60.23248],[17.07985,60.23374],[17.03411,60.23818],[17.07152,60.2378],[17.06797,60.24389],[17.0669,60.24379],[17.06586,60.24604],[17.06488,60.24686],[17.0654,60.24707],[17.05507,60.25532],[17.06477,60.25683],[17.07299,60.25774],[17.08241,60.25921],[17.1129,60.26932],[17.11,60.27054],[17.1031,60.28083],[17.11185,60.28312],[17.1197,60.28572],[17.13046,60.28793],[17.15755,60.28742],[17.18072,60.29863],[17.19382,60.30081],[17.20952,60.3027],[17.23592,60.29112]]]}},{"type":"Feature","id":"0331R009","properties":{"code":"0331R009","name":"Östervåla tätort"},"geometry":{"type":"Polygon","coordinates":[[[17.1867,60.19611],[17.19021,60.19574],[17.19331,60.19485],[17.19531,60.1938],[17.19772,60.19188],[17.19995,60.19097],[17.20193,60.18956],[17.20752,60.18871],[17.21189,60.18764],[17.21478,60.18758],[17.21722,60.18724],[17.22026,60.18636],[17.22251,60.18527],[17.22419,60.18396],[17.2251,60.18257],[17.22528,60.18111],[17.22442,60.17926],[17.22289,60.17791],[17.21983,60.17618],[17.21614,60.1752],[17.2134,60.17497],[17.2079,60.17505],[17.20281,60.17585],[17.19902,60.17666],[17.19644,60.17516],[17.196,60.17432],[17.19732,60.17256],[17.19803,60.17071],[17.1981,60.16964],[17.19754,60.16822],[17.19509,60.16519],[17.19336,60.16403],[17.1905,60.16295],[17.18573,60.16201],[17.18201,60.16187],[17.17928,60.16216],[17.17738,60.16259],[17.17423,60.16396],[17.1728,60.16514],[17.17202,60.16647],[17.17186,60.16926],[17.1721,60.17022],[17.17005,60.17126],[17.16674,60.17238],[17.16506,60.17329],[17.16142,60.17454],[17.15724,60.1764],[17.1474,60.17669],[17.1441,60.17732],[17.14178,60.1782],[17.13998,60.17934],[17.13884,60.18064],[17.13843,60.1817],[17.13841,60.18362],[17.13963,60.18568],[17.14231,60.18737],[17.14773,60.18912],[17.15049,60.1895],[17.15367,60.18957],[17.15581,60.19072],[17.15852,60.19285],[17.16196,60.19415],[17.16841,60.19525],[17.1706,60.19544],[17.17418,60.19529],[17.17718,60.19469],[17.18216,60.19587],[17.1867,60.19611]]]}}]}