{"type":"FeatureCollection","features":[{"type":"Feature","id":"0382R001","properties":{"code":"0382R001","name":"Alunda"},"geometry":{"type":"Polygon","coordinates":[[[18.09916,60.08065],[18.10075,60.07971],[18.10366,60.07858],[18.10514,60.07762],[18.10636,60.07628],[18.10689,60.07472],[18.10663,60.07316],[18.10534,60.07147],[18.10294,60.07],[18.09999,60.06905],[18.09995,60.06872],[18.1017,60.06745],[18.10483,60.06753],[18.10774,60.06735],[18.11003,60.06693],[18.11248,60.06613],[18.11447,60.06506],[18.11559,60.06408],[18.11753,60.06105],[18.11746,60.05881],[18.11567,60.0562],[18.11358,60.05452],[18.11065,60.05331],[18.1073,60.05265],[18.10438,60.05251],[18.1013,60.05275],[18.09797,60.05355],[18.09323,60.05352],[18.09086,60.05246],[18.08825,60.05179],[18.08539,60.05147],[18.08246,60.05151],[18.07534,60.0523],[18.07287,60.05293],[18.07106,60.05372],[18.0667,60.05369],[18.06387,60.05401],[18.05917,60.05491],[18.05645,60.0559],[18.05062,60.0552],[18.04772,60.05515],[18.04433,60.05559],[18.04075,60.05678],[18.036,60.05641],[18.03168,60.0567],[18.02789,60.05767],[18.02506,60.05929],[18.02375,60.06098],[18.02368,60.06313],[18.02516,60.0655],[18.02783,60.06715],[18.03203,60.06875],[18.03705,60.0698],[18.04147,60.07005],[18.04469,60.06981],[18.0498,60.07027],[18.04765,60.07287],[18.04758,60.07511],[18.04845,60.07651],[18.04957,60.07748],[18.05104,60.07833],[18.05347,60.07923],[18.0562,60.07978],[18.05861,60.07998],[18.06086,60.07994],[18.06349,60.0796],[18.06718,60.0807],[18.07094,60.08121],[18.0731,60.08125],[18.07599,60.08101],[18.07899,60.08112],[18.08147,60.0809],[18.08661,60.08183],[18.09058,60.0822],[18.09346,60.08211],[18.09554,60.08181],[18.09916,60.08065]]]}},{"type":"Feature","id":"0382R002","properties":{"code":"0382R002","name":"Alunda omland"},"geometry":{"type":"Polygon","coordinates":[[[18.13884,60.151],[18.15162,60.14649],[18.15161,60.14203],[18.15117,60.14053],[18.1503,60.13956],[18.15051,60.13854],[18.15116,60.13841],[18.15154,60.13715],[18.15179,60.13704],[18.15331,60.13715],[18.1548,60.13682],[18.15642,60.13737],[18.15809,60.13852],[18.15845,60.13856],[18.16046,60.13737],[18.16007,60.13511],[18.16113,60.13473],[18.16321,60.13347],[18.16278,60.13519],[18.16319,60.13535],[18.16483,60.13539],[18.16542,60.13481],[18.16551,60.13409],[18.16658,60.13258],[18.16981,60.1322],[18.17038,60.13185],[18.1704,60.1313],[18.1732,60.13084],[18.1743,60.13006],[18.17592,60.12945],[18.1761,60.12911],[18.18218,60.12698],[18.18435,60.1251],[18.19059,60.12715],[18.19684,60.13227],[18.20635,60.13496],[18.21052,60.13761],[18.21176,60.13805],[18.21487,60.13844],[18.21632,60.13629],[18.21679,60.13469],[18.21826,60.1324],[18.2209,60.13069],[18.22236,60.12872],[18.22223,60.12795],[18.22306,60.1262],[18.22301,60.12456],[18.22129,60.12326],[18.22111,60.12159],[18.22152,60.1203],[18.22269,60.11872],[18.22286,60.11717],[18.22383,60.11574],[18.27508,60.12709],[18.2792,60.12754],[18.31684,60.12518],[18.31957,60.11413],[18.31847,60.10692],[18.3178,60.09933],[18.32698,60.08468],[18.32269,60.06194],[18.31914,60.06139],[18.32162,60.05944],[18.32662,60.05413],[18.32662,60.05132],[18.33028,60.04782],[18.33266,60.04385],[18.3379,60.03976],[18.33891,60.03842],[18.33078,60.03783],[18.32752,60.03786],[18.32378,60.03732],[18.31225,60.03649],[18.29701,60.03368],[18.29267,60.03408],[18.27259,60.03366],[18.26329,60.03455],[18.25891,60.03446],[18.2489,60.03338],[18.23512,60.03044],[18.2329,60.03011],[18.23605,60.02733],[18.23629,60.02634],[18.23569,60.02516],[18.23435,60.02394],[18.23266,60.02329],[18.23072,60.02307],[18.22553,60.02379],[18.21913,60.02527],[18.21246,60.02396],[18.20602,60.02479],[18.19073,60.02828],[18.18828,60.02904],[18.18062,60.03049],[18.17605,60.0308],[18.17305,60.03125],[18.16892,60.03231],[18.1632,60.03417],[18.15502,60.03436],[18.14559,60.03547],[18.13769,60.03548],[18.13568,60.0364],[18.12879,60.03836],[18.12792,60.03898],[18.12655,60.03928],[18.12426,60.03947],[18.11971,60.04031],[18.11677,60.04054],[18.11588,60.04077],[18.10885,60.0416],[18.10424,60.04252],[18.09343,60.04516],[18.08629,60.04631],[18.08348,60.04702],[18.07873,60.04787],[18.07421,60.04825],[18.06989,60.04924],[18.06739,60.04931],[18.06599,60.04956],[18.06498,60.04929],[18.06323,60.04842],[18.06098,60.04791],[18.06054,60.04761],[18.0606,60.04723],[18.05889,60.04692],[18.05877,60.04641],[18.05759,60.04622],[18.0572,60.04575],[18.05544,60.04564],[18.05515,60.04519],[18.05446,60.04526],[18.05381,60.04495],[18.05174,60.04451],[18.05041,60.04406],[18.04911,60.04333],[18.05282,60.04238],[18.05634,60.04178],[18.06637,60.03954],[18.06651,60.03792],[18.06521,60.03804],[18.06518,60.03782],[18.06379,60.03756],[18.06329,60.03636],[18.06402,60.03617],[18.06484,60.03547],[18.06287,60.03494],[18.05772,60.03456],[18.05767,60.03351],[18.05119,60.03313],[18.05005,60.03223],[18.04774,60.03243],[18.04637,60.03223],[18.04558,60.03182],[18.04392,60.0322],[18.04257,60.03302],[18.04302,60.03357],[18.04264,60.03368],[18.04179,60.03314],[18.03824,60.03329],[18.03631,60.03167],[18.03595,60.03109],[18.03886,60.03034],[18.03898,60.02711],[18.0375,60.02454],[18.0373,60.02328],[18.02366,60.02281],[18.02222,60.02584],[18.02137,60.026],[18.02089,60.0263],[18.02047,60.02721],[18.01757,60.03044],[18.01318,60.03329],[18.01075,60.0354],[18.00407,60.04022],[17.99482,60.04322],[17.99068,60.0479],[17.99579,60.05135],[17.98539,60.05852],[17.97988,60.0586],[17.9731,60.05956],[17.96114,60.06015],[17.94662,60.06202],[17.91526,60.06328],[17.90689,60.05923],[17.89041,60.07325],[17.90364,60.08718],[17.89891,60.09024],[17.89805,60.09626],[17.89477,60.09741],[17.89483,60.10324],[17.90126,60.10328],[17.91438,60.10379],[17.93069,60.10379],[17.95101,60.10456],[17.98179,60.10503],[17.98936,60.10638],[18.00241,60.1118],[18.009,60.11386],[18.0137,60.11578],[18.01615,60.11648],[18.01467,60.12181],[18.01121,60.12442],[18.01936,60.1268],[18.01829,60.13078],[18.01465,60.13247],[18.01206,60.13435],[18.01437,60.13529],[18.01669,60.13565],[18.01988,60.13644],[18.03309,60.13715],[18.03715,60.14229],[18.03832,60.1454],[18.04968,60.14245],[18.07889,60.14591],[18.08931,60.15159],[18.09421,60.15339],[18.12928,60.15405],[18.13884,60.151]],[[18.09131,60.08221],[18.08661,60.08183],[18.08147,60.0809],[18.07899,60.08112],[18.07599,60.08101],[18.0731,60.08125],[18.0702,60.08115],[18.06651,60.08055],[18.06349,60.0796],[18.06086,60.07994],[18.05774,60.07994],[18.0549,60.07957],[18.05226,60.07883],[18.04919,60.07719],[18.04758,60.07511],[18.04765,60.07287],[18.0498,60.07027],[18.04469,60.06981],[18.04147,60.07005],[18.0364,60.06971],[18.0314,60.06856],[18.02732,60.06692],[18.02483,60.06517],[18.02358,60.06276],[18.02393,60.06062],[18.02542,60.059],[18.02789,60.05767],[18.03168,60.0567],[18.036,60.05641],[18.04075,60.05678],[18.04433,60.05559],[18.04772,60.05515],[18.05062,60.0552],[18.05645,60.0559],[18.05917,60.05491],[18.06387,60.05401],[18.0667,60.05369],[18.07106,60.05372],[18.07287,60.05293],[18.07534,60.0523],[18.08246,60.05151],[18.08539,60.05147],[18.08825,60.05179],[18.09086,60.05246],[18.09323,60.05352],[18.09797,60.05355],[18.1013,60.05275],[18.10507,60.05251],[18.10861,60.05284],[18.1114,60.05355],[18.11358,60.05452],[18.11497,60.05549],[18.11746,60.05881],[18.11753,60.06105],[18.11585,60.06377],[18.11405,60.06533],[18.11123,60.0666],[18.10707,60.06743],[18.1017,60.06745],[18.09995,60.06872],[18.09999,60.06905],[18.10242,60.06978],[18.10404,60.07056],[18.10603,60.07218],[18.1069,60.07427],[18.10636,60.07628],[18.10424,60.07825],[18.10266,60.07905],[18.10075,60.07971],[18.09861,60.0809],[18.09554,60.08181],[18.09131,60.08221]]]}},{"type":"Feature","id":"0382R003","properties":{"code":"0382R003","name":"Gimo"},"geometry":{"type":"Polygon","coordinates":[[[18.20764,60.17556],[18.211,60.17527],[18.21383,60.17459],[18.21687,60.17337],[18.21878,60.17194],[18.21962,60.17059],[18.21968,60.16882],[18.21892,60.16747],[18.21661,60.16546],[18.21451,60.16428],[18.21155,60.16331],[18.21034,60.16233],[18.20834,60.16132],[18.20651,60.16074],[18.20378,60.1602],[18.20253,60.15896],[18.20063,60.15787],[18.1963,60.15651],[18.19357,60.15602],[18.19097,60.15586],[18.18668,60.15619],[18.18308,60.15622],[18.18027,60.15664],[18.17775,60.15739],[18.17568,60.15843],[18.17413,60.15976],[18.1708,60.15964],[18.16732,60.15997],[18.16457,60.15983],[18.15696,60.1599],[18.15292,60.16063],[18.14974,60.16205],[18.14782,60.16397],[18.14677,60.16631],[18.14665,60.16743],[18.14768,60.16961],[18.1488,60.17058],[18.15032,60.17146],[18.15047,60.17284],[18.15142,60.17434],[18.14793,60.17527],[18.1451,60.17689],[18.14369,60.17892],[18.1438,60.18088],[18.14478,60.1824],[18.1465,60.18378],[18.14884,60.18487],[18.15196,60.1857],[18.1526,60.18581],[18.16965,60.18594],[18.17196,60.18656],[18.17583,60.18716],[18.17791,60.18815],[18.18065,60.18891],[18.18418,60.1893],[18.1875,60.1892],[18.1905,60.18872],[18.19338,60.18775],[18.19616,60.1871],[18.19831,60.18628],[18.19973,60.18546],[18.20135,60.18384],[18.2019,60.18144],[18.20334,60.17996],[18.20384,60.17845],[18.20499,60.17709],[18.20764,60.17556]]]}},{"type":"Feature","id":"0382R004","properties":{"code":"0382R004","name":"Gimo omland"},"geometry":{"type":"Polygon","coordinates":[[[18.21117,60.2683],[18.22024,60.26751],[18.22123,60.26436],[18.21844,60.26304],[18.21848,60.2626],[18.22044,60.26262],[18.22026,60.26207],[18.22055,60.26171],[18.22226,60.26186],[18.2239,60.26113],[18.22456,60.26015],[18.22707,60.2606],[18.23775,60.25942],[18.23759,60.2588],[18.23998,60.25824],[18.241,60.2586],[18.24464,60.26358],[18.24441,60.26406],[18.24505,60.26459],[18.24469,60.26637],[18.26233,60.26385],[18.26756,60.26291],[18.27163,60.26279],[18.27847,60.26358],[18.28504,60.26166],[18.29212,60.25998],[18.29621,60.25867],[18.29929,60.25859],[18.29947,60.25845],[18.31975,60.25895],[18.32233,60.25787],[18.32639,60.25674],[18.32966,60.25623],[18.33237,60.25618],[18.33218,60.25345],[18.3325,60.25101],[18.33017,60.24952],[18.32889,60.24749],[18.32893,60.24605],[18.32986,60.24417],[18.33334,60.24055],[18.33705,60.23857],[18.33884,60.23716],[18.34254,60.23571],[18.3466,60.23497],[18.34946,60.23492],[18.35349,60.2353],[18.356,60.23594],[18.35808,60.23686],[18.35966,60.23803],[18.36139,60.24037],[18.36181,60.24177],[18.36139,60.24339],[18.3629,60.24429],[18.36406,60.2454],[18.36614,60.24593],[18.37003,60.24376],[18.37354,60.24282],[18.37557,60.24205],[18.37819,60.24148],[18.38175,60.24125],[18.38547,60.24161],[18.38816,60.24157],[18.39038,60.24178],[18.39309,60.24236],[18.39658,60.24354],[18.39816,60.24428],[18.40036,60.2457],[18.40184,60.2468],[18.39992,60.24855],[18.40643,60.25096],[18.41127,60.25227],[18.42368,60.24698],[18.42544,60.24589],[18.42495,60.24309],[18.42705,60.24105],[18.43378,60.23717],[18.43661,60.23253],[18.43854,60.23139],[18.43921,60.2304],[18.44018,60.22989],[18.44109,60.22882],[18.45024,60.22277],[18.45622,60.22055],[18.47085,60.22013],[18.48253,60.21332],[18.49189,60.20312],[18.49563,60.20212],[18.49686,60.19953],[18.49941,60.19996],[18.51081,60.19811],[18.52721,60.19139],[18.54677,60.18612],[18.5847,60.17669],[18.59386,60.18128],[18.60067,60.18333],[18.60811,60.18202],[18.61804,60.18476],[18.63153,60.17717],[18.64345,60.17697],[18.65547,60.17596],[18.67702,60.167],[18.6768,60.15509],[18.64034,60.16104],[18.59719,60.16304],[18.59317,60.16335],[18.51421,60.16067],[18.51104,60.15586],[18.51161,60.15487],[18.51213,60.14653],[18.51277,60.14578],[18.51215,60.14569],[18.51041,60.14587],[18.50953,60.14533],[18.50734,60.14522],[18.5061,60.14484],[18.5059,60.14448],[18.50625,60.14372],[18.50398,60.14375],[18.50274,60.14341],[18.50177,60.14271],[18.50139,60.14088],[18.50052,60.1401],[18.49962,60.13985],[18.49955,60.13966],[18.49448,60.13921],[18.49342,60.13825],[18.49329,60.13771],[18.49622,60.13238],[18.49606,60.12953],[18.49683,60.12731],[18.49502,60.12002],[18.49225,60.11944],[18.49289,60.11772],[18.49452,60.11764],[18.49198,60.10388],[18.48651,60.10041],[18.48165,60.0961],[18.47571,60.09223],[18.4698,60.08664],[18.46294,60.08084],[18.4534,60.07749],[18.45081,60.0772],[18.44479,60.05861],[18.43124,60.05643],[18.41247,60.04734],[18.39321,60.04213],[18.38848,60.04127],[18.38885,60.04219],[18.39157,60.04277],[18.3968,60.0455],[18.39575,60.04978],[18.39243,60.05276],[18.38982,60.05355],[18.38952,60.05633],[18.38915,60.05633],[18.38843,60.05815],[18.38877,60.05899],[18.37553,60.06238],[18.3698,60.06115],[18.36521,60.06044],[18.36367,60.05982],[18.36267,60.0617],[18.36358,60.06336],[18.36188,60.06501],[18.35937,60.06526],[18.35711,60.06362],[18.35043,60.06585],[18.32269,60.06194],[18.32698,60.08468],[18.3178,60.09933],[18.31847,60.10692],[18.31957,60.11413],[18.31684,60.12518],[18.2792,60.12754],[18.27508,60.12709],[18.22383,60.11574],[18.22286,60.11717],[18.22269,60.11872],[18.22152,60.1203],[18.22111,60.12159],[18.22129,60.12326],[18.22301,60.12456],[18.22306,60.1262],[18.22223,60.12795],[18.22236,60.12872],[18.2209,60.13069],[18.21826,60.1324],[18.21679,60.13469],[18.21632,60.13629],[18.21487,60.13844],[18.21176,60.13805],[18.21052,60.13761],[18.20635,60.13496],[18.19684,60.13227],[18.19059,60.12715],[18.18435,60.1251],[18.18218,60.12698],[18.1761,60.12911],[18.17592,60.12945],[18.1743,60.13006],[18.1732,60.13084],[18.1704,60.1313],[18.17038,60.13185],[18.16981,60.1322],[18.16658,60.13258],[18.16551,60.13409],[18.16542,60.13481],[18.16483,60.13539],[18.16319,60.13535],[18.16278,60.13519],[18.16321,60.13347],[18.16113,60.13473],[18.16007,60.13511],[18.16046,60.13737],[18.15845,60.13856],[18.15809,60.13852],[18.15642,60.13737],[18.1548,60.13682],[18.15331,60.13715],[18.15179,60.13704],[18.15154,60.13715],[18.15116,60.13841],[18.15051,60.13854],[18.1503,60.13956],[18.15117,60.14053],[18.15161,60.14203],[18.15162,60.14649],[18.14102,60.15027],[18.12928,60.15405],[18.09421,60.15339],[18.09507,60.16304],[18.08777,60.16342],[18.07404,60.16746],[18.05907,60.16999],[18.04409,60.16887],[18.04314,60.17886],[18.02722,60.1845],[18.02041,60.19296],[18.03608,60.20675],[18.04527,60.21076],[18.05358,60.21343],[18.06105,60.21776],[18.0812,60.22492],[18.09157,60.223],[18.10938,60.22408],[18.12261,60.22678],[18.14447,60.22844],[18.14474,60.22812],[18.14619,60.22837],[18.14619,60.22859],[18.14795,60.22862],[18.16409,60.23129],[18.16898,60.23322],[18.17215,60.23493],[18.17357,60.23538],[18.17624,60.23573],[18.1808,60.23752],[18.18377,60.23756],[18.18332,60.23876],[18.18718,60.24346],[18.18889,60.24495],[18.19147,60.24586],[18.19197,60.25027],[18.19345,60.25536],[18.19323,60.25653],[18.19441,60.25767],[18.19447,60.25902],[18.19525,60.26029],[18.19829,60.261],[18.2,60.26077],[18.2025,60.2599],[18.20478,60.2599],[18.20467,60.26305],[18.20508,60.26316],[18.20565,60.2647],[18.20475,60.26555],[18.20511,60.26606],[18.21101,60.26618],[18.21013,60.26717],[18.21117,60.2683]],[[18.18508,60.18932],[18.18263,60.1892],[18.17984,60.18873],[18.17737,60.18794],[18.17583,60.18716],[18.17196,60.18656],[18.16965,60.18594],[18.1526,60.18581],[18.1507,60.18543],[18.14748,60.1843],[18.14512,60.18274],[18.14395,60.18124],[18.14362,60.17926],[18.14445,60.17755],[18.14592,60.17628],[18.14852,60.17505],[18.15142,60.17434],[18.15047,60.17284],[18.15032,60.17146],[18.1488,60.17058],[18.14768,60.16961],[18.14665,60.16743],[18.14689,60.16598],[18.14802,60.16364],[18.14928,60.16237],[18.15068,60.16151],[18.15356,60.16045],[18.15696,60.1599],[18.16457,60.15983],[18.16732,60.15997],[18.1708,60.15964],[18.17413,60.15976],[18.17658,60.15792],[18.18027,60.15664],[18.18329,60.15621],[18.18668,60.15619],[18.1895,60.15588],[18.19172,60.15588],[18.19563,60.15635],[18.2001,60.15765],[18.20213,60.15868],[18.20378,60.1602],[18.20651,60.16074],[18.20834,60.16132],[18.21034,60.16233],[18.21155,60.16331],[18.21518,60.16459],[18.21661,60.16546],[18.21894,60.16749],[18.21968,60.16882],[18.21972,60.17025],[18.21848,60.17224],[18.21636,60.17363],[18.21246,60.17498],[18.21034,60.17536],[18.20765,60.17555],[18.20499,60.17709],[18.20384,60.17845],[18.20311,60.18028],[18.2019,60.18144],[18.20133,60.18386],[18.20015,60.18516],[18.19883,60.18602],[18.19616,60.1871],[18.19338,60.18775],[18.1905,60.18872],[18.18771,60.18918],[18.18508,60.18932]]]}},{"type":"Feature","id":"0382R005","properties":{"code":"0382R005","name":"Öregrund"},"geometry":{"type":"Polygon","coordinates":[[[18.43165,60.34709],[18.45473,60.34457],[18.47396,60.33442],[18.47902,60.32649],[18.47742,60.31528],[18.46835,60.31598],[18.4651,60.31582],[18.46042,60.31617],[18.45703,60.31558],[18.45214,60.31535],[18.44862,60.3158],[18.44246,60.31745],[18.43955,60.31655],[18.43654,60.31611],[18.43358,60.31607],[18.43082,60.31637],[18.42639,60.31607],[18.42355,60.31567],[18.4206,60.31562],[18.41819,60.31586],[18.41549,60.31646],[18.41317,60.31738],[18.41157,60.31834],[18.41051,60.31933],[18.40919,60.32126],[18.40877,60.32294],[18.40663,60.32426],[18.40549,60.32565],[18.40512,60.32739],[18.40602,60.32946],[18.40795,60.3311],[18.41135,60.33249],[18.41357,60.33375],[18.41432,60.33526],[18.41565,60.33661],[18.43165,60.34709]]]}},{"type":"Feature","id":"0382R006","properties":{"code":"0382R006","name":"Öregrund omland"},"geometry":{"type":"Polygon","coordinates":[[[18.98211,60.68458],[18.99553,60.68217],[19.00868,60.67955],[19.02163,60.6767],[19.03437,60.67363],[19.04688,60.67034],[19.05915,60.66685],[19.07116,60.66314],[19.08289,60.65922],[19.09433,60.65511],[19.10548,60.65081],[19.11631,60.64631],[19.1268,60.64163],[19.13696,60.63677],[19.14676,60.63174],[19.1562,60.62655],[19.16525,60.6212],[19.17392,60.61569],[19.18219,60.61004],[19.19005,60.60425],[19.19749,60.59832],[19.20793,60.58907],[19.13232,60.30124],[19.13366,60.30104],[19.13335,60.3005],[19.13293,60.30055],[19.1316,60.30135],[19.13102,60.30116],[19.13119,60.30066],[18.90585,60.27804],[18.71819,60.24726],[18.68361,60.23933],[18.6786,60.23127],[18.68286,60.22557],[18.69195,60.21604],[18.69318,60.21439],[18.69665,60.20687],[18.69606,60.20111],[18.696,60.20071],[18.69051,60.19972],[18.67273,60.19462],[18.67358,60.18842],[18.68169,60.18167],[18.69299,60.1761],[18.69309,60.16567],[18.68753,60.16571],[18.67702,60.167],[18.65547,60.17596],[18.64345,60.17697],[18.63153,60.17717],[18.61804,60.18476],[18.60811,60.18202],[18.60067,60.18333],[18.59386,60.18128],[18.5847,60.17669],[18.54677,60.18612],[18.52721,60.19139],[18.51081,60.19811],[18.49941,60.19996],[18.49686,60.19953],[18.49563,60.20212],[18.49189,60.20312],[18.48253,60.21332],[18.47085,60.22013],[18.45622,60.22055],[18.45024,60.22277],[18.44109,60.22882],[18.44018,60.22989],[18.43921,60.2304],[18.43854,60.23139],[18.43661,60.23253],[18.43378,60.23717],[18.42705,60.24105],[18.42495,60.24309],[18.42544,60.24589],[18.42368,60.24698],[18.41127,60.25227],[18.40118,60.25789],[18.39797,60.26039],[18.39576,60.25943],[18.38719,60.26766],[18.38434,60.27001],[18.38173,60.27172],[18.3805,60.27379],[18.37957,60.27476],[18.37496,60.27842],[18.37177,60.27986],[18.36852,60.28074],[18.36575,60.28111],[18.36349,60.28223],[18.36044,60.28302],[18.35773,60.28328],[18.35498,60.2832],[18.35236,60.28278],[18.35042,60.28222],[18.34922,60.28272],[18.34981,60.288],[18.34234,60.29551],[18.33186,60.30388],[18.32405,60.30948],[18.32013,60.31095],[18.32003,60.31154],[18.32036,60.31188],[18.32115,60.31195],[18.32092,60.31216],[18.30687,60.31738],[18.3044,60.31746],[18.30179,60.31862],[18.29596,60.32236],[18.29475,60.32269],[18.29529,60.32348],[18.29696,60.32292],[18.29806,60.32347],[18.3002,60.32565],[18.29773,60.32624],[18.29964,60.32885],[18.29256,60.33185],[18.29445,60.3398],[18.30943,60.34073],[18.30939,60.34167],[18.3118,60.34262],[18.31333,60.34211],[18.31524,60.34361],[18.31974,60.34416],[18.32189,60.34549],[18.32436,60.34766],[18.33244,60.34866],[18.33319,60.34986],[18.35136,60.35172],[18.36006,60.36658],[18.29207,60.4364],[18.21968,60.45705],[18.47622,60.76929],[18.98211,60.68458]],[[18.43165,60.34709],[18.41565,60.33661],[18.41432,60.33526],[18.41357,60.33375],[18.41135,60.33249],[18.40795,60.3311],[18.40579,60.32914],[18.40512,60.32739],[18.40549,60.32565],[18.40663,60.32426],[18.40877,60.32294],[18.4094,60.32093],[18.41051,60.31933],[18.41197,60.31806],[18.41367,60.31714],[18.41549,60.31646],[18.41819,60.31586],[18.4206,60.31562],[18.42355,60.31567],[18.42639,60.31607],[18.43082,60.31637],[18.43358,60.31607],[18.43654,60.31611],[18.43955,60.31655],[18.44246,60.31745],[18.44862,60.3158],[18.45214,60.31535],[18.45703,60.31558],[18.46042,60.31617],[18.4651,60.31582],[18.46835,60.31598],[18.47742,60.31528],[18.47902,60.32649],[18.47396,60.33442],[18.45473,60.34457],[18.43165,60.34709]]]}},{"type":"Feature","id":"0382R007","properties":{"code":"0382R007","name":"Österbybruk"},"geometry":{"type":"Polygon","coordinates":[[[17.88347,60.21448],[17.88551,60.21126],[17.88924,60.21189],[17.89196,60.21269],[17.89455,60.21303],[17.89776,60.21401],[17.90058,60.21438],[17.90485,60.21425],[17.90963,60.21314],[17.90231,60.20655],[17.92232,60.20041],[17.93213,60.19354],[17.93134,60.19246],[17.92981,60.19131],[17.92829,60.19058],[17.92599,60.18989],[17.9262,60.18875],[17.92597,60.18767],[17.92505,60.18633],[17.92388,60.18539],[17.92188,60.18438],[17.91731,60.18292],[17.91504,60.1817],[17.91266,60.18099],[17.90859,60.18052],[17.90435,60.18085],[17.90129,60.1817],[17.89834,60.18331],[17.89579,60.18275],[17.89293,60.18246],[17.88999,60.1825],[17.8878,60.18278],[17.88512,60.18346],[17.88271,60.18454],[17.8794,60.18497],[17.87633,60.18594],[17.87445,60.18697],[17.87332,60.18786],[17.87215,60.18982],[17.8689,60.18975],[17.86608,60.18997],[17.86341,60.19055],[17.86124,60.19138],[17.8569,60.19102],[17.85376,60.1912],[17.8513,60.19153],[17.84905,60.19131],[17.84679,60.1913],[17.84172,60.19189],[17.839,60.19241],[17.8366,60.19323],[17.83471,60.1943],[17.8331,60.19564],[17.8323,60.19706],[17.83224,60.19844],[17.83288,60.19979],[17.8342,60.20103],[17.83662,60.20226],[17.83926,60.20298],[17.84066,60.20406],[17.84224,60.20486],[17.84521,60.20577],[17.8469,60.20804],[17.84899,60.20941],[17.85126,60.21025],[17.8549,60.21087],[17.85537,60.21111],[17.85713,60.21267],[17.85963,60.21405],[17.86147,60.21562],[17.86416,60.21683],[17.86833,60.21776],[17.87115,60.21813],[17.87474,60.21808],[17.87751,60.21763],[17.88012,60.2168],[17.8825,60.21546],[17.88347,60.21448]]]}},{"type":"Feature","id":"0382R008","properties":{"code":"0382R008","name":"Österbybruk omland"},"geometry":{"type":"Polygon","coordinates":[[[17.96627,60.32945],[17.98102,60.32286],[17.98809,60.31829],[17.97886,60.30227],[17.98342,60.29507],[17.98142,60.29017],[17.98083,60.28573],[17.98758,60.27284],[17.99313,60.26701],[17.99408,60.2666],[17.99473,60.26655],[17.99515,60.2662],[17.99584,60.26614],[17.9958,60.26575],[17.99665,60.26518],[17.99783,60.26515],[17.99834,60.26486],[17.99917,60.26482],[18.00061,60.26423],[18.00102,60.2638],[18.00213,60.26373],[18.00254,60.26326],[18.00194,60.26294],[18.00236,60.26257],[18.00199,60.26177],[18.00118,60.26153],[18.00053,60.26168],[18.00299,60.25995],[18.00541,60.25625],[18.00809,60.24982],[18.00718,60.23416],[18.01942,60.22251],[17.99861,60.22002],[17.99139,60.21584],[17.98095,60.21113],[18.01432,60.20904],[18.04527,60.21076],[18.03608,60.20675],[18.02041,60.19296],[18.02722,60.1845],[18.04314,60.17886],[18.04409,60.16887],[18.05907,60.16999],[18.07404,60.16746],[18.08777,60.16342],[18.09507,60.16304],[18.09421,60.15339],[18.08931,60.15159],[18.07889,60.14591],[18.04968,60.14245],[18.03832,60.1454],[18.03715,60.14229],[18.03309,60.13715],[18.01988,60.13644],[18.01669,60.13565],[18.01437,60.13529],[18.01206,60.13435],[18.01465,60.13247],[18.01829,60.13078],[18.01936,60.1268],[18.01121,60.12442],[18.01467,60.12181],[18.01615,60.11648],[18.0137,60.11578],[18.009,60.11386],[18.00241,60.1118],[17.98936,60.10638],[17.98179,60.10503],[17.95101,60.10456],[17.93069,60.10379],[17.91438,60.10379],[17.90126,60.10328],[17.89483,60.10324],[17.89504,60.1041],[17.8961,60.10549],[17.89522,60.10908],[17.89725,60.1116],[17.89849,60.1141],[17.89533,60.11435],[17.89148,60.11501],[17.88889,60.11057],[17.8848,60.10837],[17.88931,60.10581],[17.8881,60.10328],[17.86794,60.10327],[17.85256,60.10287],[17.84479,60.1033],[17.84543,60.10743],[17.84645,60.10638],[17.84851,60.10554],[17.85246,60.10566],[17.85887,60.10795],[17.86081,60.10903],[17.85471,60.11096],[17.84975,60.11144],[17.84592,60.11156],[17.8474,60.12401],[17.84807,60.12581],[17.84705,60.12589],[17.84642,60.12715],[17.84867,60.12732],[17.85198,60.13593],[17.84311,60.14008],[17.84105,60.14082],[17.83872,60.14156],[17.82747,60.14395],[17.82393,60.14573],[17.81633,60.14703],[17.8136,60.14771],[17.80879,60.14771],[17.80584,60.14856],[17.80353,60.14949],[17.80278,60.14797],[17.80097,60.14574],[17.79533,60.14064],[17.7942,60.13928],[17.78176,60.14108],[17.78581,60.13796],[17.78423,60.13781],[17.77902,60.13669],[17.75704,60.12581],[17.75178,60.12729],[17.74514,60.12798],[17.74498,60.13187],[17.7417,60.13468],[17.74214,60.14042],[17.73959,60.14007],[17.74018,60.13964],[17.73937,60.13812],[17.7377,60.13604],[17.73655,60.1354],[17.73535,60.13559],[17.73351,60.13721],[17.73288,60.1375],[17.73205,60.13866],[17.73124,60.13895],[17.72951,60.13871],[17.71218,60.14134],[17.7076,60.14981],[17.70288,60.14878],[17.70247,60.15097],[17.70689,60.15116],[17.70987,60.16222],[17.71804,60.16606],[17.73495,60.1763],[17.73568,60.17899],[17.73452,60.18224],[17.73422,60.18536],[17.74335,60.19322],[17.7507,60.19664],[17.75672,60.2035],[17.75833,60.22018],[17.7634,60.21846],[17.77137,60.21855],[17.77363,60.21765],[17.77583,60.21789],[17.78638,60.22001],[17.77127,60.22287],[17.77247,60.22401],[17.77242,60.22459],[17.77409,60.22475],[17.77256,60.2257],[17.77333,60.22724],[17.77288,60.22814],[17.77301,60.22859],[17.7766,60.23119],[17.78081,60.23057],[17.78561,60.23036],[17.78546,60.22889],[17.79766,60.22918],[17.79707,60.22981],[17.79845,60.25106],[17.81477,60.26185],[17.8203,60.27971],[17.82705,60.28035],[17.82445,60.28596],[17.82316,60.28622],[17.82192,60.28765],[17.82294,60.28874],[17.82526,60.28853],[17.82484,60.28723],[17.82823,60.28845],[17.83036,60.28859],[17.83015,60.28624],[17.8375,60.28602],[17.83804,60.28681],[17.83308,60.29169],[17.83532,60.29211],[17.84031,60.29197],[17.84124,60.29158],[17.84221,60.29033],[17.84254,60.2903],[17.84339,60.29175],[17.84682,60.29123],[17.85035,60.29262],[17.84985,60.29285],[17.85034,60.29321],[17.85186,60.29318],[17.85497,60.29439],[17.85124,60.29557],[17.84847,60.29448],[17.84661,60.29529],[17.8488,60.29583],[17.85052,60.29587],[17.85164,60.29705],[17.85469,60.29762],[17.85479,60.29784],[17.85614,60.29814],[17.85979,60.29834],[17.86019,60.29795],[17.85844,60.29774],[17.85947,60.29611],[17.8635,60.29768],[17.8619,60.29842],[17.86121,60.29918],[17.8628,60.30138],[17.86409,60.30196],[17.86742,60.30247],[17.86746,60.30313],[17.86903,60.30388],[17.86943,60.30353],[17.87241,60.30503],[17.869,60.30674],[17.87237,60.30831],[17.87785,60.3043],[17.87508,60.30411],[17.87287,60.30231],[17.87252,60.30116],[17.8791,60.30363],[17.90171,60.30763],[17.92003,60.30725],[17.92144,60.30914],[17.92574,60.3223],[17.93121,60.3298],[17.95238,60.32646],[17.96627,60.32945]],[[17.87327,60.21817],[17.86904,60.21789],[17.86553,60.21722],[17.86306,60.21642],[17.86094,60.21527],[17.85963,60.21405],[17.85747,60.21291],[17.85537,60.21111],[17.8549,60.21087],[17.85126,60.21025],[17.84899,60.20941],[17.8469,60.20804],[17.84521,60.20577],[17.84224,60.20486],[17.84066,60.20406],[17.83926,60.20298],[17.83719,60.20245],[17.83507,60.20156],[17.83316,60.20012],[17.83224,60.19844],[17.83242,60.19672],[17.83339,60.19533],[17.83515,60.194],[17.83717,60.19299],[17.839,60.19241],[17.84172,60.19189],[17.84679,60.1913],[17.84905,60.19131],[17.8513,60.19153],[17.85376,60.1912],[17.8569,60.19102],[17.86124,60.19138],[17.86341,60.19055],[17.86608,60.18997],[17.8689,60.18975],[17.87215,60.18982],[17.87332,60.18786],[17.87445,60.18697],[17.87633,60.18594],[17.8794,60.18497],[17.88271,60.18454],[17.88512,60.18346],[17.8878,60.18278],[17.88999,60.1825],[17.89293,60.18246],[17.89579,60.18275],[17.89834,60.18331],[17.90132,60.18168],[17.90501,60.18075],[17.90927,60.18054],[17.91328,60.18113],[17.91559,60.18193],[17.91731,60.18292],[17.92188,60.18438],[17.92391,60.18541],[17.92533,60.18664],[17.92597,60.18767],[17.9262,60.18875],[17.92599,60.18989],[17.92829,60.19058],[17.92981,60.19131],[17.93134,60.19246],[17.93213,60.19354],[17.92232,60.20041],[17.90231,60.20655],[17.90963,60.21314],[17.90485,60.21425],[17.90053,60.21437],[17.89776,60.21401],[17.89455,60.21303],[17.89196,60.21269],[17.88924,60.21189],[17.88551,60.21126],[17.88321,60.2148],[17.8812,60.21629],[17.87751,60.21763],[17.87327,60.21817]]]}},{"type":"Feature","id":"0382R009","properties":{"code":"0382R009","name":"Östhammar"},"geometry":{"type":"Polygon","coordinates":[[[18.38719,60.26766],[18.39576,60.25943],[18.39797,60.26039],[18.40118,60.25789],[18.41127,60.25227],[18.40643,60.25096],[18.39992,60.24855],[18.40184,60.2468],[18.39816,60.24428],[18.39384,60.24259],[18.39104,60.24188],[18.38816,60.24157],[18.38547,60.24161],[18.38318,60.24131],[18.38032,60.24127],[18.3768,60.24173],[18.37354,60.24282],[18.37063,60.24354],[18.36896,60.24424],[18.36614,60.24593],[18.36406,60.2454],[18.3629,60.24429],[18.36139,60.24339],[18.3618,60.24214],[18.36156,60.2407],[18.35995,60.23834],[18.35852,60.23712],[18.35656,60.23614],[18.35416,60.23543],[18.35148,60.23505],[18.34803,60.2349],[18.34445,60.23525],[18.34041,60.23642],[18.33881,60.23718],[18.33705,60.23857],[18.33423,60.23997],[18.33295,60.24087],[18.3317,60.2425],[18.32986,60.24417],[18.32882,60.24676],[18.329,60.24786],[18.32987,60.24921],[18.33096,60.25015],[18.3325,60.25101],[18.33218,60.25345],[18.33237,60.25618],[18.32966,60.25623],[18.32691,60.25664],[18.32291,60.25768],[18.32053,60.25856],[18.31906,60.25935],[18.31764,60.26058],[18.31686,60.26197],[18.31676,60.26305],[18.31708,60.26412],[18.3181,60.26544],[18.31981,60.26669],[18.32134,60.26746],[18.32379,60.26824],[18.32775,60.26876],[18.32991,60.26939],[18.33197,60.27072],[18.33545,60.27197],[18.33814,60.27241],[18.34136,60.27252],[18.34421,60.2739],[18.34382,60.27567],[18.34456,60.27776],[18.34561,60.27913],[18.34778,60.28091],[18.34976,60.28197],[18.35174,60.28262],[18.35431,60.28313],[18.35704,60.28329],[18.35977,60.28312],[18.36233,60.2826],[18.36403,60.28202],[18.36575,60.28111],[18.36852,60.28074],[18.37177,60.27986],[18.37496,60.27842],[18.37957,60.27476],[18.3805,60.27379],[18.38173,60.27172],[18.38434,60.27001],[18.38719,60.26766]]]}},{"type":"Feature","id":"0382R010","properties":{"code":"0382R010","name":"Östhammar omland"},"geometry":{"type":"Polygon","coordinates":[[[18.29207,60.4364],[18.36006,60.36658],[18.35136,60.35172],[18.33319,60.34986],[18.33244,60.34866],[18.32436,60.34766],[18.32189,60.34549],[18.31974,60.34416],[18.31524,60.34361],[18.31333,60.34211],[18.3118,60.34262],[18.30939,60.34167],[18.30943,60.34073],[18.29445,60.3398],[18.29256,60.33185],[18.29964,60.32885],[18.29773,60.32624],[18.3002,60.32565],[18.29806,60.32347],[18.29696,60.32292],[18.29529,60.32348],[18.29475,60.32269],[18.29596,60.32236],[18.30179,60.31862],[18.3044,60.31746],[18.30687,60.31738],[18.32092,60.31216],[18.32115,60.31195],[18.32036,60.31188],[18.32003,60.31154],[18.32013,60.31095],[18.32405,60.30948],[18.33186,60.30388],[18.34234,60.29551],[18.34981,60.288],[18.34922,60.28272],[18.35042,60.28222],[18.34778,60.28091],[18.34503,60.27851],[18.34388,60.27604],[18.34421,60.2739],[18.34136,60.27252],[18.33746,60.27233],[18.33424,60.27164],[18.33147,60.27046],[18.32991,60.26939],[18.32775,60.26876],[18.32513,60.26851],[18.32313,60.26807],[18.31981,60.26669],[18.3175,60.26479],[18.31675,60.26268],[18.31764,60.26058],[18.31975,60.25895],[18.29947,60.25845],[18.29929,60.25859],[18.29621,60.25867],[18.29212,60.25998],[18.28504,60.26166],[18.27847,60.26358],[18.27163,60.26279],[18.26756,60.26291],[18.26233,60.26385],[18.24469,60.26637],[18.24505,60.26459],[18.24441,60.26406],[18.24464,60.26358],[18.241,60.2586],[18.23998,60.25824],[18.23759,60.2588],[18.23775,60.25942],[18.22707,60.2606],[18.22456,60.26015],[18.2239,60.26113],[18.22226,60.26186],[18.22055,60.26171],[18.22026,60.26207],[18.22044,60.26262],[18.21848,60.2626],[18.21844,60.26304],[18.22123,60.26436],[18.22024,60.26751],[18.21117,60.2683],[18.21013,60.26717],[18.21101,60.26618],[18.20511,60.26606],[18.20485,60.26575],[18.20486,60.26533],[18.20565,60.2647],[18.20508,60.26316],[18.20467,60.26305],[18.20478,60.2599],[18.2025,60.2599],[18.2,60.26077],[18.19829,60.261],[18.19525,60.26029],[18.19447,60.25902],[18.19441,60.25767],[18.19323,60.25653],[18.19345,60.25536],[18.19197,60.25027],[18.19147,60.24586],[18.18889,60.24495],[18.18718,60.24346],[18.18332,60.23876],[18.18377,60.23756],[18.1808,60.23752],[18.17624,60.23573],[18.17357,60.23538],[18.17215,60.23493],[18.16898,60.23322],[18.16409,60.23129],[18.14795,60.22862],[18.14619,60.22859],[18.14619,60.22837],[18.14474,60.22812],[18.14447,60.22844],[18.12261,60.22678],[18.10938,60.22408],[18.09157,60.223],[18.0812,60.22492],[18.06105,60.21776],[18.05358,60.21343],[18.04527,60.21076],[18.01432,60.20904],[17.98095,60.21113],[17.99139,60.21584],[17.99861,60.22002],[18.01942,60.22251],[18.00718,60.23416],[18.00809,60.24982],[18.00541,60.25625],[18.00299,60.25995],[18.00053,60.26168],[18.00118,60.26153],[18.00199,60.26177],[18.00236,60.26257],[18.00194,60.26294],[18.00254,60.26326],[18.00213,60.26373],[18.00102,60.2638],[18.00061,60.26423],[17.99917,60.26482],[17.99834,60.26486],[17.99783,60.26515],[17.99665,60.26518],[17.9958,60.26575],[17.99584,60.26614],[17.99515,60.2662],[17.99473,60.26655],[17.99408,60.2666],[17.99313,60.26701],[17.98758,60.27284],[17.98083,60.28573],[17.98142,60.29017],[17.98342,60.29507],[17.97886,60.30227],[17.98809,60.31829],[17.98102,60.32286],[17.96627,60.32945],[17.97327,60.34422],[17.97336,60.35145],[17.97465,60.35303],[17.97388,60.35504],[17.97553,60.36689],[17.97544,60.38336],[17.97446,60.38659],[17.97529,60.39245],[17.97913,60.39614],[17.98656,60.3993],[17.99892,60.40147],[18.01074,60.40034],[18.02096,60.40276],[18.02519,60.39973],[18.04508,60.40072],[18.05709,60.40517],[18.06566,60.40877],[18.0779,60.41653],[18.09118,60.42584],[18.1007,60.43158],[18.10264,60.43167],[18.10403,60.43117],[18.10502,60.43166],[18.10605,60.43181],[18.11286,60.43149],[18.13101,60.43727],[18.15595,60.44315],[18.21968,60.45705],[18.29207,60.4364]]]}}]}