{"type":"FeatureCollection","features":[{"type":"Feature","id":"0428R006","properties":{"code":"0428R006","name":"Vingåkers södra tätort"},"geometry":{"type":"Polygon","coordinates":[[[15.90762,59.04774],[15.90786,59.0452],[15.90666,59.0434],[15.90545,59.04247],[15.90376,59.04161],[15.90241,59.03995],[15.89971,59.03842],[15.89857,59.03714],[15.8965,59.03587],[15.89674,59.03393],[15.89548,59.03179],[15.89325,59.03027],[15.89035,59.02919],[15.88956,59.02754],[15.88945,59.02661],[15.88708,59.02605],[15.88303,59.02853],[15.88303,59.02838],[15.87917,59.03031],[15.87786,59.03144],[15.87768,59.0313],[15.87437,59.03345],[15.87341,59.03386],[15.87303,59.03389],[15.86925,59.0327],[15.86861,59.03269],[15.86441,59.03439],[15.86184,59.0346],[15.85614,59.03384],[15.85403,59.03501],[15.85823,59.03582],[15.8593,59.04114],[15.86426,59.04113],[15.87053,59.04155],[15.87057,59.04139],[15.87127,59.04142],[15.87198,59.04115],[15.87395,59.04132],[15.87399,59.0416],[15.8766,59.04174],[15.87583,59.04147],[15.87917,59.04217],[15.88213,59.04237],[15.882,59.04263],[15.88933,59.04398],[15.88943,59.04387],[15.89003,59.04402],[15.88989,59.04419],[15.89526,59.04546],[15.89534,59.04536],[15.89615,59.04554],[15.9025,59.04722],[15.90762,59.04774]]]}},{"type":"Feature","id":"0428R001","properties":{"code":"0428R001","name":"Baggetorp-Marmorbyn"},"geometry":{"type":"Polygon","coordinates":[[[16.05051,59.08384],[16.05377,59.08353],[16.05692,59.08381],[16.05808,59.08343],[16.05974,59.08335],[16.06055,59.08308],[16.06594,59.08257],[16.07352,59.08283],[16.0775,59.08316],[16.0786,59.08251],[16.07887,59.08148],[16.07941,59.0813],[16.0804,59.08134],[16.08872,59.07625],[16.09538,59.07307],[16.09731,59.07326],[16.09823,59.07217],[16.09698,59.07235],[16.09652,59.07224],[16.10131,59.06913],[16.1021,59.06829],[16.10271,59.06839],[16.10471,59.06725],[16.10732,59.06527],[16.10859,59.06393],[16.10935,59.05542],[16.12202,59.05292],[16.12287,59.05132],[16.12705,59.04732],[16.12964,59.04662],[16.1295,59.0464],[16.13945,59.04293],[16.14406,59.03988],[16.14569,59.03808],[16.14572,59.03748],[16.14715,59.03563],[16.14795,59.03396],[16.15765,59.02135],[16.13212,59.0216],[16.12925,59.02205],[16.12949,59.02184],[16.1187,59.02314],[16.11686,59.02295],[16.1122,59.022],[16.11023,59.02263],[16.10944,59.02128],[16.10857,59.0206],[16.10796,59.02053],[16.10337,59.01803],[16.10433,59.01762],[16.10372,59.0168],[16.10194,59.01571],[16.10015,59.01411],[16.1,59.01384],[16.1006,59.01329],[16.09992,59.0129],[16.09873,59.01268],[16.09876,59.01211],[16.09801,59.01071],[16.09494,59.01158],[16.09473,59.01181],[16.09442,59.01143],[16.09443,59.01043],[16.09263,59.01003],[16.09225,59.0101],[16.09164,59.0097],[16.08971,59.00926],[16.09075,59.00537],[16.08952,59.00528],[16.08734,59.00459],[16.08694,59.00529],[16.08575,59.00599],[16.08471,59.00705],[16.08309,59.00671],[16.06399,58.99799],[16.05902,58.99837],[16.05336,59.00153],[16.04639,59.00318],[16.03786,59.00294],[16.03248,59.00507],[16.0201,59.00648],[16.01544,59.00726],[16.0082,59.01384],[15.99816,59.01673],[15.9894,59.02124],[15.98546,59.02647],[15.96847,59.03635],[15.96793,59.03732],[15.97095,59.03907],[15.97232,59.03931],[15.97264,59.03915],[15.97301,59.03938],[15.97246,59.04027],[15.97132,59.04043],[15.96781,59.04218],[15.96795,59.04234],[15.97556,59.04268],[15.97887,59.04129],[15.97971,59.04113],[15.98096,59.04121],[15.98578,59.04272],[16.02046,59.03803],[16.01963,59.04297],[16.01706,59.04389],[16.01171,59.0454],[16.00612,59.04632],[16.00429,59.04637],[16.00155,59.04705],[15.9977,59.04845],[15.99292,59.05089],[15.9941,59.05246],[15.99403,59.05361],[15.99696,59.05369],[15.99987,59.0527],[16.01434,59.05349],[16.0149,59.05253],[16.01896,59.05288],[16.01887,59.05647],[16.01586,59.05721],[16.02543,59.06138],[16.02507,59.06226],[16.02347,59.06271],[16.02157,59.06238],[16.02029,59.0634],[16.02127,59.06378],[16.02326,59.06512],[16.02282,59.06738],[16.02666,59.06767],[16.02749,59.06808],[16.02779,59.0687],[16.03084,59.07146],[16.03278,59.07382],[16.03256,59.07409],[16.03552,59.07628],[16.03693,59.0831],[16.0447,59.08341],[16.04798,59.08318],[16.04901,59.0833],[16.05051,59.08384]]]}},{"type":"Feature","id":"0428R002","properties":{"code":"0428R002","name":"Högsjö-Södra landsbygden"},"geometry":{"type":"Polygon","coordinates":[[[15.71612,59.0849],[15.71796,59.08412],[15.71877,59.08354],[15.72977,59.08017],[15.72938,59.08004],[15.72923,59.0794],[15.72948,59.07679],[15.73122,59.07086],[15.73424,59.06614],[15.74037,59.05898],[15.74236,59.0573],[15.74621,59.05489],[15.7494,59.05232],[15.75152,59.04818],[15.75075,59.04604],[15.752,59.04116],[15.75311,59.04007],[15.75396,59.04024],[15.75377,59.04085],[15.75409,59.04069],[15.755,59.04083],[15.75481,59.04114],[15.75525,59.04127],[15.75768,59.03996],[15.75849,59.03729],[15.75678,59.0373],[15.75692,59.03496],[15.75749,59.03517],[15.76898,59.03519],[15.77279,59.03542],[15.7729,59.03865],[15.77546,59.03907],[15.77791,59.03515],[15.77682,59.03483],[15.77761,59.03457],[15.78057,59.03474],[15.77997,59.0354],[15.78056,59.03584],[15.78495,59.03557],[15.78552,59.03653],[15.79463,59.03499],[15.79686,59.03864],[15.79712,59.04155],[15.79805,59.04201],[15.7992,59.04151],[15.80577,59.04183],[15.80743,59.04373],[15.80883,59.04371],[15.81019,59.04458],[15.81093,59.0443],[15.81148,59.04445],[15.81215,59.04514],[15.81126,59.0457],[15.81143,59.04622],[15.81195,59.04633],[15.81315,59.04621],[15.81372,59.04632],[15.8138,59.04652],[15.81516,59.04638],[15.83363,59.04404],[15.83115,59.04292],[15.82959,59.0417],[15.82855,59.03998],[15.82849,59.03834],[15.82981,59.03621],[15.83103,59.03528],[15.83267,59.03445],[15.83281,59.03297],[15.83366,59.0316],[15.83513,59.03039],[15.83713,59.02933],[15.83945,59.02857],[15.84159,59.02817],[15.84437,59.02799],[15.84951,59.02812],[15.85326,59.02719],[15.85427,59.02551],[15.85573,59.02431],[15.85776,59.02331],[15.86018,59.02263],[15.86289,59.02226],[15.86676,59.02237],[15.86897,59.02214],[15.87122,59.02117],[15.87379,59.02054],[15.87604,59.02028],[15.87909,59.02028],[15.88162,59.02058],[15.88418,59.02121],[15.88636,59.02215],[15.88811,59.02342],[15.88929,59.0252],[15.88956,59.02754],[15.89035,59.02919],[15.89372,59.03051],[15.89506,59.03141],[15.89609,59.0325],[15.89679,59.03427],[15.8965,59.03587],[15.89857,59.03714],[15.89971,59.03842],[15.90204,59.03966],[15.90376,59.04161],[15.90596,59.04282],[15.90729,59.04411],[15.90801,59.04588],[15.90762,59.04774],[15.93437,59.04644],[15.9373,59.04595],[15.9383,59.04542],[15.93857,59.04564],[15.93947,59.0454],[15.94826,59.04198],[15.95435,59.04016],[15.95864,59.03977],[15.96071,59.03991],[15.96583,59.03986],[15.96583,59.03975],[15.97131,59.03917],[15.96793,59.03732],[15.96847,59.03635],[15.98546,59.02647],[15.9894,59.02124],[15.99816,59.01673],[16.0082,59.01384],[16.01544,59.00726],[16.0201,59.00648],[16.03248,59.00507],[16.03786,59.00294],[16.04639,59.00318],[16.05336,59.00153],[16.05902,58.99837],[16.05447,58.99599],[16.05238,58.99526],[16.04879,58.99251],[16.03158,58.98689],[16.03403,58.98538],[16.02827,58.98302],[16.02373,58.98181],[16.02059,58.98436],[16.01545,58.98301],[16.01646,58.9819],[16.00716,58.97889],[16.00444,58.97349],[15.99811,58.96351],[15.99697,58.96252],[15.99644,58.96117],[15.98643,58.95263],[15.98436,58.95301],[15.97405,58.95321],[15.96741,58.94716],[15.95017,58.95336],[15.93808,58.95636],[15.92976,58.96078],[15.91153,58.96241],[15.89997,58.97054],[15.89662,58.97381],[15.88877,58.97772],[15.88244,58.97915],[15.88351,58.98261],[15.88339,58.98752],[15.87862,58.99025],[15.87545,58.98932],[15.86545,58.99056],[15.8721,58.99953],[15.86107,59.00507],[15.8429,59.01494],[15.82075,59.01843],[15.81537,59.01875],[15.80734,59.01249],[15.80686,59.01071],[15.80693,59.00268],[15.80517,59.00104],[15.80056,58.9977],[15.79683,58.99534],[15.79227,58.99038],[15.78221,58.98482],[15.78011,58.97556],[15.78074,58.96988],[15.7804,58.96922],[15.77944,58.96862],[15.77852,58.96764],[15.77553,58.96736],[15.77275,58.9664],[15.77396,58.96545],[15.77239,58.96512],[15.76973,58.96552],[15.76749,58.96656],[15.7668,58.96653],[15.7643,58.96476],[15.76428,58.96421],[15.76182,58.96374],[15.76319,58.95927],[15.76446,58.95785],[15.76443,58.95654],[15.74121,58.95097],[15.74268,58.95646],[15.73625,58.96629],[15.73505,58.97007],[15.73306,58.97384],[15.72969,58.97631],[15.72571,58.98009],[15.7258,58.98174],[15.72734,58.98269],[15.72804,58.98363],[15.72719,58.98457],[15.72453,58.98637],[15.72256,58.98859],[15.72074,58.98958],[15.71229,58.9874],[15.71031,58.98745],[15.70524,58.98658],[15.70548,58.98593],[15.70497,58.9852],[15.70316,58.98485],[15.70083,58.98505],[15.69305,58.9865],[15.69096,58.98666],[15.68891,58.98798],[15.68776,58.98821],[15.68751,58.98923],[15.68719,58.98939],[15.6877,58.98548],[15.68763,58.98197],[15.66531,58.98203],[15.65031,58.99614],[15.65122,58.99816],[15.65342,58.99866],[15.65449,58.99971],[15.6546,59.00456],[15.654,59.00559],[15.65201,59.00772],[15.65165,59.00867],[15.65262,59.00934],[15.65599,59.01014],[15.65643,59.0107],[15.65572,59.01155],[15.65492,59.01206],[15.65304,59.01242],[15.65182,59.01232],[15.64965,59.0113],[15.64784,59.01153],[15.64641,59.01263],[15.64341,59.01287],[15.63995,59.0126],[15.63607,59.01141],[15.63462,59.01117],[15.63112,59.01128],[15.62631,59.01318],[15.62119,59.01567],[15.62067,59.01732],[15.61986,59.01798],[15.61979,59.01855],[15.62063,59.01893],[15.62066,59.02007],[15.61946,59.02108],[15.61857,59.02227],[15.61784,59.0222],[15.61667,59.02258],[15.61667,59.02304],[15.61735,59.02327],[15.61773,59.02367],[15.61871,59.02388],[15.61905,59.02439],[15.62003,59.02467],[15.62457,59.02522],[15.62567,59.02451],[15.62828,59.02451],[15.62968,59.02819],[15.63287,59.0295],[15.6334,59.03126],[15.6395,59.0326],[15.64098,59.03453],[15.63348,59.03533],[15.63229,59.03679],[15.63833,59.04322],[15.63681,59.0454],[15.63657,59.04713],[15.63734,59.04723],[15.63858,59.04796],[15.64153,59.04854],[15.64256,59.04922],[15.64255,59.04983],[15.64147,59.0501],[15.64079,59.05066],[15.64117,59.05107],[15.64109,59.05164],[15.63953,59.05303],[15.64008,59.05396],[15.63991,59.05411],[15.67191,59.06414],[15.68413,59.06519],[15.70121,59.07247],[15.70356,59.07652],[15.71051,59.07742],[15.71612,59.0849]]]}},{"type":"Feature","id":"0428R003","properties":{"code":"0428R003","name":"Läppe-Österåker"},"geometry":{"type":"Polygon","coordinates":[[[15.89723,59.16843],[15.93429,59.16329],[15.93421,59.16312],[15.93492,59.16262],[15.93568,59.16301],[15.93783,59.16304],[15.93911,59.16348],[15.94293,59.16344],[15.94576,59.16262],[15.94634,59.16081],[15.94797,59.16009],[15.94857,59.1595],[15.94923,59.15933],[15.95053,59.15938],[15.95136,59.1589],[15.95347,59.15889],[15.963,59.15979],[16.01309,59.1488],[16.03747,59.12916],[16.04619,59.10294],[16.05503,59.09594],[16.06056,59.09229],[16.06126,59.09074],[16.07288,59.08464],[16.0775,59.08316],[16.07352,59.08283],[16.06594,59.08257],[16.06055,59.08308],[16.05974,59.08335],[16.05808,59.08343],[16.05692,59.08381],[16.05377,59.08353],[16.05069,59.08386],[16.04883,59.08326],[16.04798,59.08318],[16.0447,59.08341],[16.03693,59.0831],[16.03552,59.07628],[16.03256,59.07409],[16.03278,59.07382],[16.03084,59.07146],[16.02779,59.0687],[16.02749,59.06808],[16.02666,59.06767],[16.02282,59.06738],[16.02326,59.06512],[16.02127,59.06378],[16.02029,59.0634],[16.02157,59.06238],[16.02347,59.06271],[16.02507,59.06226],[16.02543,59.06138],[16.01586,59.05721],[16.01887,59.05647],[16.01896,59.05288],[16.0149,59.05253],[16.01434,59.05349],[15.99987,59.0527],[15.99696,59.05369],[15.99403,59.05361],[15.9941,59.05246],[15.99292,59.05089],[15.9977,59.04845],[16.00155,59.04705],[16.00429,59.04637],[16.00612,59.04632],[16.01171,59.0454],[16.01706,59.04389],[16.01963,59.04297],[16.02046,59.03803],[15.98578,59.04272],[15.98016,59.04109],[15.97887,59.04129],[15.97556,59.04268],[15.96795,59.04234],[15.96781,59.04218],[15.97132,59.04043],[15.97246,59.04027],[15.97301,59.03938],[15.97264,59.03915],[15.97232,59.03931],[15.97138,59.03914],[15.96856,59.03957],[15.96583,59.03975],[15.96583,59.03986],[15.96071,59.03991],[15.95864,59.03977],[15.95619,59.03989],[15.95267,59.04056],[15.94685,59.04248],[15.93947,59.0454],[15.93857,59.04564],[15.9383,59.04542],[15.9373,59.04595],[15.93579,59.04624],[15.93119,59.04669],[15.90762,59.04774],[15.90587,59.0497],[15.9028,59.05128],[15.89881,59.05216],[15.89427,59.05233],[15.89411,59.05259],[15.896,59.05439],[15.89666,59.05579],[15.89661,59.05723],[15.89557,59.05894],[15.89286,59.06092],[15.88983,59.0622],[15.88861,59.06346],[15.886,59.06514],[15.88085,59.06721],[15.87809,59.0689],[15.8774,59.07102],[15.87538,59.07372],[15.87393,59.075],[15.86895,59.07753],[15.8672,59.0782],[15.86442,59.07882],[15.86094,59.07905],[15.85864,59.0789],[15.85655,59.07854],[15.85236,59.07706],[15.84872,59.07471],[15.84764,59.07335],[15.84727,59.07225],[15.84758,59.07032],[15.84824,59.06885],[15.84916,59.06772],[15.85141,59.0662],[15.85542,59.06486],[15.85613,59.06423],[15.85683,59.06249],[15.85693,59.06036],[15.85753,59.05927],[15.8586,59.0582],[15.85832,59.05664],[15.8588,59.05524],[15.86043,59.05341],[15.86279,59.05202],[15.86221,59.05137],[15.85922,59.04961],[15.85803,59.0486],[15.85701,59.0469],[15.85694,59.04507],[15.85515,59.04407],[15.85245,59.04335],[15.85048,59.04435],[15.84803,59.04509],[15.8453,59.0455],[15.84174,59.04562],[15.83753,59.04528],[15.83571,59.04483],[15.83363,59.04404],[15.8138,59.04652],[15.81372,59.04632],[15.81315,59.04621],[15.81195,59.04633],[15.81143,59.04622],[15.81126,59.0457],[15.81215,59.04514],[15.81148,59.04445],[15.81093,59.0443],[15.81019,59.04458],[15.80883,59.04371],[15.80743,59.04373],[15.80577,59.04183],[15.7992,59.04151],[15.79805,59.04201],[15.79712,59.04155],[15.79686,59.03864],[15.79463,59.03499],[15.78552,59.03653],[15.78495,59.03557],[15.78056,59.03584],[15.77997,59.0354],[15.78057,59.03474],[15.77761,59.03457],[15.77682,59.03483],[15.77791,59.03515],[15.77546,59.03907],[15.7729,59.03865],[15.77279,59.03542],[15.76898,59.03519],[15.75749,59.03517],[15.75692,59.03496],[15.75678,59.0373],[15.75849,59.03729],[15.75768,59.03996],[15.75525,59.04127],[15.75481,59.04114],[15.755,59.04083],[15.75409,59.04069],[15.75377,59.04085],[15.75396,59.04024],[15.75311,59.04007],[15.752,59.04116],[15.75075,59.04604],[15.75152,59.04818],[15.7494,59.05232],[15.74621,59.05489],[15.74236,59.0573],[15.74037,59.05898],[15.73424,59.06614],[15.73122,59.07086],[15.72948,59.07679],[15.72923,59.0794],[15.72938,59.08004],[15.72977,59.08017],[15.71877,59.08354],[15.71796,59.08412],[15.71612,59.0849],[15.71258,59.08804],[15.70954,59.08777],[15.70779,59.0887],[15.70523,59.09194],[15.70357,59.09247],[15.70108,59.09445],[15.70102,59.09496],[15.70124,59.09599],[15.70574,59.10018],[15.70727,59.10101],[15.71235,59.10148],[15.71429,59.102],[15.71712,59.10174],[15.72932,59.10542],[15.73344,59.10314],[15.73523,59.10423],[15.73526,59.10582],[15.75561,59.1058],[15.75989,59.10494],[15.76701,59.10617],[15.77037,59.10643],[15.77303,59.10578],[15.77663,59.10436],[15.78014,59.10499],[15.79012,59.10856],[15.79425,59.10971],[15.78995,59.11303],[15.7895,59.11531],[15.79082,59.11679],[15.79234,59.11688],[15.79084,59.12137],[15.7976,59.12288],[15.78786,59.13346],[15.78773,59.13663],[15.78792,59.13692],[15.79821,59.13698],[15.76909,59.18372],[15.89723,59.16843]]]}},{"type":"Feature","id":"0428R004","properties":{"code":"0428R004","name":"Vannala"},"geometry":{"type":"Polygon","coordinates":[[[15.83363,59.04404],[15.85449,59.04133],[15.8593,59.04114],[15.85823,59.03582],[15.85403,59.03501],[15.85614,59.03384],[15.86184,59.0346],[15.86441,59.03439],[15.86861,59.03269],[15.86925,59.0327],[15.87303,59.03389],[15.87341,59.03386],[15.87437,59.03345],[15.87768,59.0313],[15.87786,59.03144],[15.87917,59.03031],[15.88303,59.02838],[15.88303,59.02853],[15.88708,59.02605],[15.88945,59.02661],[15.88895,59.02447],[15.88692,59.02248],[15.88473,59.02141],[15.88162,59.02058],[15.87824,59.02024],[15.87462,59.02042],[15.87179,59.02099],[15.86897,59.02214],[15.86676,59.02237],[15.86432,59.02222],[15.86224,59.02232],[15.85836,59.02311],[15.85667,59.02379],[15.85493,59.02489],[15.85399,59.02585],[15.85326,59.02719],[15.84951,59.02812],[15.84701,59.02798],[15.84229,59.02809],[15.83945,59.02857],[15.83713,59.02933],[15.83513,59.03039],[15.83366,59.0316],[15.83281,59.03297],[15.83267,59.03445],[15.83103,59.03528],[15.82981,59.03621],[15.82877,59.03757],[15.82843,59.03879],[15.82882,59.04065],[15.83073,59.04265],[15.83363,59.04404]]]}},{"type":"Feature","id":"0428R005","properties":{"code":"0428R005","name":"Vingåkers norra tätort"},"geometry":{"type":"Polygon","coordinates":[[[15.86227,59.07903],[15.86523,59.07869],[15.86776,59.07802],[15.87349,59.07527],[15.8751,59.07403],[15.8774,59.07102],[15.87809,59.0689],[15.88085,59.06721],[15.886,59.06514],[15.88861,59.06346],[15.88983,59.0622],[15.89241,59.06117],[15.89523,59.05926],[15.89632,59.05793],[15.89672,59.05616],[15.89623,59.05473],[15.89411,59.05259],[15.89427,59.05233],[15.89881,59.05216],[15.9028,59.05128],[15.90587,59.0497],[15.90762,59.04774],[15.90375,59.04743],[15.90164,59.04704],[15.89615,59.04554],[15.89534,59.04536],[15.89526,59.04546],[15.88989,59.04419],[15.89003,59.04402],[15.88943,59.04387],[15.88933,59.04398],[15.882,59.04263],[15.88213,59.04237],[15.87917,59.04217],[15.87583,59.04147],[15.8766,59.04174],[15.87399,59.0416],[15.87395,59.04132],[15.87198,59.04115],[15.87127,59.04142],[15.87057,59.04139],[15.87053,59.04155],[15.86292,59.04109],[15.85449,59.04133],[15.83363,59.04404],[15.83571,59.04483],[15.83753,59.04528],[15.84174,59.04562],[15.8453,59.0455],[15.84803,59.04509],[15.85048,59.04435],[15.85245,59.04335],[15.85515,59.04407],[15.85694,59.04507],[15.85701,59.0469],[15.85803,59.0486],[15.85922,59.04961],[15.86221,59.05137],[15.86279,59.05202],[15.86043,59.05341],[15.8588,59.05524],[15.85832,59.05664],[15.8586,59.0582],[15.85753,59.05927],[15.85693,59.06036],[15.85683,59.06249],[15.85613,59.06423],[15.85542,59.06486],[15.85191,59.06597],[15.8496,59.06733],[15.84806,59.06918],[15.84724,59.07191],[15.84764,59.07335],[15.84872,59.07471],[15.85288,59.07732],[15.8552,59.07819],[15.85716,59.07867],[15.85941,59.07897],[15.86227,59.07903]]]}}]}