{"type":"FeatureCollection","features":[{"type":"Feature","id":"0480R001","properties":{"code":"0480R001","name":"Arnö"},"geometry":{"type":"Polygon","coordinates":[[[17.03541,58.74142],[17.04929,58.73682],[17.0506,58.73419],[17.04993,58.73284],[17.04895,58.73184],[17.04641,58.73035],[17.04515,58.72919],[17.04324,58.72815],[17.04263,58.72744],[17.04169,58.72535],[17.04156,58.72369],[17.04025,58.72188],[17.04269,58.72063],[17.04403,58.71939],[17.04496,58.71763],[17.04485,58.71584],[17.04369,58.71417],[17.04204,58.713],[17.03992,58.7121],[17.03592,58.71102],[17.03369,58.70932],[17.03102,58.70821],[17.02919,58.70766],[17.02585,58.70703],[17.02328,58.70685],[17.02056,58.70696],[17.0169,58.70769],[17.01414,58.7087],[17.01106,58.70898],[17.00829,58.70958],[17.0056,58.71072],[17.0036,58.71232],[17.00122,58.71553],[17.00095,58.7166],[17.00121,58.71801],[17.00215,58.71937],[17.0037,58.72054],[17.00579,58.72149],[17.00771,58.72202],[17.00778,58.72304],[17.00283,58.72605],[17.00088,58.72786],[16.99927,58.72997],[16.999,58.73104],[16.99925,58.73246],[16.99997,58.73364],[17.00101,58.73461],[17.00147,58.73566],[16.99932,58.73571],[16.99664,58.73609],[16.99427,58.7368],[16.99235,58.73777],[17.00103,58.7407],[17.00516,58.74186],[17.00827,58.74241],[17.01498,58.74314],[17.03541,58.74142]]]}},{"type":"Feature","id":"0480R002","properties":{"code":"0480R002","name":"Bergshammar-Tuna"},"geometry":{"type":"Polygon","coordinates":[[[16.8348,58.77714],[16.83824,58.77616],[16.84093,58.77568],[16.88369,58.77211],[16.88758,58.77145],[16.89626,58.76837],[16.91208,58.76381],[16.91583,58.76314],[16.93129,58.76112],[16.92906,58.7553],[16.92865,58.75516],[16.95891,58.75728],[16.96129,58.75584],[16.96466,58.75482],[16.96559,58.75367],[16.96321,58.75295],[16.96084,58.75166],[16.95957,58.75037],[16.95897,58.74896],[16.95906,58.74754],[16.95959,58.7465],[16.96187,58.74379],[16.96391,58.74236],[16.96557,58.74166],[16.96798,58.74105],[16.97212,58.74074],[16.97678,58.74126],[16.98361,58.74306],[16.98618,58.74162],[16.98857,58.74071],[16.99228,58.73781],[16.99427,58.7368],[16.99793,58.73586],[17.00147,58.73566],[17.00101,58.73461],[16.99997,58.73364],[16.99925,58.73246],[16.999,58.73104],[16.99927,58.72997],[17.00088,58.72786],[17.00283,58.72605],[17.00778,58.72304],[17.00771,58.72202],[17.00467,58.72104],[17.00215,58.71937],[17.00108,58.71767],[17.00108,58.71589],[17.00162,58.71482],[17.00431,58.71162],[17.00654,58.71024],[17.00904,58.70938],[17.01106,58.70898],[17.01414,58.7087],[17.01632,58.70785],[17.01987,58.70705],[17.02262,58.70685],[17.02585,58.70703],[17.02925,58.70768],[17.03211,58.70861],[17.03416,58.7096],[17.03592,58.71102],[17.04047,58.71229],[17.04292,58.71355],[17.04471,58.71551],[17.04505,58.71692],[17.04485,58.71799],[17.04403,58.71939],[17.0431,58.72033],[17.04025,58.72188],[17.04142,58.72336],[17.04169,58.72535],[17.04263,58.72744],[17.04324,58.72815],[17.04515,58.72919],[17.04641,58.73035],[17.04846,58.73147],[17.05015,58.73316],[17.0506,58.73419],[17.04929,58.73682],[17.07586,58.74133],[17.10244,58.74011],[17.11042,58.73756],[17.1124,58.7296],[17.11728,58.72893],[17.12631,58.72522],[17.12235,58.71742],[17.13362,58.71455],[17.15233,58.70744],[17.15182,58.70202],[17.12576,58.70333],[17.1162,58.70272],[17.11343,58.70197],[17.10593,58.6957],[17.09568,58.6955],[17.08821,58.69357],[17.08091,58.69234],[17.07698,58.69186],[17.06939,58.69363],[17.06692,58.69361],[17.06206,58.69323],[17.06058,58.6936],[17.05587,58.69581],[17.04777,58.69732],[17.04251,58.69772],[17.03844,58.69743],[17.03294,58.69663],[17.03007,58.69902],[17.02382,58.70007],[17.0209,58.70416],[17.0205,58.70518],[17.01917,58.70615],[17.01593,58.70562],[17.01042,58.70602],[17.00462,58.70701],[17.00324,58.70448],[16.99968,58.70224],[16.99659,58.6968],[17.00193,58.69253],[16.99313,58.69167],[16.99055,58.69078],[16.98925,58.6909],[16.98822,58.69148],[16.98806,58.69134],[16.9872,58.68944],[16.99056,58.68904],[16.99157,58.68864],[16.99224,58.68868],[16.99354,58.68802],[16.99379,58.68707],[16.9936,58.68692],[16.99221,58.68691],[16.99733,58.67946],[16.99395,58.67805],[16.9891,58.67691],[16.98769,58.67573],[16.98711,58.67219],[16.95753,58.67171],[16.9502,58.67107],[16.94028,58.67332],[16.93823,58.67351],[16.93662,58.6729],[16.93517,58.67374],[16.93424,58.67364],[16.93313,58.67325],[16.93151,58.67342],[16.92901,58.67445],[16.92517,58.67549],[16.91767,58.67878],[16.92085,58.68099],[16.9115,58.68635],[16.90547,58.68433],[16.8967,58.69159],[16.89676,58.69305],[16.89539,58.69295],[16.89175,58.69354],[16.8908,58.69353],[16.88885,58.69294],[16.88724,58.69296],[16.88577,58.69266],[16.88387,58.69277],[16.88315,58.69227],[16.8791,58.69114],[16.87756,58.69036],[16.87581,58.69005],[16.87193,58.68892],[16.87304,58.68797],[16.87257,58.6877],[16.87204,58.68767],[16.87065,58.68833],[16.86975,58.68756],[16.86701,58.68699],[16.86649,58.68647],[16.86686,58.6858],[16.86862,58.68649],[16.87131,58.6867],[16.87388,58.6847],[16.86864,58.68366],[16.86498,58.68512],[16.86029,58.69036],[16.86189,58.69075],[16.86129,58.6914],[16.86154,58.69149],[16.86137,58.69173],[16.85978,58.69232],[16.8584,58.69318],[16.85787,58.69412],[16.85682,58.6949],[16.83849,58.69037],[16.83833,58.68872],[16.84074,58.68667],[16.8428,58.68372],[16.83945,58.68279],[16.83568,58.68651],[16.8146,58.68272],[16.81417,58.68281],[16.8137,58.68256],[16.81107,58.6821],[16.81186,58.68268],[16.81203,58.68386],[16.80906,58.68586],[16.80985,58.68616],[16.80975,58.68741],[16.81198,58.68837],[16.81177,58.68861],[16.81091,58.68876],[16.81153,58.68921],[16.81157,58.68953],[16.8132,58.69018],[16.8138,58.69018],[16.8135,58.69052],[16.81164,58.69014],[16.81119,58.6908],[16.81026,58.69104],[16.80908,58.69082],[16.80855,58.69094],[16.80575,58.68917],[16.80028,58.68688],[16.79994,58.68651],[16.79861,58.68599],[16.79616,58.68566],[16.79336,58.68483],[16.79245,58.68476],[16.78539,58.68197],[16.78177,58.68154],[16.77189,58.68315],[16.75867,58.68601],[16.78133,58.6956],[16.78724,58.70318],[16.78651,58.70385],[16.79307,58.70585],[16.79409,58.70714],[16.79646,58.70697],[16.79839,58.70639],[16.7992,58.70666],[16.80091,58.70676],[16.80248,58.70786],[16.80183,58.70981],[16.79427,58.71041],[16.79388,58.71117],[16.79075,58.71289],[16.79579,58.71534],[16.79527,58.71658],[16.79584,58.72024],[16.79688,58.72282],[16.79688,58.72545],[16.7978,58.72749],[16.80003,58.72822],[16.79948,58.72963],[16.80017,58.73053],[16.80168,58.73483],[16.79856,58.73496],[16.78466,58.73733],[16.78551,58.73955],[16.78806,58.74394],[16.79055,58.74492],[16.79388,58.74477],[16.79574,58.74672],[16.8011,58.74747],[16.80115,58.74768],[16.79871,58.74732],[16.79717,58.74762],[16.79776,58.74818],[16.80353,58.7665],[16.81047,58.76869],[16.8275,58.77581],[16.8348,58.77714]]]}},{"type":"Feature","id":"0480R003","properties":{"code":"0480R003","name":"Brandholmen-Rosenkälla"},"geometry":{"type":"Polygon","coordinates":[[[17.0391,58.75659],[17.04847,58.75553],[17.04849,58.75509],[17.05115,58.75535],[17.05398,58.75602],[17.05447,58.75578],[17.05196,58.7543],[17.05159,58.75373],[17.05366,58.7534],[17.05343,58.75253],[17.05533,58.75168],[17.05748,58.74771],[17.06212,58.7465],[17.06887,58.74013],[17.04929,58.73682],[17.03541,58.74142],[17.03567,58.7482],[17.03653,58.74943],[17.03668,58.7523],[17.0303,58.7519],[17.02917,58.75211],[17.02849,58.75244],[17.02839,58.75341],[17.03255,58.75385],[17.0344,58.75452],[17.03629,58.75557],[17.0391,58.75659]]]}},{"type":"Feature","id":"0480R004","properties":{"code":"0480R004","name":"Brandkärr"},"geometry":{"type":"Polygon","coordinates":[[[17.02541,58.76592],[17.02074,58.76153],[17.01687,58.76129],[17.01584,58.76167],[17.01573,58.76113],[17.01618,58.7608],[17.01689,58.76081],[17.01643,58.76041],[17.01619,58.76059],[17.01415,58.7604],[17.01221,58.76067],[17.01085,58.76104],[17.00989,58.76174],[17.00938,58.76165],[17.00862,58.76258],[17.00835,58.76398],[17.00628,58.76339],[17.00441,58.76481],[17.00116,58.76593],[17.00061,58.76655],[17.00034,58.76815],[16.9993,58.76904],[17.00225,58.76948],[17.02075,58.77096],[17.02685,58.77209],[17.02638,58.76713],[17.02541,58.76703],[17.02541,58.76592]]]}},{"type":"Feature","id":"0480R005","properties":{"code":"0480R005","name":"Bryngelstorp-Tjuvholmen"},"geometry":{"type":"Polygon","coordinates":[[[17.05704,58.76819],[17.06047,58.76795],[17.06375,58.76724],[17.06946,58.76758],[17.0727,58.76745],[17.07634,58.76688],[17.08037,58.76568],[17.09125,58.76486],[17.09352,58.76123],[17.09799,58.76028],[17.10167,58.75757],[17.10212,58.75573],[17.10121,58.75375],[17.10581,58.74929],[17.10246,58.7401],[17.07586,58.74133],[17.06887,58.74013],[17.06212,58.7465],[17.05748,58.74771],[17.05533,58.75168],[17.05343,58.75253],[17.05366,58.7534],[17.05159,58.75373],[17.05196,58.7543],[17.05447,58.75578],[17.05398,58.75602],[17.05452,58.7564],[17.05601,58.75671],[17.05603,58.75712],[17.05651,58.75756],[17.05807,58.75768],[17.05787,58.75874],[17.06079,58.76164],[17.05699,58.76251],[17.05443,58.76263],[17.04984,58.7601],[17.04739,58.76051],[17.04488,58.76117],[17.04302,58.7635],[17.04746,58.76721],[17.05106,58.76754],[17.0539,58.76808],[17.05704,58.76819]]]}},{"type":"Feature","id":"0480R010","properties":{"code":"0480R010","name":"Nyköping väster-Spelhagen"},"geometry":{"type":"Polygon","coordinates":[[[17.01644,58.74746],[17.01899,58.7428],[17.01498,58.74314],[17.00718,58.74224],[17.00303,58.74128],[16.99965,58.75067],[16.99768,58.75301],[17.01011,58.75563],[17.01125,58.75482],[17.01142,58.7541],[17.01203,58.75352],[17.01518,58.75303],[17.01551,58.75268],[17.01426,58.75234],[17.01354,58.7517],[17.01078,58.7515],[17.01012,58.75119],[17.01084,58.74943],[17.01443,58.74801],[17.01595,58.74772],[17.01644,58.74746]]]}},{"type":"Feature","id":"0480R011","properties":{"code":"0480R011","name":"Nyköping öster-Fågelbo"},"geometry":{"type":"Polygon","coordinates":[[[17.0301,58.75194],[17.03668,58.7523],[17.03653,58.74943],[17.03567,58.7482],[17.03541,58.74142],[17.019,58.74278],[17.01644,58.74746],[17.01135,58.74912],[17.01084,58.74943],[17.01005,58.75101],[17.01078,58.7515],[17.01354,58.7517],[17.01426,58.75234],[17.01551,58.75268],[17.01518,58.75303],[17.01203,58.75352],[17.01181,58.75373],[17.01918,58.7555],[17.02044,58.75766],[17.02749,58.75782],[17.03034,58.75816],[17.03312,58.75875],[17.03545,58.75508],[17.03255,58.75385],[17.02839,58.75341],[17.02849,58.75244],[17.0301,58.75194]]]}},{"type":"Feature","id":"0480R006","properties":{"code":"0480R006","name":"Harg-Oxbacken"},"geometry":{"type":"Polygon","coordinates":[[[16.98504,58.78881],[16.98798,58.78846],[16.99114,58.78751],[16.99308,58.78645],[16.99466,58.78488],[16.99727,58.78366],[17.00235,58.78503],[17.00602,58.78546],[17.00814,58.78607],[17.01196,58.78666],[17.0161,58.78656],[17.01983,58.78568],[17.02189,58.7847],[17.02366,58.78317],[17.02436,58.7818],[17.02446,58.78032],[17.02507,58.77944],[17.02812,58.77898],[17.03118,58.7779],[17.03363,58.77774],[17.03684,58.77718],[17.03917,58.77644],[17.0411,58.77539],[17.04404,58.77261],[17.04475,58.77159],[17.04511,58.77016],[17.04474,58.76829],[17.03261,58.77355],[17.02685,58.77209],[17.02075,58.77096],[17.00225,58.76948],[16.9993,58.76904],[16.99864,58.77123],[16.99897,58.77262],[16.99876,58.77335],[16.99669,58.77471],[16.99593,58.77553],[16.99531,58.77566],[16.99088,58.77476],[16.98911,58.77497],[16.98864,58.77478],[16.98766,58.77316],[16.98688,58.77298],[16.98568,58.77349],[16.98464,58.7746],[16.98364,58.77454],[16.98319,58.77478],[16.98285,58.77462],[16.98246,58.77483],[16.98272,58.77492],[16.98104,58.77541],[16.98,58.77497],[16.97489,58.77152],[16.97491,58.77096],[16.97304,58.77046],[16.97121,58.77074],[16.96915,58.77141],[16.96262,58.76989],[16.95986,58.7699],[16.95705,58.76953],[16.95626,58.7696],[16.9544,58.77019],[16.9518,58.77055],[16.95023,58.77199],[16.94969,58.77333],[16.95006,58.77405],[16.952,58.77507],[16.95788,58.77734],[16.95888,58.77906],[16.95892,58.78127],[16.95709,58.78455],[16.96041,58.78457],[16.9611,58.78392],[16.96408,58.78392],[16.96659,58.78112],[16.96905,58.78245],[16.9785,58.78862],[16.98504,58.78881]]]}},{"type":"Feature","id":"0480R007","properties":{"code":"0480R007","name":"Hållet-Blommenhov"},"geometry":{"type":"Polygon","coordinates":[[[16.96946,58.77137],[16.97121,58.77074],[16.97253,58.77054],[16.97425,58.76804],[16.97254,58.76774],[16.97336,58.76639],[16.97736,58.76583],[16.98414,58.76535],[16.98826,58.76457],[16.99072,58.76386],[16.9928,58.76603],[16.99501,58.76752],[16.99604,58.76801],[16.99933,58.76899],[17.00034,58.76815],[17.00093,58.7661],[17.00441,58.76481],[17.00606,58.76359],[17.00779,58.76184],[17.00712,58.76074],[17.00518,58.76009],[17.00425,58.75872],[17.00427,58.75794],[17.00481,58.75768],[17.00724,58.75751],[17.01011,58.75563],[16.99768,58.75301],[16.99642,58.75415],[16.99497,58.75487],[16.99373,58.7553],[16.99151,58.75571],[16.98996,58.75629],[16.98395,58.75682],[16.97508,58.75793],[16.9731,58.75792],[16.97063,58.75763],[16.95891,58.75728],[16.95662,58.7595],[16.95587,58.76063],[16.95293,58.76197],[16.95169,58.76296],[16.95088,58.764],[16.95024,58.76697],[16.95131,58.76947],[16.95218,58.77044],[16.9544,58.77019],[16.95626,58.7696],[16.95705,58.76953],[16.95986,58.7699],[16.96262,58.76989],[16.96851,58.77131],[16.96946,58.77137]]]}},{"type":"Feature","id":"0480R008","properties":{"code":"0480R008","name":"Högbrunn-Idbäcken"},"geometry":{"type":"Polygon","coordinates":[[[16.98395,58.75682],[16.98996,58.75629],[16.99151,58.75571],[16.99373,58.7553],[16.99497,58.75487],[16.99642,58.75415],[16.99965,58.75067],[17.00303,58.74128],[16.99235,58.73777],[16.98857,58.74071],[16.98618,58.74162],[16.98361,58.74306],[16.97817,58.74156],[16.97408,58.74087],[16.97004,58.74079],[16.96613,58.74148],[16.96391,58.74236],[16.96222,58.74347],[16.9592,58.74718],[16.95897,58.74899],[16.96011,58.75102],[16.96217,58.75248],[16.96559,58.75367],[16.96466,58.75482],[16.96129,58.75584],[16.95891,58.75728],[16.97063,58.75763],[16.9731,58.75792],[16.97508,58.75793],[16.98395,58.75682]]]}},{"type":"Feature","id":"0480R009","properties":{"code":"0480R009","name":"Lunda-Kila"},"geometry":{"type":"Polygon","coordinates":[[[16.29121,58.81451],[16.29369,58.81332],[16.29654,58.81338],[16.29693,58.81363],[16.30123,58.81172],[16.30391,58.81122],[16.30643,58.81144],[16.30845,58.81048],[16.30933,58.80928],[16.31302,58.80765],[16.31439,58.80655],[16.31585,58.80575],[16.31581,58.80641],[16.31627,58.80697],[16.31726,58.80741],[16.32306,58.80568],[16.32506,58.80433],[16.32616,58.80322],[16.32693,58.80338],[16.32716,58.80312],[16.3281,58.80298],[16.32939,58.8023],[16.33015,58.80212],[16.33109,58.80221],[16.33326,58.80171],[16.3354,58.80059],[16.33655,58.80053],[16.33747,58.80132],[16.33821,58.80077],[16.33906,58.80063],[16.33933,58.80014],[16.34074,58.7997],[16.34077,58.79917],[16.34127,58.79866],[16.34408,58.79703],[16.346,58.79632],[16.34665,58.7956],[16.35176,58.79418],[16.35298,58.79444],[16.36415,58.79285],[16.36526,58.79295],[16.36802,58.79277],[16.37124,58.7931],[16.37665,58.79145],[16.39829,58.78836],[16.39987,58.78738],[16.40412,58.78352],[16.40772,58.78328],[16.41074,58.78409],[16.41462,58.78289],[16.41868,58.78277],[16.42007,58.78346],[16.43196,58.78214],[16.4402,58.77839],[16.44727,58.77794],[16.44912,58.77653],[16.45304,58.77651],[16.45458,58.77613],[16.45513,58.77627],[16.45592,58.77605],[16.45649,58.77505],[16.46125,58.77229],[16.46412,58.77007],[16.49924,58.77022],[16.50258,58.76909],[16.51311,58.77316],[16.51446,58.77352],[16.53348,58.7759],[16.56069,58.77959],[16.56655,58.78344],[16.5794,58.78739],[16.58331,58.78621],[16.58675,58.78462],[16.58818,58.78469],[16.59149,58.78363],[16.59228,58.78437],[16.59931,58.78072],[16.60046,58.78104],[16.60272,58.77899],[16.62934,58.77374],[16.65478,58.7723],[16.66269,58.77774],[16.66793,58.77742],[16.68101,58.77468],[16.68506,58.77293],[16.69827,58.77002],[16.71052,58.77041],[16.71154,58.77023],[16.71113,58.7694],[16.7115,58.76879],[16.71222,58.76862],[16.7122,58.768],[16.7184,58.76781],[16.72362,58.76648],[16.72547,58.7667],[16.73151,58.76618],[16.73342,58.76804],[16.73721,58.76712],[16.73866,58.7676],[16.73951,58.76729],[16.74105,58.76576],[16.7437,58.76663],[16.74273,58.76772],[16.74999,58.76946],[16.75893,58.76925],[16.7625,58.76982],[16.77731,58.76931],[16.78972,58.76919],[16.79368,58.76339],[16.80353,58.7665],[16.79776,58.74818],[16.79717,58.74762],[16.79871,58.74732],[16.80115,58.74768],[16.8011,58.74747],[16.79574,58.74672],[16.79388,58.74477],[16.79055,58.74492],[16.78806,58.74394],[16.78551,58.73955],[16.78466,58.73733],[16.79856,58.73496],[16.80168,58.73483],[16.80017,58.73053],[16.79948,58.72963],[16.80003,58.72822],[16.7978,58.72749],[16.79688,58.72545],[16.79688,58.72282],[16.79584,58.72024],[16.79527,58.71658],[16.79579,58.71534],[16.79075,58.71289],[16.79388,58.71117],[16.79427,58.71041],[16.80183,58.70981],[16.80248,58.70786],[16.80091,58.70676],[16.7992,58.70666],[16.79839,58.70639],[16.79646,58.70697],[16.79409,58.70714],[16.79307,58.70585],[16.78651,58.70385],[16.78724,58.70318],[16.78133,58.6956],[16.73686,58.67679],[16.71695,58.65544],[16.7127,58.65781],[16.70996,58.6599],[16.71009,58.66077],[16.70921,58.66175],[16.70962,58.6633],[16.71007,58.66364],[16.70968,58.6641],[16.70983,58.66433],[16.7091,58.66504],[16.70648,58.66618],[16.70554,58.66675],[16.70494,58.6675],[16.70309,58.66815],[16.70178,58.67005],[16.70054,58.67003],[16.69793,58.67118],[16.6965,58.67152],[16.69194,58.67459],[16.68978,58.67562],[16.64884,58.68188],[16.64777,58.68143],[16.6457,58.68118],[16.64547,58.68038],[16.64623,58.67942],[16.64542,58.67922],[16.64453,58.67867],[16.64256,58.67632],[16.63919,58.67552],[16.63858,58.67577],[16.63856,58.67624],[16.63606,58.67931],[16.63574,58.68021],[16.63595,58.6813],[16.63446,58.6821],[16.63705,58.68362],[16.63707,58.68499],[16.63386,58.68604],[16.63456,58.68562],[16.63275,58.68511],[16.62977,58.68647],[16.62941,58.68822],[16.62827,58.68993],[16.62126,58.69103],[16.62058,58.69008],[16.61797,58.69011],[16.61796,58.69086],[16.60744,58.69406],[16.5845,58.69793],[16.55902,58.69746],[16.55763,58.69678],[16.54153,58.70091],[16.51063,58.69783],[16.475,58.69632],[16.46609,58.69752],[16.46337,58.69868],[16.46227,58.69866],[16.46108,58.69794],[16.4555,58.6978],[16.45216,58.6983],[16.42702,58.6972],[16.42697,58.69829],[16.41771,58.70305],[16.40613,58.70387],[16.39921,58.7019],[16.39658,58.70274],[16.39234,58.70269],[16.38773,58.70371],[16.3858,58.70359],[16.3852,58.70479],[16.38381,58.70562],[16.38102,58.70628],[16.37866,58.70761],[16.37717,58.70815],[16.37755,58.70971],[16.37226,58.72714],[16.37373,58.72703],[16.37601,58.72741],[16.37788,58.72732],[16.37681,58.72855],[16.37653,58.7299],[16.37241,58.73116],[16.37328,58.73345],[16.3706,58.73431],[16.37453,58.74001],[16.37439,58.74043],[16.36988,58.74134],[16.36864,58.75284],[16.34753,58.76624],[16.34612,58.76538],[16.34335,58.76578],[16.34278,58.76652],[16.34333,58.76776],[16.34092,58.76936],[16.33836,58.77029],[16.33812,58.77095],[16.33882,58.77146],[16.3382,58.77206],[16.32745,58.77957],[16.32221,58.77556],[16.31501,58.7732],[16.30785,58.77223],[16.30716,58.77196],[16.30574,58.77069],[16.30589,58.77],[16.30498,58.76936],[16.30459,58.76833],[16.30217,58.77149],[16.29518,58.77608],[16.29604,58.77593],[16.30863,58.78547],[16.3064,58.78666],[16.30646,58.78679],[16.30746,58.78674],[16.3103,58.79154],[16.30946,58.792],[16.30752,58.79382],[16.30631,58.7942],[16.30481,58.79507],[16.302,58.79567],[16.30093,58.79525],[16.29777,58.79651],[16.29628,58.79828],[16.28932,58.80071],[16.26906,58.82557],[16.29302,58.81671],[16.29076,58.81598],[16.2908,58.81526],[16.29151,58.81477],[16.29121,58.81451]]]}},{"type":"Feature","id":"0480R012","properties":{"code":"0480R012","name":"Oppeby"},"geometry":{"type":"Polygon","coordinates":[[[16.99669,58.77471],[16.99861,58.77357],[16.99889,58.77311],[16.99864,58.77123],[16.99933,58.76899],[16.99604,58.76801],[16.99501,58.76752],[16.9928,58.76603],[16.99072,58.76386],[16.98826,58.76457],[16.98414,58.76535],[16.97736,58.76583],[16.97336,58.76639],[16.97254,58.76774],[16.97425,58.76804],[16.97253,58.77054],[16.97304,58.77046],[16.97491,58.77096],[16.97489,58.77152],[16.98045,58.77522],[16.98104,58.77541],[16.98272,58.77492],[16.98246,58.77483],[16.98285,58.77462],[16.98319,58.77478],[16.98364,58.77454],[16.98464,58.7746],[16.98568,58.77349],[16.98688,58.77298],[16.98766,58.77316],[16.98864,58.77478],[16.98911,58.77497],[16.99088,58.77476],[16.99531,58.77566],[16.99593,58.77553],[16.99669,58.77471]]]}},{"type":"Feature","id":"0480R013","properties":{"code":"0480R013","name":"Runtuna-Ludgo"},"geometry":{"type":"Polygon","coordinates":[[[17.05676,59.02106],[17.05849,59.01775],[17.06335,59.01703],[17.06943,59.01484],[17.07093,59.01378],[17.07599,59.01253],[17.08222,59.0084],[17.07789,59.00597],[17.07694,59.00462],[17.08606,59.00178],[17.09209,58.99833],[17.09416,58.99546],[17.10473,58.99099],[17.11318,58.985],[17.11679,58.98346],[17.11653,58.983],[17.11728,58.98253],[17.11791,58.98248],[17.11943,58.98284],[17.1198,58.98271],[17.11946,58.9823],[17.12023,58.98196],[17.12242,58.9821],[17.12357,58.9824],[17.12398,58.98227],[17.12433,58.98241],[17.12642,58.98243],[17.12735,58.98214],[17.12842,58.98212],[17.12847,58.98153],[17.13468,58.98167],[17.1348,58.98132],[17.13387,58.98106],[17.13381,58.98037],[17.14336,58.97877],[17.14426,58.97888],[17.14487,58.97865],[17.14468,58.97849],[17.14566,58.97835],[17.14676,58.97788],[17.14785,58.9784],[17.14883,58.97803],[17.14962,58.97729],[17.14926,58.97682],[17.15421,58.97469],[17.16013,58.97799],[17.1644,58.98096],[17.16537,58.98219],[17.1684,58.98093],[17.17014,58.98253],[17.17298,58.98186],[17.17439,58.98006],[17.17297,58.97874],[17.17333,58.978],[17.17499,58.97727],[17.17712,58.97698],[17.17861,58.97641],[17.17943,58.97573],[17.18126,58.97573],[17.20674,58.96913],[17.21017,58.9653],[17.21736,58.95268],[17.22027,58.95086],[17.22286,58.95099],[17.2313,58.94545],[17.23086,58.94013],[17.22865,58.93802],[17.22636,58.93311],[17.21418,58.93035],[17.19947,58.92905],[17.19949,58.92408],[17.20658,58.92049],[17.20529,58.91895],[17.20434,58.91875],[17.20272,58.91775],[17.20013,58.91701],[17.19609,58.92443],[17.19671,58.92707],[17.19164,58.92537],[17.18783,58.92343],[17.17566,58.9155],[17.16181,58.90698],[17.16021,58.90467],[17.15746,58.90477],[17.15631,58.90449],[17.15513,58.90394],[17.1526,58.90506],[17.13817,58.90516],[17.13785,58.90056],[17.14038,58.89799],[17.1404,58.89754],[17.13794,58.89114],[17.14848,58.87923],[17.13946,58.87726],[17.13662,58.87749],[17.12853,58.87543],[17.12936,58.8714],[17.12873,58.86996],[17.13093,58.86834],[17.13086,58.86638],[17.13404,58.86541],[17.13429,58.86555],[17.13576,58.86477],[17.13725,58.86473],[17.13917,58.86521],[17.14002,58.86461],[17.1402,58.86377],[17.14128,58.86364],[17.14116,58.86306],[17.1414,58.86252],[17.14195,58.86218],[17.14114,58.8614],[17.14122,58.86025],[17.14335,58.8581],[17.14315,58.8522],[17.14551,58.84788],[17.13574,58.8469],[17.13547,58.84508],[17.13519,58.84564],[17.13552,58.84602],[17.13461,58.84625],[17.13239,58.84572],[17.13212,58.84544],[17.13091,58.84555],[17.12944,58.84524],[17.12904,58.84492],[17.12753,58.84443],[17.12713,58.84397],[17.1264,58.84382],[17.12427,58.84548],[17.10603,58.84963],[17.10448,58.84749],[17.10462,58.84677],[17.10421,58.84566],[17.10415,58.84404],[17.10467,58.84278],[17.10447,58.84195],[17.10549,58.83926],[17.10507,58.83901],[17.08687,58.84062],[17.08123,58.84218],[17.07364,58.84297],[17.07078,58.84228],[17.0708,58.84128],[17.05244,58.84251],[17.04966,58.84287],[17.04995,58.84351],[17.04643,58.84393],[17.04007,58.8314],[17.03941,58.8312],[17.03901,58.82875],[17.03727,58.82848],[17.03744,58.82764],[17.03814,58.8277],[17.03924,58.82712],[17.04088,58.82722],[17.04256,58.8267],[17.04122,58.82542],[17.03723,58.82508],[17.03484,58.82809],[17.03463,58.82806],[17.03287,58.82755],[17.03392,58.82608],[17.03383,58.82557],[17.03293,58.82524],[17.03235,58.82522],[17.0305,58.8295],[17.02161,58.8292],[17.021,58.82991],[17.01953,58.82983],[17.01731,58.83029],[17.0163,58.82999],[17.00267,58.82939],[17.00153,58.83196],[16.99864,58.83203],[16.99498,58.83138],[16.98997,58.83543],[16.97654,58.84438],[16.97455,58.84539],[16.95683,58.85868],[16.95051,58.86918],[16.95014,58.87192],[16.9441,58.87624],[16.92567,58.88565],[16.91055,58.89198],[16.91218,58.8925],[16.91355,58.89399],[16.91329,58.89561],[16.91474,58.89721],[16.91439,58.89995],[16.9136,58.90124],[16.91393,58.90246],[16.91537,58.90322],[16.91394,58.90556],[16.91422,58.90776],[16.91969,58.91062],[16.91733,58.91283],[16.93517,58.92973],[16.93407,58.93415],[16.93627,58.9392],[16.94091,58.94387],[16.94667,58.94414],[16.94744,58.94126],[16.95299,58.94209],[16.97176,58.94627],[16.98623,58.95111],[16.99514,58.9543],[17.00343,58.95652],[17.00852,58.95539],[17.02194,58.9568],[17.0287,58.95838],[17.04326,58.96102],[17.04739,58.96212],[17.06545,58.97451],[17.06754,58.97573],[17.07187,58.97761],[17.0709,58.97892],[17.0687,58.97987],[17.0654,58.98362],[17.05928,58.98726],[17.05592,58.99337],[17.0459,59.00129],[17.04575,59.00538],[17.04158,59.00496],[17.03458,59.01078],[17.02649,59.01461],[17.02753,59.02084],[17.04061,59.01811],[17.05676,59.02106]]]}},{"type":"Feature","id":"0480R014","properties":{"code":"0480R014","name":"Stenkulla-Malmbryggshagen"},"geometry":{"type":"Polygon","coordinates":[[[17.05699,58.76251],[17.06079,58.76164],[17.05787,58.75874],[17.05807,58.75768],[17.05651,58.75756],[17.05603,58.75712],[17.05601,58.75671],[17.05482,58.75651],[17.05398,58.75602],[17.05256,58.7556],[17.04849,58.75509],[17.04847,58.75553],[17.0391,58.75659],[17.03629,58.75557],[17.03545,58.75508],[17.03312,58.75875],[17.04219,58.76125],[17.04444,58.76171],[17.04488,58.76117],[17.04739,58.76051],[17.04984,58.7601],[17.05443,58.76263],[17.05699,58.76251]]]}},{"type":"Feature","id":"0480R015","properties":{"code":"0480R015","name":"Stigtomta"},"geometry":{"type":"Polygon","coordinates":[[[16.80385,58.86458],[16.81444,58.86144],[16.82445,58.86248],[16.83812,58.86119],[16.85322,58.85626],[16.85712,58.85935],[16.86105,58.86179],[16.86353,58.86204],[16.87496,58.85441],[16.87438,58.8524],[16.87961,58.85067],[16.88707,58.84253],[16.8937,58.83888],[16.89714,58.83527],[16.90328,58.83324],[16.90898,58.83495],[16.9238,58.82993],[16.92553,58.82893],[16.92593,58.82853],[16.92675,58.82569],[16.92879,58.82375],[16.92875,58.8222],[16.93048,58.81966],[16.93133,58.81894],[16.93482,58.81733],[16.9352,58.81685],[16.93541,58.81552],[16.9365,58.81501],[16.93754,58.81404],[16.93719,58.81343],[16.93554,58.81305],[16.93753,58.81056],[16.93766,58.80936],[16.93887,58.80836],[16.93992,58.80708],[16.93997,58.80661],[16.9409,58.80598],[16.94117,58.80538],[16.94052,58.80501],[16.93861,58.80482],[16.93823,58.80402],[16.94066,58.79854],[16.94386,58.79675],[16.94582,58.79491],[16.94998,58.79378],[16.95269,58.79219],[16.95631,58.78778],[16.95731,58.78394],[16.95834,58.7826],[16.95892,58.78127],[16.95888,58.77906],[16.95788,58.77734],[16.9512,58.77473],[16.9498,58.77372],[16.94977,58.77294],[16.95023,58.77199],[16.951,58.77107],[16.95218,58.77044],[16.95069,58.76843],[16.95024,58.76653],[16.95072,58.76434],[16.95169,58.76296],[16.95336,58.76171],[16.95587,58.76063],[16.95662,58.7595],[16.95891,58.75728],[16.92865,58.75516],[16.92906,58.7553],[16.93129,58.76112],[16.91583,58.76314],[16.91208,58.76381],[16.89626,58.76837],[16.88758,58.77145],[16.88369,58.77211],[16.84093,58.77568],[16.83824,58.77616],[16.8348,58.77714],[16.8275,58.77581],[16.81047,58.76869],[16.79368,58.76339],[16.78972,58.76919],[16.77731,58.76931],[16.7625,58.76982],[16.75893,58.76925],[16.74999,58.76946],[16.74273,58.76772],[16.7437,58.76663],[16.74105,58.76576],[16.73951,58.76729],[16.73866,58.7676],[16.73721,58.76712],[16.73342,58.76804],[16.73151,58.76618],[16.72547,58.7667],[16.72362,58.76648],[16.7184,58.76781],[16.7122,58.768],[16.71222,58.76862],[16.7115,58.76879],[16.71113,58.7694],[16.71154,58.77023],[16.71052,58.77041],[16.69827,58.77002],[16.68506,58.77293],[16.68101,58.77468],[16.66793,58.77742],[16.66269,58.77774],[16.65478,58.7723],[16.62934,58.77374],[16.60272,58.77899],[16.60046,58.78104],[16.59931,58.78072],[16.59228,58.78437],[16.59368,58.78566],[16.59359,58.78598],[16.59303,58.78608],[16.59335,58.78689],[16.59222,58.78739],[16.58913,58.78825],[16.59529,58.79538],[16.59728,58.79974],[16.59882,58.80813],[16.60303,58.81074],[16.60411,58.81672],[16.61075,58.8189],[16.61781,58.82092],[16.63646,58.80985],[16.64903,58.80547],[16.65591,58.81705],[16.66082,58.82097],[16.66182,58.82089],[16.6627,58.82168],[16.66365,58.82211],[16.66774,58.82576],[16.67566,58.82445],[16.68706,58.8268],[16.68909,58.84054],[16.69456,58.84911],[16.68664,58.8551],[16.68814,58.85789],[16.69426,58.85955],[16.70029,58.85833],[16.70762,58.85794],[16.71253,58.85905],[16.71526,58.85786],[16.71689,58.85615],[16.72143,58.85512],[16.72525,58.85386],[16.73034,58.85382],[16.73622,58.85574],[16.74531,58.8548],[16.74689,58.85775],[16.7664,58.86376],[16.78093,58.86545],[16.78434,58.86735],[16.79684,58.86605],[16.80385,58.86458]]]}},{"type":"Feature","id":"0480R016","properties":{"code":"0480R016","name":"Svärta"},"geometry":{"type":"Polygon","coordinates":[[[17.10617,58.8496],[17.12427,58.84548],[17.1264,58.84382],[17.12713,58.84397],[17.12753,58.84443],[17.12904,58.84492],[17.12944,58.84524],[17.13091,58.84555],[17.13212,58.84544],[17.13239,58.84572],[17.13461,58.84625],[17.13552,58.84602],[17.13519,58.84564],[17.13547,58.84508],[17.13574,58.8469],[17.14551,58.84788],[17.15156,58.83735],[17.16881,58.83174],[17.16698,58.82657],[17.17352,58.82214],[17.17477,58.82218],[17.17784,58.81209],[17.18064,58.80868],[17.18957,58.79493],[17.19431,58.79075],[17.19404,58.7898],[17.20403,58.78474],[17.20478,58.78507],[17.20696,58.78406],[17.20622,58.78356],[17.20769,58.78274],[17.20826,58.78275],[17.2094,58.78228],[17.21151,58.78093],[17.21259,58.78052],[17.21291,58.77983],[17.21526,58.77872],[17.21556,58.77792],[17.2164,58.77745],[17.21738,58.77764],[17.22037,58.77613],[17.21924,58.77501],[17.21708,58.77469],[17.21505,58.77484],[17.21421,58.77436],[17.21312,58.77436],[17.21433,58.77182],[17.21192,58.7703],[17.21403,58.76934],[17.20892,58.76387],[17.21177,58.76158],[17.21334,58.75776],[17.21394,58.7573],[17.218,58.75124],[17.21625,58.75085],[17.21441,58.74973],[17.21629,58.74779],[17.21637,58.74641],[17.21757,58.74561],[17.22084,58.74457],[17.22206,58.74083],[17.22295,58.7409],[17.22381,58.74147],[17.22866,58.74073],[17.22894,58.74035],[17.23062,58.73984],[17.23227,58.73773],[17.23303,58.73727],[17.23389,58.73723],[17.23485,58.73622],[17.2344,58.73578],[17.23511,58.73516],[17.23505,58.73495],[17.24109,58.7332],[17.24288,58.73352],[17.25132,58.72833],[17.24849,58.72631],[17.24784,58.72626],[17.24672,58.72447],[17.24483,58.71609],[17.24219,58.71228],[17.24338,58.71067],[17.22788,58.6947],[17.17823,58.70068],[17.15182,58.70202],[17.15233,58.70744],[17.13362,58.71455],[17.12235,58.71742],[17.12631,58.72522],[17.11728,58.72893],[17.1124,58.7296],[17.11042,58.73756],[17.10246,58.7401],[17.10581,58.74929],[17.10121,58.75375],[17.10212,58.75573],[17.10167,58.75757],[17.09799,58.76028],[17.09352,58.76123],[17.09125,58.76486],[17.08037,58.76568],[17.07573,58.76701],[17.07152,58.76754],[17.0688,58.76756],[17.06375,58.76724],[17.06027,58.76797],[17.05597,58.7682],[17.0539,58.76808],[17.05106,58.76754],[17.04746,58.76721],[17.04474,58.76829],[17.04511,58.77016],[17.04475,58.77159],[17.04373,58.77291],[17.04066,58.77568],[17.03917,58.77644],[17.03684,58.77718],[17.03363,58.77774],[17.03118,58.7779],[17.02812,58.77898],[17.02507,58.77944],[17.02446,58.78032],[17.02409,58.7825],[17.0227,58.78413],[17.01988,58.78567],[17.01674,58.78647],[17.01333,58.78672],[17.01029,58.78648],[17.00602,58.78546],[17.00235,58.78503],[16.99727,58.78366],[16.99466,58.78488],[16.99345,58.78616],[16.99211,58.78704],[16.98918,58.78818],[16.98735,58.78857],[16.98504,58.78881],[16.9785,58.78862],[16.96905,58.78245],[16.96659,58.78112],[16.96408,58.78392],[16.9611,58.78392],[16.96041,58.78457],[16.95709,58.78455],[16.95631,58.78778],[16.95269,58.79219],[16.94998,58.79378],[16.94582,58.79491],[16.94386,58.79675],[16.94125,58.79809],[16.94041,58.79887],[16.93987,58.80077],[16.93835,58.80343],[16.93826,58.80424],[16.93861,58.80482],[16.94052,58.80501],[16.94117,58.80538],[16.9409,58.80598],[16.93997,58.80661],[16.93992,58.80708],[16.93887,58.80836],[16.93766,58.80936],[16.93753,58.81056],[16.93554,58.81305],[16.93719,58.81343],[16.93754,58.81404],[16.9365,58.81501],[16.93541,58.81552],[16.9352,58.81685],[16.93482,58.81733],[16.93133,58.81894],[16.93048,58.81966],[16.92875,58.8222],[16.92879,58.82375],[16.92675,58.82569],[16.92585,58.82867],[16.9238,58.82993],[16.90898,58.83495],[16.91693,58.83671],[16.92227,58.83975],[16.92256,58.83999],[16.92193,58.84402],[16.92218,58.8467],[16.92769,58.84713],[16.92562,58.84603],[16.92873,58.843],[16.92998,58.84259],[16.93076,58.8426],[16.93084,58.84199],[16.93112,58.84197],[16.93178,58.84104],[16.93075,58.84085],[16.92985,58.84041],[16.92896,58.84083],[16.92984,58.83229],[16.92853,58.83157],[16.9296,58.83081],[16.93043,58.83075],[16.93073,58.83046],[16.93049,58.8303],[16.93069,58.82995],[16.92946,58.82954],[16.92988,58.82914],[16.9298,58.82881],[16.93029,58.8284],[16.9309,58.82868],[16.93201,58.82737],[16.93204,58.82673],[16.93295,58.82532],[16.93397,58.82495],[16.93594,58.82466],[16.93796,58.82396],[16.94251,58.82383],[16.94483,58.81991],[16.94624,58.81919],[16.94932,58.81583],[16.97782,58.82078],[16.98046,58.82149],[16.98066,58.82174],[16.99386,58.82442],[16.99632,58.82539],[16.99312,58.82733],[16.99239,58.82828],[16.99303,58.83098],[16.99481,58.83151],[16.99498,58.83138],[16.99864,58.83203],[17.00153,58.83196],[17.00267,58.82939],[17.0163,58.82999],[17.01731,58.83029],[17.01953,58.82983],[17.021,58.82991],[17.02161,58.8292],[17.0305,58.8295],[17.03235,58.82522],[17.03293,58.82524],[17.03383,58.82557],[17.03392,58.82608],[17.03287,58.82755],[17.03484,58.82809],[17.03723,58.82508],[17.04122,58.82542],[17.04256,58.8267],[17.04088,58.82722],[17.03924,58.82712],[17.03814,58.8277],[17.03744,58.82764],[17.03727,58.82848],[17.03901,58.82875],[17.03941,58.8312],[17.04007,58.8314],[17.04643,58.84393],[17.04995,58.84351],[17.04966,58.84287],[17.05244,58.84251],[17.0708,58.84128],[17.07078,58.84228],[17.07364,58.84297],[17.08123,58.84218],[17.08687,58.84062],[17.10507,58.83901],[17.10549,58.83926],[17.10447,58.84195],[17.10467,58.84278],[17.10415,58.84404],[17.10421,58.84566],[17.10458,58.84768],[17.10581,58.84944],[17.10617,58.8496]]]}},{"type":"Feature","id":"0480R017","properties":{"code":"0480R017","name":"Tunaberg"},"geometry":{"type":"Polygon","coordinates":[[[16.86029,58.69036],[16.86498,58.68512],[16.86864,58.68366],[16.87388,58.6847],[16.87131,58.6867],[16.86862,58.68649],[16.86686,58.6858],[16.86651,58.68622],[16.86701,58.68699],[16.86975,58.68756],[16.87065,58.68833],[16.87204,58.68767],[16.87257,58.6877],[16.87304,58.68797],[16.87193,58.68892],[16.87581,58.69005],[16.87756,58.69036],[16.8791,58.69114],[16.88315,58.69227],[16.884,58.6928],[16.88577,58.69266],[16.88724,58.69296],[16.88885,58.69294],[16.89102,58.69355],[16.89249,58.69349],[16.89539,58.69295],[16.89676,58.69305],[16.8967,58.69159],[16.90547,58.68433],[16.9115,58.68635],[16.92085,58.68099],[16.91767,58.67878],[16.92517,58.67549],[16.92901,58.67445],[16.93151,58.67342],[16.93313,58.67325],[16.93424,58.67364],[16.93517,58.67374],[16.93662,58.6729],[16.93823,58.67351],[16.94028,58.67332],[16.9502,58.67107],[16.95753,58.67171],[16.98404,58.67218],[16.98711,58.67219],[17.00512,58.6715],[17.01837,58.66943],[17.03222,58.66531],[17.04514,58.65958],[17.04762,58.65516],[17.0529,58.65208],[17.05836,58.64799],[17.08678,58.63465],[17.07865,58.61141],[17.06983,58.59066],[17.01642,58.59005],[16.97243,58.58099],[16.94252,58.58445],[16.91888,58.59586],[16.89009,58.60099],[16.82738,58.59427],[16.79654,58.60765],[16.79229,58.60896],[16.78774,58.61167],[16.78367,58.61306],[16.74995,58.6271],[16.75043,58.62818],[16.75019,58.62963],[16.74894,58.62998],[16.74892,58.63018],[16.75031,58.63066],[16.75163,58.6308],[16.75347,58.6303],[16.75483,58.63038],[16.75843,58.63019],[16.73374,58.64379],[16.72636,58.64923],[16.72559,58.64906],[16.7249,58.6485],[16.72342,58.64783],[16.72312,58.6479],[16.72363,58.64874],[16.72391,58.65035],[16.72435,58.65077],[16.72122,58.65318],[16.71695,58.65544],[16.73686,58.67679],[16.75867,58.68601],[16.77189,58.68315],[16.78177,58.68154],[16.78539,58.68197],[16.79245,58.68476],[16.79336,58.68483],[16.79616,58.68566],[16.79861,58.68599],[16.79994,58.68651],[16.80028,58.68688],[16.80575,58.68917],[16.80855,58.69094],[16.80908,58.69082],[16.81026,58.69104],[16.81119,58.6908],[16.81164,58.69014],[16.8135,58.69052],[16.8138,58.69018],[16.8132,58.69018],[16.81157,58.68953],[16.81153,58.68921],[16.81091,58.68876],[16.81177,58.68861],[16.81198,58.68837],[16.80975,58.68741],[16.80985,58.68616],[16.80906,58.68586],[16.81203,58.68386],[16.81186,58.68268],[16.81107,58.6821],[16.8137,58.68256],[16.81417,58.68281],[16.8146,58.68272],[16.83568,58.68651],[16.83945,58.68279],[16.8428,58.68372],[16.84074,58.68667],[16.83833,58.68872],[16.83849,58.69037],[16.85682,58.6949],[16.85787,58.69412],[16.8584,58.69318],[16.85978,58.69232],[16.86137,58.69173],[16.86154,58.69149],[16.86129,58.6914],[16.86189,58.69075],[16.86029,58.69036]]]}},{"type":"Feature","id":"0480R018","properties":{"code":"0480R018","name":"Tystberga-Lästringe"},"geometry":{"type":"Polygon","coordinates":[[[17.27155,58.95507],[17.27561,58.95028],[17.28444,58.94322],[17.30087,58.93825],[17.30028,58.93764],[17.30038,58.93705],[17.30322,58.93655],[17.30505,58.9377],[17.31401,58.93673],[17.31572,58.93287],[17.31907,58.92846],[17.32278,58.92196],[17.32359,58.92137],[17.32519,58.91933],[17.3293,58.91803],[17.33247,58.91806],[17.33226,58.91717],[17.33457,58.91645],[17.33611,58.91998],[17.34067,58.92018],[17.34162,58.92175],[17.34292,58.92171],[17.34361,58.92416],[17.34759,58.92641],[17.35214,58.925],[17.35836,58.92876],[17.35446,58.93076],[17.35736,58.93322],[17.3611,58.93133],[17.36741,58.93391],[17.38496,58.93422],[17.38601,58.92986],[17.38114,58.91813],[17.38145,58.91573],[17.37952,58.91396],[17.38094,58.91276],[17.38251,58.91269],[17.38376,58.91227],[17.3831,58.91095],[17.38775,58.90683],[17.38712,58.90505],[17.38938,58.90164],[17.39083,58.89788],[17.39094,58.89582],[17.39238,58.89298],[17.38775,58.88989],[17.38905,58.88703],[17.38931,58.88268],[17.38319,58.8794],[17.37258,58.87451],[17.36274,58.87221],[17.35799,58.87066],[17.35818,58.84738],[17.35579,58.8408],[17.36403,58.83036],[17.38223,58.82864],[17.38185,58.82614],[17.38804,58.82237],[17.39318,58.82507],[17.39202,58.82811],[17.39799,58.8281],[17.39784,58.8278],[17.39971,58.82649],[17.40033,58.82664],[17.40092,58.82587],[17.40059,58.82551],[17.39887,58.82479],[17.40066,58.82356],[17.39934,58.82306],[17.39896,58.82151],[17.40128,58.82031],[17.40359,58.82039],[17.40608,58.82015],[17.41073,58.81911],[17.41616,58.81625],[17.41743,58.81532],[17.42011,58.81216],[17.4205,58.8102],[17.42426,58.81112],[17.42654,58.80964],[17.42702,58.80835],[17.42669,58.80816],[17.42726,58.80771],[17.42828,58.80753],[17.42876,58.80668],[17.42801,58.80621],[17.42816,58.8058],[17.42606,58.80553],[17.42998,58.7941],[17.42787,58.77499],[17.43524,58.77271],[17.46492,58.78014],[17.46844,58.78385],[17.48409,58.77511],[17.48372,58.7724],[17.52326,58.76024],[17.57093,58.74141],[17.57437,58.69186],[17.59677,58.68295],[17.59867,58.68158],[17.60045,58.68103],[17.60193,58.68089],[17.61518,58.67562],[17.87473,58.47101],[17.81207,58.45632],[17.52503,58.58237],[17.45765,58.61203],[17.33915,58.66454],[17.27067,58.68247],[17.22788,58.6947],[17.24338,58.71067],[17.24219,58.71228],[17.24483,58.71609],[17.24672,58.72447],[17.24784,58.72626],[17.24849,58.72631],[17.25132,58.72833],[17.24288,58.73352],[17.24109,58.7332],[17.23505,58.73495],[17.23511,58.73516],[17.2344,58.73578],[17.23485,58.73622],[17.23389,58.73723],[17.23303,58.73727],[17.23227,58.73773],[17.23062,58.73984],[17.22894,58.74035],[17.22866,58.74073],[17.22381,58.74147],[17.22295,58.7409],[17.22206,58.74083],[17.22084,58.74457],[17.21757,58.74561],[17.21637,58.74641],[17.21629,58.74779],[17.21441,58.74973],[17.21625,58.75085],[17.218,58.75124],[17.21394,58.7573],[17.21334,58.75776],[17.21177,58.76158],[17.20892,58.76387],[17.21403,58.76934],[17.21192,58.7703],[17.21433,58.77182],[17.21312,58.77436],[17.21421,58.77436],[17.21505,58.77484],[17.21708,58.77469],[17.21924,58.77501],[17.22037,58.77613],[17.21738,58.77764],[17.2164,58.77745],[17.21556,58.77792],[17.21526,58.77872],[17.21291,58.77983],[17.21259,58.78052],[17.21151,58.78093],[17.2094,58.78228],[17.20826,58.78275],[17.20769,58.78274],[17.20622,58.78356],[17.20696,58.78406],[17.20478,58.78507],[17.20403,58.78474],[17.19404,58.7898],[17.19431,58.79075],[17.18957,58.79493],[17.18064,58.80868],[17.17784,58.81209],[17.17477,58.82218],[17.17352,58.82214],[17.16698,58.82657],[17.16881,58.83174],[17.15156,58.83735],[17.14315,58.8522],[17.14335,58.8581],[17.14122,58.86025],[17.14114,58.8614],[17.14195,58.86218],[17.1414,58.86252],[17.14116,58.86306],[17.14128,58.86364],[17.1402,58.86377],[17.14002,58.86461],[17.13917,58.86521],[17.13725,58.86473],[17.13576,58.86477],[17.13429,58.86555],[17.13404,58.86541],[17.13086,58.86638],[17.13093,58.86834],[17.12873,58.86996],[17.12936,58.8714],[17.12853,58.87543],[17.13662,58.87749],[17.13946,58.87726],[17.14848,58.87923],[17.13794,58.89114],[17.1404,58.89754],[17.14038,58.89799],[17.13785,58.90056],[17.13817,58.90516],[17.1526,58.90506],[17.15513,58.90394],[17.15631,58.90449],[17.15746,58.90477],[17.16021,58.90467],[17.16181,58.90698],[17.17566,58.9155],[17.18783,58.92343],[17.19164,58.92537],[17.19671,58.92707],[17.19609,58.92443],[17.20013,58.91701],[17.20272,58.91775],[17.20434,58.91875],[17.20529,58.91895],[17.20658,58.92049],[17.19949,58.92408],[17.19947,58.92905],[17.21418,58.93035],[17.22636,58.93311],[17.22865,58.93802],[17.23086,58.94013],[17.2313,58.94545],[17.22286,58.95099],[17.24379,58.9522],[17.27155,58.95507]]]}},{"type":"Feature","id":"0480R019","properties":{"code":"0480R019","name":"Vrena-Råby"},"geometry":{"type":"Polygon","coordinates":[[[16.9811,59.03052],[17.02753,59.02084],[17.02649,59.01461],[17.03458,59.01078],[17.04158,59.00496],[17.04575,59.00538],[17.0459,59.00129],[17.05592,58.99337],[17.05928,58.98726],[17.0654,58.98362],[17.0687,58.97987],[17.0709,58.97892],[17.07187,58.97761],[17.06754,58.97573],[17.06545,58.97451],[17.04739,58.96212],[17.04326,58.96102],[17.0287,58.95838],[17.02194,58.9568],[17.00852,58.95539],[17.00343,58.95652],[16.99514,58.9543],[16.98623,58.95111],[16.97176,58.94627],[16.95299,58.94209],[16.94744,58.94126],[16.94667,58.94414],[16.94091,58.94387],[16.93627,58.9392],[16.93407,58.93415],[16.93517,58.92973],[16.91733,58.91283],[16.91969,58.91062],[16.91422,58.90776],[16.91394,58.90556],[16.91537,58.90322],[16.91393,58.90246],[16.9136,58.90124],[16.91439,58.89995],[16.91474,58.89721],[16.91329,58.89561],[16.91355,58.89399],[16.91218,58.8925],[16.91055,58.89198],[16.92567,58.88565],[16.9441,58.87624],[16.95014,58.87192],[16.95051,58.86918],[16.95683,58.85868],[16.97455,58.84539],[16.97654,58.84438],[16.98997,58.83543],[16.99481,58.83151],[16.99303,58.83098],[16.99239,58.82828],[16.99312,58.82733],[16.99632,58.82539],[16.99386,58.82442],[16.98066,58.82174],[16.98046,58.82149],[16.97782,58.82078],[16.94932,58.81583],[16.94624,58.81919],[16.94483,58.81991],[16.94251,58.82383],[16.93796,58.82396],[16.93594,58.82466],[16.93397,58.82495],[16.93295,58.82532],[16.93204,58.82673],[16.93201,58.82737],[16.9309,58.82868],[16.93029,58.8284],[16.9298,58.82881],[16.92988,58.82914],[16.92946,58.82954],[16.93069,58.82995],[16.93049,58.8303],[16.93073,58.83046],[16.93043,58.83075],[16.9296,58.83081],[16.92853,58.83157],[16.92984,58.83229],[16.92896,58.84083],[16.92985,58.84041],[16.93075,58.84085],[16.93178,58.84104],[16.93112,58.84197],[16.93084,58.84199],[16.93076,58.8426],[16.92998,58.84259],[16.92873,58.843],[16.92562,58.84603],[16.92769,58.84713],[16.92218,58.8467],[16.92193,58.84402],[16.92256,58.83999],[16.91816,58.8373],[16.91693,58.83671],[16.90898,58.83495],[16.90328,58.83324],[16.89714,58.83527],[16.8937,58.83888],[16.88707,58.84253],[16.87961,58.85067],[16.87438,58.8524],[16.87496,58.85441],[16.86353,58.86204],[16.86105,58.86179],[16.85712,58.85935],[16.85322,58.85626],[16.83812,58.86119],[16.82445,58.86248],[16.81444,58.86144],[16.80385,58.86458],[16.79684,58.86605],[16.78434,58.86735],[16.78093,58.86545],[16.7664,58.86376],[16.74689,58.85775],[16.74531,58.8548],[16.73622,58.85574],[16.73034,58.85382],[16.72525,58.85386],[16.72143,58.85512],[16.71689,58.85615],[16.71526,58.85786],[16.71253,58.85905],[16.70762,58.85794],[16.70029,58.85833],[16.69426,58.85955],[16.68814,58.85789],[16.68664,58.8551],[16.69456,58.84911],[16.68909,58.84054],[16.68706,58.8268],[16.67566,58.82445],[16.66774,58.82576],[16.66365,58.82211],[16.6627,58.82168],[16.66182,58.82089],[16.66082,58.82097],[16.65591,58.81705],[16.64903,58.80547],[16.63646,58.80985],[16.61781,58.82092],[16.62572,58.82533],[16.62054,58.83532],[16.6106,58.84454],[16.60566,58.84813],[16.55465,58.87315],[16.56817,58.88105],[16.57051,58.88481],[16.5857,58.89314],[16.59604,58.88952],[16.60323,58.88875],[16.60437,58.88797],[16.60648,58.88764],[16.6077,58.88822],[16.60879,58.88833],[16.61137,58.88769],[16.61943,58.88269],[16.62734,58.88003],[16.62827,58.87927],[16.62982,58.87961],[16.63165,58.87898],[16.63806,58.8823],[16.64351,58.88361],[16.64954,58.88386],[16.65428,58.8845],[16.65668,58.8851],[16.66043,58.88701],[16.66887,58.8894],[16.66705,58.89023],[16.66477,58.89189],[16.66219,58.89623],[16.65872,58.89934],[16.6578,58.90132],[16.65308,58.9038],[16.65433,58.90431],[16.65438,58.90475],[16.65575,58.90534],[16.6585,58.90608],[16.65916,58.9055],[16.65998,58.90531],[16.66415,58.90259],[16.66958,58.89814],[16.67189,58.8968],[16.67352,58.8963],[16.6739,58.89623],[16.67486,58.8967],[16.6767,58.89707],[16.6785,58.89698],[16.67956,58.89733],[16.68319,58.89689],[16.68453,58.89745],[16.68609,58.89658],[16.68955,58.89527],[16.69392,58.89446],[16.70485,58.89368],[16.71278,58.89343],[16.72548,58.89373],[16.72707,58.89603],[16.72666,58.89978],[16.72254,58.90213],[16.72441,58.90446],[16.72551,58.90485],[16.72843,58.9087],[16.73218,58.91049],[16.73563,58.91723],[16.73365,58.92244],[16.73616,58.92651],[16.73345,58.92988],[16.76731,58.93405],[16.7743,58.93741],[16.80343,58.94857],[16.8089,58.94798],[16.81545,58.94779],[16.82011,58.94854],[16.83644,58.94394],[16.84481,58.94314],[16.86267,58.94379],[16.87655,58.94579],[16.88842,58.94329],[16.88634,58.94461],[16.88685,58.94498],[16.88604,58.94514],[16.8846,58.94726],[16.8843,58.94846],[16.88263,58.94888],[16.8821,58.94987],[16.88276,58.94997],[16.88266,58.95081],[16.88224,58.9509],[16.88228,58.95106],[16.88384,58.95164],[16.88428,58.95207],[16.88139,58.95488],[16.88067,58.95743],[16.86956,58.96212],[16.87053,58.96511],[16.87823,58.96759],[16.87489,58.97369],[16.88261,58.98909],[16.88993,58.99331],[16.92494,59.00511],[16.94198,59.01602],[16.94327,59.01598],[16.94367,59.01614],[16.94397,59.01663],[16.94374,59.01688],[16.97825,59.03038],[16.97852,59.03023],[16.97791,59.02985],[16.9789,59.02965],[16.98166,59.02952],[16.98194,59.02992],[16.9811,59.03052]]]}},{"type":"Feature","id":"0480R020","properties":{"code":"0480R020","name":"Östra Villastaden-Isaksdal-Ekensberg"},"geometry":{"type":"Polygon","coordinates":[[[17.04219,58.76125],[17.03312,58.75875],[17.03034,58.75816],[17.02655,58.75775],[17.02044,58.75766],[17.01918,58.7555],[17.01181,58.75373],[17.01081,58.75523],[17.0075,58.75737],[17.00677,58.75761],[17.00481,58.75768],[17.00421,58.75807],[17.00425,58.75872],[17.00518,58.76009],[17.00712,58.76074],[17.00779,58.7615],[17.00773,58.76197],[17.00628,58.76339],[17.00812,58.76395],[17.00835,58.76398],[17.00862,58.76258],[17.00938,58.76165],[17.00989,58.76174],[17.01051,58.7612],[17.01174,58.76076],[17.01415,58.7604],[17.01619,58.76059],[17.01643,58.76041],[17.01689,58.76081],[17.01618,58.7608],[17.01573,58.76113],[17.01584,58.76167],[17.01687,58.76129],[17.02074,58.76153],[17.02541,58.76592],[17.02541,58.76703],[17.02638,58.76713],[17.02685,58.77209],[17.03261,58.77355],[17.04746,58.76721],[17.04302,58.7635],[17.04444,58.76171],[17.04219,58.76125]]]}}]}