{"type":"FeatureCollection","features":[{"type":"Feature","id":"0482R001","properties":{"code":"0482R001","name":"Flens landsbygd norra"},"geometry":{"type":"Polygon","coordinates":[[[16.82846,59.23711],[16.84017,59.23848],[16.84011,59.23535],[16.84334,59.22647],[16.85672,59.22416],[16.86451,59.22234],[16.86515,59.2223],[16.8652,59.22258],[16.86745,59.22218],[16.87754,59.2176],[16.87778,59.21782],[16.887,59.21392],[16.89181,59.21296],[16.91094,59.21167],[16.92921,59.21233],[16.93382,59.21304],[16.93549,59.21349],[16.92904,59.20648],[16.93715,59.2051],[16.92462,59.18643],[16.91942,59.18326],[16.90779,59.17745],[16.90546,59.1756],[16.90258,59.17154],[16.90105,59.17182],[16.90074,59.17149],[16.90115,59.17111],[16.90073,59.1696],[16.90102,59.16953],[16.89934,59.16776],[16.89951,59.16744],[16.89757,59.16552],[16.89601,59.16503],[16.88235,59.15092],[16.90677,59.13853],[16.90791,59.13844],[16.90751,59.13786],[16.90821,59.13733],[16.91016,59.13612],[16.91267,59.13529],[16.91152,59.13519],[16.91105,59.13484],[16.9084,59.13437],[16.89736,59.12546],[16.89662,59.12547],[16.8968,59.125],[16.88062,59.11183],[16.87403,59.11348],[16.86883,59.11603],[16.863,59.11811],[16.85676,59.12198],[16.84577,59.1251],[16.84154,59.1267],[16.83617,59.12744],[16.82546,59.13231],[16.81651,59.14012],[16.81168,59.13831],[16.80125,59.13138],[16.79042,59.13455],[16.77196,59.13753],[16.77071,59.12606],[16.76809,59.12114],[16.77553,59.11169],[16.77546,59.10918],[16.77753,59.10727],[16.77909,59.10737],[16.78093,59.10469],[16.78005,59.10375],[16.78322,59.10322],[16.78327,59.09239],[16.77954,59.09067],[16.76961,59.0925],[16.76859,59.09145],[16.76457,59.08969],[16.76706,59.08361],[16.76654,59.08292],[16.76701,59.08202],[16.76683,59.08044],[16.75429,59.08128],[16.74106,59.08159],[16.72594,59.07467],[16.71078,59.07711],[16.70335,59.07982],[16.70136,59.08202],[16.70152,59.08296],[16.69787,59.08663],[16.69135,59.08088],[16.69725,59.07361],[16.69509,59.07215],[16.68524,59.07317],[16.68606,59.07194],[16.68521,59.07043],[16.67758,59.07129],[16.67153,59.07235],[16.66149,59.07281],[16.64093,59.07144],[16.63798,59.06202],[16.62996,59.06363],[16.62522,59.06363],[16.62344,59.06477],[16.62306,59.06621],[16.62202,59.06753],[16.61958,59.0693],[16.61745,59.07043],[16.61442,59.07131],[16.6077,59.07203],[16.6053,59.07266],[16.60299,59.07399],[16.59923,59.07504],[16.59637,59.07697],[16.5944,59.07789],[16.59125,59.07891],[16.58735,59.07941],[16.58582,59.08243],[16.58367,59.08432],[16.58319,59.08545],[16.58203,59.08668],[16.58026,59.08785],[16.57859,59.08859],[16.57567,59.08958],[16.57278,59.09012],[16.57508,59.09069],[16.57737,59.09093],[16.57988,59.09153],[16.58206,59.09245],[16.58364,59.09355],[16.5853,59.09539],[16.58582,59.09681],[16.58543,59.0988],[16.58454,59.10015],[16.58343,59.10109],[16.58162,59.10206],[16.58009,59.10384],[16.57734,59.10556],[16.57258,59.10747],[16.56916,59.10816],[16.56703,59.10917],[16.56408,59.10993],[16.56171,59.11178],[16.56004,59.11251],[16.55752,59.11319],[16.55541,59.11348],[16.55313,59.11357],[16.54886,59.1131],[16.54526,59.11184],[16.54311,59.11031],[16.5399,59.10988],[16.53696,59.10893],[16.53511,59.10784],[16.53386,59.10657],[16.53304,59.10471],[16.53298,59.10252],[16.53386,59.10084],[16.53487,59.09994],[16.53646,59.09901],[16.53701,59.09792],[16.53824,59.09671],[16.53954,59.09593],[16.54288,59.09467],[16.54543,59.09333],[16.54916,59.09228],[16.5525,59.09188],[16.55581,59.09203],[16.55873,59.09266],[16.56076,59.09142],[16.55738,59.0911],[16.55487,59.09045],[16.55233,59.08922],[16.55089,59.08795],[16.54724,59.08861],[16.54355,59.08862],[16.54081,59.08822],[16.5356,59.08699],[16.53039,59.08472],[16.52866,59.08356],[16.52734,59.08179],[16.52719,59.07986],[16.52591,59.07976],[16.52181,59.08121],[16.51839,59.0815],[16.51795,59.08192],[16.51598,59.08263],[16.51514,59.08253],[16.5141,59.08277],[16.51373,59.08304],[16.51156,59.08352],[16.51094,59.08393],[16.51012,59.08388],[16.50818,59.08459],[16.50254,59.08602],[16.49106,59.08966],[16.4867,59.08976],[16.48119,59.09018],[16.47338,59.09371],[16.47291,59.09853],[16.46332,59.10067],[16.46358,59.1056],[16.46067,59.11253],[16.46121,59.11345],[16.45804,59.11466],[16.46037,59.11674],[16.46018,59.12025],[16.45864,59.12249],[16.45841,59.12395],[16.45903,59.12844],[16.45835,59.13019],[16.45827,59.13145],[16.45972,59.13273],[16.46156,59.13677],[16.4635,59.14751],[16.46373,59.15281],[16.46091,59.16876],[16.46264,59.17159],[16.46413,59.18794],[16.45842,59.19746],[16.47977,59.19877],[16.47656,59.19679],[16.47825,59.19511],[16.48034,59.19498],[16.48387,59.19544],[16.48501,59.19721],[16.4885,59.19951],[16.49024,59.20003],[16.49761,59.20075],[16.50079,59.20024],[16.50498,59.19913],[16.50597,59.19963],[16.50558,59.19976],[16.54289,59.2009],[16.54851,59.20121],[16.58351,59.20197],[16.59523,59.20202],[16.59816,59.20299],[16.59767,59.20372],[16.60185,59.20462],[16.60526,59.20578],[16.60636,59.20749],[16.60688,59.20752],[16.60802,59.20666],[16.60959,59.20636],[16.61469,59.20989],[16.61561,59.2103],[16.6183,59.21015],[16.61993,59.2109],[16.62183,59.21105],[16.62632,59.21052],[16.62821,59.20982],[16.64383,59.21287],[16.64502,59.2129],[16.64552,59.21321],[16.66221,59.21662],[16.67858,59.21799],[16.70332,59.21842],[16.70724,59.21825],[16.75544,59.22083],[16.74602,59.23014],[16.774,59.23008],[16.79356,59.23173],[16.79854,59.23163],[16.79856,59.23152],[16.80513,59.23238],[16.80485,59.23308],[16.81545,59.23426],[16.81574,59.23456],[16.81565,59.23484],[16.8141,59.23534],[16.81391,59.23585],[16.81266,59.236],[16.81106,59.23878],[16.82178,59.23879],[16.82846,59.23711]],[[16.72868,59.14713],[16.72541,59.14683],[16.7228,59.14613],[16.71892,59.14635],[16.71483,59.14602],[16.70917,59.14444],[16.70678,59.14348],[16.70444,59.14171],[16.70352,59.13987],[16.70351,59.13763],[16.70484,59.13417],[16.70678,59.13227],[16.71317,59.12867],[16.71727,59.12723],[16.72101,59.12663],[16.72335,59.12505],[16.72578,59.1241],[16.72967,59.12332],[16.7331,59.12324],[16.73576,59.12251],[16.73777,59.1222],[16.74058,59.12209],[16.7433,59.12235],[16.74527,59.12278],[16.74751,59.12361],[16.74946,59.12485],[16.75203,59.12602],[16.75354,59.12724],[16.75455,59.1293],[16.75446,59.13075],[16.75399,59.13179],[16.7564,59.13332],[16.75758,59.13502],[16.75775,59.13702],[16.75713,59.13872],[16.75599,59.14012],[16.75429,59.14136],[16.7512,59.1428],[16.7468,59.14406],[16.74002,59.14494],[16.73303,59.14672],[16.73067,59.14706],[16.72868,59.14713]],[[16.5042,59.16935],[16.50071,59.169],[16.49833,59.16918],[16.49625,59.16912],[16.49244,59.16842],[16.48985,59.16732],[16.48834,59.16617],[16.48742,59.16484],[16.48707,59.16305],[16.48393,59.16314],[16.48055,59.1627],[16.47761,59.16174],[16.47459,59.16011],[16.47317,59.15875],[16.47253,59.15772],[16.4723,59.15633],[16.47259,59.15527],[16.47016,59.15395],[16.46852,59.15197],[16.46802,59.14978],[16.46824,59.14853],[16.4671,59.14718],[16.46649,59.14557],[16.46661,59.14413],[16.46744,59.14269],[16.4693,59.14123],[16.47193,59.14016],[16.47511,59.13955],[16.47785,59.13946],[16.48164,59.13979],[16.48452,59.14047],[16.48856,59.14224],[16.49028,59.1433],[16.4922,59.14374],[16.49571,59.14359],[16.49784,59.14204],[16.49927,59.14128],[16.50104,59.14065],[16.5031,59.14019],[16.50446,59.13905],[16.50597,59.13824],[16.50975,59.13713],[16.51682,59.13656],[16.52008,59.13681],[16.52572,59.13674],[16.52934,59.13702],[16.53132,59.13738],[16.5342,59.13838],[16.53663,59.1401],[16.5376,59.14184],[16.53746,59.14363],[16.5363,59.14574],[16.53427,59.14722],[16.5283,59.14947],[16.52486,59.1503],[16.52228,59.15061],[16.52094,59.15146],[16.52026,59.1523],[16.52111,59.15346],[16.52201,59.15601],[16.52161,59.15788],[16.52287,59.16229],[16.522,59.16448],[16.52098,59.16547],[16.51912,59.16658],[16.51384,59.16835],[16.51119,59.16886],[16.5042,59.16935]]]}},{"type":"Feature","id":"0482R002","properties":{"code":"0482R002","name":"Flens landsbygd södra"},"geometry":{"type":"Polygon","coordinates":[[[16.52435,59.08032],[16.52591,59.07976],[16.52719,59.07986],[16.52779,59.07857],[16.52873,59.07756],[16.5301,59.0766],[16.53172,59.07584],[16.53562,59.07485],[16.54004,59.07466],[16.54172,59.07374],[16.54588,59.07208],[16.54833,59.07136],[16.55171,59.07096],[16.55452,59.07104],[16.55778,59.07164],[16.56029,59.07261],[16.56325,59.07184],[16.56161,59.07022],[16.56101,59.06854],[16.56128,59.06718],[16.56233,59.0658],[16.56328,59.06377],[16.56159,59.06234],[16.55922,59.06189],[16.55627,59.06088],[16.55338,59.0592],[16.55192,59.0571],[16.5518,59.05598],[16.55226,59.05453],[16.55315,59.0534],[16.5546,59.05227],[16.55794,59.05022],[16.56019,59.04935],[16.56274,59.04881],[16.56487,59.04863],[16.56799,59.04865],[16.57238,59.049],[16.57471,59.0482],[16.57801,59.04755],[16.57704,59.0458],[16.57494,59.04427],[16.57383,59.04292],[16.57341,59.04147],[16.5737,59.04002],[16.57476,59.03856],[16.57639,59.03736],[16.57802,59.0366],[16.58027,59.03589],[16.58246,59.03476],[16.58485,59.03406],[16.58918,59.03354],[16.59401,59.03371],[16.59761,59.03416],[16.60079,59.03512],[16.60273,59.03619],[16.60655,59.03904],[16.60741,59.04043],[16.60825,59.04339],[16.61049,59.04394],[16.61221,59.04461],[16.6139,59.04567],[16.61623,59.04776],[16.62233,59.04999],[16.62462,59.05127],[16.62752,59.05434],[16.62904,59.05834],[16.62842,59.06055],[16.62522,59.06363],[16.62996,59.06363],[16.63798,59.06202],[16.64093,59.07144],[16.66149,59.07281],[16.67153,59.07235],[16.67758,59.07129],[16.67742,59.06763],[16.67498,59.06485],[16.66666,59.06613],[16.66807,59.06435],[16.66676,59.06165],[16.66958,59.06103],[16.67073,59.06171],[16.6721,59.06138],[16.67304,59.06068],[16.68141,59.06026],[16.68125,59.05977],[16.68232,59.05913],[16.67827,59.05737],[16.67783,59.05666],[16.67862,59.05472],[16.68041,59.05436],[16.68328,59.05206],[16.68543,59.05177],[16.68535,59.051],[16.68636,59.0509],[16.68771,59.04957],[16.69118,59.05213],[16.69316,59.0523],[16.69441,59.05171],[16.69678,59.05114],[16.70411,59.05198],[16.70676,59.04826],[16.7085,59.04825],[16.70935,59.04886],[16.71331,59.04896],[16.72707,59.04436],[16.73566,59.0369],[16.73909,59.03533],[16.74646,59.03346],[16.74988,59.03405],[16.75881,59.02803],[16.75699,59.02499],[16.75718,59.02333],[16.75433,59.02162],[16.75551,59.01909],[16.75719,59.01719],[16.76162,59.01722],[16.76246,59.01503],[16.75979,59.01147],[16.75671,59.01054],[16.75494,59.00916],[16.75348,59.00621],[16.75009,59.00223],[16.74877,59.00205],[16.74541,58.99942],[16.74795,58.99842],[16.74687,58.99803],[16.75235,58.99102],[16.75167,58.9901],[16.75399,58.98774],[16.75489,58.9877],[16.7577,58.9837],[16.75655,58.98291],[16.75447,58.98336],[16.75232,58.98121],[16.74662,58.98252],[16.74504,58.98133],[16.7443,58.97846],[16.74498,58.97282],[16.74333,58.97135],[16.7392,58.97101],[16.73375,58.97268],[16.72848,58.96957],[16.72529,58.96876],[16.71926,58.96881],[16.71548,58.96822],[16.71675,58.96657],[16.71405,58.96604],[16.71274,58.96398],[16.70033,58.96569],[16.69925,58.95464],[16.69528,58.94995],[16.69536,58.94592],[16.69802,58.94165],[16.70512,58.93924],[16.70909,58.93047],[16.72549,58.93133],[16.73345,58.92988],[16.73616,58.92651],[16.73365,58.92244],[16.73563,58.91723],[16.73218,58.91049],[16.72843,58.9087],[16.72551,58.90485],[16.72441,58.90446],[16.72254,58.90213],[16.72666,58.89978],[16.72707,58.89603],[16.72548,58.89373],[16.71278,58.89343],[16.70485,58.89368],[16.69392,58.89446],[16.68955,58.89527],[16.68609,58.89658],[16.68453,58.89745],[16.68319,58.89689],[16.67956,58.89733],[16.6785,58.89698],[16.6767,58.89707],[16.67486,58.8967],[16.6739,58.89623],[16.67352,58.8963],[16.67189,58.8968],[16.66958,58.89814],[16.66415,58.90259],[16.65998,58.90531],[16.65916,58.9055],[16.6585,58.90608],[16.65575,58.90534],[16.65438,58.90475],[16.65433,58.90431],[16.65308,58.9038],[16.6578,58.90132],[16.65872,58.89934],[16.66219,58.89623],[16.66477,58.89189],[16.66705,58.89023],[16.66887,58.8894],[16.66043,58.88701],[16.65668,58.8851],[16.65428,58.8845],[16.65058,58.88395],[16.64351,58.88361],[16.64203,58.88334],[16.63806,58.8823],[16.63165,58.87898],[16.62982,58.87961],[16.62827,58.87927],[16.62734,58.88003],[16.61943,58.88269],[16.61137,58.88769],[16.60879,58.88833],[16.6077,58.88822],[16.60648,58.88764],[16.60437,58.88797],[16.60323,58.88875],[16.59604,58.88952],[16.5857,58.89314],[16.57051,58.88481],[16.56817,58.88105],[16.55465,58.87315],[16.53979,58.87507],[16.52681,58.88479],[16.51417,58.89005],[16.49902,58.89527],[16.49091,58.8984],[16.47128,58.89614],[16.46572,58.89844],[16.46311,58.90043],[16.46058,58.90115],[16.45948,58.90191],[16.45852,58.90224],[16.45811,58.90308],[16.45772,58.90324],[16.45807,58.90366],[16.45673,58.904],[16.45647,58.90427],[16.45554,58.90394],[16.45559,58.9034],[16.45299,58.90409],[16.45215,58.90451],[16.45265,58.90533],[16.45223,58.90575],[16.44825,58.90634],[16.44243,58.90871],[16.44003,58.90912],[16.43633,58.91007],[16.43464,58.91098],[16.43298,58.9106],[16.43223,58.91072],[16.42988,58.91195],[16.42952,58.91273],[16.42904,58.91307],[16.42755,58.91344],[16.42509,58.91362],[16.42506,58.91387],[16.42607,58.91459],[16.42497,58.91496],[16.42407,58.91562],[16.42156,58.91652],[16.41997,58.91676],[16.41751,58.91792],[16.41755,58.9184],[16.41839,58.91889],[16.41865,58.91877],[16.42887,58.92342],[16.43801,58.92686],[16.454,58.92096],[16.45494,58.92166],[16.45934,58.92217],[16.46314,58.91962],[16.46475,58.92052],[16.46601,58.92085],[16.46434,58.92236],[16.46506,58.92267],[16.46737,58.92102],[16.46905,58.92023],[16.46932,58.92049],[16.47041,58.92044],[16.47194,58.91855],[16.48402,58.91788],[16.48507,58.91714],[16.49008,58.91879],[16.49191,58.91977],[16.49614,58.92432],[16.4958,58.92664],[16.49643,58.92855],[16.49821,58.92919],[16.49884,58.93003],[16.49764,58.93099],[16.49899,58.93099],[16.50228,58.93311],[16.5063,58.93507],[16.50612,58.9352],[16.50676,58.93551],[16.50859,58.93542],[16.51082,58.9349],[16.51246,58.93319],[16.51269,58.9322],[16.51484,58.93253],[16.51903,58.93181],[16.52056,58.93233],[16.5194,58.93287],[16.5203,58.93346],[16.5207,58.93344],[16.52064,58.93359],[16.51948,58.93378],[16.51906,58.93428],[16.5184,58.93432],[16.51878,58.93545],[16.52054,58.93574],[16.52216,58.93627],[16.53034,58.93974],[16.53122,58.94074],[16.53084,58.94199],[16.52847,58.94308],[16.52859,58.94421],[16.52761,58.94671],[16.50252,58.95492],[16.49318,58.96071],[16.49064,58.96347],[16.49472,58.96772],[16.49863,58.96994],[16.50121,58.97494],[16.50359,58.9752],[16.50199,58.97682],[16.51186,58.97679],[16.51535,58.9755],[16.52155,58.97673],[16.52102,58.98098],[16.52595,58.98187],[16.53016,58.98138],[16.5311,58.98194],[16.52947,58.9837],[16.52723,58.98508],[16.52153,58.98634],[16.51451,58.98894],[16.50417,58.99751],[16.51893,59.00534],[16.5256,59.00348],[16.53641,58.99861],[16.54434,58.99539],[16.55076,58.99751],[16.55551,58.99683],[16.5566,58.99837],[16.5581,58.99896],[16.55925,58.99845],[16.5609,58.99836],[16.56758,59.00107],[16.57034,59.00407],[16.56086,59.0081],[16.55493,59.01143],[16.55517,59.0124],[16.55583,59.01325],[16.55526,59.01347],[16.55595,59.01449],[16.55831,59.01593],[16.55828,59.01936],[16.55041,59.01927],[16.54926,59.02022],[16.5493,59.02061],[16.55002,59.02072],[16.55144,59.02141],[16.55263,59.02267],[16.5622,59.02535],[16.56672,59.02948],[16.55814,59.03076],[16.55527,59.03006],[16.54769,59.03068],[16.54113,59.0307],[16.53802,59.03291],[16.53654,59.03469],[16.53249,59.03624],[16.5285,59.03689],[16.52784,59.03969],[16.52825,59.0413],[16.52989,59.04254],[16.53606,59.04333],[16.53701,59.04369],[16.53743,59.04593],[16.53242,59.04777],[16.52649,59.04748],[16.51557,59.04841],[16.51242,59.04963],[16.51359,59.05084],[16.51587,59.05237],[16.5172,59.05273],[16.51798,59.05378],[16.5185,59.05519],[16.51656,59.05557],[16.51543,59.05636],[16.51332,59.05611],[16.51291,59.05627],[16.5107,59.05836],[16.51099,59.05895],[16.51052,59.06028],[16.51059,59.061],[16.5113,59.06162],[16.51361,59.06518],[16.52039,59.06966],[16.52215,59.07264],[16.52278,59.07492],[16.52247,59.07756],[16.52435,59.08032]]]}},{"type":"Feature","id":"0482R003","properties":{"code":"0482R003","name":"Flens landsbygd östra"},"geometry":{"type":"Polygon","coordinates":[[[16.82546,59.13231],[16.83617,59.12744],[16.84154,59.1267],[16.84577,59.1251],[16.85676,59.12198],[16.863,59.11811],[16.86883,59.11603],[16.87403,59.11348],[16.88062,59.11183],[16.89343,59.10671],[16.90435,59.10155],[16.90959,59.09508],[16.92117,59.08979],[16.92579,59.08659],[16.93371,59.08567],[16.93661,59.08471],[16.93857,59.08432],[16.94478,59.08216],[16.94999,59.07794],[16.95448,59.07625],[16.95546,59.07615],[16.95736,59.07411],[16.95735,59.07293],[16.9716,59.06573],[16.97384,59.06722],[16.98041,59.0674],[16.98031,59.06423],[16.98134,59.06246],[16.98408,59.06149],[16.98436,59.05947],[16.98577,59.05731],[16.9902,59.05558],[16.99228,59.05249],[16.99459,59.0529],[16.99712,59.0517],[16.99506,59.05041],[16.99515,59.04967],[16.99562,59.0492],[16.99532,59.04908],[16.99623,59.04797],[16.99796,59.04746],[17.00136,59.0486],[17.0022,59.04936],[17.00423,59.04875],[17.00227,59.04806],[17.00067,59.04779],[17.00169,59.04691],[17.00004,59.04599],[17.00173,59.04488],[16.99732,59.04317],[16.99751,59.0416],[16.99846,59.04107],[16.99583,59.03889],[16.99602,59.0386],[16.99476,59.03794],[17.0024,59.0341],[17.00429,59.03573],[17.00292,59.03684],[17.00417,59.03968],[17.00741,59.04043],[17.0097,59.03869],[17.01043,59.03879],[17.01131,59.03679],[17.02902,59.04098],[17.02947,59.04069],[17.02962,59.03751],[17.02442,59.03676],[17.01644,59.03338],[17.01554,59.03375],[17.00954,59.03043],[17.01239,59.02914],[17.0185,59.03248],[17.02149,59.03124],[17.01549,59.02793],[17.04061,59.01811],[16.9811,59.03052],[16.98199,59.0298],[16.98128,59.02946],[16.97798,59.0298],[16.97792,59.02998],[16.97852,59.03023],[16.97825,59.03038],[16.94374,59.01688],[16.94397,59.01663],[16.94367,59.01614],[16.94327,59.01598],[16.94198,59.01602],[16.92494,59.00511],[16.88993,58.99331],[16.88261,58.98909],[16.87489,58.97369],[16.87823,58.96759],[16.87053,58.96511],[16.86956,58.96212],[16.88067,58.95743],[16.88139,58.95488],[16.88428,58.95207],[16.88384,58.95164],[16.88228,58.95106],[16.88224,58.9509],[16.88266,58.95081],[16.88276,58.94997],[16.8821,58.94987],[16.88263,58.94888],[16.8843,58.94846],[16.8846,58.94726],[16.88604,58.94514],[16.88685,58.94498],[16.88634,58.94461],[16.88842,58.94329],[16.87655,58.94579],[16.86267,58.94379],[16.84481,58.94314],[16.83644,58.94394],[16.82011,58.94854],[16.81545,58.94779],[16.8089,58.94798],[16.80343,58.94857],[16.7743,58.93741],[16.76731,58.93405],[16.73345,58.92988],[16.72549,58.93133],[16.70909,58.93047],[16.70512,58.93924],[16.69802,58.94165],[16.69536,58.94592],[16.69528,58.94995],[16.69925,58.95464],[16.70033,58.96569],[16.71274,58.96398],[16.71405,58.96604],[16.71675,58.96657],[16.71548,58.96822],[16.71926,58.96881],[16.72529,58.96876],[16.72848,58.96957],[16.73375,58.97268],[16.7392,58.97101],[16.74333,58.97135],[16.74498,58.97282],[16.7443,58.97846],[16.74504,58.98133],[16.74662,58.98252],[16.75232,58.98121],[16.75447,58.98336],[16.75655,58.98291],[16.7577,58.9837],[16.75489,58.9877],[16.75399,58.98774],[16.75167,58.9901],[16.75235,58.99102],[16.74687,58.99803],[16.74795,58.99842],[16.74541,58.99942],[16.74877,59.00205],[16.75009,59.00223],[16.75348,59.00621],[16.75494,59.00916],[16.75671,59.01054],[16.75979,59.01147],[16.76246,59.01503],[16.76162,59.01722],[16.75719,59.01719],[16.75551,59.01909],[16.75433,59.02162],[16.75718,59.02333],[16.75699,59.02499],[16.75881,59.02803],[16.74988,59.03405],[16.74646,59.03346],[16.73909,59.03533],[16.73566,59.0369],[16.72707,59.04436],[16.71331,59.04896],[16.70935,59.04886],[16.7085,59.04825],[16.70676,59.04826],[16.70411,59.05198],[16.69678,59.05114],[16.69441,59.05171],[16.69316,59.0523],[16.69118,59.05213],[16.68771,59.04957],[16.68636,59.0509],[16.68535,59.051],[16.68543,59.05177],[16.68328,59.05206],[16.68041,59.05436],[16.67862,59.05472],[16.67783,59.05666],[16.67827,59.05737],[16.68232,59.05913],[16.68125,59.05977],[16.68141,59.06026],[16.67304,59.06068],[16.6721,59.06138],[16.67073,59.06171],[16.66958,59.06103],[16.66676,59.06165],[16.66807,59.06435],[16.66666,59.06613],[16.67498,59.06485],[16.67742,59.06763],[16.67758,59.07129],[16.68521,59.07043],[16.68606,59.07194],[16.68524,59.07317],[16.69509,59.07215],[16.69725,59.07361],[16.69135,59.08088],[16.69787,59.08663],[16.70152,59.08296],[16.70136,59.08202],[16.70335,59.07982],[16.71078,59.07711],[16.72594,59.07467],[16.74106,59.08159],[16.75429,59.08128],[16.76683,59.08044],[16.76701,59.08202],[16.76654,59.08292],[16.76706,59.08361],[16.76457,59.08969],[16.76859,59.09145],[16.76961,59.0925],[16.77954,59.09067],[16.78327,59.09239],[16.78322,59.10322],[16.78005,59.10375],[16.78093,59.10469],[16.77909,59.10737],[16.77753,59.10727],[16.77546,59.10918],[16.77553,59.11169],[16.76809,59.12114],[16.77071,59.12606],[16.77196,59.13753],[16.79042,59.13455],[16.80125,59.13138],[16.81168,59.13831],[16.81651,59.14012],[16.82546,59.13231]]]}},{"type":"Feature","id":"0482R004","properties":{"code":"0482R004","name":"Flensby-Bjurtorp-Öja"},"geometry":{"type":"Polygon","coordinates":[[[16.62522,59.06363],[16.62818,59.06088],[16.62905,59.05869],[16.62776,59.05477],[16.62577,59.05227],[16.62462,59.05127],[16.62283,59.05021],[16.61623,59.04776],[16.6139,59.04567],[16.61221,59.04461],[16.61049,59.04394],[16.60825,59.04339],[16.60727,59.0401],[16.60582,59.03835],[16.60129,59.03535],[16.59761,59.03416],[16.59401,59.03371],[16.58918,59.03354],[16.58552,59.03393],[16.58246,59.03476],[16.58027,59.03589],[16.57802,59.0366],[16.57596,59.03762],[16.57438,59.03895],[16.57356,59.04036],[16.57341,59.04147],[16.57383,59.04292],[16.57494,59.04427],[16.57704,59.0458],[16.57801,59.04755],[16.57471,59.0482],[16.57238,59.049],[16.56727,59.04862],[16.56274,59.04881],[16.56019,59.04935],[16.55768,59.05035],[16.56101,59.05204],[16.56286,59.051],[16.5877,59.05011],[16.59298,59.04883],[16.59693,59.05518],[16.59696,59.05626],[16.59608,59.05877],[16.60546,59.06047],[16.6138,59.06299],[16.62082,59.06363],[16.62522,59.06363]]]}},{"type":"Feature","id":"0482R005","properties":{"code":"0482R005","name":"Hälleforsnäs"},"geometry":{"type":"Polygon","coordinates":[[[16.50554,59.16932],[16.51119,59.16886],[16.51442,59.16818],[16.51912,59.16658],[16.52098,59.16547],[16.522,59.16448],[16.52287,59.16229],[16.52161,59.15788],[16.52201,59.15601],[16.52111,59.15346],[16.52026,59.1523],[16.52094,59.15146],[16.52228,59.15061],[16.52486,59.1503],[16.5283,59.14947],[16.53427,59.14722],[16.53657,59.14542],[16.53757,59.14329],[16.53749,59.14148],[16.53632,59.1398],[16.53369,59.13816],[16.53066,59.13723],[16.52572,59.13674],[16.52008,59.13681],[16.51682,59.13656],[16.50975,59.13713],[16.50597,59.13824],[16.50446,59.13905],[16.5031,59.14019],[16.50104,59.14065],[16.49927,59.14128],[16.49784,59.14204],[16.49571,59.14359],[16.4922,59.14374],[16.49028,59.1433],[16.48856,59.14224],[16.48452,59.14047],[16.48164,59.13979],[16.4778,59.13946],[16.47446,59.13963],[16.47136,59.14034],[16.46887,59.14149],[16.46719,59.14301],[16.46661,59.14413],[16.46649,59.14557],[16.4671,59.14718],[16.46824,59.14853],[16.46802,59.14978],[16.46852,59.15197],[16.47016,59.15395],[16.47259,59.15527],[16.4723,59.15633],[16.47253,59.15772],[16.47347,59.15909],[16.47501,59.16041],[16.47812,59.16196],[16.48055,59.1627],[16.48393,59.16314],[16.48707,59.16305],[16.48742,59.16484],[16.48834,59.16617],[16.49031,59.16757],[16.49247,59.16842],[16.49628,59.16912],[16.49833,59.16918],[16.50071,59.169],[16.50284,59.16929],[16.50554,59.16932]]]}},{"type":"Feature","id":"0482R006","properties":{"code":"0482R006","name":"Malmköping"},"geometry":{"type":"Polygon","coordinates":[[[16.73001,59.1471],[16.73365,59.14659],[16.74002,59.14494],[16.74227,59.14455],[16.74618,59.14419],[16.7512,59.1428],[16.7534,59.1419],[16.75523,59.14071],[16.75632,59.13979],[16.75733,59.13839],[16.75775,59.13697],[16.75757,59.135],[16.7564,59.13332],[16.75399,59.13179],[16.75446,59.13075],[16.75455,59.1293],[16.75352,59.12721],[16.75203,59.12602],[16.74946,59.12485],[16.74751,59.12361],[16.74523,59.12277],[16.74265,59.12225],[16.74053,59.12209],[16.73777,59.1222],[16.73576,59.12251],[16.7331,59.12324],[16.72902,59.1234],[16.72521,59.12428],[16.72288,59.1253],[16.72101,59.12663],[16.71727,59.12723],[16.71317,59.12867],[16.70675,59.1323],[16.70532,59.13351],[16.70465,59.13453],[16.70436,59.13597],[16.70351,59.13763],[16.7036,59.14021],[16.70472,59.14202],[16.70691,59.14355],[16.70917,59.14444],[16.71357,59.14575],[16.71547,59.14613],[16.71892,59.14635],[16.7228,59.14613],[16.72604,59.14693],[16.73001,59.1471]]]}},{"type":"Feature","id":"0482R007","properties":{"code":"0482R007","name":"Mellösa-Orrhammar"},"geometry":{"type":"Polygon","coordinates":[[[16.55455,59.11354],[16.55752,59.11319],[16.56004,59.11251],[16.56227,59.11145],[16.56408,59.10993],[16.56703,59.10917],[16.56916,59.10816],[16.57258,59.10747],[16.5773,59.10558],[16.58009,59.10384],[16.58162,59.10206],[16.58343,59.10109],[16.58452,59.10017],[16.58543,59.0988],[16.58582,59.09681],[16.5853,59.09539],[16.58364,59.09355],[16.58206,59.09245],[16.57988,59.09153],[16.57737,59.09093],[16.57508,59.09069],[16.57278,59.09012],[16.57567,59.08958],[16.57859,59.08859],[16.58026,59.08785],[16.58203,59.08668],[16.58319,59.08545],[16.58367,59.08432],[16.58582,59.08243],[16.58735,59.07941],[16.58269,59.07671],[16.5736,59.07326],[16.56325,59.07184],[16.56029,59.07261],[16.5584,59.07183],[16.55653,59.07134],[16.55243,59.07094],[16.54964,59.07114],[16.54704,59.07169],[16.54172,59.07374],[16.54004,59.07466],[16.53562,59.07485],[16.53172,59.07584],[16.52967,59.07686],[16.52811,59.07816],[16.52727,59.07956],[16.5271,59.08077],[16.52774,59.08254],[16.52951,59.08421],[16.53103,59.08503],[16.53617,59.08717],[16.54143,59.08835],[16.54421,59.08866],[16.5479,59.08854],[16.55089,59.08795],[16.55233,59.08922],[16.55487,59.09045],[16.55738,59.0911],[16.56076,59.09142],[16.55873,59.09266],[16.55581,59.09203],[16.5525,59.09188],[16.54916,59.09228],[16.54543,59.09333],[16.54288,59.09467],[16.53954,59.09593],[16.53824,59.09671],[16.53701,59.09792],[16.53646,59.09901],[16.53487,59.09994],[16.53386,59.10084],[16.53307,59.10218],[16.53303,59.10469],[16.53364,59.10622],[16.53475,59.10755],[16.53644,59.10867],[16.53929,59.10974],[16.54311,59.11031],[16.54526,59.11184],[16.54826,59.11295],[16.5516,59.1135],[16.55455,59.11354]]]}},{"type":"Feature","id":"0482R008","properties":{"code":"0482R008","name":"Nybble-Centrum nordväst"},"geometry":{"type":"Polygon","coordinates":[[[16.5736,59.07326],[16.57303,59.06746],[16.57357,59.06542],[16.5847,59.06381],[16.58423,59.06273],[16.58627,59.0599],[16.58834,59.06021],[16.5889,59.0593],[16.59087,59.05952],[16.59186,59.05787],[16.57056,59.0542],[16.56101,59.05204],[16.55768,59.05035],[16.5542,59.05255],[16.55286,59.05371],[16.55196,59.0552],[16.55184,59.05676],[16.55269,59.0585],[16.55466,59.06011],[16.55846,59.06167],[16.56159,59.06234],[16.56328,59.06377],[16.56106,59.06786],[16.56112,59.06923],[16.56185,59.07054],[16.56325,59.07184],[16.5736,59.07326]]]}},{"type":"Feature","id":"0482R009","properties":{"code":"0482R009","name":"Orrö-Brogetorp-Centrum nordost"},"geometry":{"type":"Polygon","coordinates":[[[16.58735,59.07941],[16.59125,59.07891],[16.5944,59.07789],[16.59637,59.07697],[16.59923,59.07504],[16.60299,59.07399],[16.6053,59.07266],[16.6077,59.07203],[16.61442,59.07131],[16.61745,59.07043],[16.61958,59.0693],[16.62202,59.06753],[16.62306,59.06621],[16.62344,59.06477],[16.62522,59.06363],[16.62082,59.06363],[16.6138,59.06299],[16.60546,59.06047],[16.59186,59.05787],[16.59087,59.05952],[16.5889,59.0593],[16.58834,59.06021],[16.58627,59.0599],[16.58423,59.06273],[16.5847,59.06381],[16.57357,59.06542],[16.57303,59.06746],[16.5736,59.07326],[16.58269,59.07671],[16.58735,59.07941]]]}},{"type":"Feature","id":"0482R010","properties":{"code":"0482R010","name":"Salsta-Centrum södra"},"geometry":{"type":"Polygon","coordinates":[[[16.59696,59.05626],[16.59693,59.05518],[16.59298,59.04883],[16.5877,59.05011],[16.56286,59.051],[16.56101,59.05204],[16.57056,59.0542],[16.59186,59.05787],[16.59608,59.05877],[16.59696,59.05626]]]}}]}