{"type":"FeatureCollection","features":[{"type":"Feature","id":"0483R005","properties":{"code":"0483R005","name":"Katrineholm norra"},"geometry":{"type":"Polygon","coordinates":[[[16.2168,59.00014],[16.21634,58.99853],[16.21668,58.99736],[16.21641,58.99645],[16.21359,58.99655],[16.21238,58.99638],[16.21112,58.99647],[16.20618,58.9963],[16.20117,58.99709],[16.20216,59.00047],[16.20806,59.00002],[16.20828,59.00085],[16.2168,59.00014]]]}},{"type":"Feature","id":"0483R006","properties":{"code":"0483R006","name":"Katrineholm östra"},"geometry":{"type":"Polygon","coordinates":[[[16.22278,58.99665],[16.2267,58.99323],[16.2249,58.99315],[16.22519,58.9917],[16.22479,58.99073],[16.22357,58.98945],[16.22236,58.9898],[16.22146,58.99045],[16.2209,58.99051],[16.21766,58.99032],[16.20801,58.99113],[16.21014,58.99418],[16.2105,58.99419],[16.21161,58.99485],[16.21273,58.99576],[16.21238,58.99638],[16.21359,58.99655],[16.21641,58.99645],[16.21775,58.99666],[16.21984,58.9962],[16.22099,58.9966],[16.22278,58.99665]]]}},{"type":"Feature","id":"0483R007","properties":{"code":"0483R007","name":"Nyhem-Nävertorp"},"geometry":{"type":"Polygon","coordinates":[[[16.19203,58.99094],[16.1904,58.98656],[16.18397,58.98727],[16.1822,58.98759],[16.18174,58.98788],[16.17828,58.98704],[16.17162,58.98581],[16.15537,58.99923],[16.15057,59.00264],[16.15319,59.00216],[16.17889,58.99367],[16.18928,58.99169],[16.19203,58.99094]]]}},{"type":"Feature","id":"0483R004","properties":{"code":"0483R004","name":"Katrineholm centrum-Kerstinboda"},"geometry":{"type":"Polygon","coordinates":[[[16.1688,59.0012],[16.17511,59.00025],[16.18317,58.99958],[16.18677,58.99953],[16.19232,58.99895],[16.19646,58.99768],[16.1995,58.99707],[16.20193,58.99706],[16.20618,58.9963],[16.21143,58.99647],[16.21238,58.99638],[16.21273,58.99576],[16.21161,58.99485],[16.2105,58.99419],[16.21014,58.99418],[16.20801,58.99113],[16.19669,58.99232],[16.19412,58.99098],[16.19396,58.99067],[16.19178,58.99097],[16.18928,58.99169],[16.17889,58.99367],[16.15229,59.00242],[16.15471,59.00423],[16.1688,59.0012]]]}},{"type":"Feature","id":"0483R001","properties":{"code":"0483R001","name":"Forssjö-Björkvik"},"geometry":{"type":"Polygon","coordinates":[[[16.38434,58.97486],[16.39706,58.96403],[16.40672,58.95735],[16.41046,58.94947],[16.41012,58.94701],[16.41456,58.94285],[16.42837,58.93263],[16.43801,58.92686],[16.42887,58.92342],[16.41865,58.91877],[16.41839,58.91889],[16.41755,58.9184],[16.41777,58.91771],[16.41997,58.91676],[16.42156,58.91652],[16.42407,58.91562],[16.42497,58.91496],[16.42607,58.91459],[16.42506,58.91387],[16.42509,58.91362],[16.42755,58.91344],[16.42904,58.91307],[16.42952,58.91273],[16.42988,58.91195],[16.43223,58.91072],[16.43298,58.9106],[16.43464,58.91098],[16.43633,58.91007],[16.44003,58.90912],[16.44243,58.90871],[16.44825,58.90634],[16.45223,58.90575],[16.45265,58.90533],[16.45215,58.90451],[16.45299,58.90409],[16.45559,58.9034],[16.45554,58.90394],[16.45647,58.90427],[16.45673,58.904],[16.45807,58.90366],[16.45772,58.90324],[16.45811,58.90308],[16.45852,58.90224],[16.45948,58.90191],[16.46058,58.90115],[16.46311,58.90043],[16.46572,58.89844],[16.47128,58.89614],[16.49091,58.8984],[16.49902,58.89527],[16.51431,58.88999],[16.52681,58.88479],[16.53979,58.87507],[16.55465,58.87315],[16.60566,58.84813],[16.6106,58.84454],[16.61337,58.84205],[16.62054,58.83532],[16.62572,58.82533],[16.61781,58.82092],[16.61075,58.8189],[16.60411,58.81672],[16.60303,58.81074],[16.59882,58.80813],[16.59728,58.79974],[16.59529,58.79538],[16.58913,58.78825],[16.59222,58.78739],[16.59335,58.78689],[16.59303,58.78608],[16.59359,58.78598],[16.59368,58.78566],[16.59149,58.78363],[16.58818,58.78469],[16.58675,58.78462],[16.58331,58.78621],[16.5794,58.78739],[16.56655,58.78344],[16.56069,58.77959],[16.53348,58.7759],[16.51446,58.77352],[16.51311,58.77316],[16.50258,58.76909],[16.49924,58.77022],[16.46412,58.77007],[16.46125,58.77229],[16.45649,58.77505],[16.45592,58.77605],[16.45513,58.77627],[16.45458,58.77613],[16.45304,58.77651],[16.44912,58.77653],[16.44727,58.77794],[16.4402,58.77839],[16.43196,58.78214],[16.42007,58.78346],[16.41868,58.78277],[16.41462,58.78289],[16.41074,58.78409],[16.40772,58.78328],[16.40412,58.78352],[16.39987,58.78738],[16.39829,58.78836],[16.37665,58.79145],[16.37124,58.7931],[16.36802,58.79277],[16.36666,58.79292],[16.36392,58.79287],[16.35803,58.79383],[16.35298,58.79444],[16.35176,58.79418],[16.34688,58.7955],[16.346,58.79632],[16.34408,58.79703],[16.34127,58.79866],[16.34077,58.79917],[16.34074,58.7997],[16.33933,58.80014],[16.33906,58.80063],[16.33821,58.80077],[16.33747,58.80132],[16.33655,58.80053],[16.3354,58.80059],[16.33326,58.80171],[16.33109,58.80221],[16.33015,58.80212],[16.32939,58.8023],[16.3281,58.80298],[16.32716,58.80312],[16.32693,58.80338],[16.32616,58.80322],[16.32506,58.80433],[16.32306,58.80568],[16.31726,58.80741],[16.31627,58.80697],[16.31581,58.80641],[16.31585,58.80575],[16.31439,58.80655],[16.31302,58.80765],[16.30933,58.80928],[16.30845,58.81048],[16.30643,58.81144],[16.30391,58.81122],[16.30123,58.81172],[16.29693,58.81363],[16.29654,58.81338],[16.29369,58.81332],[16.29121,58.81451],[16.29151,58.81477],[16.2908,58.81526],[16.29076,58.81598],[16.29302,58.81671],[16.26906,58.82557],[16.26361,58.83223],[16.21979,58.83835],[16.21588,58.83785],[16.2124,58.83361],[16.21062,58.83486],[16.20416,58.83584],[16.2031,58.83571],[16.20138,58.83609],[16.20008,58.83705],[16.19892,58.83717],[16.19832,58.83799],[16.19719,58.83876],[16.19735,58.8397],[16.19666,58.83904],[16.19564,58.8389],[16.19164,58.83904],[16.19256,58.8434],[16.19144,58.84642],[16.18545,58.84994],[16.18574,58.85132],[16.18234,58.85388],[16.17877,58.85488],[16.18216,58.85686],[16.18025,58.85848],[16.17267,58.86177],[16.16925,58.86229],[16.16609,58.86332],[16.15735,58.8674],[16.15184,58.86971],[16.14932,58.87096],[16.14797,58.87189],[16.14421,58.87498],[16.14147,58.87551],[16.13828,58.87655],[16.13517,58.87683],[16.1332,58.87755],[16.13222,58.87768],[16.13207,58.87808],[16.13138,58.87797],[16.1305,58.87873],[16.13004,58.87868],[16.12954,58.87925],[16.12863,58.87927],[16.12867,58.87943],[16.12744,58.87957],[16.12695,58.88041],[16.1256,58.88064],[16.12548,58.88032],[16.12416,58.88076],[16.12393,58.88134],[16.12303,58.88107],[16.12012,58.8816],[16.11938,58.88155],[16.11855,58.88191],[16.11966,58.88247],[16.11866,58.88275],[16.11781,58.88377],[16.11536,58.88418],[16.11367,58.88496],[16.1136,58.88482],[16.11235,58.88491],[16.1121,58.88541],[16.10928,58.88582],[16.10828,58.88531],[16.10218,58.88579],[16.10213,58.88796],[16.10242,58.88901],[16.10199,58.89048],[16.10261,58.89159],[16.10108,58.89351],[16.10029,58.89404],[16.09914,58.8993],[16.09181,58.9016],[16.08768,58.90403],[16.09437,58.90377],[16.09382,58.90573],[16.08892,58.90829],[16.0889,58.91061],[16.09076,58.91212],[16.08514,58.91409],[16.08271,58.91618],[16.09166,58.92168],[16.09763,58.92595],[16.10344,58.928],[16.11545,58.93026],[16.12349,58.93499],[16.12529,58.93899],[16.14911,58.94859],[16.15672,58.94881],[16.15681,58.94898],[16.15805,58.94923],[16.15928,58.9493],[16.16197,58.94919],[16.17073,58.95046],[16.17521,58.95043],[16.17787,58.95031],[16.18075,58.94857],[16.18187,58.94917],[16.18373,58.94843],[16.18373,58.94796],[16.18499,58.94792],[16.18605,58.94847],[16.1881,58.94842],[16.18944,58.94779],[16.19332,58.94821],[16.19945,58.94804],[16.20226,58.95266],[16.2091,58.95127],[16.21463,58.94462],[16.22191,58.94515],[16.22116,58.94614],[16.22799,58.9475],[16.23114,58.94346],[16.23263,58.94874],[16.23399,58.94932],[16.23229,58.95067],[16.23343,58.95268],[16.23648,58.96127],[16.24038,58.96187],[16.24099,58.96275],[16.23887,58.9677],[16.24086,58.97106],[16.24646,58.97149],[16.24901,58.97117],[16.25877,58.96879],[16.26665,58.97124],[16.2675,58.97219],[16.25605,58.97664],[16.2524,58.97897],[16.25159,58.97911],[16.24893,58.98019],[16.25136,58.98059],[16.25404,58.98128],[16.25818,58.98304],[16.26051,58.98494],[16.26129,58.98687],[16.26088,58.99017],[16.25984,58.9921],[16.25957,58.99416],[16.25872,58.99559],[16.25654,58.99789],[16.2553,58.99881],[16.25306,58.99985],[16.2506,59.00051],[16.27815,59.00379],[16.27956,59.01456],[16.29682,59.01644],[16.30156,59.01339],[16.31058,59.01088],[16.34264,59.00051],[16.35072,59.00028],[16.36204,58.99344],[16.37729,58.98818],[16.38324,58.98312],[16.38338,58.98042],[16.38434,58.97486]]]}},{"type":"Feature","id":"0483R002","properties":{"code":"0483R002","name":"Gersnäs-Lövåsen"},"geometry":{"type":"Polygon","coordinates":[[[16.23832,59.01337],[16.24108,59.01305],[16.24375,59.01234],[16.24585,59.01137],[16.24751,59.01007],[16.24846,59.00864],[16.24868,59.00718],[16.24807,59.00506],[16.2467,59.00319],[16.24873,59.002],[16.25012,59.0006],[16.2506,59.00051],[16.24399,58.99963],[16.24016,58.99937],[16.23257,58.99819],[16.22467,58.9973],[16.22335,58.99672],[16.22099,58.9966],[16.21984,58.9962],[16.21775,58.99666],[16.21641,58.99645],[16.21668,58.99736],[16.21634,58.99853],[16.2168,59.00014],[16.20828,59.00085],[16.20806,59.00002],[16.20216,59.00047],[16.20117,58.99709],[16.1995,58.99707],[16.19646,58.99768],[16.19232,58.99895],[16.18677,58.99953],[16.18317,58.99958],[16.17511,59.00025],[16.1688,59.0012],[16.15471,59.00423],[16.15229,59.00242],[16.15057,59.00264],[16.14925,59.00357],[16.151,59.00486],[16.15306,59.0058],[16.15863,59.00742],[16.16148,59.00795],[16.16431,59.00808],[16.16775,59.00774],[16.17201,59.00676],[16.17687,59.00524],[16.1809,59.00583],[16.18637,59.00569],[16.18811,59.00643],[16.18924,59.00782],[16.19115,59.00912],[16.1944,59.01041],[16.19742,59.01111],[16.19948,59.01131],[16.20224,59.01126],[16.20679,59.01044],[16.2084,59.01148],[16.21081,59.01246],[16.21297,59.01299],[16.21599,59.01334],[16.22206,59.01324],[16.22871,59.01205],[16.234,59.01316],[16.23832,59.01337]]]}},{"type":"Feature","id":"0483R003","properties":{"code":"0483R003","name":"Julita-Bie"},"geometry":{"type":"Polygon","coordinates":[[[16.03363,59.25863],[16.05913,59.24658],[16.06406,59.24681],[16.06511,59.24603],[16.06619,59.2456],[16.06936,59.24477],[16.07263,59.24511],[16.07407,59.24558],[16.09107,59.22019],[16.0962,59.22059],[16.09624,59.22044],[16.10103,59.22089],[16.09866,59.21789],[16.09828,59.21679],[16.09867,59.21555],[16.10156,59.21182],[16.10272,59.20949],[16.10272,59.20852],[16.10215,59.20716],[16.10219,59.20284],[16.1412,59.20211],[16.14084,59.20434],[16.14155,59.20472],[16.14262,59.20465],[16.14346,59.20407],[16.14441,59.20387],[16.14686,59.20412],[16.14977,59.20265],[16.15163,59.20266],[16.15175,59.20194],[16.15721,59.20145],[16.1591,59.20181],[16.16108,59.20025],[16.16951,59.19911],[16.17142,59.19807],[16.17287,59.19819],[16.17344,59.19784],[16.17476,59.19769],[16.17614,59.19673],[16.17619,59.19625],[16.17708,59.19622],[16.17777,59.1959],[16.17813,59.19606],[16.17672,59.19751],[16.17832,59.19607],[16.17837,59.1951],[16.17909,59.19454],[16.17931,59.19466],[16.18038,59.19332],[16.18162,59.19318],[16.18573,59.18659],[16.18702,59.18576],[16.19525,59.18301],[16.19699,59.17848],[16.19832,59.17653],[16.19886,59.1736],[16.19972,59.17278],[16.20049,59.17125],[16.19712,59.16946],[16.20129,59.16697],[16.20188,59.16625],[16.20763,59.16738],[16.20815,59.16699],[16.20916,59.16489],[16.20688,59.16343],[16.2053,59.15956],[16.21288,59.14536],[16.22613,59.15196],[16.23298,59.1567],[16.24583,59.15769],[16.25257,59.1578],[16.25439,59.15825],[16.25604,59.15841],[16.26812,59.13422],[16.27633,59.13113],[16.28111,59.13277],[16.28177,59.13389],[16.2832,59.1337],[16.285,59.13218],[16.28628,59.12893],[16.29092,59.12686],[16.29073,59.12545],[16.29293,59.12178],[16.29766,59.12307],[16.30521,59.11713],[16.30443,59.11523],[16.3052,59.11289],[16.30297,59.11123],[16.30631,59.10671],[16.31555,59.10747],[16.33233,59.10701],[16.34306,59.10595],[16.34532,59.10596],[16.35405,59.1052],[16.35468,59.10571],[16.35648,59.10542],[16.34866,59.09109],[16.34875,59.09013],[16.34934,59.0897],[16.35006,59.08836],[16.34632,59.08495],[16.34649,59.08448],[16.34737,59.08408],[16.34897,59.08387],[16.34943,59.08338],[16.35013,59.08335],[16.35844,59.07973],[16.36089,59.07643],[16.36148,59.07615],[16.36164,59.07626],[16.376,59.07216],[16.38089,59.07177],[16.38278,59.07212],[16.38314,59.0717],[16.38469,59.07155],[16.38627,59.06984],[16.3894,59.07218],[16.39526,59.06741],[16.39242,59.06401],[16.39026,59.06249],[16.39401,59.06085],[16.39649,59.06078],[16.39838,59.05978],[16.39899,59.06004],[16.39903,59.06026],[16.40063,59.06032],[16.40021,59.06154],[16.40176,59.06203],[16.40436,59.06086],[16.4039,59.05971],[16.40269,59.05923],[16.40248,59.05879],[16.40184,59.05645],[16.40175,59.05479],[16.40302,59.05334],[16.40368,59.05191],[16.40544,59.05144],[16.40527,59.05078],[16.40582,59.0507],[16.40674,59.05101],[16.40715,59.05093],[16.40746,59.05023],[16.4086,59.05019],[16.40901,59.04933],[16.40967,59.04941],[16.41022,59.04977],[16.41081,59.04967],[16.41108,59.04938],[16.4119,59.04934],[16.41134,59.04659],[16.41176,59.04318],[16.41028,59.03842],[16.41055,59.03814],[16.41011,59.03754],[16.41027,59.03633],[16.40946,59.03533],[16.39549,59.03515],[16.38918,59.03684],[16.38645,59.03718],[16.38304,59.03836],[16.37668,59.03689],[16.37257,59.03614],[16.37165,59.0373],[16.369,59.03908],[16.36859,59.03792],[16.367,59.0366],[16.36404,59.03516],[16.36523,59.03392],[16.34986,59.03121],[16.34902,59.02995],[16.34579,59.03001],[16.34535,59.03052],[16.34352,59.03063],[16.34109,59.03005],[16.34127,59.02953],[16.33833,59.02897],[16.33726,59.02929],[16.31311,59.02929],[16.30244,59.02907],[16.30241,59.0282],[16.3003,59.02817],[16.29913,59.02752],[16.30133,59.02724],[16.29636,59.02524],[16.29665,59.02376],[16.29559,59.02294],[16.2971,59.02192],[16.29793,59.01892],[16.29624,59.01756],[16.29682,59.01644],[16.27956,59.01456],[16.27815,59.00379],[16.2506,59.00051],[16.25012,59.0006],[16.24873,59.002],[16.2467,59.00319],[16.24821,59.0054],[16.24868,59.00718],[16.24857,59.0083],[16.24805,59.0094],[16.24711,59.01046],[16.24428,59.01214],[16.24124,59.01302],[16.23832,59.01337],[16.234,59.01316],[16.22871,59.01205],[16.22302,59.01311],[16.21896,59.01338],[16.21533,59.01329],[16.21229,59.01285],[16.20894,59.01174],[16.20679,59.01044],[16.20364,59.0111],[16.20158,59.01131],[16.19877,59.01127],[16.19612,59.01087],[16.19384,59.01022],[16.19115,59.00912],[16.18924,59.00782],[16.18811,59.00643],[16.18637,59.00569],[16.1809,59.00583],[16.17687,59.00524],[16.17201,59.00676],[16.16792,59.0077],[16.16563,59.00801],[16.16279,59.00805],[16.15941,59.0076],[16.15306,59.0058],[16.151,59.00486],[16.14925,59.00357],[16.14712,59.00507],[16.14918,59.00745],[16.15765,59.02135],[16.14795,59.03396],[16.14715,59.03563],[16.14572,59.03748],[16.14569,59.03808],[16.14511,59.03896],[16.13945,59.04293],[16.1295,59.0464],[16.12964,59.04662],[16.12705,59.04732],[16.12287,59.05132],[16.12202,59.05292],[16.10935,59.05542],[16.10859,59.06393],[16.10732,59.06527],[16.10471,59.06725],[16.10271,59.06839],[16.1021,59.06829],[16.10131,59.06913],[16.09652,59.07224],[16.09698,59.07235],[16.09823,59.07217],[16.09731,59.07326],[16.09538,59.07307],[16.08872,59.07625],[16.0804,59.08134],[16.07941,59.0813],[16.07887,59.08148],[16.0786,59.08251],[16.0775,59.08316],[16.07288,59.08464],[16.06126,59.09074],[16.06056,59.09229],[16.05503,59.09594],[16.04619,59.10294],[16.03747,59.12916],[16.01309,59.1488],[15.963,59.15979],[15.95347,59.15889],[15.95136,59.1589],[15.95053,59.15938],[15.94923,59.15933],[15.94857,59.1595],[15.94797,59.16009],[15.94634,59.16081],[15.94576,59.16262],[15.94293,59.16344],[15.93911,59.16348],[15.93783,59.16304],[15.93568,59.16301],[15.93492,59.16262],[15.93421,59.16312],[15.93429,59.16329],[15.89723,59.16843],[15.76909,59.18372],[15.76204,59.19792],[16.02437,59.26301],[16.02962,59.26052],[16.03087,59.25959],[16.03363,59.25863]]]}},{"type":"Feature","id":"0483R008","properties":{"code":"0483R008","name":"Oppunda-Laggarhult"},"geometry":{"type":"Polygon","coordinates":[[[16.26071,58.99065],[16.26131,58.98722],[16.26096,58.98569],[16.25995,58.98432],[16.25818,58.98304],[16.25404,58.98128],[16.24942,58.98025],[16.24893,58.98019],[16.2458,58.98146],[16.24136,58.97818],[16.23756,58.97925],[16.23056,58.98239],[16.2219,58.98535],[16.2136,58.98699],[16.21152,58.987],[16.21041,58.98674],[16.20955,58.9861],[16.20882,58.98404],[16.20903,58.98133],[16.20521,58.98084],[16.20425,58.98086],[16.20252,58.98378],[16.20441,58.98772],[16.20551,58.98853],[16.20653,58.98856],[16.20771,58.98937],[16.20793,58.99114],[16.21766,58.99032],[16.2209,58.99051],[16.22146,58.99045],[16.22236,58.9898],[16.22357,58.98945],[16.22479,58.99073],[16.22519,58.9917],[16.2249,58.99315],[16.2267,58.99323],[16.22278,58.99665],[16.22335,58.99672],[16.22397,58.99709],[16.22467,58.9973],[16.23257,58.99819],[16.24016,58.99937],[16.24399,58.99963],[16.2506,59.00051],[16.25306,58.99985],[16.25518,58.99888],[16.25645,58.99797],[16.25835,58.99601],[16.25957,58.99415],[16.25984,58.9921],[16.26071,58.99065]]]}},{"type":"Feature","id":"0483R009","properties":{"code":"0483R009","name":"Strandsvägsområdet-Skogsborg"},"geometry":{"type":"Polygon","coordinates":[[[16.20793,58.99114],[16.20771,58.98937],[16.20653,58.98856],[16.20551,58.98853],[16.20441,58.98772],[16.20252,58.98378],[16.20387,58.98183],[16.20447,58.98005],[16.19967,58.98018],[16.19922,58.9792],[16.19857,58.97875],[16.19305,58.97912],[16.18887,58.97907],[16.18904,58.97783],[16.18869,58.97476],[16.18757,58.97082],[16.18536,58.97091],[16.18271,58.97132],[16.1793,58.97203],[16.1754,58.9731],[16.17338,58.97398],[16.16981,58.97616],[16.16704,58.97848],[16.16497,58.97969],[16.16348,58.97929],[16.16576,58.981],[16.16651,58.98184],[16.17205,58.98389],[16.17314,58.98456],[16.17162,58.98581],[16.17828,58.98704],[16.18174,58.98788],[16.1822,58.98759],[16.18397,58.98727],[16.1904,58.98656],[16.19086,58.9886],[16.19203,58.99094],[16.19396,58.99067],[16.19412,58.99098],[16.19669,58.99232],[16.20793,58.99114]]]}},{"type":"Feature","id":"0483R010","properties":{"code":"0483R010","name":"Valla-Sköldinge-Floda"},"geometry":{"type":"Polygon","coordinates":[[[16.45842,59.19746],[16.46413,59.18794],[16.46264,59.17159],[16.46091,59.16876],[16.46373,59.15281],[16.4635,59.14751],[16.46156,59.13677],[16.45972,59.13273],[16.45827,59.13145],[16.45835,59.13019],[16.45903,59.12844],[16.45841,59.12395],[16.45864,59.12249],[16.46018,59.12025],[16.46037,59.11674],[16.45804,59.11466],[16.46121,59.11345],[16.46067,59.11253],[16.46358,59.1056],[16.46332,59.10067],[16.47291,59.09853],[16.47338,59.09371],[16.48119,59.09018],[16.4867,59.08976],[16.49106,59.08966],[16.50254,59.08602],[16.50818,59.08459],[16.51012,59.08388],[16.51094,59.08393],[16.51156,59.08352],[16.51373,59.08304],[16.5141,59.08277],[16.51514,59.08253],[16.51598,59.08263],[16.51795,59.08192],[16.51839,59.0815],[16.52181,59.08121],[16.52435,59.08034],[16.52247,59.07756],[16.52278,59.07492],[16.52215,59.07264],[16.52039,59.06966],[16.51361,59.06518],[16.5113,59.06162],[16.51059,59.061],[16.51052,59.06028],[16.51099,59.05895],[16.5107,59.05836],[16.51291,59.05627],[16.51332,59.05611],[16.51543,59.05636],[16.51656,59.05557],[16.5185,59.05519],[16.51798,59.05378],[16.5172,59.05273],[16.51587,59.05237],[16.51359,59.05084],[16.51242,59.04963],[16.51557,59.04841],[16.52649,59.04748],[16.53242,59.04777],[16.53743,59.04593],[16.53701,59.04369],[16.53606,59.04333],[16.52989,59.04254],[16.52825,59.0413],[16.52784,59.03969],[16.5285,59.03689],[16.53249,59.03624],[16.53654,59.03469],[16.53802,59.03291],[16.54113,59.0307],[16.54769,59.03068],[16.55527,59.03006],[16.55814,59.03076],[16.56672,59.02948],[16.5622,59.02535],[16.55263,59.02267],[16.55144,59.02141],[16.55002,59.02072],[16.5493,59.02061],[16.54926,59.02022],[16.55041,59.01927],[16.55828,59.01936],[16.55831,59.01593],[16.55595,59.01449],[16.55526,59.01347],[16.55583,59.01325],[16.55517,59.0124],[16.55493,59.01143],[16.56086,59.0081],[16.57034,59.00407],[16.56758,59.00107],[16.5609,58.99836],[16.55925,58.99845],[16.5581,58.99896],[16.5566,58.99837],[16.55551,58.99683],[16.55076,58.99751],[16.54434,58.99539],[16.53641,58.99861],[16.5256,59.00348],[16.51893,59.00534],[16.50417,58.99751],[16.51451,58.98894],[16.52153,58.98634],[16.52723,58.98508],[16.52947,58.9837],[16.5311,58.98194],[16.53016,58.98138],[16.52595,58.98187],[16.52102,58.98098],[16.52155,58.97673],[16.51535,58.9755],[16.51186,58.97679],[16.50199,58.97682],[16.50359,58.9752],[16.50121,58.97494],[16.49863,58.96994],[16.49472,58.96772],[16.49064,58.96347],[16.49318,58.96071],[16.50252,58.95492],[16.52761,58.94671],[16.52859,58.94421],[16.52847,58.94308],[16.53084,58.94199],[16.53122,58.94074],[16.53034,58.93974],[16.52216,58.93627],[16.52054,58.93574],[16.51878,58.93545],[16.5184,58.93432],[16.51906,58.93428],[16.51948,58.93378],[16.52064,58.93359],[16.5207,58.93344],[16.5203,58.93346],[16.5194,58.93287],[16.52056,58.93233],[16.51903,58.93181],[16.51484,58.93253],[16.51269,58.9322],[16.51246,58.93319],[16.51082,58.9349],[16.50859,58.93542],[16.50676,58.93551],[16.50612,58.9352],[16.5063,58.93507],[16.50228,58.93311],[16.49899,58.93099],[16.49764,58.93099],[16.49884,58.93003],[16.49821,58.92919],[16.49643,58.92855],[16.4958,58.92664],[16.49614,58.92432],[16.49191,58.91977],[16.49008,58.91879],[16.48507,58.91714],[16.48402,58.91788],[16.47194,58.91855],[16.47041,58.92044],[16.46932,58.92049],[16.46905,58.92023],[16.46737,58.92102],[16.46506,58.92267],[16.46434,58.92236],[16.46601,58.92085],[16.46475,58.92052],[16.46314,58.91962],[16.45934,58.92217],[16.45494,58.92166],[16.454,58.92096],[16.43801,58.92686],[16.42837,58.93263],[16.41456,58.94285],[16.41012,58.94701],[16.41046,58.94947],[16.40672,58.95735],[16.39706,58.96403],[16.38434,58.97486],[16.38338,58.98042],[16.38324,58.98312],[16.37729,58.98818],[16.36204,58.99344],[16.35072,59.00028],[16.34264,59.00051],[16.31058,59.01088],[16.30156,59.01339],[16.29682,59.01644],[16.29624,59.01756],[16.29793,59.01892],[16.2971,59.02192],[16.29559,59.02294],[16.29665,59.02376],[16.29636,59.02524],[16.30133,59.02724],[16.29913,59.02752],[16.3003,59.02817],[16.30241,59.0282],[16.30244,59.02907],[16.31311,59.02929],[16.33726,59.02929],[16.33833,59.02897],[16.34127,59.02953],[16.34109,59.03005],[16.34352,59.03063],[16.34535,59.03052],[16.34579,59.03001],[16.34902,59.02995],[16.34986,59.03121],[16.36523,59.03392],[16.36404,59.03516],[16.367,59.0366],[16.36859,59.03792],[16.369,59.03908],[16.37165,59.0373],[16.37257,59.03614],[16.37668,59.03689],[16.38304,59.03836],[16.38645,59.03718],[16.38918,59.03684],[16.39549,59.03515],[16.40946,59.03533],[16.41027,59.03633],[16.41011,59.03754],[16.41055,59.03814],[16.41028,59.03842],[16.41176,59.04318],[16.41134,59.04659],[16.4119,59.04934],[16.41108,59.04938],[16.41081,59.04967],[16.41022,59.04977],[16.40967,59.04941],[16.40901,59.04933],[16.4086,59.05019],[16.40746,59.05023],[16.40715,59.05093],[16.40674,59.05101],[16.40582,59.0507],[16.40527,59.05078],[16.40544,59.05144],[16.40368,59.05191],[16.40302,59.05334],[16.40175,59.05479],[16.40184,59.05645],[16.40248,59.05879],[16.40269,59.05923],[16.4039,59.05971],[16.40436,59.06086],[16.40176,59.06203],[16.40021,59.06154],[16.40063,59.06032],[16.39903,59.06026],[16.39899,59.06004],[16.39838,59.05978],[16.39649,59.06078],[16.39401,59.06085],[16.39026,59.06249],[16.39242,59.06401],[16.39526,59.06741],[16.3894,59.07218],[16.38627,59.06984],[16.38469,59.07155],[16.38314,59.0717],[16.38278,59.07212],[16.38089,59.07177],[16.376,59.07216],[16.36164,59.07626],[16.36148,59.07615],[16.36089,59.07643],[16.35844,59.07973],[16.35013,59.08335],[16.34943,59.08338],[16.34897,59.08387],[16.34737,59.08408],[16.34649,59.08448],[16.34632,59.08495],[16.35006,59.08836],[16.34934,59.0897],[16.34875,59.09013],[16.34866,59.09109],[16.35648,59.10542],[16.35468,59.10571],[16.35405,59.1052],[16.34532,59.10596],[16.34306,59.10595],[16.33233,59.10701],[16.31555,59.10747],[16.30631,59.10671],[16.30297,59.11123],[16.3052,59.11289],[16.30443,59.11523],[16.30521,59.11713],[16.29766,59.12307],[16.29293,59.12178],[16.29073,59.12545],[16.29092,59.12686],[16.28628,59.12893],[16.285,59.13218],[16.2832,59.1337],[16.28177,59.13389],[16.28111,59.13277],[16.27633,59.13113],[16.26812,59.13422],[16.25604,59.15841],[16.27021,59.15956],[16.27794,59.15973],[16.28845,59.16123],[16.29297,59.16146],[16.3037,59.16119],[16.30966,59.16087],[16.31544,59.16029],[16.33531,59.16074],[16.34545,59.16399],[16.34706,59.16508],[16.34886,59.16491],[16.34963,59.16531],[16.34993,59.16558],[16.34964,59.16601],[16.34994,59.16654],[16.35221,59.16793],[16.3596,59.17335],[16.37138,59.18434],[16.38139,59.19141],[16.39169,59.19338],[16.4176,59.19457],[16.43652,59.19579],[16.45842,59.19746]]]}},{"type":"Feature","id":"0483R011","properties":{"code":"0483R011","name":"Värmbol-Duveholm"},"geometry":{"type":"Polygon","coordinates":[[[16.1187,59.02314],[16.12949,59.02184],[16.12925,59.02205],[16.13212,59.0216],[16.15765,59.02135],[16.14918,59.00745],[16.14712,59.00507],[16.15537,58.99923],[16.17314,58.98456],[16.17205,58.98389],[16.16651,58.98184],[16.16576,58.981],[16.16348,58.97929],[16.16497,58.97969],[16.16704,58.97848],[16.16981,58.97616],[16.17338,58.97398],[16.1754,58.9731],[16.1793,58.97203],[16.18271,58.97132],[16.18536,58.97091],[16.18757,58.97082],[16.18869,58.97476],[16.18904,58.97783],[16.18887,58.97907],[16.19305,58.97912],[16.19857,58.97875],[16.19922,58.9792],[16.19967,58.98018],[16.20447,58.98005],[16.20425,58.98086],[16.20521,58.98084],[16.20903,58.98133],[16.20882,58.98404],[16.20955,58.9861],[16.21041,58.98674],[16.21251,58.98706],[16.21539,58.98668],[16.2219,58.98535],[16.23056,58.98239],[16.23756,58.97925],[16.24136,58.97818],[16.2458,58.98146],[16.25159,58.97911],[16.2524,58.97897],[16.25605,58.97664],[16.2675,58.97219],[16.26665,58.97124],[16.25877,58.96879],[16.24901,58.97117],[16.24646,58.97149],[16.24086,58.97106],[16.23887,58.9677],[16.24099,58.96275],[16.24038,58.96187],[16.23648,58.96127],[16.23343,58.95268],[16.23229,58.95067],[16.23399,58.94932],[16.23263,58.94874],[16.23114,58.94346],[16.22799,58.9475],[16.22116,58.94614],[16.22191,58.94515],[16.21463,58.94462],[16.2091,58.95127],[16.20226,58.95266],[16.19945,58.94804],[16.19332,58.94821],[16.18944,58.94779],[16.1881,58.94842],[16.18605,58.94847],[16.18499,58.94792],[16.18373,58.94796],[16.18373,58.94843],[16.18187,58.94917],[16.18075,58.94857],[16.17787,58.95031],[16.17521,58.95043],[16.17073,58.95046],[16.16197,58.94919],[16.15928,58.9493],[16.15805,58.94923],[16.15681,58.94898],[16.15672,58.94881],[16.14911,58.94859],[16.12529,58.93899],[16.12349,58.93499],[16.11545,58.93026],[16.10344,58.928],[16.09763,58.92595],[16.09166,58.92168],[16.08271,58.91618],[16.08129,58.91741],[16.08166,58.91779],[16.08127,58.9184],[16.08221,58.91954],[16.06702,58.92307],[16.06574,58.92287],[16.06311,58.92366],[16.05385,58.92742],[16.04754,58.92774],[16.03576,58.92797],[15.99615,58.93668],[15.99361,58.93732],[15.96741,58.94716],[15.97405,58.95321],[15.98436,58.95301],[15.98643,58.95263],[15.99644,58.96117],[15.99697,58.96252],[15.99811,58.96351],[16.00444,58.97349],[16.00716,58.97889],[16.01646,58.9819],[16.01545,58.98301],[16.02059,58.98436],[16.02373,58.98181],[16.02827,58.98302],[16.03403,58.98538],[16.03158,58.98689],[16.04879,58.99251],[16.05238,58.99526],[16.05447,58.99599],[16.05902,58.99837],[16.06399,58.99799],[16.08309,59.00671],[16.08471,59.00705],[16.08575,59.00599],[16.08694,59.00529],[16.08734,59.00459],[16.08952,59.00528],[16.09075,59.00537],[16.08971,59.00926],[16.09164,59.0097],[16.09225,59.0101],[16.09263,59.01003],[16.09443,59.01043],[16.09442,59.01143],[16.09473,59.01181],[16.09494,59.01158],[16.09801,59.01071],[16.09876,59.01211],[16.09873,59.01268],[16.09992,59.0129],[16.1006,59.01329],[16.1,59.01384],[16.10015,59.01411],[16.10194,59.01571],[16.10372,59.0168],[16.10433,59.01762],[16.10337,59.01803],[16.10796,59.02053],[16.10857,59.0206],[16.10944,59.02128],[16.11023,59.02263],[16.1122,59.022],[16.11686,59.02295],[16.1187,59.02314]]]}}]}