{"type":"FeatureCollection","features":[{"type":"Feature","id":"0560R001","properties":{"code":"0560R001","name":"Boxholm omnejd"},"geometry":{"type":"Polygon","coordinates":[[[15.00582,58.30654],[15.0056,58.30654],[15.00759,58.30494],[15.00893,58.30327],[15.01021,58.3026],[15.0167,58.29451],[15.01734,58.29484],[15.02227,58.28965],[15.02463,58.28559],[15.02378,58.28551],[15.02318,58.28236],[15.02206,58.28127],[15.0213,58.28097],[15.02896,58.28068],[15.03436,58.28079],[15.03548,58.28101],[15.03974,58.28192],[15.04046,58.28267],[15.04243,58.28311],[15.04423,58.28318],[15.04487,58.28377],[15.04481,58.28491],[15.04579,58.285],[15.04966,58.28674],[15.05348,58.28665],[15.05437,58.28561],[15.05483,58.28549],[15.05503,58.28471],[15.05589,58.28431],[15.05866,58.28464],[15.0592,58.28435],[15.06174,58.28424],[15.06171,58.28478],[15.06401,58.28648],[15.06916,58.28531],[15.08291,58.28302],[15.09911,58.27855],[15.09921,58.27865],[15.11492,58.27731],[15.11578,58.27675],[15.11867,58.27603],[15.12059,58.27764],[15.12243,58.27764],[15.12334,58.27606],[15.12339,58.27567],[15.12296,58.27528],[15.12302,58.27455],[15.12415,58.27337],[15.12503,58.27341],[15.12586,58.27223],[15.12577,58.27169],[15.12481,58.27132],[15.12563,58.27117],[15.12718,58.2701],[15.1281,58.26864],[15.12975,58.26864],[15.13044,58.26848],[15.13244,58.26871],[15.13533,58.26874],[15.13687,58.26911],[15.138,58.26902],[15.13859,58.26878],[15.13911,58.26676],[15.14673,58.26471],[15.14777,58.2639],[15.14838,58.26399],[15.15993,58.26313],[15.1651,58.26194],[15.16828,58.25898],[15.16947,58.25611],[15.17018,58.25556],[15.16988,58.2551],[15.17188,58.25195],[15.174,58.251],[15.17465,58.25242],[15.17889,58.25176],[15.18122,58.25268],[15.18248,58.25301],[15.18393,58.25313],[15.18646,58.25269],[15.18714,58.24945],[15.18878,58.24933],[15.18976,58.24845],[15.19047,58.2482],[15.19469,58.24846],[15.19788,58.24926],[15.19974,58.2495],[15.2011,58.24955],[15.20486,58.24878],[15.20646,58.24805],[15.21052,58.24353],[15.2116,58.24199],[15.21184,58.24058],[15.21286,58.23949],[15.21443,58.2385],[15.21601,58.23704],[15.22091,58.23604],[15.22185,58.23564],[15.22232,58.23356],[15.22355,58.23215],[15.22374,58.23154],[15.22337,58.23128],[15.22233,58.23109],[15.22233,58.23081],[15.22356,58.23035],[15.22473,58.22792],[15.22512,58.22541],[15.22441,58.22442],[15.22444,58.22382],[15.2256,58.22223],[15.22587,58.22128],[15.22728,58.21994],[15.23083,58.21432],[15.23064,58.21406],[15.23156,58.21315],[15.2314,58.21257],[15.23216,58.21217],[15.23196,58.21151],[15.23239,58.2112],[15.23261,58.21052],[15.23208,58.21024],[15.2319,58.20965],[15.23258,58.20862],[15.23254,58.20725],[15.23348,58.20667],[15.23317,58.20578],[15.23412,58.20536],[15.23356,58.20353],[15.23465,58.20298],[15.23413,58.20163],[15.23469,58.20057],[15.23453,58.19994],[15.23586,58.19919],[15.23621,58.19835],[15.23595,58.1976],[15.23691,58.19707],[15.23776,58.19574],[15.23865,58.19519],[15.2389,58.19425],[15.23962,58.19359],[15.24155,58.19273],[15.24176,58.19227],[15.24308,58.19181],[15.24301,58.19088],[15.24396,58.19041],[15.24455,58.18982],[15.24465,58.1893],[15.24397,58.18827],[15.24481,58.1874],[15.2454,58.18715],[15.24542,58.1864],[15.24593,58.18581],[15.24567,58.1843],[15.24496,58.18367],[15.24644,58.18283],[15.24614,58.18216],[15.24712,58.18166],[15.24681,58.18118],[15.24752,58.18063],[15.24735,58.17974],[15.24833,58.17894],[15.24893,58.17783],[15.25037,58.17634],[15.25001,58.17588],[15.25066,58.17508],[15.25004,58.1743],[15.25036,58.17398],[15.25031,58.17334],[15.25087,58.17299],[15.25059,58.17224],[15.25114,58.17146],[15.25048,58.17104],[15.2512,58.17073],[15.25119,58.17037],[15.25163,58.17003],[15.25107,58.16852],[15.25257,58.16576],[15.25181,58.16468],[15.25173,58.16405],[15.25201,58.1621],[15.25152,58.16042],[15.25189,58.15984],[15.25113,58.15917],[15.25107,58.15803],[15.24976,58.15713],[15.24971,58.15516],[15.25086,58.1488],[15.25286,58.14866],[15.25064,58.14543],[15.25033,58.14364],[15.27087,58.13658],[15.27693,58.13478],[15.27952,58.13144],[15.27965,58.12498],[15.28524,58.11718],[15.28581,58.11539],[15.28605,58.11289],[15.29338,58.10447],[15.29546,58.10261],[15.31075,58.10407],[15.32951,58.10044],[15.33897,58.10123],[15.34877,58.10282],[15.34962,58.10183],[15.3494,58.10075],[15.35057,58.09812],[15.34925,58.09779],[15.34618,58.09465],[15.34627,58.09042],[15.34453,58.08369],[15.35601,58.08339],[15.37896,58.07873],[15.37785,58.07243],[15.37833,58.06672],[15.379,58.06326],[15.38299,58.06076],[15.37886,58.06099],[15.37851,58.06069],[15.3783,58.06044],[15.37851,58.06013],[15.37752,58.0594],[15.37847,58.0585],[15.37802,58.05805],[15.37714,58.05788],[15.37643,58.05747],[15.37599,58.05594],[15.37617,58.05535],[15.37568,58.05424],[15.37379,58.05219],[15.37396,58.05164],[15.37235,58.05065],[15.37263,58.04997],[15.37008,58.04859],[15.36745,58.04639],[15.36921,58.04431],[15.3667,58.03948],[15.36843,58.03829],[15.36983,58.03688],[15.36998,58.03485],[15.37097,58.0337],[15.37096,58.02804],[15.37203,58.02702],[15.37123,58.02471],[15.37374,58.01819],[15.37531,58.01535],[15.37524,58.01492],[15.36881,58.00984],[15.36302,58.00723],[15.36351,58.0038],[15.3595,58.00085],[15.35983,57.99806],[15.36767,57.99705],[15.37013,57.99505],[15.37062,57.98624],[15.37039,57.98608],[15.36942,57.98608],[15.36861,57.98527],[15.36723,57.9847],[15.36724,57.98438],[15.36855,57.98418],[15.36875,57.98381],[15.36841,57.98347],[15.36894,57.98312],[15.36826,57.9826],[15.36783,57.98276],[15.36766,57.98202],[15.36791,57.98196],[15.368,57.97271],[15.36877,57.95982],[15.37074,57.95721],[15.37207,57.95388],[15.36674,57.95381],[15.36522,57.95471],[15.3588,57.95553],[15.35852,57.95589],[15.35693,57.95656],[15.34751,57.95979],[15.34426,57.96134],[15.33545,57.96446],[15.33192,57.96483],[15.32623,57.96587],[15.30877,57.96613],[15.2982,57.96454],[15.28335,57.98019],[15.26947,57.99993],[15.21345,58.01231],[15.21009,58.01206],[15.20755,58.01114],[15.17424,58.02026],[15.15013,58.01597],[15.14256,58.01819],[15.13932,58.02101],[15.12755,58.02139],[15.12878,58.025],[15.12674,58.02876],[15.11983,58.02796],[15.11093,58.02801],[15.1026,58.02864],[15.0959,58.0305],[15.09241,58.02993],[15.08763,58.03111],[15.08019,58.03212],[15.07941,58.02966],[15.07429,58.02985],[15.06372,58.02525],[15.02765,58.04969],[15.03119,58.05471],[15.03884,58.05673],[15.02944,58.07163],[15.0165,58.08986],[15.01312,58.09267],[15.01064,58.09764],[15.00552,58.10208],[15.00729,58.1073],[15.00505,58.10987],[15.00389,58.11328],[14.99528,58.1218],[14.99277,58.12193],[14.98775,58.12312],[14.98293,58.12574],[14.98036,58.12782],[14.97955,58.13039],[14.97579,58.1337],[14.97814,58.13828],[14.97848,58.1385],[14.98024,58.13786],[14.98444,58.14173],[14.98221,58.14197],[14.98235,58.14262],[14.98078,58.14405],[14.9818,58.14611],[14.98443,58.14711],[14.98524,58.14767],[14.98592,58.14938],[14.98488,58.14931],[14.98235,58.1498],[14.98253,58.14989],[14.9799,58.15124],[14.97791,58.15183],[14.95525,58.14498],[14.95378,58.14395],[14.95114,58.13918],[14.92697,58.13428],[14.8986,58.13772],[14.90077,58.13862],[14.89878,58.13878],[14.89748,58.14002],[14.89432,58.1416],[14.89673,58.14292],[14.90545,58.13952],[14.90763,58.13954],[14.9113,58.14031],[14.91726,58.14299],[14.91851,58.14146],[14.91854,58.14079],[14.92095,58.14058],[14.92216,58.14134],[14.92392,58.14173],[14.9273,58.13686],[14.93142,58.1376],[14.93279,58.14014],[14.92617,58.14231],[14.92127,58.14311],[14.92066,58.14351],[14.92156,58.14409],[14.92069,58.14492],[14.91896,58.14487],[14.91721,58.15034],[14.91619,58.1503],[14.91626,58.15132],[14.91529,58.15136],[14.91537,58.15565],[14.91507,58.15696],[14.91194,58.15704],[14.91503,58.16013],[14.91515,58.16078],[14.91418,58.16242],[14.9138,58.16405],[14.9147,58.16918],[14.89918,58.16625],[14.89878,58.1631],[14.89779,58.1627],[14.89128,58.16231],[14.89054,58.16239],[14.88921,58.16348],[14.88937,58.16541],[14.88698,58.16557],[14.88593,58.16634],[14.88471,58.16639],[14.88089,58.16521],[14.87835,58.16482],[14.8768,58.17106],[14.87893,58.1766],[14.8791,58.18245],[14.86893,58.18524],[14.87161,58.19159],[14.8696,58.19488],[14.8655,58.20376],[14.86429,58.2105],[14.86533,58.21094],[14.86548,58.21145],[14.86509,58.21249],[14.86649,58.21454],[14.8661,58.21611],[14.86933,58.21954],[14.87015,58.21988],[14.87088,58.22079],[14.87173,58.22114],[14.87241,58.22091],[14.87306,58.22104],[14.87424,58.22491],[14.87373,58.22518],[14.87347,58.22584],[14.87399,58.22615],[14.87477,58.22595],[14.8753,58.22605],[14.87608,58.22652],[14.8759,58.2273],[14.87867,58.2277],[14.87967,58.22847],[14.88,58.22852],[14.88092,58.22807],[14.88136,58.22845],[14.88182,58.22849],[14.88183,58.22822],[14.88236,58.22832],[14.88289,58.22881],[14.88331,58.22872],[14.8835,58.22891],[14.88328,58.22944],[14.884,58.23015],[14.8838,58.23042],[14.88032,58.23122],[14.87959,58.23106],[14.87152,58.23394],[14.872,58.23493],[14.87587,58.23896],[14.87863,58.24046],[14.88343,58.24187],[14.88401,58.24266],[14.8855,58.24306],[14.88657,58.25248],[14.88738,58.25392],[14.88502,58.25466],[14.8844,58.2568],[14.88601,58.25889],[14.88577,58.26015],[14.88956,58.2633],[14.89017,58.26348],[14.89046,58.27125],[14.89426,58.27445],[14.89483,58.27527],[14.89492,58.27625],[14.89402,58.28004],[14.89432,58.28139],[14.8957,58.28338],[14.90227,58.28235],[14.90463,58.28237],[14.90408,58.28387],[14.90533,58.28445],[14.90743,58.28443],[14.90816,58.28518],[14.90825,58.28668],[14.90896,58.28757],[14.91133,58.28764],[14.93235,58.28661],[14.94526,58.28815],[14.94597,58.28928],[14.94657,58.29243],[14.94429,58.29413],[14.94358,58.29424],[14.94468,58.29601],[14.94444,58.29713],[14.94569,58.29788],[14.94604,58.29868],[14.9461,58.30098],[14.94716,58.3011],[14.9484,58.30156],[14.94856,58.30109],[14.95374,58.30197],[14.9539,58.30063],[14.95525,58.29878],[14.95573,58.29874],[14.95618,58.29832],[14.95621,58.29631],[14.95667,58.29478],[14.95459,58.29434],[14.95295,58.29444],[14.95244,58.29405],[14.95379,58.29297],[14.95346,58.29215],[14.95423,58.29106],[14.96696,58.29165],[14.96809,58.29137],[14.96938,58.29072],[14.97,58.29088],[14.97104,58.29073],[14.97371,58.29072],[14.97469,58.29052],[14.97621,58.29061],[14.97696,58.29098],[14.97624,58.29528],[14.9769,58.30199],[14.97825,58.3024],[14.97958,58.30118],[14.98406,58.3021],[14.98487,58.30192],[14.98853,58.30297],[14.98823,58.30426],[14.98947,58.30386],[14.99279,58.30456],[14.99334,58.30554],[14.99511,58.30567],[14.9966,58.30645],[14.99849,58.30675],[15.0022,58.30676],[15.00191,58.30697],[15.00449,58.30751],[15.00582,58.30654]],[[15.05254,58.2162],[15.04858,58.2157],[15.04465,58.21424],[15.04187,58.21225],[15.04119,58.21127],[15.04087,58.21013],[15.03683,58.20952],[15.03358,58.20835],[15.03115,58.20671],[15.02898,58.20428],[15.02587,58.20451],[15.02314,58.20434],[15.02062,58.20383],[15.01714,58.20275],[15.01451,58.20111],[15.01324,58.19907],[15.01324,58.19762],[15.01411,58.19566],[15.01701,58.19236],[15.01716,58.19123],[15.01652,58.1899],[15.01649,58.18791],[15.01721,58.18576],[15.01799,58.18465],[15.01948,58.18343],[15.02203,58.18226],[15.02453,58.18166],[15.02733,58.18142],[15.02972,58.17921],[15.02915,58.17706],[15.02932,58.17564],[15.03039,58.17392],[15.03188,58.1727],[15.03335,58.17194],[15.03694,58.17066],[15.04083,58.17002],[15.04489,58.17019],[15.04854,58.17114],[15.0505,58.17216],[15.05493,58.17554],[15.0568,58.17495],[15.05934,58.17454],[15.06196,58.17447],[15.06428,58.17466],[15.06845,58.17558],[15.07136,58.17709],[15.07303,58.1791],[15.07326,58.18079],[15.07405,58.18279],[15.07379,58.18421],[15.07177,58.18885],[15.07322,58.1902],[15.07415,58.19185],[15.07433,58.1933],[15.07395,58.19487],[15.07526,58.19604],[15.076,58.19735],[15.07812,58.19889],[15.07917,58.20058],[15.07926,58.202],[15.07872,58.2034],[15.07688,58.20573],[15.07519,58.207],[15.07404,58.20899],[15.07142,58.21075],[15.06839,58.21173],[15.06753,58.21289],[15.06596,58.2141],[15.06316,58.2153],[15.05999,58.21597],[15.05798,58.21615],[15.05254,58.2162]]]}},{"type":"Feature","id":"0560R002","properties":{"code":"0560R002","name":"Boxholm västra"},"geometry":{"type":"Polygon","coordinates":[[[15.04314,58.21043],[15.04362,58.20879],[15.04791,58.20685],[15.05097,58.20501],[15.05246,58.20515],[15.05412,58.20502],[15.05431,58.2045],[15.05764,58.20351],[15.05766,58.20067],[15.05848,58.20012],[15.05784,58.19991],[15.05802,58.1996],[15.0587,58.19955],[15.05885,58.19896],[15.05815,58.19886],[15.0583,58.1977],[15.05547,58.19621],[15.05534,58.19512],[15.05425,58.19412],[15.04935,58.1878],[15.04859,58.1855],[15.04848,58.18168],[15.04631,58.17899],[15.03892,58.17331],[15.03559,58.17109],[15.03231,58.17244],[15.03013,58.17423],[15.02915,58.17635],[15.02972,58.17921],[15.02733,58.18142],[15.02448,58.18167],[15.02145,58.18247],[15.01904,58.18372],[15.01765,58.18505],[15.01649,58.18791],[15.01652,58.1899],[15.01716,58.19123],[15.01701,58.19236],[15.01411,58.19566],[15.01324,58.19762],[15.01324,58.19907],[15.01451,58.20111],[15.01611,58.20225],[15.01765,58.20296],[15.0212,58.20399],[15.02319,58.20435],[15.02587,58.20451],[15.02898,58.20428],[15.03149,58.20701],[15.03411,58.20859],[15.03688,58.20953],[15.04087,58.21013],[15.04096,58.21064],[15.04314,58.21043]]]}},{"type":"Feature","id":"0560R003","properties":{"code":"0560R003","name":"Boxholm östra"},"geometry":{"type":"Polygon","coordinates":[[[15.05324,58.21621],[15.05867,58.21611],[15.06316,58.2153],[15.06638,58.21383],[15.06753,58.21289],[15.06839,58.21173],[15.07038,58.21116],[15.07247,58.2102],[15.07404,58.20899],[15.07519,58.207],[15.07688,58.20573],[15.07845,58.20382],[15.07926,58.20202],[15.07917,58.20058],[15.07812,58.19889],[15.076,58.19735],[15.07526,58.19604],[15.07395,58.19487],[15.07433,58.1933],[15.07415,58.19185],[15.07322,58.1902],[15.07177,58.18885],[15.07379,58.18421],[15.07405,58.18279],[15.07326,58.18079],[15.07303,58.1791],[15.07136,58.17709],[15.06845,58.17558],[15.06428,58.17466],[15.06196,58.17447],[15.05934,58.17454],[15.0568,58.17495],[15.05493,58.17554],[15.0505,58.17216],[15.04801,58.17094],[15.04421,58.1701],[15.04019,58.17007],[15.03757,58.1705],[15.03559,58.17109],[15.03892,58.17331],[15.04631,58.17899],[15.04848,58.18168],[15.04859,58.1855],[15.04935,58.1878],[15.05425,58.19412],[15.05534,58.19512],[15.05547,58.19621],[15.0583,58.1977],[15.05815,58.19886],[15.05885,58.19896],[15.0587,58.19955],[15.05802,58.1996],[15.05784,58.19991],[15.05848,58.20012],[15.05766,58.20067],[15.05751,58.20195],[15.05778,58.2033],[15.05746,58.20363],[15.05431,58.2045],[15.05412,58.20502],[15.05246,58.20515],[15.05097,58.20501],[15.04791,58.20685],[15.04362,58.20879],[15.04314,58.21043],[15.04096,58.21064],[15.04219,58.21258],[15.04373,58.21373],[15.04519,58.21449],[15.04735,58.21536],[15.04918,58.21584],[15.05324,58.21621]]]}}]}