{"type":"FeatureCollection","features":[{"type":"Feature","id":"0561R001","properties":{"code":"0561R001","name":"Åtvidaberg centrum nordost"},"geometry":{"type":"Polygon","coordinates":[[[16.01986,58.22713],[16.02662,58.22696],[16.02915,58.22647],[16.03314,58.22536],[16.03687,58.22383],[16.04054,58.22308],[16.04305,58.222],[16.04068,58.21753],[16.045,58.2158],[16.04879,58.21252],[16.04756,58.21115],[16.04627,58.21024],[16.04468,58.20949],[16.04226,58.20878],[16.04004,58.20844],[16.03727,58.20835],[16.03517,58.20854],[16.0329,58.209],[16.02971,58.20792],[16.02617,58.2074],[16.02579,58.20649],[16.02731,58.20552],[16.02834,58.20452],[16.02927,58.20243],[16.02915,58.20097],[16.02835,58.19958],[16.02789,58.19754],[16.02848,58.19629],[16.02148,58.19653],[16.01765,58.19794],[16.01148,58.19922],[16.01062,58.19794],[16.00939,58.19748],[16.00673,58.19794],[16.00307,58.19792],[16.00145,58.19837],[16.00077,58.1994],[15.99934,58.19972],[15.99752,58.20072],[15.99674,58.19935],[15.99515,58.19837],[15.99386,58.19893],[15.99529,58.20004],[15.99512,58.2011],[15.99136,58.20275],[15.98932,58.2045],[15.99037,58.20526],[15.98995,58.20669],[15.98004,58.20659],[15.97334,58.20536],[15.97092,58.20518],[15.96886,58.20542],[15.95942,58.20758],[15.96095,58.20836],[15.96308,58.20909],[15.96246,58.21023],[15.96232,58.21165],[15.96269,58.21274],[15.96373,58.21405],[15.96511,58.21521],[15.96654,58.21604],[15.9687,58.21797],[15.97187,58.21948],[15.97725,58.22082],[15.97991,58.22104],[15.98196,58.22098],[15.98593,58.22021],[15.98895,58.2202],[15.99147,58.21981],[15.99716,58.21791],[15.99905,58.21704],[16.00076,58.21753],[16.00302,58.2179],[16.00321,58.2195],[16.00409,58.22084],[16.00593,58.22232],[16.00782,58.22334],[16.01279,58.22489],[16.01488,58.22598],[16.01718,58.22671],[16.01986,58.22713]]]}},{"type":"Feature","id":"0561R002","properties":{"code":"0561R002","name":"Åtvidaberg centrum sydväst"},"geometry":{"type":"Polygon","coordinates":[[[15.97026,58.20522],[15.97276,58.20527],[15.98004,58.20659],[15.98995,58.20669],[15.99037,58.20526],[15.98932,58.2045],[15.99136,58.20275],[15.99512,58.2011],[15.99529,58.20004],[15.99386,58.19893],[15.99515,58.19837],[15.99674,58.19935],[15.99752,58.20072],[15.99934,58.19972],[16.00077,58.1994],[16.00145,58.19837],[16.00307,58.19792],[16.00673,58.19794],[16.00939,58.19748],[16.01062,58.19794],[16.01148,58.19922],[16.01765,58.19794],[16.02148,58.19653],[16.02848,58.19629],[16.03032,58.19432],[16.03103,58.19239],[16.03238,58.19115],[16.03354,58.18908],[16.03349,58.18727],[16.03204,58.18527],[16.03034,58.18416],[16.02813,58.1833],[16.02563,58.18278],[16.02313,58.18259],[16.0222,58.18133],[16.02106,58.18043],[16.01793,58.17873],[16.01563,58.17795],[16.01303,58.1775],[16.01023,58.1774],[16.00754,58.17767],[16.0051,58.17828],[16.00034,58.1806],[15.99839,58.18252],[15.99664,58.18294],[15.99453,58.18297],[15.99202,58.18331],[15.98789,58.18466],[15.98596,58.18575],[15.98308,58.18827],[15.97256,58.18967],[15.97007,58.1905],[15.96761,58.19188],[15.96626,58.19322],[15.96559,58.19465],[15.96563,58.19621],[15.96618,58.19735],[15.96477,58.19809],[15.96117,58.19911],[15.95879,58.20038],[15.9572,58.20209],[15.95676,58.20423],[15.95754,58.20594],[15.95942,58.20758],[15.96717,58.20577],[15.97026,58.20522]]]}},{"type":"Feature","id":"0561R003","properties":{"code":"0561R003","name":"Åtvidaberg nord"},"geometry":{"type":"Polygon","coordinates":[[[16.05896,58.37339],[16.06419,58.37349],[16.07527,58.37182],[16.07599,58.36414],[16.08476,58.35342],[16.09365,58.35552],[16.09763,58.35623],[16.10513,58.35638],[16.11157,58.35423],[16.11539,58.35223],[16.12205,58.35113],[16.12476,58.34992],[16.12738,58.3477],[16.1292,58.34742],[16.13196,58.34577],[16.13785,58.34494],[16.14189,58.3441],[16.15025,58.33944],[16.15798,58.33782],[16.16459,58.33434],[16.1687,58.33421],[16.16993,58.33307],[16.17184,58.33257],[16.17246,58.33216],[16.17367,58.33183],[16.17578,58.33086],[16.17752,58.33058],[16.1923,58.32478],[16.18908,58.3181],[16.20223,58.3176],[16.21409,58.31249],[16.22495,58.31595],[16.2301,58.317],[16.25074,58.3161],[16.26795,58.31399],[16.27769,58.31047],[16.30149,58.30612],[16.30181,58.30143],[16.31116,58.29462],[16.31101,58.29305],[16.31347,58.29317],[16.31201,58.28834],[16.31114,58.28771],[16.31074,58.28767],[16.30981,58.28583],[16.31112,58.2848],[16.31199,58.26638],[16.30778,58.24788],[16.3147,58.23693],[16.30081,58.23367],[16.29086,58.23164],[16.28771,58.23032],[16.27765,58.22962],[16.27476,58.2257],[16.27331,58.22593],[16.27143,58.22571],[16.26974,58.22577],[16.26761,58.22487],[16.26215,58.22465],[16.25819,58.22402],[16.25039,58.22275],[16.24486,58.22115],[16.2368,58.21963],[16.23168,58.22008],[16.22815,58.21701],[16.21371,58.21848],[16.21317,58.21783],[16.21237,58.21779],[16.21077,58.21719],[16.20439,58.21387],[16.20023,58.21553],[16.19622,58.21875],[16.1822,58.22261],[16.17933,58.22436],[16.17501,58.22596],[16.16535,58.22892],[16.15019,58.22913],[16.14558,58.2281],[16.13841,58.22767],[16.13462,58.22804],[16.13258,58.22782],[16.12961,58.228],[16.12225,58.22892],[16.1128,58.23288],[16.11111,58.23809],[16.10721,58.23751],[16.1072,58.23631],[16.10644,58.23577],[16.10616,58.2357],[16.10452,58.23608],[16.1038,58.23516],[16.10234,58.23516],[16.10205,58.2353],[16.10096,58.23393],[16.09992,58.23408],[16.10034,58.23372],[16.10222,58.23362],[16.10623,58.23274],[16.10787,58.23103],[16.1012,58.2285],[16.09437,58.22692],[16.09277,58.22589],[16.08758,58.224],[16.08821,58.22362],[16.08889,58.22359],[16.08935,58.22315],[16.08058,58.21874],[16.07421,58.21736],[16.07962,58.2052],[16.07614,58.20358],[16.07123,58.20286],[16.06917,58.19701],[16.06647,58.19077],[16.06416,58.18668],[16.06479,58.18639],[16.06411,58.18569],[16.06442,58.18501],[16.06413,58.18406],[16.06347,58.18365],[16.06337,58.18251],[16.06295,58.18206],[16.06188,58.18168],[16.06044,58.18048],[16.05728,58.17729],[16.05626,58.17518],[16.05762,58.17267],[16.05418,58.17321],[16.05326,58.17501],[16.04613,58.17646],[16.04595,58.17609],[16.05092,58.17112],[16.05673,58.16634],[16.05721,58.16647],[16.05735,58.16604],[16.05701,58.16609],[16.05848,58.16473],[16.06158,58.16576],[16.06419,58.16426],[16.0602,58.1631],[16.05784,58.15963],[16.06401,58.14781],[16.0649,58.14523],[16.06774,58.14267],[16.07512,58.1342],[16.08121,58.1305],[16.08536,58.12665],[16.08274,58.12513],[16.08039,58.11648],[16.08194,58.10288],[16.08725,58.09972],[16.08674,58.09889],[16.08757,58.09833],[16.08908,58.09865],[16.09729,58.09376],[16.08136,58.09022],[16.07614,58.08738],[16.0651,58.08481],[16.06207,58.08433],[16.06396,58.0827],[16.06421,58.08004],[16.06498,58.07793],[16.06537,58.07737],[16.06597,58.07718],[16.06989,58.06992],[16.05671,58.07114],[16.03705,58.07331],[16.02722,58.07372],[16.02212,58.07971],[16.01452,58.08557],[16.0389,58.10134],[16.04316,58.10446],[16.03401,58.10297],[16.03381,58.10258],[16.03289,58.10224],[16.03134,58.1023],[16.02996,58.10104],[16.02949,58.10091],[16.02682,58.10302],[16.02569,58.10339],[16.0239,58.10527],[16.01952,58.10538],[16.01826,58.10511],[16.00761,58.10552],[15.99546,58.11838],[15.98385,58.11595],[15.97994,58.11493],[15.97775,58.11713],[15.98003,58.12222],[15.97868,58.12498],[15.97534,58.12631],[15.97312,58.13406],[15.96897,58.1404],[15.96314,58.1428],[15.9508,58.14716],[15.94428,58.15309],[15.91855,58.16287],[15.89832,58.16382],[15.89516,58.17082],[15.89725,58.17102],[15.89349,58.1741],[15.89278,58.17412],[15.89217,58.17463],[15.89101,58.17622],[15.88909,58.17781],[15.88871,58.1784],[15.88888,58.17875],[15.87961,58.18888],[15.8617,58.19696],[15.84587,58.19463],[15.83676,58.19863],[15.81897,58.19666],[15.81854,58.20044],[15.81543,58.2061],[15.82046,58.2072],[15.8279,58.20977],[15.82811,58.21232],[15.83288,58.22198],[15.83835,58.22913],[15.82776,58.24464],[15.82328,58.24705],[15.82012,58.25029],[15.82341,58.25913],[15.82738,58.25898],[15.83509,58.26308],[15.83165,58.2699],[15.81694,58.27814],[15.80754,58.27792],[15.80696,58.28111],[15.80289,58.28217],[15.80266,58.28288],[15.80025,58.28383],[15.79671,58.28609],[15.80583,58.28833],[15.80798,58.28945],[15.81034,58.2902],[15.81084,58.29105],[15.81302,58.29096],[15.81441,58.2927],[15.81569,58.29317],[15.81515,58.29401],[15.81574,58.2945],[15.81547,58.29697],[15.81355,58.30021],[15.81357,58.30089],[15.81133,58.30108],[15.81004,58.30153],[15.80779,58.30339],[15.80548,58.306],[15.8059,58.3063],[15.80221,58.3084],[15.80253,58.30894],[15.80361,58.30939],[15.80439,58.31033],[15.80519,58.31061],[15.80694,58.31072],[15.80683,58.31134],[15.80655,58.31146],[15.80759,58.31354],[15.81025,58.31554],[15.82035,58.31227],[15.82259,58.31517],[15.82127,58.31665],[15.8224,58.31703],[15.82238,58.31724],[15.82581,58.31768],[15.82605,58.31799],[15.82713,58.31841],[15.83048,58.31946],[15.83372,58.32134],[15.83447,58.32118],[15.83566,58.32199],[15.83649,58.32218],[15.84189,58.32445],[15.84199,58.32587],[15.84324,58.32648],[15.85054,58.3285],[15.86121,58.32865],[15.86455,58.32903],[15.86497,58.32917],[15.86828,58.33224],[15.86972,58.33162],[15.87002,58.33088],[15.88094,58.33436],[15.88576,58.33302],[15.88763,58.33431],[15.88758,58.33468],[15.88947,58.33591],[15.88918,58.33638],[15.88952,58.33728],[15.89121,58.33844],[15.89473,58.33948],[15.89561,58.34014],[15.89527,58.34101],[15.896,58.34106],[15.89512,58.34219],[15.8953,58.34247],[15.8971,58.34379],[15.90194,58.34647],[15.9082,58.34566],[15.91278,58.34258],[15.92929,58.33554],[15.93411,58.33495],[15.93804,58.33666],[15.94227,58.33803],[15.94291,58.33791],[15.94338,58.33887],[15.94277,58.33947],[15.95236,58.34047],[15.95331,58.34071],[15.95625,58.34075],[15.95787,58.34049],[15.9628,58.34117],[15.96287,58.34267],[15.95446,58.34461],[15.95026,58.34521],[15.94851,58.34584],[15.94688,58.34694],[15.94668,58.34812],[15.94916,58.34834],[15.95273,58.34752],[15.95917,58.34957],[15.96804,58.3496],[15.9683,58.35121],[15.97223,58.35163],[15.97598,58.35357],[15.99696,58.36062],[15.9918,58.36536],[15.99564,58.36583],[15.99701,58.36515],[15.99784,58.36499],[16.0126,58.36568],[16.02025,58.36501],[16.02629,58.3677],[16.03541,58.3704],[16.04334,58.3714],[16.05103,58.37376],[16.05498,58.37404],[16.05896,58.37339]],[[16.00442,58.22116],[16.00321,58.2195],[16.00302,58.2179],[16.00076,58.21753],[15.99905,58.21704],[15.99716,58.21791],[15.99147,58.21981],[15.98895,58.2202],[15.98593,58.22021],[15.98196,58.22098],[15.97926,58.22102],[15.9772,58.22081],[15.97499,58.22036],[15.97128,58.21928],[15.9687,58.21797],[15.96654,58.21604],[15.96511,58.21521],[15.9634,58.21372],[15.96267,58.21271],[15.96229,58.2113],[15.96246,58.21023],[15.96308,58.20909],[15.96042,58.20812],[15.95828,58.20674],[15.95695,58.20493],[15.95679,58.20315],[15.95751,58.20163],[15.95922,58.20008],[15.96117,58.19911],[15.96477,58.19809],[15.96618,58.19735],[15.96551,58.19543],[15.96605,58.19355],[15.96761,58.19188],[15.97007,58.1905],[15.97377,58.18941],[15.98308,58.18827],[15.98596,58.18575],[15.9884,58.18445],[15.99202,58.18331],[15.99453,58.18297],[15.99664,58.18294],[15.99839,58.18252],[15.9992,58.1815],[16.00077,58.18034],[16.00361,58.17888],[16.00566,58.17811],[16.00884,58.1775],[16.01169,58.17741],[16.01499,58.1778],[16.01793,58.17873],[16.02149,58.18073],[16.02313,58.18259],[16.02691,58.183],[16.02982,58.18392],[16.03204,58.18527],[16.03335,58.18691],[16.03365,58.18835],[16.03327,58.18975],[16.03238,58.19115],[16.03103,58.19239],[16.03034,58.19429],[16.02854,58.196],[16.02789,58.19754],[16.02835,58.19958],[16.02915,58.20097],[16.02927,58.20243],[16.02834,58.20452],[16.02731,58.20552],[16.02579,58.20649],[16.02617,58.2074],[16.02971,58.20792],[16.0329,58.209],[16.03517,58.20854],[16.03727,58.20835],[16.04004,58.20844],[16.04226,58.20878],[16.04468,58.20949],[16.04627,58.21024],[16.04756,58.21115],[16.04879,58.21252],[16.045,58.2158],[16.04068,58.21753],[16.04305,58.222],[16.04054,58.22308],[16.03687,58.22383],[16.03259,58.22554],[16.02792,58.22676],[16.02529,58.22707],[16.0212,58.22719],[16.01723,58.22672],[16.01488,58.22598],[16.01279,58.22489],[16.00782,58.22334],[16.00634,58.22259],[16.00442,58.22116]]]}},{"type":"Feature","id":"0561R004","properties":{"code":"0561R004","name":"Åtvidaberg syd"},"geometry":{"type":"Polygon","coordinates":[[[16.35357,58.26233],[16.36471,58.25891],[16.38703,58.25334],[16.39713,58.24718],[16.40665,58.24599],[16.40872,58.24225],[16.41236,58.24107],[16.41549,58.23916],[16.42203,58.23922],[16.4256,58.23799],[16.43006,58.23511],[16.43889,58.23131],[16.43835,58.22828],[16.4415,58.22714],[16.45175,58.22469],[16.44833,58.22212],[16.45014,58.21605],[16.44654,58.21592],[16.43287,58.21008],[16.43796,58.20482],[16.44363,58.20047],[16.44389,58.19706],[16.43652,58.19457],[16.44429,58.19173],[16.44099,58.18811],[16.44068,58.18861],[16.43904,58.18934],[16.43893,58.18885],[16.43973,58.1878],[16.43996,58.18761],[16.44068,58.18777],[16.43782,58.18464],[16.43629,58.18446],[16.43647,58.18366],[16.43561,58.18318],[16.43402,58.1833],[16.43384,58.18319],[16.43402,58.18279],[16.43628,58.1828],[16.43297,58.17898],[16.4327,58.17786],[16.42917,58.17877],[16.42674,58.17991],[16.42552,58.18118],[16.42831,58.18164],[16.43718,58.19046],[16.43686,58.19061],[16.43548,58.19065],[16.4352,58.19104],[16.43133,58.19104],[16.42954,58.19026],[16.42707,58.18987],[16.42394,58.19183],[16.41818,58.19054],[16.40922,58.18484],[16.39766,58.17929],[16.39808,58.17859],[16.3964,58.1775],[16.3984,58.17717],[16.3991,58.17446],[16.40093,58.17354],[16.40347,58.17327],[16.40347,58.17259],[16.40448,58.17232],[16.4049,58.17142],[16.40641,58.17037],[16.40688,58.16911],[16.40666,58.16824],[16.40794,58.16738],[16.40866,58.16508],[16.4086,58.16415],[16.40979,58.1626],[16.41122,58.16181],[16.41039,58.16142],[16.40481,58.16068],[16.40641,58.15946],[16.40963,58.158],[16.41199,58.15648],[16.41326,58.15424],[16.41306,58.15201],[16.41231,58.14948],[16.41254,58.14847],[16.41117,58.14777],[16.41098,58.14729],[16.39531,58.14773],[16.39798,58.14103],[16.39747,58.13483],[16.39776,58.1295],[16.39222,58.129],[16.38627,58.13353],[16.37946,58.13213],[16.36339,58.13013],[16.35515,58.1274],[16.33254,58.11725],[16.31816,58.1207],[16.30345,58.12519],[16.29481,58.13164],[16.28369,58.13678],[16.26478,58.14244],[16.24074,58.136],[16.23708,58.13365],[16.23864,58.13161],[16.21346,58.11705],[16.21183,58.10815],[16.20361,58.10458],[16.19058,58.1042],[16.17745,58.11021],[16.16714,58.09891],[16.16772,58.09767],[16.16749,58.09667],[16.16621,58.09627],[16.1649,58.09556],[16.16439,58.09165],[16.16352,58.09005],[16.1627,58.08961],[16.17014,58.07781],[16.17065,58.07763],[16.17051,58.0772],[16.17824,58.0644],[16.16941,58.06296],[16.15785,58.06179],[16.14921,58.06183],[16.1285,58.08559],[16.11966,58.08609],[16.10775,58.08161],[16.10558,58.08143],[16.10444,58.081],[16.10422,58.08072],[16.09792,58.07908],[16.08235,58.07175],[16.06989,58.06992],[16.06597,58.07718],[16.06537,58.07737],[16.06498,58.07793],[16.06421,58.08004],[16.06396,58.0827],[16.06207,58.08433],[16.0651,58.08481],[16.07614,58.08738],[16.08136,58.09022],[16.09729,58.09376],[16.08908,58.09865],[16.08757,58.09833],[16.08674,58.09889],[16.08725,58.09972],[16.08194,58.10288],[16.08039,58.11648],[16.08274,58.12513],[16.08536,58.12665],[16.08121,58.1305],[16.07512,58.1342],[16.06774,58.14267],[16.0649,58.14523],[16.06401,58.14781],[16.05784,58.15963],[16.0602,58.1631],[16.06419,58.16426],[16.06158,58.16576],[16.05848,58.16473],[16.05701,58.16609],[16.05735,58.16604],[16.05721,58.16647],[16.05673,58.16634],[16.05092,58.17112],[16.04595,58.17609],[16.04613,58.17646],[16.05326,58.17501],[16.05418,58.17321],[16.05762,58.17267],[16.05626,58.17518],[16.05728,58.17729],[16.06044,58.18048],[16.06188,58.18168],[16.06295,58.18206],[16.06337,58.18251],[16.06347,58.18365],[16.06413,58.18406],[16.06442,58.18501],[16.06411,58.18569],[16.06479,58.18639],[16.06416,58.18668],[16.06647,58.19077],[16.06917,58.19701],[16.07123,58.20286],[16.07614,58.20358],[16.07962,58.2052],[16.07421,58.21736],[16.08058,58.21874],[16.08935,58.22315],[16.08889,58.22359],[16.08821,58.22362],[16.08758,58.224],[16.09277,58.22589],[16.09437,58.22692],[16.1012,58.2285],[16.10787,58.23103],[16.10623,58.23274],[16.10222,58.23362],[16.10034,58.23372],[16.09992,58.23408],[16.10096,58.23393],[16.10205,58.2353],[16.10234,58.23516],[16.1038,58.23516],[16.10452,58.23608],[16.10616,58.2357],[16.10644,58.23577],[16.1072,58.23631],[16.10721,58.23751],[16.11111,58.23809],[16.1128,58.23288],[16.12225,58.22892],[16.12961,58.228],[16.13258,58.22782],[16.13462,58.22804],[16.13841,58.22767],[16.14558,58.2281],[16.15019,58.22913],[16.16535,58.22892],[16.17501,58.22596],[16.17933,58.22436],[16.1822,58.22261],[16.19622,58.21875],[16.20023,58.21553],[16.20439,58.21387],[16.21077,58.21719],[16.21237,58.21779],[16.21317,58.21783],[16.21371,58.21848],[16.22815,58.21701],[16.23168,58.22008],[16.2368,58.21963],[16.24486,58.22115],[16.25039,58.22275],[16.25819,58.22402],[16.26215,58.22465],[16.26761,58.22487],[16.26974,58.22577],[16.27143,58.22571],[16.27331,58.22593],[16.27476,58.2257],[16.27765,58.22962],[16.28771,58.23032],[16.29086,58.23164],[16.30081,58.23367],[16.3147,58.23693],[16.30778,58.24788],[16.3119,58.2664],[16.32071,58.26454],[16.32658,58.27181],[16.35357,58.26233]]]}}]}