{"type":"FeatureCollection","features":[{"type":"Feature","id":"0562R001","properties":{"code":"0562R001","name":"Dunderbacken-Hårstorp"},"geometry":{"type":"Polygon","coordinates":[[[15.84202,58.71089],[15.84648,58.71155],[15.84899,58.71053],[15.85352,58.70827],[15.85904,58.70814],[15.85963,58.70761],[15.86099,58.70725],[15.86842,58.70642],[15.86705,58.70501],[15.86467,58.70375],[15.86218,58.70303],[15.85886,58.70263],[15.85513,58.70282],[15.85015,58.7037],[15.84732,58.70448],[15.84529,58.70534],[15.84607,58.70294],[15.8458,58.70114],[15.84441,58.69938],[15.84215,58.69802],[15.83889,58.69699],[15.83215,58.69605],[15.83011,58.69674],[15.82887,58.69684],[15.82859,58.69753],[15.82803,58.69754],[15.82672,58.69652],[15.82521,58.69626],[15.82449,58.69642],[15.82357,58.69739],[15.82208,58.70174],[15.82241,58.70426],[15.81868,58.70468],[15.81787,58.70506],[15.81672,58.70528],[15.81657,58.70508],[15.81551,58.70514],[15.81482,58.70636],[15.8111,58.70699],[15.80855,58.70691],[15.80821,58.70795],[15.80608,58.70934],[15.80609,58.71165],[15.80732,58.71177],[15.81141,58.71272],[15.81887,58.71254],[15.83183,58.71154],[15.83743,58.71264],[15.84202,58.71089]]]}},{"type":"Feature","id":"0562R002","properties":{"code":"0562R002","name":"Finspång centrala-Svälthagen"},"geometry":{"type":"Polygon","coordinates":[[[15.7596,58.7225],[15.75973,58.72072],[15.76103,58.7198],[15.76462,58.71797],[15.76549,58.71673],[15.76692,58.71568],[15.77348,58.71266],[15.77391,58.71215],[15.77397,58.71075],[15.77469,58.71081],[15.77575,58.70992],[15.77654,58.70961],[15.77599,58.7094],[15.7762,58.70926],[15.77845,58.70833],[15.77963,58.70726],[15.7814,58.70482],[15.77808,58.70444],[15.77565,58.70479],[15.76643,58.70439],[15.7575,58.70475],[15.7431,58.70437],[15.74024,58.70444],[15.73492,58.70357],[15.7323,58.70351],[15.73108,58.70219],[15.73055,58.70282],[15.72932,58.70312],[15.72679,58.70331],[15.7255,58.70319],[15.72655,58.70451],[15.72822,58.70567],[15.73036,58.70655],[15.73291,58.70714],[15.73287,58.7079],[15.73159,58.70979],[15.73125,58.71275],[15.73212,58.71459],[15.73438,58.71638],[15.73618,58.71716],[15.73868,58.71783],[15.74079,58.71811],[15.74542,58.71836],[15.74874,58.72076],[15.75049,58.72154],[15.75252,58.72214],[15.75591,58.72261],[15.7596,58.7225]]]}},{"type":"Feature","id":"0562R003","properties":{"code":"0562R003","name":"Finspång omland"},"geometry":{"type":"Polygon","coordinates":[[[15.86545,58.99056],[15.87545,58.98932],[15.87862,58.99025],[15.88339,58.98752],[15.88351,58.98261],[15.88244,58.97915],[15.88877,58.97772],[15.89662,58.97381],[15.89997,58.97054],[15.91153,58.96241],[15.92976,58.96078],[15.93808,58.95636],[15.95017,58.95336],[15.96741,58.94716],[15.99361,58.93732],[15.99615,58.93668],[16.03576,58.92797],[16.04754,58.92774],[16.05385,58.92742],[16.06311,58.92366],[16.06574,58.92287],[16.06702,58.92307],[16.08221,58.91954],[16.08127,58.9184],[16.08166,58.91779],[16.08129,58.91741],[16.08304,58.9159],[16.08514,58.91409],[16.09076,58.91212],[16.0889,58.91061],[16.08892,58.90829],[16.09382,58.90573],[16.09437,58.90377],[16.08768,58.90403],[16.09181,58.9016],[16.09914,58.8993],[16.10029,58.89404],[16.10108,58.89351],[16.10261,58.89159],[16.10199,58.89048],[16.10242,58.88901],[16.10213,58.88796],[16.10218,58.88579],[16.10828,58.88531],[16.10928,58.88582],[16.1121,58.88541],[16.11235,58.88491],[16.1136,58.88482],[16.11367,58.88496],[16.11536,58.88418],[16.11781,58.88377],[16.11866,58.88275],[16.11966,58.88247],[16.11855,58.88191],[16.11938,58.88155],[16.12012,58.8816],[16.12303,58.88107],[16.12393,58.88134],[16.12416,58.88076],[16.12548,58.88032],[16.1256,58.88064],[16.12695,58.88041],[16.12744,58.87957],[16.12867,58.87943],[16.12863,58.87927],[16.12954,58.87925],[16.13004,58.87868],[16.1305,58.87873],[16.13138,58.87797],[16.13207,58.87808],[16.13222,58.87768],[16.1332,58.87755],[16.13517,58.87683],[16.13828,58.87655],[16.14147,58.87551],[16.14421,58.87498],[16.14797,58.87189],[16.14932,58.87096],[16.15184,58.86971],[16.15735,58.8674],[16.16609,58.86332],[16.16925,58.86229],[16.17267,58.86177],[16.18025,58.85848],[16.18216,58.85686],[16.17877,58.85488],[16.18234,58.85388],[16.17933,58.8447],[16.14,58.8267],[16.13069,58.82503],[16.13087,58.82445],[16.12841,58.82408],[16.12615,58.82293],[16.12247,58.82246],[16.12128,58.82188],[16.11862,58.82006],[16.1141,58.82194],[16.11146,58.82246],[16.10337,58.82521],[16.09326,58.81728],[16.0995,58.80344],[16.09317,58.80579],[16.08963,58.80588],[16.089,58.8045],[16.09001,58.80336],[16.09145,58.80285],[16.09343,58.80153],[16.07582,58.7979],[16.07363,58.79738],[16.07264,58.7969],[16.07587,58.7938],[16.07845,58.78967],[16.08246,58.77252],[16.07542,58.77233],[16.05207,58.76603],[16.03023,58.7527],[16.01586,58.74577],[16.02631,58.73473],[16.02172,58.73035],[16.01409,58.7137],[15.99988,58.71565],[15.99127,58.71566],[15.99047,58.721],[15.99229,58.72151],[15.98308,58.73221],[15.96933,58.73153],[15.94917,58.74103],[15.95003,58.74938],[15.92801,58.75946],[15.91679,58.76765],[15.91398,58.77408],[15.92065,58.77995],[15.92335,58.77917],[15.89647,58.7957],[15.88445,58.7983],[15.87428,58.803],[15.87302,58.80779],[15.8755,58.81003],[15.85942,58.81501],[15.84469,58.81823],[15.83434,58.81879],[15.81843,58.8202],[15.80165,58.81777],[15.79721,58.81604],[15.7862,58.81265],[15.76679,58.8116],[15.74706,58.8188],[15.73103,58.81466],[15.7305,58.815],[15.71774,58.81884],[15.70742,58.82157],[15.70338,58.82244],[15.69093,58.82425],[15.68349,58.81851],[15.6781,58.81527],[15.67403,58.81163],[15.67162,58.80837],[15.67315,58.80674],[15.67382,58.80709],[15.67744,58.80652],[15.67826,58.80669],[15.68336,58.80632],[15.68789,58.80626],[15.69047,58.80573],[15.69512,58.80528],[15.69874,58.80463],[15.70107,58.80376],[15.7035,58.8032],[15.70583,58.80318],[15.70899,58.80202],[15.71081,58.8016],[15.70796,58.79499],[15.71208,58.79419],[15.71565,58.79393],[15.72054,58.79266],[15.72677,58.79042],[15.73664,58.78826],[15.73597,58.78645],[15.75394,58.76977],[15.75421,58.76633],[15.7661,58.7553],[15.77629,58.75444],[15.78008,58.75222],[15.78696,58.74582],[15.78744,58.74188],[15.78412,58.73868],[15.78075,58.73849],[15.78205,58.73436],[15.78609,58.72797],[15.79494,58.72147],[15.79145,58.72082],[15.78658,58.71942],[15.78388,58.7206],[15.78064,58.72126],[15.77685,58.72154],[15.77341,58.72134],[15.77066,58.72146],[15.76803,58.72228],[15.76456,58.72273],[15.76216,58.72273],[15.75994,58.7225],[15.75526,58.72256],[15.75252,58.72214],[15.74996,58.72134],[15.74788,58.72024],[15.74542,58.71836],[15.74079,58.71811],[15.7379,58.71767],[15.7355,58.71691],[15.73315,58.71558],[15.73181,58.71419],[15.73122,58.71241],[15.73162,58.70969],[15.73287,58.7079],[15.73291,58.70714],[15.72981,58.70637],[15.72692,58.70483],[15.7255,58.7032],[15.72516,58.70126],[15.72104,58.69876],[15.71999,58.69745],[15.71961,58.69601],[15.71993,58.6946],[15.72102,58.6931],[15.72112,58.69093],[15.72226,58.68925],[15.72426,58.68779],[15.7277,58.68606],[15.72992,58.68522],[15.7321,58.68471],[15.73044,58.68312],[15.7297,58.68089],[15.72987,58.67981],[15.73103,58.67752],[15.73111,58.6756],[15.73193,58.67424],[15.73341,58.67302],[15.73597,58.67184],[15.74038,58.67093],[15.74281,58.67022],[15.74604,58.66985],[15.74949,58.67002],[15.75215,58.67049],[15.75459,58.67132],[15.75676,58.67256],[15.76163,58.67359],[15.76421,58.67481],[15.76612,58.67668],[15.76656,58.67883],[15.76614,58.68019],[15.76546,58.68113],[15.76697,58.68203],[15.76825,58.68328],[15.76879,58.68432],[15.76924,58.68665],[15.76901,58.68809],[15.7681,58.68943],[15.7667,58.69056],[15.76505,58.69146],[15.76314,58.69323],[15.76674,58.69322],[15.76957,58.6935],[15.77295,58.69288],[15.77662,58.69282],[15.77889,58.69309],[15.78117,58.69365],[15.78351,58.6936],[15.78563,58.69379],[15.78754,58.69415],[15.78943,58.69475],[15.79159,58.69324],[15.79428,58.69228],[15.79429,58.69144],[15.79582,58.68887],[15.79743,58.68466],[15.79843,58.68303],[15.79971,58.68202],[15.80071,58.68005],[15.80418,58.67767],[15.80568,58.67425],[15.80714,58.66945],[15.81413,58.66659],[15.82079,58.66277],[15.82196,58.66239],[15.82648,58.65992],[15.83698,58.65323],[15.83847,58.65297],[15.8444,58.64782],[15.84795,58.64726],[15.8502,58.64616],[15.85329,58.64534],[15.85834,58.64323],[15.86172,58.63269],[15.86435,58.63095],[15.85459,58.63203],[15.84366,58.62866],[15.82151,58.63435],[15.8198,58.6342],[15.81535,58.63325],[15.81297,58.63254],[15.81066,58.6323],[15.80965,58.63317],[15.80897,58.63338],[15.80073,58.63363],[15.79223,58.63201],[15.79089,58.63898],[15.77609,58.64826],[15.76767,58.65149],[15.75255,58.65385],[15.74675,58.65411],[15.74418,58.65341],[15.74026,58.65509],[15.73187,58.65653],[15.71904,58.6546],[15.69903,58.65436],[15.69084,58.65541],[15.68682,58.65694],[15.68113,58.65752],[15.6801,58.65669],[15.67469,58.65498],[15.67122,58.65335],[15.66732,58.65093],[15.66223,58.64724],[15.65862,58.64041],[15.63215,58.6406],[15.61843,58.64504],[15.61754,58.64423],[15.62481,58.63484],[15.62703,58.61417],[15.61839,58.61511],[15.61341,58.62066],[15.60707,58.62689],[15.59873,58.63271],[15.58903,58.63365],[15.58011,58.63634],[15.57281,58.62159],[15.56658,58.61259],[15.52634,58.60017],[15.53608,58.60552],[15.53222,58.61315],[15.53433,58.61561],[15.53398,58.61796],[15.53476,58.61867],[15.53175,58.62167],[15.53543,58.62806],[15.53703,58.62767],[15.53842,58.62933],[15.53913,58.63102],[15.54082,58.63301],[15.54016,58.63864],[15.53971,58.64006],[15.52792,58.63976],[15.51925,58.63992],[15.5131,58.63929],[15.5039,58.6368],[15.49476,58.6358],[15.48832,58.63469],[15.48379,58.64331],[15.4772,58.64746],[15.47417,58.64623],[15.47034,58.64331],[15.46795,58.64551],[15.46675,58.64715],[15.46661,58.64881],[15.46443,58.65063],[15.46711,58.65298],[15.47145,58.65581],[15.47378,58.65969],[15.47628,58.6614],[15.47527,58.67056],[15.47653,58.67434],[15.47748,58.67506],[15.47796,58.67675],[15.47945,58.67803],[15.49176,58.6813],[15.49044,58.6831],[15.49013,58.68307],[15.49032,58.68326],[15.48938,58.68478],[15.48963,58.68534],[15.48944,58.68577],[15.48571,58.6892],[15.4839,58.69004],[15.48254,58.69111],[15.48203,58.69264],[15.4821,58.69398],[15.47945,58.69732],[15.48103,58.69857],[15.48367,58.69913],[15.48508,58.69987],[15.48701,58.70025],[15.48727,58.70011],[15.49018,58.70033],[15.49367,58.70129],[15.49523,58.7013],[15.49155,58.70604],[15.48919,58.7072],[15.49625,58.70868],[15.49457,58.71936],[15.49915,58.73185],[15.48955,58.73509],[15.48148,58.73462],[15.47848,58.73541],[15.47326,58.74773],[15.46998,58.75277],[15.45489,58.75808],[15.45192,58.7596],[15.45129,58.76109],[15.44558,58.7647],[15.44606,58.76497],[15.44625,58.76548],[15.44745,58.76591],[15.44807,58.76653],[15.44858,58.7667],[15.44515,58.77417],[15.44569,58.77665],[15.44873,58.77716],[15.44572,58.78015],[15.43822,58.78372],[15.44504,58.78693],[15.42305,58.79017],[15.42098,58.79932],[15.41108,58.80556],[15.41299,58.80601],[15.41358,58.8069],[15.42938,58.81456],[15.42501,58.81822],[15.42427,58.82199],[15.43094,58.8232],[15.45402,58.82106],[15.45387,58.82549],[15.45126,58.83251],[15.45223,58.83719],[15.45135,58.83998],[15.44813,58.84502],[15.44677,58.84655],[15.44562,58.84918],[15.44465,58.8503],[15.44449,58.85177],[15.44358,58.85195],[15.4442,58.85328],[15.44603,58.8535],[15.44065,58.86417],[15.46921,58.86363],[15.47527,58.86249],[15.49185,58.86592],[15.508,58.86386],[15.53074,58.86455],[15.53285,58.86539],[15.53696,58.86662],[15.53716,58.86767],[15.53829,58.86779],[15.53826,58.86862],[15.53869,58.8693],[15.54257,58.87139],[15.54515,58.87193],[15.55399,58.87047],[15.55961,58.8868],[15.56329,58.89413],[15.57802,58.895],[15.58599,58.8965],[15.59404,58.90558],[15.59387,58.9064],[15.59325,58.9067],[15.59337,58.90714],[15.59228,58.9077],[15.59316,58.90933],[15.59155,58.91188],[15.58355,58.91915],[15.57182,58.92731],[15.55839,58.94098],[15.55528,58.9552],[15.55461,58.95525],[15.55497,58.9564],[15.58064,58.95961],[15.59035,58.95955],[15.60306,58.96828],[15.62908,58.98318],[15.63004,58.98294],[15.63299,58.98132],[15.63464,58.98],[15.63448,58.97965],[15.63512,58.97946],[15.63639,58.97851],[15.63764,58.97614],[15.63849,58.97587],[15.63868,58.97554],[15.64158,58.97392],[15.6578,58.97502],[15.67766,58.97419],[15.68187,58.97525],[15.68754,58.98091],[15.6877,58.98548],[15.68719,58.98939],[15.68751,58.98923],[15.68776,58.98821],[15.68891,58.98798],[15.69096,58.98666],[15.69305,58.9865],[15.70083,58.98505],[15.70316,58.98485],[15.70497,58.9852],[15.70548,58.98593],[15.70524,58.98658],[15.71031,58.98745],[15.71229,58.9874],[15.72074,58.98958],[15.72256,58.98859],[15.72453,58.98637],[15.72719,58.98457],[15.72804,58.98363],[15.72734,58.98269],[15.7258,58.98174],[15.72571,58.98009],[15.72969,58.97631],[15.73306,58.97384],[15.73505,58.97007],[15.73625,58.96629],[15.74268,58.95646],[15.74121,58.95097],[15.76443,58.95654],[15.76446,58.95785],[15.76319,58.95927],[15.76182,58.96374],[15.76428,58.96421],[15.7643,58.96476],[15.7668,58.96653],[15.76749,58.96656],[15.76973,58.96552],[15.77239,58.96512],[15.77396,58.96545],[15.77275,58.9664],[15.77553,58.96736],[15.77852,58.96764],[15.77944,58.96862],[15.7804,58.96922],[15.78074,58.96988],[15.78011,58.97556],[15.78221,58.98482],[15.79227,58.99038],[15.79683,58.99534],[15.80056,58.9977],[15.80517,59.00104],[15.80693,59.00268],[15.80686,59.01071],[15.80734,59.01249],[15.81537,59.01875],[15.82075,59.01843],[15.8429,59.01494],[15.86107,59.00507],[15.8721,58.99953],[15.86545,58.99056]]]}},{"type":"Feature","id":"0562R008","properties":{"code":"0562R008","name":"Storängen"},"geometry":{"type":"Polygon","coordinates":[[[15.80608,58.70934],[15.80821,58.70795],[15.80855,58.70691],[15.8111,58.70699],[15.81482,58.70636],[15.81551,58.70514],[15.81657,58.70508],[15.81672,58.70528],[15.81787,58.70506],[15.81868,58.70468],[15.82241,58.70426],[15.82208,58.70174],[15.82357,58.69739],[15.82449,58.69642],[15.82521,58.69626],[15.82672,58.69652],[15.82803,58.69754],[15.82859,58.69753],[15.82887,58.69684],[15.83011,58.69674],[15.83215,58.69605],[15.82612,58.69534],[15.8232,58.69439],[15.81916,58.69373],[15.81639,58.69293],[15.81375,58.69247],[15.80917,58.69236],[15.80551,58.69267],[15.80172,58.69189],[15.79908,58.69171],[15.79634,58.69189],[15.79428,58.69228],[15.79356,58.69415],[15.79184,58.69709],[15.78855,58.69941],[15.79297,58.70221],[15.7935,58.70306],[15.79214,58.70331],[15.79285,58.70439],[15.7984,58.70335],[15.79851,58.70379],[15.79788,58.7045],[15.79833,58.70546],[15.79754,58.70613],[15.79814,58.7069],[15.79774,58.70767],[15.79825,58.7085],[15.80124,58.70817],[15.80474,58.7088],[15.8048,58.70912],[15.80524,58.70927],[15.80608,58.70934]]]}},{"type":"Feature","id":"0562R004","properties":{"code":"0562R004","name":"Grosvad-Butbro"},"geometry":{"type":"Polygon","coordinates":[[[15.83484,58.72467],[15.83702,58.72284],[15.83873,58.72236],[15.84205,58.722],[15.84556,58.72209],[15.84826,58.72187],[15.85082,58.7213],[15.85301,58.72041],[15.85469,58.71927],[15.85585,58.71777],[15.8589,58.71616],[15.86029,58.71463],[15.8626,58.71416],[15.86435,58.71358],[15.86707,58.71196],[15.86814,58.71065],[15.86885,58.70891],[15.8689,58.70754],[15.86842,58.70642],[15.86099,58.70725],[15.85963,58.70761],[15.85904,58.70814],[15.85352,58.70827],[15.84899,58.71053],[15.84648,58.71155],[15.84202,58.71089],[15.83743,58.71264],[15.83183,58.71154],[15.81887,58.71254],[15.81141,58.71272],[15.80732,58.71177],[15.80609,58.71165],[15.80608,58.70934],[15.8048,58.70912],[15.80474,58.7088],[15.80124,58.70817],[15.79264,58.70925],[15.79206,58.70946],[15.79209,58.71054],[15.79102,58.71058],[15.79132,58.71165],[15.78806,58.71185],[15.78512,58.7116],[15.78459,58.71207],[15.78583,58.71262],[15.78559,58.71288],[15.7867,58.71361],[15.78807,58.71365],[15.79353,58.71474],[15.7935,58.71523],[15.8013,58.71686],[15.79494,58.72147],[15.80057,58.72218],[15.80468,58.7223],[15.80674,58.72217],[15.81437,58.72054],[15.81609,58.71989],[15.81762,58.71901],[15.81835,58.72039],[15.81971,58.72162],[15.82166,58.72266],[15.82369,58.72336],[15.82804,58.72409],[15.83218,58.72403],[15.83484,58.72467]]]}},{"type":"Feature","id":"0562R005","properties":{"code":"0562R005","name":"Lotorp-Vistinge"},"geometry":{"type":"Polygon","coordinates":[[[15.70309,58.82248],[15.70742,58.82157],[15.71774,58.81884],[15.7305,58.815],[15.73103,58.81466],[15.74706,58.8188],[15.76679,58.8116],[15.7862,58.81265],[15.79721,58.81604],[15.80165,58.81777],[15.81843,58.8202],[15.83434,58.81879],[15.84469,58.81823],[15.85942,58.81501],[15.8755,58.81003],[15.87302,58.80779],[15.87428,58.803],[15.88445,58.7983],[15.89647,58.7957],[15.92335,58.77917],[15.92065,58.77995],[15.91398,58.77408],[15.91679,58.76765],[15.92801,58.75946],[15.95003,58.74938],[15.94917,58.74103],[15.96933,58.73153],[15.98308,58.73221],[15.99229,58.72151],[15.99047,58.721],[15.99127,58.71566],[15.99988,58.71565],[16.01409,58.7137],[16.00139,58.70736],[15.98796,58.69875],[15.98657,58.69929],[15.98667,58.70014],[15.98569,58.70012],[15.98469,58.69959],[15.98374,58.69936],[15.98349,58.69907],[15.98368,58.69846],[15.98531,58.69703],[15.98328,58.69385],[15.98817,58.6918],[15.99338,58.69102],[15.99265,58.68865],[15.99301,58.68797],[15.99581,58.68668],[15.99678,58.68701],[15.99797,58.68714],[15.99798,58.6857],[15.99991,58.68576],[16.00031,58.68421],[15.99925,58.68406],[15.99975,58.68328],[15.99962,58.68277],[16.00346,58.68213],[16.00844,58.68091],[16.01084,58.67944],[16.0129,58.67866],[16.00232,58.67607],[15.99669,58.67679],[15.99345,58.67944],[15.99589,58.68086],[15.9946,58.682],[15.99081,58.6811],[15.99112,58.6788],[15.99281,58.67715],[15.99276,58.67651],[15.9919,58.67539],[15.98824,58.67474],[15.98565,58.67587],[15.98218,58.67426],[15.97654,58.67107],[15.96734,58.66845],[15.95759,58.66536],[15.9472,58.66333],[15.95071,58.65203],[15.97727,58.62252],[15.89777,58.61575],[15.88891,58.62222],[15.8799,58.62919],[15.86435,58.63095],[15.86172,58.63269],[15.85834,58.64323],[15.85329,58.64534],[15.8502,58.64616],[15.84795,58.64726],[15.8444,58.64782],[15.83847,58.65297],[15.83698,58.65323],[15.82648,58.65992],[15.82196,58.66239],[15.82079,58.66277],[15.81413,58.66659],[15.80714,58.66945],[15.80568,58.67425],[15.80418,58.67767],[15.80071,58.68005],[15.79971,58.68202],[15.79843,58.68303],[15.79743,58.68466],[15.79582,58.68887],[15.79429,58.69144],[15.79428,58.69228],[15.79634,58.69189],[15.79908,58.69171],[15.80172,58.69189],[15.80551,58.69267],[15.80917,58.69236],[15.81375,58.69247],[15.81639,58.69293],[15.81916,58.69373],[15.8232,58.69439],[15.82612,58.69534],[15.83745,58.69674],[15.83963,58.69716],[15.84311,58.69849],[15.84537,58.70039],[15.8461,58.70259],[15.84529,58.70534],[15.8492,58.70391],[15.85444,58.70292],[15.85672,58.70267],[15.85886,58.70263],[15.86156,58.70291],[15.86405,58.70353],[15.86576,58.70423],[15.86774,58.70559],[15.86881,58.7072],[15.86885,58.70891],[15.86794,58.71098],[15.8667,58.71227],[15.8649,58.71334],[15.86264,58.71414],[15.86029,58.71463],[15.8589,58.71616],[15.85585,58.71777],[15.85432,58.71958],[15.85199,58.72089],[15.85019,58.72148],[15.84762,58.72196],[15.84556,58.72209],[15.84205,58.722],[15.83873,58.72236],[15.83702,58.72284],[15.83484,58.72467],[15.83218,58.72403],[15.82804,58.72409],[15.82494,58.72364],[15.82308,58.72318],[15.82111,58.72241],[15.81933,58.72134],[15.81833,58.72037],[15.81762,58.71901],[15.81609,58.71989],[15.81437,58.72054],[15.80674,58.72217],[15.80468,58.7223],[15.80057,58.72218],[15.79494,58.72147],[15.78609,58.72797],[15.78205,58.73436],[15.78075,58.73849],[15.78412,58.73868],[15.78744,58.74188],[15.78696,58.74582],[15.78008,58.75222],[15.77629,58.75444],[15.7661,58.7553],[15.75421,58.76633],[15.75394,58.76977],[15.73597,58.78645],[15.73664,58.78826],[15.72677,58.79042],[15.72054,58.79266],[15.71565,58.79393],[15.71208,58.79419],[15.70796,58.79499],[15.71081,58.8016],[15.70899,58.80202],[15.70583,58.80318],[15.7035,58.8032],[15.70107,58.80376],[15.69874,58.80463],[15.69512,58.80528],[15.69047,58.80573],[15.68789,58.80626],[15.68336,58.80632],[15.67826,58.80669],[15.67744,58.80652],[15.67382,58.80709],[15.67315,58.80674],[15.67165,58.80834],[15.67403,58.81163],[15.6781,58.81527],[15.68349,58.81851],[15.69093,58.82425],[15.70309,58.82248]]]}},{"type":"Feature","id":"0562R006","properties":{"code":"0562R006","name":"Norrmalm-Östermalm"},"geometry":{"type":"Polygon","coordinates":[[[15.76391,58.72275],[15.76742,58.7224],[15.77066,58.72146],[15.77341,58.72134],[15.77685,58.72154],[15.78133,58.72117],[15.78444,58.72042],[15.78658,58.71942],[15.79145,58.72082],[15.79494,58.72147],[15.8013,58.71686],[15.7935,58.71523],[15.79353,58.71474],[15.78807,58.71365],[15.7867,58.71361],[15.78559,58.71288],[15.78583,58.71262],[15.78459,58.71207],[15.78512,58.7116],[15.78806,58.71185],[15.79132,58.71165],[15.79102,58.71058],[15.79209,58.71054],[15.79206,58.70946],[15.79264,58.70925],[15.79825,58.7085],[15.79774,58.70767],[15.79814,58.7069],[15.79754,58.70613],[15.79833,58.70546],[15.79788,58.7045],[15.79851,58.70379],[15.7984,58.70335],[15.79285,58.70439],[15.79214,58.70331],[15.7935,58.70306],[15.79297,58.70221],[15.7885,58.69937],[15.78661,58.70229],[15.7851,58.7026],[15.78259,58.70364],[15.7814,58.70482],[15.77963,58.70726],[15.77845,58.70833],[15.7762,58.70926],[15.77599,58.7094],[15.77654,58.70961],[15.77575,58.70992],[15.77469,58.71081],[15.77397,58.71075],[15.77391,58.71215],[15.77348,58.71266],[15.76692,58.71568],[15.76549,58.71673],[15.76462,58.71797],[15.76103,58.7198],[15.75973,58.72072],[15.75972,58.7225],[15.76391,58.72275]]]}},{"type":"Feature","id":"0562R007","properties":{"code":"0562R007","name":"Nyhem"},"geometry":{"type":"Polygon","coordinates":[[[15.78259,58.70364],[15.7851,58.7026],[15.78661,58.70229],[15.7885,58.69937],[15.79184,58.69709],[15.79356,58.69415],[15.79428,58.69228],[15.79159,58.69324],[15.78943,58.69475],[15.78754,58.69415],[15.78563,58.69379],[15.78351,58.6936],[15.78117,58.69365],[15.77872,58.69306],[15.77596,58.69278],[15.77295,58.69288],[15.76957,58.6935],[15.76888,58.6934],[15.76315,58.69417],[15.75719,58.69897],[15.75543,58.70103],[15.75817,58.70165],[15.76061,58.70259],[15.76101,58.70343],[15.76381,58.70445],[15.76643,58.70439],[15.77565,58.70479],[15.77808,58.70444],[15.7814,58.70482],[15.78259,58.70364]]]}},{"type":"Feature","id":"0562R009","properties":{"code":"0562R009","name":"Viggestorp-Falla"},"geometry":{"type":"Polygon","coordinates":[[[15.75753,58.70474],[15.76381,58.70445],[15.76101,58.70343],[15.76061,58.70259],[15.75817,58.70165],[15.75543,58.70103],[15.75719,58.69897],[15.76315,58.69417],[15.76888,58.6934],[15.76668,58.69322],[15.76314,58.69323],[15.76505,58.69146],[15.7667,58.69056],[15.76808,58.68946],[15.76921,58.68739],[15.76889,58.68468],[15.76848,58.68363],[15.76733,58.68231],[15.76546,58.68113],[15.76642,58.67949],[15.76644,58.67738],[15.76564,58.67602],[15.76461,58.67508],[15.76163,58.67359],[15.75676,58.67256],[15.75459,58.67132],[15.75155,58.67035],[15.74805,58.66989],[15.74474,58.66994],[15.74281,58.67022],[15.74038,58.67093],[15.73597,58.67184],[15.73341,58.67302],[15.73193,58.67424],[15.73111,58.6756],[15.73103,58.67752],[15.72987,58.67981],[15.7297,58.68089],[15.73044,58.68312],[15.7321,58.68471],[15.72992,58.68522],[15.7277,58.68606],[15.72426,58.68779],[15.72226,58.68925],[15.72111,58.69095],[15.72102,58.6931],[15.71979,58.69494],[15.71983,58.69709],[15.72141,58.69907],[15.72516,58.70126],[15.7255,58.70319],[15.72679,58.70331],[15.72932,58.70312],[15.73055,58.70282],[15.73108,58.70219],[15.7323,58.70351],[15.73492,58.70357],[15.74024,58.70444],[15.7431,58.70437],[15.75753,58.70474]]]}}]}