{"type":"FeatureCollection","features":[{"type":"Feature","id":"0580R032","properties":{"code":"0580R032","name":"Åkerbo omland"},"geometry":{"type":"Polygon","coordinates":[[[15.83092,58.51726],[15.83351,58.51549],[15.84906,58.51759],[15.85636,58.51175],[15.875,58.51604],[15.88638,58.51412],[15.89257,58.51176],[15.90169,58.51321],[15.91751,58.51196],[15.92097,58.50402],[15.93372,58.497],[15.93454,58.49539],[15.93252,58.4917],[15.93208,58.4914],[15.92883,58.49266],[15.90646,58.48943],[15.9003,58.48892],[15.89983,58.48943],[15.89738,58.48898],[15.89811,58.48689],[15.90021,58.48559],[15.90402,58.48521],[15.90436,58.48465],[15.9076,58.48519],[15.90885,58.48346],[15.91066,58.48376],[15.91243,58.48142],[15.91396,58.48201],[15.9175,58.48197],[15.91847,58.48018],[15.90882,58.47641],[15.90913,58.47635],[15.91345,58.47802],[15.91535,58.47615],[15.91774,58.47573],[15.91736,58.4756],[15.91766,58.47515],[15.91898,58.47419],[15.92113,58.47366],[15.9246,58.4743],[15.93138,58.47484],[15.9323,58.47313],[15.93525,58.47211],[15.93736,58.47201],[15.94072,58.47117],[15.94627,58.47073],[15.94601,58.46957],[15.94952,58.46815],[15.95004,58.46831],[15.9519,58.4682],[15.95448,58.46706],[15.95535,58.4669],[15.96066,58.46768],[15.96344,58.46732],[15.96338,58.46463],[15.95618,58.46452],[15.95594,58.46418],[15.95681,58.4634],[15.9583,58.46255],[15.95846,58.46084],[15.95942,58.46008],[15.96116,58.46006],[15.9611,58.45968],[15.96139,58.45967],[15.96446,58.45645],[15.96535,58.45628],[15.96913,58.45306],[15.97042,58.45115],[15.97621,58.44805],[15.97667,58.44805],[15.97691,58.4455],[15.9775,58.4454],[15.97753,58.44524],[15.97696,58.44455],[15.97649,58.44459],[15.97625,58.44387],[15.96977,58.44348],[15.96632,58.44217],[15.9636,58.44186],[15.9637,58.44099],[15.96161,58.44073],[15.95853,58.44106],[15.95774,58.441],[15.95458,58.43875],[15.95429,58.43559],[15.95347,58.43525],[15.95053,58.43594],[15.95267,58.42989],[15.9526,58.42827],[15.95206,58.4271],[15.96388,58.42549],[15.96802,58.42469],[15.97101,58.42385],[15.97843,58.4238],[15.98698,58.42602],[15.98873,58.42596],[15.99668,58.42272],[16.00912,58.41972],[16.00983,58.41183],[16.01346,58.40916],[16.01337,58.40858],[16.02517,58.40545],[16.03065,58.40447],[16.03161,58.40471],[16.0453,58.40595],[16.03574,58.39839],[16.04328,58.39301],[16.05169,58.38597],[16.05432,58.38341],[16.0529,58.38081],[16.05739,58.3796],[16.06156,58.37804],[16.067,58.37509],[16.07527,58.37182],[16.06419,58.37349],[16.05927,58.37333],[16.05498,58.37404],[16.05103,58.37376],[16.04334,58.3714],[16.03541,58.3704],[16.02629,58.3677],[16.02025,58.36501],[16.0126,58.36568],[15.99784,58.36499],[15.99701,58.36515],[15.99564,58.36583],[15.9918,58.36536],[15.99696,58.36062],[15.97598,58.35357],[15.97223,58.35163],[15.9683,58.35121],[15.96804,58.3496],[15.95917,58.34957],[15.95273,58.34752],[15.94916,58.34834],[15.94668,58.34812],[15.94688,58.34694],[15.94851,58.34584],[15.95026,58.34521],[15.95446,58.34461],[15.96287,58.34267],[15.9628,58.34117],[15.95787,58.34049],[15.95625,58.34075],[15.95331,58.34071],[15.95236,58.34047],[15.94277,58.33947],[15.94338,58.33887],[15.94291,58.33791],[15.94227,58.33803],[15.93804,58.33666],[15.93411,58.33495],[15.92929,58.33554],[15.91278,58.34258],[15.9082,58.34566],[15.90194,58.34647],[15.8971,58.34379],[15.8953,58.34247],[15.89512,58.34219],[15.896,58.34106],[15.89527,58.34101],[15.89561,58.34014],[15.89473,58.33948],[15.89121,58.33844],[15.88952,58.33728],[15.88918,58.33638],[15.88947,58.33591],[15.88758,58.33468],[15.88763,58.33431],[15.88576,58.33302],[15.88094,58.33436],[15.87002,58.33088],[15.86972,58.33162],[15.86828,58.33224],[15.86497,58.32917],[15.86455,58.32903],[15.86121,58.32865],[15.85054,58.3285],[15.84324,58.32648],[15.84199,58.32587],[15.84189,58.32445],[15.83649,58.32218],[15.83566,58.32199],[15.83447,58.32118],[15.83372,58.32134],[15.83048,58.31946],[15.82713,58.31841],[15.82605,58.31799],[15.82581,58.31768],[15.82238,58.31724],[15.8224,58.31703],[15.82127,58.31665],[15.82259,58.31517],[15.82035,58.31227],[15.81025,58.31554],[15.7967,58.32244],[15.79127,58.32873],[15.78724,58.33082],[15.79079,58.33256],[15.79215,58.33385],[15.79369,58.33454],[15.7941,58.33506],[15.79347,58.33576],[15.79125,58.33662],[15.79103,58.33692],[15.79201,58.33863],[15.79018,58.33971],[15.79095,58.34015],[15.7927,58.34204],[15.79278,58.34376],[15.79296,58.34369],[15.79324,58.34413],[15.79318,58.34648],[15.79198,58.34944],[15.79195,58.35214],[15.78685,58.35537],[15.78599,58.35627],[15.78509,58.35832],[15.78532,58.35916],[15.78403,58.36155],[15.784,58.36225],[15.78211,58.36447],[15.78198,58.36526],[15.77859,58.36498],[15.77786,58.36462],[15.77714,58.36462],[15.77563,58.36325],[15.76986,58.36189],[15.76449,58.37034],[15.76219,58.37136],[15.76171,58.37076],[15.7599,58.3704],[15.75909,58.37046],[15.758,58.3723],[15.75219,58.37454],[15.75126,58.37519],[15.74875,58.37639],[15.74559,58.37701],[15.74439,58.37783],[15.74909,58.38],[15.74494,58.38473],[15.74895,58.38627],[15.75207,58.38686],[15.75192,58.38717],[15.75248,58.38754],[15.75201,58.38787],[15.75269,58.38812],[15.74837,58.39004],[15.74104,58.38983],[15.73872,58.39141],[15.736,58.39275],[15.7356,58.39289],[15.73543,58.39277],[15.72819,58.39654],[15.72659,58.39779],[15.72582,58.39874],[15.72304,58.39887],[15.72275,58.40012],[15.72365,58.40143],[15.71677,58.4028],[15.71577,58.40221],[15.71367,58.40219],[15.71187,58.4026],[15.71225,58.40166],[15.70735,58.40357],[15.70146,58.40515],[15.69643,58.406],[15.69072,58.4059],[15.68885,58.40765],[15.68675,58.40875],[15.68414,58.40954],[15.68084,58.40998],[15.68184,58.41105],[15.68247,58.41249],[15.68436,58.41334],[15.68582,58.41439],[15.68792,58.41495],[15.69,58.41578],[15.69134,58.4166],[15.6926,58.41786],[15.69515,58.41816],[15.69704,58.4186],[15.69925,58.41946],[15.70069,58.42036],[15.70361,58.41984],[15.70637,58.41976],[15.70931,58.42007],[15.71388,58.42096],[15.71709,58.42197],[15.72019,58.42351],[15.72143,58.42437],[15.72287,58.42639],[15.72302,58.42746],[15.72262,58.42886],[15.72062,58.43163],[15.71893,58.43298],[15.71475,58.43762],[15.71225,58.43858],[15.71067,58.43999],[15.70816,58.44122],[15.70497,58.44212],[15.70075,58.44247],[15.69719,58.44211],[15.69408,58.44118],[15.69,58.44051],[15.68688,58.43969],[15.68359,58.43932],[15.67612,58.43776],[15.67267,58.43739],[15.67019,58.43671],[15.6684,58.43589],[15.66495,58.435],[15.66274,58.43401],[15.66145,58.43317],[15.66005,58.43155],[15.65968,58.43012],[15.66001,58.42868],[15.66101,58.42734],[15.65952,58.42681],[15.65719,58.42727],[15.65443,58.42749],[15.65165,58.42735],[15.64877,58.42678],[15.64612,58.42792],[15.6425,58.42862],[15.64084,58.42973],[15.63919,58.43044],[15.63581,58.43124],[15.63298,58.43223],[15.63,58.43439],[15.62584,58.43639],[15.62481,58.43724],[15.62509,58.43773],[15.62531,58.44183],[15.62497,58.44269],[15.62343,58.444],[15.62346,58.44553],[15.62246,58.44664],[15.62271,58.44941],[15.62089,58.45129],[15.60868,58.45546],[15.59946,58.47018],[15.58333,58.48775],[15.62365,58.51307],[15.63625,58.51381],[15.68727,58.51568],[15.70825,58.51525],[15.71237,58.51636],[15.73685,58.51601],[15.75449,58.51068],[15.75942,58.51174],[15.7827,58.51438],[15.80527,58.51418],[15.81746,58.51858],[15.83092,58.51726]],[[15.63235,58.48729],[15.62703,58.48734],[15.62496,58.48705],[15.62303,58.48655],[15.62054,58.48558],[15.618,58.48403],[15.61675,58.4821],[15.61684,58.48015],[15.61832,58.47752],[15.619,58.47433],[15.62058,58.47085],[15.62158,58.46767],[15.62231,58.46661],[15.62262,58.46529],[15.62364,58.46395],[15.62457,58.46182],[15.62622,58.46035],[15.6304,58.46034],[15.63304,58.45871],[15.63003,58.45731],[15.63119,58.456],[15.63297,58.45483],[15.6373,58.45299],[15.63973,58.4523],[15.64306,58.45192],[15.64646,58.4521],[15.64964,58.45282],[15.65227,58.45392],[15.65387,58.4551],[15.65495,58.45674],[15.65819,58.45805],[15.65973,58.45913],[15.66066,58.46014],[15.66135,58.46234],[15.6604,58.46478],[15.66232,58.46615],[15.66349,58.46797],[15.66345,58.47006],[15.66438,58.47138],[15.66467,58.4725],[15.6642,58.47526],[15.66278,58.47686],[15.65998,58.47833],[15.65762,58.47896],[15.65568,58.47921],[15.65368,58.47927],[15.65129,58.47908],[15.65063,58.48017],[15.6496,58.48115],[15.64708,58.48255],[15.63984,58.48472],[15.63785,58.48579],[15.63499,58.4868],[15.63235,58.48729]],[[15.77709,58.44209],[15.77385,58.44125],[15.77025,58.43956],[15.76862,58.43843],[15.76696,58.43652],[15.76655,58.43423],[15.7673,58.43243],[15.76605,58.43094],[15.76568,58.42916],[15.76628,58.42699],[15.76638,58.42516],[15.76765,58.42256],[15.76909,58.42136],[15.77057,58.42058],[15.77314,58.41976],[15.77539,58.41875],[15.77959,58.41758],[15.7816,58.41735],[15.78922,58.41707],[15.79144,58.41653],[15.7941,58.41627],[15.79686,58.41636],[15.79944,58.41681],[15.8021,58.41757],[15.80417,58.41849],[15.80577,58.41967],[15.8072,58.42127],[15.80764,58.42344],[15.80875,58.42445],[15.80962,58.42592],[15.80973,58.42737],[15.8089,58.42936],[15.81,58.43034],[15.81066,58.43136],[15.81165,58.43505],[15.81222,58.43581],[15.81598,58.43784],[15.81765,58.43978],[15.81783,58.44192],[15.81654,58.44414],[15.81438,58.44574],[15.8107,58.4472],[15.8075,58.44786],[15.80388,58.44798],[15.80115,58.44765],[15.7991,58.44714],[15.7969,58.44624],[15.79519,58.44507],[15.79237,58.44491],[15.78568,58.44408],[15.78326,58.44352],[15.781,58.44256],[15.77709,58.44209]]]}},{"type":"Feature","id":"0580R001","properties":{"code":"0580R001","name":"Berga"},"geometry":{"type":"Polygon","coordinates":[[[15.62948,58.39669],[15.63692,58.39541],[15.63686,58.39484],[15.63949,58.39431],[15.64035,58.39486],[15.64121,58.39452],[15.64241,58.39525],[15.64353,58.39503],[15.64465,58.39429],[15.64997,58.38949],[15.65588,58.38685],[15.65749,58.38575],[15.65871,58.38458],[15.64492,58.38265],[15.64143,58.38235],[15.64021,58.38254],[15.63989,58.38232],[15.63786,58.38247],[15.63152,58.38399],[15.63064,58.38393],[15.63111,58.38252],[15.63033,58.38183],[15.628,58.38137],[15.62874,58.37957],[15.62563,58.37868],[15.62533,58.37972],[15.62215,58.38129],[15.62068,58.38251],[15.61985,58.38389],[15.61971,58.38533],[15.62012,58.38594],[15.62544,58.3869],[15.62754,58.38689],[15.62908,58.3861],[15.63005,58.38629],[15.63029,58.38608],[15.63069,58.38621],[15.63109,58.38611],[15.63141,58.38635],[15.63127,58.38659],[15.63194,58.38658],[15.63242,58.38722],[15.63425,58.38751],[15.63133,58.39072],[15.63024,58.39118],[15.62998,58.39261],[15.62941,58.39284],[15.6291,58.39463],[15.63049,58.39464],[15.62948,58.39669]]]}},{"type":"Feature","id":"0580R002","properties":{"code":"0580R002","name":"Domkyrkan-Slottet"},"geometry":{"type":"Polygon","coordinates":[[[15.6217,58.41454],[15.62324,58.40978],[15.62014,58.40943],[15.62068,58.40828],[15.61885,58.40812],[15.61481,58.40881],[15.61198,58.40888],[15.61014,58.40999],[15.61197,58.4116],[15.61437,58.41449],[15.61934,58.41432],[15.6217,58.41454]]]}},{"type":"Feature","id":"0580R003","properties":{"code":"0580R003","name":"Ekholmen"},"geometry":{"type":"Polygon","coordinates":[[[15.68868,58.38611],[15.68641,58.38506],[15.68824,58.38378],[15.68425,58.38245],[15.68366,58.38192],[15.68265,58.38172],[15.68861,58.37558],[15.69009,58.37338],[15.68538,58.37245],[15.68165,58.37241],[15.67451,58.37329],[15.66822,58.37358],[15.66564,58.37423],[15.66349,58.37514],[15.66212,58.3765],[15.66096,58.37853],[15.66021,58.38016],[15.65953,58.38325],[15.65871,58.38458],[15.66905,58.38631],[15.67316,58.38613],[15.67494,58.38623],[15.67982,58.38734],[15.67927,58.38768],[15.6838,58.38895],[15.6847,58.38951],[15.68624,58.38862],[15.68885,58.38769],[15.69019,58.38744],[15.68868,58.38611]]]}},{"type":"Feature","id":"0580R004","properties":{"code":"0580R004","name":"Ekkällan-Garnisonen"},"geometry":{"type":"Polygon","coordinates":[[[15.6167,58.40511],[15.6195,58.40335],[15.6203,58.4034],[15.62269,58.40412],[15.62672,58.40435],[15.62731,58.4041],[15.6261,58.40385],[15.6259,58.40352],[15.62616,58.40299],[15.62529,58.40275],[15.62488,58.40216],[15.62499,58.40115],[15.62533,58.40084],[15.62446,58.40038],[15.62482,58.39986],[15.62465,58.39926],[15.6254,58.39879],[15.62641,58.39851],[15.62876,58.39685],[15.62948,58.39669],[15.63049,58.39464],[15.6291,58.39463],[15.62941,58.39284],[15.62998,58.39261],[15.63024,58.39118],[15.63133,58.39072],[15.63425,58.38751],[15.63242,58.38722],[15.63194,58.38658],[15.63127,58.38659],[15.63141,58.38635],[15.63109,58.38611],[15.63069,58.38621],[15.63029,58.38608],[15.63005,58.38629],[15.62908,58.3861],[15.62754,58.38689],[15.62544,58.3869],[15.62012,58.38594],[15.61971,58.38533],[15.61405,58.38672],[15.61237,58.38742],[15.6107,58.38848],[15.60779,58.38932],[15.60549,58.38964],[15.6031,58.39026],[15.6003,58.39156],[15.59886,58.39256],[15.60689,58.39743],[15.60875,58.40012],[15.6167,58.40511]]]}},{"type":"Feature","id":"0580R005","properties":{"code":"0580R005","name":"Ekängen"},"geometry":{"type":"Polygon","coordinates":[[[15.63088,58.4874],[15.63299,58.4872],[15.63557,58.48663],[15.63835,58.48557],[15.63984,58.48472],[15.64708,58.48255],[15.6496,58.48115],[15.65063,58.48017],[15.65129,58.47908],[15.65368,58.47927],[15.65568,58.47921],[15.65762,58.47896],[15.65998,58.47833],[15.66278,58.47686],[15.66436,58.47492],[15.66467,58.4725],[15.66438,58.47138],[15.66345,58.47006],[15.66364,58.46874],[15.66336,58.46763],[15.66232,58.46615],[15.6604,58.46478],[15.66135,58.46225],[15.66104,58.46079],[15.66034,58.45973],[15.65806,58.45798],[15.65495,58.45674],[15.65387,58.4551],[15.65182,58.45367],[15.64898,58.45264],[15.64577,58.45202],[15.64236,58.45195],[15.63908,58.45244],[15.63434,58.45417],[15.6321,58.45534],[15.63086,58.4563],[15.63003,58.45731],[15.63304,58.45871],[15.6304,58.46034],[15.62622,58.46035],[15.62545,58.4609],[15.62435,58.46214],[15.62158,58.46767],[15.62058,58.47085],[15.619,58.47433],[15.61832,58.47752],[15.61684,58.48015],[15.61665,58.48141],[15.61701,58.48277],[15.618,58.48403],[15.61913,58.48487],[15.62303,58.48655],[15.62639,58.48727],[15.63088,58.4874]]]}},{"type":"Feature","id":"0580R006","properties":{"code":"0580R006","name":"Gottfridsberg"},"geometry":{"type":"Polygon","coordinates":[[[15.59603,58.42026],[15.59719,58.41979],[15.59895,58.41854],[15.60311,58.41635],[15.60114,58.41541],[15.6015,58.4147],[15.60233,58.41479],[15.60254,58.41425],[15.60482,58.41446],[15.60582,58.41472],[15.60681,58.41201],[15.61198,58.40888],[15.60918,58.40889],[15.60183,58.4079],[15.5969,58.40748],[15.5916,58.40729],[15.58438,58.40663],[15.5836,58.40737],[15.58533,58.40952],[15.58689,58.41435],[15.58783,58.4165],[15.58841,58.41711],[15.58468,58.41779],[15.58089,58.41879],[15.58023,58.41912],[15.57911,58.42043],[15.58175,58.42029],[15.58697,58.42052],[15.59495,58.42123],[15.59603,58.42026]]]}},{"type":"Feature","id":"0580R009","properties":{"code":"0580R009","name":"Hjulsbro"},"geometry":{"type":"Polygon","coordinates":[[[15.69689,58.38432],[15.69868,58.3841],[15.69906,58.38384],[15.70009,58.38366],[15.70053,58.38288],[15.70373,58.38175],[15.70534,58.38074],[15.70798,58.37834],[15.70884,58.37794],[15.70937,58.37699],[15.71082,58.37635],[15.71197,58.37558],[15.71252,58.37488],[15.71422,58.37388],[15.71639,58.37124],[15.71813,58.36841],[15.71758,58.36659],[15.71801,58.36588],[15.71946,58.36487],[15.71227,58.36393],[15.70993,58.36183],[15.70663,58.35952],[15.70313,58.35815],[15.69852,58.35716],[15.69812,58.36005],[15.69627,58.36166],[15.69565,58.36288],[15.69194,58.36636],[15.6907,58.36894],[15.69009,58.37338],[15.68969,58.37404],[15.68861,58.37558],[15.68265,58.38172],[15.68366,58.38192],[15.68425,58.38245],[15.68824,58.38378],[15.68641,58.38506],[15.68914,58.38633],[15.69019,58.38744],[15.68998,58.38771],[15.69527,58.38497],[15.69658,58.38465],[15.69689,58.38432]]]}},{"type":"Feature","id":"0580R007","properties":{"code":"0580R007","name":"Hackefors"},"geometry":{"type":"Polygon","coordinates":[[[15.71225,58.40166],[15.7145,58.40095],[15.71714,58.39968],[15.71933,58.39807],[15.72021,58.39676],[15.72088,58.39409],[15.72123,58.3915],[15.72077,58.39006],[15.72345,58.38937],[15.72592,58.38814],[15.72754,58.38657],[15.72821,58.38481],[15.7281,58.38336],[15.72711,58.38136],[15.72834,58.37965],[15.72859,58.37722],[15.72818,58.37617],[15.72698,58.37479],[15.72642,58.37367],[15.72512,58.37239],[15.72599,58.37055],[15.72573,58.36877],[15.72478,58.36744],[15.72362,58.36652],[15.72167,58.36554],[15.71946,58.36487],[15.71801,58.36588],[15.71758,58.36659],[15.71813,58.36841],[15.71639,58.37124],[15.71422,58.37388],[15.71252,58.37488],[15.71197,58.37558],[15.71082,58.37635],[15.70937,58.37699],[15.70884,58.37794],[15.70798,58.37834],[15.70534,58.38074],[15.70373,58.38175],[15.70053,58.38288],[15.70009,58.38366],[15.69906,58.38384],[15.69868,58.3841],[15.69689,58.38432],[15.69658,58.38465],[15.69527,58.38497],[15.68998,58.38771],[15.69231,58.39046],[15.69347,58.39321],[15.69426,58.39397],[15.69351,58.3943],[15.69336,58.39475],[15.6942,58.39599],[15.69597,58.39739],[15.69722,58.3979],[15.69684,58.39809],[15.69793,58.39868],[15.69867,58.39853],[15.69843,58.3989],[15.69869,58.39955],[15.69926,58.39948],[15.69888,58.40047],[15.70505,58.40072],[15.7056,58.40056],[15.70818,58.40062],[15.71257,58.40089],[15.71225,58.40166]]]}},{"type":"Feature","id":"0580R008","properties":{"code":"0580R008","name":"Hejdegården"},"geometry":{"type":"Polygon","coordinates":[[[15.63361,58.40982],[15.63549,58.40741],[15.63548,58.40613],[15.63582,58.40581],[15.63751,58.40478],[15.63974,58.40434],[15.64245,58.40254],[15.64753,58.40125],[15.64833,58.40074],[15.64986,58.40071],[15.65489,58.40003],[15.65687,58.39903],[15.65797,58.39873],[15.65664,58.39723],[15.64695,58.39923],[15.64428,58.39995],[15.63962,58.4005],[15.6382,58.40086],[15.63309,58.40277],[15.63345,58.40419],[15.63211,58.40625],[15.63182,58.40799],[15.63006,58.40782],[15.62956,58.40923],[15.63361,58.40982]]]}},{"type":"Feature","id":"0580R010","properties":{"code":"0580R010","name":"Johannelund"},"geometry":{"type":"Polygon","coordinates":[[[15.67533,58.39842],[15.67803,58.39753],[15.67896,58.39749],[15.67934,58.39772],[15.67912,58.39852],[15.67965,58.39865],[15.67994,58.39854],[15.67972,58.39629],[15.67803,58.39509],[15.6777,58.39454],[15.67789,58.39395],[15.67969,58.39266],[15.68095,58.39039],[15.68405,58.38988],[15.6847,58.38951],[15.6838,58.38895],[15.67927,58.38768],[15.67982,58.38734],[15.67494,58.38623],[15.67316,58.38613],[15.67009,58.38636],[15.66867,58.38626],[15.66825,58.38683],[15.66955,58.38735],[15.66766,58.38925],[15.66582,58.38885],[15.66261,58.38901],[15.66083,58.38873],[15.66011,58.38881],[15.65948,58.38913],[15.65545,58.39238],[15.6564,58.39271],[15.65631,58.3937],[15.65576,58.39447],[15.65423,58.39501],[15.65458,58.3968],[15.65145,58.39746],[15.65152,58.39824],[15.65664,58.39723],[15.65797,58.39873],[15.66039,58.3988],[15.66442,58.39847],[15.66539,58.39867],[15.66758,58.39986],[15.66816,58.39996],[15.67102,58.39951],[15.67296,58.39877],[15.67533,58.39842]]]}},{"type":"Feature","id":"0580R011","properties":{"code":"0580R011","name":"Lambohov-Slaka"},"geometry":{"type":"Polygon","coordinates":[[[15.56022,58.40099],[15.56447,58.39696],[15.56949,58.3946],[15.5686,58.39383],[15.56962,58.39351],[15.57116,58.39352],[15.5728,58.39381],[15.57876,58.39372],[15.5787,58.39325],[15.58757,58.39234],[15.58847,58.39297],[15.59093,58.39225],[15.5928,58.39196],[15.59466,58.39229],[15.59616,58.393],[15.59741,58.39333],[15.59919,58.39317],[15.59952,58.39296],[15.59886,58.39256],[15.59871,58.3927],[15.59374,58.38904],[15.59277,58.38857],[15.59073,58.38807],[15.59157,58.38761],[15.59197,58.38683],[15.59257,58.38413],[15.59237,58.38183],[15.59452,58.38023],[15.59429,58.37667],[15.59377,58.37618],[15.58917,58.37477],[15.5869,58.37426],[15.58724,58.37354],[15.58648,58.37265],[15.58652,58.37209],[15.5845,58.37057],[15.58211,58.36941],[15.58286,58.36804],[15.583,58.36683],[15.58227,58.36466],[15.58137,58.36339],[15.58267,58.36136],[15.58466,58.35983],[15.58569,58.35856],[15.58609,58.35676],[15.58544,58.35507],[15.58363,58.35345],[15.58062,58.3521],[15.57581,58.35101],[15.57115,58.35051],[15.56901,58.35053],[15.56486,58.35094],[15.56106,58.3509],[15.5572,58.35154],[15.55546,58.35216],[15.55361,58.3532],[15.55231,58.35445],[15.55144,58.35588],[15.54768,58.35598],[15.54506,58.35642],[15.54224,58.35742],[15.54013,58.35886],[15.53914,58.36018],[15.53883,58.36124],[15.53909,58.36289],[15.53892,58.36454],[15.53944,58.36589],[15.54099,58.36743],[15.54293,58.36857],[15.5444,58.36915],[15.54467,58.36953],[15.54451,58.37243],[15.54556,58.3745],[15.54802,58.37622],[15.55153,58.37734],[15.55183,58.37869],[15.54867,58.37981],[15.54634,58.38006],[15.54602,58.37967],[15.54234,58.3802],[15.54257,58.38674],[15.53833,58.38695],[15.53473,58.38781],[15.53103,58.38829],[15.52861,58.38898],[15.52661,58.38997],[15.52465,58.39186],[15.52393,58.39402],[15.5241,58.39536],[15.52259,58.39677],[15.52187,58.39856],[15.52185,58.3989],[15.52805,58.39866],[15.53525,58.39993],[15.54161,58.40018],[15.54375,58.40093],[15.54869,58.40163],[15.55463,58.40222],[15.55784,58.405],[15.56022,58.40099]]]}},{"type":"Feature","id":"0580R012","properties":{"code":"0580R012","name":"Lilla Torget-Sankt Lars"},"geometry":{"type":"Polygon","coordinates":[[[15.62611,58.41617],[15.63021,58.41403],[15.63231,58.41346],[15.63104,58.41267],[15.6311,58.41236],[15.63236,58.41067],[15.63361,58.40982],[15.62356,58.40861],[15.6217,58.41454],[15.62331,58.41475],[15.62611,58.41617]]]}},{"type":"Feature","id":"0580R013","properties":{"code":"0580R013","name":"Linghem"},"geometry":{"type":"Polygon","coordinates":[[[15.80264,58.41777],[15.79755,58.41645],[15.79416,58.41627],[15.79144,58.41653],[15.78922,58.41707],[15.78027,58.41748],[15.77833,58.41785],[15.77539,58.41875],[15.76955,58.42109],[15.76737,58.4229],[15.76629,58.42549],[15.7657,58.42987],[15.76624,58.43126],[15.7673,58.43243],[15.76661,58.43386],[15.76661,58.43545],[15.7674,58.43719],[15.76899,58.43874],[15.77076,58.43982],[15.77444,58.44145],[15.77832,58.44233],[15.781,58.44256],[15.78326,58.44352],[15.78568,58.44408],[15.79237,58.44491],[15.79519,58.44507],[15.79737,58.44647],[15.79967,58.44731],[15.80259,58.44787],[15.80603,58.44798],[15.81013,58.44737],[15.81325,58.44626],[15.81482,58.44549],[15.81613,58.44453],[15.81705,58.44351],[15.81783,58.44192],[15.81789,58.4405],[15.81746,58.43942],[15.81634,58.43813],[15.8151,58.43726],[15.81222,58.43581],[15.81165,58.43505],[15.81066,58.43136],[15.81,58.43034],[15.8089,58.42936],[15.80973,58.42737],[15.80962,58.42592],[15.80875,58.42445],[15.80764,58.42344],[15.80762,58.42233],[15.80699,58.42095],[15.80542,58.41935],[15.80421,58.41851],[15.80264,58.41777]]]}},{"type":"Feature","id":"0580R014","properties":{"code":"0580R014","name":"Ljungsbro-Berg"},"geometry":{"type":"Polygon","coordinates":[[[15.49067,58.53096],[15.49598,58.53056],[15.498,58.53022],[15.50077,58.52932],[15.5051,58.52851],[15.50835,58.52719],[15.51057,58.52743],[15.51322,58.5274],[15.51727,58.52672],[15.51985,58.52578],[15.52207,58.52602],[15.5248,58.52602],[15.52899,58.52554],[15.53126,58.52486],[15.53348,58.52444],[15.53571,58.52365],[15.5378,58.52232],[15.53886,58.52102],[15.53935,58.51937],[15.53907,58.51793],[15.53766,58.51606],[15.5361,58.5149],[15.53329,58.51371],[15.53124,58.51252],[15.52889,58.51172],[15.52541,58.51118],[15.52168,58.51125],[15.52374,58.50929],[15.52435,58.50764],[15.52629,58.50638],[15.52748,58.50489],[15.52972,58.50454],[15.5306,58.50418],[15.53109,58.50272],[15.53177,58.50196],[15.53263,58.5016],[15.53365,58.50147],[15.53485,58.50163],[15.54023,58.50036],[15.54203,58.49919],[15.54346,58.49863],[15.54641,58.49875],[15.54923,58.49849],[15.54677,58.49601],[15.54719,58.49487],[15.54714,58.49368],[15.54937,58.49244],[15.55074,58.49089],[15.55121,58.48894],[15.55211,58.48717],[15.55187,58.48536],[15.55028,58.4835],[15.54735,58.48202],[15.54385,58.48118],[15.53748,58.4808],[15.53505,58.48005],[15.53281,58.47847],[15.53045,58.47747],[15.52838,58.4769],[15.52581,58.47654],[15.52307,58.47548],[15.52051,58.47493],[15.51782,58.47474],[15.51528,58.47486],[15.51198,58.47549],[15.50857,58.47582],[15.50659,58.47626],[15.50372,58.47742],[15.50178,58.47891],[15.50075,58.48077],[15.50095,58.48278],[15.49726,58.48292],[15.49275,58.48393],[15.48646,58.48315],[15.48431,58.48317],[15.4816,58.48352],[15.47897,58.48426],[15.47693,58.48526],[15.4753,58.48662],[15.4743,58.48807],[15.47392,58.48946],[15.47401,58.49058],[15.47475,58.49199],[15.47575,58.49299],[15.47756,58.4941],[15.47928,58.49477],[15.48329,58.49556],[15.48451,58.49598],[15.48415,58.49746],[15.48287,58.49927],[15.48254,58.50052],[15.48105,58.5019],[15.48038,58.5033],[15.48018,58.50646],[15.48066,58.50755],[15.48175,58.50877],[15.48088,58.5098],[15.48039,58.51122],[15.47827,58.5128],[15.47732,58.51454],[15.47761,58.51666],[15.47833,58.51767],[15.47962,58.51874],[15.47901,58.52006],[15.47872,58.52204],[15.4789,58.52302],[15.47823,58.52471],[15.47844,58.52628],[15.47935,58.52766],[15.48047,58.52862],[15.48364,58.53012],[15.4862,58.53072],[15.48832,58.53094],[15.49067,58.53096]]]}},{"type":"Feature","id":"0580R015","properties":{"code":"0580R015","name":"Malmslätt"},"geometry":{"type":"Polygon","coordinates":[[[15.51986,58.43413],[15.52264,58.4334],[15.52939,58.43501],[15.53356,58.43049],[15.53977,58.42134],[15.54854,58.41043],[15.55017,58.40877],[15.55268,58.40686],[15.55421,58.40612],[15.55784,58.405],[15.55463,58.40222],[15.54869,58.40163],[15.54375,58.40093],[15.54161,58.40018],[15.53525,58.39993],[15.52805,58.39866],[15.52185,58.3989],[15.52186,58.39913],[15.51994,58.39849],[15.51637,58.39775],[15.51426,58.39756],[15.51148,58.39764],[15.50941,58.39794],[15.50743,58.39846],[15.50406,58.39987],[15.5021,58.40143],[15.49961,58.40186],[15.49732,58.40261],[15.49542,58.40367],[15.49391,58.40501],[15.4929,58.40636],[15.4926,58.40814],[15.49337,58.40988],[15.49503,58.41133],[15.49209,58.41246],[15.48865,58.41348],[15.48672,58.41454],[15.48554,58.41559],[15.48447,58.41755],[15.48451,58.41928],[15.48527,58.42077],[15.48398,58.42258],[15.48388,58.42447],[15.48525,58.42659],[15.48803,58.4283],[15.48993,58.42895],[15.49191,58.42937],[15.49818,58.42978],[15.4994,58.43109],[15.50248,58.43306],[15.50404,58.43376],[15.50719,58.4347],[15.51009,58.43515],[15.51349,58.43516],[15.51986,58.43413]]]}},{"type":"Feature","id":"0580R016","properties":{"code":"0580R016","name":"Ramshäll"},"geometry":{"type":"Polygon","coordinates":[[[15.62731,58.4041],[15.62999,58.40309],[15.63331,58.40273],[15.63558,58.40183],[15.63616,58.40098],[15.63652,58.39923],[15.6371,58.39861],[15.63783,58.39878],[15.63929,58.39813],[15.64054,58.3966],[15.64313,58.39529],[15.64241,58.39525],[15.64121,58.39452],[15.64035,58.39486],[15.63949,58.39431],[15.63686,58.39484],[15.63692,58.39541],[15.6364,58.39535],[15.63497,58.39576],[15.63212,58.39609],[15.62876,58.39685],[15.62641,58.39851],[15.6247,58.39921],[15.62482,58.39986],[15.62446,58.40038],[15.62531,58.40079],[15.62499,58.40115],[15.62488,58.40216],[15.62529,58.40275],[15.62616,58.40299],[15.62598,58.40373],[15.62731,58.4041]]]}},{"type":"Feature","id":"0580R017","properties":{"code":"0580R017","name":"Ryd"},"geometry":{"type":"Polygon","coordinates":[[[15.56373,58.42508],[15.56923,58.4248],[15.5704,58.4239],[15.57138,58.42355],[15.57074,58.42177],[15.57587,58.4208],[15.57911,58.42043],[15.58023,58.41912],[15.58089,58.41879],[15.58468,58.41779],[15.58841,58.41711],[15.58783,58.4165],[15.58689,58.41435],[15.58533,58.40952],[15.5836,58.40737],[15.58438,58.40663],[15.56796,58.40462],[15.56275,58.4044],[15.56015,58.40458],[15.55784,58.405],[15.55421,58.40612],[15.55268,58.40686],[15.55017,58.40877],[15.54854,58.41043],[15.54724,58.41232],[15.54189,58.41861],[15.53678,58.42561],[15.54209,58.42677],[15.54456,58.4269],[15.54869,58.4267],[15.56373,58.42508]]]}},{"type":"Feature","id":"0580R018","properties":{"code":"0580R018","name":"Skäggetorp-Tornby"},"geometry":{"type":"Polygon","coordinates":[[[15.58603,58.44194],[15.59128,58.4418],[15.60629,58.44015],[15.61226,58.43928],[15.61529,58.43958],[15.61826,58.43945],[15.62148,58.43879],[15.62429,58.43758],[15.62481,58.43724],[15.62266,58.43296],[15.62422,58.43086],[15.62632,58.43106],[15.62719,58.43083],[15.62721,58.43046],[15.62591,58.42919],[15.6263,58.42843],[15.62738,58.4278],[15.63005,58.427],[15.63097,58.42643],[15.63095,58.42572],[15.62979,58.42475],[15.63199,58.4204],[15.63197,58.41956],[15.63136,58.41934],[15.62998,58.41968],[15.62913,58.41967],[15.62816,58.41915],[15.62787,58.41886],[15.62752,58.41675],[15.62804,58.41633],[15.6317,58.41543],[15.6328,58.41376],[15.63231,58.41346],[15.63061,58.41388],[15.62929,58.41444],[15.62532,58.41659],[15.62502,58.41644],[15.62456,58.41668],[15.62418,58.41659],[15.62316,58.41713],[15.62338,58.41728],[15.62301,58.41765],[15.62217,58.41788],[15.62254,58.4181],[15.62064,58.41904],[15.62013,58.41878],[15.61921,58.41922],[15.61854,58.41977],[15.61882,58.41994],[15.61697,58.42103],[15.61403,58.42175],[15.60928,58.42216],[15.60507,58.42211],[15.58697,58.42052],[15.58016,58.42034],[15.57587,58.4208],[15.57074,58.42177],[15.57138,58.42355],[15.5704,58.4239],[15.56923,58.4248],[15.56373,58.42508],[15.5537,58.42626],[15.54456,58.4269],[15.54209,58.42677],[15.53678,58.42561],[15.53356,58.43049],[15.52939,58.43501],[15.5374,58.43663],[15.54755,58.43805],[15.5549,58.43866],[15.56665,58.43897],[15.5707,58.44093],[15.5783,58.44243],[15.58193,58.44256],[15.58603,58.44194]]]}},{"type":"Feature","id":"0580R019","properties":{"code":"0580R019","name":"Sturefors"},"geometry":{"type":"Polygon","coordinates":[[[15.72104,58.34741],[15.72398,58.3484],[15.72755,58.34889],[15.73116,58.34876],[15.7349,58.34791],[15.73699,58.34695],[15.73835,58.34596],[15.73961,58.34426],[15.73985,58.34274],[15.74148,58.34204],[15.74281,58.34118],[15.74402,58.33991],[15.74452,58.33887],[15.74448,58.33708],[15.74183,58.33152],[15.74338,58.33018],[15.74411,58.32881],[15.74406,58.32701],[15.74323,58.3256],[15.74099,58.32393],[15.73946,58.32329],[15.73745,58.32276],[15.73604,58.32126],[15.7342,58.32019],[15.7307,58.31913],[15.72759,58.31864],[15.72435,58.31868],[15.72041,58.31938],[15.71819,58.32024],[15.71636,58.32145],[15.71426,58.32237],[15.71237,58.32385],[15.71141,58.32578],[15.70947,58.32622],[15.70722,58.32708],[15.70331,58.32979],[15.70084,58.33294],[15.70018,58.33434],[15.7002,58.33576],[15.70068,58.33681],[15.70154,58.33781],[15.70305,58.33888],[15.70203,58.33979],[15.70117,58.34118],[15.70079,58.34309],[15.70089,58.34421],[15.70163,58.34562],[15.70342,58.34716],[15.70495,58.34795],[15.70698,58.34864],[15.7096,58.34914],[15.71172,58.34928],[15.71592,58.34893],[15.72104,58.34741]]]}},{"type":"Feature","id":"0580R020","properties":{"code":"0580R020","name":"Tallboda"},"geometry":{"type":"Polygon","coordinates":[[[15.72273,58.42602],[15.72178,58.4247],[15.72062,58.42377],[15.71709,58.42197],[15.71515,58.42128],[15.70952,58.4201],[15.70702,58.41979],[15.70361,58.41984],[15.70069,58.42036],[15.69925,58.41946],[15.69704,58.4186],[15.69515,58.41816],[15.6926,58.41786],[15.6917,58.41689],[15.69011,58.41584],[15.69072,58.42121],[15.68783,58.42002],[15.68454,58.42344],[15.68217,58.423],[15.682,58.42456],[15.68346,58.42457],[15.68261,58.42543],[15.67991,58.42541],[15.67988,58.42568],[15.68235,58.4257],[15.68198,58.42607],[15.67381,58.42541],[15.67526,58.42638],[15.67509,58.42686],[15.67544,58.4269],[15.6755,58.42762],[15.67179,58.42909],[15.66449,58.43482],[15.6684,58.43589],[15.67019,58.43671],[15.67206,58.43726],[15.67612,58.43776],[15.68359,58.43932],[15.68688,58.43969],[15.69,58.44051],[15.69408,58.44118],[15.69719,58.44211],[15.70075,58.44247],[15.70417,58.44226],[15.7069,58.44164],[15.70919,58.4408],[15.71079,58.4399],[15.71225,58.43858],[15.71475,58.43762],[15.71893,58.43298],[15.72062,58.43163],[15.72241,58.42922],[15.72299,58.4278],[15.72273,58.42602]]]}},{"type":"Feature","id":"0580R021","properties":{"code":"0580R021","name":"Tannefors-Stångebro-Kallerstad"},"geometry":{"type":"Polygon","coordinates":[[[15.63581,58.43124],[15.63986,58.43018],[15.6425,58.42862],[15.64612,58.42792],[15.64877,58.42678],[15.65165,58.42735],[15.65443,58.42749],[15.65719,58.42727],[15.65952,58.42681],[15.66101,58.42734],[15.65975,58.42941],[15.65971,58.43048],[15.66025,58.43187],[15.66185,58.43347],[15.66449,58.43482],[15.67179,58.42909],[15.6755,58.42762],[15.67544,58.4269],[15.67509,58.42686],[15.67526,58.42638],[15.67381,58.42541],[15.68198,58.42607],[15.68235,58.4257],[15.67988,58.42568],[15.67991,58.42541],[15.68261,58.42543],[15.68346,58.42457],[15.682,58.42456],[15.68217,58.423],[15.68454,58.42344],[15.68783,58.42002],[15.69072,58.42121],[15.69011,58.41584],[15.68792,58.41495],[15.68582,58.41439],[15.68436,58.41334],[15.68247,58.41249],[15.68184,58.41105],[15.68084,58.40998],[15.68414,58.40954],[15.68675,58.40875],[15.68885,58.40765],[15.69072,58.4059],[15.69643,58.406],[15.70299,58.40483],[15.70794,58.40338],[15.71225,58.40166],[15.71257,58.40089],[15.70818,58.40062],[15.7056,58.40056],[15.70505,58.40072],[15.69888,58.40047],[15.69926,58.39948],[15.69869,58.39955],[15.69843,58.3989],[15.69867,58.39853],[15.69793,58.39868],[15.69684,58.39809],[15.69722,58.3979],[15.69597,58.39739],[15.6942,58.39599],[15.69336,58.39475],[15.69351,58.3943],[15.69426,58.39397],[15.69347,58.39321],[15.69231,58.39046],[15.68995,58.38755],[15.68885,58.38769],[15.68624,58.38862],[15.68437,58.38978],[15.68095,58.39039],[15.67969,58.39266],[15.67789,58.39395],[15.6777,58.39454],[15.67843,58.39545],[15.67972,58.39629],[15.68006,58.39815],[15.67978,58.39864],[15.67908,58.39844],[15.67925,58.39758],[15.67803,58.39753],[15.67533,58.39842],[15.67232,58.39894],[15.67102,58.39951],[15.66816,58.39996],[15.66758,58.39986],[15.66539,58.39867],[15.66442,58.39847],[15.66039,58.3988],[15.65797,58.39873],[15.65687,58.39903],[15.65489,58.40003],[15.64986,58.40071],[15.64833,58.40074],[15.64753,58.40125],[15.64337,58.40222],[15.64245,58.40254],[15.63974,58.40434],[15.63751,58.40478],[15.63582,58.40581],[15.63537,58.40658],[15.6354,58.40772],[15.63393,58.4096],[15.63236,58.41067],[15.6311,58.41236],[15.63104,58.41267],[15.6328,58.41376],[15.6317,58.41543],[15.62804,58.41633],[15.62752,58.41675],[15.62787,58.41886],[15.62816,58.41915],[15.62913,58.41967],[15.62998,58.41968],[15.63136,58.41934],[15.63197,58.41956],[15.63199,58.4204],[15.62979,58.42475],[15.63095,58.42572],[15.63097,58.42643],[15.63005,58.427],[15.62738,58.4278],[15.6263,58.42843],[15.62591,58.42919],[15.62721,58.43046],[15.62719,58.43083],[15.62632,58.43106],[15.62422,58.43086],[15.62266,58.43296],[15.62481,58.43724],[15.62584,58.43639],[15.63003,58.43437],[15.63251,58.43245],[15.63581,58.43124]]]}},{"type":"Feature","id":"0580R022","properties":{"code":"0580R022","name":"Trädgårdsföreningen-Folkungavallen"},"geometry":{"type":"Polygon","coordinates":[[[15.62324,58.40978],[15.62356,58.40861],[15.62956,58.40923],[15.63006,58.40782],[15.63182,58.40799],[15.63211,58.40625],[15.63345,58.40419],[15.63309,58.40277],[15.62999,58.40309],[15.62672,58.40435],[15.62269,58.40412],[15.6203,58.4034],[15.6195,58.40335],[15.61885,58.4036],[15.6167,58.40511],[15.6169,58.40575],[15.61666,58.40636],[15.61504,58.40798],[15.6148,58.4088],[15.61885,58.40812],[15.62068,58.40828],[15.62014,58.40943],[15.62324,58.40978]]]}},{"type":"Feature","id":"0580R023","properties":{"code":"0580R023","name":"Ullstämma-Haninge"},"geometry":{"type":"Polygon","coordinates":[[[15.67374,58.37335],[15.68338,58.37234],[15.68626,58.37256],[15.69009,58.37338],[15.6907,58.36894],[15.69194,58.36636],[15.69565,58.36288],[15.69627,58.36166],[15.69812,58.36005],[15.69852,58.35716],[15.69474,58.35705],[15.6917,58.3575],[15.68827,58.35636],[15.68495,58.35596],[15.6793,58.3562],[15.67602,58.35671],[15.67341,58.35745],[15.67137,58.35846],[15.66255,58.36477],[15.65992,58.36493],[15.65786,58.36461],[15.65531,58.36448],[15.65197,58.36471],[15.64701,58.36585],[15.64413,58.36694],[15.6426,58.36773],[15.65002,58.37075],[15.64938,58.37177],[15.64998,58.37305],[15.65126,58.37322],[15.65129,58.37344],[15.656,58.37355],[15.66107,58.37448],[15.65873,58.37843],[15.65911,58.37858],[15.6608,58.37886],[15.66253,58.37597],[15.66349,58.37514],[15.66529,58.37435],[15.66822,58.37358],[15.67374,58.37335]]]}},{"type":"Feature","id":"0580R024","properties":{"code":"0580R024","name":"Valkebo omland"},"geometry":{"type":"Polygon","coordinates":[[[15.38613,58.46674],[15.39047,58.46485],[15.39347,58.46455],[15.39651,58.46343],[15.39975,58.46386],[15.40212,58.4634],[15.40601,58.46369],[15.40757,58.46345],[15.41076,58.46251],[15.41333,58.46071],[15.41398,58.46051],[15.41851,58.46022],[15.42376,58.45881],[15.42035,58.45106],[15.41986,58.45096],[15.41954,58.45155],[15.41795,58.45135],[15.4178,58.45168],[15.41682,58.45156],[15.41685,58.45199],[15.41592,58.45344],[15.41414,58.45203],[15.41504,58.45066],[15.4154,58.44805],[15.41382,58.44757],[15.41373,58.44458],[15.41311,58.44293],[15.41316,58.44208],[15.41433,58.44089],[15.41596,58.43995],[15.4201,58.4393],[15.42077,58.43881],[15.41358,58.43761],[15.41406,58.43672],[15.41244,58.43659],[15.41535,58.43363],[15.41614,58.43219],[15.42542,58.43343],[15.43055,58.43383],[15.43664,58.43489],[15.43828,58.43487],[15.44016,58.43444],[15.44031,58.43415],[15.43975,58.43316],[15.44005,58.43272],[15.44085,58.43259],[15.4416,58.43307],[15.44229,58.43287],[15.44265,58.43221],[15.44239,58.43164],[15.44385,58.43075],[15.44433,58.42962],[15.44545,58.42896],[15.44511,58.42813],[15.44551,58.4273],[15.44651,58.42692],[15.44772,58.42704],[15.44842,58.42661],[15.44819,58.42635],[15.44709,58.42631],[15.44682,58.42608],[15.44724,58.42551],[15.44814,58.42495],[15.44857,58.42425],[15.44972,58.42379],[15.45007,58.42334],[15.44909,58.42179],[15.44817,58.42146],[15.45042,58.42155],[15.4611,58.42378],[15.46442,58.42413],[15.47232,58.42461],[15.47511,58.42373],[15.47433,58.42349],[15.4747,58.42306],[15.47559,58.4233],[15.47739,58.42192],[15.47886,58.4213],[15.48072,58.4209],[15.48271,58.41972],[15.48523,58.4208],[15.48451,58.41928],[15.48441,58.41789],[15.48491,58.41645],[15.48591,58.4152],[15.48865,58.41348],[15.49209,58.41246],[15.49503,58.41133],[15.49315,58.40956],[15.49259,58.40743],[15.49333,58.40566],[15.49586,58.40338],[15.49842,58.4022],[15.5021,58.40143],[15.50323,58.4004],[15.50504,58.39939],[15.50743,58.39846],[15.51003,58.39782],[15.51277,58.39755],[15.51574,58.39767],[15.51994,58.39849],[15.52186,58.39913],[15.52237,58.3971],[15.5241,58.39536],[15.52393,58.39402],[15.52447,58.39219],[15.52621,58.39024],[15.52861,58.38898],[15.53103,58.38829],[15.53473,58.38781],[15.53833,58.38695],[15.54257,58.38674],[15.54234,58.3802],[15.54602,58.37967],[15.54634,58.38006],[15.54867,58.37981],[15.55183,58.37869],[15.55153,58.37734],[15.54966,58.37687],[15.54755,58.37599],[15.54528,58.37417],[15.54451,58.37243],[15.54467,58.36953],[15.5444,58.36915],[15.54293,58.36857],[15.54099,58.36743],[15.53925,58.36557],[15.53892,58.36454],[15.53889,58.3609],[15.53983,58.35916],[15.5422,58.35744],[15.54387,58.35676],[15.54632,58.35616],[15.54833,58.35593],[15.55144,58.35588],[15.55231,58.35445],[15.55361,58.3532],[15.55497,58.35239],[15.55693,58.35163],[15.55195,58.35166],[15.54891,58.35131],[15.54193,58.34881],[15.53856,58.34813],[15.53405,58.34765],[15.53395,58.34676],[15.53324,58.34618],[15.53282,58.34511],[15.53335,58.34255],[15.5358,58.33876],[15.52789,58.3364],[15.52942,58.33505],[15.5294,58.33455],[15.52584,58.33344],[15.53148,58.32909],[15.53007,58.32571],[15.53571,58.32505],[15.53439,58.31765],[15.52823,58.318],[15.52541,58.31849],[15.51856,58.31895],[15.51678,58.31923],[15.51289,58.32096],[15.50067,58.31514],[15.50146,58.31358],[15.50217,58.31288],[15.50417,58.31179],[15.50531,58.31064],[15.50605,58.30934],[15.50643,58.30706],[15.50471,58.30598],[15.50358,58.30425],[15.50411,58.30146],[15.50744,58.29919],[15.51365,58.29933],[15.51858,58.3013],[15.52172,58.30398],[15.52699,58.30687],[15.53621,58.2885],[15.52974,58.28756],[15.53346,58.28456],[15.53662,58.28385],[15.53989,58.28127],[15.54134,58.28072],[15.54193,58.28012],[15.54447,58.27878],[15.54878,58.2726],[15.55007,58.26988],[15.55071,58.26623],[15.54728,58.26119],[15.55164,58.25504],[15.55846,58.25203],[15.56712,58.25098],[15.56679,58.24906],[15.57278,58.24526],[15.56436,58.24281],[15.56369,58.24158],[15.5634,58.23907],[15.56244,58.23712],[15.56505,58.23439],[15.57009,58.2325],[15.57121,58.2308],[15.5735,58.22869],[15.57434,58.22479],[15.57284,58.22241],[15.56143,58.21438],[15.56312,58.20817],[15.5631,58.20782],[15.56111,58.20586],[15.56267,58.20416],[15.55953,58.19942],[15.5583,58.19842],[15.55773,58.19824],[15.55563,58.19388],[15.555,58.19181],[15.55613,58.17566],[15.55712,58.17054],[15.55785,58.1633],[15.55301,58.14296],[15.54754,58.14279],[15.53713,58.13832],[15.51563,58.1204],[15.51499,58.11948],[15.51134,58.11894],[15.51034,58.11739],[15.51103,58.11421],[15.50994,58.11278],[15.51055,58.11137],[15.51082,58.10867],[15.51482,58.10653],[15.51544,58.10352],[15.51105,58.09322],[15.5135,58.09021],[15.50316,58.08718],[15.49533,58.07971],[15.48335,58.07681],[15.48079,58.07648],[15.47627,58.07511],[15.46649,58.07139],[15.45711,58.07227],[15.45617,58.0719],[15.45452,58.07172],[15.45367,58.07235],[15.45171,58.07244],[15.45422,58.0888],[15.44196,58.08697],[15.43499,58.08789],[15.43339,58.08313],[15.43244,58.08199],[15.43391,58.08084],[15.43477,58.07666],[15.43398,58.07636],[15.42899,58.07588],[15.41688,58.0699],[15.41555,58.06743],[15.41682,58.06623],[15.4141,58.06611],[15.39259,58.06389],[15.38834,58.06313],[15.38422,58.06297],[15.379,58.06326],[15.37833,58.06672],[15.37785,58.07243],[15.37896,58.07873],[15.35601,58.08339],[15.34453,58.08369],[15.34627,58.09042],[15.34618,58.09465],[15.34925,58.09779],[15.35057,58.09812],[15.3494,58.10075],[15.34962,58.10183],[15.34877,58.10282],[15.33897,58.10123],[15.32951,58.10044],[15.31075,58.10407],[15.29546,58.10261],[15.29338,58.10447],[15.28605,58.11289],[15.28581,58.11539],[15.28524,58.11718],[15.27965,58.12498],[15.27952,58.13144],[15.27693,58.13478],[15.27786,58.1345],[15.28696,58.13661],[15.29591,58.13719],[15.29643,58.13769],[15.31037,58.14135],[15.32676,58.14275],[15.33617,58.14692],[15.33837,58.15018],[15.3398,58.15302],[15.3441,58.15727],[15.3453,58.15772],[15.35222,58.15919],[15.35761,58.16204],[15.36,58.16247],[15.37088,58.16346],[15.37368,58.16584],[15.37591,58.16686],[15.37447,58.16957],[15.3744,58.17431],[15.37283,58.17767],[15.37233,58.17795],[15.37152,58.17773],[15.37008,58.17787],[15.36837,58.17947],[15.36805,58.1804],[15.36661,58.18139],[15.36658,58.18188],[15.36613,58.18214],[15.36759,58.18351],[15.37109,58.1854],[15.37193,58.18483],[15.37354,58.1847],[15.37357,58.1853],[15.37513,58.18697],[15.37497,58.18739],[15.37325,58.188],[15.37204,58.19063],[15.3733,58.19145],[15.37433,58.19254],[15.37531,58.19302],[15.37287,58.19423],[15.37068,58.19699],[15.37643,58.20744],[15.37531,58.20982],[15.37413,58.21043],[15.37347,58.21133],[15.37325,58.21256],[15.37167,58.21484],[15.37154,58.21994],[15.36859,58.22192],[15.36729,58.22418],[15.36858,58.22883],[15.36061,58.23098],[15.36273,58.23382],[15.36784,58.23708],[15.36837,58.24215],[15.36926,58.24613],[15.36922,58.24839],[15.37057,58.25357],[15.36803,58.25771],[15.36232,58.26273],[15.35416,58.27214],[15.35432,58.27229],[15.35079,58.27341],[15.34944,58.27451],[15.34787,58.27738],[15.3475,58.27754],[15.34829,58.28048],[15.34769,58.28242],[15.34713,58.28262],[15.34675,58.28338],[15.34274,58.28769],[15.33995,58.28839],[15.33937,58.28951],[15.33806,58.29],[15.34078,58.29237],[15.34054,58.29316],[15.33991,58.29318],[15.34054,58.29378],[15.34053,58.29433],[15.34199,58.29771],[15.34498,58.30158],[15.34469,58.30186],[15.34133,58.30102],[15.34084,58.30196],[15.34183,58.30187],[15.34255,58.30219],[15.34411,58.30243],[15.3436,58.30314],[15.34573,58.30735],[15.34549,58.31068],[15.34582,58.31131],[15.3485,58.31211],[15.34682,58.31479],[15.34913,58.31505],[15.35181,58.3156],[15.35171,58.31708],[15.35227,58.31808],[15.3538,58.31874],[15.3554,58.31892],[15.35702,58.31953],[15.35804,58.32033],[15.35863,58.32159],[15.35863,58.32288],[15.35918,58.32407],[15.35924,58.32503],[15.36046,58.32715],[15.36186,58.32812],[15.3625,58.3289],[15.36269,58.33095],[15.36941,58.33848],[15.3671,58.34429],[15.34935,58.35092],[15.3454,58.35062],[15.34409,58.35077],[15.34303,58.35025],[15.34061,58.35033],[15.33986,58.34944],[15.33822,58.34951],[15.33736,58.34896],[15.3368,58.34942],[15.33647,58.34878],[15.33415,58.34883],[15.33299,58.34833],[15.33164,58.34836],[15.33108,58.34908],[15.33147,58.34961],[15.33344,58.35047],[15.33568,58.35094],[15.33783,58.35172],[15.34188,58.35679],[15.34178,58.366],[15.33458,58.36858],[15.33586,58.37076],[15.33596,58.37467],[15.3397,58.37487],[15.34002,58.3745],[15.34008,58.3733],[15.3393,58.37327],[15.33936,58.37271],[15.34065,58.37252],[15.3408,58.37107],[15.34169,58.37116],[15.34229,58.37272],[15.34382,58.37395],[15.34352,58.374],[15.34369,58.3743],[15.34438,58.3742],[15.35209,58.38911],[15.34635,58.39392],[15.34167,58.39659],[15.33282,58.39618],[15.33266,58.39633],[15.33033,58.39618],[15.33044,58.39599],[15.3267,58.39584],[15.32664,58.39645],[15.32368,58.39623],[15.32208,58.3983],[15.31161,58.39845],[15.31176,58.39794],[15.31257,58.39755],[15.31263,58.39677],[15.30883,58.39599],[15.30101,58.39383],[15.28755,58.3911],[15.28447,58.39373],[15.27617,58.39579],[15.26831,58.39855],[15.26435,58.39915],[15.25649,58.39863],[15.25559,58.40071],[15.25951,58.40131],[15.2607,58.40211],[15.26342,58.40324],[15.26349,58.40384],[15.26757,58.40484],[15.26718,58.40603],[15.26761,58.4071],[15.26718,58.40745],[15.26729,58.4085],[15.2665,58.4094],[15.26723,58.41029],[15.26723,58.4107],[15.27062,58.41179],[15.27551,58.41303],[15.27797,58.41419],[15.28048,58.41491],[15.28316,58.41517],[15.28452,58.41502],[15.28486,58.41337],[15.28682,58.41349],[15.28681,58.41326],[15.2849,58.41308],[15.28518,58.40977],[15.28979,58.41286],[15.29467,58.41465],[15.29475,58.41569],[15.29544,58.41681],[15.2966,58.41674],[15.29697,58.41829],[15.29732,58.4186],[15.29703,58.41922],[15.29732,58.41993],[15.29654,58.42122],[15.29733,58.42436],[15.29966,58.42655],[15.30235,58.42739],[15.30352,58.42837],[15.30799,58.4301],[15.30709,58.43058],[15.30864,58.43177],[15.30831,58.43325],[15.30852,58.43361],[15.30974,58.43381],[15.31079,58.43497],[15.31597,58.43634],[15.31821,58.43745],[15.31879,58.4402],[15.32189,58.44571],[15.32169,58.44629],[15.32215,58.44753],[15.32137,58.44851],[15.32161,58.44883],[15.32221,58.44897],[15.32688,58.44893],[15.3297,58.44997],[15.33247,58.45068],[15.33542,58.45061],[15.33783,58.45035],[15.3416,58.45118],[15.34347,58.45188],[15.34729,58.45218],[15.35368,58.45307],[15.35734,58.45534],[15.35745,58.45614],[15.35666,58.45706],[15.35664,58.45781],[15.35897,58.45997],[15.36161,58.46091],[15.36384,58.4613],[15.36563,58.46215],[15.36772,58.46244],[15.36868,58.46307],[15.36845,58.46506],[15.36987,58.4658],[15.37257,58.4656],[15.3737,58.4653],[15.37871,58.46612],[15.38117,58.46585],[15.3846,58.46672],[15.38613,58.46674]],[[15.41064,58.40944],[15.40789,58.40836],[15.40582,58.40681],[15.40402,58.40443],[15.40342,58.40155],[15.40399,58.39913],[15.40734,58.39538],[15.40958,58.39389],[15.41231,58.39289],[15.4104,58.39184],[15.40725,58.3894],[15.40623,58.38809],[15.40586,58.38665],[15.40638,58.38489],[15.40756,58.38358],[15.40786,58.3816],[15.40956,58.37971],[15.40919,58.37826],[15.40961,58.37598],[15.41173,58.3734],[15.41349,58.37229],[15.41759,58.37058],[15.42012,58.36996],[15.42305,58.36968],[15.42591,58.36974],[15.42795,58.37],[15.43046,58.37064],[15.4343,58.3722],[15.43678,58.37211],[15.43903,58.37224],[15.43967,58.37232],[15.43995,58.37281],[15.44118,58.37291],[15.44132,58.37243],[15.44173,58.37239],[15.44748,58.37204],[15.44777,58.37205],[15.4485,58.37274],[15.45276,58.37278],[15.45542,58.3739],[15.45901,58.37626],[15.46018,58.3783],[15.45999,58.38008],[15.45907,58.38144],[15.45784,58.38244],[15.45742,58.3837],[15.45638,58.38497],[15.45376,58.38653],[15.45151,58.38725],[15.44953,58.38764],[15.44778,58.38897],[15.44621,58.39064],[15.44517,58.39235],[15.44287,58.39439],[15.44142,58.39519],[15.43918,58.39598],[15.43726,58.39637],[15.43503,58.39657],[15.43618,58.39867],[15.43646,58.39977],[15.43621,58.40123],[15.43537,58.4025],[15.43691,58.40333],[15.43803,58.40423],[15.43919,58.40626],[15.439,58.40807],[15.43781,58.40975],[15.43866,58.41013],[15.43855,58.4108],[15.4372,58.41122],[15.43598,58.41126],[15.43391,58.41221],[15.43149,58.41285],[15.42884,58.41315],[15.42673,58.41314],[15.4241,58.41282],[15.41925,58.41174],[15.41749,58.41114],[15.41565,58.41014],[15.41343,58.40999],[15.41064,58.40944]]]}},{"type":"Feature","id":"0580R025","properties":{"code":"0580R025","name":"Valla-T1"},"geometry":{"type":"Polygon","coordinates":[[[15.61504,58.40798],[15.61666,58.40636],[15.61688,58.40531],[15.61201,58.402],[15.60875,58.40012],[15.60689,58.39743],[15.59952,58.39296],[15.59919,58.39317],[15.59741,58.39333],[15.59616,58.393],[15.59466,58.39229],[15.5928,58.39196],[15.59093,58.39225],[15.58847,58.39297],[15.58757,58.39234],[15.5787,58.39325],[15.57876,58.39372],[15.5728,58.39381],[15.57007,58.39344],[15.5686,58.39383],[15.56949,58.3946],[15.56447,58.39696],[15.56022,58.40099],[15.55784,58.405],[15.56015,58.40458],[15.56275,58.4044],[15.56796,58.40462],[15.58438,58.40663],[15.5916,58.40729],[15.5969,58.40748],[15.60183,58.4079],[15.60918,58.40889],[15.6148,58.4088],[15.61504,58.40798]]]}},{"type":"Feature","id":"0580R026","properties":{"code":"0580R026","name":"Vasastaden-Hunneberg"},"geometry":{"type":"Polygon","coordinates":[[[15.61854,58.41977],[15.62013,58.41878],[15.62064,58.41904],[15.62254,58.4181],[15.62217,58.41788],[15.62301,58.41765],[15.62338,58.41728],[15.62316,58.41713],[15.62406,58.41665],[15.62456,58.41668],[15.62502,58.41644],[15.62532,58.41659],[15.62611,58.41617],[15.62331,58.41475],[15.61934,58.41432],[15.61437,58.41449],[15.61197,58.4116],[15.61014,58.40999],[15.60681,58.41201],[15.60582,58.41472],[15.60482,58.41446],[15.60254,58.41425],[15.60233,58.41479],[15.6015,58.4147],[15.60114,58.41541],[15.60311,58.41635],[15.59895,58.41854],[15.59719,58.41979],[15.59635,58.42005],[15.59495,58.42123],[15.60507,58.42211],[15.60928,58.42216],[15.61403,58.42175],[15.61589,58.42137],[15.61697,58.42103],[15.61882,58.41994],[15.61854,58.41977]]]}},{"type":"Feature","id":"0580R027","properties":{"code":"0580R027","name":"Vidingsjö"},"geometry":{"type":"Polygon","coordinates":[[[15.65978,58.38239],[15.66021,58.38016],[15.6608,58.37886],[15.65873,58.37843],[15.66107,58.37448],[15.656,58.37355],[15.65129,58.37344],[15.65126,58.37322],[15.64998,58.37305],[15.64938,58.37177],[15.65002,58.37075],[15.6426,58.36773],[15.63953,58.36847],[15.63614,58.36977],[15.63369,58.3713],[15.63047,58.37269],[15.62865,58.37433],[15.62791,58.37613],[15.62647,58.37739],[15.62563,58.37868],[15.62874,58.37957],[15.628,58.38137],[15.63033,58.38183],[15.63111,58.38252],[15.63064,58.38393],[15.63152,58.38399],[15.63786,58.38247],[15.63989,58.38232],[15.64021,58.38254],[15.64143,58.38235],[15.64492,58.38265],[15.65871,58.38458],[15.65978,58.38239]]]}},{"type":"Feature","id":"0580R028","properties":{"code":"0580R028","name":"Vikingstad-Rappestad"},"geometry":{"type":"Polygon","coordinates":[[[15.45542,58.3739],[15.45271,58.37277],[15.4485,58.37274],[15.44777,58.37205],[15.44132,58.37243],[15.44118,58.37291],[15.43995,58.37281],[15.43967,58.37232],[15.43903,58.37224],[15.43678,58.37211],[15.4343,58.3722],[15.42916,58.37026],[15.42655,58.3698],[15.4237,58.36967],[15.4203,58.36993],[15.41759,58.37058],[15.41349,58.37229],[15.41173,58.3734],[15.40961,58.37598],[15.40919,58.37826],[15.40956,58.37971],[15.40786,58.3816],[15.40756,58.38358],[15.40638,58.38489],[15.40586,58.38665],[15.40623,58.38809],[15.40725,58.3894],[15.4104,58.39184],[15.41231,58.39289],[15.40958,58.39389],[15.40734,58.39538],[15.40399,58.39913],[15.40342,58.40155],[15.40402,58.40443],[15.40582,58.40681],[15.40745,58.40811],[15.41007,58.40927],[15.41262,58.40988],[15.41565,58.41014],[15.41749,58.41114],[15.41925,58.41174],[15.4241,58.41282],[15.42673,58.41314],[15.42884,58.41315],[15.43149,58.41285],[15.43391,58.41221],[15.43598,58.41126],[15.4372,58.41122],[15.43855,58.4108],[15.43866,58.41013],[15.43781,58.40975],[15.439,58.40807],[15.43919,58.40626],[15.43803,58.40423],[15.43691,58.40333],[15.43537,58.4025],[15.43621,58.40123],[15.43646,58.39977],[15.43618,58.39867],[15.43503,58.39657],[15.43726,58.39637],[15.43918,58.39598],[15.44142,58.39519],[15.44287,58.39439],[15.44517,58.39235],[15.44621,58.39064],[15.44778,58.38897],[15.44953,58.38764],[15.45151,58.38725],[15.45376,58.38653],[15.45638,58.38497],[15.45742,58.3837],[15.45784,58.38244],[15.45907,58.38144],[15.45999,58.38008],[15.46018,58.3783],[15.45901,58.37626],[15.45542,58.3739]]]}},{"type":"Feature","id":"0580R029","properties":{"code":"0580R029","name":"Vimanshäll"},"geometry":{"type":"Polygon","coordinates":[[[15.64428,58.39995],[15.65152,58.39824],[15.65145,58.39746],[15.65458,58.3968],[15.65423,58.39501],[15.65576,58.39447],[15.65631,58.3937],[15.6564,58.39271],[15.65545,58.39238],[15.65969,58.38899],[15.66058,58.38873],[15.66261,58.38901],[15.66546,58.38883],[15.66766,58.38925],[15.66955,58.38735],[15.66825,58.38683],[15.66867,58.38626],[15.6661,58.38571],[15.65871,58.38458],[15.65749,58.38575],[15.65588,58.38685],[15.64997,58.38949],[15.64437,58.39452],[15.64054,58.3966],[15.63938,58.39807],[15.63783,58.39878],[15.6371,58.39861],[15.63652,58.39923],[15.63616,58.40098],[15.63558,58.40183],[15.63962,58.4005],[15.64428,58.39995]]]}},{"type":"Feature","id":"0580R030","properties":{"code":"0580R030","name":"Vreta Kloster omland"},"geometry":{"type":"Polygon","coordinates":[[[15.41749,58.65219],[15.42973,58.64517],[15.43435,58.64149],[15.43478,58.64182],[15.43615,58.64002],[15.4562,58.63298],[15.46943,58.62873],[15.47003,58.63175],[15.47512,58.63216],[15.49476,58.6358],[15.5039,58.6368],[15.5131,58.63929],[15.51925,58.63992],[15.52792,58.63976],[15.53971,58.64006],[15.54016,58.63864],[15.54082,58.63301],[15.53913,58.63102],[15.53842,58.62933],[15.53703,58.62767],[15.53543,58.62806],[15.53175,58.62167],[15.53476,58.61867],[15.53398,58.61796],[15.53433,58.61561],[15.53222,58.61315],[15.53608,58.60552],[15.52634,58.60017],[15.56658,58.61259],[15.57281,58.62159],[15.58011,58.63634],[15.58903,58.63365],[15.59873,58.63271],[15.60707,58.62689],[15.61341,58.62066],[15.61839,58.61511],[15.62703,58.61417],[15.64181,58.6067],[15.64354,58.60646],[15.64582,58.605],[15.64418,58.60439],[15.6492,58.59806],[15.65626,58.59407],[15.65686,58.59279],[15.65839,58.5921],[15.66096,58.58766],[15.66174,58.58721],[15.66289,58.58597],[15.66451,58.58528],[15.66508,58.58444],[15.66402,58.58423],[15.66212,58.58336],[15.66281,58.58016],[15.66262,58.57947],[15.68364,58.57828],[15.68545,58.57656],[15.68645,58.57617],[15.68747,58.57523],[15.6868,58.57282],[15.69037,58.56975],[15.68983,58.56899],[15.69072,58.56738],[15.69164,58.56677],[15.69175,58.56616],[15.69292,58.56496],[15.69284,58.56057],[15.69202,58.56056],[15.69152,58.56034],[15.6907,58.55945],[15.72048,58.55591],[15.71996,58.55369],[15.72143,58.55364],[15.7231,58.55232],[15.74383,58.55095],[15.75667,58.55158],[15.75424,58.5447],[15.75396,58.54183],[15.75677,58.53574],[15.76168,58.52201],[15.75942,58.51174],[15.75449,58.51068],[15.73685,58.51601],[15.71237,58.51636],[15.70825,58.51525],[15.68727,58.51568],[15.63625,58.51381],[15.62365,58.51307],[15.58333,58.48775],[15.59946,58.47018],[15.60868,58.45546],[15.62089,58.45129],[15.62271,58.44941],[15.62246,58.44664],[15.62346,58.44553],[15.62343,58.444],[15.62497,58.44269],[15.62531,58.44183],[15.62509,58.43773],[15.62481,58.43724],[15.6222,58.43855],[15.61826,58.43945],[15.61529,58.43958],[15.61226,58.43928],[15.60629,58.44015],[15.59128,58.4418],[15.58866,58.44198],[15.58621,58.44189],[15.58404,58.44236],[15.58193,58.44256],[15.57914,58.44251],[15.57127,58.4411],[15.56914,58.44032],[15.56665,58.43897],[15.5549,58.43866],[15.5443,58.43767],[15.53512,58.43621],[15.52264,58.4334],[15.51986,58.43413],[15.51349,58.43516],[15.51009,58.43515],[15.50719,58.4347],[15.50404,58.43376],[15.50248,58.43306],[15.4994,58.43109],[15.49818,58.42978],[15.49337,58.42954],[15.49112,58.42923],[15.48864,58.42853],[15.48648,58.42751],[15.4846,58.42589],[15.48381,58.42413],[15.48412,58.42224],[15.48523,58.4208],[15.48271,58.41972],[15.48072,58.4209],[15.47886,58.4213],[15.47739,58.42192],[15.47559,58.4233],[15.4747,58.42306],[15.47433,58.42349],[15.47511,58.42373],[15.47232,58.42461],[15.46442,58.42413],[15.4611,58.42378],[15.45042,58.42155],[15.44817,58.42146],[15.44909,58.42179],[15.45007,58.42334],[15.44972,58.42379],[15.44857,58.42425],[15.44814,58.42495],[15.44724,58.42551],[15.44682,58.42608],[15.44709,58.42631],[15.44819,58.42635],[15.44842,58.42661],[15.44772,58.42704],[15.44629,58.42695],[15.44537,58.42744],[15.44511,58.42813],[15.44545,58.42896],[15.44433,58.42962],[15.44385,58.43075],[15.44239,58.43164],[15.44265,58.43221],[15.44229,58.43287],[15.4416,58.43307],[15.44069,58.43256],[15.43987,58.43289],[15.43983,58.43343],[15.44031,58.43415],[15.43987,58.43458],[15.43828,58.43487],[15.43664,58.43489],[15.43055,58.43383],[15.42542,58.43343],[15.41614,58.43219],[15.41535,58.43363],[15.41244,58.43659],[15.41406,58.43672],[15.41358,58.43761],[15.42077,58.43881],[15.4201,58.4393],[15.41596,58.43995],[15.41433,58.44089],[15.41316,58.44208],[15.41311,58.44293],[15.41373,58.44458],[15.41382,58.44757],[15.4154,58.44805],[15.41504,58.45066],[15.41414,58.45203],[15.41592,58.45344],[15.41685,58.45199],[15.41682,58.45156],[15.4178,58.45168],[15.41795,58.45135],[15.41954,58.45155],[15.41986,58.45096],[15.42035,58.45106],[15.42376,58.45881],[15.41851,58.46022],[15.41398,58.46051],[15.41333,58.46071],[15.41076,58.46251],[15.40691,58.46358],[15.40525,58.46367],[15.40212,58.4634],[15.39975,58.46386],[15.39651,58.46343],[15.39347,58.46455],[15.39251,58.46473],[15.39289,58.46511],[15.38966,58.47106],[15.38605,58.47146],[15.38058,58.47084],[15.37597,58.47094],[15.37238,58.47204],[15.36841,58.47224],[15.36605,58.47204],[15.36559,58.4718],[15.36546,58.47137],[15.35867,58.47078],[15.35748,58.47302],[15.36696,58.47399],[15.36565,58.4758],[15.36627,58.47717],[15.38029,58.47626],[15.38591,58.47656],[15.38659,58.47744],[15.3851,58.47918],[15.38437,58.47963],[15.38274,58.48004],[15.38207,58.48103],[15.37916,58.48303],[15.37858,58.48406],[15.36537,58.48305],[15.36446,58.48689],[15.36655,58.48695],[15.36643,58.48795],[15.36602,58.48809],[15.36592,58.48968],[15.36376,58.48984],[15.36543,58.4932],[15.36716,58.49384],[15.36789,58.49596],[15.37294,58.49586],[15.36794,58.49611],[15.36929,58.4999],[15.37481,58.49988],[15.37551,58.50138],[15.37392,58.50552],[15.3704,58.5111],[15.36671,58.51285],[15.3674,58.51623],[15.3712,58.5181],[15.3704,58.5111],[15.37731,58.51147],[15.37783,58.52127],[15.38016,58.52237],[15.37802,58.53756],[15.37905,58.54117],[15.37986,58.54091],[15.38018,58.54118],[15.38042,58.54211],[15.3837,58.54676],[15.37584,58.54718],[15.37236,58.54764],[15.37548,58.55272],[15.37475,58.55251],[15.37349,58.55283],[15.37415,58.55373],[15.37483,58.55374],[15.37507,58.55457],[15.37651,58.55659],[15.37577,58.55745],[15.37696,58.55737],[15.37751,58.5614],[15.37878,58.56647],[15.37558,58.56711],[15.37472,58.56842],[15.38177,58.57971],[15.37761,58.58389],[15.37433,58.59003],[15.3799,58.59094],[15.38137,58.5942],[15.38093,58.59678],[15.3839,58.6041],[15.39076,58.60877],[15.38481,58.61222],[15.37128,58.61796],[15.37285,58.62328],[15.37419,58.62465],[15.37383,58.62519],[15.37409,58.62633],[15.37329,58.62719],[15.37276,58.62838],[15.37235,58.6286],[15.38065,58.63539],[15.39052,58.63718],[15.39159,58.63849],[15.39967,58.64151],[15.39825,58.64609],[15.39847,58.64629],[15.39981,58.64681],[15.40624,58.64809],[15.40777,58.64871],[15.40826,58.64912],[15.40897,58.64915],[15.41749,58.65219]],[[15.48039,58.51122],[15.48088,58.5098],[15.48175,58.50877],[15.48066,58.50755],[15.48018,58.50646],[15.48039,58.50327],[15.48105,58.5019],[15.48254,58.50052],[15.48287,58.49927],[15.48415,58.49746],[15.48451,58.49598],[15.48329,58.49556],[15.47928,58.49477],[15.47665,58.49361],[15.47475,58.49199],[15.4739,58.4898],[15.4743,58.48807],[15.4753,58.48662],[15.47693,58.48526],[15.47897,58.48426],[15.48142,58.48355],[15.48431,58.48317],[15.48776,58.48324],[15.49275,58.48393],[15.49726,58.48292],[15.50095,58.48278],[15.5007,58.48111],[15.50123,58.47964],[15.50241,58.47831],[15.50432,58.47711],[15.50659,58.47626],[15.50857,58.47582],[15.51198,58.47549],[15.51464,58.47493],[15.51712,58.47474],[15.51983,58.47485],[15.52244,58.47531],[15.52581,58.47654],[15.52838,58.4769],[15.53045,58.47747],[15.53281,58.47847],[15.53505,58.48005],[15.53748,58.4808],[15.54239,58.48103],[15.54509,58.4814],[15.54789,58.48221],[15.54988,58.48322],[15.55096,58.48408],[15.55187,58.48536],[15.55203,58.48751],[15.55031,58.49154],[15.54898,58.49272],[15.54714,58.49368],[15.54719,58.49487],[15.54677,58.49601],[15.54923,58.49849],[15.54641,58.49875],[15.54346,58.49863],[15.54203,58.49919],[15.54023,58.50036],[15.53485,58.50163],[15.53365,58.50147],[15.53263,58.5016],[15.53177,58.50196],[15.53109,58.50272],[15.5306,58.50418],[15.52972,58.50454],[15.52748,58.50489],[15.52629,58.50638],[15.52435,58.50764],[15.52374,58.50929],[15.52168,58.51125],[15.52541,58.51118],[15.52947,58.51188],[15.53124,58.51252],[15.53329,58.51371],[15.53561,58.51464],[15.53766,58.51606],[15.5392,58.51827],[15.53918,58.52024],[15.53865,58.52138],[15.5378,58.52232],[15.53517,58.52388],[15.52958,58.5254],[15.52694,58.52589],[15.52272,58.52605],[15.51985,58.52578],[15.51727,58.52672],[15.5143,58.52729],[15.51122,58.52746],[15.50835,58.52719],[15.50452,58.52867],[15.50077,58.52932],[15.49859,58.53008],[15.49603,58.53055],[15.48916,58.53098],[15.48683,58.53081],[15.4848,58.53044],[15.48242,58.52967],[15.48047,58.52862],[15.47908,58.52735],[15.4783,58.52584],[15.47829,58.52437],[15.4789,58.52302],[15.47872,58.52204],[15.47901,58.52006],[15.47962,58.51874],[15.47781,58.51702],[15.47726,58.51489],[15.47799,58.51314],[15.47893,58.51218],[15.48039,58.51122]]]}},{"type":"Feature","id":"0580R031","properties":{"code":"0580R031","name":"Vårdnäs omland"},"geometry":{"type":"Polygon","coordinates":[[[15.71677,58.4028],[15.72365,58.40143],[15.72275,58.40012],[15.72304,58.39887],[15.72582,58.39874],[15.72659,58.39779],[15.72819,58.39654],[15.73543,58.39277],[15.7356,58.39289],[15.736,58.39275],[15.73872,58.39141],[15.74104,58.38983],[15.74837,58.39004],[15.75269,58.38812],[15.75201,58.38787],[15.75248,58.38754],[15.75192,58.38717],[15.75207,58.38686],[15.74895,58.38627],[15.74494,58.38473],[15.74909,58.38],[15.74439,58.37783],[15.74559,58.37701],[15.74875,58.37639],[15.75126,58.37519],[15.75219,58.37454],[15.758,58.3723],[15.75909,58.37046],[15.7599,58.3704],[15.76171,58.37076],[15.76219,58.37136],[15.76449,58.37034],[15.76986,58.36189],[15.77563,58.36325],[15.77714,58.36462],[15.77786,58.36462],[15.77859,58.36498],[15.78198,58.36526],[15.78211,58.36447],[15.784,58.36225],[15.78403,58.36155],[15.78532,58.35916],[15.78509,58.35832],[15.78599,58.35627],[15.78685,58.35537],[15.79195,58.35214],[15.79198,58.34944],[15.79318,58.34648],[15.79324,58.34413],[15.79296,58.34369],[15.79278,58.34376],[15.7927,58.34204],[15.79095,58.34015],[15.79018,58.33971],[15.79201,58.33863],[15.79103,58.33692],[15.79125,58.33662],[15.79347,58.33576],[15.7941,58.33506],[15.79369,58.33454],[15.79215,58.33385],[15.79079,58.33256],[15.78724,58.33082],[15.79127,58.32873],[15.7967,58.32244],[15.81025,58.31554],[15.80759,58.31354],[15.80655,58.31146],[15.80683,58.31134],[15.80694,58.31072],[15.80519,58.31061],[15.80439,58.31033],[15.80361,58.30939],[15.80253,58.30894],[15.80221,58.3084],[15.8059,58.3063],[15.80548,58.306],[15.80779,58.30339],[15.81004,58.30153],[15.81133,58.30108],[15.81357,58.30089],[15.81355,58.30021],[15.81547,58.29697],[15.81574,58.2945],[15.81515,58.29401],[15.81569,58.29317],[15.81441,58.2927],[15.81302,58.29096],[15.81084,58.29105],[15.81034,58.2902],[15.80798,58.28945],[15.80583,58.28833],[15.79671,58.28609],[15.80025,58.28383],[15.80266,58.28288],[15.80289,58.28217],[15.80696,58.28111],[15.80754,58.27792],[15.81694,58.27814],[15.83165,58.2699],[15.83509,58.26308],[15.82738,58.25898],[15.82341,58.25913],[15.82012,58.25029],[15.82328,58.24705],[15.82776,58.24464],[15.83835,58.22913],[15.83288,58.22198],[15.82811,58.21232],[15.8279,58.20977],[15.82046,58.2072],[15.81543,58.2061],[15.80385,58.20907],[15.79141,58.20717],[15.78424,58.20346],[15.7795,58.20453],[15.77455,58.20491],[15.76718,58.20476],[15.76326,58.20249],[15.76306,58.19486],[15.74861,58.18921],[15.74551,58.18864],[15.74464,58.18781],[15.74252,58.18678],[15.74133,58.18763],[15.73813,58.18812],[15.73635,58.18901],[15.73542,58.18978],[15.73237,58.18997],[15.72946,58.1914],[15.72744,58.19176],[15.72632,58.19159],[15.72321,58.19167],[15.72126,58.19235],[15.72094,58.19275],[15.71966,58.19325],[15.71813,58.19314],[15.71644,58.19397],[15.71428,58.19445],[15.71188,58.19434],[15.70866,58.19176],[15.70609,58.19135],[15.70099,58.1915],[15.70874,58.18598],[15.7098,58.18373],[15.71169,58.1816],[15.71178,58.17875],[15.71403,58.17712],[15.71413,58.17611],[15.71477,58.1757],[15.71422,58.17446],[15.71244,58.17419],[15.71147,58.17346],[15.71486,58.17279],[15.71442,58.17198],[15.70862,58.17257],[15.69391,58.16723],[15.69233,58.16736],[15.68872,58.16555],[15.68512,58.16618],[15.67741,58.16408],[15.66808,58.16474],[15.66138,58.15921],[15.65009,58.15885],[15.65,58.17109],[15.65222,58.17911],[15.62078,58.18517],[15.61247,58.18859],[15.59715,58.18914],[15.59266,58.1877],[15.58694,58.18825],[15.58328,58.18937],[15.58038,58.18967],[15.57966,58.18951],[15.57827,58.19044],[15.57839,58.19069],[15.57772,58.19125],[15.57798,58.19213],[15.57579,58.19199],[15.57539,58.19238],[15.57566,58.19327],[15.57616,58.19369],[15.57581,58.19413],[15.57476,58.19436],[15.57417,58.19432],[15.5741,58.1938],[15.57297,58.19373],[15.57218,58.1953],[15.57057,58.19628],[15.57038,58.19695],[15.56844,58.19689],[15.56657,58.19759],[15.56586,58.19805],[15.56392,58.20057],[15.56427,58.20185],[15.56396,58.20261],[15.56111,58.20586],[15.5631,58.20782],[15.56312,58.20817],[15.56143,58.21438],[15.57284,58.22241],[15.57434,58.22479],[15.5735,58.22869],[15.57121,58.2308],[15.57009,58.2325],[15.56505,58.23439],[15.56244,58.23712],[15.5634,58.23907],[15.56369,58.24158],[15.56436,58.24281],[15.57278,58.24526],[15.56679,58.24906],[15.56712,58.25098],[15.55846,58.25203],[15.55164,58.25504],[15.54728,58.26119],[15.55071,58.26623],[15.55007,58.26988],[15.54878,58.2726],[15.54447,58.27878],[15.54193,58.28012],[15.54134,58.28072],[15.53989,58.28127],[15.53662,58.28385],[15.53346,58.28456],[15.52974,58.28756],[15.53621,58.2885],[15.52699,58.30687],[15.52172,58.30398],[15.51858,58.3013],[15.51365,58.29933],[15.50744,58.29919],[15.50411,58.30146],[15.50358,58.30425],[15.50471,58.30598],[15.50643,58.30706],[15.50605,58.30934],[15.50531,58.31064],[15.50417,58.31179],[15.50217,58.31288],[15.50146,58.31358],[15.50067,58.31514],[15.51289,58.32096],[15.51678,58.31923],[15.51856,58.31895],[15.52541,58.31849],[15.52823,58.318],[15.53439,58.31765],[15.53571,58.32505],[15.53007,58.32571],[15.53148,58.32909],[15.52584,58.33344],[15.5294,58.33455],[15.52942,58.33505],[15.52789,58.3364],[15.5358,58.33876],[15.53335,58.34255],[15.53282,58.34511],[15.53324,58.34618],[15.53395,58.34676],[15.53405,58.34765],[15.54068,58.34851],[15.54401,58.34946],[15.54736,58.35085],[15.55011,58.35151],[15.55195,58.35166],[15.55693,58.35163],[15.55905,58.35113],[15.56106,58.3509],[15.56486,58.35094],[15.56901,58.35053],[15.5718,58.35054],[15.57581,58.35101],[15.58004,58.35194],[15.58225,58.3527],[15.58421,58.35384],[15.58582,58.35572],[15.58605,58.35753],[15.58525,58.35922],[15.58267,58.36136],[15.58137,58.36339],[15.58227,58.36466],[15.583,58.36683],[15.58286,58.36804],[15.58211,58.36941],[15.5845,58.37057],[15.58652,58.37209],[15.58648,58.37265],[15.58724,58.37354],[15.5869,58.37426],[15.58917,58.37477],[15.59377,58.37618],[15.59429,58.37667],[15.59452,58.38023],[15.59237,58.38183],[15.59257,58.38413],[15.59197,58.38683],[15.59157,58.38761],[15.59073,58.38807],[15.59277,58.38857],[15.59374,58.38904],[15.59871,58.3927],[15.6003,58.39156],[15.6031,58.39026],[15.60549,58.38964],[15.60779,58.38932],[15.6107,58.38848],[15.61237,58.38742],[15.61405,58.38672],[15.61971,58.38533],[15.61985,58.38389],[15.62068,58.38251],[15.62215,58.38129],[15.62533,58.37972],[15.62591,58.37814],[15.62791,58.37613],[15.62843,58.37465],[15.62927,58.37362],[15.63091,58.37244],[15.63369,58.3713],[15.63614,58.36977],[15.63953,58.36847],[15.64253,58.36778],[15.64413,58.36694],[15.64701,58.36585],[15.65073,58.36492],[15.65531,58.36448],[15.65786,58.36461],[15.65992,58.36493],[15.66255,58.36477],[15.67018,58.35921],[15.67341,58.35745],[15.67585,58.35674],[15.67866,58.35627],[15.68355,58.35596],[15.68565,58.356],[15.68891,58.35651],[15.6917,58.3575],[15.69474,58.35705],[15.69745,58.35706],[15.6995,58.35731],[15.70313,58.35815],[15.70615,58.35929],[15.70763,58.3601],[15.7114,58.363],[15.71227,58.36393],[15.71946,58.36487],[15.72109,58.36533],[15.72365,58.36654],[15.72534,58.36809],[15.72602,58.37021],[15.72512,58.37239],[15.72642,58.37367],[15.72698,58.37479],[15.72818,58.37617],[15.72859,58.37722],[15.72834,58.37965],[15.72711,58.38136],[15.7282,58.38373],[15.72791,58.38589],[15.72701,58.38723],[15.72548,58.38843],[15.72341,58.38938],[15.72077,58.39006],[15.7212,58.39218],[15.72032,58.39642],[15.71984,58.39744],[15.71865,58.39868],[15.71714,58.39968],[15.7145,58.40095],[15.71225,58.40166],[15.71187,58.4026],[15.71367,58.40219],[15.71577,58.40221],[15.71677,58.4028]],[[15.72564,58.3186],[15.72949,58.31887],[15.73369,58.31997],[15.73595,58.3212],[15.73745,58.32276],[15.73946,58.32329],[15.74099,58.32393],[15.74323,58.3256],[15.74406,58.32701],[15.74411,58.32881],[15.74338,58.33018],[15.74183,58.33152],[15.74448,58.33708],[15.74463,58.33816],[15.74423,58.33956],[15.7424,58.34148],[15.73985,58.34274],[15.73944,58.34461],[15.73791,58.34633],[15.73607,58.34743],[15.73377,58.34826],[15.73098,58.34879],[15.72755,58.34889],[15.72398,58.3484],[15.72107,58.3474],[15.71712,58.34866],[15.71449,58.34915],[15.71172,58.34928],[15.70879,58.34903],[15.70623,58.34842],[15.70398,58.34749],[15.70229,58.34632],[15.70116,58.34488],[15.70078,58.34343],[15.70114,58.34128],[15.70177,58.34011],[15.70305,58.33888],[15.70121,58.33749],[15.70032,58.33612],[15.70012,58.33468],[15.70061,58.33329],[15.70334,58.32977],[15.70722,58.32708],[15.70947,58.32622],[15.71141,58.32578],[15.71237,58.32385],[15.71426,58.32237],[15.71636,58.32145],[15.71819,58.32024],[15.71984,58.31955],[15.7222,58.31897],[15.72564,58.3186]]]}}]}