{"type":"FeatureCollection","features":[{"type":"Feature","id":"0581R003","properties":{"code":"0581R003","name":"Djäknepark-Gustav Adolf"},"geometry":{"type":"Polygon","coordinates":[[[16.19781,58.59148],[16.19864,58.59006],[16.20266,58.59016],[16.20167,58.58786],[16.20257,58.58758],[16.20245,58.58717],[16.20337,58.58556],[16.2028,58.58503],[16.20119,58.58554],[16.20107,58.58535],[16.2006,58.58591],[16.19866,58.58542],[16.19617,58.58509],[16.19469,58.58766],[16.19484,58.58797],[16.19346,58.59013],[16.19703,58.59062],[16.19663,58.59131],[16.19781,58.59148]]]}},{"type":"Feature","id":"0581R004","properties":{"code":"0581R004","name":"Eksund-Öbonäs"},"geometry":{"type":"Polygon","coordinates":[[[16.10307,58.58711],[16.10595,58.58718],[16.11599,58.58976],[16.11672,58.5902],[16.11692,58.59096],[16.1173,58.59115],[16.11993,58.59153],[16.12149,58.59214],[16.12171,58.59279],[16.12126,58.59329],[16.12046,58.59365],[16.12022,58.59414],[16.12171,58.59432],[16.12367,58.59373],[16.1258,58.59285],[16.12437,58.58994],[16.12413,58.58883],[16.12444,58.58737],[16.12565,58.58579],[16.12061,58.5847],[16.11325,58.58273],[16.11039,58.58122],[16.10873,58.57933],[16.10834,58.57791],[16.10731,58.57616],[16.10731,58.5744],[16.10829,58.57257],[16.11047,58.5709],[16.11588,58.56864],[16.11903,58.56788],[16.12264,58.56757],[16.12664,58.56795],[16.13062,58.56744],[16.1344,58.56651],[16.13933,58.56629],[16.13943,58.56475],[16.14025,58.56337],[16.14168,58.56216],[16.14368,58.56116],[16.14895,58.55968],[16.15146,58.55935],[16.15362,58.55931],[16.15716,58.55804],[16.15912,58.55759],[16.16525,58.55679],[16.16909,58.55666],[16.17012,58.55547],[16.17243,58.55377],[16.17599,58.55441],[16.17739,58.55484],[16.17924,58.55499],[16.17944,58.55428],[16.18185,58.55433],[16.18319,58.55507],[16.18463,58.55529],[16.18573,58.55574],[16.1925,58.55259],[16.20701,58.54858],[16.20877,58.54578],[16.21124,58.54472],[16.21449,58.5447],[16.21865,58.54314],[16.22011,58.54232],[16.22201,58.54059],[16.22288,58.53399],[16.21972,58.53267],[16.21937,58.53124],[16.22063,58.53045],[16.22046,58.53038],[16.22201,58.52875],[16.22444,58.52886],[16.22556,58.5279],[16.22689,58.52769],[16.22811,58.52724],[16.2279,58.52708],[16.22882,58.52616],[16.22891,58.52538],[16.22788,58.52449],[16.22934,58.52081],[16.22591,58.52071],[16.22608,58.51874],[16.21305,58.51887],[16.20849,58.52022],[16.2085,58.52055],[16.18434,58.52009],[16.18253,58.52353],[16.18295,58.5236],[16.17997,58.52643],[16.17764,58.52674],[16.16755,58.5262],[16.16718,58.52694],[16.16662,58.52701],[16.16206,58.52572],[16.16132,58.52517],[16.16126,58.5248],[16.16052,58.52448],[16.15943,58.52437],[16.15911,58.52381],[16.15764,58.52398],[16.1563,58.52367],[16.15586,58.52261],[16.15522,58.52241],[16.15408,58.52144],[16.14682,58.51908],[16.14673,58.51931],[16.14796,58.52094],[16.13992,58.52161],[16.13977,58.5206],[16.14022,58.52007],[16.13965,58.51986],[16.1402,58.51923],[16.14083,58.51936],[16.14104,58.51915],[16.13796,58.51782],[16.13243,58.51383],[16.12863,58.5145],[16.12812,58.51425],[16.12815,58.51375],[16.1218,58.51191],[16.11988,58.51176],[16.11912,58.51246],[16.11245,58.51267],[16.11118,58.51207],[16.11018,58.51214],[16.10872,58.51267],[16.10739,58.51258],[16.10768,58.5091],[16.11132,58.50485],[16.11112,58.50312],[16.10361,58.50342],[16.09323,58.50339],[16.07852,58.51527],[16.07195,58.51718],[16.06462,58.52049],[16.06154,58.52228],[16.06398,58.52277],[16.06501,58.52174],[16.06678,58.52157],[16.06918,58.52295],[16.06903,58.52383],[16.06498,58.52424],[16.06342,58.52482],[16.06295,58.52542],[16.06411,58.52623],[16.06229,58.52782],[16.06152,58.52804],[16.05992,58.52807],[16.05786,58.52783],[16.05657,58.52886],[16.05621,58.52889],[16.05583,58.5287],[16.05613,58.52802],[16.0557,58.52785],[16.04763,58.5373],[16.04255,58.53533],[16.03777,58.53531],[16.03027,58.53556],[16.02909,58.53677],[16.02863,58.53691],[16.02734,58.53672],[16.02668,58.53681],[16.01957,58.53591],[16.01781,58.53557],[16.017,58.53505],[16.01572,58.53556],[16.01423,58.53578],[16.01279,58.53578],[16.01253,58.5354],[16.00986,58.53557],[16.00668,58.53606],[16.00539,58.53598],[16.00488,58.53507],[16.00003,58.5319],[15.99849,58.53314],[15.99747,58.53489],[15.99466,58.53753],[15.99091,58.537],[15.98885,58.53713],[15.99028,58.5382],[15.99113,58.53923],[15.99182,58.54116],[15.99185,58.54224],[15.99103,58.54398],[15.98818,58.54678],[15.9865,58.54793],[15.98411,58.54888],[15.98635,58.55103],[15.98718,58.55242],[15.98722,58.55439],[15.98615,58.55621],[15.98405,58.55776],[15.98112,58.55887],[15.97521,58.56022],[15.97308,58.56036],[15.9706,58.56025],[15.97017,58.56189],[15.96906,58.56328],[15.96736,58.56444],[15.9649,58.56544],[15.96192,58.56614],[15.95918,58.56646],[15.95703,58.56646],[15.95416,58.56613],[15.95455,58.56738],[15.95433,58.56883],[15.95335,58.5704],[15.952,58.57163],[15.94937,58.57511],[15.94898,58.57646],[15.94788,58.57801],[15.94814,58.57984],[15.94754,58.5813],[15.94567,58.58341],[15.94413,58.58461],[15.94263,58.58535],[15.93907,58.58661],[15.93866,58.58694],[15.93869,58.58742],[15.93799,58.58794],[15.93784,58.58874],[15.95126,58.62025],[15.97727,58.62252],[15.98352,58.61561],[16.06233,58.61017],[16.07977,58.5963],[16.08548,58.59255],[16.0887,58.59098],[16.09436,58.58888],[16.10307,58.58711]]]}},{"type":"Feature","id":"0581R005","properties":{"code":"0581R005","name":"Eneby centrum-Vidablick-Sandbyhov"},"geometry":{"type":"Polygon","coordinates":[[[16.15282,58.61085],[16.16037,58.60914],[16.16064,58.60862],[16.16501,58.60589],[16.16586,58.60494],[16.1572,58.60454],[16.15299,58.603],[16.15041,58.60502],[16.14533,58.60329],[16.14403,58.60332],[16.14232,58.60381],[16.14147,58.60428],[16.14069,58.60507],[16.14139,58.60541],[16.14327,58.6057],[16.14609,58.60677],[16.14495,58.60724],[16.14547,58.60768],[16.14603,58.60777],[16.14578,58.60851],[16.15282,58.61085]]]}},{"type":"Feature","id":"0581R006","properties":{"code":"0581R006","name":"Gamla Staden-Centrum"},"geometry":{"type":"Polygon","coordinates":[[[16.19119,58.59448],[16.19444,58.59412],[16.19462,58.59381],[16.19366,58.59374],[16.19424,58.59256],[16.19245,58.59229],[16.19617,58.58509],[16.19457,58.58496],[16.19294,58.58458],[16.19229,58.58463],[16.19166,58.58439],[16.19037,58.58437],[16.18984,58.58477],[16.18853,58.58781],[16.18498,58.58737],[16.18484,58.58887],[16.18384,58.5894],[16.18401,58.59038],[16.18288,58.59244],[16.18346,58.59308],[16.18533,58.59357],[16.19119,58.59448]]]}},{"type":"Feature","id":"0581R007","properties":{"code":"0581R007","name":"Generalen"},"geometry":{"type":"Polygon","coordinates":[[[16.19576,58.59327],[16.19698,58.59291],[16.19779,58.59148],[16.19663,58.59131],[16.19703,58.59062],[16.19353,58.59015],[16.19245,58.59229],[16.19424,58.59256],[16.19366,58.59374],[16.19462,58.59381],[16.19444,58.59412],[16.19527,58.59417],[16.19576,58.59327]]]}},{"type":"Feature","id":"0581R001","properties":{"code":"0581R001","name":"Borgs villastad-Kneippen"},"geometry":{"type":"Polygon","coordinates":[[[16.16589,58.58757],[16.16418,58.58671],[16.16509,58.58622],[16.16555,58.58565],[16.1637,58.58525],[16.16473,58.58302],[16.16417,58.58291],[16.164,58.58264],[16.16581,58.58058],[16.16609,58.57962],[16.16646,58.57945],[16.15996,58.57738],[16.14924,58.58408],[16.1513,58.5876],[16.15437,58.58697],[16.1555,58.58715],[16.15696,58.58788],[16.15758,58.58798],[16.15907,58.58792],[16.16233,58.5871],[16.16368,58.58737],[16.16456,58.58804],[16.16508,58.58819],[16.16589,58.58757]]]}},{"type":"Feature","id":"0581R002","properties":{"code":"0581R002","name":"Djurön-Ljunga-Tingstad"},"geometry":{"type":"Polygon","coordinates":[[[16.34784,58.65798],[16.35693,58.65351],[16.36889,58.64489],[16.40532,58.64254],[16.42033,58.6245],[16.4165,58.6167],[16.40776,58.61058],[16.40396,58.60822],[16.40502,58.60523],[16.40483,58.605],[16.37852,58.59342],[16.37841,58.59315],[16.37624,58.59222],[16.37388,58.5901],[16.37424,58.58945],[16.3743,58.58825],[16.3739,58.58517],[16.37262,58.58304],[16.37266,58.5818],[16.37105,58.58018],[16.37075,58.57869],[16.37098,58.57848],[16.37181,58.57847],[16.37286,58.57798],[16.37959,58.57006],[16.38283,58.57036],[16.38425,58.56708],[16.38557,58.5654],[16.38629,58.5626],[16.38569,58.56161],[16.38557,58.55944],[16.38493,58.55844],[16.3832,58.55797],[16.38273,58.55634],[16.38357,58.55549],[16.38357,58.55496],[16.38468,58.55468],[16.38425,58.55443],[16.38424,58.55412],[16.38529,58.55416],[16.3862,58.55368],[16.38562,58.55291],[16.38501,58.55273],[16.38395,58.55277],[16.38313,58.55174],[16.3824,58.55147],[16.38267,58.55018],[16.3831,58.5497],[16.38211,58.54883],[16.38243,58.54848],[16.38213,58.54809],[16.38414,58.54717],[16.38557,58.54454],[16.38308,58.54333],[16.38011,58.54307],[16.37961,58.54345],[16.37942,58.54244],[16.38075,58.54215],[16.38055,58.5419],[16.37981,58.54198],[16.37989,58.5417],[16.37947,58.54161],[16.37973,58.54137],[16.37808,58.54138],[16.38025,58.53866],[16.38214,58.53694],[16.38097,58.53614],[16.37962,58.53565],[16.37761,58.53611],[16.37617,58.53611],[16.37426,58.53687],[16.37397,58.53647],[16.3752,58.53582],[16.37363,58.53381],[16.37258,58.53412],[16.36965,58.53067],[16.3679,58.52957],[16.36695,58.53007],[16.36288,58.52808],[16.35914,58.52855],[16.35556,58.52686],[16.35257,58.52607],[16.35056,58.52618],[16.34767,58.52604],[16.34374,58.52625],[16.33745,58.52362],[16.33467,58.52393],[16.332,58.52495],[16.32922,58.52561],[16.32238,58.52571],[16.32384,58.52421],[16.32346,58.52377],[16.32446,58.52335],[16.32415,58.52282],[16.32621,58.52044],[16.32497,58.51949],[16.33585,58.51673],[16.33635,58.51417],[16.3362,58.51224],[16.33404,58.51117],[16.33313,58.51023],[16.33219,58.51106],[16.32988,58.51125],[16.32336,58.51242],[16.31775,58.51277],[16.31133,58.51434],[16.30744,58.51395],[16.30521,58.51321],[16.3037,58.51301],[16.30126,58.51302],[16.29938,58.51368],[16.29666,58.51253],[16.29242,58.51244],[16.28864,58.51498],[16.28832,58.51498],[16.28567,58.517],[16.28285,58.5159],[16.28288,58.51569],[16.27586,58.51599],[16.26679,58.52179],[16.26254,58.5211],[16.25531,58.52336],[16.24616,58.52376],[16.24573,58.51863],[16.22908,58.52093],[16.22788,58.52449],[16.22891,58.52538],[16.22882,58.52616],[16.2279,58.52708],[16.22811,58.52724],[16.22689,58.52769],[16.22556,58.5279],[16.22444,58.52886],[16.22201,58.52875],[16.22046,58.53038],[16.22063,58.53045],[16.21937,58.53124],[16.21972,58.53267],[16.22288,58.53399],[16.22246,58.53721],[16.2246,58.53687],[16.22721,58.53678],[16.23051,58.53716],[16.23307,58.53708],[16.23767,58.53749],[16.24492,58.53925],[16.24791,58.54072],[16.24946,58.54234],[16.24992,58.54447],[16.24937,58.54586],[16.24795,58.5474],[16.24758,58.54859],[16.2468,58.54964],[16.24854,58.55052],[16.25035,58.55182],[16.25134,58.55317],[16.25165,58.55458],[16.25142,58.55568],[16.25053,58.55702],[16.24944,58.55794],[16.24783,58.55885],[16.2499,58.55915],[16.25222,58.55982],[16.25415,58.56077],[16.25569,58.56199],[16.25938,58.56294],[16.26165,58.56381],[16.26394,58.56538],[16.26516,58.56742],[16.26512,58.56902],[16.26437,58.57043],[16.26298,58.5717],[16.26101,58.5728],[16.26119,58.57485],[16.26017,58.57658],[16.25881,58.57769],[16.2574,58.57931],[16.25548,58.58053],[16.25273,58.58159],[16.24929,58.58217],[16.24828,58.58315],[16.24816,58.58482],[16.24719,58.58647],[16.24526,58.58789],[16.24289,58.58883],[16.24405,58.59031],[16.24507,58.59111],[16.24636,58.59116],[16.24866,58.59112],[16.25102,58.59044],[16.25365,58.59008],[16.25638,58.59007],[16.25845,58.59031],[16.26082,58.59086],[16.26253,58.59147],[16.26398,58.59224],[16.26537,58.59338],[16.2663,58.59373],[16.26973,58.59415],[16.27277,58.5951],[16.27656,58.59507],[16.27838,58.59408],[16.28008,58.59346],[16.2827,58.59276],[16.28538,58.59239],[16.2881,58.59238],[16.2924,58.5928],[16.2967,58.59371],[16.29971,58.59337],[16.30312,58.59353],[16.30742,58.59455],[16.30966,58.5954],[16.31238,58.59718],[16.31372,58.59883],[16.31394,58.60097],[16.3126,58.603],[16.31096,58.60414],[16.30866,58.60519],[16.30625,58.60584],[16.30365,58.60616],[16.30343,58.60761],[16.30256,58.60947],[16.3014,58.6107],[16.29965,58.61177],[16.29749,58.61255],[16.29324,58.61347],[16.29063,58.6136],[16.28774,58.61336],[16.28574,58.61357],[16.28029,58.61369],[16.27858,58.61433],[16.2798,58.61854],[16.29137,58.62267],[16.30249,58.63599],[16.29378,58.65145],[16.32009,58.65768],[16.34784,58.65798]]]}},{"type":"Feature","id":"0581R020","properties":{"code":"0581R020","name":"Norra Ektorp"},"geometry":{"type":"Polygon","coordinates":[[[16.17094,58.58364],[16.1713,58.58243],[16.17437,58.57955],[16.17321,58.57894],[16.17195,58.57957],[16.16771,58.57816],[16.16681,58.57849],[16.16467,58.57719],[16.16243,58.57814],[16.16646,58.57945],[16.16609,58.57962],[16.16581,58.58058],[16.164,58.58264],[16.16417,58.58291],[16.16912,58.58369],[16.17094,58.58364]]]}},{"type":"Feature","id":"0581R021","properties":{"code":"0581R021","name":"Norra Ljura"},"geometry":{"type":"Polygon","coordinates":[[[16.20119,58.58554],[16.20644,58.58395],[16.20854,58.5831],[16.21048,58.58147],[16.21126,58.58006],[16.20994,58.57973],[16.20871,58.58051],[16.20828,58.58053],[16.20591,58.57944],[16.20179,58.57805],[16.20038,58.57778],[16.19589,58.58072],[16.19844,58.58251],[16.19999,58.5853],[16.20107,58.58535],[16.20119,58.58554]]]}},{"type":"Feature","id":"0581R025","properties":{"code":"0581R025","name":"Sandtorp-Norra Skarphagen"},"geometry":{"type":"Polygon","coordinates":[[[16.14924,58.58408],[16.15996,58.57738],[16.15407,58.57592],[16.15248,58.57535],[16.14867,58.57347],[16.1497,58.5721],[16.14575,58.57103],[16.14457,58.57081],[16.14328,58.57081],[16.13822,58.57162],[16.13894,58.57303],[16.14096,58.57487],[16.13862,58.57599],[16.13781,58.57777],[16.13792,58.57861],[16.13604,58.58056],[16.13835,58.5805],[16.14055,58.58128],[16.14022,58.58267],[16.14687,58.58356],[16.14924,58.58408]]]}},{"type":"Feature","id":"0581R026","properties":{"code":"0581R026","name":"Simonstorp-Graversfors-Landsbygd"},"geometry":{"type":"Polygon","coordinates":[[[16.18574,58.85132],[16.18545,58.84994],[16.19144,58.84642],[16.19256,58.8434],[16.19164,58.83904],[16.19564,58.8389],[16.19666,58.83904],[16.19735,58.8397],[16.19719,58.83876],[16.19832,58.83799],[16.19892,58.83717],[16.20008,58.83705],[16.20138,58.83609],[16.2031,58.83571],[16.20416,58.83584],[16.21062,58.83486],[16.2124,58.83361],[16.21588,58.83785],[16.21979,58.83835],[16.26361,58.83223],[16.28932,58.80071],[16.29628,58.79828],[16.29777,58.79651],[16.30093,58.79525],[16.302,58.79567],[16.30481,58.79507],[16.30631,58.7942],[16.30752,58.79382],[16.30946,58.792],[16.3103,58.79154],[16.30746,58.78674],[16.30646,58.78679],[16.3064,58.78666],[16.30863,58.78547],[16.29604,58.77593],[16.29518,58.77608],[16.30217,58.77149],[16.30459,58.76833],[16.30179,58.76292],[16.30113,58.76256],[16.30118,58.76176],[16.3008,58.76095],[16.30135,58.76043],[16.30121,58.75979],[16.30156,58.75939],[16.30085,58.75841],[16.30083,58.75792],[16.30166,58.75692],[16.30149,58.75638],[16.30205,58.75617],[16.30216,58.75567],[16.30268,58.75526],[16.30252,58.75514],[16.30315,58.7547],[16.30279,58.75403],[16.30324,58.75317],[16.30294,58.75292],[16.30335,58.75271],[16.30305,58.75248],[16.30345,58.75226],[16.30342,58.75197],[16.3039,58.75192],[16.30326,58.75014],[16.30339,58.74969],[16.30309,58.74943],[16.30365,58.74904],[16.30339,58.74813],[16.30175,58.74744],[16.30111,58.74659],[16.28731,58.74111],[16.28442,58.73797],[16.28543,58.7249],[16.2707,58.71179],[16.27539,58.71093],[16.28067,58.70906],[16.27566,58.70544],[16.2714,58.70073],[16.26855,58.70096],[16.26748,58.70151],[16.2641,58.69092],[16.26366,58.69073],[16.2622,58.69062],[16.2607,58.69013],[16.26092,58.68982],[16.26055,58.68956],[16.26125,58.68849],[16.26076,58.68771],[16.26125,58.68682],[16.26222,58.68695],[16.26275,58.68619],[16.26409,58.68511],[16.26508,58.68497],[16.26604,58.68444],[16.26755,58.68442],[16.26926,58.68276],[16.27024,58.68226],[16.27084,58.68211],[16.27158,58.68244],[16.27238,58.68235],[16.2741,58.68171],[16.27671,58.67955],[16.27657,58.67945],[16.27861,58.67804],[16.2782,58.67784],[16.27837,58.6776],[16.2793,58.67758],[16.27976,58.67725],[16.27878,58.6769],[16.2794,58.6765],[16.27919,58.67628],[16.28044,58.67596],[16.28081,58.67513],[16.28136,58.67517],[16.28217,58.67477],[16.28253,58.6749],[16.28267,58.67456],[16.28377,58.67443],[16.2843,58.67409],[16.28488,58.67417],[16.28574,58.67393],[16.28645,58.67401],[16.28683,58.67359],[16.28657,58.67337],[16.28939,58.67198],[16.29029,58.67039],[16.29228,58.66872],[16.2931,58.66841],[16.29457,58.66864],[16.29679,58.66806],[16.29824,58.66729],[16.29841,58.66552],[16.28826,58.66481],[16.28788,58.65293],[16.29378,58.65145],[16.30249,58.63599],[16.29137,58.62267],[16.2798,58.61854],[16.27858,58.61433],[16.27492,58.61503],[16.26943,58.61518],[16.26558,58.61764],[16.2627,58.61874],[16.26024,58.62028],[16.2602,58.62164],[16.25966,58.62284],[16.25896,58.62379],[16.25752,58.62493],[16.25557,58.62585],[16.24867,58.62787],[16.24509,58.62921],[16.24187,58.62976],[16.2386,58.62976],[16.23669,58.62951],[16.23362,58.62874],[16.2287,58.62899],[16.22594,58.62886],[16.22334,58.62837],[16.22109,58.62756],[16.19221,58.63348],[16.18971,58.63341],[16.18868,58.6322],[16.18666,58.63315],[16.19282,58.63644],[16.19264,58.63662],[16.18494,58.63938],[16.18299,58.6402],[16.18208,58.64099],[16.1799,58.63932],[16.17899,58.63973],[16.17833,58.63936],[16.17462,58.64132],[16.17624,58.64328],[16.17991,58.64434],[16.18254,58.64487],[16.18796,58.64652],[16.19134,58.64803],[16.19281,58.64925],[16.19362,58.6506],[16.19381,58.65206],[16.19359,58.65382],[16.19407,58.65525],[16.19638,58.6552],[16.19906,58.65547],[16.20153,58.65607],[16.2032,58.65675],[16.20649,58.65895],[16.20747,58.66027],[16.20778,58.66143],[16.20961,58.662],[16.21165,58.663],[16.21315,58.66424],[16.21397,58.66547],[16.21428,58.66693],[16.21388,58.66838],[16.21311,58.66943],[16.21109,58.67116],[16.21073,58.67281],[16.20969,58.6741],[16.20883,58.67476],[16.20598,58.67561],[16.20672,58.67579],[16.20409,58.67654],[16.2017,58.67683],[16.19992,58.6778],[16.20216,58.67912],[16.20475,58.68202],[16.20562,58.6839],[16.20558,58.68527],[16.20465,58.68692],[16.20369,58.68785],[16.2008,58.68937],[16.19864,58.69091],[16.19668,58.69183],[16.19304,58.69266],[16.18617,58.69289],[16.179,58.69228],[16.17534,58.69144],[16.17236,58.68987],[16.17098,58.68833],[16.16953,58.68719],[16.16857,58.68587],[16.16563,58.68491],[16.16355,58.68358],[16.16224,58.68163],[16.1624,58.67901],[16.16153,58.67757],[16.16131,58.67605],[16.1587,58.67521],[16.15694,58.67435],[16.1551,58.67297],[16.15417,58.67154],[16.14203,58.67176],[16.14125,58.67312],[16.13799,58.67353],[16.138,58.67382],[16.13758,58.67401],[16.13765,58.67501],[16.13541,58.67511],[16.13477,58.67722],[16.13241,58.67704],[16.13162,58.6767],[16.13162,58.67645],[16.12986,58.67645],[16.1298,58.67661],[16.12739,58.67642],[16.12406,58.67656],[16.12015,58.67846],[16.11626,58.68137],[16.11444,58.68243],[16.10911,58.683],[16.10596,58.68523],[16.10415,58.68467],[16.09283,58.69492],[16.08508,58.69983],[16.08351,58.69987],[16.08335,58.70004],[16.08043,58.70034],[16.08087,58.70257],[16.06933,58.71014],[16.06198,58.71065],[16.06171,58.70669],[16.04724,58.70658],[16.047,58.69931],[16.03714,58.7018],[16.03166,58.69963],[16.02908,58.70384],[16.01681,58.7145],[16.01411,58.71375],[16.02172,58.73035],[16.02631,58.73473],[16.01586,58.74577],[16.03023,58.7527],[16.05207,58.76603],[16.07542,58.77233],[16.08246,58.77252],[16.07845,58.78967],[16.07587,58.7938],[16.07264,58.7969],[16.07363,58.79738],[16.07582,58.7979],[16.09343,58.80153],[16.09145,58.80285],[16.09001,58.80336],[16.089,58.8045],[16.08963,58.80588],[16.09317,58.80579],[16.0995,58.80344],[16.09326,58.81728],[16.10337,58.82521],[16.11146,58.82246],[16.1141,58.82194],[16.11862,58.82006],[16.12128,58.82188],[16.12247,58.82246],[16.12615,58.82293],[16.12841,58.82408],[16.13087,58.82445],[16.13069,58.82503],[16.14,58.8267],[16.17933,58.8447],[16.18234,58.85388],[16.18574,58.85132]]]}},{"type":"Feature","id":"0581R027","properties":{"code":"0581R027","name":"Skärblacka-Vånga-Landsbygd"},"geometry":{"type":"Polygon","coordinates":[[[15.69084,58.65541],[15.69903,58.65436],[15.71904,58.6546],[15.73187,58.65653],[15.74026,58.65509],[15.74418,58.65341],[15.74675,58.65411],[15.75255,58.65385],[15.76767,58.65149],[15.77609,58.64826],[15.79089,58.63898],[15.79223,58.63201],[15.80073,58.63363],[15.80897,58.63338],[15.80965,58.63317],[15.81066,58.6323],[15.81297,58.63254],[15.81535,58.63325],[15.8198,58.6342],[15.82151,58.63435],[15.84366,58.62866],[15.85459,58.63203],[15.8799,58.62919],[15.88891,58.62222],[15.89777,58.61575],[15.95126,58.62025],[15.93784,58.5885],[15.93907,58.58661],[15.94263,58.58535],[15.94413,58.58461],[15.94534,58.58374],[15.94723,58.58172],[15.94814,58.57984],[15.94788,58.57801],[15.94898,58.57646],[15.94937,58.57511],[15.952,58.57163],[15.95365,58.56999],[15.95278,58.56911],[15.9513,58.56852],[15.94634,58.5685],[15.9457,58.56961],[15.94303,58.56912],[15.94332,58.56823],[15.94217,58.56804],[15.94276,58.56765],[15.94243,58.56692],[15.9401,58.56658],[15.93421,58.56623],[15.93223,58.56732],[15.92276,58.56563],[15.91623,58.56356],[15.91734,58.56184],[15.91827,58.56191],[15.92145,58.56253],[15.92524,58.56397],[15.92879,58.56496],[15.9317,58.56391],[15.93874,58.56238],[15.94137,58.56203],[15.94385,58.56199],[15.94175,58.5605],[15.94053,58.55884],[15.94015,58.55681],[15.94065,58.55502],[15.94228,58.55332],[15.94474,58.552],[15.94591,58.55081],[15.94751,58.54977],[15.94713,58.54867],[15.94714,58.54702],[15.94831,58.54508],[15.94995,58.54389],[15.9534,58.54222],[15.95535,58.54039],[15.95816,58.5391],[15.95798,58.53819],[15.95824,58.53649],[15.95777,58.535],[15.95773,58.53342],[15.9585,58.53098],[15.95968,58.52901],[15.96111,58.5278],[15.96308,58.52682],[15.9655,58.52611],[15.96767,58.5258],[15.96767,58.52523],[15.9667,58.52453],[15.96397,58.52357],[15.96391,58.52214],[15.95276,58.52146],[15.95272,58.51197],[15.95189,58.51071],[15.94633,58.5119],[15.93966,58.51229],[15.933,58.51178],[15.92961,58.51095],[15.90169,58.51321],[15.89257,58.51176],[15.88638,58.51412],[15.875,58.51604],[15.85636,58.51175],[15.84906,58.51759],[15.83351,58.51549],[15.83092,58.51726],[15.81746,58.51858],[15.80527,58.51418],[15.7827,58.51438],[15.75942,58.51174],[15.76168,58.52201],[15.75677,58.53574],[15.75396,58.54183],[15.75424,58.5447],[15.75667,58.55158],[15.74383,58.55095],[15.7231,58.55232],[15.72143,58.55364],[15.71996,58.55369],[15.72048,58.55591],[15.6907,58.55945],[15.69152,58.56034],[15.69202,58.56056],[15.69284,58.56057],[15.69292,58.56496],[15.69175,58.56616],[15.69164,58.56677],[15.69072,58.56738],[15.68983,58.56899],[15.69037,58.56975],[15.6868,58.57282],[15.68747,58.57523],[15.68645,58.57617],[15.68545,58.57656],[15.68364,58.57828],[15.66262,58.57947],[15.66281,58.58016],[15.66212,58.58336],[15.66402,58.58423],[15.66508,58.58444],[15.66451,58.58528],[15.66289,58.58597],[15.66174,58.58721],[15.66096,58.58766],[15.65839,58.5921],[15.65686,58.59279],[15.65626,58.59407],[15.6492,58.59806],[15.64418,58.60439],[15.64582,58.605],[15.64354,58.60646],[15.64181,58.6067],[15.62703,58.61417],[15.62481,58.63484],[15.61754,58.64423],[15.61843,58.64504],[15.63215,58.6406],[15.65862,58.64041],[15.66223,58.64724],[15.66849,58.65166],[15.67122,58.65335],[15.67469,58.65498],[15.6801,58.65669],[15.68113,58.65752],[15.68682,58.65694],[15.69084,58.65541]]]}},{"type":"Feature","id":"0581R018","properties":{"code":"0581R018","name":"Nordvästra Vilbergen"},"geometry":{"type":"Polygon","coordinates":[[[16.166,58.57508],[16.17108,58.57465],[16.17604,58.57498],[16.17908,58.57492],[16.17965,58.57469],[16.17867,58.57067],[16.17694,58.57092],[16.17589,58.57135],[16.17536,58.57194],[16.17325,58.57184],[16.1731,58.57128],[16.17223,58.57082],[16.17208,58.57039],[16.17494,58.57019],[16.17526,58.56938],[16.17411,58.56857],[16.17248,58.56788],[16.17144,58.56813],[16.1698,58.569],[16.16867,58.56906],[16.16623,58.56724],[16.16517,58.56778],[16.16376,58.56898],[16.16252,58.57103],[16.16318,58.5725],[16.16385,58.57294],[16.16516,58.57336],[16.1643,58.57448],[16.16508,58.57549],[16.166,58.57508]]]}},{"type":"Feature","id":"0581R019","properties":{"code":"0581R019","name":"Nordöstra Hageby"},"geometry":{"type":"Polygon","coordinates":[[[16.21133,58.58001],[16.21477,58.57138],[16.21612,58.56932],[16.21342,58.56809],[16.21019,58.56949],[16.20715,58.56843],[16.20593,58.56932],[16.20348,58.56843],[16.20171,58.57006],[16.20254,58.57038],[16.202,58.57087],[16.19988,58.57189],[16.19944,58.57254],[16.19898,58.57254],[16.19744,58.57309],[16.19695,58.57345],[16.19845,58.57383],[16.19788,58.57439],[16.1972,58.57452],[16.19634,58.57434],[16.19584,58.57522],[16.1991,58.57625],[16.2021,58.57485],[16.20335,58.57547],[16.20344,58.5757],[16.20278,58.57667],[16.20288,58.57692],[16.20221,58.57727],[16.20792,58.57918],[16.21133,58.58001]]]}},{"type":"Feature","id":"0581R008","properties":{"code":"0581R008","name":"Grönhög-Klingsberg"},"geometry":{"type":"Polygon","coordinates":[[[16.18211,58.57974],[16.18633,58.57945],[16.19094,58.57974],[16.18963,58.58093],[16.1929,58.58125],[16.19424,58.58005],[16.19589,58.58072],[16.20038,58.57778],[16.20179,58.57805],[16.20591,58.57944],[16.20828,58.58053],[16.20871,58.58051],[16.20994,58.57973],[16.20221,58.57727],[16.20288,58.57692],[16.20278,58.57667],[16.20344,58.5757],[16.20335,58.57547],[16.2021,58.57485],[16.1991,58.57625],[16.19553,58.57512],[16.19306,58.57463],[16.19013,58.57423],[16.18614,58.57403],[16.17965,58.57469],[16.18074,58.57726],[16.17986,58.57742],[16.17924,58.57801],[16.17659,58.57855],[16.17513,58.57905],[16.17246,58.58137],[16.17436,58.58192],[16.17598,58.58282],[16.1779,58.58124],[16.17932,58.58051],[16.18211,58.57974]]]}},{"type":"Feature","id":"0581R009","properties":{"code":"0581R009","name":"Hallberga-Fyrby-Sörby"},"geometry":{"type":"Polygon","coordinates":[[[16.12996,58.62464],[16.13259,58.62433],[16.13645,58.62331],[16.13887,58.623],[16.14029,58.62238],[16.14353,58.62255],[16.14585,58.62241],[16.14804,58.62095],[16.14622,58.62096],[16.14635,58.62024],[16.14486,58.61898],[16.14708,58.61826],[16.14407,58.616],[16.14267,58.61697],[16.13906,58.61841],[16.13898,58.61806],[16.13659,58.61738],[16.14129,58.61448],[16.1391,58.61324],[16.14675,58.61259],[16.14888,58.61209],[16.15276,58.61083],[16.14578,58.60851],[16.14603,58.60777],[16.14547,58.60768],[16.14494,58.60723],[16.14441,58.60722],[16.14412,58.60795],[16.13893,58.60624],[16.13274,58.61246],[16.12918,58.61093],[16.12621,58.60875],[16.12537,58.60766],[16.12294,58.60348],[16.12134,58.59809],[16.12182,58.59609],[16.12673,58.59794],[16.12801,58.59519],[16.12615,58.59477],[16.12171,58.59432],[16.11989,58.59516],[16.11833,58.59628],[16.11175,58.5979],[16.10886,58.59934],[16.10614,58.60218],[16.10519,58.60352],[16.10455,58.60548],[16.10459,58.60686],[16.10613,58.60935],[16.1085,58.61101],[16.10726,58.61296],[16.10713,58.61451],[16.10773,58.61596],[16.10934,58.61753],[16.11145,58.61865],[16.11346,58.61931],[16.11489,58.62025],[16.11881,58.62216],[16.12113,58.62307],[16.12537,58.62433],[16.12734,58.6246],[16.12996,58.62464]]]}},{"type":"Feature","id":"0581R010","properties":{"code":"0581R010","name":"Herstadberg-Händelö-Lagerlunda"},"geometry":{"type":"Polygon","coordinates":[[[16.17406,58.63613],[16.17621,58.63598],[16.17877,58.63549],[16.18606,58.63335],[16.18868,58.6322],[16.18971,58.63341],[16.19221,58.63348],[16.22109,58.62756],[16.22398,58.62852],[16.22664,58.62893],[16.2287,58.62899],[16.23362,58.62874],[16.23669,58.62951],[16.23925,58.62981],[16.24187,58.62976],[16.24389,58.62949],[16.24622,58.62886],[16.24867,58.62787],[16.25501,58.62603],[16.25707,58.62519],[16.25923,58.62348],[16.26008,58.622],[16.2603,58.621],[16.24568,58.61648],[16.23938,58.61395],[16.21584,58.59917],[16.21271,58.59738],[16.21028,58.59654],[16.20074,58.59459],[16.19633,58.59436],[16.19557,58.59562],[16.19309,58.59526],[16.19176,58.59711],[16.17895,58.5953],[16.17855,58.59632],[16.17582,58.5963],[16.17376,58.59672],[16.17023,58.59864],[16.16885,58.5997],[16.16793,58.60107],[16.16671,58.60504],[16.16586,58.60494],[16.16501,58.60589],[16.16064,58.60862],[16.16037,58.60914],[16.15745,58.60965],[16.15276,58.61083],[16.14888,58.61209],[16.14675,58.61259],[16.1391,58.61324],[16.14129,58.61448],[16.13659,58.61738],[16.13898,58.61806],[16.13906,58.61841],[16.14267,58.61697],[16.14407,58.616],[16.14708,58.61826],[16.14486,58.61898],[16.14635,58.62024],[16.14622,58.62096],[16.14804,58.62095],[16.14585,58.62241],[16.14353,58.62255],[16.14029,58.62238],[16.1406,58.62256],[16.14206,58.6258],[16.14447,58.62768],[16.14701,58.62867],[16.14902,58.62972],[16.15205,58.63059],[16.15565,58.63095],[16.15853,58.63092],[16.161,58.63064],[16.16159,58.63209],[16.16249,58.63311],[16.16531,58.63479],[16.16915,58.63581],[16.17406,58.63613]]]}},{"type":"Feature","id":"0581R011","properties":{"code":"0581R011","name":"Kimstad-Norsholm-Skärkind"},"geometry":{"type":"Polygon","coordinates":[[[15.95445,58.56846],[15.95455,58.56738],[15.95416,58.56613],[15.95703,58.56646],[15.95918,58.56646],[15.96192,58.56614],[15.9649,58.56544],[15.96736,58.56444],[15.96906,58.56328],[15.97017,58.56189],[15.9706,58.56025],[15.97373,58.56034],[15.97725,58.55987],[15.98293,58.55827],[15.98576,58.5566],[15.98707,58.55482],[15.98727,58.55276],[15.98635,58.55103],[15.98411,58.54888],[15.9865,58.54793],[15.98818,58.54678],[15.99103,58.54398],[15.99185,58.54224],[15.99182,58.54116],[15.99113,58.53923],[15.99028,58.5382],[15.98885,58.53713],[15.99091,58.537],[15.99466,58.53753],[15.99747,58.53489],[15.99849,58.53314],[16.00003,58.5319],[16.00488,58.53507],[16.00539,58.53598],[16.00668,58.53606],[16.00986,58.53557],[16.01253,58.5354],[16.01279,58.53578],[16.01423,58.53578],[16.01572,58.53556],[16.017,58.53505],[16.01781,58.53557],[16.01957,58.53591],[16.02668,58.53681],[16.02734,58.53672],[16.02863,58.53691],[16.02909,58.53677],[16.03027,58.53556],[16.03777,58.53531],[16.04255,58.53533],[16.04763,58.5373],[16.0557,58.52785],[16.05613,58.52802],[16.05583,58.5287],[16.05621,58.52889],[16.05657,58.52886],[16.05786,58.52783],[16.05992,58.52807],[16.06152,58.52804],[16.06229,58.52782],[16.06411,58.52623],[16.06295,58.52542],[16.06342,58.52482],[16.06498,58.52424],[16.06903,58.52383],[16.06918,58.52295],[16.06678,58.52157],[16.06501,58.52174],[16.06398,58.52277],[16.06154,58.52228],[16.06462,58.52049],[16.07195,58.51718],[16.07852,58.51527],[16.09323,58.50339],[16.08776,58.50338],[16.08215,58.50276],[16.08481,58.49586],[16.08313,58.49598],[16.08199,58.49554],[16.08161,58.49384],[16.08183,58.49354],[16.08367,58.4929],[16.08323,58.49232],[16.08908,58.4887],[16.08987,58.48715],[16.08888,58.47857],[16.08761,58.47811],[16.08689,58.47738],[16.0866,58.47756],[16.08586,58.4771],[16.08516,58.4757],[16.0855,58.47457],[16.08522,58.47429],[16.08243,58.4742],[16.08288,58.47351],[16.08218,58.47171],[16.08223,58.46972],[16.08246,58.46821],[16.08402,58.46458],[16.08436,58.46269],[16.0839,58.46173],[16.0795,58.46182],[16.07305,58.46138],[16.06428,58.45898],[16.06364,58.45905],[16.06305,58.4595],[16.05576,58.45979],[16.05091,58.45956],[16.04563,58.45893],[16.04067,58.45223],[16.03855,58.44722],[16.0413,58.44681],[16.04417,58.44473],[16.04138,58.44403],[16.04043,58.44457],[16.03984,58.4445],[16.03843,58.44375],[16.0374,58.44365],[16.03626,58.44381],[16.03511,58.44282],[16.03589,58.4419],[16.03575,58.43922],[16.03353,58.43818],[16.03292,58.43728],[16.03307,58.43646],[16.03368,58.4358],[16.034,58.43579],[16.03419,58.4355],[16.03397,58.43541],[16.03904,58.43017],[16.04389,58.42733],[16.0431,58.42707],[16.04263,58.42507],[16.04304,58.42433],[16.04274,58.42322],[16.04187,58.42305],[16.04133,58.4212],[16.04082,58.42048],[16.04038,58.4188],[16.0406,58.41563],[16.03765,58.4162],[16.03815,58.41883],[16.03602,58.41997],[16.03405,58.42055],[16.03121,58.41988],[16.03012,58.42039],[16.02759,58.42052],[16.02472,58.42018],[16.02456,58.41952],[16.02485,58.41942],[16.02524,58.41794],[16.01577,58.41802],[15.99668,58.42272],[15.98873,58.42596],[15.98698,58.42602],[15.97843,58.4238],[15.97101,58.42385],[15.96802,58.42469],[15.96388,58.42549],[15.95206,58.4271],[15.9526,58.42827],[15.95267,58.42989],[15.95053,58.43594],[15.95347,58.43525],[15.95429,58.43559],[15.95458,58.43875],[15.95774,58.441],[15.95853,58.44106],[15.96161,58.44073],[15.9637,58.44099],[15.9636,58.44186],[15.96632,58.44217],[15.96977,58.44348],[15.97625,58.44387],[15.97649,58.44459],[15.97696,58.44455],[15.97753,58.44524],[15.9775,58.4454],[15.97691,58.4455],[15.97667,58.44805],[15.97621,58.44805],[15.97042,58.45115],[15.96913,58.45306],[15.96535,58.45628],[15.96446,58.45645],[15.96139,58.45967],[15.9611,58.45968],[15.96116,58.46006],[15.95942,58.46008],[15.95846,58.46084],[15.9583,58.46255],[15.95681,58.4634],[15.95594,58.46418],[15.95618,58.46452],[15.96338,58.46463],[15.96344,58.46732],[15.96066,58.46768],[15.95535,58.4669],[15.95448,58.46706],[15.9519,58.4682],[15.95004,58.46831],[15.94952,58.46815],[15.94601,58.46957],[15.94627,58.47073],[15.94072,58.47117],[15.93736,58.47201],[15.93525,58.47211],[15.9323,58.47313],[15.93138,58.47484],[15.9246,58.4743],[15.92113,58.47366],[15.91898,58.47419],[15.91766,58.47515],[15.91736,58.4756],[15.91774,58.47573],[15.91535,58.47615],[15.91345,58.47802],[15.90913,58.47635],[15.90882,58.47641],[15.91847,58.48018],[15.9175,58.48197],[15.91396,58.48201],[15.91243,58.48142],[15.91066,58.48376],[15.90885,58.48346],[15.9076,58.48519],[15.90436,58.48465],[15.90402,58.48521],[15.90021,58.48559],[15.89811,58.48689],[15.89738,58.48898],[15.89983,58.48943],[15.9003,58.48892],[15.90646,58.48943],[15.92883,58.49266],[15.93208,58.4914],[15.93252,58.4917],[15.93454,58.49539],[15.93372,58.497],[15.92097,58.50402],[15.91751,58.51196],[15.92961,58.51095],[15.933,58.51178],[15.93966,58.51229],[15.94633,58.5119],[15.95189,58.51071],[15.95272,58.51197],[15.95276,58.52146],[15.96391,58.52214],[15.96397,58.52357],[15.9667,58.52453],[15.96767,58.52523],[15.96767,58.5258],[15.96486,58.52626],[15.96208,58.52726],[15.95968,58.52901],[15.9585,58.53098],[15.95773,58.53342],[15.95777,58.535],[15.95824,58.53649],[15.95798,58.53819],[15.95816,58.5391],[15.95535,58.54039],[15.9534,58.54222],[15.94995,58.54389],[15.94831,58.54508],[15.94714,58.54702],[15.94713,58.54867],[15.94751,58.54977],[15.94591,58.55081],[15.94474,58.552],[15.94228,58.55332],[15.94065,58.55502],[15.94015,58.55681],[15.94053,58.55884],[15.94175,58.5605],[15.94385,58.56199],[15.94137,58.56203],[15.93874,58.56238],[15.9317,58.56391],[15.92879,58.56496],[15.92524,58.56397],[15.92145,58.56253],[15.91827,58.56191],[15.91734,58.56184],[15.91623,58.56356],[15.92276,58.56563],[15.93223,58.56732],[15.93421,58.56623],[15.9401,58.56658],[15.94243,58.56692],[15.94276,58.56765],[15.94217,58.56804],[15.94332,58.56823],[15.94287,58.56906],[15.9457,58.56961],[15.94634,58.5685],[15.9513,58.56852],[15.95278,58.56911],[15.95365,58.56999],[15.95445,58.56846]]]}},{"type":"Feature","id":"0581R012","properties":{"code":"0581R012","name":"Kolmården"},"geometry":{"type":"Polygon","coordinates":[[[16.33812,58.77095],[16.33836,58.77029],[16.34092,58.76936],[16.34333,58.76776],[16.34278,58.76652],[16.34335,58.76578],[16.34612,58.76538],[16.34753,58.76624],[16.36864,58.75284],[16.36988,58.74134],[16.37439,58.74043],[16.37453,58.74001],[16.3706,58.73431],[16.37328,58.73345],[16.37241,58.73116],[16.37653,58.7299],[16.37681,58.72855],[16.37788,58.72732],[16.37601,58.72741],[16.37373,58.72703],[16.37226,58.72714],[16.37755,58.70971],[16.37717,58.70815],[16.37866,58.70761],[16.38102,58.70628],[16.38381,58.70562],[16.3852,58.70479],[16.3858,58.70359],[16.38773,58.70371],[16.39234,58.70269],[16.39658,58.70274],[16.39921,58.7019],[16.40613,58.70387],[16.41771,58.70305],[16.42697,58.69829],[16.42702,58.6972],[16.45216,58.6983],[16.4555,58.6978],[16.46108,58.69794],[16.46227,58.69866],[16.46337,58.69868],[16.46609,58.69752],[16.475,58.69632],[16.51063,58.69783],[16.54153,58.70091],[16.55763,58.69678],[16.55902,58.69746],[16.5845,58.69793],[16.60744,58.69406],[16.61796,58.69086],[16.61797,58.69011],[16.62058,58.69008],[16.62126,58.69103],[16.62827,58.68993],[16.62941,58.68822],[16.62977,58.68647],[16.63275,58.68511],[16.63456,58.68562],[16.63386,58.68604],[16.63707,58.68499],[16.63705,58.68362],[16.63446,58.6821],[16.63595,58.6813],[16.63574,58.68021],[16.63606,58.67931],[16.63856,58.67624],[16.63858,58.67577],[16.63919,58.67552],[16.64256,58.67632],[16.64453,58.67867],[16.64542,58.67922],[16.64623,58.67942],[16.64547,58.68038],[16.6457,58.68118],[16.64777,58.68143],[16.64884,58.68188],[16.68978,58.67562],[16.69194,58.67459],[16.6965,58.67152],[16.69793,58.67118],[16.70054,58.67003],[16.70178,58.67005],[16.70309,58.66815],[16.70494,58.6675],[16.70554,58.66675],[16.7091,58.66504],[16.70983,58.66433],[16.70968,58.6641],[16.71006,58.66356],[16.70962,58.6633],[16.70921,58.66175],[16.71009,58.66077],[16.70996,58.6599],[16.7127,58.65781],[16.72122,58.65318],[16.72435,58.65077],[16.72391,58.65035],[16.72363,58.64874],[16.72312,58.6479],[16.72342,58.64783],[16.7249,58.6485],[16.72559,58.64906],[16.72636,58.64923],[16.73374,58.64379],[16.75843,58.63019],[16.75483,58.63038],[16.75347,58.6303],[16.75163,58.6308],[16.75031,58.63066],[16.74892,58.63018],[16.74894,58.62998],[16.75019,58.62963],[16.75043,58.62818],[16.74995,58.6271],[16.78323,58.61324],[16.75462,58.61181],[16.7515,58.6118],[16.74042,58.61227],[16.73256,58.61226],[16.72058,58.61079],[16.70948,58.61778],[16.70272,58.62116],[16.68723,58.62025],[16.67223,58.62041],[16.65198,58.62333],[16.63826,58.62759],[16.60438,58.63113],[16.56006,58.6385],[16.53209,58.63938],[16.52883,58.64439],[16.49682,58.6461],[16.47277,58.65209],[16.46217,58.6536],[16.44765,58.64921],[16.42539,58.64919],[16.41092,58.64454],[16.41066,58.64224],[16.36889,58.64489],[16.35693,58.65351],[16.34784,58.65798],[16.32009,58.65768],[16.29378,58.65145],[16.28788,58.65293],[16.28826,58.66481],[16.29841,58.66552],[16.29824,58.66729],[16.29679,58.66806],[16.29457,58.66864],[16.2931,58.66841],[16.29228,58.66872],[16.29029,58.67039],[16.28939,58.67198],[16.28657,58.67337],[16.28683,58.67359],[16.28645,58.67401],[16.28574,58.67393],[16.28488,58.67417],[16.2843,58.67409],[16.28377,58.67443],[16.28267,58.67456],[16.28253,58.6749],[16.28217,58.67477],[16.28136,58.67517],[16.28081,58.67513],[16.28044,58.67596],[16.27919,58.67628],[16.2794,58.6765],[16.27878,58.6769],[16.27976,58.67725],[16.2793,58.67758],[16.27837,58.6776],[16.2782,58.67784],[16.27861,58.67804],[16.27657,58.67945],[16.27671,58.67955],[16.27483,58.68119],[16.27369,58.68193],[16.27158,58.68244],[16.27084,58.68211],[16.27024,58.68226],[16.26926,58.68276],[16.26755,58.68442],[16.26604,58.68444],[16.26508,58.68497],[16.26409,58.68511],[16.26362,58.68536],[16.26222,58.68695],[16.26136,58.68678],[16.26109,58.68699],[16.26076,58.68771],[16.26125,58.68849],[16.26055,58.68956],[16.26092,58.68982],[16.2607,58.69013],[16.2622,58.69062],[16.26366,58.69073],[16.2641,58.69092],[16.26748,58.70151],[16.26855,58.70096],[16.2714,58.70073],[16.27566,58.70544],[16.28067,58.70906],[16.27539,58.71093],[16.2707,58.71179],[16.28543,58.7249],[16.28442,58.73797],[16.28731,58.74111],[16.30111,58.74659],[16.30175,58.74744],[16.30339,58.74813],[16.30365,58.74904],[16.30309,58.74943],[16.30339,58.74969],[16.30326,58.75014],[16.3039,58.75192],[16.30342,58.75197],[16.30345,58.75226],[16.30305,58.75248],[16.30335,58.75271],[16.30294,58.75292],[16.30324,58.75317],[16.30279,58.75403],[16.30315,58.7547],[16.30252,58.75514],[16.30268,58.75526],[16.30216,58.75567],[16.30205,58.75617],[16.30149,58.75638],[16.30166,58.75692],[16.30083,58.75792],[16.30085,58.75841],[16.30156,58.75939],[16.30121,58.75979],[16.30135,58.76043],[16.3008,58.76095],[16.30118,58.76176],[16.30113,58.76256],[16.30179,58.76292],[16.30498,58.76936],[16.30589,58.77],[16.30574,58.77069],[16.30599,58.77097],[16.30649,58.77115],[16.30696,58.77183],[16.30785,58.77223],[16.31501,58.7732],[16.32221,58.77556],[16.32745,58.77957],[16.3382,58.77206],[16.33882,58.77146],[16.33812,58.77095]]]}},{"type":"Feature","id":"0581R013","properties":{"code":"0581R013","name":"Kärrhagen-Kättsätter"},"geometry":{"type":"Polygon","coordinates":[[[16.15996,58.57738],[16.16174,58.57639],[16.16508,58.57549],[16.1643,58.57448],[16.16516,58.57336],[16.16385,58.57294],[16.16318,58.5725],[16.1626,58.57151],[16.16273,58.57039],[16.16376,58.56898],[16.16517,58.56778],[16.16631,58.56719],[16.17017,58.56604],[16.17313,58.56493],[16.16936,58.56233],[16.16791,58.55983],[16.16838,58.5576],[16.16909,58.55666],[16.16525,58.55679],[16.15912,58.55759],[16.15716,58.55804],[16.15362,58.55931],[16.15082,58.55941],[16.14733,58.56002],[16.14368,58.56116],[16.14128,58.56244],[16.13957,58.56439],[16.13933,58.56629],[16.1344,58.56651],[16.13062,58.56744],[16.12667,58.56795],[16.13007,58.56951],[16.13419,58.56825],[16.1488,58.56541],[16.15136,58.56904],[16.15533,58.56868],[16.15257,58.57119],[16.1501,58.57066],[16.14812,58.57168],[16.1497,58.5721],[16.14867,58.57347],[16.15329,58.57567],[16.15996,58.57738]]]}},{"type":"Feature","id":"0581R014","properties":{"code":"0581R014","name":"Lindö-Berga-Marby"},"geometry":{"type":"Polygon","coordinates":[[[16.26928,58.61529],[16.2762,58.61488],[16.27803,58.61449],[16.28029,58.61369],[16.28574,58.61357],[16.28774,58.61336],[16.29063,58.6136],[16.29324,58.61347],[16.29574,58.61299],[16.29914,58.61199],[16.30098,58.61101],[16.30232,58.60979],[16.30331,58.60795],[16.30365,58.60616],[16.30625,58.60584],[16.3087,58.60517],[16.31141,58.60388],[16.31293,58.60268],[16.31381,58.60133],[16.31403,58.59992],[16.31372,58.59883],[16.31274,58.5975],[16.31107,58.59619],[16.30861,58.59495],[16.30507,58.5939],[16.30248,58.59346],[16.29971,58.59337],[16.2967,58.59371],[16.2924,58.5928],[16.2881,58.59238],[16.28538,58.59239],[16.2827,58.59276],[16.28008,58.59346],[16.27838,58.59408],[16.27656,58.59507],[16.27277,58.5951],[16.26973,58.59415],[16.2663,58.59373],[16.26537,58.59338],[16.26398,58.59224],[16.26249,58.59145],[16.26018,58.59069],[16.25777,58.5902],[16.25365,58.59008],[16.25102,58.59044],[16.24866,58.59112],[16.24507,58.59111],[16.24405,58.59031],[16.24289,58.58883],[16.24526,58.58789],[16.24719,58.58647],[16.24816,58.58482],[16.24828,58.58315],[16.24929,58.58217],[16.25252,58.58164],[16.24491,58.58167],[16.23527,58.58094],[16.23288,58.5812],[16.23257,58.58372],[16.22817,58.58377],[16.22809,58.58712],[16.23019,58.58831],[16.23217,58.59023],[16.23115,58.59114],[16.22959,58.59362],[16.23018,58.59446],[16.23194,58.59517],[16.23468,58.59704],[16.24253,58.59981],[16.23828,58.60564],[16.23815,58.60666],[16.23872,58.6082],[16.23362,58.61045],[16.23938,58.61395],[16.24313,58.61547],[16.24568,58.61648],[16.2603,58.621],[16.26024,58.62028],[16.2627,58.61874],[16.26558,58.61764],[16.26928,58.61529]]]}},{"type":"Feature","id":"0581R015","properties":{"code":"0581R015","name":"Navestad-Åselstad"},"geometry":{"type":"Polygon","coordinates":[[[16.2144,58.56375],[16.21992,58.56029],[16.22465,58.56196],[16.22784,58.5596],[16.23064,58.55815],[16.24145,58.55334],[16.24305,58.55279],[16.24369,58.5535],[16.24443,58.55613],[16.24992,58.55468],[16.25165,58.55445],[16.25134,58.55317],[16.25035,58.55182],[16.24854,58.55052],[16.2468,58.54964],[16.24758,58.54859],[16.24795,58.5474],[16.24973,58.54518],[16.24996,58.5441],[16.24965,58.54269],[16.24794,58.54074],[16.24497,58.53926],[16.23897,58.53771],[16.23442,58.53717],[16.23051,58.53716],[16.22655,58.53677],[16.2246,58.53687],[16.22246,58.53721],[16.22201,58.54059],[16.22011,58.54232],[16.21865,58.54314],[16.21449,58.5447],[16.21124,58.54472],[16.20877,58.54578],[16.20701,58.54858],[16.1925,58.55259],[16.18573,58.55574],[16.18963,58.55662],[16.19445,58.55679],[16.19598,58.55856],[16.19876,58.56004],[16.20949,58.56148],[16.21121,58.56247],[16.2144,58.56375]]]}},{"type":"Feature","id":"0581R016","properties":{"code":"0581R016","name":"Nordvästra Marielund"},"geometry":{"type":"Polygon","coordinates":[[[16.16675,58.605],[16.16793,58.60107],[16.16885,58.5997],[16.17024,58.59864],[16.16936,58.59853],[16.16974,58.59821],[16.1651,58.59738],[16.16664,58.59463],[16.16554,58.59446],[16.16605,58.59347],[16.16349,58.59311],[16.15972,58.59469],[16.16066,58.59502],[16.16083,58.59547],[16.16052,58.59561],[16.16393,58.59866],[16.16248,58.59911],[16.16591,58.60277],[16.16621,58.6037],[16.16586,58.60494],[16.16675,58.605]]]}},{"type":"Feature","id":"0581R017","properties":{"code":"0581R017","name":"Nordvästra Nordantill"},"geometry":{"type":"Polygon","coordinates":[[[16.17582,58.5963],[16.17855,58.59632],[16.17895,58.5953],[16.1781,58.59518],[16.18005,58.59139],[16.17319,58.59042],[16.17319,58.59074],[16.1725,58.59076],[16.17225,58.58994],[16.16796,58.58996],[16.16778,58.58871],[16.16721,58.58885],[16.16456,58.58804],[16.16368,58.58737],[16.16287,58.58711],[16.16177,58.58715],[16.15907,58.58792],[16.15793,58.58799],[16.1572,58.58795],[16.15569,58.58722],[16.15437,58.58697],[16.15106,58.58765],[16.15235,58.5895],[16.15835,58.59532],[16.16349,58.59311],[16.17572,58.59485],[16.17335,58.59584],[16.17465,58.59657],[16.17582,58.5963]]]}},{"type":"Feature","id":"0581R022","properties":{"code":"0581R022","name":"Oxelbergen-Risängen-Sylten"},"geometry":{"type":"Polygon","coordinates":[[[16.23374,58.61039],[16.23872,58.6082],[16.23815,58.60666],[16.23828,58.60564],[16.24253,58.59981],[16.23468,58.59704],[16.23194,58.59517],[16.23018,58.59446],[16.22959,58.59362],[16.23115,58.59114],[16.23217,58.59023],[16.23019,58.58831],[16.22809,58.58712],[16.22809,58.58437],[16.22231,58.584],[16.2219,58.58328],[16.2205,58.58288],[16.22038,58.58252],[16.21952,58.58236],[16.21887,58.58248],[16.21758,58.58195],[16.21674,58.5823],[16.21427,58.58149],[16.21043,58.58254],[16.20989,58.58207],[16.20804,58.58335],[16.2028,58.58503],[16.20337,58.58556],[16.20245,58.58717],[16.20257,58.58758],[16.20167,58.58786],[16.20266,58.59016],[16.19864,58.59006],[16.19698,58.59291],[16.19576,58.59327],[16.19527,58.59417],[16.19444,58.59412],[16.19309,58.59526],[16.19557,58.59562],[16.1962,58.59436],[16.20074,58.59459],[16.21028,58.59654],[16.21271,58.59738],[16.22626,58.60559],[16.23374,58.61039]]]}},{"type":"Feature","id":"0581R023","properties":{"code":"0581R023","name":"Pryssgården-Taborsberg"},"geometry":{"type":"Polygon","coordinates":[[[16.13274,58.61246],[16.13893,58.60624],[16.14412,58.60795],[16.14441,58.60722],[16.14495,58.60724],[16.14609,58.60677],[16.14327,58.6057],[16.14139,58.60541],[16.14069,58.60507],[16.14103,58.60461],[16.14232,58.60381],[16.14403,58.60332],[16.14533,58.60329],[16.15041,58.60502],[16.15299,58.603],[16.1572,58.60454],[16.15796,58.60405],[16.15812,58.60358],[16.15856,58.6035],[16.15894,58.60275],[16.16061,58.60239],[16.15544,58.59814],[16.15604,58.59795],[16.15528,58.59694],[16.15623,58.59619],[16.15832,58.5953],[16.15235,58.5895],[16.15106,58.58765],[16.1497,58.58803],[16.14755,58.59013],[16.14446,58.59211],[16.14319,58.59272],[16.1396,58.59379],[16.13624,58.59593],[16.13515,58.59612],[16.13011,58.59607],[16.12904,58.59581],[16.12801,58.59519],[16.12673,58.59794],[16.12182,58.59609],[16.12134,58.59809],[16.12159,58.59935],[16.12294,58.60348],[16.12537,58.60766],[16.12621,58.60875],[16.12783,58.61012],[16.13058,58.61163],[16.13274,58.61246]]]}},{"type":"Feature","id":"0581R024","properties":{"code":"0581R024","name":"Rambodal"},"geometry":{"type":"Polygon","coordinates":[[[16.24491,58.58167],[16.25252,58.58164],[16.25501,58.58077],[16.2574,58.57931],[16.26091,58.57558],[16.26129,58.57415],[16.26101,58.5728],[16.26298,58.5717],[16.2641,58.57074],[16.26501,58.56936],[16.26524,58.5682],[16.26448,58.566],[16.26352,58.565],[16.26211,58.56405],[16.25995,58.56311],[16.25569,58.56199],[16.25415,58.56077],[16.25222,58.55982],[16.2499,58.55915],[16.24783,58.55885],[16.24811,58.56017],[16.23921,58.56247],[16.23838,58.56185],[16.23369,58.56304],[16.23582,58.56448],[16.23019,58.56615],[16.22734,58.5682],[16.23089,58.5695],[16.2361,58.57237],[16.2373,58.57332],[16.23924,58.57625],[16.23998,58.57851],[16.23996,58.58132],[16.24491,58.58167]]]}},{"type":"Feature","id":"0581R028","properties":{"code":"0581R028","name":"Smedby-Brånnestad"},"geometry":{"type":"Polygon","coordinates":[[[16.23257,58.58372],[16.23288,58.5812],[16.23527,58.58094],[16.23996,58.58132],[16.23998,58.57851],[16.23924,58.57625],[16.23833,58.57455],[16.2361,58.57237],[16.23089,58.5695],[16.22734,58.5682],[16.23019,58.56615],[16.23582,58.56448],[16.23369,58.56304],[16.23838,58.56185],[16.23921,58.56247],[16.24811,58.56017],[16.24783,58.55885],[16.24944,58.55794],[16.25082,58.55668],[16.25143,58.55565],[16.25165,58.55445],[16.24992,58.55468],[16.24443,58.55613],[16.24369,58.5535],[16.24305,58.55279],[16.24145,58.55334],[16.23064,58.55815],[16.22784,58.5596],[16.22541,58.5613],[16.22166,58.56474],[16.2187,58.56682],[16.2163,58.5691],[16.21477,58.57138],[16.21133,58.58001],[16.20987,58.58209],[16.21043,58.58254],[16.21427,58.58149],[16.21674,58.5823],[16.21758,58.58195],[16.21887,58.58248],[16.21952,58.58236],[16.22038,58.58252],[16.2205,58.58288],[16.2219,58.58328],[16.22231,58.584],[16.22712,58.5844],[16.22809,58.58438],[16.22817,58.58377],[16.23257,58.58372]]]}},{"type":"Feature","id":"0581R029","properties":{"code":"0581R029","name":"Strömbacken-Berget-Södertull"},"geometry":{"type":"Polygon","coordinates":[[[16.18249,58.58867],[16.18366,58.58869],[16.18384,58.5894],[16.18415,58.58938],[16.18484,58.58887],[16.18498,58.58737],[16.18853,58.58781],[16.18984,58.58477],[16.19038,58.58427],[16.18299,58.58493],[16.18086,58.58507],[16.18034,58.58492],[16.18019,58.5851],[16.17176,58.58581],[16.17095,58.58368],[16.16912,58.58369],[16.16472,58.58303],[16.1637,58.58525],[16.16555,58.58565],[16.16509,58.58622],[16.16418,58.58671],[16.16589,58.58757],[16.16508,58.58819],[16.16721,58.58885],[16.17074,58.58796],[16.17349,58.58896],[16.17799,58.58964],[16.18036,58.58937],[16.18249,58.58867]]]}},{"type":"Feature","id":"0581R030","properties":{"code":"0581R030","name":"Svärtinge-Loddby-Landsbygd"},"geometry":{"type":"Polygon","coordinates":[[[16.02908,58.70384],[16.03166,58.69963],[16.03714,58.7018],[16.047,58.69931],[16.04724,58.70658],[16.06171,58.70669],[16.06198,58.71065],[16.06933,58.71014],[16.08087,58.70257],[16.08043,58.70034],[16.08335,58.70004],[16.08351,58.69987],[16.08508,58.69983],[16.09283,58.69492],[16.10415,58.68467],[16.10596,58.68523],[16.10911,58.683],[16.11444,58.68243],[16.11626,58.68137],[16.12015,58.67846],[16.12406,58.67656],[16.12739,58.67642],[16.1298,58.67661],[16.12986,58.67645],[16.13162,58.67645],[16.13162,58.6767],[16.13241,58.67704],[16.13477,58.67722],[16.13541,58.67511],[16.13765,58.67501],[16.13758,58.67401],[16.138,58.67382],[16.13799,58.67353],[16.14125,58.67312],[16.14203,58.67176],[16.15417,58.67154],[16.15397,58.67016],[16.15457,58.66858],[16.15067,58.66798],[16.14463,58.66583],[16.14265,58.66478],[16.13936,58.66221],[16.13833,58.66051],[16.13831,58.65899],[16.13766,58.65717],[16.13814,58.6554],[16.13753,58.65473],[16.1343,58.65386],[16.13041,58.65336],[16.12819,58.65281],[16.12581,58.65184],[16.1238,58.65038],[16.12281,58.64888],[16.12264,58.64706],[16.1236,58.64524],[16.12553,58.64371],[16.12778,58.6427],[16.131,58.64176],[16.13372,58.64139],[16.13689,58.6414],[16.14072,58.64178],[16.14525,58.64258],[16.15108,58.64292],[16.15372,58.64327],[16.15859,58.64489],[16.16157,58.64653],[16.16477,58.64454],[16.16824,58.64338],[16.17031,58.64306],[16.17247,58.64294],[16.17624,58.64328],[16.17462,58.64132],[16.17833,58.63936],[16.17899,58.63973],[16.1799,58.63932],[16.18208,58.64099],[16.18299,58.6402],[16.19282,58.63644],[16.18666,58.63315],[16.17877,58.63549],[16.17621,58.63598],[16.17264,58.63611],[16.16991,58.63591],[16.16773,58.63554],[16.16481,58.63457],[16.16284,58.6334],[16.16159,58.63209],[16.161,58.63064],[16.15767,58.63096],[16.15499,58.63093],[16.15268,58.6307],[16.14955,58.62992],[16.14701,58.62867],[16.14494,58.62791],[16.14315,58.62684],[16.14206,58.6258],[16.1406,58.62256],[16.14029,58.62238],[16.13887,58.623],[16.13645,58.62331],[16.13196,58.62444],[16.12931,58.62466],[16.12602,58.62444],[16.12354,58.62388],[16.11935,58.6224],[16.11489,58.62025],[16.11346,58.61931],[16.11145,58.61865],[16.10987,58.61788],[16.1083,58.61666],[16.10731,58.61519],[16.10726,58.61296],[16.1085,58.61101],[16.10644,58.60965],[16.10487,58.60755],[16.10449,58.60616],[16.10496,58.60395],[16.10614,58.60218],[16.10814,58.59994],[16.10926,58.59906],[16.11231,58.59773],[16.11527,58.59715],[16.11833,58.59628],[16.11989,58.59516],[16.12171,58.59432],[16.12022,58.59414],[16.12022,58.59401],[16.12046,58.59365],[16.12145,58.59314],[16.12119,58.59313],[16.12181,58.5926],[16.12118,58.59189],[16.12057,58.59169],[16.11706,58.59104],[16.11656,58.59005],[16.11555,58.58961],[16.10595,58.58718],[16.10307,58.58711],[16.09436,58.58888],[16.0887,58.59098],[16.08548,58.59255],[16.07977,58.5963],[16.06233,58.61017],[15.98352,58.61561],[15.95071,58.65203],[15.9472,58.66333],[15.95759,58.66536],[15.96734,58.66845],[15.97654,58.67107],[15.98218,58.67426],[15.98565,58.67587],[15.98824,58.67474],[15.9919,58.67539],[15.99276,58.67651],[15.99281,58.67715],[15.99112,58.6788],[15.99081,58.6811],[15.9946,58.682],[15.99589,58.68086],[15.99345,58.67944],[15.99669,58.67679],[16.00232,58.67607],[16.0129,58.67866],[16.01084,58.67944],[16.00844,58.68091],[16.00346,58.68213],[15.99962,58.68277],[15.99975,58.68328],[15.99925,58.68406],[16.00031,58.68421],[15.99991,58.68576],[15.99798,58.6857],[15.99797,58.68714],[15.99678,58.68701],[15.99581,58.68668],[15.99301,58.68797],[15.99265,58.68865],[15.99338,58.69102],[15.98817,58.6918],[15.98328,58.69385],[15.98531,58.69703],[15.98368,58.69846],[15.98349,58.69907],[15.98374,58.69936],[15.98469,58.69959],[15.98569,58.70012],[15.98667,58.70014],[15.98657,58.69929],[15.98796,58.69875],[16.00139,58.70736],[16.01401,58.71351],[16.01411,58.71375],[16.01681,58.7145],[16.02908,58.70384]]]}},{"type":"Feature","id":"0581R031","properties":{"code":"0581R031","name":"Sydvästra Hageby"},"geometry":{"type":"Polygon","coordinates":[[[16.19584,58.57522],[16.19634,58.57434],[16.1972,58.57452],[16.19806,58.57429],[16.19845,58.57383],[16.19695,58.57345],[16.19744,58.57309],[16.19898,58.57254],[16.19944,58.57254],[16.19988,58.57189],[16.202,58.57087],[16.20254,58.57038],[16.20171,58.57006],[16.20348,58.56843],[16.20593,58.56932],[16.20715,58.56843],[16.21019,58.56949],[16.21342,58.56809],[16.21613,58.56932],[16.2187,58.56682],[16.22166,58.56474],[16.22465,58.56196],[16.21992,58.56029],[16.2144,58.56375],[16.21121,58.56247],[16.20949,58.56148],[16.19876,58.56004],[16.19826,58.56025],[16.19549,58.56169],[16.19395,58.56304],[16.19908,58.5689],[16.19644,58.57008],[16.1921,58.57256],[16.19003,58.57344],[16.19018,58.57424],[16.19584,58.57522]]]}},{"type":"Feature","id":"0581R032","properties":{"code":"0581R032","name":"Sydöstra Marielund"},"geometry":{"type":"Polygon","coordinates":[[[16.17024,58.59864],[16.17376,58.59672],[16.17465,58.59657],[16.17335,58.59584],[16.17572,58.59485],[16.16604,58.5935],[16.16554,58.59446],[16.16664,58.59463],[16.1651,58.59738],[16.16974,58.59821],[16.16936,58.59853],[16.17024,58.59864]]]}},{"type":"Feature","id":"0581R033","properties":{"code":"0581R033","name":"Sydöstra Nordantill"},"geometry":{"type":"Polygon","coordinates":[[[16.19176,58.59711],[16.19267,58.59569],[16.19444,58.59412],[16.19119,58.59448],[16.18554,58.59361],[16.18346,58.59308],[16.18288,58.59244],[16.18401,58.59038],[16.18351,58.58864],[16.18249,58.58867],[16.18003,58.58943],[16.17799,58.58964],[16.17349,58.58896],[16.17074,58.58796],[16.16778,58.58871],[16.16796,58.58996],[16.17225,58.58994],[16.1725,58.59076],[16.17319,58.59074],[16.17319,58.59042],[16.18005,58.59139],[16.1781,58.59518],[16.19176,58.59711]]]}},{"type":"Feature","id":"0581R034","properties":{"code":"0581R034","name":"Sydöstra Vilbergen-Björkalund"},"geometry":{"type":"Polygon","coordinates":[[[16.17965,58.57469],[16.18542,58.57406],[16.19019,58.57425],[16.19003,58.57344],[16.1921,58.57256],[16.19644,58.57008],[16.19908,58.5689],[16.19395,58.56304],[16.19549,58.56169],[16.19876,58.56004],[16.19598,58.55856],[16.19445,58.55679],[16.19209,58.55682],[16.1882,58.5564],[16.18463,58.55529],[16.18319,58.55507],[16.18185,58.55433],[16.17944,58.55428],[16.17924,58.55499],[16.17739,58.55484],[16.17599,58.55441],[16.17243,58.55377],[16.17012,58.55547],[16.16909,58.55666],[16.16838,58.5576],[16.16791,58.55983],[16.16936,58.56233],[16.17313,58.56493],[16.16627,58.56726],[16.16867,58.56906],[16.1698,58.569],[16.17144,58.56813],[16.17248,58.56788],[16.17411,58.56857],[16.17526,58.56938],[16.17494,58.57019],[16.17208,58.57039],[16.17223,58.57082],[16.1731,58.57128],[16.17325,58.57184],[16.17536,58.57194],[16.17589,58.57135],[16.17694,58.57092],[16.17867,58.57067],[16.17965,58.57469]]]}},{"type":"Feature","id":"0581R035","properties":{"code":"0581R035","name":"Såpkullen-Söderstaden-Vasaparken"},"geometry":{"type":"Polygon","coordinates":[[[16.19999,58.5853],[16.19844,58.58251],[16.1958,58.58066],[16.19424,58.58005],[16.1929,58.58125],[16.18963,58.58093],[16.19095,58.57975],[16.18999,58.57967],[16.18633,58.57945],[16.18211,58.57974],[16.17932,58.58051],[16.1779,58.58124],[16.17598,58.58282],[16.17436,58.58192],[16.17246,58.58137],[16.1713,58.58243],[16.17096,58.58315],[16.17176,58.58581],[16.18019,58.5851],[16.18034,58.58492],[16.18086,58.58507],[16.18299,58.58493],[16.19009,58.58426],[16.19866,58.58542],[16.2006,58.58591],[16.20107,58.58535],[16.19999,58.5853]]]}},{"type":"Feature","id":"0581R036","properties":{"code":"0581R036","name":"Södra Ektorp"},"geometry":{"type":"Polygon","coordinates":[[[16.17321,58.57894],[16.17437,58.57955],[16.17546,58.57889],[16.17924,58.57801],[16.17986,58.57742],[16.18074,58.57726],[16.17965,58.57469],[16.17908,58.57492],[16.17604,58.57498],[16.17108,58.57465],[16.16743,58.57486],[16.166,58.57508],[16.16522,58.57545],[16.16174,58.57639],[16.15996,58.57738],[16.16243,58.57814],[16.16467,58.57719],[16.16681,58.57849],[16.16771,58.57816],[16.17195,58.57957],[16.17321,58.57894]]]}},{"type":"Feature","id":"0581R037","properties":{"code":"0581R037","name":"Västra Klockaretorpet"},"geometry":{"type":"Polygon","coordinates":[[[16.15044,58.58581],[16.14908,58.584],[16.14022,58.58267],[16.14055,58.58128],[16.13835,58.5805],[16.13604,58.58056],[16.13792,58.57861],[16.13781,58.57777],[16.13862,58.57599],[16.14096,58.57487],[16.13894,58.57303],[16.13822,58.57162],[16.14328,58.57081],[16.14457,58.57081],[16.14812,58.57168],[16.1501,58.57066],[16.15257,58.57119],[16.15533,58.56868],[16.15136,58.56904],[16.1488,58.56541],[16.13419,58.56825],[16.13007,58.56951],[16.12667,58.56795],[16.12543,58.56775],[16.12199,58.56758],[16.11903,58.56788],[16.11644,58.56846],[16.11427,58.56924],[16.11107,58.57058],[16.10891,58.57197],[16.10758,58.57363],[16.10724,58.57582],[16.10834,58.57791],[16.10873,58.57933],[16.11037,58.5812],[16.11218,58.58229],[16.11475,58.58321],[16.12565,58.58579],[16.12444,58.58737],[16.12413,58.58883],[16.12437,58.58994],[16.1258,58.59285],[16.12171,58.59432],[16.12743,58.59503],[16.12904,58.59581],[16.13011,58.59607],[16.13515,58.59612],[16.13624,58.59593],[16.1396,58.59379],[16.14319,58.59272],[16.14446,58.59211],[16.14755,58.59013],[16.1497,58.58803],[16.1513,58.5876],[16.15044,58.58581]]]}},{"type":"Feature","id":"0581R038","properties":{"code":"0581R038","name":"Åby-Jursla-Landsbygd"},"geometry":{"type":"Polygon","coordinates":[[[16.1894,58.69288],[16.19368,58.69258],[16.19721,58.69162],[16.19918,58.69058],[16.2008,58.68937],[16.2029,58.6884],[16.20465,58.68692],[16.20566,58.68493],[16.20522,58.68277],[16.20249,58.67942],[16.19992,58.6778],[16.2017,58.67683],[16.20409,58.67654],[16.20672,58.67579],[16.20598,58.67561],[16.20883,58.67476],[16.21002,58.67378],[16.21088,58.67247],[16.21109,58.67116],[16.21339,58.66911],[16.21418,58.66761],[16.21397,58.66547],[16.21253,58.66364],[16.21062,58.66244],[16.20778,58.66143],[16.20747,58.66027],[16.20649,58.65895],[16.20267,58.65651],[16.20096,58.6559],[16.19842,58.65537],[16.19638,58.6552],[16.19407,58.65525],[16.19359,58.65382],[16.19381,58.65206],[16.19349,58.65027],[16.19249,58.64892],[16.19088,58.64775],[16.18796,58.64652],[16.17731,58.6435],[16.17463,58.64305],[16.17247,58.64294],[16.17031,58.64306],[16.16824,58.64338],[16.16477,58.64454],[16.16157,58.64653],[16.15908,58.64511],[16.15616,58.64397],[16.15437,58.64342],[16.15178,58.64298],[16.14525,58.64258],[16.14072,58.64178],[16.13524,58.64134],[16.13162,58.64164],[16.12794,58.64265],[16.1251,58.64397],[16.12391,58.64491],[16.12307,58.64596],[16.12258,58.64784],[16.12344,58.64997],[16.12537,58.65159],[16.12763,58.65263],[16.13041,58.65336],[16.1343,58.65386],[16.13753,58.65473],[16.13814,58.6554],[16.13766,58.65717],[16.13831,58.65899],[16.13833,58.66051],[16.13906,58.66188],[16.14041,58.66319],[16.14364,58.66538],[16.14851,58.66733],[16.15192,58.66826],[16.15457,58.66858],[16.15396,58.67053],[16.15455,58.67229],[16.15579,58.67358],[16.15743,58.67463],[16.16131,58.67605],[16.16153,58.67757],[16.1624,58.67901],[16.16224,58.68163],[16.16296,58.68296],[16.16391,58.68388],[16.16614,58.68513],[16.16857,58.68587],[16.16953,58.68719],[16.17098,58.68833],[16.17236,58.68987],[16.17534,58.69144],[16.17707,58.69193],[16.17963,58.69236],[16.18552,58.69287],[16.1894,58.69288]]]}},{"type":"Feature","id":"0581R039","properties":{"code":"0581R039","name":"Östra Haga"},"geometry":{"type":"Polygon","coordinates":[[[16.16593,58.60485],[16.16621,58.6037],[16.16591,58.60277],[16.16248,58.59911],[16.16393,58.59866],[16.16052,58.59561],[16.16083,58.59547],[16.16066,58.59502],[16.15972,58.59469],[16.15623,58.59619],[16.15528,58.59694],[16.15604,58.59795],[16.15544,58.59814],[16.16061,58.60239],[16.15894,58.60275],[16.15856,58.6035],[16.15812,58.60358],[16.15796,58.60405],[16.1572,58.60454],[16.16593,58.60485]]]}},{"type":"Feature","id":"0581R040","properties":{"code":"0581R040","name":"Östra Vikbolandet"},"geometry":{"type":"Polygon","coordinates":[[[16.52883,58.64439],[16.53209,58.63938],[16.56006,58.6385],[16.60438,58.63113],[16.63826,58.62759],[16.65198,58.62333],[16.67223,58.62041],[16.68723,58.62025],[16.70272,58.62116],[16.70948,58.61778],[16.72058,58.61079],[16.73256,58.61226],[16.74042,58.61227],[16.7515,58.6118],[16.75462,58.61181],[16.78323,58.61324],[16.78774,58.61167],[16.79229,58.60896],[16.79654,58.60765],[16.82738,58.59427],[16.89009,58.60099],[16.91888,58.59586],[16.94252,58.58445],[16.97243,58.58099],[17.01642,58.59005],[17.06983,58.59066],[17.13093,58.55007],[17.1465,58.53267],[17.14899,58.50334],[17.51603,58.41083],[17.56928,58.39898],[17.51565,58.40282],[17.10329,58.44143],[16.99831,58.46753],[16.99409,58.4638],[16.99477,58.459],[16.97763,58.45864],[16.96785,58.45943],[16.9602,58.46089],[16.95353,58.46162],[16.95013,58.46249],[16.9379,58.46628],[16.93453,58.4669],[16.87115,58.46765],[16.85853,58.44278],[16.81924,58.4347],[16.80318,58.43747],[16.79918,58.43661],[16.79526,58.43056],[16.78966,58.43001],[16.78221,58.42693],[16.7816,58.42534],[16.7861,58.42416],[16.79182,58.41999],[16.78469,58.41676],[16.78351,58.41366],[16.7763,58.41379],[16.7731,58.4152],[16.76931,58.41435],[16.75727,58.41677],[16.74624,58.41594],[16.72325,58.41892],[16.70218,58.4171],[16.70175,58.42197],[16.69829,58.42525],[16.691,58.42777],[16.68418,58.42726],[16.67357,58.43144],[16.66679,58.43277],[16.66522,58.43242],[16.66388,58.43257],[16.65815,58.43255],[16.65643,58.43275],[16.65082,58.43548],[16.64074,58.436],[16.63541,58.43457],[16.62646,58.44075],[16.61409,58.443],[16.5896,58.44285],[16.56619,58.44717],[16.55923,58.45155],[16.54466,58.45399],[16.5314,58.45915],[16.50394,58.46525],[16.48825,58.47069],[16.47406,58.47108],[16.47132,58.47133],[16.46935,58.47384],[16.46186,58.4745],[16.45495,58.4742],[16.44914,58.47768],[16.42987,58.4792],[16.41703,58.47532],[16.41468,58.47499],[16.40647,58.4747],[16.39891,58.47508],[16.39351,58.47583],[16.38234,58.47957],[16.37993,58.47991],[16.37529,58.48018],[16.36333,58.47955],[16.35784,58.47958],[16.35628,58.47976],[16.35664,58.4807],[16.35478,58.48271],[16.35268,58.48321],[16.34922,58.48445],[16.34544,58.48513],[16.34423,58.48506],[16.33963,58.48626],[16.33944,58.48609],[16.33725,58.4863],[16.3375,58.4872],[16.34051,58.48715],[16.34396,58.49113],[16.34366,58.49723],[16.34472,58.49808],[16.34387,58.49975],[16.34486,58.49978],[16.34605,58.49945],[16.34516,58.50089],[16.34307,58.50128],[16.34235,58.50234],[16.34213,58.50215],[16.34168,58.50226],[16.34204,58.50272],[16.33931,58.50593],[16.34003,58.50829],[16.33696,58.50876],[16.33646,58.50908],[16.33443,58.50907],[16.33313,58.51023],[16.33404,58.51117],[16.3362,58.51224],[16.33635,58.51417],[16.33585,58.51673],[16.32497,58.51949],[16.32621,58.52044],[16.32415,58.52282],[16.32446,58.52335],[16.32346,58.52377],[16.32384,58.52421],[16.32238,58.52571],[16.32922,58.52561],[16.332,58.52495],[16.33467,58.52393],[16.33745,58.52362],[16.34374,58.52625],[16.34767,58.52604],[16.35056,58.52618],[16.35257,58.52607],[16.35556,58.52686],[16.35914,58.52855],[16.36288,58.52808],[16.36695,58.53007],[16.3679,58.52957],[16.36965,58.53067],[16.37258,58.53412],[16.37363,58.53381],[16.3752,58.53582],[16.37397,58.53647],[16.37426,58.53687],[16.37617,58.53611],[16.37761,58.53611],[16.37962,58.53565],[16.38097,58.53614],[16.38214,58.53694],[16.38025,58.53866],[16.37808,58.54138],[16.37973,58.54137],[16.37947,58.54161],[16.37989,58.5417],[16.37981,58.54198],[16.38055,58.5419],[16.38075,58.54215],[16.37942,58.54244],[16.37961,58.54345],[16.38011,58.54307],[16.38308,58.54333],[16.38557,58.54454],[16.38414,58.54717],[16.38213,58.54809],[16.38243,58.54848],[16.38211,58.54883],[16.3831,58.5497],[16.38267,58.55018],[16.3824,58.55147],[16.38313,58.55174],[16.38395,58.55277],[16.38501,58.55273],[16.38562,58.55291],[16.3862,58.55368],[16.38529,58.55416],[16.38424,58.55412],[16.38425,58.55443],[16.38468,58.55468],[16.38357,58.55496],[16.38357,58.55549],[16.38273,58.55634],[16.3832,58.55797],[16.38493,58.55844],[16.38557,58.55944],[16.38569,58.56161],[16.38629,58.56246],[16.38571,58.56492],[16.38425,58.56708],[16.38283,58.57036],[16.37959,58.57006],[16.37286,58.57798],[16.37181,58.57847],[16.37098,58.57848],[16.37075,58.57905],[16.37105,58.58018],[16.37266,58.5818],[16.37262,58.58304],[16.3739,58.58517],[16.3743,58.58825],[16.37424,58.58945],[16.37388,58.5901],[16.37591,58.59198],[16.37708,58.59268],[16.37841,58.59315],[16.37852,58.59342],[16.40483,58.605],[16.40502,58.60523],[16.40396,58.60822],[16.40776,58.61058],[16.4165,58.6167],[16.42033,58.6245],[16.40532,58.64254],[16.41066,58.64224],[16.41092,58.64454],[16.42539,58.64919],[16.44765,58.64921],[16.46217,58.6536],[16.47277,58.65209],[16.49682,58.6461],[16.52883,58.64439]]]}}]}