{"type":"FeatureCollection","features":[{"type":"Feature","id":"0582R001","properties":{"code":"0582R001","name":"Alboga-Bossgård"},"geometry":{"type":"Polygon","coordinates":[[[16.34708,58.47994],[16.34652,58.47946],[16.35084,58.47806],[16.34877,58.47629],[16.34837,58.47641],[16.34605,58.47568],[16.34334,58.47708],[16.34281,58.47806],[16.3356,58.47646],[16.33664,58.47504],[16.33815,58.47395],[16.33656,58.47368],[16.33441,58.47359],[16.33335,58.47458],[16.33487,58.47294],[16.33332,58.4725],[16.33306,58.47275],[16.33206,58.47246],[16.33304,58.47187],[16.33159,58.47108],[16.33344,58.47063],[16.33256,58.46929],[16.3311,58.46971],[16.33004,58.46981],[16.32618,58.46964],[16.3262,58.46911],[16.32698,58.46912],[16.32738,58.46683],[16.32893,58.46614],[16.32883,58.46554],[16.32754,58.46531],[16.32701,58.46483],[16.32595,58.46457],[16.32542,58.46502],[16.32547,58.46681],[16.32503,58.46726],[16.32504,58.46753],[16.3255,58.46769],[16.32287,58.46761],[16.31942,58.46694],[16.31829,58.46648],[16.31787,58.46697],[16.316,58.46762],[16.31683,58.46857],[16.31684,58.46905],[16.31547,58.46931],[16.31413,58.47009],[16.31346,58.47075],[16.3135,58.47104],[16.31456,58.47169],[16.3126,58.47119],[16.31258,58.47162],[16.31445,58.47211],[16.31323,58.4727],[16.31404,58.47363],[16.31113,58.47513],[16.31081,58.4749],[16.3104,58.47506],[16.31085,58.47538],[16.3109,58.47581],[16.30987,58.47547],[16.31022,58.47511],[16.31005,58.47461],[16.30925,58.4748],[16.3096,58.47586],[16.30902,58.4763],[16.31382,58.47757],[16.31454,58.47813],[16.31423,58.47838],[16.31455,58.47871],[16.31318,58.47958],[16.31522,58.47991],[16.31953,58.47891],[16.32539,58.47848],[16.32607,58.48053],[16.33258,58.47962],[16.33425,58.47986],[16.3347,58.48028],[16.33521,58.47989],[16.33677,58.47987],[16.34393,58.48004],[16.34534,58.48037],[16.34619,58.47999],[16.34708,58.47994]]]}},{"type":"Feature","id":"0582R002","properties":{"code":"0582R002","name":"Drothem"},"geometry":{"type":"Polygon","coordinates":[[[16.3054,58.50388],[16.30862,58.50347],[16.31156,58.50263],[16.31536,58.50211],[16.31777,58.50135],[16.31965,58.50036],[16.31799,58.50117],[16.31659,58.50087],[16.31408,58.49973],[16.31203,58.49844],[16.3107,58.49949],[16.31065,58.49914],[16.30874,58.49735],[16.31011,58.49699],[16.30933,58.49612],[16.30747,58.49646],[16.30719,58.49623],[16.30784,58.49607],[16.30758,58.49577],[16.30663,58.49582],[16.30649,58.49569],[16.30679,58.49281],[16.30671,58.49255],[16.30546,58.4919],[16.30645,58.49096],[16.306,58.48962],[16.30759,58.48908],[16.30857,58.48818],[16.30722,58.48744],[16.30852,58.48682],[16.30833,58.48632],[16.306,58.48465],[16.30153,58.48597],[16.30099,58.48554],[16.3016,58.48541],[16.30243,58.48427],[16.30356,58.48521],[16.30588,58.48437],[16.30408,58.48349],[16.30435,58.48331],[16.30611,58.4843],[16.30729,58.48411],[16.31151,58.4827],[16.3096,58.48164],[16.31028,58.48135],[16.31148,58.48024],[16.31254,58.48032],[16.31336,58.48083],[16.31399,58.48027],[16.31336,58.47996],[16.31318,58.47958],[16.31455,58.47871],[16.31423,58.47838],[16.31454,58.47813],[16.31382,58.47757],[16.31286,58.47723],[16.30902,58.4763],[16.3096,58.47586],[16.30925,58.4748],[16.31005,58.47461],[16.31022,58.47511],[16.30987,58.47547],[16.3109,58.47581],[16.31085,58.47538],[16.3104,58.47506],[16.31081,58.4749],[16.31113,58.47513],[16.31404,58.47363],[16.31323,58.4727],[16.31445,58.47211],[16.31258,58.47162],[16.3126,58.47119],[16.31456,58.47169],[16.3135,58.47104],[16.31346,58.47075],[16.31413,58.47009],[16.31547,58.46931],[16.31684,58.46905],[16.31683,58.46857],[16.316,58.46762],[16.31787,58.46697],[16.31829,58.46648],[16.31942,58.46694],[16.32287,58.46761],[16.3255,58.46769],[16.32504,58.46753],[16.32503,58.46726],[16.32547,58.46681],[16.32535,58.46496],[16.32593,58.46298],[16.32552,58.46193],[16.32453,58.4608],[16.32366,58.46024],[16.32392,58.46015],[16.3238,58.45987],[16.32535,58.45925],[16.3302,58.45461],[16.33092,58.45418],[16.33181,58.45292],[16.33007,58.45218],[16.32685,58.45157],[16.32428,58.45142],[16.32154,58.45161],[16.3184,58.45232],[16.31617,58.45318],[16.31412,58.4546],[16.31177,58.45725],[16.31122,58.45829],[16.31118,58.46008],[16.31084,58.46047],[16.30894,58.46135],[16.30772,58.4622],[16.30439,58.46305],[16.30158,58.46414],[16.29799,58.46653],[16.29591,58.46894],[16.29516,58.47187],[16.29522,58.47342],[16.29398,58.47449],[16.29269,58.47657],[16.29255,58.47808],[16.293,58.4793],[16.29128,58.47999],[16.28727,58.48218],[16.28608,58.48311],[16.28508,58.48448],[16.28487,58.48671],[16.28538,58.4878],[16.28633,58.48889],[16.28914,58.49059],[16.29095,58.49119],[16.293,58.49162],[16.29243,58.49295],[16.29242,58.49419],[16.29123,58.49557],[16.29073,58.4971],[16.29112,58.49889],[16.29227,58.50033],[16.29509,58.50201],[16.29913,58.50326],[16.30195,58.50378],[16.3054,58.50388]]]}},{"type":"Feature","id":"0582R003","properties":{"code":"0582R003","name":"Mogata-Sankt Anna"},"geometry":{"type":"Polygon","coordinates":[[[16.44914,58.47768],[16.45495,58.4742],[16.46186,58.4745],[16.46935,58.47384],[16.47132,58.47133],[16.47406,58.47108],[16.48825,58.47069],[16.50394,58.46525],[16.5314,58.45915],[16.54466,58.45399],[16.55923,58.45155],[16.56619,58.44717],[16.5896,58.44285],[16.61409,58.443],[16.62646,58.44075],[16.63541,58.43457],[16.64074,58.436],[16.65082,58.43548],[16.65643,58.43275],[16.65815,58.43255],[16.66388,58.43257],[16.66522,58.43242],[16.66679,58.43277],[16.67357,58.43144],[16.68418,58.42726],[16.691,58.42777],[16.69829,58.42525],[16.70175,58.42197],[16.70218,58.4171],[16.72325,58.41892],[16.74624,58.41594],[16.75727,58.41677],[16.76931,58.41435],[16.7731,58.4152],[16.7763,58.41379],[16.78351,58.41366],[16.78469,58.41676],[16.79182,58.41999],[16.7861,58.42416],[16.7816,58.42534],[16.78221,58.42693],[16.78966,58.43001],[16.79526,58.43056],[16.79918,58.43661],[16.80318,58.43747],[16.81924,58.4347],[16.85853,58.44278],[16.87115,58.46765],[16.93453,58.4669],[16.9379,58.46628],[16.95013,58.46249],[16.95353,58.46162],[16.9602,58.46089],[16.96785,58.45943],[16.97763,58.45864],[16.99477,58.459],[16.99409,58.4638],[16.99831,58.46753],[17.10329,58.44143],[17.51565,58.40282],[17.56928,58.39898],[17.54727,58.313],[17.54721,58.30974],[17.1638,58.31043],[17.16408,58.31055],[17.16372,58.3107],[17.16313,58.31043],[17.08304,58.31042],[17.03139,58.29692],[17.00999,58.30097],[16.98747,58.30011],[16.97669,58.2929],[16.94187,58.29199],[16.92696,58.29445],[16.89927,58.29188],[16.88,58.28629],[16.87635,58.28579],[16.87599,58.28535],[16.8723,58.28518],[16.86938,58.28459],[16.86847,58.28411],[16.85851,58.28268],[16.85844,58.28229],[16.85893,58.28203],[16.85615,58.28102],[16.85598,58.28132],[16.85268,58.28091],[16.85227,58.28165],[16.84298,58.28092],[16.83885,58.28555],[16.83856,58.2862],[16.83049,58.28495],[16.82635,58.28488],[16.82079,58.28336],[16.82169,58.28017],[16.82147,58.27971],[16.82419,58.27585],[16.81928,58.27217],[16.81803,58.26858],[16.81148,58.26557],[16.80597,58.26663],[16.80729,58.26903],[16.80047,58.26992],[16.79714,58.2731],[16.79168,58.27227],[16.78698,58.27269],[16.77988,58.27396],[16.77941,58.27106],[16.77683,58.26735],[16.76494,58.26828],[16.75907,58.27104],[16.75467,58.27002],[16.75398,58.26856],[16.75712,58.26605],[16.76184,58.26325],[16.75848,58.26152],[16.74776,58.26161],[16.742,58.25722],[16.72687,58.25913],[16.70815,58.26523],[16.69714,58.26768],[16.695,58.26783],[16.69301,58.26928],[16.68395,58.27327],[16.67559,58.27511],[16.67221,58.27611],[16.65931,58.28292],[16.65343,58.28807],[16.65135,58.2895],[16.64989,58.29216],[16.64452,58.29514],[16.64176,58.29539],[16.63549,58.30019],[16.62921,58.30409],[16.62259,58.30753],[16.62215,58.30799],[16.62252,58.30819],[16.62303,58.30982],[16.62643,58.31457],[16.62056,58.31649],[16.6018,58.31997],[16.59015,58.32272],[16.5837,58.31902],[16.56409,58.32546],[16.56482,58.32787],[16.56802,58.33098],[16.56163,58.33852],[16.5604,58.34064],[16.55521,58.34558],[16.55093,58.34883],[16.54741,58.35079],[16.54719,58.35052],[16.54676,58.35069],[16.54616,58.34997],[16.54663,58.34984],[16.54637,58.3495],[16.54589,58.34977],[16.54509,58.34884],[16.54567,58.34867],[16.53922,58.34054],[16.53726,58.34088],[16.53041,58.34432],[16.52567,58.34638],[16.51124,58.35666],[16.50023,58.36712],[16.49588,58.3655],[16.48994,58.36362],[16.46725,58.35714],[16.46193,58.367],[16.45932,58.36755],[16.45688,58.37096],[16.44892,58.37071],[16.44841,58.371],[16.44779,58.37192],[16.44761,58.37302],[16.44709,58.37388],[16.44616,58.37467],[16.44634,58.37636],[16.44595,58.37685],[16.44462,58.37733],[16.44289,58.3768],[16.44146,58.37669],[16.44052,58.37605],[16.43894,58.37595],[16.43551,58.37768],[16.43609,58.37864],[16.43616,58.37956],[16.43564,58.38041],[16.43584,58.38186],[16.43508,58.38321],[16.43303,58.38466],[16.42977,58.38807],[16.42701,58.39007],[16.42751,58.39086],[16.42712,58.39167],[16.42764,58.39389],[16.42747,58.39479],[16.4278,58.3969],[16.42836,58.39772],[16.42953,58.39832],[16.42944,58.39907],[16.4299,58.40028],[16.4304,58.40055],[16.43248,58.40099],[16.43421,58.40244],[16.43586,58.40314],[16.43673,58.40435],[16.43812,58.40517],[16.4382,58.40603],[16.43916,58.4067],[16.43918,58.40716],[16.4409,58.4084],[16.44097,58.40895],[16.44033,58.41034],[16.44227,58.41165],[16.44171,58.41403],[16.44089,58.41529],[16.43735,58.41689],[16.43737,58.41662],[16.43639,58.41669],[16.4364,58.41838],[16.43479,58.4196],[16.43451,58.42093],[16.43124,58.42387],[16.43084,58.42491],[16.42979,58.42538],[16.42926,58.4264],[16.42759,58.42772],[16.42516,58.43053],[16.42357,58.43135],[16.42371,58.43237],[16.42188,58.43285],[16.42091,58.43453],[16.42118,58.43529],[16.42262,58.43575],[16.42333,58.43629],[16.42299,58.43698],[16.42302,58.4382],[16.42182,58.43918],[16.4217,58.43967],[16.42299,58.43999],[16.4245,58.44091],[16.42564,58.4407],[16.42724,58.44081],[16.42854,58.44111],[16.42911,58.44135],[16.42964,58.4424],[16.42739,58.44268],[16.42604,58.4436],[16.42378,58.44454],[16.4183,58.44806],[16.41532,58.45026],[16.40975,58.45292],[16.41775,58.45453],[16.42887,58.45528],[16.42438,58.45656],[16.42454,58.4576],[16.42392,58.45793],[16.4208,58.45898],[16.41784,58.45925],[16.41953,58.46111],[16.41915,58.46184],[16.41993,58.46394],[16.42005,58.46558],[16.41688,58.46908],[16.41635,58.4708],[16.41703,58.47532],[16.42987,58.4792],[16.44914,58.47768]]]}},{"type":"Feature","id":"0582R004","properties":{"code":"0582R004","name":"Skönberga"},"geometry":{"type":"Polygon","coordinates":[[[16.34802,58.48073],[16.35314,58.48024],[16.35612,58.47962],[16.35628,58.47976],[16.3596,58.47953],[16.35967,58.47789],[16.35861,58.47602],[16.35994,58.47534],[16.36179,58.47398],[16.3636,58.47337],[16.36549,58.47236],[16.36935,58.46948],[16.37165,58.46816],[16.37262,58.46721],[16.37331,58.46592],[16.37496,58.4652],[16.37674,58.46398],[16.3776,58.46298],[16.37814,58.46159],[16.3781,58.46051],[16.37744,58.45908],[16.37631,58.45778],[16.37502,58.4569],[16.37293,58.456],[16.37109,58.45551],[16.36841,58.45515],[16.366,58.45506],[16.36375,58.4552],[16.36102,58.45473],[16.35773,58.45468],[16.35454,58.45518],[16.35083,58.45649],[16.34742,58.45905],[16.34634,58.46063],[16.34445,58.46152],[16.34266,58.46202],[16.33849,58.46235],[16.33787,58.45974],[16.33649,58.45805],[16.33521,58.4553],[16.33362,58.45382],[16.33155,58.45269],[16.33181,58.45292],[16.33092,58.45418],[16.3302,58.45461],[16.32513,58.45944],[16.32451,58.45951],[16.3238,58.45987],[16.32392,58.46015],[16.32366,58.46024],[16.32453,58.4608],[16.32552,58.46193],[16.32593,58.46298],[16.32535,58.46496],[16.32595,58.46457],[16.32701,58.46483],[16.32754,58.46531],[16.32883,58.46554],[16.32893,58.46614],[16.32738,58.46683],[16.32698,58.46912],[16.3262,58.46911],[16.32618,58.46964],[16.33004,58.46981],[16.3311,58.46971],[16.33256,58.46929],[16.33344,58.47063],[16.33159,58.47108],[16.33304,58.47187],[16.33206,58.47246],[16.33306,58.47275],[16.33332,58.4725],[16.33487,58.47294],[16.33335,58.47458],[16.33441,58.47359],[16.33656,58.47368],[16.33815,58.47395],[16.33664,58.47504],[16.3356,58.47646],[16.34281,58.47806],[16.34334,58.47708],[16.34605,58.47568],[16.34837,58.47641],[16.34877,58.47629],[16.35084,58.47806],[16.34652,58.47946],[16.34802,58.48073]]]}},{"type":"Feature","id":"0582R005","properties":{"code":"0582R005","name":"Söderköpings centrum"},"geometry":{"type":"Polygon","coordinates":[[[16.31799,58.50117],[16.31965,58.50036],[16.32159,58.49893],[16.323,58.49682],[16.32309,58.4956],[16.32258,58.49416],[16.32139,58.49283],[16.32,58.49188],[16.32125,58.49057],[16.32832,58.48749],[16.33085,58.48683],[16.33385,58.48693],[16.33735,58.48668],[16.33725,58.4863],[16.34031,58.48615],[16.34423,58.48506],[16.3458,58.48508],[16.35022,58.48419],[16.35268,58.48321],[16.35497,58.48257],[16.35664,58.4807],[16.35612,58.47962],[16.35314,58.48024],[16.34872,58.48073],[16.34802,58.48073],[16.34708,58.47994],[16.34619,58.47999],[16.34534,58.48037],[16.34393,58.48004],[16.33677,58.47987],[16.33521,58.47989],[16.3347,58.48028],[16.33425,58.47986],[16.33258,58.47962],[16.32607,58.48053],[16.32539,58.47848],[16.31953,58.47891],[16.31522,58.47991],[16.31318,58.47958],[16.31336,58.47996],[16.31399,58.48027],[16.31336,58.48083],[16.31254,58.48032],[16.31148,58.48024],[16.31028,58.48135],[16.3096,58.48164],[16.31151,58.4827],[16.30729,58.48411],[16.30611,58.4843],[16.30435,58.48331],[16.30408,58.48349],[16.30588,58.48437],[16.30356,58.48521],[16.30243,58.48427],[16.3016,58.48541],[16.30099,58.48554],[16.30153,58.48597],[16.306,58.48465],[16.30833,58.48632],[16.30856,58.48677],[16.30722,58.48744],[16.30857,58.48818],[16.30759,58.48908],[16.306,58.48962],[16.30645,58.49096],[16.30546,58.4919],[16.30671,58.49255],[16.30679,58.49281],[16.30649,58.49569],[16.30663,58.49582],[16.30758,58.49577],[16.30784,58.49607],[16.30719,58.49623],[16.30747,58.49646],[16.30933,58.49612],[16.31011,58.49699],[16.30874,58.49735],[16.31065,58.49914],[16.3107,58.49949],[16.31203,58.49844],[16.31408,58.49973],[16.31659,58.50087],[16.31799,58.50117]]]}},{"type":"Feature","id":"0582R006","properties":{"code":"0582R006","name":"Söderköpings omland-Östra Ryd"},"geometry":{"type":"Polygon","coordinates":[[[16.16718,58.52694],[16.16755,58.5262],[16.17764,58.52674],[16.17997,58.52643],[16.18295,58.5236],[16.18253,58.52353],[16.18434,58.52009],[16.2085,58.52055],[16.20849,58.52022],[16.21305,58.51887],[16.22608,58.51874],[16.22591,58.52071],[16.22934,58.52081],[16.22908,58.52093],[16.24573,58.51863],[16.24616,58.52376],[16.25531,58.52336],[16.26254,58.5211],[16.26679,58.52179],[16.27586,58.51599],[16.28288,58.51569],[16.28285,58.5159],[16.28567,58.517],[16.28832,58.51498],[16.28864,58.51498],[16.29242,58.51244],[16.29666,58.51253],[16.29938,58.51368],[16.30126,58.51302],[16.3037,58.51301],[16.30521,58.51321],[16.30744,58.51395],[16.31133,58.51434],[16.31775,58.51277],[16.32336,58.51242],[16.32988,58.51125],[16.33219,58.51106],[16.33443,58.50907],[16.33646,58.50908],[16.33696,58.50876],[16.34003,58.50829],[16.33931,58.50593],[16.34204,58.50272],[16.34168,58.50226],[16.34213,58.50215],[16.34235,58.50234],[16.34307,58.50128],[16.34516,58.50089],[16.34605,58.49945],[16.34486,58.49978],[16.34387,58.49975],[16.34472,58.49808],[16.34366,58.49723],[16.34396,58.49113],[16.34051,58.48715],[16.3375,58.4872],[16.33735,58.48668],[16.33385,58.48693],[16.33085,58.48683],[16.32832,58.48749],[16.32074,58.49087],[16.32,58.49188],[16.32172,58.49313],[16.32263,58.49426],[16.3231,58.4957],[16.32289,58.49716],[16.32198,58.49854],[16.31974,58.50031],[16.31777,58.50135],[16.31595,58.50196],[16.3138,58.50241],[16.31156,58.50263],[16.31,58.50315],[16.30753,58.50366],[16.3054,58.50388],[16.30259,58.50384],[16.29972,58.5034],[16.29562,58.50221],[16.29398,58.50149],[16.29227,58.50033],[16.29112,58.49889],[16.29073,58.4971],[16.29123,58.49557],[16.29242,58.49419],[16.29243,58.49295],[16.293,58.49162],[16.28967,58.49079],[16.28679,58.48927],[16.28518,58.48748],[16.28482,58.48525],[16.28547,58.48383],[16.28687,58.48245],[16.29128,58.47999],[16.293,58.4793],[16.29255,58.47808],[16.29269,58.47657],[16.29398,58.47449],[16.29522,58.47342],[16.29511,58.47223],[16.29578,58.46928],[16.29728,58.46713],[16.30158,58.46414],[16.30439,58.46305],[16.30772,58.4622],[16.30894,58.46135],[16.31084,58.46047],[16.31118,58.46008],[16.31122,58.45829],[16.31177,58.45725],[16.31412,58.4546],[16.31572,58.45343],[16.31779,58.45251],[16.32026,58.45183],[16.32293,58.45146],[16.32564,58.45146],[16.32818,58.45175],[16.33068,58.45236],[16.33276,58.45327],[16.33428,58.45434],[16.33544,58.45565],[16.33649,58.45805],[16.33785,58.45971],[16.33849,58.46235],[16.34266,58.46202],[16.34445,58.46152],[16.34634,58.46063],[16.34739,58.45908],[16.35037,58.45674],[16.35248,58.4558],[16.35641,58.45482],[16.35972,58.45465],[16.36375,58.4552],[16.36671,58.45507],[16.3698,58.45529],[16.37351,58.45621],[16.37628,58.45776],[16.37744,58.45908],[16.3781,58.46051],[16.37807,58.46195],[16.37735,58.46332],[16.37558,58.46484],[16.37331,58.46592],[16.37262,58.46721],[16.37165,58.46816],[16.36935,58.46948],[16.36549,58.47236],[16.3636,58.47337],[16.36179,58.47398],[16.35994,58.47534],[16.35861,58.47602],[16.35967,58.47789],[16.3596,58.47953],[16.36633,58.47964],[16.37452,58.48018],[16.378,58.48007],[16.38234,58.47957],[16.39351,58.47583],[16.39891,58.47508],[16.40647,58.4747],[16.41468,58.47499],[16.41703,58.47532],[16.41635,58.4708],[16.41688,58.46908],[16.42005,58.46558],[16.41993,58.46394],[16.41915,58.46184],[16.41953,58.46111],[16.41784,58.45925],[16.4208,58.45898],[16.42392,58.45793],[16.42454,58.4576],[16.42438,58.45656],[16.42887,58.45528],[16.41775,58.45453],[16.40975,58.45292],[16.41532,58.45026],[16.4183,58.44806],[16.42378,58.44454],[16.42604,58.4436],[16.42739,58.44268],[16.42964,58.4424],[16.42911,58.44135],[16.42854,58.44111],[16.42724,58.44081],[16.42564,58.4407],[16.4245,58.44091],[16.42299,58.43999],[16.4217,58.43967],[16.42182,58.43918],[16.42302,58.4382],[16.42299,58.43698],[16.42333,58.43629],[16.42262,58.43575],[16.42118,58.43529],[16.42091,58.43453],[16.42188,58.43285],[16.42371,58.43237],[16.42357,58.43135],[16.42516,58.43053],[16.42759,58.42772],[16.42926,58.4264],[16.42979,58.42538],[16.43084,58.42491],[16.43124,58.42387],[16.43451,58.42093],[16.43479,58.4196],[16.4364,58.41838],[16.43639,58.41669],[16.43737,58.41662],[16.43735,58.41689],[16.44107,58.41516],[16.44171,58.41403],[16.44224,58.41186],[16.44199,58.41132],[16.44043,58.41055],[16.44099,58.40857],[16.43918,58.40716],[16.43916,58.4067],[16.4382,58.40603],[16.43805,58.4051],[16.43673,58.40435],[16.43586,58.40314],[16.43421,58.40244],[16.43267,58.40109],[16.4304,58.40055],[16.42975,58.40011],[16.42953,58.39832],[16.42836,58.39772],[16.4278,58.3969],[16.42747,58.39479],[16.42764,58.39389],[16.42712,58.39167],[16.42751,58.39086],[16.42701,58.39007],[16.42977,58.38807],[16.43303,58.38466],[16.43508,58.38321],[16.43584,58.38186],[16.43564,58.38041],[16.43616,58.37956],[16.43609,58.37864],[16.43551,58.37768],[16.43739,58.37682],[16.43854,58.37603],[16.43997,58.37594],[16.43836,58.37402],[16.43361,58.37004],[16.42441,58.36554],[16.42194,58.3641],[16.41904,58.36929],[16.40586,58.36977],[16.38909,58.37588],[16.38191,58.37405],[16.37979,58.37541],[16.37674,58.38075],[16.37332,58.3799],[16.37046,58.37894],[16.36846,58.37942],[16.36279,58.37675],[16.35289,58.38059],[16.35055,58.38348],[16.34474,58.38581],[16.34442,58.38664],[16.34502,58.38672],[16.34754,58.38842],[16.34708,58.38881],[16.34803,58.38948],[16.34652,58.38988],[16.34711,58.39063],[16.34829,58.39085],[16.34792,58.39142],[16.34512,58.39149],[16.34523,58.39018],[16.34603,58.3894],[16.34511,58.38921],[16.34523,58.38968],[16.34086,58.39159],[16.34022,58.39147],[16.34012,58.39099],[16.33653,58.39055],[16.33305,58.38913],[16.33165,58.38907],[16.33055,58.38876],[16.33026,58.38852],[16.33104,58.38784],[16.32985,58.38667],[16.32912,58.38679],[16.32584,58.38827],[16.32446,58.38866],[16.32283,58.38885],[16.3211,58.3886],[16.31993,58.38817],[16.31984,58.38734],[16.32148,58.38677],[16.32358,58.38523],[16.32542,58.38492],[16.32728,58.38542],[16.32982,58.38397],[16.29869,58.38654],[16.2867,58.39302],[16.26534,58.39504],[16.26637,58.39358],[16.25981,58.39324],[16.25685,58.39423],[16.26063,58.38106],[16.26665,58.37099],[16.27377,58.37029],[16.27902,58.36352],[16.28246,58.35972],[16.28601,58.35888],[16.29037,58.35521],[16.29003,58.35076],[16.28788,58.34156],[16.28254,58.33837],[16.27734,58.33122],[16.27364,58.32914],[16.2733,58.32871],[16.27291,58.3287],[16.2731,58.3285],[16.27264,58.32853],[16.25074,58.3161],[16.2301,58.317],[16.22495,58.31595],[16.21409,58.31249],[16.20223,58.3176],[16.18908,58.3181],[16.1923,58.32478],[16.17752,58.33058],[16.17578,58.33086],[16.17367,58.33183],[16.17246,58.33216],[16.17184,58.33257],[16.16993,58.33307],[16.1687,58.33421],[16.16459,58.33434],[16.15798,58.33782],[16.15025,58.33944],[16.14189,58.3441],[16.13785,58.34494],[16.13196,58.34577],[16.1292,58.34742],[16.12738,58.3477],[16.12476,58.34992],[16.12205,58.35113],[16.11539,58.35223],[16.11157,58.35423],[16.10513,58.35638],[16.09763,58.35623],[16.09365,58.35552],[16.08476,58.35342],[16.07599,58.36414],[16.07527,58.37182],[16.067,58.37509],[16.06156,58.37804],[16.05739,58.3796],[16.0529,58.38081],[16.05432,58.38341],[16.05169,58.38597],[16.04328,58.39301],[16.03574,58.39839],[16.0453,58.40595],[16.03161,58.40471],[16.03065,58.40447],[16.02517,58.40545],[16.01337,58.40858],[16.01346,58.40916],[16.00983,58.41183],[16.00912,58.41972],[16.01577,58.41802],[16.02524,58.41794],[16.02485,58.41942],[16.02456,58.41952],[16.02472,58.42018],[16.02759,58.42052],[16.03012,58.42039],[16.03121,58.41988],[16.03405,58.42055],[16.03602,58.41997],[16.03815,58.41883],[16.03765,58.4162],[16.0406,58.41563],[16.04038,58.4188],[16.04082,58.42048],[16.04133,58.4212],[16.04187,58.42305],[16.04274,58.42322],[16.04304,58.42433],[16.04263,58.42507],[16.0431,58.42707],[16.04389,58.42733],[16.03904,58.43017],[16.03397,58.43541],[16.03419,58.4355],[16.034,58.43579],[16.03368,58.4358],[16.03307,58.43646],[16.03292,58.43728],[16.03353,58.43818],[16.03575,58.43922],[16.03589,58.4419],[16.03511,58.44282],[16.03626,58.44381],[16.0374,58.44365],[16.03843,58.44375],[16.03984,58.4445],[16.04043,58.44457],[16.04138,58.44403],[16.04417,58.44473],[16.0413,58.44681],[16.03855,58.44722],[16.04067,58.45223],[16.04563,58.45893],[16.05091,58.45956],[16.05576,58.45979],[16.06305,58.4595],[16.06364,58.45905],[16.06428,58.45898],[16.07305,58.46138],[16.0795,58.46182],[16.0839,58.46173],[16.08436,58.46269],[16.08402,58.46458],[16.08246,58.46821],[16.08223,58.46972],[16.08218,58.47171],[16.08288,58.47351],[16.08243,58.4742],[16.08522,58.47429],[16.0855,58.47457],[16.08516,58.4757],[16.08586,58.4771],[16.0866,58.47756],[16.08689,58.47738],[16.08761,58.47811],[16.08888,58.47857],[16.08987,58.48715],[16.08908,58.4887],[16.08323,58.49232],[16.08367,58.4929],[16.08183,58.49354],[16.08161,58.49384],[16.08199,58.49554],[16.08313,58.49598],[16.08481,58.49586],[16.08215,58.50276],[16.08776,58.50338],[16.10361,58.50342],[16.11112,58.50312],[16.1112,58.50381],[16.11426,58.50226],[16.11823,58.50142],[16.12156,58.50118],[16.12436,58.50119],[16.12666,58.5014],[16.13022,58.50144],[16.13243,58.50172],[16.13485,58.50122],[16.13777,58.4994],[16.14601,58.49636],[16.1535,58.49472],[16.16035,58.49407],[16.16372,58.49312],[16.16086,58.49175],[16.15905,58.48985],[16.15872,58.48771],[16.1592,58.48645],[16.16017,58.4853],[16.15759,58.48225],[16.15702,58.48081],[16.15702,58.47945],[16.15767,58.47803],[16.15898,58.47674],[16.1605,58.47582],[16.16334,58.4748],[16.1662,58.47431],[16.16917,58.47422],[16.17231,58.47456],[16.17526,58.47455],[16.17951,58.47508],[16.18141,58.47551],[16.18315,58.47613],[16.18499,58.47717],[16.18637,58.47854],[16.18806,58.47954],[16.18972,58.48088],[16.19175,58.48324],[16.19196,58.48538],[16.1908,58.48724],[16.19132,58.48843],[16.19135,58.48987],[16.19026,58.49194],[16.18777,58.49364],[16.18491,58.49461],[16.18295,58.49495],[16.18058,58.49509],[16.17839,58.49564],[16.17919,58.49662],[16.17967,58.49804],[16.17956,58.49925],[16.17888,58.50059],[16.1803,58.50192],[16.18094,58.50329],[16.1809,58.50472],[16.1802,58.50606],[16.17888,58.50726],[16.17728,58.5082],[16.17451,58.50927],[16.16987,58.51031],[16.16787,58.51058],[16.16183,58.51055],[16.15973,58.51141],[16.15384,58.51313],[16.15386,58.51491],[16.15312,58.5163],[16.15126,58.51814],[16.14857,58.51967],[16.15408,58.52144],[16.15522,58.52241],[16.15586,58.52261],[16.1563,58.52367],[16.15764,58.52398],[16.15911,58.52381],[16.15943,58.52437],[16.16052,58.52448],[16.16126,58.5248],[16.16132,58.52517],[16.16206,58.52572],[16.16662,58.52701],[16.16718,58.52694]]]}},{"type":"Feature","id":"0582R007","properties":{"code":"0582R007","name":"Västra Husby-Luddingsbo"},"geometry":{"type":"Polygon","coordinates":[[[16.13992,58.52161],[16.14796,58.52094],[16.14673,58.51931],[16.14682,58.51908],[16.14857,58.51967],[16.15164,58.51783],[16.15359,58.5156],[16.15394,58.51454],[16.15384,58.51313],[16.15973,58.51141],[16.16183,58.51055],[16.16787,58.51058],[16.16987,58.51031],[16.17451,58.50927],[16.17728,58.5082],[16.17888,58.50726],[16.1802,58.50606],[16.1809,58.50472],[16.18094,58.50329],[16.1803,58.50192],[16.17888,58.50059],[16.17956,58.49925],[16.17967,58.49804],[16.17919,58.49662],[16.17839,58.49564],[16.18058,58.49509],[16.18295,58.49495],[16.18554,58.49445],[16.18777,58.49364],[16.18958,58.49255],[16.19055,58.4916],[16.19127,58.49023],[16.19132,58.48843],[16.1908,58.48724],[16.19168,58.48608],[16.19206,58.48467],[16.19156,58.48288],[16.18969,58.48085],[16.18806,58.47954],[16.18637,58.47854],[16.18456,58.47688],[16.1826,58.4759],[16.18082,58.47535],[16.17526,58.47455],[16.17231,58.47456],[16.16917,58.47422],[16.1662,58.47431],[16.16394,58.47466],[16.16151,58.47538],[16.15948,58.47639],[16.15829,58.47732],[16.15711,58.47911],[16.15709,58.48115],[16.15789,58.48266],[16.16017,58.4853],[16.15882,58.48734],[16.15888,58.48949],[16.16048,58.49147],[16.16178,58.49231],[16.16372,58.49312],[16.16035,58.49407],[16.1535,58.49472],[16.14601,58.49636],[16.13777,58.4994],[16.13485,58.50122],[16.13243,58.50172],[16.13022,58.50144],[16.12666,58.5014],[16.12436,58.50119],[16.12156,58.50118],[16.11823,58.50142],[16.11426,58.50226],[16.1112,58.50381],[16.11132,58.50485],[16.10768,58.5091],[16.10739,58.51258],[16.10872,58.51267],[16.11018,58.51214],[16.11118,58.51207],[16.11245,58.51267],[16.11912,58.51246],[16.11988,58.51176],[16.1218,58.51191],[16.12815,58.51375],[16.12812,58.51425],[16.12863,58.5145],[16.13243,58.51383],[16.13796,58.51782],[16.14104,58.51915],[16.14083,58.51936],[16.1402,58.51923],[16.13965,58.51986],[16.14022,58.52007],[16.13977,58.5206],[16.13992,58.52161]]]}}]}