{"type":"FeatureCollection","features":[{"type":"Feature","id":"0586R001","properties":{"code":"0586R001","name":"Eldslösa"},"geometry":{"type":"Polygon","coordinates":[[[15.15953,58.32747],[15.16618,58.3272],[15.16691,58.32563],[15.16668,58.32385],[15.16542,58.32219],[15.16416,58.3213],[15.15986,58.31903],[15.16232,58.31715],[15.16321,58.31617],[15.16373,58.31511],[15.16383,58.31389],[15.16496,58.31181],[15.16495,58.31057],[15.16454,58.30946],[15.16374,58.30841],[15.16226,58.3072],[15.15904,58.30574],[15.15566,58.30507],[15.15266,58.30497],[15.14936,58.30533],[15.1467,58.30495],[15.14281,58.30481],[15.139,58.30529],[15.13526,58.30553],[15.13304,58.30439],[15.12969,58.30333],[15.12701,58.30294],[15.1239,58.30292],[15.1258,58.30502],[15.1263,58.3082],[15.12888,58.30971],[15.12888,58.31049],[15.12829,58.31106],[15.1283,58.31304],[15.12702,58.31407],[15.12935,58.31451],[15.13091,58.31531],[15.13146,58.31608],[15.1316,58.31829],[15.13253,58.31828],[15.13382,58.31861],[15.1342,58.31825],[15.13608,58.31824],[15.13629,58.31761],[15.14079,58.31822],[15.14397,58.3192],[15.14233,58.32049],[15.14463,58.32126],[15.14559,58.32193],[15.1495,58.32047],[15.15299,58.32054],[15.15423,58.32207],[15.15377,58.32229],[15.15467,58.32411],[15.1536,58.32475],[15.15244,58.32508],[15.15205,58.32585],[15.15316,58.32775],[15.15839,58.32829],[15.15953,58.32747]]]}},{"type":"Feature","id":"0586R002","properties":{"code":"0586R002","name":"Mantorp tätort"},"geometry":{"type":"Polygon","coordinates":[[[15.30627,58.34141],[15.29693,58.34026],[15.2923,58.33935],[15.28935,58.33913],[15.28595,58.33939],[15.28234,58.34039],[15.27897,58.33972],[15.27461,58.33946],[15.27062,58.33983],[15.26728,58.34091],[15.26401,58.34033],[15.26057,58.34025],[15.2573,58.34073],[15.25448,58.34173],[15.25297,58.34388],[15.25717,58.34526],[15.26841,58.34753],[15.26806,58.34826],[15.26851,58.35028],[15.27033,58.3526],[15.27133,58.35652],[15.27328,58.36084],[15.2746,58.36298],[15.27409,58.36476],[15.27544,58.36567],[15.277,58.36638],[15.28048,58.36724],[15.28156,58.36839],[15.28449,58.37055],[15.28642,58.37161],[15.29015,58.37275],[15.29365,58.37326],[15.29708,58.37317],[15.29989,58.37266],[15.30551,58.37053],[15.30749,58.3695],[15.30899,58.36816],[15.30971,58.36699],[15.31333,58.3654],[15.31517,58.36389],[15.31618,58.36222],[15.31699,58.35854],[15.31771,58.3572],[15.3177,58.35544],[15.31669,58.35343],[15.31484,58.35193],[15.31243,58.35088],[15.31357,58.34658],[15.3133,58.34548],[15.31236,58.34416],[15.31079,58.34297],[15.30814,58.34185],[15.30627,58.34141]]]}},{"type":"Feature","id":"0586R003","properties":{"code":"0586R003","name":"Mjölby omnejd-Skänninge omnejd"},"geometry":{"type":"Polygon","coordinates":[[[15.11696,58.43388],[15.12181,58.41652],[15.12329,58.41519],[15.12641,58.41092],[15.12761,58.41009],[15.12836,58.40861],[15.1291,58.4083],[15.13033,58.40867],[15.13114,58.4092],[15.13249,58.40861],[15.13334,58.40872],[15.13377,58.40889],[15.13408,58.40961],[15.13486,58.4094],[15.13595,58.40944],[15.13718,58.40893],[15.13753,58.40915],[15.1375,58.40953],[15.13845,58.40996],[15.13879,58.40991],[15.13908,58.40953],[15.13878,58.40888],[15.13929,58.40874],[15.13992,58.40914],[15.14034,58.40989],[15.14207,58.40982],[15.14302,58.41023],[15.14298,58.41049],[15.14189,58.41086],[15.14152,58.41147],[15.14251,58.41169],[15.14375,58.41102],[15.14412,58.41115],[15.14531,58.41199],[15.14441,58.41257],[15.14441,58.41281],[15.14584,58.41318],[15.14636,58.41362],[15.14737,58.41349],[15.14752,58.41301],[15.14989,58.41288],[15.15077,58.41253],[15.15161,58.41259],[15.15201,58.41315],[15.15343,58.4128],[15.15377,58.41299],[15.15342,58.41348],[15.15285,58.41392],[15.15218,58.41396],[15.15172,58.41433],[15.15243,58.41465],[15.1531,58.41443],[15.15465,58.41485],[15.1545,58.41517],[15.15354,58.41532],[15.15383,58.41557],[15.15447,58.41549],[15.15518,58.41582],[15.15638,58.41562],[15.1577,58.4153],[15.15829,58.41468],[15.15885,58.41469],[15.15976,58.4153],[15.1594,58.41565],[15.15878,58.4158],[15.15823,58.41638],[15.15904,58.41632],[15.15953,58.41579],[15.16015,58.41575],[15.16081,58.41658],[15.16182,58.41663],[15.16318,58.41631],[15.16319,58.41705],[15.16438,58.41684],[15.16585,58.41691],[15.16691,58.41724],[15.16734,58.41709],[15.16738,58.41663],[15.16779,58.41639],[15.16755,58.41619],[15.16823,58.41604],[15.16957,58.41644],[15.17045,58.41633],[15.17086,58.41648],[15.17044,58.41729],[15.1706,58.41768],[15.17141,58.4176],[15.17295,58.41704],[15.17422,58.4176],[15.17593,58.41711],[15.1793,58.41744],[15.18013,58.41708],[15.18022,58.41665],[15.18144,58.41647],[15.1818,58.41556],[15.18392,58.41521],[15.18558,58.41534],[15.18635,58.41591],[15.18662,58.41589],[15.18928,58.41355],[15.19081,58.41309],[15.19157,58.41249],[15.19292,58.41233],[15.19456,58.41178],[15.19528,58.41194],[15.19557,58.41231],[15.19407,58.41664],[15.20202,58.41723],[15.20766,58.4156],[15.20955,58.41439],[15.21067,58.41402],[15.21218,58.41369],[15.21267,58.41374],[15.21294,58.41305],[15.21233,58.41285],[15.20467,58.41173],[15.19514,58.40917],[15.19362,58.40868],[15.19299,58.40826],[15.19323,58.40653],[15.19516,58.4053],[15.19546,58.40483],[15.19437,58.40298],[15.19515,58.40081],[15.19494,58.40049],[15.19274,58.3992],[15.1919,58.39829],[15.19148,58.39737],[15.19124,58.39528],[15.1888,58.3942],[15.1882,58.39373],[15.18787,58.39045],[15.18539,58.38907],[15.1846,58.38795],[15.18426,58.38677],[15.18636,58.38434],[15.18597,58.38423],[15.18574,58.38443],[15.18191,58.38437],[15.17936,58.3832],[15.17586,58.38309],[15.17479,58.38055],[15.17286,58.38084],[15.17241,58.37962],[15.17468,58.37944],[15.17411,58.37475],[15.17506,58.3662],[15.17456,58.36618],[15.16824,58.3643],[15.16862,58.36313],[15.16949,58.36227],[15.16987,58.36059],[15.16994,58.35874],[15.1692,58.35702],[15.18364,58.35711],[15.18468,58.35809],[15.18988,58.35835],[15.19261,58.35894],[15.19453,58.35993],[15.19583,58.36101],[15.19785,58.36007],[15.19786,58.35977],[15.19902,58.35897],[15.19889,58.35865],[15.20017,58.35822],[15.20108,58.35762],[15.20196,58.35742],[15.20229,58.35755],[15.20296,58.35721],[15.20329,58.35635],[15.20443,58.35716],[15.20321,58.35874],[15.20352,58.35884],[15.20535,58.35656],[15.20557,58.35601],[15.20522,58.35571],[15.20583,58.35528],[15.20577,58.35486],[15.20625,58.35511],[15.20721,58.35461],[15.20793,58.35451],[15.21294,58.35447],[15.21521,58.35509],[15.21517,58.35537],[15.21746,58.35535],[15.21574,58.35417],[15.21468,58.35269],[15.21372,58.35203],[15.21096,58.35107],[15.20919,58.34996],[15.20802,58.34868],[15.20749,58.34726],[15.20775,58.34499],[15.20925,58.34302],[15.21205,58.34147],[15.21383,58.34092],[15.216,58.34054],[15.21452,58.34008],[15.21026,58.3397],[15.20662,58.33853],[15.20519,58.3377],[15.20399,58.33667],[15.20326,58.33561],[15.20289,58.33416],[15.20309,58.33298],[15.20401,58.33149],[15.20595,58.33],[15.20917,58.32869],[15.2088,58.32799],[15.20976,58.32678],[15.20961,58.32587],[15.20746,58.32533],[15.20731,58.32459],[15.20818,58.32303],[15.20794,58.3227],[15.20823,58.32197],[15.20908,58.32147],[15.20773,58.32062],[15.20459,58.31986],[15.20411,58.31901],[15.20644,58.31924],[15.20701,58.31951],[15.2107,58.32006],[15.21171,58.3191],[15.21514,58.31947],[15.2161,58.31802],[15.21768,58.31808],[15.21897,58.31786],[15.22219,58.31619],[15.22332,58.31584],[15.22143,58.31516],[15.22045,58.31459],[15.21926,58.31242],[15.22042,58.3123],[15.22088,58.31264],[15.22271,58.31239],[15.22291,58.311],[15.22177,58.31072],[15.22156,58.31095],[15.22078,58.31073],[15.22104,58.31055],[15.22058,58.3104],[15.21715,58.31042],[15.21633,58.30896],[15.21337,58.30881],[15.21395,58.30839],[15.21385,58.30763],[15.21457,58.30676],[15.21452,58.30463],[15.21321,58.30452],[15.2129,58.30292],[15.21242,58.3023],[15.21215,58.30019],[15.21266,58.30007],[15.21203,58.29749],[15.2118,58.29715],[15.21041,58.29688],[15.21116,58.29647],[15.21143,58.29594],[15.21246,58.29584],[15.21386,58.29538],[15.21592,58.29538],[15.21527,58.29393],[15.2099,58.29449],[15.21024,58.2925],[15.20985,58.29162],[15.21032,58.29004],[15.21018,58.28925],[15.21097,58.28886],[15.21094,58.2883],[15.21048,58.28797],[15.21088,58.28758],[15.21038,58.28687],[15.20906,58.28668],[15.20803,58.28813],[15.20575,58.28936],[15.20268,58.28952],[15.19348,58.28906],[15.19383,58.2883],[15.19513,58.28792],[15.19518,58.28715],[15.19628,58.28687],[15.19952,58.28528],[15.20411,58.28171],[15.20578,58.28207],[15.20537,58.28081],[15.20567,58.28048],[15.20554,58.27944],[15.20455,58.27765],[15.19889,58.27942],[15.19595,58.28081],[15.19139,58.28101],[15.18736,58.28174],[15.18684,58.28257],[15.18524,58.28218],[15.18384,58.28158],[15.18076,58.28096],[15.17931,58.28046],[15.18041,58.27908],[15.18055,58.27824],[15.18192,58.27827],[15.18287,58.27797],[15.18442,58.27697],[15.18645,58.27508],[15.19183,58.27141],[15.19275,58.27017],[15.19384,58.26965],[15.19545,58.26789],[15.19725,58.26673],[15.19863,58.26501],[15.2007,58.26027],[15.20106,58.25852],[15.20373,58.25515],[15.20502,58.24871],[15.2011,58.24955],[15.19974,58.2495],[15.19788,58.24926],[15.19469,58.24846],[15.19047,58.2482],[15.18976,58.24845],[15.18878,58.24933],[15.18714,58.24945],[15.18646,58.25269],[15.18393,58.25313],[15.18248,58.25301],[15.18122,58.25268],[15.17889,58.25176],[15.17465,58.25242],[15.174,58.251],[15.17188,58.25195],[15.16988,58.2551],[15.17018,58.25556],[15.16947,58.25611],[15.16828,58.25898],[15.1651,58.26194],[15.15993,58.26313],[15.14838,58.26399],[15.14777,58.2639],[15.14673,58.26471],[15.13911,58.26676],[15.13859,58.26878],[15.138,58.26902],[15.13687,58.26911],[15.13533,58.26874],[15.13244,58.26871],[15.13044,58.26848],[15.12975,58.26864],[15.1281,58.26864],[15.12718,58.2701],[15.12563,58.27117],[15.12481,58.27132],[15.12577,58.27169],[15.12586,58.27223],[15.12503,58.27341],[15.12415,58.27337],[15.12302,58.27455],[15.12296,58.27528],[15.12339,58.27567],[15.12334,58.27606],[15.12243,58.27764],[15.12059,58.27764],[15.11867,58.27603],[15.11578,58.27675],[15.11492,58.27731],[15.09921,58.27865],[15.09911,58.27855],[15.08291,58.28302],[15.06916,58.28531],[15.06401,58.28648],[15.06487,58.28755],[15.06276,58.28902],[15.0642,58.29055],[15.06402,58.29106],[15.06291,58.29134],[15.06405,58.29486],[15.0601,58.29468],[15.06011,58.29629],[15.05813,58.2955],[15.05555,58.29497],[15.05229,58.29609],[15.05085,58.29786],[15.05048,58.29897],[15.05067,58.3008],[15.04988,58.30171],[15.05213,58.30221],[15.06253,58.30355],[15.06553,58.30359],[15.06675,58.30488],[15.06459,58.30563],[15.06496,58.30613],[15.06492,58.30676],[15.06553,58.30756],[15.06518,58.3102],[15.06701,58.31327],[15.06691,58.31393],[15.06766,58.31457],[15.06742,58.31642],[15.06951,58.31829],[15.06953,58.31889],[15.07035,58.31981],[15.07034,58.32102],[15.06373,58.32096],[15.06377,58.32205],[15.06446,58.3225],[15.06492,58.32391],[15.06358,58.32664],[15.05822,58.3305],[15.05721,58.33234],[15.05719,58.33334],[15.05125,58.33438],[15.05202,58.33597],[15.05503,58.33862],[15.05476,58.34064],[15.05171,58.34103],[15.05342,58.34485],[15.04914,58.3459],[15.04693,58.34674],[15.04646,58.34756],[15.04107,58.34776],[15.04082,58.34899],[15.04287,58.35087],[15.04374,58.35081],[15.04393,58.35221],[15.04052,58.35338],[15.03861,58.35445],[15.03696,58.35655],[15.02916,58.35544],[15.02507,58.35505],[15.01578,58.35503],[15.01553,58.35534],[15.0131,58.35539],[15.01013,58.35521],[14.99812,58.35512],[14.98753,58.3598],[14.98603,58.3624],[14.98048,58.36648],[14.97518,58.36643],[14.97292,58.36921],[14.97109,58.3691],[14.97156,58.36762],[14.97109,58.3691],[14.96815,58.36893],[14.96677,58.37197],[14.96972,58.37305],[14.97258,58.37614],[14.97492,58.37953],[14.97774,58.38155],[14.97548,58.38346],[14.97367,58.38464],[14.96918,58.3901],[14.96919,58.39753],[14.97072,58.40226],[14.97052,58.40362],[14.97111,58.40424],[14.97324,58.40558],[14.98584,58.40368],[14.98623,58.40207],[14.98613,58.39902],[14.99479,58.39924],[14.99485,58.3999],[15.00636,58.40158],[15.00512,58.40523],[15.00603,58.40541],[15.00145,58.41286],[14.9971,58.41237],[14.99495,58.4183],[15.00063,58.42087],[15.00338,58.41767],[15.03067,58.42148],[15.03448,58.42342],[15.03534,58.42295],[15.03566,58.42313],[15.03704,58.42255],[15.038,58.42451],[15.03722,58.42466],[15.03914,58.42577],[15.0553,58.42329],[15.05354,58.42599],[15.04814,58.42732],[15.04715,58.42853],[15.04777,58.42921],[15.05272,58.43191],[15.06154,58.43326],[15.06365,58.43306],[15.06645,58.43094],[15.0676,58.43055],[15.06948,58.42911],[15.07053,58.42875],[15.0721,58.42757],[15.0728,58.42649],[15.07444,58.42663],[15.07801,58.42627],[15.09445,58.43139],[15.09888,58.42804],[15.10348,58.42755],[15.11631,58.43214],[15.11696,58.43388]],[[15.07309,58.40862],[15.06858,58.40842],[15.06544,58.40773],[15.06049,58.40535],[15.05872,58.40379],[15.05796,58.40171],[15.05815,58.40063],[15.05878,58.39954],[15.0584,58.39766],[15.05914,58.39592],[15.05928,58.39428],[15.06003,58.39303],[15.05883,58.39189],[15.05826,58.39087],[15.05801,58.38949],[15.05834,58.38812],[15.05967,58.38653],[15.06238,58.38503],[15.06687,58.38373],[15.07163,58.38324],[15.07284,58.38129],[15.07339,58.37958],[15.07523,58.3773],[15.07756,58.37548],[15.07942,58.37445],[15.08176,58.37369],[15.08438,58.37326],[15.08709,58.3732],[15.09091,58.37344],[15.09405,58.3742],[15.09682,58.3756],[15.10033,58.37579],[15.10628,58.37699],[15.10892,58.37811],[15.11048,58.3793],[15.11141,58.38063],[15.11168,58.38207],[15.11125,58.38349],[15.11016,58.38495],[15.11118,58.38665],[15.11267,58.38793],[15.11345,58.38931],[15.11479,58.39435],[15.11441,58.39648],[15.11316,58.39796],[15.11229,58.39964],[15.11034,58.40125],[15.10823,58.40221],[15.10507,58.40298],[15.10313,58.40411],[15.10037,58.40511],[15.09779,58.40567],[15.09366,58.40618],[15.09068,58.40612],[15.08764,58.4056],[15.08417,58.4057],[15.08015,58.40747],[15.0784,58.40804],[15.07579,58.40851],[15.07309,58.40862]],[[15.12475,58.36087],[15.12121,58.3605],[15.11758,58.35933],[15.11522,58.35775],[15.11311,58.35494],[15.1129,58.35384],[15.11324,58.35244],[15.11512,58.35031],[15.11545,58.34903],[15.11621,58.34788],[15.11753,58.34661],[15.11845,58.34493],[15.11833,58.34441],[15.11629,58.34548],[15.11311,58.34638],[15.11039,58.34669],[15.10738,58.34663],[15.10532,58.34706],[15.10208,58.34731],[15.09935,58.34715],[15.09625,58.34648],[15.09411,58.34557],[15.09248,58.3444],[15.09059,58.34183],[15.08996,58.34044],[15.08978,58.33897],[15.09014,58.33748],[15.09099,58.33611],[15.09245,58.33491],[15.09447,58.33393],[15.09668,58.33329],[15.09031,58.32973],[15.08915,58.32884],[15.08738,58.32644],[15.08668,58.32419],[15.0867,58.32263],[15.08746,58.32115],[15.08776,58.31932],[15.08941,58.31732],[15.09114,58.31593],[15.09127,58.3143],[15.09209,58.31292],[15.09219,58.31107],[15.09303,58.30973],[15.09408,58.3088],[15.09705,58.307],[15.10109,58.30547],[15.10573,58.30437],[15.1092,58.30409],[15.11098,58.30336],[15.11282,58.30288],[15.11616,58.30251],[15.11998,58.30247],[15.12355,58.30295],[15.12617,58.30289],[15.12829,58.30308],[15.13158,58.30386],[15.13373,58.30469],[15.13526,58.30553],[15.139,58.30529],[15.14281,58.30481],[15.1467,58.30495],[15.14936,58.30533],[15.15201,58.305],[15.15437,58.30497],[15.15787,58.30543],[15.16126,58.30662],[15.16265,58.30747],[15.16403,58.30872],[15.16483,58.31012],[15.165,58.31147],[15.16472,58.31258],[15.16383,58.31389],[15.16373,58.31511],[15.16322,58.31615],[15.16232,58.31715],[15.15986,58.31903],[15.1642,58.32132],[15.16574,58.32249],[15.16667,58.32382],[15.16695,58.32492],[15.1667,58.32633],[15.16604,58.32738],[15.16643,58.32774],[15.16902,58.32897],[15.17066,58.33034],[15.17365,58.33187],[15.17502,58.33325],[15.17564,58.33467],[15.17541,58.33656],[15.1739,58.3387],[15.17234,58.33989],[15.16986,58.34097],[15.16817,58.34211],[15.16524,58.34322],[15.16179,58.34379],[15.15687,58.34397],[15.15299,58.34349],[15.15191,58.34506],[15.15037,58.34636],[15.14167,58.35088],[15.14228,58.35258],[15.142,58.35412],[15.14106,58.35549],[15.13949,58.35669],[15.13728,58.35771],[15.13432,58.35845],[15.13261,58.35941],[15.13074,58.3601],[15.12817,58.36067],[15.12475,58.36087]]]}},{"type":"Feature","id":"0586R004","properties":{"code":"0586R004","name":"Mjölby östra"},"geometry":{"type":"Polygon","coordinates":[[[15.14173,58.32838],[15.14575,58.32806],[15.1482,58.32829],[15.15046,58.32816],[15.15316,58.32775],[15.15205,58.32585],[15.15244,58.32508],[15.1536,58.32475],[15.15467,58.32411],[15.15377,58.32229],[15.15423,58.32207],[15.15299,58.32054],[15.1495,58.32047],[15.14559,58.32193],[15.14463,58.32126],[15.14348,58.32093],[15.14264,58.32271],[15.14157,58.32285],[15.14162,58.32322],[15.13875,58.32404],[15.13678,58.32396],[15.13595,58.32197],[15.1329,58.32231],[15.13377,58.32532],[15.13545,58.32525],[15.1355,58.32609],[15.14267,58.32581],[15.14173,58.3281],[15.14173,58.32838]]]}},{"type":"Feature","id":"0586R005","properties":{"code":"0586R005","name":"Ryttarhagen-Högby"},"geometry":{"type":"Polygon","coordinates":[[[15.10213,58.34731],[15.10532,58.34706],[15.10738,58.34663],[15.11039,58.34669],[15.11249,58.34649],[15.11505,58.34592],[15.1169,58.34521],[15.11764,58.3441],[15.11969,58.34308],[15.12184,58.33719],[15.124,58.33497],[15.12396,58.33379],[15.12467,58.33319],[15.12477,58.33272],[15.12452,58.33238],[15.12233,58.33196],[15.12272,58.33166],[15.12209,58.33124],[15.12039,58.32895],[15.11691,58.33023],[15.11274,58.32645],[15.11121,58.32689],[15.10958,58.32705],[15.10789,58.32577],[15.10729,58.32473],[15.10761,58.32479],[15.10828,58.32266],[15.10982,58.3211],[15.1094,58.32082],[15.10812,58.32111],[15.10782,58.32138],[15.10744,58.32127],[15.10512,58.32193],[15.10276,58.32232],[15.10225,58.32151],[15.09776,58.31795],[15.09931,58.31752],[15.09702,58.31581],[15.09652,58.31498],[15.09545,58.31453],[15.09538,58.31416],[15.09469,58.3136],[15.09276,58.31248],[15.09201,58.31251],[15.09209,58.31292],[15.09116,58.31463],[15.09114,58.31593],[15.08843,58.31834],[15.08761,58.31965],[15.08746,58.32115],[15.08663,58.323],[15.08679,58.32481],[15.08773,58.32706],[15.08948,58.32914],[15.09668,58.33329],[15.09342,58.33438],[15.09129,58.3358],[15.09014,58.33748],[15.08986,58.3401],[15.09041,58.3415],[15.09189,58.34376],[15.09368,58.34531],[15.09567,58.34627],[15.09745,58.34681],[15.10003,58.34723],[15.10213,58.34731]]]}},{"type":"Feature","id":"0586R006","properties":{"code":"0586R006","name":"Skeppsås-Normlösa-Öjebro"},"geometry":{"type":"Polygon","coordinates":[[[15.15215,58.47333],[15.15616,58.47306],[15.15951,58.46669],[15.16436,58.4661],[15.19692,58.46394],[15.19722,58.46325],[15.20169,58.4618],[15.20289,58.45807],[15.20283,58.4561],[15.20521,58.45707],[15.20592,58.45595],[15.21194,58.45628],[15.21226,58.45829],[15.21919,58.45823],[15.21926,58.46123],[15.21821,58.46131],[15.21832,58.46206],[15.21703,58.4623],[15.21696,58.46186],[15.2146,58.46242],[15.21549,58.46337],[15.21689,58.46325],[15.21758,58.46446],[15.22043,58.464],[15.22847,58.46618],[15.22843,58.4667],[15.24503,58.46853],[15.24562,58.46686],[15.24885,58.46712],[15.24883,58.46617],[15.24821,58.4661],[15.24695,58.4645],[15.24651,58.46442],[15.24633,58.46275],[15.24719,58.46239],[15.25344,58.46229],[15.2537,58.45947],[15.25653,58.45662],[15.25759,58.45664],[15.25758,58.45574],[15.26122,58.45472],[15.26465,58.45425],[15.2643,58.4535],[15.26518,58.45299],[15.26497,58.44995],[15.26589,58.44795],[15.26138,58.44761],[15.2604,58.44615],[15.2578,58.44387],[15.25656,58.44107],[15.25787,58.44056],[15.25893,58.44109],[15.25966,58.44094],[15.26033,58.43987],[15.26133,58.43918],[15.26323,58.4386],[15.2649,58.43845],[15.26663,58.43879],[15.26771,58.44037],[15.27086,58.44148],[15.27276,58.44171],[15.27696,58.44049],[15.27859,58.439],[15.28178,58.43773],[15.2854,58.43742],[15.28721,58.43813],[15.28793,58.43823],[15.29052,58.43707],[15.29274,58.43736],[15.29337,58.43727],[15.29725,58.43561],[15.30078,58.43596],[15.30318,58.43596],[15.30495,58.43571],[15.30692,58.43509],[15.3086,58.43517],[15.31079,58.43497],[15.30974,58.43381],[15.30877,58.4337],[15.30831,58.43336],[15.30864,58.43177],[15.30709,58.43058],[15.30799,58.4301],[15.30352,58.42837],[15.30235,58.42739],[15.29966,58.42655],[15.29733,58.42436],[15.29654,58.42122],[15.29732,58.41993],[15.29703,58.41922],[15.29732,58.4186],[15.29697,58.41829],[15.2966,58.41674],[15.29544,58.41681],[15.29475,58.41569],[15.29467,58.41465],[15.28979,58.41286],[15.28518,58.40977],[15.2849,58.41308],[15.28681,58.41326],[15.28682,58.41349],[15.28486,58.41337],[15.28452,58.41502],[15.28316,58.41517],[15.28048,58.41491],[15.27797,58.41419],[15.27551,58.41303],[15.27062,58.41179],[15.26723,58.4107],[15.26723,58.41029],[15.2665,58.4094],[15.26729,58.4085],[15.26718,58.40745],[15.26761,58.4071],[15.26718,58.40603],[15.26757,58.40484],[15.26349,58.40384],[15.26342,58.40324],[15.2607,58.40211],[15.25951,58.40131],[15.25559,58.40071],[15.25649,58.39863],[15.26435,58.39915],[15.26831,58.39855],[15.27617,58.39579],[15.28447,58.39373],[15.28755,58.3911],[15.30101,58.39383],[15.30883,58.39599],[15.31263,58.39677],[15.31257,58.39755],[15.31176,58.39794],[15.31161,58.39845],[15.32208,58.3983],[15.32368,58.39623],[15.32664,58.39645],[15.3267,58.39584],[15.33044,58.39599],[15.33033,58.39618],[15.33266,58.39633],[15.33282,58.39618],[15.34167,58.39659],[15.34635,58.39392],[15.35209,58.38911],[15.34438,58.3742],[15.34369,58.3743],[15.34352,58.374],[15.34382,58.37395],[15.34222,58.37262],[15.34169,58.37116],[15.3408,58.37107],[15.34065,58.37252],[15.33936,58.37271],[15.3393,58.37327],[15.34008,58.3733],[15.34002,58.3745],[15.3397,58.37487],[15.33596,58.37467],[15.33586,58.37076],[15.33458,58.36858],[15.34178,58.366],[15.34188,58.35679],[15.33783,58.35172],[15.33568,58.35094],[15.33344,58.35047],[15.33147,58.34961],[15.33108,58.34908],[15.33164,58.34836],[15.32594,58.34851],[15.32312,58.34811],[15.32421,58.3475],[15.32501,58.34668],[15.32509,58.34521],[15.32429,58.34485],[15.32019,58.34443],[15.31865,58.34393],[15.31578,58.3463],[15.31354,58.34725],[15.31243,58.35088],[15.3148,58.35191],[15.31638,58.35309],[15.31733,58.35443],[15.31783,58.35615],[15.31618,58.36222],[15.31486,58.36423],[15.31288,58.36565],[15.30971,58.36699],[15.30833,58.36884],[15.30602,58.37031],[15.3034,58.3712],[15.30046,58.37249],[15.29644,58.37323],[15.29365,58.37326],[15.29155,58.37303],[15.28822,58.37223],[15.28642,58.37161],[15.28449,58.37055],[15.28156,58.36839],[15.28048,58.36724],[15.27816,58.36675],[15.27644,58.36615],[15.27375,58.36447],[15.27066,58.36293],[15.26897,58.36124],[15.26832,58.35925],[15.26544,58.35901],[15.26224,58.35817],[15.25959,58.35771],[15.25677,58.3582],[15.254,58.35832],[15.25125,58.35807],[15.2487,58.35749],[15.24562,58.35918],[15.24281,58.3601],[15.23907,58.36056],[15.23459,58.36046],[15.23068,58.35983],[15.22551,58.35789],[15.22384,58.35701],[15.22019,58.3564],[15.21746,58.35535],[15.21517,58.35537],[15.21521,58.35509],[15.21294,58.35447],[15.20793,58.35451],[15.20721,58.35461],[15.20625,58.35511],[15.20572,58.35491],[15.20583,58.35528],[15.20522,58.35571],[15.20557,58.35601],[15.20535,58.35656],[15.20352,58.35884],[15.20321,58.35874],[15.20443,58.35716],[15.20329,58.35635],[15.20296,58.35721],[15.20229,58.35755],[15.20196,58.35742],[15.20108,58.35762],[15.20017,58.35822],[15.19889,58.35865],[15.19902,58.35897],[15.19786,58.35977],[15.19785,58.36007],[15.19583,58.36101],[15.19453,58.35993],[15.19261,58.35894],[15.18988,58.35835],[15.18468,58.35809],[15.18364,58.35711],[15.1692,58.35702],[15.16994,58.35874],[15.16987,58.36059],[15.16949,58.36227],[15.16862,58.36313],[15.16824,58.3643],[15.17456,58.36618],[15.17506,58.3662],[15.17411,58.37475],[15.17468,58.37944],[15.17241,58.37962],[15.17286,58.38084],[15.17479,58.38055],[15.17586,58.38309],[15.17936,58.3832],[15.18191,58.38437],[15.18574,58.38443],[15.18597,58.38423],[15.18636,58.38434],[15.18426,58.38677],[15.1846,58.38795],[15.18539,58.38907],[15.18787,58.39045],[15.1882,58.39373],[15.1888,58.3942],[15.19124,58.39528],[15.19148,58.39737],[15.1919,58.39829],[15.19274,58.3992],[15.19494,58.40049],[15.19515,58.40081],[15.19437,58.40298],[15.19546,58.40483],[15.19516,58.4053],[15.19323,58.40653],[15.19299,58.40826],[15.19362,58.40868],[15.19514,58.40917],[15.20467,58.41173],[15.2111,58.41259],[15.21294,58.41305],[15.21267,58.41374],[15.21218,58.41369],[15.21067,58.41402],[15.20955,58.41439],[15.20766,58.4156],[15.20202,58.41723],[15.19407,58.41664],[15.19557,58.41231],[15.19528,58.41194],[15.19456,58.41178],[15.19292,58.41233],[15.19157,58.41249],[15.19081,58.41309],[15.18928,58.41355],[15.18662,58.41589],[15.18635,58.41591],[15.18558,58.41534],[15.18392,58.41521],[15.1818,58.41556],[15.18144,58.41647],[15.18022,58.41665],[15.18013,58.41708],[15.1793,58.41744],[15.17593,58.41711],[15.17422,58.4176],[15.17295,58.41704],[15.17141,58.4176],[15.1706,58.41768],[15.17044,58.41729],[15.17086,58.41648],[15.17045,58.41633],[15.16957,58.41644],[15.16823,58.41604],[15.16755,58.41619],[15.16779,58.41639],[15.16738,58.41663],[15.16734,58.41709],[15.16691,58.41724],[15.16585,58.41691],[15.16438,58.41684],[15.16319,58.41705],[15.16318,58.41631],[15.16182,58.41663],[15.16081,58.41658],[15.16015,58.41575],[15.15953,58.41579],[15.15904,58.41632],[15.15823,58.41638],[15.15878,58.4158],[15.1594,58.41565],[15.15976,58.4153],[15.15885,58.41469],[15.15829,58.41468],[15.1577,58.4153],[15.15638,58.41562],[15.15518,58.41582],[15.15447,58.41549],[15.15383,58.41557],[15.15354,58.41532],[15.1545,58.41517],[15.15465,58.41485],[15.1531,58.41443],[15.15243,58.41465],[15.15172,58.41433],[15.15218,58.41396],[15.15285,58.41392],[15.15342,58.41348],[15.15377,58.41299],[15.15343,58.4128],[15.15201,58.41315],[15.15161,58.41259],[15.15077,58.41253],[15.14989,58.41288],[15.14752,58.41301],[15.14737,58.41349],[15.14636,58.41362],[15.14584,58.41318],[15.14441,58.41281],[15.14441,58.41257],[15.14531,58.41199],[15.14412,58.41115],[15.14375,58.41102],[15.14251,58.41169],[15.14152,58.41147],[15.14189,58.41086],[15.14298,58.41049],[15.14302,58.41023],[15.14207,58.40982],[15.14034,58.40989],[15.13992,58.40914],[15.13929,58.40874],[15.13878,58.40888],[15.13908,58.40953],[15.13879,58.40991],[15.13845,58.40996],[15.1375,58.40953],[15.13753,58.40915],[15.13718,58.40893],[15.13595,58.40944],[15.13486,58.4094],[15.13408,58.40961],[15.13377,58.40889],[15.13291,58.40862],[15.13249,58.40861],[15.13114,58.4092],[15.13033,58.40867],[15.12922,58.40829],[15.12836,58.40861],[15.12761,58.41009],[15.12641,58.41092],[15.12329,58.41519],[15.12181,58.41652],[15.11696,58.43388],[15.12032,58.43685],[15.12237,58.43815],[15.1234,58.43856],[15.12805,58.44166],[15.13093,58.44481],[15.13268,58.44614],[15.13433,58.45207],[15.13628,58.45483],[15.13919,58.45721],[15.13789,58.45763],[15.13978,58.45992],[15.13997,58.46072],[15.1417,58.46058],[15.14195,58.46094],[15.14163,58.46312],[15.15272,58.46785],[15.15215,58.47333]]]}},{"type":"Feature","id":"0586R007","properties":{"code":"0586R007","name":"Skänninge tätort"},"geometry":{"type":"Polygon","coordinates":[[[15.07445,58.40861],[15.0771,58.40832],[15.07902,58.40786],[15.08417,58.4057],[15.08764,58.4056],[15.09068,58.40612],[15.09366,58.40618],[15.09779,58.40567],[15.10037,58.40511],[15.10313,58.40411],[15.10507,58.40298],[15.10823,58.40221],[15.11076,58.40098],[15.11229,58.39964],[15.11316,58.39796],[15.11457,58.39615],[15.11479,58.39435],[15.11333,58.38897],[15.11239,58.38762],[15.11118,58.38665],[15.11016,58.38495],[15.11143,58.38314],[15.11168,58.38172],[15.11125,58.3803],[15.11014,58.37898],[15.10843,58.37785],[15.10628,58.37699],[15.10033,58.37579],[15.09682,58.3756],[15.09401,58.37418],[15.09028,58.37336],[15.08638,58.37318],[15.0837,58.37334],[15.08113,58.37386],[15.07893,58.37468],[15.07523,58.3773],[15.07339,58.37958],[15.07284,58.38129],[15.07163,58.38324],[15.06687,58.38373],[15.06238,58.38503],[15.05967,58.38653],[15.05834,58.38812],[15.05801,58.38949],[15.05826,58.39087],[15.05883,58.39189],[15.06003,58.39303],[15.05928,58.39428],[15.05914,58.39592],[15.0584,58.39766],[15.05878,58.39954],[15.05815,58.40063],[15.05796,58.40171],[15.05874,58.40382],[15.06049,58.40535],[15.06544,58.40773],[15.06922,58.40849],[15.07445,58.40861]]]}},{"type":"Feature","id":"0586R008","properties":{"code":"0586R008","name":"Slomarp-Egeby"},"geometry":{"type":"Polygon","coordinates":[[[15.12606,58.36086],[15.12879,58.36056],[15.13146,58.35987],[15.13432,58.35845],[15.13794,58.35746],[15.1403,58.35615],[15.14158,58.35486],[15.14216,58.35369],[15.14223,58.35223],[15.14167,58.35088],[15.14279,58.35029],[15.1402,58.35009],[15.14101,58.34873],[15.14299,58.34694],[15.14343,58.34605],[15.14495,58.34464],[15.14824,58.34267],[15.15088,58.34155],[15.14809,58.34007],[15.14614,58.33861],[15.14547,58.33524],[15.14385,58.33486],[15.14252,58.33493],[15.14191,58.33469],[15.14209,58.33361],[15.14167,58.3316],[15.14089,58.33158],[15.1399,58.33254],[15.13927,58.33259],[15.13866,58.3317],[15.13641,58.33106],[15.13663,58.3301],[15.13638,58.32993],[15.13335,58.32961],[15.1305,58.32967],[15.12892,58.32943],[15.12854,58.32917],[15.12797,58.32816],[15.12959,58.32639],[15.12905,58.32598],[15.12504,58.32719],[15.12613,58.32942],[15.13075,58.33346],[15.13201,58.3353],[15.13244,58.33658],[15.1319,58.33833],[15.12917,58.33762],[15.1235,58.33537],[15.12184,58.33719],[15.11969,58.34308],[15.11764,58.3441],[15.11696,58.34488],[15.1169,58.34521],[15.11833,58.34441],[15.11845,58.34493],[15.11753,58.34661],[15.11565,58.34868],[15.11512,58.35031],[15.11344,58.35208],[15.11292,58.3535],[15.11299,58.35458],[15.11367,58.35595],[15.11524,58.35777],[15.11712,58.35909],[15.11929,58.36],[15.12121,58.3605],[15.12327,58.36079],[15.12606,58.36086]]]}},{"type":"Feature","id":"0586R009","properties":{"code":"0586R009","name":"Svartå strand-Centrum-Albacken"},"geometry":{"type":"Polygon","coordinates":[[[15.14279,58.35029],[15.15037,58.34636],[15.15191,58.34506],[15.15299,58.34349],[15.15687,58.34397],[15.16179,58.34379],[15.16524,58.34322],[15.16804,58.34218],[15.16986,58.34097],[15.17237,58.33987],[15.17418,58.33839],[15.17557,58.33613],[15.17539,58.3339],[15.17365,58.33187],[15.17066,58.33034],[15.1686,58.32871],[15.16643,58.32774],[15.16604,58.32738],[15.16618,58.3272],[15.15953,58.32747],[15.15839,58.32829],[15.15316,58.32775],[15.15046,58.32816],[15.1482,58.32829],[15.14575,58.32806],[15.14173,58.32838],[15.14267,58.32581],[15.1355,58.32609],[15.13545,58.32525],[15.13377,58.32532],[15.13165,58.31865],[15.13128,58.31573],[15.12982,58.31468],[15.12702,58.31407],[15.12525,58.31647],[15.12442,58.31924],[15.12453,58.3198],[15.12649,58.32238],[15.12691,58.32399],[15.12959,58.32639],[15.12803,58.32793],[15.12843,58.32905],[15.12892,58.32943],[15.1305,58.32967],[15.13335,58.32961],[15.13638,58.32993],[15.13663,58.3301],[15.13641,58.33106],[15.13866,58.3317],[15.13927,58.33259],[15.1399,58.33254],[15.14089,58.33158],[15.14167,58.3316],[15.14209,58.33361],[15.14191,58.33469],[15.14252,58.33493],[15.14385,58.33486],[15.14547,58.33524],[15.14614,58.33861],[15.14809,58.34007],[15.15088,58.34155],[15.1463,58.34374],[15.14343,58.34605],[15.14299,58.34694],[15.14148,58.34818],[15.1402,58.35009],[15.14279,58.35029]]]}},{"type":"Feature","id":"0586R010","properties":{"code":"0586R010","name":"Sya-Spångsholm-Veta"},"geometry":{"type":"Polygon","coordinates":[[[15.27409,58.36476],[15.2746,58.36298],[15.27328,58.36084],[15.27133,58.35652],[15.27033,58.3526],[15.26851,58.35028],[15.26806,58.34826],[15.26841,58.34753],[15.25717,58.34526],[15.25297,58.34388],[15.25418,58.34188],[15.25238,58.34313],[15.25133,58.34457],[15.24859,58.34654],[15.24526,58.34595],[15.24422,58.34433],[15.24265,58.34314],[15.24001,58.34202],[15.23728,58.34144],[15.23808,58.34055],[15.24046,58.33983],[15.24461,58.33781],[15.24613,58.33664],[15.24705,58.33531],[15.24726,58.33353],[15.24647,58.33124],[15.24535,58.3299],[15.24349,58.32868],[15.2405,58.32756],[15.23639,58.32697],[15.22952,58.32713],[15.22754,58.32742],[15.22547,58.32798],[15.2218,58.32791],[15.21886,58.32737],[15.21594,58.32725],[15.21383,58.32742],[15.21123,58.32794],[15.20595,58.33],[15.20401,58.33149],[15.20299,58.33332],[15.20297,58.33485],[15.20399,58.33667],[15.2056,58.33797],[15.20833,58.33921],[15.2115,58.3399],[15.21452,58.34008],[15.216,58.34054],[15.21383,58.34092],[15.21205,58.34147],[15.21051,58.34217],[15.20891,58.34332],[15.20764,58.34536],[15.20746,58.34692],[15.20782,58.34832],[15.20959,58.35026],[15.21146,58.35129],[15.21372,58.35203],[15.21468,58.35269],[15.21608,58.35446],[15.21776,58.3555],[15.22078,58.35655],[15.22384,58.35701],[15.22551,58.35789],[15.23068,58.35983],[15.23459,58.36046],[15.23907,58.36056],[15.24281,58.3601],[15.24562,58.35918],[15.2487,58.35749],[15.25125,58.35807],[15.254,58.35832],[15.25677,58.3582],[15.25959,58.35771],[15.26224,58.35817],[15.26544,58.35901],[15.26832,58.35925],[15.26871,58.3608],[15.27018,58.36257],[15.27409,58.36476]]]}},{"type":"Feature","id":"0586R011","properties":{"code":"0586R011","name":"Sörby-Östra Lundby-Centrum"},"geometry":{"type":"Polygon","coordinates":[[[15.12515,58.32716],[15.12905,58.32598],[15.12847,58.3252],[15.12691,58.32399],[15.12649,58.32238],[15.12453,58.3198],[15.12442,58.31924],[15.12575,58.31556],[15.12702,58.31407],[15.1283,58.31304],[15.12829,58.31106],[15.12888,58.31049],[15.12888,58.30971],[15.1263,58.3082],[15.1258,58.30502],[15.1239,58.30292],[15.11998,58.30247],[15.11613,58.30251],[15.11613,58.30435],[15.1117,58.30872],[15.11239,58.30943],[15.11184,58.31087],[15.11203,58.31252],[15.11307,58.31402],[15.11969,58.32024],[15.12072,58.32175],[15.12138,58.32352],[15.12515,58.32716]]]}},{"type":"Feature","id":"0586R012","properties":{"code":"0586R012","name":"Tunet-Hagaparken"},"geometry":{"type":"Polygon","coordinates":[[[15.13191,58.33831],[15.13244,58.3362],[15.13103,58.33381],[15.12625,58.32956],[15.12533,58.3276],[15.12356,58.32583],[15.12298,58.32488],[15.12213,58.32419],[15.11963,58.32496],[15.11782,58.32392],[15.11642,58.32463],[15.1168,58.32494],[15.11605,58.32521],[15.11577,58.32501],[15.11274,58.32645],[15.11383,58.32757],[15.11691,58.33023],[15.12039,58.32895],[15.12209,58.33124],[15.12272,58.33166],[15.12233,58.33196],[15.12452,58.33238],[15.12473,58.33264],[15.12472,58.33312],[15.12396,58.33379],[15.124,58.33497],[15.1235,58.33537],[15.12917,58.33762],[15.13191,58.33831]]]}},{"type":"Feature","id":"0586R013","properties":{"code":"0586R013","name":"Vasa"},"geometry":{"type":"Polygon","coordinates":[[[15.13875,58.32404],[15.14162,58.32322],[15.14157,58.32285],[15.14268,58.32269],[15.14348,58.32093],[15.14233,58.32049],[15.14397,58.3192],[15.14079,58.31822],[15.13629,58.31761],[15.13608,58.31824],[15.1342,58.31825],[15.13382,58.31861],[15.13253,58.31828],[15.1316,58.31829],[15.1329,58.32231],[15.13595,58.32197],[15.13678,58.32396],[15.13875,58.32404]]]}},{"type":"Feature","id":"0586R014","properties":{"code":"0586R014","name":"Väderstad-Väderstad omnejd"},"geometry":{"type":"Polygon","coordinates":[[[14.97518,58.36643],[14.98048,58.36648],[14.98603,58.3624],[14.98753,58.3598],[14.99812,58.35512],[15.01013,58.35521],[15.0131,58.35539],[15.01553,58.35534],[15.01578,58.35503],[15.02507,58.35505],[15.02916,58.35544],[15.03696,58.35655],[15.03861,58.35445],[15.04052,58.35338],[15.04393,58.35221],[15.04374,58.35081],[15.04287,58.35087],[15.04082,58.34899],[15.04107,58.34776],[15.04646,58.34756],[15.04693,58.34674],[15.04914,58.3459],[15.05342,58.34485],[15.05171,58.34103],[15.05476,58.34064],[15.05503,58.33862],[15.05202,58.33597],[15.05125,58.33438],[15.05719,58.33334],[15.05721,58.33234],[15.05822,58.3305],[15.06358,58.32664],[15.06492,58.32391],[15.06446,58.3225],[15.06377,58.32205],[15.06373,58.32096],[15.07034,58.32102],[15.07035,58.31981],[15.06953,58.31889],[15.06951,58.31829],[15.06742,58.31642],[15.06766,58.31457],[15.06691,58.31393],[15.06701,58.31327],[15.06518,58.3102],[15.06553,58.30756],[15.06492,58.30676],[15.06496,58.30613],[15.06459,58.30563],[15.06675,58.30488],[15.06553,58.30359],[15.06253,58.30355],[15.05213,58.30221],[15.04988,58.30171],[15.05067,58.3008],[15.05048,58.29897],[15.05085,58.29786],[15.05229,58.29609],[15.05555,58.29497],[15.05813,58.2955],[15.06011,58.29629],[15.0601,58.29468],[15.06405,58.29486],[15.06291,58.29134],[15.06402,58.29106],[15.0642,58.29055],[15.06276,58.28902],[15.06487,58.28755],[15.06401,58.28648],[15.06171,58.28478],[15.06174,58.28424],[15.0592,58.28435],[15.05866,58.28464],[15.05589,58.28431],[15.05503,58.28471],[15.05483,58.28549],[15.05437,58.28561],[15.05348,58.28665],[15.04966,58.28674],[15.04579,58.285],[15.04481,58.28491],[15.04487,58.28377],[15.04423,58.28318],[15.04243,58.28311],[15.04046,58.28267],[15.03974,58.28192],[15.03548,58.28101],[15.03436,58.28079],[15.02896,58.28068],[15.0213,58.28097],[15.02206,58.28127],[15.02318,58.28236],[15.02378,58.28551],[15.02463,58.28559],[15.02227,58.28965],[15.01734,58.29484],[15.0167,58.29451],[15.01021,58.3026],[15.00893,58.30327],[15.00759,58.30494],[15.00449,58.30751],[15.00191,58.30697],[15.0022,58.30676],[14.99849,58.30675],[14.9966,58.30645],[14.99511,58.30567],[14.99334,58.30554],[14.99279,58.30456],[14.98947,58.30386],[14.98823,58.30426],[14.98853,58.30297],[14.98487,58.30192],[14.98406,58.3021],[14.97958,58.30118],[14.97825,58.3024],[14.9769,58.30199],[14.97624,58.29528],[14.97696,58.29098],[14.97621,58.29061],[14.97469,58.29052],[14.97371,58.29072],[14.97104,58.29073],[14.97,58.29088],[14.96938,58.29072],[14.96809,58.29137],[14.96696,58.29165],[14.95423,58.29106],[14.95346,58.29215],[14.95379,58.29297],[14.95244,58.29405],[14.95295,58.29444],[14.95459,58.29434],[14.95667,58.29478],[14.95621,58.29631],[14.95618,58.29832],[14.95573,58.29874],[14.95525,58.29878],[14.9539,58.30063],[14.95374,58.30197],[14.94856,58.30109],[14.9484,58.30156],[14.94716,58.3011],[14.9461,58.30098],[14.94604,58.29868],[14.94569,58.29788],[14.94444,58.29713],[14.94468,58.29601],[14.94358,58.29424],[14.94429,58.29413],[14.94657,58.29243],[14.94597,58.28928],[14.94526,58.28815],[14.93235,58.28661],[14.91133,58.28764],[14.90896,58.28757],[14.90825,58.28668],[14.90816,58.28518],[14.90743,58.28443],[14.90533,58.28445],[14.90408,58.28387],[14.90463,58.28237],[14.90227,58.28235],[14.8957,58.28338],[14.89432,58.28139],[14.89404,58.28026],[14.89492,58.27625],[14.89483,58.27527],[14.89426,58.27445],[14.89046,58.27125],[14.89017,58.26348],[14.87001,58.26011],[14.86663,58.26279],[14.86586,58.26253],[14.86507,58.26193],[14.86436,58.26204],[14.86455,58.26249],[14.86409,58.2628],[14.86408,58.26319],[14.86438,58.26402],[14.86487,58.26421],[14.85692,58.27037],[14.85719,58.2759],[14.847,58.27693],[14.84677,58.27735],[14.85082,58.27767],[14.85436,58.27719],[14.85726,58.27708],[14.8573,58.27761],[14.8602,58.27799],[14.86107,58.2729],[14.86258,58.27266],[14.86299,58.27269],[14.86348,58.27403],[14.86286,58.27495],[14.86264,58.27578],[14.86201,58.27644],[14.86141,58.27733],[14.8612,58.27814],[14.86146,58.27734],[14.86269,58.27579],[14.86295,58.27489],[14.86339,58.27456],[14.86353,58.27403],[14.86353,58.27375],[14.86304,58.2727],[14.86336,58.27277],[14.86366,58.27287],[14.86693,58.27823],[14.8699,58.28133],[14.87465,58.28457],[14.87775,58.28609],[14.88087,58.28732],[14.88109,58.28758],[14.87888,58.28805],[14.8762,58.28827],[14.8748,58.28821],[14.87459,58.28866],[14.87285,58.28818],[14.87191,58.2878],[14.87074,58.2869],[14.87023,58.2849],[14.87034,58.28401],[14.86997,58.28364],[14.86688,58.28251],[14.86468,58.28204],[14.86486,58.2824],[14.86438,58.28264],[14.86469,58.28387],[14.86344,58.28845],[14.85895,58.28849],[14.8529,58.3064],[14.85256,58.31053],[14.85473,58.31067],[14.85496,58.31226],[14.85827,58.31243],[14.85912,58.31439],[14.85414,58.314],[14.85277,58.31499],[14.85279,58.31582],[14.86197,58.31693],[14.86204,58.316],[14.86801,58.31684],[14.86673,58.31807],[14.86759,58.31825],[14.86941,58.32051],[14.87149,58.32249],[14.87229,58.32382],[14.86499,58.32391],[14.8631,58.32357],[14.86268,58.32407],[14.86016,58.3235],[14.86081,58.32588],[14.858,58.32516],[14.85623,58.32694],[14.85642,58.32746],[14.8536,58.33248],[14.85363,58.33327],[14.85315,58.33371],[14.85343,58.33435],[14.85313,58.33464],[14.85324,58.33506],[14.85257,58.33568],[14.85266,58.33621],[14.85211,58.33655],[14.85048,58.33873],[14.83452,58.35496],[14.84221,58.35881],[14.87237,58.3581],[14.88013,58.35967],[14.91175,58.34711],[14.91265,58.34744],[14.91412,58.34688],[14.91923,58.3468],[14.92042,58.34563],[14.92424,58.34385],[14.92455,58.34351],[14.92478,58.34535],[14.92757,58.3448],[14.92885,58.34683],[14.93086,58.34883],[14.9472,58.35423],[14.94556,58.35957],[14.94598,58.36108],[14.94718,58.36199],[14.94619,58.36202],[14.9482,58.36724],[14.95398,58.36668],[14.95461,58.36798],[14.95639,58.36794],[14.95752,58.36836],[14.96047,58.36668],[14.96236,58.36729],[14.96465,58.36585],[14.97164,58.36736],[14.97109,58.3691],[14.97292,58.36921],[14.97518,58.36643]]]}},{"type":"Feature","id":"0586R015","properties":{"code":"0586R015","name":"Västra Harg-Östra Tollstad"},"geometry":{"type":"Polygon","coordinates":[[[15.34935,58.35092],[15.3671,58.34429],[15.36941,58.33848],[15.36269,58.33095],[15.3625,58.3289],[15.36186,58.32812],[15.36046,58.32715],[15.35924,58.32503],[15.35918,58.32407],[15.35863,58.32288],[15.35863,58.32159],[15.35804,58.32033],[15.35702,58.31953],[15.3554,58.31892],[15.3538,58.31874],[15.35227,58.31808],[15.35171,58.31708],[15.35181,58.3156],[15.34913,58.31505],[15.34682,58.31479],[15.3485,58.31211],[15.34582,58.31131],[15.34549,58.31068],[15.34573,58.30735],[15.3436,58.30314],[15.34411,58.30243],[15.34255,58.30219],[15.34183,58.30187],[15.34084,58.30196],[15.34133,58.30102],[15.34469,58.30186],[15.34498,58.30158],[15.34199,58.29771],[15.34053,58.29433],[15.34054,58.29378],[15.33991,58.29318],[15.34054,58.29316],[15.34078,58.29237],[15.33806,58.29],[15.33937,58.28951],[15.33995,58.28839],[15.34274,58.28769],[15.34675,58.28338],[15.34713,58.28262],[15.34769,58.28242],[15.34829,58.28048],[15.3475,58.27754],[15.34787,58.27738],[15.34944,58.27451],[15.35079,58.27341],[15.35432,58.27229],[15.35416,58.27214],[15.36232,58.26273],[15.36803,58.25771],[15.37057,58.25357],[15.36922,58.24839],[15.36926,58.24613],[15.36837,58.24215],[15.36784,58.23708],[15.36273,58.23382],[15.36061,58.23098],[15.36858,58.22883],[15.36729,58.22418],[15.36859,58.22192],[15.37154,58.21994],[15.37167,58.21484],[15.37325,58.21256],[15.37347,58.21133],[15.37413,58.21043],[15.37531,58.20982],[15.37643,58.20744],[15.37068,58.19699],[15.37287,58.19423],[15.37531,58.19302],[15.37433,58.19254],[15.3733,58.19145],[15.37204,58.19063],[15.37325,58.188],[15.37497,58.18739],[15.37513,58.18697],[15.37357,58.1853],[15.37354,58.1847],[15.37193,58.18483],[15.37109,58.1854],[15.36759,58.18351],[15.36613,58.18214],[15.36658,58.18188],[15.36661,58.18139],[15.36805,58.1804],[15.36837,58.17947],[15.37008,58.17787],[15.37152,58.17773],[15.37233,58.17795],[15.37283,58.17767],[15.3744,58.17431],[15.37447,58.16957],[15.37591,58.16686],[15.37368,58.16584],[15.37088,58.16346],[15.36,58.16247],[15.35761,58.16204],[15.35222,58.15919],[15.3453,58.15772],[15.3441,58.15727],[15.3398,58.15302],[15.33837,58.15018],[15.33617,58.14692],[15.32676,58.14275],[15.31037,58.14135],[15.29643,58.13769],[15.29591,58.13719],[15.28696,58.13661],[15.27786,58.1345],[15.27087,58.13658],[15.25033,58.14364],[15.25064,58.14543],[15.25286,58.14866],[15.25086,58.1488],[15.24971,58.15516],[15.24976,58.15713],[15.25107,58.15803],[15.25113,58.15917],[15.25189,58.15984],[15.25152,58.16042],[15.25201,58.1621],[15.25173,58.16405],[15.25181,58.16468],[15.25257,58.16576],[15.25107,58.16852],[15.25163,58.17003],[15.25119,58.17037],[15.2512,58.17073],[15.25048,58.17104],[15.25114,58.17146],[15.25059,58.17224],[15.25087,58.17299],[15.25031,58.17334],[15.25036,58.17398],[15.25004,58.1743],[15.25066,58.17508],[15.25001,58.17588],[15.25037,58.17634],[15.24893,58.17783],[15.24833,58.17894],[15.24735,58.17974],[15.24752,58.18063],[15.24681,58.18118],[15.24712,58.18166],[15.24614,58.18216],[15.24644,58.18283],[15.24496,58.18367],[15.24567,58.1843],[15.24593,58.18581],[15.24542,58.1864],[15.2454,58.18715],[15.24481,58.1874],[15.24397,58.18827],[15.24465,58.1893],[15.24455,58.18982],[15.24396,58.19041],[15.24301,58.19088],[15.24308,58.19181],[15.24176,58.19227],[15.24155,58.19273],[15.23962,58.19359],[15.2389,58.19425],[15.23865,58.19519],[15.23776,58.19574],[15.23691,58.19707],[15.23595,58.1976],[15.23621,58.19835],[15.23586,58.19919],[15.23453,58.19994],[15.23469,58.20057],[15.23413,58.20163],[15.23465,58.20298],[15.23356,58.20353],[15.23412,58.20536],[15.23317,58.20578],[15.23348,58.20667],[15.23254,58.20725],[15.23258,58.20862],[15.2319,58.20965],[15.23208,58.21024],[15.23261,58.21052],[15.23239,58.2112],[15.23196,58.21151],[15.23216,58.21217],[15.2314,58.21257],[15.23156,58.21315],[15.23064,58.21406],[15.23083,58.21432],[15.22728,58.21994],[15.22587,58.22128],[15.2256,58.22223],[15.22444,58.22382],[15.22441,58.22442],[15.22512,58.22541],[15.22473,58.22792],[15.22356,58.23035],[15.22233,58.23081],[15.22233,58.23109],[15.22337,58.23128],[15.22374,58.23154],[15.22215,58.23394],[15.222,58.23545],[15.22133,58.23594],[15.21601,58.23704],[15.21443,58.2385],[15.21286,58.23949],[15.21171,58.24078],[15.2116,58.24199],[15.21052,58.24353],[15.20646,58.24805],[15.205,58.24872],[15.20373,58.25515],[15.20106,58.25852],[15.2007,58.26027],[15.19863,58.26501],[15.19725,58.26673],[15.19545,58.26789],[15.19384,58.26965],[15.19275,58.27017],[15.19183,58.27141],[15.18645,58.27508],[15.18442,58.27697],[15.18287,58.27797],[15.18192,58.27827],[15.18055,58.27824],[15.18041,58.27908],[15.17931,58.28046],[15.18076,58.28096],[15.18384,58.28158],[15.18524,58.28218],[15.18684,58.28257],[15.18736,58.28174],[15.19139,58.28101],[15.19595,58.28081],[15.19889,58.27942],[15.20455,58.27765],[15.20554,58.27944],[15.20567,58.28048],[15.20537,58.28081],[15.20578,58.28207],[15.20411,58.28171],[15.19952,58.28528],[15.19628,58.28687],[15.19518,58.28715],[15.19513,58.28792],[15.19383,58.2883],[15.19348,58.28906],[15.20268,58.28952],[15.20575,58.28936],[15.20803,58.28813],[15.20906,58.28668],[15.21038,58.28687],[15.21088,58.28758],[15.21048,58.28797],[15.21094,58.2883],[15.21097,58.28886],[15.21018,58.28925],[15.21032,58.29004],[15.20985,58.29162],[15.21024,58.2925],[15.2099,58.29449],[15.21527,58.29393],[15.21592,58.29538],[15.21386,58.29538],[15.21246,58.29584],[15.21143,58.29594],[15.21116,58.29647],[15.21041,58.29688],[15.2118,58.29715],[15.21203,58.29749],[15.21266,58.30007],[15.21215,58.30019],[15.21242,58.3023],[15.2129,58.30292],[15.21321,58.30452],[15.21452,58.30463],[15.21457,58.30676],[15.21385,58.30763],[15.21395,58.30839],[15.21337,58.30881],[15.21633,58.30896],[15.21715,58.31042],[15.22058,58.3104],[15.22104,58.31055],[15.22078,58.31073],[15.22156,58.31095],[15.22177,58.31072],[15.22291,58.311],[15.22271,58.31239],[15.22088,58.31264],[15.22042,58.3123],[15.21926,58.31242],[15.22045,58.31459],[15.22143,58.31516],[15.22332,58.31584],[15.21959,58.3174],[15.21955,58.31763],[15.2179,58.31806],[15.2161,58.31802],[15.21514,58.31947],[15.21171,58.3191],[15.2107,58.32006],[15.20701,58.31951],[15.20644,58.31924],[15.20411,58.31901],[15.20459,58.31986],[15.20773,58.32062],[15.20908,58.32147],[15.20823,58.32197],[15.20794,58.3227],[15.20818,58.32303],[15.20731,58.32459],[15.20746,58.32533],[15.20961,58.32587],[15.20976,58.32678],[15.2088,58.32818],[15.20917,58.32869],[15.21181,58.32779],[15.21529,58.32728],[15.21886,58.32737],[15.2218,58.32791],[15.22547,58.32798],[15.22754,58.32742],[15.22952,58.32713],[15.23574,58.32695],[15.2399,58.32742],[15.24349,58.32868],[15.24535,58.3299],[15.24647,58.33124],[15.24726,58.33353],[15.24705,58.33531],[15.24613,58.33664],[15.24461,58.33781],[15.24046,58.33983],[15.23808,58.34055],[15.23728,58.34144],[15.24001,58.34202],[15.24265,58.34314],[15.24422,58.34433],[15.24526,58.34595],[15.24859,58.34654],[15.25133,58.34457],[15.25206,58.34346],[15.25354,58.34224],[15.25611,58.34107],[15.25861,58.34047],[15.26267,58.34023],[15.26465,58.34041],[15.26728,58.34091],[15.27062,58.33983],[15.27461,58.33946],[15.27897,58.33972],[15.28234,58.34039],[15.28595,58.33939],[15.29018,58.33915],[15.29293,58.33945],[15.29693,58.34026],[15.30565,58.34131],[15.30874,58.34205],[15.31079,58.34297],[15.31236,58.34416],[15.31331,58.34551],[15.31354,58.34725],[15.31578,58.3463],[15.31865,58.34393],[15.32019,58.34443],[15.32429,58.34485],[15.32509,58.34521],[15.32494,58.34682],[15.32312,58.34811],[15.32594,58.34851],[15.33299,58.34833],[15.33415,58.34883],[15.33647,58.34878],[15.3368,58.34942],[15.33736,58.34896],[15.33822,58.34951],[15.33986,58.34944],[15.34061,58.35033],[15.34303,58.35025],[15.34409,58.35077],[15.3454,58.35062],[15.34935,58.35092]]]}},{"type":"Feature","id":"0586R016","properties":{"code":"0586R016","name":"Västra Lundby"},"geometry":{"type":"Polygon","coordinates":[[[15.10958,58.32705],[15.11274,58.32645],[15.11577,58.32501],[15.11605,58.32521],[15.1168,58.32494],[15.11642,58.32463],[15.11782,58.32392],[15.11963,58.32496],[15.12213,58.32419],[15.12121,58.32325],[15.12072,58.32175],[15.11969,58.32024],[15.11278,58.31372],[15.11187,58.31202],[15.11184,58.31087],[15.11239,58.30943],[15.1117,58.30872],[15.11613,58.30435],[15.11613,58.30251],[15.11217,58.30302],[15.1092,58.30409],[15.10511,58.30449],[15.09946,58.306],[15.09659,58.30724],[15.09408,58.3088],[15.09277,58.31004],[15.09208,58.31144],[15.09201,58.31251],[15.09276,58.31248],[15.09469,58.3136],[15.09538,58.31416],[15.09545,58.31453],[15.09652,58.31498],[15.09702,58.31581],[15.09931,58.31752],[15.09776,58.31795],[15.10225,58.32151],[15.10276,58.32232],[15.10512,58.32193],[15.10744,58.32127],[15.10782,58.32138],[15.10812,58.32111],[15.1094,58.32082],[15.10982,58.3211],[15.10828,58.32266],[15.10761,58.32479],[15.10729,58.32473],[15.10789,58.32577],[15.10958,58.32705]]]}}]}