{"type":"FeatureCollection","features":[{"type":"Feature","id":"0617R001","properties":{"code":"0617R001","name":"Gnosjö landsbygd"},"geometry":{"type":"Polygon","coordinates":[[[13.76669,57.47307],[13.77174,57.46932],[13.77439,57.46863],[13.77646,57.47087],[13.77757,57.47043],[13.77728,57.47022],[13.77741,57.47005],[13.7784,57.47011],[13.77917,57.46967],[13.77958,57.46964],[13.77987,57.46919],[13.78062,57.46901],[13.78083,57.46859],[13.78136,57.46898],[13.78229,57.46908],[13.78228,57.46868],[13.78321,57.4683],[13.7834,57.46749],[13.78372,57.46731],[13.78443,57.4673],[13.78515,57.4661],[13.78506,57.4657],[13.78587,57.46524],[13.78599,57.46457],[13.78664,57.4643],[13.78669,57.46361],[13.78633,57.46323],[13.789,57.46301],[13.79007,57.46364],[13.79072,57.46359],[13.79175,57.46383],[13.7913,57.46413],[13.79149,57.46433],[13.79195,57.46444],[13.7929,57.46419],[13.79345,57.46305],[13.79574,57.46164],[13.7966,57.45956],[13.8005,57.45852],[13.80164,57.45953],[13.80577,57.46152],[13.80129,57.46417],[13.80153,57.46439],[13.80136,57.46489],[13.80189,57.46555],[13.80209,57.46762],[13.80297,57.46852],[13.80406,57.46891],[13.80347,57.47092],[13.80373,57.47224],[13.80531,57.4725],[13.80648,57.473],[13.80695,57.47292],[13.81397,57.47395],[13.81766,57.47561],[13.81905,57.47557],[13.82019,57.47471],[13.82256,57.47448],[13.82461,57.47935],[13.82561,57.48001],[13.82673,57.48029],[13.82767,57.48177],[13.82848,57.4822],[13.82915,57.48188],[13.83028,57.48214],[13.83057,57.482],[13.83034,57.48077],[13.83104,57.48016],[13.83107,57.47884],[13.83194,57.47763],[13.83247,57.47756],[13.83468,57.47784],[13.83621,57.47728],[13.83894,57.47693],[13.84019,57.47606],[13.84022,57.47582],[13.84281,57.47437],[13.84723,57.47236],[13.85145,57.47016],[13.85549,57.46979],[13.86922,57.47097],[13.87201,57.47104],[13.87688,57.47005],[13.87889,57.46945],[13.88048,57.46952],[13.88329,57.46669],[13.88575,57.4651],[13.88681,57.46697],[13.88762,57.46752],[13.88744,57.46795],[13.88879,57.46793],[13.88956,57.46764],[13.89019,57.46698],[13.89009,57.46654],[13.89121,57.46545],[13.89352,57.46462],[13.89478,57.46463],[13.89662,57.45763],[13.89459,57.44957],[13.89412,57.4445],[13.89488,57.4432],[13.89664,57.44121],[13.89842,57.44005],[13.90044,57.43699],[13.90135,57.43391],[13.9,57.43299],[13.9,57.4326],[13.89858,57.43141],[13.89828,57.43075],[13.89735,57.42987],[13.89693,57.42822],[13.89613,57.42719],[13.89589,57.42567],[13.89445,57.42331],[13.89352,57.42244],[13.89335,57.42169],[13.89135,57.41952],[13.88993,57.41726],[13.89022,57.41645],[13.88918,57.41527],[13.88923,57.41463],[13.88805,57.41373],[13.88798,57.4133],[13.8869,57.41281],[13.88706,57.41264],[13.88662,57.412],[13.887,57.41174],[13.8863,57.41132],[13.8857,57.41121],[13.88519,57.41009],[13.88753,57.40947],[13.8884,57.40888],[13.88854,57.40839],[13.88922,57.40818],[13.8908,57.40832],[13.89111,57.40824],[13.89114,57.40797],[13.898,57.4077],[13.90209,57.40494],[13.90694,57.40214],[13.90719,57.39716],[13.90881,57.39531],[13.91079,57.3956],[13.91413,57.39183],[13.91616,57.39131],[13.91504,57.39049],[13.91322,57.39035],[13.91214,57.38961],[13.91552,57.38757],[13.91715,57.38697],[13.9181,57.38686],[13.92044,57.38427],[13.9205,57.38384],[13.91981,57.3838],[13.91979,57.38259],[13.91996,57.38217],[13.92031,57.3822],[13.92076,57.38174],[13.92084,57.38107],[13.92145,57.38075],[13.92301,57.38053],[13.92312,57.38036],[13.92434,57.38026],[13.92558,57.37966],[13.92557,57.37922],[13.92649,57.37866],[13.92663,57.37831],[13.92674,57.37747],[13.92618,57.37713],[13.92759,57.37678],[13.92756,57.37623],[13.92847,57.3763],[13.92838,57.37607],[13.92904,57.37578],[13.92938,57.37527],[13.92983,57.37526],[13.93204,57.37418],[13.93236,57.37366],[13.93213,57.37339],[13.93255,57.37292],[13.93487,57.37213],[13.93517,57.37158],[13.93603,57.37092],[13.93598,57.37066],[13.93673,57.37043],[13.93724,57.3699],[13.93828,57.36974],[13.93838,57.36948],[13.93921,57.36919],[13.94135,57.37061],[13.94189,57.37133],[13.94318,57.37226],[13.94463,57.37174],[13.94565,57.37168],[13.94834,57.3705],[13.9487,57.37195],[13.9493,57.37228],[13.94965,57.3728],[13.9614,57.37929],[13.96205,57.37874],[13.96381,57.37876],[13.96483,57.37794],[13.96477,57.37699],[13.96568,57.37607],[13.96582,57.37538],[13.96796,57.37414],[13.96934,57.37437],[13.96976,57.37428],[13.97127,57.37477],[13.97339,57.37486],[13.9736,57.3754],[13.97431,57.37573],[13.97546,57.37567],[13.97585,57.37542],[13.97636,57.37553],[13.9773,57.3754],[13.97798,57.37548],[13.97839,57.37576],[13.97824,57.37586],[13.97874,57.37602],[13.97939,57.37554],[13.98218,57.37458],[13.98085,57.37325],[13.98208,57.36916],[13.98553,57.36711],[13.98626,57.36387],[13.98517,57.36275],[13.98557,57.36164],[13.98613,57.36151],[13.98617,57.36068],[13.98683,57.36036],[13.98645,57.35997],[13.98699,57.35971],[13.98605,57.35977],[13.98588,57.35946],[13.98649,57.35948],[13.98671,57.35929],[13.98596,57.35915],[13.98589,57.35875],[13.98684,57.35873],[13.98704,57.35853],[13.98655,57.35824],[13.98714,57.35772],[13.98653,57.35741],[13.98659,57.35705],[13.98786,57.35718],[13.98777,57.35697],[13.98853,57.35655],[13.9881,57.35623],[13.98818,57.35595],[13.98891,57.35602],[13.98853,57.35562],[13.98882,57.35526],[13.98817,57.35474],[13.98879,57.35493],[13.9894,57.35457],[13.98969,57.35504],[13.99005,57.35509],[13.99025,57.35496],[13.98999,57.35462],[13.99081,57.35462],[13.99089,57.35481],[13.99135,57.35484],[13.99168,57.35447],[13.9922,57.35468],[13.99242,57.35451],[13.99284,57.35456],[13.99311,57.35417],[13.99349,57.3541],[13.99386,57.35421],[13.99347,57.35434],[13.99363,57.35468],[13.99444,57.35487],[13.99523,57.35475],[13.99525,57.35506],[13.9958,57.35503],[13.99565,57.35527],[13.99591,57.35537],[13.99732,57.35521],[13.99769,57.35585],[13.99847,57.35563],[13.99877,57.35523],[13.99927,57.35529],[13.99965,57.35485],[14.00025,57.35516],[14.001,57.35488],[14.00114,57.3551],[14.00166,57.35514],[14.00166,57.35543],[14.00266,57.35549],[14.00271,57.35516],[14.00218,57.35472],[14.00294,57.35469],[14.00339,57.35418],[14.00419,57.35423],[14.00391,57.35359],[14.00518,57.35362],[14.00581,57.35335],[14.02313,57.33385],[14.0304,57.32301],[14.01821,57.32132],[14.01779,57.32161],[14.01492,57.32045],[14.01342,57.32007],[14.01344,57.31992],[14.01313,57.31991],[14.013,57.32015],[14.01104,57.31931],[14.00963,57.31827],[14.00667,57.31678],[14.00505,57.31549],[14.00345,57.31508],[13.998,57.30939],[13.99892,57.30548],[14.00586,57.29707],[14.04419,57.29716],[14.04699,57.30259],[14.03703,57.31215],[14.05954,57.30948],[14.05018,57.28994],[14.04575,57.28593],[14.04765,57.28407],[14.04471,57.27903],[14.04339,57.27727],[14.0373,57.27831],[14.03531,57.27768],[14.02358,57.28141],[14.02307,57.28135],[14.02014,57.28259],[14.01971,57.28254],[14.01912,57.28275],[14.01776,57.28257],[14.00802,57.28474],[14.00542,57.28414],[14.00379,57.28267],[13.99844,57.27514],[13.99391,57.26497],[13.98794,57.2599],[13.98768,57.25884],[13.97945,57.25192],[13.96029,57.25875],[13.91174,57.26915],[13.89879,57.28853],[13.87141,57.27265],[13.84405,57.26357],[13.84046,57.26333],[13.84351,57.25851],[13.84078,57.25708],[13.84091,57.25697],[13.83795,57.25569],[13.83283,57.25573],[13.83,57.25507],[13.82928,57.25541],[13.82873,57.25538],[13.82848,57.25484],[13.82999,57.25374],[13.82939,57.25285],[13.83061,57.2524],[13.83154,57.25256],[13.83174,57.25244],[13.83091,57.25192],[13.83101,57.25164],[13.83231,57.25163],[13.83254,57.25125],[13.83382,57.25136],[13.83414,57.25108],[13.83288,57.2507],[13.83285,57.25056],[13.8331,57.25047],[13.83459,57.25075],[13.83464,57.24991],[13.83651,57.25015],[13.83661,57.24976],[13.83536,57.24919],[13.83468,57.24833],[13.8357,57.24813],[13.83569,57.24795],[13.83535,57.24774],[13.83441,57.24772],[13.8343,57.2475],[13.83478,57.24707],[13.83575,57.24726],[13.83671,57.24703],[13.83739,57.24709],[13.83717,57.24659],[13.8379,57.24646],[13.83797,57.24623],[13.83592,57.2455],[13.83699,57.24524],[13.83719,57.24556],[13.83774,57.2455],[13.83805,57.24489],[13.8376,57.24441],[13.83787,57.2438],[13.83836,57.24357],[13.83908,57.24398],[13.83952,57.24401],[13.83971,57.24377],[13.83946,57.24308],[13.83994,57.24295],[13.83961,57.24258],[13.83897,57.24244],[13.83813,57.24276],[13.8378,57.2424],[13.83828,57.24103],[13.83757,57.24025],[13.8367,57.23999],[13.83675,57.23979],[13.83747,57.23901],[13.83835,57.23935],[13.83864,57.23926],[13.83823,57.23841],[13.83928,57.23829],[13.84018,57.23796],[13.83986,57.23743],[13.83857,57.23736],[13.83832,57.23695],[13.83914,57.23678],[13.83991,57.23701],[13.84143,57.23699],[13.8416,57.23674],[13.84105,57.23624],[13.84131,57.23589],[13.83747,57.2358],[13.83723,57.23522],[13.83667,57.23487],[13.83451,57.23449],[13.83358,57.2346],[13.83254,57.23507],[13.83253,57.23564],[13.79158,57.23514],[13.7789,57.23466],[13.7549,57.24003],[13.74622,57.23886],[13.74332,57.23888],[13.74135,57.23938],[13.74004,57.23836],[13.73687,57.23828],[13.73625,57.23859],[13.7289,57.24015],[13.72775,57.24063],[13.72402,57.24157],[13.71846,57.2435],[13.71682,57.24311],[13.71145,57.24393],[13.71087,57.2443],[13.70992,57.2459],[13.71025,57.24677],[13.7124,57.24806],[13.71317,57.24987],[13.71403,57.25063],[13.71524,57.25135],[13.71772,57.25179],[13.71922,57.25266],[13.71968,57.25307],[13.71988,57.25523],[13.71878,57.25578],[13.71797,57.25586],[13.71776,57.25652],[13.71737,57.25648],[13.71673,57.25828],[13.71721,57.25883],[13.71609,57.26019],[13.71459,57.26],[13.71055,57.26212],[13.70957,57.2623],[13.70818,57.26311],[13.7067,57.26905],[13.70775,57.27088],[13.70835,57.27319],[13.70781,57.27445],[13.70817,57.27471],[13.70793,57.27572],[13.70815,57.277],[13.70797,57.28466],[13.7077,57.28587],[13.70692,57.28611],[13.70471,57.28602],[13.70172,57.28617],[13.70002,57.28846],[13.69773,57.28976],[13.69693,57.29161],[13.69384,57.29463],[13.6927,57.29811],[13.69128,57.29911],[13.69133,57.30015],[13.69004,57.30377],[13.68913,57.30381],[13.68811,57.30451],[13.68742,57.30469],[13.68711,57.30457],[13.6865,57.3051],[13.68517,57.30471],[13.68512,57.30453],[13.68355,57.30486],[13.68309,57.3048],[13.68297,57.30514],[13.68257,57.30528],[13.68294,57.30568],[13.68273,57.3063],[13.68208,57.3061],[13.6815,57.30614],[13.67984,57.30796],[13.67987,57.30943],[13.68067,57.31147],[13.68192,57.31277],[13.68426,57.31441],[13.68022,57.31784],[13.67813,57.32038],[13.67757,57.32036],[13.68332,57.32804],[13.6743,57.34169],[13.67142,57.34163],[13.66504,57.3423],[13.6648,57.34183],[13.6643,57.34223],[13.66028,57.34317],[13.65923,57.34361],[13.65404,57.34454],[13.64935,57.34464],[13.64752,57.34432],[13.6473,57.34517],[13.64796,57.34581],[13.64796,57.34621],[13.64916,57.34715],[13.65043,57.34942],[13.65147,57.35],[13.65016,57.35085],[13.64202,57.35146],[13.6387,57.35136],[13.63312,57.35225],[13.63025,57.35208],[13.63023,57.35252],[13.62994,57.35256],[13.62986,57.35243],[13.62909,57.35255],[13.62918,57.3521],[13.62672,57.35244],[13.58408,57.34259],[13.58147,57.3427],[13.57971,57.3432],[13.57909,57.34364],[13.57856,57.34366],[13.57777,57.3441],[13.57616,57.34396],[13.57373,57.34317],[13.57326,57.34341],[13.57312,57.34421],[13.57204,57.34522],[13.57213,57.34571],[13.57127,57.3462],[13.57068,57.34605],[13.57005,57.34549],[13.56928,57.34551],[13.56898,57.34452],[13.56816,57.34471],[13.56806,57.34513],[13.56913,57.34601],[13.56911,57.34673],[13.56951,57.34729],[13.56882,57.3481],[13.56867,57.34873],[13.56923,57.3488],[13.56994,57.34825],[13.57026,57.34824],[13.57063,57.34972],[13.57164,57.35013],[13.56969,57.3511],[13.57017,57.35137],[13.57177,57.3509],[13.57134,57.35199],[13.57145,57.35315],[13.57106,57.35332],[13.56952,57.35328],[13.56885,57.35347],[13.56822,57.3545],[13.56862,57.35462],[13.56902,57.35445],[13.56913,57.3541],[13.56988,57.3541],[13.57271,57.3565],[13.57568,57.35628],[13.57693,57.35654],[13.57692,57.35687],[13.57623,57.35722],[13.57542,57.35739],[13.57424,57.35709],[13.57379,57.35724],[13.57332,57.35781],[13.57409,57.35823],[13.57534,57.35823],[13.57628,57.35847],[13.57653,57.35869],[13.57642,57.36004],[13.57715,57.36102],[13.57663,57.36248],[13.57584,57.36339],[13.57635,57.36405],[13.5754,57.36448],[13.5756,57.36471],[13.57782,57.36512],[13.57678,57.36526],[13.57655,57.36557],[13.57739,57.36632],[13.57785,57.36749],[13.57894,57.36812],[13.57807,57.36825],[13.57712,57.36781],[13.57552,57.36803],[13.57451,57.36869],[13.57451,57.36924],[13.57478,57.36985],[13.57716,57.37175],[13.57721,57.37284],[13.57802,57.37386],[13.57828,57.37467],[13.57827,57.3768],[13.579,57.3772],[13.58056,57.37742],[13.58262,57.37718],[13.584,57.37727],[13.58521,57.37782],[13.58651,57.37802],[13.59055,57.37918],[13.59455,57.37931],[13.59947,57.38338],[13.60022,57.39126],[13.59901,57.39411],[13.60247,57.39661],[13.60418,57.40063],[13.60271,57.40143],[13.60357,57.40285],[13.60606,57.4029],[13.6068,57.40328],[13.60971,57.40382],[13.6165,57.40777],[13.62451,57.41554],[13.62728,57.41687],[13.62686,57.41761],[13.62703,57.41793],[13.62913,57.41859],[13.63072,57.42003],[13.6287,57.42154],[13.63201,57.425],[13.62879,57.42612],[13.62526,57.4294],[13.62644,57.4318],[13.63134,57.43178],[13.63341,57.43213],[13.63695,57.43693],[13.63912,57.43629],[13.63827,57.43505],[13.63989,57.43508],[13.64205,57.43623],[13.64399,57.43617],[13.64563,57.4366],[13.64641,57.43626],[13.64693,57.43531],[13.64833,57.43561],[13.64855,57.43578],[13.64795,57.43624],[13.64971,57.43692],[13.65085,57.43773],[13.65166,57.4397],[13.65252,57.44059],[13.65245,57.44074],[13.65113,57.44093],[13.65117,57.44122],[13.65641,57.44225],[13.65655,57.44253],[13.65594,57.44318],[13.65573,57.44391],[13.65613,57.44465],[13.65804,57.44617],[13.65444,57.44734],[13.65195,57.44948],[13.65596,57.45249],[13.65937,57.45672],[13.65778,57.45956],[13.65627,57.46061],[13.65664,57.46086],[13.65939,57.46143],[13.66203,57.46778],[13.66876,57.47331],[13.67417,57.47473],[13.67496,57.47466],[13.67598,57.47415],[13.67625,57.47432],[13.67619,57.47501],[13.67697,57.47566],[13.67699,57.47823],[13.67728,57.47862],[13.68004,57.47787],[13.67821,57.47615],[13.67869,57.47487],[13.67786,57.47389],[13.6704,57.47158],[13.67429,57.47012],[13.67443,57.46968],[13.67579,57.46944],[13.67617,57.46896],[13.67596,57.46864],[13.6774,57.46838],[13.67791,57.46854],[13.67847,57.46918],[13.67924,57.46797],[13.6804,57.46798],[13.68089,57.46624],[13.68344,57.46574],[13.68398,57.46617],[13.68393,57.46672],[13.68433,57.46691],[13.68477,57.4666],[13.68812,57.46649],[13.6886,57.46525],[13.68806,57.46404],[13.68823,57.46371],[13.69017,57.46273],[13.6908,57.46268],[13.69129,57.4623],[13.69132,57.46152],[13.6922,57.46006],[13.69391,57.45953],[13.69581,57.45937],[13.69702,57.45817],[13.69922,57.459],[13.70235,57.46071],[13.70338,57.46081],[13.70683,57.4581],[13.70436,57.45668],[13.70278,57.45417],[13.70792,57.45363],[13.70937,57.45458],[13.71077,57.45509],[13.71078,57.45631],[13.71159,57.45669],[13.71244,57.4566],[13.71439,57.45818],[13.71639,57.45902],[13.71695,57.45889],[13.71842,57.45923],[13.7198,57.46042],[13.72089,57.46053],[13.72239,57.46034],[13.72297,57.46083],[13.72472,57.46142],[13.72414,57.4624],[13.72438,57.46306],[13.72488,57.46366],[13.72561,57.46379],[13.72587,57.46415],[13.72701,57.46458],[13.72778,57.46513],[13.72775,57.46567],[13.72724,57.466],[13.72771,57.46708],[13.72897,57.46796],[13.73,57.46787],[13.73064,57.46817],[13.73085,57.46899],[13.73152,57.46907],[13.73239,57.4696],[13.73247,57.47077],[13.73547,57.47116],[13.73544,57.4718],[13.737,57.47319],[13.73823,57.47343],[13.73869,57.47386],[13.73917,57.47397],[13.73965,57.47386],[13.74001,57.4735],[13.74018,57.47103],[13.74117,57.47064],[13.74149,57.47027],[13.74321,57.47101],[13.74369,57.47182],[13.74417,57.4719],[13.74487,57.47172],[13.74638,57.47314],[13.7502,57.47402],[13.75128,57.47734],[13.75536,57.48011],[13.75608,57.48204],[13.75849,57.48283],[13.76458,57.47693],[13.76669,57.47307]],[[13.87158,57.33186],[13.86772,57.33087],[13.86484,57.32929],[13.86363,57.32807],[13.86251,57.32584],[13.86132,57.32477],[13.86042,57.32323],[13.85991,57.31903],[13.86034,57.31749],[13.8614,57.31615],[13.86261,57.31524],[13.86581,57.31389],[13.86535,57.31336],[13.86339,57.31211],[13.86253,57.31118],[13.86088,57.31226],[13.85925,57.31295],[13.85539,57.31378],[13.85307,57.3139],[13.851,57.31379],[13.84717,57.31295],[13.84554,57.31225],[13.83862,57.30846],[13.83752,57.30756],[13.83661,57.30628],[13.83453,57.30464],[13.83372,57.30324],[13.83354,57.30197],[13.83065,57.30111],[13.829,57.30041],[13.8266,57.29859],[13.82592,57.29753],[13.82562,57.29607],[13.82584,57.29496],[13.82675,57.29354],[13.82622,57.29201],[13.82662,57.29012],[13.82768,57.28878],[13.82889,57.28786],[13.83049,57.28703],[13.83281,57.28628],[13.83621,57.2858],[13.84032,57.28602],[13.84339,57.28681],[13.84629,57.28838],[13.84802,57.28895],[13.85127,57.28929],[13.8544,57.29028],[13.85647,57.29057],[13.85894,57.29127],[13.86241,57.29126],[13.86771,57.29193],[13.87003,57.29269],[13.87193,57.29372],[13.87338,57.29507],[13.87411,57.29652],[13.87809,57.29646],[13.88073,57.29669],[13.88371,57.29746],[13.88688,57.2989],[13.89189,57.29924],[13.89409,57.2997],[13.89634,57.30054],[13.89948,57.30101],[13.90172,57.30173],[13.90521,57.30335],[13.90773,57.30513],[13.90863,57.30651],[13.90886,57.30806],[13.90834,57.30959],[13.90731,57.31085],[13.91012,57.31171],[13.91264,57.3132],[13.91396,57.31477],[13.91434,57.31661],[13.9136,57.31846],[13.91224,57.31984],[13.9104,57.32091],[13.90696,57.32212],[13.90651,57.32403],[13.90471,57.32591],[13.90337,57.32674],[13.90125,57.32758],[13.89882,57.32811],[13.8968,57.32828],[13.89248,57.32834],[13.89055,57.32817],[13.8882,57.32766],[13.88561,57.32669],[13.88473,57.32827],[13.88381,57.32928],[13.88255,57.33017],[13.88048,57.33112],[13.87863,57.33163],[13.87601,57.33201],[13.87383,57.33206],[13.87158,57.33186]],[[13.71098,57.36988],[13.71071,57.36847],[13.71094,57.36739],[13.71238,57.36469],[13.71276,57.36278],[13.71407,57.36121],[13.71357,57.35985],[13.71355,57.35874],[13.71092,57.35734],[13.70946,57.35574],[13.70905,57.35468],[13.70906,57.35299],[13.70971,57.35131],[13.71083,57.34989],[13.71096,57.34876],[13.71172,57.34698],[13.71325,57.34465],[13.71478,57.34343],[13.71478,57.3422],[13.71365,57.34019],[13.71353,57.33877],[13.71434,57.33701],[13.71609,57.3355],[13.71755,57.33476],[13.71981,57.33404],[13.72309,57.33359],[13.72633,57.33257],[13.72926,57.33224],[13.73131,57.33224],[13.73387,57.33256],[13.73676,57.3334],[13.7388,57.33427],[13.74265,57.33501],[13.74393,57.33385],[13.74584,57.3328],[13.74832,57.33201],[13.75094,57.3316],[13.75493,57.33145],[13.75697,57.33167],[13.75908,57.33214],[13.76235,57.33118],[13.76665,57.33079],[13.77037,57.33121],[13.77392,57.33236],[13.77569,57.33347],[13.77697,57.33487],[13.77755,57.3363],[13.77868,57.33793],[13.77884,57.33973],[13.77795,57.34145],[13.77625,57.34285],[13.77652,57.34487],[13.77558,57.34676],[13.77457,57.34769],[13.77279,57.34873],[13.7711,57.34936],[13.76878,57.34988],[13.76899,57.35139],[13.76851,57.35283],[13.76734,57.3542],[13.76538,57.35559],[13.76611,57.35726],[13.76575,57.35981],[13.76777,57.36197],[13.76831,57.36403],[13.76779,57.36555],[13.76791,57.36668],[13.76733,57.36882],[13.76637,57.37019],[13.76469,57.37146],[13.7626,57.37239],[13.76075,57.3729],[13.75704,57.37363],[13.75408,57.37386],[13.75187,57.37373],[13.74954,57.3733],[13.74677,57.37234],[13.74518,57.37143],[13.74241,57.37136],[13.73994,57.37255],[13.73588,57.37376],[13.73254,57.3741],[13.73002,57.37402],[13.72836,57.37448],[13.72562,57.37492],[13.72232,57.37508],[13.71818,57.3746],[13.71531,57.37367],[13.71391,57.37289],[13.71227,57.37156],[13.71098,57.36988]]]}},{"type":"Feature","id":"0617R002","properties":{"code":"0617R002","name":"Gnosjö tätort"},"geometry":{"type":"Polygon","coordinates":[[[13.7271,57.3747],[13.73002,57.37402],[13.73318,57.37407],[13.73652,57.37363],[13.74047,57.37236],[13.74241,57.37136],[13.74518,57.37143],[13.74732,57.37257],[13.75081,57.37358],[13.75339,57.37385],[13.75607,57.37376],[13.76075,57.3729],[13.7626,57.37239],[13.76469,57.37146],[13.76637,57.37019],[13.76747,57.36849],[13.76832,57.36367],[13.76777,57.36197],[13.76575,57.35981],[13.76611,57.35726],[13.76538,57.35559],[13.76734,57.3542],[13.76851,57.35283],[13.76899,57.35139],[13.76878,57.34988],[13.7711,57.34936],[13.77279,57.34873],[13.77457,57.34769],[13.77558,57.34676],[13.77652,57.34487],[13.77625,57.34285],[13.77819,57.34113],[13.77889,57.33936],[13.77853,57.33759],[13.77642,57.33414],[13.77438,57.3326],[13.77169,57.33153],[13.76856,57.33092],[13.76601,57.33079],[13.76235,57.33118],[13.75908,57.33214],[13.75697,57.33167],[13.75493,57.33145],[13.75031,57.33166],[13.74815,57.33205],[13.74584,57.3328],[13.74393,57.33385],[13.74265,57.33501],[13.7388,57.33427],[13.73676,57.3334],[13.73387,57.33256],[13.73126,57.33224],[13.72828,57.3323],[13.72569,57.33271],[13.72309,57.33359],[13.72105,57.33379],[13.71863,57.33436],[13.71652,57.33525],[13.71462,57.33668],[13.71373,57.33804],[13.7135,57.33914],[13.71379,57.34056],[13.71478,57.3422],[13.71478,57.34343],[13.71325,57.34465],[13.71172,57.34698],[13.71096,57.34876],[13.71083,57.34989],[13.70971,57.35131],[13.70906,57.35299],[13.70905,57.35468],[13.70946,57.35574],[13.71092,57.35734],[13.71355,57.35874],[13.71357,57.35985],[13.71407,57.36121],[13.71276,57.36278],[13.71238,57.36469],[13.71094,57.36739],[13.71071,57.36849],[13.71099,57.3699],[13.71193,57.37123],[13.71391,57.37289],[13.71584,57.37389],[13.71814,57.37459],[13.72102,57.37499],[13.72364,57.37508],[13.7271,57.3747]]]}},{"type":"Feature","id":"0617R003","properties":{"code":"0617R003","name":"Hillerstorp tätort"},"geometry":{"type":"Polygon","coordinates":[[[13.8751,57.33206],[13.87863,57.33163],[13.88211,57.33042],[13.88413,57.32898],[13.88561,57.32669],[13.88877,57.32782],[13.89248,57.32834],[13.89815,57.32819],[13.9018,57.3274],[13.90388,57.32646],[13.90574,57.32502],[13.90668,57.3237],[13.90696,57.32212],[13.9104,57.32091],[13.91259,57.31955],[13.9136,57.31846],[13.9142,57.31731],[13.91412,57.31513],[13.91327,57.3138],[13.91162,57.31249],[13.9096,57.31151],[13.90731,57.31085],[13.90834,57.30959],[13.90886,57.30806],[13.90863,57.30651],[13.90773,57.30513],[13.90521,57.30335],[13.90172,57.30173],[13.89948,57.30101],[13.89634,57.30054],[13.89409,57.2997],[13.89189,57.29924],[13.88688,57.2989],[13.88371,57.29746],[13.88073,57.29669],[13.87809,57.29646],[13.87411,57.29652],[13.87338,57.29507],[13.87193,57.29372],[13.87003,57.29269],[13.86771,57.29193],[13.86241,57.29126],[13.85894,57.29127],[13.85647,57.29057],[13.8544,57.29028],[13.85127,57.28929],[13.84802,57.28895],[13.84629,57.28838],[13.84339,57.28681],[13.84032,57.28602],[13.83621,57.2858],[13.83224,57.28643],[13.83,57.28725],[13.82849,57.28812],[13.82738,57.28908],[13.82643,57.29055],[13.82622,57.29201],[13.82675,57.29354],[13.82584,57.29496],[13.82563,57.29642],[13.82592,57.29753],[13.82688,57.2989],[13.82948,57.30064],[13.83354,57.30197],[13.83372,57.30324],[13.83428,57.30432],[13.83522,57.30532],[13.83661,57.30628],[13.83823,57.30819],[13.84295,57.31088],[13.84717,57.31295],[13.851,57.31379],[13.85307,57.3139],[13.85539,57.31378],[13.85925,57.31295],[13.86088,57.31226],[13.86253,57.31118],[13.86339,57.31211],[13.86535,57.31336],[13.86581,57.31389],[13.86412,57.31447],[13.86221,57.3155],[13.86102,57.31653],[13.86029,57.31759],[13.85995,57.31869],[13.85996,57.32067],[13.86019,57.32253],[13.86081,57.32403],[13.86251,57.32584],[13.86293,57.32702],[13.86387,57.32838],[13.86591,57.32999],[13.86825,57.33106],[13.87038,57.33165],[13.87237,57.33196],[13.8751,57.33206]]]}}]}