{"type":"FeatureCollection","features":[{"type":"Feature","id":"0643R001","properties":{"code":"0643R001","name":"Bränninge"},"geometry":{"type":"Polygon","coordinates":[[[14.06997,57.90798],[14.07067,57.90822],[14.07136,57.90775],[14.07211,57.9077],[14.07253,57.90803],[14.07922,57.90559],[14.08231,57.90433],[14.09123,57.89956],[14.08855,57.89928],[14.08724,57.8994],[14.08601,57.89974],[14.08529,57.89896],[14.08454,57.89639],[14.081,57.89471],[14.08161,57.89315],[14.08227,57.89272],[14.08523,57.89201],[14.08704,57.88789],[14.08691,57.88672],[14.08603,57.88525],[14.08052,57.8875],[14.07831,57.88902],[14.07712,57.89029],[14.074,57.89043],[14.07112,57.89102],[14.06903,57.89095],[14.06626,57.89118],[14.06412,57.89164],[14.06182,57.8925],[14.0593,57.89429],[14.05839,57.89569],[14.05817,57.89708],[14.0566,57.89818],[14.05569,57.89924],[14.05521,57.90029],[14.05714,57.90076],[14.05686,57.90223],[14.06284,57.90389],[14.0654,57.90491],[14.06558,57.9051],[14.06445,57.90568],[14.06471,57.90597],[14.0687,57.90791],[14.06892,57.90826],[14.06997,57.90798]]]}},{"type":"Feature","id":"0643R002","properties":{"code":"0643R002","name":"Habo norra"},"geometry":{"type":"Polygon","coordinates":[[[14.13956,58.13855],[14.14097,58.13925],[14.14288,58.13957],[14.14648,58.13882],[14.14687,58.13831],[14.14652,58.1377],[14.1473,58.13721],[14.14849,58.13687],[14.14816,58.13497],[14.14715,58.13411],[14.15229,58.13173],[14.15198,58.13171],[14.15192,58.13148],[14.15362,58.13081],[14.15533,58.13031],[14.16816,58.12991],[14.16796,58.1295],[14.16866,58.12835],[14.17009,58.12849],[14.17204,58.12987],[14.17315,58.12964],[14.17362,58.12976],[14.17658,58.12887],[14.18068,58.12961],[14.18221,58.13037],[14.1842,58.13081],[14.18495,58.13134],[14.18635,58.13074],[14.1878,58.13082],[14.18863,58.1304],[14.19027,58.13054],[14.19211,58.13242],[14.19341,58.13266],[14.19417,58.1318],[14.19578,58.13201],[14.19584,58.13241],[14.1978,58.13238],[14.19952,58.13385],[14.20141,58.13451],[14.2036,58.1348],[14.20568,58.1353],[14.20776,58.1353],[14.20895,58.13507],[14.21167,58.13491],[14.21407,58.13506],[14.21525,58.13483],[14.21711,58.1349],[14.21802,58.13521],[14.22063,58.13542],[14.22264,58.13532],[14.2237,58.13551],[14.22612,58.13553],[14.31426,58.13178],[14.23718,58.02772],[14.20463,57.90074],[14.13629,57.8868],[14.13472,57.88599],[14.12499,57.90218],[14.12548,57.90385],[14.12546,57.90494],[14.12427,57.90699],[14.12224,57.90842],[14.11949,57.90943],[14.1169,57.90989],[14.11285,57.91012],[14.1104,57.91056],[14.11152,57.91265],[14.11099,57.91569],[14.1097,57.91734],[14.10752,57.91869],[14.10667,57.92063],[14.10547,57.92244],[14.10562,57.92421],[14.10443,57.92763],[14.10315,57.92891],[14.10135,57.92996],[14.09842,57.93089],[14.09514,57.93129],[14.08638,57.93114],[14.0831,57.93075],[14.08072,57.93005],[14.07836,57.92879],[14.07684,57.92717],[14.07638,57.92525],[14.07506,57.92454],[14.07231,57.92376],[14.07072,57.9231],[14.06762,57.92285],[14.06567,57.92248],[14.06348,57.92241],[14.06364,57.92599],[14.06501,57.92762],[14.06615,57.9284],[14.06879,57.92879],[14.06478,57.93249],[14.06425,57.93373],[14.06354,57.93359],[14.06015,57.93849],[14.05903,57.93818],[14.05836,57.93777],[14.05703,57.93777],[14.05621,57.93818],[14.05436,57.93874],[14.05327,57.93887],[14.05315,57.93905],[14.05224,57.93917],[14.05164,57.93905],[14.05034,57.93955],[14.04919,57.9392],[14.04827,57.93954],[14.04774,57.93929],[14.04685,57.93963],[14.03335,57.93246],[14.03376,57.93133],[14.0322,57.93108],[14.02963,57.93121],[14.02974,57.93208],[14.02894,57.93297],[14.02802,57.93318],[14.02616,57.93321],[14.02248,57.93249],[14.02191,57.93266],[14.02084,57.93252],[14.0202,57.93263],[14.01815,57.93228],[14.01638,57.93222],[14.01597,57.93188],[14.01607,57.93123],[14.00585,57.93052],[14.00577,57.93079],[14.00209,57.93136],[14.00215,57.93181],[14.0004,57.93157],[14.00062,57.9329],[14.00803,57.93261],[14.00868,57.93402],[14.00913,57.93393],[14.00927,57.93414],[14.00891,57.93505],[14.00924,57.93534],[13.99168,57.93762],[13.98958,57.93842],[13.98578,57.94141],[13.98337,57.94383],[13.98229,57.94205],[13.97997,57.94054],[13.97784,57.93979],[13.97712,57.93972],[13.9748,57.94006],[13.97068,57.93973],[13.96925,57.94023],[13.96778,57.93968],[13.9673,57.93887],[13.96664,57.93858],[13.96608,57.93861],[13.96535,57.93897],[13.9652,57.93938],[13.96476,57.9396],[13.96282,57.93956],[13.96244,57.9398],[13.96307,57.94157],[13.96243,57.94251],[13.9626,57.94331],[13.96452,57.94557],[13.96726,57.94771],[13.96835,57.94985],[13.96713,57.95071],[13.96719,57.95148],[13.96631,57.95266],[13.96535,57.95179],[13.96344,57.95201],[13.96351,57.9528],[13.9623,57.95306],[13.96078,57.95265],[13.96062,57.95228],[13.95983,57.95219],[13.95843,57.9537],[13.95845,57.95417],[13.95564,57.95485],[13.95535,57.95478],[13.95355,57.95608],[13.95098,57.95746],[13.95244,57.95945],[13.95054,57.95988],[13.95263,57.96353],[13.96068,57.96165],[13.96228,57.96376],[13.94525,57.96851],[13.93531,57.97441],[13.93596,57.97748],[13.93505,57.97918],[13.93267,57.97872],[13.93295,57.9767],[13.92451,57.97705],[13.9243,57.97813],[13.92531,57.97978],[13.9214,57.9805],[13.91973,57.98116],[13.91823,57.98147],[13.91839,57.98238],[13.9175,57.98324],[13.91736,57.9845],[13.91904,57.98737],[13.92041,57.98827],[13.92212,57.98861],[13.92319,57.98951],[13.92359,57.99105],[13.92457,57.99262],[13.92398,57.99305],[13.92659,57.9948],[13.9272,57.99677],[13.92841,57.99769],[13.92784,57.99851],[13.92827,58.00022],[13.92868,58.00042],[13.92893,58.00127],[13.92832,58.00189],[13.92807,58.0027],[13.92738,58.00301],[13.9288,58.00477],[13.92842,58.00581],[13.92994,58.00879],[13.94471,58.00666],[13.97712,58.00886],[13.98211,58.00888],[13.98782,58.00924],[13.99301,58.00972],[14.00678,58.01295],[14.06395,58.02423],[14.05892,58.0254],[14.06176,58.02822],[14.065,58.02858],[14.06512,58.02797],[14.06663,58.02716],[14.06723,58.02622],[14.06778,58.02632],[14.0696,58.02515],[14.06469,58.03891],[14.10726,58.06371],[14.11491,58.07522],[14.11631,58.07534],[14.11572,58.07646],[14.11685,58.07822],[14.11072,58.07932],[14.10906,58.0808],[14.10877,58.08145],[14.10766,58.0817],[14.11118,58.08655],[14.11699,58.08862],[14.12203,58.1001],[14.11863,58.12118],[14.12877,58.14633],[14.13956,58.13855]]]}},{"type":"Feature","id":"0643R003","properties":{"code":"0643R003","name":"Habo södra"},"geometry":{"type":"Polygon","coordinates":[[[13.91973,57.98116],[13.9214,57.9805],[13.92531,57.97978],[13.9243,57.97813],[13.92451,57.97705],[13.93295,57.9767],[13.93267,57.97872],[13.93505,57.97918],[13.93596,57.97748],[13.93531,57.97441],[13.94525,57.96851],[13.96228,57.96376],[13.96068,57.96165],[13.95263,57.96353],[13.95054,57.95988],[13.95244,57.95945],[13.95098,57.95746],[13.95355,57.95608],[13.95535,57.95478],[13.95564,57.95485],[13.95845,57.95417],[13.95843,57.9537],[13.95983,57.95219],[13.96062,57.95228],[13.96078,57.95265],[13.9623,57.95306],[13.96351,57.9528],[13.96344,57.95201],[13.96535,57.95179],[13.96631,57.95266],[13.96719,57.95148],[13.96713,57.95071],[13.96835,57.94985],[13.96726,57.94771],[13.96452,57.94557],[13.9626,57.94331],[13.96243,57.94251],[13.96307,57.94157],[13.96244,57.9398],[13.96282,57.93956],[13.96476,57.9396],[13.9652,57.93938],[13.96535,57.93897],[13.96608,57.93861],[13.96664,57.93858],[13.9673,57.93887],[13.96778,57.93968],[13.96925,57.94023],[13.97068,57.93973],[13.9748,57.94006],[13.97712,57.93972],[13.97784,57.93979],[13.97997,57.94054],[13.98229,57.94205],[13.98337,57.94383],[13.98578,57.94141],[13.98958,57.93842],[13.99168,57.93762],[14.00924,57.93534],[14.00891,57.93505],[14.00927,57.93414],[14.00913,57.93393],[14.00868,57.93402],[14.00803,57.93261],[14.00062,57.9329],[14.0004,57.93157],[14.00215,57.93181],[14.00209,57.93136],[14.00577,57.93079],[14.00585,57.93052],[14.01607,57.93123],[14.01597,57.93188],[14.01638,57.93222],[14.01815,57.93228],[14.0202,57.93263],[14.02084,57.93252],[14.02191,57.93266],[14.02248,57.93249],[14.02616,57.93321],[14.02802,57.93318],[14.02894,57.93297],[14.02974,57.93208],[14.02963,57.93121],[14.0322,57.93108],[14.03376,57.93133],[14.03335,57.93246],[14.04685,57.93963],[14.04774,57.93929],[14.04827,57.93954],[14.04919,57.9392],[14.05034,57.93955],[14.05164,57.93905],[14.05224,57.93917],[14.05315,57.93905],[14.05327,57.93887],[14.05436,57.93874],[14.05621,57.93818],[14.05703,57.93777],[14.05836,57.93777],[14.05903,57.93818],[14.06015,57.93849],[14.06354,57.93359],[14.06425,57.93373],[14.06478,57.93249],[14.06879,57.92879],[14.06615,57.9284],[14.06501,57.92762],[14.06364,57.92599],[14.06348,57.92241],[14.05929,57.92168],[14.05713,57.92083],[14.05517,57.91966],[14.05186,57.91901],[14.04968,57.91816],[14.04717,57.91656],[14.04615,57.91562],[14.04546,57.91458],[14.04517,57.91317],[14.04555,57.91174],[14.04709,57.90975],[14.04876,57.90858],[14.05123,57.90759],[14.05063,57.90567],[14.05144,57.90363],[14.05275,57.90242],[14.05504,57.90125],[14.05532,57.89995],[14.05591,57.89892],[14.05817,57.89708],[14.05839,57.89569],[14.05903,57.8946],[14.0604,57.89333],[14.06231,57.89228],[14.06428,57.89159],[14.06689,57.89109],[14.06903,57.89095],[14.07112,57.89102],[14.074,57.89043],[14.07712,57.89029],[14.07831,57.88902],[14.08065,57.88744],[14.08586,57.8853],[14.08778,57.88481],[14.09019,57.88448],[14.09191,57.88273],[14.09433,57.8815],[14.09614,57.88096],[14.0987,57.88056],[14.10136,57.88051],[14.1034,57.88072],[14.10585,57.88129],[14.10837,57.8822],[14.11016,57.88329],[14.11141,57.88468],[14.1152,57.88593],[14.11763,57.88761],[14.11905,57.88969],[14.11944,57.89109],[14.11914,57.89253],[14.11793,57.8941],[14.11954,57.89499],[14.12065,57.89592],[14.12192,57.89783],[14.12407,57.89994],[14.12499,57.90218],[14.13472,57.88599],[14.11879,57.87773],[14.11769,57.87741],[14.11665,57.87739],[14.11736,57.87665],[14.11628,57.87632],[14.11671,57.87586],[14.11591,57.8758],[14.11544,57.87551],[14.11629,57.87499],[14.11568,57.87467],[14.11579,57.87422],[14.11491,57.87392],[14.11436,57.87347],[14.11142,57.87345],[14.1112,57.87298],[14.11037,57.87337],[14.11011,57.873],[14.10957,57.87293],[14.10885,57.87328],[14.10838,57.8733],[14.10846,57.87277],[14.10746,57.87274],[14.10701,57.8722],[14.10618,57.8718],[14.10606,57.87088],[14.10514,57.87074],[14.10581,57.87042],[14.10552,57.86976],[14.10587,57.86936],[14.10503,57.86919],[14.10395,57.86848],[14.10311,57.86819],[14.1013,57.86797],[14.10169,57.86598],[14.10315,57.86589],[14.10359,57.86609],[14.10507,57.86551],[14.10493,57.86507],[14.10364,57.86417],[14.10276,57.86435],[14.10223,57.86415],[14.10261,57.86345],[14.10247,57.86299],[14.10313,57.86246],[14.1024,57.8624],[14.10244,57.86216],[14.10194,57.86194],[14.10139,57.8611],[14.10065,57.86087],[14.10084,57.86033],[14.09988,57.85999],[14.09966,57.85967],[14.0995,57.859],[14.09977,57.85877],[14.10128,57.85893],[14.10199,57.85855],[14.10074,57.85795],[14.09928,57.85763],[14.09763,57.85782],[14.09682,57.85737],[14.09553,57.85715],[14.09434,57.8576],[14.09349,57.85765],[14.09248,57.85735],[14.08885,57.85713],[14.08803,57.8573],[14.08611,57.85721],[14.08568,57.85732],[14.08424,57.85713],[14.08323,57.85679],[14.07981,57.85655],[14.07886,57.85583],[14.07809,57.85562],[14.07791,57.85512],[14.077,57.85476],[14.07715,57.85445],[14.07583,57.85384],[14.07488,57.85351],[14.07398,57.85356],[14.07294,57.85294],[14.07148,57.85301],[14.07129,57.85344],[14.07185,57.85357],[14.07223,57.85509],[14.07304,57.85511],[14.07306,57.85547],[14.0703,57.85563],[14.0694,57.85593],[14.06788,57.85838],[14.06701,57.85844],[14.0648,57.85795],[14.06367,57.85824],[14.06166,57.85819],[14.06064,57.85865],[14.05942,57.85871],[14.05937,57.8591],[14.05867,57.85966],[14.06048,57.86085],[14.05939,57.86131],[14.05854,57.86113],[14.05764,57.86155],[14.05755,57.86181],[14.05805,57.86216],[14.05789,57.86237],[14.05581,57.86235],[14.05482,57.86186],[14.05447,57.86187],[14.05426,57.86218],[14.05456,57.86244],[14.05373,57.86244],[14.0527,57.86322],[14.05036,57.86374],[14.04915,57.8638],[14.04884,57.86399],[14.04879,57.86454],[14.04743,57.86495],[14.04678,57.8644],[14.04678,57.86401],[14.04629,57.86376],[14.04632,57.86329],[14.04528,57.86297],[14.04385,57.8629],[14.04348,57.86273],[14.04267,57.86279],[14.04176,57.86247],[14.04172,57.86197],[14.04122,57.86199],[14.04107,57.86154],[14.04153,57.86114],[14.04198,57.86094],[14.04346,57.86101],[14.04369,57.86085],[14.04319,57.86042],[14.0433,57.85999],[14.04292,57.85959],[14.04313,57.85905],[14.04263,57.85857],[14.04159,57.85855],[14.04098,57.85828],[14.03907,57.85861],[14.03834,57.8584],[14.03782,57.85787],[14.03702,57.858],[14.03579,57.85784],[14.03549,57.85803],[14.03552,57.85881],[14.03515,57.85896],[14.03528,57.85931],[14.03464,57.85912],[14.03417,57.85921],[14.03425,57.85965],[14.03487,57.85988],[14.0348,57.86007],[14.03325,57.86036],[14.03262,57.86026],[14.0324,57.86008],[14.03281,57.85986],[14.03277,57.85956],[14.03243,57.85936],[14.03025,57.85973],[14.02991,57.85928],[14.02824,57.85853],[14.02779,57.85786],[14.02802,57.85726],[14.02757,57.85696],[14.0276,57.85652],[14.02692,57.85608],[14.02727,57.85578],[14.02657,57.85515],[14.02569,57.8549],[14.02615,57.85467],[14.02383,57.85391],[14.0226,57.85308],[14.02259,57.8523],[14.02208,57.85171],[14.02206,57.85117],[14.02112,57.85085],[14.02096,57.85005],[14.02052,57.84994],[14.02002,57.85009],[14.02001,57.85092],[14.01967,57.85122],[14.01866,57.85129],[14.01783,57.85068],[14.01738,57.85069],[14.01663,57.85029],[14.0146,57.85051],[14.01442,57.85006],[14.01382,57.84996],[14.01349,57.85017],[14.01276,57.84978],[14.01287,57.84735],[14.014,57.84664],[14.01418,57.84627],[14.01476,57.84605],[14.01497,57.84528],[14.01441,57.84503],[14.01417,57.84445],[14.0134,57.84418],[14.01299,57.84374],[14.0133,57.84192],[14.01406,57.84029],[14.01349,57.83914],[14.01416,57.83849],[14.01364,57.83748],[14.01412,57.83718],[14.01418,57.83648],[14.01368,57.83602],[14.01388,57.83463],[14.01287,57.83229],[14.01323,57.83186],[14.01313,57.8312],[14.01402,57.8306],[14.0143,57.82999],[14.0148,57.8298],[14.01483,57.82879],[14.01539,57.82831],[14.01558,57.82747],[14.01702,57.8265],[14.01734,57.82564],[14.01728,57.82534],[14.01536,57.82379],[14.01538,57.82164],[14.01093,57.80461],[13.99835,57.80417],[13.99428,57.80665],[13.97585,57.81104],[13.97151,57.81128],[13.96994,57.81161],[13.96673,57.81445],[13.965,57.81864],[13.9645,57.82035],[13.96583,57.82134],[13.96582,57.82232],[13.96269,57.82304],[13.95305,57.82453],[13.9556,57.82667],[13.95826,57.82765],[13.95873,57.82808],[13.9585,57.82984],[13.95777,57.8306],[13.95964,57.83212],[13.9598,57.83276],[13.9509,57.83463],[13.94177,57.83825],[13.94438,57.84445],[13.94517,57.84542],[13.9387,57.84794],[13.93101,57.85233],[13.92133,57.85618],[13.90544,57.84686],[13.90503,57.84616],[13.90178,57.84346],[13.90195,57.84277],[13.90173,57.84241],[13.90213,57.84175],[13.90157,57.84113],[13.8993,57.84053],[13.89886,57.84087],[13.89844,57.84074],[13.89651,57.84081],[13.89463,57.84054],[13.89416,57.84062],[13.89395,57.84026],[13.89326,57.84007],[13.89234,57.84023],[13.89184,57.84002],[13.89166,57.83958],[13.89032,57.83943],[13.88925,57.83813],[13.88842,57.83795],[13.87604,57.84479],[13.86702,57.85027],[13.86425,57.85099],[13.86458,57.85229],[13.86682,57.85656],[13.86583,57.85979],[13.87071,57.86425],[13.86961,57.86665],[13.86381,57.86822],[13.86184,57.87209],[13.86347,57.87409],[13.86074,57.87585],[13.86071,57.87676],[13.86367,57.87952],[13.86339,57.88199],[13.86498,57.88449],[13.86084,57.88683],[13.85864,57.89069],[13.85855,57.89194],[13.85598,57.89407],[13.85919,57.89616],[13.85908,57.89647],[13.86005,57.89642],[13.86017,57.89707],[13.86106,57.89774],[13.86094,57.89803],[13.86136,57.89868],[13.86396,57.89931],[13.86567,57.90012],[13.86748,57.90146],[13.87515,57.89998],[13.8744,57.89965],[13.87876,57.89848],[13.87927,57.89751],[13.88279,57.89614],[13.8838,57.8952],[13.88474,57.89488],[13.88641,57.89514],[13.88738,57.89467],[13.88766,57.89423],[13.89034,57.8935],[13.89163,57.89323],[13.89423,57.89331],[13.89464,57.89353],[13.89516,57.89439],[13.89684,57.89528],[13.89393,57.89768],[13.89502,57.89848],[13.89524,57.89892],[13.89319,57.89962],[13.89217,57.90028],[13.89282,57.9007],[13.89348,57.90187],[13.89313,57.90246],[13.89328,57.90358],[13.89416,57.90436],[13.89488,57.90467],[13.89461,57.90502],[13.89762,57.90557],[13.90018,57.9069],[13.90103,57.90781],[13.90125,57.90864],[13.90277,57.90877],[13.9021,57.90915],[13.90126,57.91028],[13.90061,57.91054],[13.90065,57.9112],[13.90107,57.9117],[13.90082,57.91211],[13.89981,57.91248],[13.90056,57.91442],[13.89998,57.9145],[13.90011,57.91493],[13.90087,57.91518],[13.90131,57.91649],[13.90705,57.91587],[13.90883,57.92174],[13.90953,57.9223],[13.91192,57.92303],[13.91432,57.92212],[13.91632,57.92248],[13.91901,57.92328],[13.92029,57.92429],[13.92166,57.92483],[13.9218,57.92522],[13.92107,57.92591],[13.92231,57.92714],[13.91916,57.9285],[13.91912,57.92894],[13.91736,57.92932],[13.91364,57.93058],[13.91344,57.931],[13.91247,57.93133],[13.91031,57.93267],[13.90917,57.9326],[13.90772,57.93222],[13.90698,57.93223],[13.90501,57.93261],[13.90362,57.93334],[13.90281,57.93589],[13.90844,57.94072],[13.90847,57.94172],[13.91079,57.94359],[13.90991,57.94469],[13.9079,57.94546],[13.90743,57.94667],[13.90814,57.94718],[13.90821,57.94757],[13.90697,57.94801],[13.90578,57.94793],[13.90459,57.94816],[13.90366,57.9486],[13.90216,57.94946],[13.89962,57.95162],[13.89936,57.95251],[13.89979,57.95405],[13.90116,57.95531],[13.90328,57.95596],[13.90738,57.95613],[13.90815,57.95691],[13.90959,57.95719],[13.9105,57.95716],[13.91013,57.95782],[13.91024,57.95823],[13.90967,57.95812],[13.90982,57.95843],[13.90912,57.9584],[13.90887,57.95858],[13.90973,57.95919],[13.90752,57.96026],[13.90773,57.96086],[13.90728,57.96112],[13.90768,57.96156],[13.90745,57.96209],[13.90781,57.96257],[13.90754,57.9626],[13.90755,57.96292],[13.90626,57.96345],[13.90658,57.96411],[13.90621,57.96593],[13.90695,57.96636],[13.90714,57.96708],[13.90673,57.96747],[13.90691,57.96807],[13.90624,57.96819],[13.9065,57.96869],[13.90696,57.96863],[13.90792,57.96923],[13.90828,57.97079],[13.90942,57.97163],[13.91001,57.97181],[13.90979,57.97195],[13.9102,57.9728],[13.91143,57.97346],[13.91199,57.97402],[13.91235,57.97477],[13.91211,57.9751],[13.91269,57.97527],[13.91231,57.97556],[13.91192,57.97554],[13.91176,57.97602],[13.91324,57.97775],[13.91337,57.97828],[13.91442,57.97852],[13.91472,57.97885],[13.91553,57.9787],[13.91602,57.97909],[13.9171,57.97921],[13.91799,57.97896],[13.91785,57.97945],[13.9182,57.97964],[13.91845,57.97948],[13.9186,57.97968],[13.91759,57.98057],[13.91783,57.98098],[13.91835,57.98111],[13.91823,57.98147],[13.91973,57.98116]]]}},{"type":"Feature","id":"0643R004","properties":{"code":"0643R004","name":"Kyrkeryd-Kråkeryd"},"geometry":{"type":"Polygon","coordinates":[[[14.09449,57.9313],[14.09777,57.93102],[14.10023,57.9304],[14.10231,57.92947],[14.10417,57.92798],[14.10496,57.92662],[14.10562,57.92421],[14.10547,57.92244],[14.10742,57.91908],[14.10719,57.91718],[14.09961,57.91753],[14.0959,57.91627],[14.09282,57.91557],[14.09092,57.91468],[14.08912,57.91413],[14.08829,57.91462],[14.08752,57.91454],[14.08666,57.91375],[14.08513,57.91403],[14.08505,57.91503],[14.0818,57.91485],[14.08057,57.91516],[14.07971,57.91513],[14.07708,57.91467],[14.07571,57.91497],[14.07334,57.9145],[14.07209,57.91468],[14.07034,57.91403],[14.06974,57.91413],[14.06909,57.91457],[14.06811,57.91468],[14.06586,57.91437],[14.06407,57.91506],[14.06345,57.91586],[14.06107,57.91628],[14.05833,57.91825],[14.05846,57.91875],[14.0627,57.91977],[14.0648,57.92071],[14.0649,57.92183],[14.06374,57.92142],[14.06348,57.92241],[14.06567,57.92248],[14.06762,57.92285],[14.07072,57.9231],[14.07231,57.92376],[14.07506,57.92454],[14.07638,57.92525],[14.07667,57.92684],[14.07797,57.92848],[14.07969,57.9296],[14.08189,57.93045],[14.08569,57.9311],[14.09449,57.9313]]]}},{"type":"Feature","id":"0643R005","properties":{"code":"0643R005","name":"Kärnekulla-Sjogarp"},"geometry":{"type":"Polygon","coordinates":[[[14.11261,57.90463],[14.11308,57.90482],[14.12141,57.90262],[14.12499,57.90218],[14.12407,57.89994],[14.12192,57.89783],[14.12065,57.89592],[14.11954,57.89499],[14.11793,57.8941],[14.11897,57.89286],[14.11943,57.89143],[14.1192,57.89002],[14.11817,57.88829],[14.11614,57.88643],[14.11411,57.88547],[14.11141,57.88468],[14.10975,57.88299],[14.10732,57.88176],[14.10466,57.88096],[14.10205,57.88056],[14.09934,57.88052],[14.09674,57.88084],[14.09437,57.88149],[14.09278,57.8822],[14.09117,57.88333],[14.09019,57.88448],[14.08778,57.88481],[14.08603,57.88525],[14.08691,57.88672],[14.08704,57.88789],[14.08523,57.89201],[14.08227,57.89272],[14.08161,57.89315],[14.081,57.89471],[14.08454,57.89639],[14.08529,57.89896],[14.08601,57.89974],[14.08724,57.8994],[14.08855,57.89928],[14.09255,57.89969],[14.09703,57.8993],[14.10559,57.89905],[14.10465,57.9048],[14.1077,57.90419],[14.10902,57.90413],[14.10922,57.90488],[14.11261,57.90463]]]}},{"type":"Feature","id":"0643R006","properties":{"code":"0643R006","name":"Kärr"},"geometry":{"type":"Polygon","coordinates":[[[14.10746,57.91891],[14.11002,57.91704],[14.11112,57.91535],[14.11152,57.91265],[14.1104,57.91056],[14.11285,57.91012],[14.11824,57.9097],[14.12065,57.90909],[14.1227,57.90817],[14.12427,57.90699],[14.12536,57.9053],[14.12548,57.90388],[14.12499,57.90218],[14.12141,57.90262],[14.11308,57.90482],[14.11261,57.90463],[14.10922,57.90488],[14.10902,57.90413],[14.1077,57.90419],[14.10465,57.9048],[14.10559,57.89905],[14.09703,57.8993],[14.09302,57.89967],[14.09247,57.90043],[14.09262,57.90156],[14.09207,57.90161],[14.09172,57.90222],[14.08965,57.90338],[14.08872,57.9042],[14.08834,57.90495],[14.08558,57.90656],[14.08353,57.91007],[14.07952,57.90969],[14.07928,57.91071],[14.08308,57.91108],[14.08277,57.91329],[14.08195,57.91348],[14.08057,57.91516],[14.0818,57.91485],[14.08505,57.91503],[14.08513,57.91403],[14.08666,57.91375],[14.08752,57.91454],[14.08829,57.91462],[14.08912,57.91413],[14.09092,57.91468],[14.09282,57.91557],[14.0959,57.91627],[14.09961,57.91753],[14.10719,57.91718],[14.10746,57.91891]]]}},{"type":"Feature","id":"0643R007","properties":{"code":"0643R007","name":"Mölekullen-Centrum"},"geometry":{"type":"Polygon","coordinates":[[[14.06348,57.92241],[14.06374,57.92142],[14.0649,57.92183],[14.0648,57.92071],[14.0627,57.91977],[14.05846,57.91875],[14.05833,57.91825],[14.05881,57.91787],[14.06075,57.91669],[14.06107,57.91628],[14.06345,57.91586],[14.06407,57.91506],[14.06586,57.91437],[14.06811,57.91468],[14.06909,57.91457],[14.06974,57.91413],[14.07034,57.91403],[14.07209,57.91468],[14.07334,57.9145],[14.07571,57.91497],[14.07708,57.91467],[14.08057,57.91516],[14.08195,57.91348],[14.08277,57.91329],[14.08308,57.91108],[14.07928,57.91071],[14.07952,57.90969],[14.08353,57.91007],[14.08558,57.90656],[14.08834,57.90495],[14.08872,57.9042],[14.08965,57.90338],[14.09172,57.90222],[14.09207,57.90161],[14.09262,57.90156],[14.09247,57.90043],[14.09302,57.89967],[14.09123,57.89956],[14.08231,57.90433],[14.07253,57.90803],[14.07211,57.9077],[14.07136,57.90775],[14.07067,57.90822],[14.06997,57.90798],[14.06896,57.90827],[14.0687,57.90791],[14.06471,57.90597],[14.06445,57.90568],[14.06558,57.9051],[14.0654,57.90491],[14.06284,57.90389],[14.05686,57.90223],[14.05714,57.90076],[14.05521,57.90029],[14.05504,57.90125],[14.05238,57.9027],[14.051,57.9043],[14.05064,57.90603],[14.05123,57.90759],[14.0482,57.90891],[14.0462,57.91076],[14.04527,57.91246],[14.04533,57.91425],[14.04678,57.91625],[14.05019,57.9184],[14.05248,57.91918],[14.05517,57.91966],[14.05761,57.92106],[14.05991,57.92184],[14.06348,57.92241]]]}}]}