{"type":"FeatureCollection","features":[{"type":"Feature","id":"0665R001","properties":{"code":"0665R001","name":"Bondstorp-Byarum omland"},"geometry":{"type":"Polygon","coordinates":[[[13.96902,57.65799],[13.97019,57.65776],[13.98333,57.64742],[13.98468,57.64684],[13.9873,57.6461],[13.98846,57.64542],[13.98978,57.64385],[13.98951,57.64313],[13.98985,57.64276],[13.99251,57.64121],[13.99388,57.64088],[13.99476,57.63957],[13.99555,57.63942],[13.99576,57.63871],[13.99473,57.63726],[13.9948,57.63684],[13.99556,57.63624],[13.99676,57.63582],[13.99773,57.63596],[13.99811,57.63622],[13.99947,57.63626],[14.00033,57.63656],[14.00086,57.63635],[14.00228,57.63626],[14.00263,57.63346],[14.00111,57.63244],[14.00347,57.63205],[14.00386,57.63176],[14.00495,57.63184],[14.00714,57.63113],[14.00776,57.63072],[14.0091,57.63062],[14.00932,57.63042],[14.01055,57.63029],[14.01202,57.62989],[14.0131,57.63005],[14.01408,57.63002],[14.01567,57.62967],[14.01743,57.62982],[14.01968,57.62776],[14.01958,57.62716],[14.02177,57.62548],[14.02206,57.62471],[14.02192,57.62324],[14.02537,57.62279],[14.02631,57.62247],[14.02632,57.6222],[14.02724,57.62184],[14.02758,57.62149],[14.02762,57.62082],[14.02725,57.62013],[14.02669,57.61992],[14.0272,57.61918],[14.02842,57.61892],[14.02915,57.61841],[14.02888,57.61827],[14.0294,57.618],[14.04508,57.62892],[14.04782,57.62892],[14.04859,57.62865],[14.04968,57.62862],[14.05013,57.62871],[14.05036,57.62901],[14.05516,57.62924],[14.05572,57.62857],[14.05755,57.62807],[14.06115,57.62872],[14.0607,57.62965],[14.06291,57.62987],[14.06415,57.62928],[14.06543,57.62931],[14.06619,57.62833],[14.0677,57.62797],[14.06738,57.62761],[14.07864,57.62197],[14.09292,57.61665],[14.11322,57.61167],[14.12596,57.61225],[14.13003,57.61338],[14.13227,57.6143],[14.13959,57.6161],[14.14187,57.62003],[14.14456,57.62636],[14.16107,57.63132],[14.17044,57.63494],[14.17584,57.6361],[14.18407,57.63924],[14.18831,57.64143],[14.19079,57.643],[14.1925,57.64373],[14.19708,57.64446],[14.19896,57.64269],[14.19982,57.64109],[14.20121,57.63938],[14.20403,57.63692],[14.2045,57.63505],[14.20355,57.6296],[14.20435,57.62441],[14.20568,57.62201],[14.20611,57.61962],[14.20595,57.6169],[14.20879,57.6141],[14.21029,57.61144],[14.20875,57.61013],[14.20886,57.60998],[14.21078,57.60891],[14.21138,57.60879],[14.2121,57.60894],[14.21252,57.60876],[14.21285,57.6089],[14.21374,57.60856],[14.21361,57.60814],[14.21419,57.60793],[14.21389,57.6075],[14.21484,57.60715],[14.21574,57.60707],[14.21503,57.60646],[14.21563,57.60615],[14.21521,57.60592],[14.21601,57.6057],[14.21597,57.60552],[14.21508,57.60529],[14.21575,57.60518],[14.21513,57.60495],[14.21595,57.60444],[14.21593,57.60406],[14.21542,57.60378],[14.21595,57.60366],[14.2159,57.60336],[14.21475,57.60337],[14.21462,57.60304],[14.2153,57.60255],[14.21512,57.6021],[14.21362,57.60152],[14.21072,57.60187],[14.20886,57.60162],[14.20813,57.60033],[14.20966,57.59925],[14.21058,57.59709],[14.21313,57.59446],[14.21318,57.59345],[14.2155,57.59223],[14.21676,57.5901],[14.21618,57.58785],[14.21567,57.58787],[14.21594,57.58694],[14.21439,57.58511],[14.21353,57.58471],[14.21348,57.58435],[14.2144,57.58251],[14.21405,57.58214],[14.21455,57.58188],[14.21505,57.58088],[14.21588,57.5809],[14.21636,57.58062],[14.21707,57.57968],[14.21692,57.57882],[14.2173,57.57841],[14.21734,57.57719],[14.21697,57.57666],[14.21634,57.57655],[14.21651,57.57603],[14.21725,57.57577],[14.21798,57.5747],[14.21716,57.57402],[14.2172,57.57372],[14.21765,57.57338],[14.21775,57.57286],[14.22605,57.56884],[14.22942,57.56594],[14.22503,57.55422],[14.22866,57.55204],[14.22737,57.55048],[14.22821,57.54973],[14.22839,57.54918],[14.22975,57.54854],[14.23043,57.54842],[14.22976,57.54664],[14.23026,57.54542],[14.2328,57.54394],[14.2347,57.54156],[14.23419,57.54019],[14.23351,57.53988],[14.2357,57.53756],[14.23111,57.53541],[14.2256,57.53838],[14.22094,57.53899],[14.219,57.53793],[14.21819,57.53523],[14.21916,57.53365],[14.21046,57.5337],[14.2037,57.53172],[14.20528,57.52883],[14.20406,57.52626],[14.20211,57.52416],[14.20163,57.52316],[14.19177,57.52019],[14.18954,57.52066],[14.18187,57.51111],[14.18233,57.51061],[14.17984,57.50752],[14.17791,57.50756],[14.17726,57.50918],[14.176,57.51045],[14.17303,57.51224],[14.17029,57.51326],[14.16565,57.51428],[14.16237,57.51457],[14.16038,57.51447],[14.15756,57.51406],[14.1547,57.51329],[14.15112,57.51471],[14.14978,57.5157],[14.14829,57.51642],[14.14598,57.51712],[14.14401,57.51743],[14.14138,57.51753],[14.13645,57.51725],[14.12883,57.51611],[14.12637,57.51548],[14.12465,57.51476],[14.12102,57.51411],[14.1184,57.51302],[14.11652,57.51151],[14.11502,57.50921],[14.11341,57.50801],[14.11232,57.50633],[14.11215,57.50526],[14.11266,57.50352],[14.11265,57.5022],[14.11201,57.50103],[14.11184,57.49991],[14.11274,57.49734],[14.10918,57.49768],[14.10655,57.49759],[14.10398,57.49714],[14.10124,57.49614],[14.09922,57.49472],[14.09807,57.49291],[14.09642,57.49154],[14.09463,57.48927],[14.09395,57.48748],[14.09377,57.48582],[14.09431,57.48438],[14.09522,57.48331],[14.09677,57.48219],[14.09711,57.48113],[14.09812,57.47982],[14.10024,57.47841],[14.10303,57.47744],[14.10624,57.47699],[14.10924,57.47704],[14.11244,57.47758],[14.11368,57.47766],[14.11398,57.47748],[14.11383,57.47726],[14.11305,57.4771],[14.11353,57.47667],[14.1134,57.47645],[14.11265,57.47596],[14.11175,57.47576],[14.11312,57.47508],[14.11273,57.47498],[14.11204,57.47525],[14.11156,57.4752],[14.11079,57.47505],[14.10992,57.47459],[14.11002,57.47411],[14.10978,57.47391],[14.1103,57.47338],[14.11085,57.4733],[14.11142,57.47282],[14.11043,57.47164],[14.1118,57.47113],[14.11179,57.47086],[14.11052,57.47009],[14.10991,57.46933],[14.10867,57.46904],[14.10788,57.4686],[14.10891,57.46831],[14.10895,57.46815],[14.10772,57.46797],[14.10716,57.46771],[14.10585,57.46692],[14.10559,57.4664],[14.10489,57.46613],[14.10439,57.46648],[14.10447,57.4669],[14.10268,57.46675],[14.10143,57.46745],[14.10074,57.46737],[14.10016,57.46784],[14.09882,57.46785],[14.09853,57.46811],[14.09796,57.46815],[14.09905,57.47531],[14.09677,57.47277],[14.09597,57.47042],[14.09424,57.47066],[14.09091,57.47166],[14.09024,57.47155],[14.08972,57.47121],[14.08811,57.47118],[14.08654,57.46681],[14.0585,57.46851],[14.05175,57.47438],[14.0467,57.4823],[14.04133,57.47859],[14.03044,57.47458],[14.01113,57.47562],[14.01029,57.47484],[14.01022,57.47384],[14.00989,57.47337],[14.00856,57.47271],[14.00862,57.47396],[14.00751,57.47472],[14.00678,57.47478],[14.00609,57.47431],[14.00544,57.47443],[14.00473,57.47397],[14.00407,57.47401],[14.0035,57.47424],[14.00319,57.47498],[14.00091,57.47537],[13.99818,57.47559],[13.99789,57.4757],[13.9979,57.47643],[13.99666,57.47693],[13.99571,57.47687],[13.99476,57.47706],[13.99497,57.47729],[13.99455,57.4777],[13.99371,57.47769],[13.99296,57.4779],[13.99158,57.47758],[13.97791,57.48049],[13.97671,57.48146],[13.96863,57.47854],[13.96147,57.49048],[13.96053,57.49456],[13.96003,57.49494],[13.95887,57.49518],[13.9233,57.49528],[13.92208,57.49505],[13.91982,57.49585],[13.91892,57.49562],[13.91868,57.49574],[13.91747,57.49564],[13.91671,57.49538],[13.91589,57.4954],[13.91533,57.4945],[13.91521,57.49302],[13.91557,57.49141],[13.91533,57.49111],[13.91562,57.4906],[13.91533,57.48994],[13.91093,57.48872],[13.91,57.49188],[13.909,57.49268],[13.90954,57.49394],[13.90929,57.49535],[13.91061,57.49638],[13.90942,57.49655],[13.90811,57.49634],[13.90795,57.49653],[13.90742,57.49646],[13.9066,57.49736],[13.90754,57.5071],[13.90695,57.50778],[13.90739,57.50858],[13.90706,57.50891],[13.90725,57.50974],[13.90681,57.51087],[13.90724,57.51188],[13.9059,57.51456],[13.90592,57.51482],[13.9063,57.51484],[13.90582,57.51652],[13.90435,57.51716],[13.90434,57.51766],[13.90482,57.51821],[13.90357,57.52039],[13.90365,57.52262],[13.90184,57.52662],[13.90278,57.52742],[13.90274,57.52812],[13.9048,57.53212],[13.90195,57.53487],[13.90196,57.5352],[13.90082,57.53562],[13.90006,57.53619],[13.89987,57.53683],[13.89899,57.53722],[13.89841,57.53908],[13.89773,57.53929],[13.89717,57.53923],[13.89624,57.53959],[13.89573,57.54071],[13.89516,57.54079],[13.89508,57.54105],[13.89354,57.54115],[13.89281,57.54165],[13.89277,57.5429],[13.89357,57.54372],[13.8931,57.54438],[13.89353,57.54543],[13.8941,57.54596],[13.8938,57.54601],[13.8939,57.54628],[13.89341,57.54658],[13.89317,57.54774],[13.89275,57.54801],[13.89313,57.54841],[13.89327,57.54989],[13.89243,57.55039],[13.8919,57.55158],[13.89138,57.55169],[13.89136,57.55191],[13.89047,57.55168],[13.89026,57.55186],[13.88896,57.552],[13.88794,57.5524],[13.88792,57.55282],[13.88735,57.55286],[13.88683,57.55342],[13.88384,57.55419],[13.88396,57.55582],[13.88066,57.56219],[13.88471,57.56452],[13.88487,57.5651],[13.88572,57.56546],[13.88604,57.56627],[13.89031,57.56694],[13.89165,57.5674],[13.89521,57.56816],[13.90077,57.57575],[13.89502,57.57621],[13.87584,57.57846],[13.8589,57.58074],[13.86006,57.58335],[13.86151,57.585],[13.86395,57.5887],[13.8636,57.58879],[13.86395,57.58944],[13.86475,57.59009],[13.86582,57.59194],[13.86698,57.59311],[13.8493,57.59544],[13.84869,57.5971],[13.84798,57.5977],[13.84809,57.59833],[13.84726,57.59856],[13.84693,57.59887],[13.84686,57.59932],[13.84752,57.59937],[13.84711,57.59986],[13.84496,57.6],[13.84364,57.60073],[13.84366,57.60136],[13.84309,57.60182],[13.84241,57.60198],[13.84237,57.60218],[13.84332,57.60303],[13.83554,57.60719],[13.83312,57.60672],[13.83156,57.6067],[13.82884,57.60634],[13.82774,57.60648],[13.82711,57.60695],[13.82631,57.60699],[13.82574,57.60735],[13.82529,57.60738],[13.82551,57.60767],[13.82504,57.60809],[13.82629,57.61031],[13.82611,57.61129],[13.82652,57.61202],[13.82637,57.61304],[13.82967,57.61382],[13.83035,57.61382],[13.83057,57.61359],[13.83132,57.61393],[13.83215,57.61352],[13.8335,57.61406],[13.83399,57.61406],[13.83408,57.61388],[13.83457,57.61431],[13.83563,57.61444],[13.83583,57.61517],[13.83629,57.61508],[13.83659,57.6153],[13.83732,57.61535],[13.83748,57.6151],[13.8377,57.61523],[13.83824,57.61499],[13.8388,57.61543],[13.83904,57.61517],[13.84028,57.61512],[13.84002,57.61557],[13.8408,57.61537],[13.84113,57.61546],[13.84327,57.61696],[13.84408,57.61703],[13.84475,57.61769],[13.84527,57.61784],[13.84653,57.61764],[13.84749,57.6188],[13.84794,57.61867],[13.8485,57.61898],[13.84895,57.61986],[13.84967,57.62008],[13.85097,57.62145],[13.85288,57.62231],[13.85347,57.62289],[13.85648,57.62229],[13.86955,57.62083],[13.87472,57.61956],[13.8782,57.61903],[13.88561,57.61722],[13.88876,57.61688],[13.9043,57.6136],[13.91726,57.61031],[13.91829,57.61118],[13.91945,57.61673],[13.92098,57.61681],[13.92101,57.61727],[13.92142,57.61735],[13.92183,57.618],[13.92219,57.61794],[13.92244,57.61811],[13.92279,57.61794],[13.92398,57.61817],[13.9242,57.61838],[13.92401,57.61861],[13.92446,57.61899],[13.92612,57.61953],[13.92632,57.61993],[13.92903,57.61988],[13.93304,57.61941],[13.93481,57.6197],[13.93573,57.62005],[13.93668,57.61993],[13.93835,57.62007],[13.94081,57.62088],[13.94137,57.62197],[13.94184,57.62226],[13.94375,57.62251],[13.9442,57.62236],[13.94478,57.62243],[13.94558,57.62287],[13.94604,57.62403],[13.94709,57.62426],[13.94936,57.62418],[13.95296,57.62373],[13.95286,57.62552],[13.95259,57.62614],[13.95175,57.62673],[13.95176,57.62767],[13.95243,57.62835],[13.95229,57.62862],[13.95297,57.62963],[13.95457,57.63121],[13.95813,57.64064],[13.96153,57.64783],[13.96371,57.65079],[13.96418,57.65242],[13.96523,57.65381],[13.96534,57.65447],[13.96734,57.65518],[13.96758,57.65569],[13.96869,57.65621],[13.96932,57.65741],[13.96902,57.65799]]]}},{"type":"Feature","id":"0665R002","properties":{"code":"0665R002","name":"Hok-Svenarum omland"},"geometry":{"type":"Polygon","coordinates":[[[14.25614,57.56349],[14.26613,57.56147],[14.27467,57.56298],[14.27672,57.56282],[14.27717,57.56255],[14.27741,57.56191],[14.27722,57.56137],[14.27745,57.56074],[14.2781,57.56037],[14.28001,57.56016],[14.28029,57.55903],[14.28128,57.5591],[14.28155,57.55986],[14.28189,57.56004],[14.28315,57.55971],[14.28387,57.55855],[14.28377,57.55769],[14.28474,57.55742],[14.28396,57.55693],[14.28424,57.55516],[14.28403,57.55452],[14.28442,57.55394],[14.28421,57.55325],[14.28448,57.55306],[14.28512,57.55337],[14.28585,57.55321],[14.28628,57.55343],[14.2862,57.55414],[14.28693,57.55468],[14.28678,57.55513],[14.28759,57.55521],[14.28742,57.55567],[14.28865,57.55608],[14.28856,57.5566],[14.28947,57.55686],[14.28963,57.5573],[14.28999,57.55729],[14.29081,57.55784],[14.29121,57.55779],[14.29136,57.55747],[14.29183,57.55772],[14.2921,57.55752],[14.29332,57.55739],[14.29459,57.5569],[14.29455,57.55643],[14.29499,57.55624],[14.29435,57.55586],[14.29479,57.55556],[14.29422,57.55536],[14.29431,57.55505],[14.29395,57.55493],[14.29424,57.55426],[14.29563,57.55334],[14.29755,57.55259],[14.29835,57.55266],[14.30006,57.55245],[14.29999,57.5521],[14.30085,57.55186],[14.30125,57.55122],[14.30172,57.54978],[14.30317,57.54934],[14.30371,57.54887],[14.30584,57.54782],[14.30622,57.54725],[14.30849,57.5458],[14.30859,57.54521],[14.30896,57.54499],[14.30882,57.54465],[14.31054,57.5433],[14.33116,57.54049],[14.33153,57.54023],[14.3312,57.53957],[14.31394,57.53178],[14.32662,57.52625],[14.33476,57.52482],[14.33774,57.52508],[14.33996,57.52136],[14.33973,57.51999],[14.34074,57.51937],[14.34144,57.5194],[14.34221,57.51969],[14.34336,57.51952],[14.34421,57.51875],[14.3457,57.51825],[14.3466,57.51755],[14.34723,57.51776],[14.34837,57.5175],[14.34906,57.51665],[14.3502,57.5175],[14.35096,57.5177],[14.35132,57.51767],[14.35265,57.51687],[14.36197,57.51584],[14.36431,57.51588],[14.37672,57.51741],[14.39277,57.51521],[14.39549,57.51362],[14.39585,57.51064],[14.39782,57.51052],[14.39937,57.51082],[14.40002,57.51033],[14.40153,57.50994],[14.40375,57.51063],[14.40475,57.51074],[14.40523,57.51058],[14.40509,57.51036],[14.4237,57.50982],[14.42651,57.50615],[14.43802,57.50681],[14.44086,57.50484],[14.43455,57.49793],[14.43662,57.49208],[14.43754,57.49223],[14.43988,57.49197],[14.44421,57.49075],[14.44538,57.49078],[14.44738,57.49045],[14.45175,57.48935],[14.4505,57.4878],[14.44965,57.48724],[14.44763,57.48667],[14.44674,57.48676],[14.44508,57.48602],[14.44484,57.48465],[14.44754,57.4821],[14.4495,57.48191],[14.45047,57.48158],[14.45311,57.47646],[14.45259,57.47526],[14.45148,57.47443],[14.45141,57.47385],[14.45041,57.47321],[14.45027,57.4728],[14.44886,57.47283],[14.44528,57.47347],[14.4426,57.4737],[14.44141,57.4737],[14.44056,57.47333],[14.43962,57.47323],[14.43777,57.4733],[14.43735,57.47283],[14.43762,57.47265],[14.43707,57.47238],[14.43722,57.4722],[14.43618,57.47183],[14.43609,57.47111],[14.4371,57.46962],[14.43633,57.46928],[14.43579,57.46835],[14.43533,57.46832],[14.43487,57.46853],[14.43432,57.46846],[14.43348,57.46774],[14.42954,57.46647],[14.42856,57.46653],[14.42862,57.4664],[14.42718,57.46634],[14.42639,57.46606],[14.42594,57.4663],[14.42551,57.46609],[14.42486,57.4661],[14.42461,57.46535],[14.42371,57.46517],[14.42332,57.46483],[14.42276,57.46479],[14.42223,57.46426],[14.4207,57.46393],[14.42057,57.46296],[14.4203,57.46292],[14.41787,57.46489],[14.41768,57.46557],[14.41715,57.4658],[14.41619,57.46574],[14.41574,57.46555],[14.41413,57.46397],[14.40899,57.46107],[14.40868,57.46099],[14.40733,57.46164],[14.40705,57.46079],[14.3973,57.46217],[14.38125,57.46381],[14.37694,57.45445],[14.37753,57.45228],[14.37685,57.45069],[14.37577,57.44841],[14.37128,57.44188],[14.37064,57.43995],[14.36923,57.43816],[14.36949,57.43741],[14.36893,57.43584],[14.36917,57.43512],[14.36858,57.42775],[14.36882,57.42569],[14.36792,57.42514],[14.36782,57.42383],[14.36702,57.42313],[14.36655,57.42182],[14.36847,57.41993],[14.36767,57.41952],[14.36481,57.40825],[14.36777,57.39986],[14.3684,57.38724],[14.36406,57.38242],[14.35305,57.38034],[14.34845,57.37912],[14.34739,57.37867],[14.34515,57.37856],[14.34374,57.3774],[14.3429,57.37707],[14.33438,57.37504],[14.33269,57.37479],[14.33293,57.36933],[14.33417,57.36825],[14.3334,57.3671],[14.33186,57.36761],[14.33168,57.36824],[14.32728,57.36898],[14.31409,57.36534],[14.30937,57.36558],[14.31033,57.36658],[14.29224,57.37411],[14.28787,57.37331],[14.28378,57.37084],[14.27924,57.36931],[14.27942,57.36721],[14.27726,57.36577],[14.2787,57.36515],[14.27935,57.36364],[14.27358,57.36257],[14.27176,57.36176],[14.26863,57.3613],[14.26768,57.36087],[14.26787,57.36015],[14.26664,57.36009],[14.26685,57.35961],[14.26534,57.35852],[14.2626,57.35907],[14.23,57.38437],[14.23651,57.38963],[14.24833,57.40315],[14.25219,57.408],[14.25072,57.42656],[14.24866,57.43502],[14.25118,57.43958],[14.25152,57.441],[14.2533,57.44094],[14.25316,57.44181],[14.25398,57.44326],[14.25488,57.4434],[14.25617,57.44518],[14.26318,57.45255],[14.25474,57.45111],[14.25379,57.4537],[14.24219,57.45418],[14.22886,57.45271],[14.23114,57.46534],[14.23219,57.46538],[14.23211,57.46623],[14.23116,57.46627],[14.23081,57.46709],[14.23037,57.46726],[14.22138,57.47854],[14.21253,57.47974],[14.20811,57.48281],[14.20538,57.48634],[14.20542,57.48702],[14.20391,57.48667],[14.20294,57.48754],[14.20191,57.48766],[14.19909,57.48723],[14.19239,57.48722],[14.19223,57.48603],[14.19148,57.48492],[14.19129,57.4836],[14.19238,57.48101],[14.19175,57.48076],[14.18843,57.47815],[14.18798,57.47705],[14.18622,57.47596],[14.186,57.47561],[14.18423,57.47499],[14.18264,57.47397],[14.1792,57.47292],[14.17686,57.47372],[14.17827,57.47632],[14.16946,57.47664],[14.16975,57.47534],[14.16674,57.47497],[14.16687,57.47571],[14.16627,57.47691],[14.15917,57.47625],[14.15907,57.47657],[14.15802,57.47673],[14.15718,57.47662],[14.15616,57.4769],[14.15568,57.47998],[14.15753,57.48167],[14.15544,57.48189],[14.15216,57.48183],[14.15094,57.48257],[14.15098,57.48288],[14.14878,57.48333],[14.15182,57.48411],[14.15345,57.48475],[14.15505,57.48569],[14.15639,57.48686],[14.16016,57.48653],[14.16348,57.48687],[14.16766,57.48804],[14.17026,57.48964],[14.17159,57.49167],[14.17144,57.49376],[14.17322,57.49511],[14.17411,57.49648],[14.17433,57.49789],[14.17394,57.49921],[14.17567,57.5008],[14.17654,57.50214],[14.17677,57.50321],[14.17658,57.5044],[14.17771,57.50599],[14.17791,57.50756],[14.17984,57.50752],[14.18233,57.51061],[14.18187,57.51111],[14.18954,57.52066],[14.19177,57.52019],[14.20163,57.52316],[14.20211,57.52416],[14.20406,57.52626],[14.20528,57.52883],[14.2037,57.53172],[14.21046,57.5337],[14.21916,57.53365],[14.21819,57.53523],[14.219,57.53793],[14.22094,57.53899],[14.2256,57.53838],[14.23111,57.53541],[14.2357,57.53756],[14.23351,57.53988],[14.23419,57.54019],[14.2347,57.54156],[14.2328,57.54394],[14.23026,57.54542],[14.22976,57.54664],[14.22998,57.54752],[14.2319,57.54743],[14.23162,57.54783],[14.23703,57.54722],[14.23773,57.55016],[14.24214,57.55211],[14.24751,57.55246],[14.24907,57.55524],[14.25347,57.55697],[14.25574,57.55921],[14.25614,57.56349]]]}},{"type":"Feature","id":"0665R003","properties":{"code":"0665R003","name":"Skillingaryd västra"},"geometry":{"type":"Polygon","coordinates":[[[14.09515,57.46651],[14.09921,57.46637],[14.10232,57.46576],[14.10495,57.46464],[14.10702,57.46283],[14.10765,57.46143],[14.10773,57.45867],[14.10717,57.45692],[14.10677,57.45402],[14.10786,57.4508],[14.10778,57.44876],[14.10629,57.44634],[14.10446,57.44621],[14.09711,57.4479],[14.0923,57.44963],[14.09098,57.44965],[14.08904,57.44939],[14.08928,57.44823],[14.08891,57.44802],[14.08799,57.44569],[14.08619,57.43675],[14.08723,57.43418],[14.08822,57.43306],[14.08853,57.43154],[14.08884,57.43147],[14.08934,57.4305],[14.08893,57.42969],[14.09011,57.42916],[14.09029,57.42889],[14.09124,57.42887],[14.09159,57.42848],[14.0912,57.42809],[14.09135,57.42768],[14.09161,57.42708],[14.09225,57.42672],[14.09222,57.42607],[14.0931,57.42529],[14.09284,57.42503],[14.09329,57.42453],[14.09262,57.42405],[14.09341,57.42403],[14.09259,57.42392],[14.09253,57.42369],[14.09371,57.42357],[14.09507,57.42206],[14.09742,57.41721],[14.09492,57.417],[14.09209,57.41717],[14.09116,57.41559],[14.08956,57.41397],[14.08697,57.41234],[14.08484,57.41155],[14.08301,57.41116],[14.08047,57.41095],[14.07854,57.41101],[14.07608,57.41141],[14.07387,57.41212],[14.07175,57.41329],[14.07058,57.41436],[14.06785,57.41498],[14.06575,57.41588],[14.06356,57.41767],[14.06276,57.41977],[14.06311,57.42172],[14.06297,57.4234],[14.06335,57.42462],[14.06271,57.4265],[14.06316,57.4315],[14.06396,57.43288],[14.06538,57.43411],[14.06729,57.43508],[14.06979,57.43581],[14.06996,57.43769],[14.07074,57.43903],[14.0721,57.44021],[14.07459,57.44157],[14.07451,57.44268],[14.07484,57.44383],[14.07304,57.44558],[14.07247,57.44734],[14.07384,57.45286],[14.07464,57.45424],[14.07603,57.45544],[14.07747,57.45623],[14.07935,57.45692],[14.08153,57.4574],[14.08196,57.45958],[14.08275,57.46094],[14.08736,57.4647],[14.0889,57.46543],[14.09117,57.46611],[14.09515,57.46651]]]}},{"type":"Feature","id":"0665R004","properties":{"code":"0665R004","name":"Skillingaryd östra"},"geometry":{"type":"Polygon","coordinates":[[[14.0923,57.44963],[14.09711,57.4479],[14.10446,57.44621],[14.10629,57.44634],[14.10805,57.44327],[14.10965,57.43925],[14.11098,57.43807],[14.11241,57.43581],[14.11282,57.43281],[14.11251,57.43107],[14.11362,57.42905],[14.11433,57.42473],[14.11408,57.42316],[14.11198,57.42042],[14.11055,57.41927],[14.10807,57.41816],[14.10496,57.4175],[14.10226,57.41737],[14.09969,57.4176],[14.09742,57.41721],[14.09507,57.42206],[14.09371,57.42357],[14.09253,57.42369],[14.09259,57.42392],[14.09341,57.42403],[14.09262,57.42405],[14.09329,57.42453],[14.09284,57.42503],[14.0931,57.42529],[14.09222,57.42607],[14.09225,57.42672],[14.09161,57.42708],[14.09135,57.42768],[14.0912,57.42809],[14.09159,57.42848],[14.09124,57.42887],[14.09029,57.42889],[14.09011,57.42916],[14.08893,57.42969],[14.08934,57.4305],[14.08884,57.43147],[14.08853,57.43154],[14.08822,57.43306],[14.08723,57.43418],[14.08617,57.43686],[14.08673,57.44039],[14.08801,57.44485],[14.08799,57.44569],[14.08891,57.44802],[14.08928,57.44823],[14.08904,57.44939],[14.09098,57.44965],[14.0923,57.44963]]]}},{"type":"Feature","id":"0665R005","properties":{"code":"0665R005","name":"Vaggeryd norra"},"geometry":{"type":"Polygon","coordinates":[[[14.14206,57.51754],[14.14529,57.51725],[14.14772,57.51663],[14.14978,57.5157],[14.15112,57.51471],[14.1547,57.51329],[14.15691,57.51394],[14.15971,57.51439],[14.16369,57.51452],[14.16565,57.51428],[14.17029,57.51326],[14.17319,57.51216],[14.16086,57.50594],[14.13337,57.49265],[14.13281,57.49352],[14.13335,57.4947],[14.13263,57.49515],[14.1334,57.49601],[14.13297,57.49649],[14.13329,57.49747],[14.13304,57.49783],[14.13205,57.49819],[14.13038,57.49925],[14.13203,57.50207],[14.13166,57.50316],[14.13183,57.50484],[14.13079,57.50601],[14.12905,57.50709],[14.12894,57.50755],[14.12612,57.51062],[14.1151,57.5094],[14.11652,57.51151],[14.11753,57.51245],[14.11932,57.51349],[14.12102,57.51411],[14.12465,57.51476],[14.12637,57.51548],[14.12883,57.51611],[14.13639,57.51724],[14.14206,57.51754]]]}},{"type":"Feature","id":"0665R006","properties":{"code":"0665R006","name":"Vaggeryd västra"},"geometry":{"type":"Polygon","coordinates":[[[14.12894,57.50755],[14.12905,57.50709],[14.13079,57.50601],[14.13183,57.50484],[14.13166,57.50316],[14.13203,57.50207],[14.13038,57.49925],[14.13205,57.49819],[14.13304,57.49783],[14.13329,57.49747],[14.13297,57.49649],[14.1334,57.49601],[14.13263,57.49515],[14.13335,57.4947],[14.13281,57.49352],[14.13285,57.49315],[14.13344,57.49279],[14.13313,57.49215],[14.13346,57.491],[14.13583,57.49145],[14.13634,57.49071],[14.13781,57.49065],[14.1381,57.49083],[14.13636,57.49172],[14.13819,57.49215],[14.13886,57.49196],[14.14009,57.49106],[14.13979,57.49024],[14.13997,57.48907],[14.14092,57.48843],[14.1417,57.48646],[14.1486,57.4849],[14.14983,57.48363],[14.14646,57.48283],[14.1445,57.48256],[14.14044,57.48235],[14.13773,57.48247],[14.13401,57.48158],[14.12926,57.48105],[14.12634,57.47978],[14.12401,57.47914],[14.12216,57.47888],[14.1198,57.47883],[14.11479,57.4778],[14.11244,57.47758],[14.10992,57.47711],[14.10624,57.47699],[14.10303,57.47744],[14.10024,57.47841],[14.09848,57.4795],[14.09732,57.48078],[14.09677,57.48219],[14.09522,57.48331],[14.09413,57.48471],[14.09375,57.4865],[14.09428,57.48851],[14.09644,57.49157],[14.09807,57.49291],[14.09867,57.49407],[14.09957,57.49504],[14.10124,57.49614],[14.10282,57.4968],[14.10461,57.49729],[14.10718,57.49764],[14.10988,57.49764],[14.11274,57.49734],[14.11184,57.49991],[14.11201,57.50103],[14.11265,57.5022],[14.11222,57.50597],[14.11311,57.50768],[14.1151,57.5094],[14.12612,57.51062],[14.12894,57.50755]]]}},{"type":"Feature","id":"0665R007","properties":{"code":"0665R007","name":"Vaggeryd östra"},"geometry":{"type":"Polygon","coordinates":[[[14.17319,57.51216],[14.17562,57.51073],[14.177,57.50952],[14.17779,57.50814],[14.17791,57.50672],[14.17754,57.50563],[14.17658,57.5044],[14.17677,57.50321],[14.17638,57.50178],[14.17565,57.50078],[14.17394,57.49921],[14.17434,57.49755],[14.17395,57.49612],[14.17292,57.49481],[14.17144,57.49376],[14.17167,57.49203],[14.17087,57.4903],[14.16911,57.48878],[14.16656,57.48764],[14.16348,57.48687],[14.16146,57.48659],[14.15889,57.48655],[14.15639,57.48686],[14.15505,57.48569],[14.15348,57.48477],[14.15186,57.48413],[14.14983,57.48363],[14.1486,57.4849],[14.1417,57.48646],[14.14092,57.48843],[14.13997,57.48907],[14.13979,57.49024],[14.14009,57.49106],[14.13935,57.49172],[14.13819,57.49215],[14.13636,57.49172],[14.1381,57.49083],[14.1375,57.4906],[14.13634,57.49071],[14.13583,57.49145],[14.13346,57.491],[14.13313,57.49215],[14.13337,57.49265],[14.16086,57.50594],[14.17319,57.51216]]]}},{"type":"Feature","id":"0665R008","properties":{"code":"0665R008","name":"Åker-Tofteryd omland"},"geometry":{"type":"Polygon","coordinates":[[[13.91982,57.49585],[13.92208,57.49505],[13.9233,57.49528],[13.95583,57.49509],[13.95858,57.4952],[13.96003,57.49494],[13.96053,57.49456],[13.96147,57.49048],[13.96863,57.47854],[13.97671,57.48146],[13.97791,57.48049],[13.99158,57.47758],[13.99296,57.4779],[13.99371,57.47769],[13.99455,57.4777],[13.99497,57.47729],[13.99476,57.47706],[13.99571,57.47687],[13.99666,57.47693],[13.9979,57.47643],[13.99789,57.4757],[13.99818,57.47559],[14.00091,57.47537],[14.00319,57.47498],[14.0035,57.47424],[14.00407,57.47401],[14.00473,57.47397],[14.00544,57.47443],[14.00609,57.47431],[14.00678,57.47478],[14.00751,57.47472],[14.00862,57.47396],[14.00856,57.47271],[14.00989,57.47337],[14.01022,57.47384],[14.01029,57.47484],[14.01113,57.47562],[14.03044,57.47458],[14.04133,57.47859],[14.0467,57.4823],[14.05175,57.47438],[14.0585,57.46851],[14.08654,57.46681],[14.08811,57.47118],[14.08972,57.47121],[14.09024,57.47155],[14.09091,57.47166],[14.09424,57.47066],[14.09597,57.47042],[14.09677,57.47277],[14.09905,57.47531],[14.09796,57.46815],[14.09853,57.46811],[14.09882,57.46785],[14.10016,57.46784],[14.10074,57.46737],[14.10143,57.46745],[14.10268,57.46675],[14.10447,57.4669],[14.10443,57.4664],[14.10501,57.46616],[14.10716,57.46771],[14.10772,57.46797],[14.10895,57.46815],[14.10891,57.46831],[14.10788,57.4686],[14.10867,57.46904],[14.10991,57.46933],[14.11052,57.47009],[14.11187,57.47096],[14.11043,57.47164],[14.11137,57.47299],[14.1103,57.47338],[14.10975,57.474],[14.11002,57.47411],[14.10992,57.47459],[14.11079,57.47505],[14.11204,57.47525],[14.11273,57.47498],[14.11312,57.47508],[14.11175,57.47576],[14.11265,57.47596],[14.1134,57.47645],[14.11353,57.47667],[14.11305,57.4771],[14.11398,57.47736],[14.11368,57.47766],[14.1198,57.47883],[14.12216,57.47888],[14.12401,57.47914],[14.12634,57.47978],[14.12926,57.48105],[14.13401,57.48158],[14.13773,57.48247],[14.14044,57.48235],[14.1445,57.48256],[14.14878,57.48333],[14.15098,57.48288],[14.15094,57.48257],[14.15216,57.48183],[14.15544,57.48189],[14.15753,57.48167],[14.15568,57.47998],[14.15616,57.4769],[14.15718,57.47662],[14.15802,57.47673],[14.15907,57.47657],[14.15917,57.47625],[14.16627,57.47691],[14.16687,57.47571],[14.16674,57.47497],[14.16975,57.47534],[14.16946,57.47664],[14.17827,57.47632],[14.17686,57.47372],[14.1792,57.47292],[14.18264,57.47397],[14.18423,57.47499],[14.186,57.47561],[14.18622,57.47596],[14.18798,57.47705],[14.18843,57.47815],[14.19175,57.48076],[14.19238,57.48101],[14.19129,57.4836],[14.19148,57.48492],[14.19223,57.48603],[14.19239,57.48722],[14.19291,57.48727],[14.19909,57.48723],[14.20191,57.48766],[14.20294,57.48754],[14.20391,57.48667],[14.20542,57.48702],[14.20538,57.48634],[14.20811,57.48281],[14.21253,57.47974],[14.22138,57.47854],[14.23037,57.46726],[14.23081,57.46709],[14.23116,57.46627],[14.23211,57.46623],[14.23235,57.46575],[14.23219,57.46538],[14.23114,57.46534],[14.22886,57.45271],[14.24219,57.45418],[14.25379,57.4537],[14.25474,57.45111],[14.26318,57.45255],[14.25617,57.44518],[14.25488,57.4434],[14.25398,57.44326],[14.25316,57.44181],[14.2533,57.44094],[14.25152,57.441],[14.25118,57.43958],[14.24866,57.43502],[14.25072,57.42656],[14.25219,57.408],[14.24833,57.40315],[14.23651,57.38963],[14.23,57.38437],[14.2626,57.35907],[14.26534,57.35852],[14.26685,57.35961],[14.26664,57.36009],[14.26787,57.36015],[14.26768,57.36087],[14.26863,57.3613],[14.27176,57.36176],[14.27358,57.36257],[14.27935,57.36364],[14.2787,57.36515],[14.27726,57.36577],[14.27942,57.36721],[14.27924,57.36931],[14.28378,57.37084],[14.28787,57.37331],[14.29224,57.37411],[14.31033,57.36658],[14.30725,57.36392],[14.30613,57.36325],[14.30486,57.36287],[14.30417,57.36135],[14.30345,57.36144],[14.30165,57.36079],[14.30078,57.35974],[14.28949,57.34945],[14.27699,57.34824],[14.27368,57.34719],[14.27367,57.30768],[14.25651,57.30885],[14.24226,57.30747],[14.23219,57.32133],[14.22828,57.32539],[14.22495,57.32757],[14.22581,57.32898],[14.22506,57.33105],[14.22403,57.33108],[14.2235,57.33086],[14.22211,57.33088],[14.2202,57.32956],[14.21921,57.32927],[14.22013,57.32821],[14.21951,57.32731],[14.22004,57.32632],[14.21936,57.32615],[14.21871,57.32676],[14.21834,57.32689],[14.21803,57.32678],[14.21702,57.32549],[14.21775,57.3242],[14.21721,57.32376],[14.21641,57.32367],[14.2164,57.32296],[14.2157,57.3221],[14.21524,57.322],[14.21431,57.32229],[14.21338,57.32231],[14.21127,57.32158],[14.21095,57.32016],[14.20989,57.31977],[14.20968,57.31949],[14.20958,57.31875],[14.21001,57.3175],[14.20965,57.31719],[14.20852,57.31733],[14.20792,57.31712],[14.2071,57.31594],[14.20559,57.31624],[14.20448,57.31668],[14.2024,57.31584],[14.19719,57.316],[14.19691,57.31585],[14.19712,57.31534],[14.19661,57.31509],[14.19485,57.31548],[14.19363,57.3152],[14.18175,57.31714],[14.18314,57.31675],[14.18371,57.31588],[14.17715,57.31582],[14.17673,57.31609],[14.17669,57.31757],[14.17896,57.31754],[14.16877,57.31913],[14.14936,57.31504],[14.12763,57.3094],[14.09156,57.30117],[14.09117,57.30173],[14.09071,57.30169],[14.09157,57.30243],[14.09227,57.30404],[14.09248,57.30504],[14.09219,57.30594],[14.09254,57.30712],[14.09179,57.30882],[14.09121,57.309],[14.09117,57.30957],[14.09154,57.30972],[14.09255,57.30972],[14.09249,57.31012],[14.09141,57.31074],[14.09171,57.31134],[14.09295,57.31175],[14.0927,57.31198],[14.09177,57.31191],[14.09141,57.31213],[14.09229,57.3125],[14.0919,57.31382],[14.09392,57.3143],[14.09384,57.31455],[14.09298,57.31451],[14.09315,57.31488],[14.09403,57.31507],[14.09346,57.31539],[14.09345,57.31579],[14.0952,57.31609],[14.09529,57.31645],[14.09491,57.3169],[14.09583,57.31727],[14.09499,57.31764],[14.09479,57.31809],[14.09512,57.31821],[14.0956,57.31795],[14.09618,57.31805],[14.09721,57.31906],[14.09632,57.31959],[14.09693,57.31976],[14.09672,57.3202],[14.09727,57.32051],[14.09878,57.32066],[14.09881,57.32092],[14.09714,57.32121],[14.09775,57.32191],[14.09718,57.32203],[14.0965,57.32259],[14.09669,57.32287],[14.09632,57.32283],[14.09594,57.32318],[14.09344,57.32267],[14.09199,57.32326],[14.09178,57.32311],[14.09087,57.32346],[14.09033,57.32396],[14.08672,57.32482],[14.08394,57.32584],[14.08377,57.32536],[14.07337,57.32385],[14.05954,57.30948],[14.03703,57.31215],[14.04699,57.30259],[14.04419,57.29716],[14.00586,57.29707],[13.99892,57.30548],[13.998,57.30939],[14.00345,57.31508],[14.00505,57.31549],[14.00667,57.31678],[14.00963,57.31827],[14.01104,57.31931],[14.013,57.32015],[14.01313,57.31991],[14.01344,57.31992],[14.01342,57.32007],[14.01492,57.32045],[14.01779,57.32161],[14.01821,57.32132],[14.0304,57.32301],[14.02313,57.33385],[14.00581,57.35335],[14.00518,57.35362],[14.00391,57.35359],[14.00419,57.35423],[14.00339,57.35418],[14.00294,57.35469],[14.00218,57.35472],[14.00271,57.35516],[14.00266,57.35549],[14.00166,57.35543],[14.00166,57.35514],[14.00114,57.3551],[14.001,57.35488],[14.00025,57.35516],[13.99965,57.35485],[13.99927,57.35529],[13.99877,57.35523],[13.99847,57.35563],[13.99769,57.35585],[13.99732,57.35521],[13.99591,57.35537],[13.99565,57.35527],[13.9958,57.35503],[13.99525,57.35506],[13.99523,57.35475],[13.99444,57.35487],[13.99363,57.35468],[13.99347,57.35434],[13.99386,57.35421],[13.99349,57.3541],[13.99311,57.35417],[13.99284,57.35456],[13.99242,57.35451],[13.9922,57.35468],[13.99168,57.35447],[13.99135,57.35484],[13.99089,57.35481],[13.99081,57.35462],[13.98999,57.35462],[13.99025,57.35496],[13.99005,57.35509],[13.98969,57.35504],[13.9894,57.35457],[13.98879,57.35493],[13.98817,57.35474],[13.98882,57.35526],[13.98853,57.35562],[13.98891,57.35602],[13.98818,57.35595],[13.9881,57.35623],[13.98853,57.35655],[13.98777,57.35697],[13.98786,57.35718],[13.98659,57.35705],[13.98653,57.35741],[13.98714,57.35772],[13.98655,57.35824],[13.98704,57.35853],[13.98684,57.35873],[13.98589,57.35875],[13.98596,57.35915],[13.98671,57.35929],[13.98649,57.35948],[13.98588,57.35946],[13.98605,57.35977],[13.98699,57.35971],[13.98645,57.35997],[13.98683,57.36036],[13.98617,57.36068],[13.98613,57.36151],[13.98557,57.36164],[13.98517,57.36275],[13.98626,57.36387],[13.98553,57.36711],[13.98208,57.36916],[13.98085,57.37325],[13.98218,57.37458],[13.97939,57.37554],[13.97874,57.37602],[13.97824,57.37586],[13.97839,57.37576],[13.97798,57.37548],[13.9773,57.3754],[13.97636,57.37553],[13.97585,57.37542],[13.97546,57.37567],[13.97431,57.37573],[13.9736,57.3754],[13.97339,57.37486],[13.97127,57.37477],[13.96976,57.37428],[13.96934,57.37437],[13.96796,57.37414],[13.96582,57.37538],[13.96568,57.37607],[13.96477,57.37699],[13.96483,57.37794],[13.96381,57.37876],[13.96205,57.37874],[13.9614,57.37929],[13.94965,57.3728],[13.9493,57.37228],[13.9487,57.37195],[13.94834,57.3705],[13.94565,57.37168],[13.94463,57.37174],[13.94318,57.37226],[13.94189,57.37133],[13.94135,57.37061],[13.93921,57.36919],[13.93838,57.36948],[13.93828,57.36974],[13.93724,57.3699],[13.93673,57.37043],[13.93598,57.37066],[13.93603,57.37092],[13.93517,57.37158],[13.93487,57.37213],[13.93255,57.37292],[13.93213,57.37339],[13.93236,57.37366],[13.93204,57.37418],[13.92983,57.37526],[13.92938,57.37527],[13.92904,57.37578],[13.92838,57.37607],[13.92847,57.3763],[13.92756,57.37623],[13.92759,57.37678],[13.92618,57.37713],[13.92674,57.37747],[13.92663,57.37831],[13.92649,57.37866],[13.92557,57.37922],[13.92558,57.37966],[13.92434,57.38026],[13.92312,57.38036],[13.92301,57.38053],[13.92145,57.38075],[13.92084,57.38107],[13.92076,57.38174],[13.92031,57.3822],[13.91996,57.38217],[13.91979,57.38259],[13.91981,57.3838],[13.9205,57.38384],[13.92044,57.38427],[13.9181,57.38686],[13.91715,57.38697],[13.91552,57.38757],[13.91214,57.38961],[13.91322,57.39035],[13.91504,57.39049],[13.91616,57.39131],[13.91413,57.39183],[13.91079,57.3956],[13.90881,57.39531],[13.90719,57.39716],[13.90694,57.40214],[13.90209,57.40494],[13.898,57.4077],[13.89114,57.40797],[13.89111,57.40824],[13.8908,57.40832],[13.88922,57.40818],[13.88854,57.40839],[13.8884,57.40888],[13.88753,57.40947],[13.88519,57.41009],[13.8857,57.41121],[13.8863,57.41132],[13.887,57.41174],[13.88662,57.412],[13.88706,57.41264],[13.8869,57.41281],[13.88798,57.4133],[13.88805,57.41373],[13.88923,57.41463],[13.88918,57.41527],[13.89022,57.41645],[13.88993,57.41726],[13.89135,57.41952],[13.89335,57.42169],[13.89352,57.42244],[13.89445,57.42331],[13.89589,57.42567],[13.89613,57.42719],[13.89693,57.42822],[13.89735,57.42987],[13.89828,57.43075],[13.89858,57.43141],[13.9,57.4326],[13.9,57.43299],[13.90135,57.43391],[13.90044,57.43699],[13.89842,57.44005],[13.89664,57.44121],[13.89488,57.4432],[13.89412,57.4445],[13.89459,57.44957],[13.89662,57.45763],[13.89478,57.46463],[13.89515,57.46473],[13.8961,57.46753],[13.89732,57.46838],[13.89723,57.46906],[13.89765,57.46944],[13.89812,57.46937],[13.89966,57.47027],[13.89924,57.47092],[13.89874,57.47109],[13.89871,57.47183],[13.89831,57.47212],[13.89915,57.47317],[13.89971,57.47303],[13.90012,57.47384],[13.89939,57.47442],[13.89922,57.47542],[13.8988,57.47566],[13.899,57.47597],[13.89858,57.47617],[13.89906,57.47662],[13.89898,57.47706],[13.8994,57.47783],[13.90051,57.47878],[13.90111,57.48024],[13.90014,57.48143],[13.90017,57.48231],[13.9005,57.48248],[13.89994,57.48283],[13.89965,57.48339],[13.90013,57.48398],[13.89997,57.48467],[13.89913,57.48502],[13.89859,57.48558],[13.89816,57.48692],[13.89898,57.48776],[13.89809,57.48824],[13.89757,57.48914],[13.89682,57.48966],[13.89676,57.49009],[13.89729,57.49042],[13.89662,57.49133],[13.89665,57.49213],[13.9012,57.49302],[13.90913,57.49292],[13.909,57.49268],[13.91,57.49188],[13.91049,57.49075],[13.91093,57.48872],[13.91533,57.48994],[13.91562,57.4906],[13.91533,57.49111],[13.91557,57.49141],[13.91521,57.49302],[13.91533,57.4945],[13.91589,57.4954],[13.91671,57.49538],[13.91747,57.49564],[13.91868,57.49574],[13.91892,57.49562],[13.91982,57.49585]],[[14.09445,57.4665],[14.09058,57.46597],[14.08886,57.46542],[14.08694,57.46444],[14.0825,57.46063],[14.08196,57.45958],[14.08153,57.4574],[14.07935,57.45692],[14.07747,57.45623],[14.07603,57.45544],[14.07464,57.45424],[14.07384,57.45286],[14.07247,57.44734],[14.07304,57.44558],[14.07484,57.44383],[14.07451,57.44268],[14.07459,57.44157],[14.0721,57.44021],[14.07074,57.43903],[14.06996,57.43769],[14.06979,57.43581],[14.06729,57.43508],[14.06538,57.43411],[14.06396,57.43288],[14.06316,57.4315],[14.06271,57.4265],[14.06335,57.42462],[14.06297,57.4234],[14.06311,57.42172],[14.06276,57.41977],[14.06356,57.41767],[14.06575,57.41588],[14.06785,57.41498],[14.07058,57.41436],[14.07175,57.41329],[14.07387,57.41212],[14.07608,57.41141],[14.07854,57.41101],[14.08047,57.41095],[14.08301,57.41116],[14.08484,57.41155],[14.08697,57.41234],[14.08956,57.41397],[14.09116,57.41559],[14.09209,57.41717],[14.09561,57.41703],[14.09969,57.4176],[14.10163,57.41739],[14.10429,57.41743],[14.10634,57.41772],[14.10863,57.41835],[14.11055,57.41927],[14.11168,57.42012],[14.11351,57.42219],[14.11423,57.4236],[14.11433,57.42473],[14.11362,57.42905],[14.11251,57.43107],[14.11282,57.43241],[14.11253,57.43547],[14.11122,57.43776],[14.10965,57.43925],[14.10805,57.44327],[14.10619,57.4465],[14.1075,57.44804],[14.10789,57.44947],[14.10772,57.45142],[14.10677,57.45402],[14.10717,57.45692],[14.10773,57.45867],[14.10742,57.46213],[14.10578,57.46408],[14.10291,57.46557],[14.09921,57.46637],[14.09445,57.4665]]]}}]}