{"type":"FeatureCollection","features":[{"type":"Feature","id":"0682R001","properties":{"code":"0682R001","name":"Bodafors"},"geometry":{"type":"Polygon","coordinates":[[[14.71828,57.51791],[14.7207,57.51627],[14.7243,57.51538],[14.72645,57.51451],[14.73089,57.51115],[14.73281,57.50899],[14.73345,57.50747],[14.73324,57.50567],[14.73187,57.50384],[14.72972,57.50246],[14.72661,57.50106],[14.72421,57.50032],[14.72305,57.49833],[14.72294,57.49695],[14.72219,57.49557],[14.7204,57.49406],[14.71784,57.49293],[14.71474,57.49229],[14.71206,57.49217],[14.71008,57.49232],[14.70783,57.49276],[14.70535,57.49274],[14.70289,57.49305],[14.70152,57.49216],[14.69898,57.49104],[14.69668,57.49042],[14.6948,57.49017],[14.69146,57.49019],[14.68788,57.49092],[14.68502,57.49232],[14.68378,57.4935],[14.68132,57.49494],[14.68014,57.49626],[14.67958,57.49848],[14.68073,57.50133],[14.67763,57.5019],[14.67543,57.50273],[14.67372,57.50382],[14.67177,57.50584],[14.67106,57.5073],[14.67099,57.50842],[14.67148,57.50986],[14.67263,57.51118],[14.67403,57.51215],[14.67619,57.5131],[14.67806,57.5136],[14.68228,57.51429],[14.68336,57.51586],[14.68492,57.51701],[14.687,57.51793],[14.69006,57.51862],[14.69406,57.51873],[14.69921,57.51834],[14.7022,57.51781],[14.70404,57.5186],[14.70584,57.51908],[14.70782,57.51938],[14.71046,57.51945],[14.71481,57.51898],[14.71828,57.51791]]]}},{"type":"Feature","id":"0682R002","properties":{"code":"0682R002","name":"Forserum"},"geometry":{"type":"Polygon","coordinates":[[[14.46627,57.71347],[14.47247,57.71287],[14.47552,57.71226],[14.47764,57.71236],[14.48028,57.71217],[14.48324,57.71163],[14.48546,57.71085],[14.48729,57.70978],[14.48874,57.70817],[14.48924,57.70625],[14.48877,57.70472],[14.49365,57.70374],[14.49591,57.70295],[14.49811,57.70157],[14.49949,57.69958],[14.4996,57.69813],[14.49916,57.6969],[14.49811,57.69559],[14.49648,57.69447],[14.49489,57.69376],[14.49264,57.69315],[14.49128,57.6917],[14.48839,57.69001],[14.48311,57.68847],[14.48024,57.68715],[14.47599,57.68636],[14.47329,57.68633],[14.47006,57.68679],[14.46779,57.68753],[14.4654,57.68881],[14.46424,57.68921],[14.46335,57.68931],[14.46312,57.68899],[14.46198,57.6891],[14.46186,57.68951],[14.45856,57.69017],[14.45586,57.69125],[14.45412,57.69245],[14.45302,57.6936],[14.45101,57.69469],[14.44956,57.69594],[14.44972,57.69698],[14.4505,57.69699],[14.45109,57.69661],[14.45152,57.69683],[14.45171,57.69749],[14.45143,57.69854],[14.45116,57.6986],[14.45007,57.69824],[14.44942,57.6996],[14.44733,57.70014],[14.44719,57.70053],[14.44587,57.7016],[14.44487,57.7018],[14.44447,57.70221],[14.44374,57.70248],[14.4437,57.70304],[14.4423,57.70399],[14.44255,57.70443],[14.44152,57.70452],[14.44131,57.70478],[14.44243,57.7054],[14.44443,57.70604],[14.44539,57.70764],[14.4488,57.70968],[14.44828,57.71014],[14.44818,57.71051],[14.44823,57.71038],[14.45012,57.71138],[14.45287,57.7124],[14.45539,57.71293],[14.4598,57.71325],[14.46294,57.7132],[14.46627,57.71347]]]}},{"type":"Feature","id":"0682R003","properties":{"code":"0682R003","name":"Handskeryd"},"geometry":{"type":"Polygon","coordinates":[[[14.7042,57.64779],[14.71016,57.64807],[14.71313,57.6475],[14.72493,57.64118],[14.72868,57.64189],[14.73171,57.64151],[14.73259,57.64244],[14.73376,57.64315],[14.73313,57.64464],[14.73575,57.64592],[14.73658,57.64532],[14.73792,57.64547],[14.73845,57.64524],[14.73869,57.64455],[14.74018,57.64278],[14.74357,57.64117],[14.74842,57.64385],[14.74503,57.64578],[14.74486,57.64616],[14.75504,57.64487],[14.75499,57.64315],[14.75424,57.64177],[14.75289,57.64055],[14.75097,57.63953],[14.74864,57.6388],[14.74609,57.63842],[14.74137,57.6382],[14.73491,57.63865],[14.73171,57.63706],[14.72803,57.63481],[14.7268,57.63313],[14.72446,57.63166],[14.72198,57.62899],[14.71914,57.62748],[14.71736,57.62697],[14.71481,57.62658],[14.70869,57.62657],[14.70494,57.62734],[14.70333,57.62799],[14.70166,57.62904],[14.70397,57.63592],[14.70398,57.63913],[14.70337,57.64085],[14.69943,57.6478],[14.69751,57.6496],[14.70156,57.65101],[14.70369,57.65086],[14.7042,57.64779]]]}},{"type":"Feature","id":"0682R004","properties":{"code":"0682R004","name":"Ingsberg-Nyhem-Hultet"},"geometry":{"type":"Polygon","coordinates":[[[14.7106,57.6696],[14.72201,57.66906],[14.73221,57.66919],[14.73156,57.66759],[14.73214,57.66593],[14.72772,57.66531],[14.72421,57.66555],[14.72436,57.66528],[14.72584,57.66421],[14.72692,57.66291],[14.72998,57.66207],[14.73224,57.66081],[14.73518,57.65996],[14.73711,57.65895],[14.73851,57.65772],[14.73942,57.65595],[14.74163,57.65414],[14.74459,57.65362],[14.74824,57.65254],[14.75089,57.65148],[14.75225,57.65073],[14.75332,57.64984],[14.75422,57.64854],[14.75504,57.64487],[14.74486,57.64616],[14.74503,57.64578],[14.74842,57.64385],[14.74357,57.64117],[14.74018,57.64278],[14.73869,57.64455],[14.73845,57.64524],[14.73792,57.64547],[14.73658,57.64532],[14.73575,57.64592],[14.73313,57.64464],[14.73376,57.64315],[14.73259,57.64244],[14.73171,57.64151],[14.72868,57.64189],[14.72493,57.64118],[14.71313,57.6475],[14.71016,57.64807],[14.7042,57.64779],[14.70343,57.65405],[14.70381,57.65672],[14.70209,57.65691],[14.70167,57.65874],[14.70388,57.65889],[14.70449,57.65911],[14.70329,57.66026],[14.70871,57.66186],[14.70876,57.66281],[14.7079,57.66346],[14.7079,57.66451],[14.70646,57.66545],[14.70589,57.66654],[14.70639,57.66747],[14.70956,57.66863],[14.71023,57.66901],[14.7106,57.6696]]]}},{"type":"Feature","id":"0682R005","properties":{"code":"0682R005","name":"Malmbäck"},"geometry":{"type":"Polygon","coordinates":[[[14.47409,57.59082],[14.47826,57.59049],[14.48129,57.58976],[14.48413,57.58829],[14.48561,57.58666],[14.48606,57.58489],[14.48566,57.58312],[14.48359,57.58072],[14.48212,57.57952],[14.48271,57.57816],[14.48287,57.57623],[14.48247,57.57446],[14.48086,57.57229],[14.47832,57.57002],[14.47589,57.56879],[14.47301,57.56806],[14.47163,57.56542],[14.47173,57.56337],[14.47146,57.56217],[14.47056,57.56078],[14.46934,57.55975],[14.46734,57.55869],[14.46439,57.55782],[14.46155,57.55749],[14.45806,57.55763],[14.45424,57.55853],[14.45264,57.55926],[14.451,57.56043],[14.44954,57.56241],[14.44932,57.56558],[14.44756,57.56627],[14.44605,57.56719],[14.44331,57.56752],[14.44092,57.5682],[14.43653,57.57065],[14.43537,57.57192],[14.4349,57.573],[14.43473,57.57448],[14.43506,57.57593],[14.43604,57.57727],[14.43883,57.57949],[14.43864,57.58254],[14.43936,57.58431],[14.44106,57.58585],[14.44399,57.58738],[14.4476,57.58829],[14.45008,57.58858],[14.45204,57.58861],[14.45404,57.58926],[14.45726,57.58984],[14.46127,57.58982],[14.46468,57.5891],[14.46595,57.5892],[14.46771,57.58995],[14.47011,57.59056],[14.47409,57.59082]]]}},{"type":"Feature","id":"0682R006","properties":{"code":"0682R006","name":"Norrboda-Västra Runneryd"},"geometry":{"type":"Polygon","coordinates":[[[14.69107,57.68623],[14.69399,57.68604],[14.69651,57.68562],[14.69836,57.68509],[14.70044,57.68414],[14.70258,57.6823],[14.70482,57.6814],[14.70694,57.67988],[14.70801,57.67817],[14.70817,57.67642],[14.71001,57.67486],[14.71443,57.67352],[14.71651,57.67256],[14.71817,57.67127],[14.71931,57.66949],[14.72007,57.66919],[14.7106,57.6696],[14.71023,57.66901],[14.70956,57.66863],[14.70426,57.66997],[14.69945,57.66923],[14.70061,57.66321],[14.69642,57.66265],[14.69701,57.66026],[14.69613,57.65881],[14.69481,57.65983],[14.69228,57.65863],[14.69146,57.65803],[14.69059,57.65875],[14.68795,57.65788],[14.68801,57.65769],[14.68491,57.65766],[14.68016,57.65857],[14.68134,57.66076],[14.68147,57.66243],[14.67846,57.66514],[14.67928,57.66838],[14.68381,57.66961],[14.68467,57.6743],[14.68844,57.68616],[14.69107,57.68623]]]}},{"type":"Feature","id":"0682R007","properties":{"code":"0682R007","name":"Nässjö centrum"},"geometry":{"type":"Polygon","coordinates":[[[14.69485,57.65983],[14.69981,57.65589],[14.70343,57.65405],[14.70369,57.65086],[14.70156,57.65101],[14.69751,57.6496],[14.68795,57.65788],[14.69059,57.65875],[14.69146,57.65803],[14.69228,57.65863],[14.69485,57.65983]]]}},{"type":"Feature","id":"0682R008","properties":{"code":"0682R008","name":"Nässjö norra landsbygd"},"geometry":{"type":"Polygon","coordinates":[[[14.89242,57.81213],[14.92205,57.81023],[14.92314,57.80911],[14.92546,57.80869],[14.92706,57.80915],[14.93059,57.80858],[14.93105,57.80735],[14.93131,57.80457],[14.9432,57.80194],[14.9509,57.79858],[14.95181,57.78579],[14.95281,57.78213],[14.95248,57.78074],[14.95335,57.77803],[14.95465,57.77669],[14.95503,57.77589],[14.95422,57.7751],[14.95324,57.77473],[14.95257,57.77404],[14.95188,57.77378],[14.95243,57.77303],[14.95168,57.77226],[14.9527,57.77171],[14.95359,57.77151],[14.95509,57.77054],[14.95488,57.77022],[14.9557,57.7688],[14.95746,57.76853],[14.95887,57.76736],[14.96045,57.76708],[14.96092,57.76617],[14.96203,57.7658],[14.9626,57.76507],[14.96391,57.76451],[14.9658,57.76417],[14.96663,57.76429],[14.96731,57.76405],[14.96857,57.76021],[14.96789,57.75774],[14.96717,57.75702],[14.96651,57.75674],[14.96624,57.75614],[14.96838,57.75372],[14.96803,57.75364],[14.96921,57.75206],[14.96832,57.75203],[14.96759,57.75157],[14.96726,57.75171],[14.96653,57.7515],[14.96503,57.75164],[14.96389,57.75127],[14.96369,57.75068],[14.96161,57.74809],[14.96069,57.74504],[14.95425,57.74461],[14.95342,57.74295],[14.94687,57.74268],[14.9422,57.74204],[14.94023,57.742],[14.93651,57.74137],[14.93587,57.74155],[14.93575,57.74132],[14.92486,57.73923],[14.92482,57.73792],[14.92644,57.737],[14.92647,57.73434],[14.93035,57.73473],[14.93264,57.73446],[14.93397,57.73181],[14.9341,57.73094],[14.93126,57.72767],[14.93065,57.72568],[14.93006,57.72535],[14.92901,57.72527],[14.92541,57.72527],[14.92354,57.72555],[14.91575,57.7249],[14.9139,57.72424],[14.91176,57.72291],[14.91029,57.72251],[14.90972,57.72213],[14.90934,57.72128],[14.90821,57.72038],[14.90831,57.71956],[14.90901,57.7193],[14.90895,57.71915],[14.90807,57.71893],[14.9077,57.71857],[14.90856,57.71778],[14.90999,57.71747],[14.91071,57.71751],[14.91083,57.71767],[14.91152,57.71741],[14.91193,57.71718],[14.91184,57.71691],[14.91234,57.71632],[14.91321,57.71624],[14.91465,57.71562],[14.91427,57.71507],[14.91368,57.71495],[14.91433,57.71417],[14.91434,57.7132],[14.91489,57.71261],[14.91662,57.71154],[14.91665,57.71086],[14.91725,57.71056],[14.9178,57.70944],[14.91727,57.70886],[14.91817,57.70833],[14.91797,57.70727],[14.91829,57.70673],[14.90748,57.70535],[14.90264,57.70104],[14.89566,57.69851],[14.89108,57.69481],[14.88929,57.69371],[14.88974,57.69226],[14.89307,57.68919],[14.89044,57.68871],[14.88273,57.68446],[14.88052,57.68444],[14.88015,57.68408],[14.88023,57.68367],[14.87923,57.68308],[14.87942,57.68216],[14.88035,57.68211],[14.88297,57.68089],[14.88245,57.68008],[14.88283,57.67826],[14.8817,57.67637],[14.88019,57.67555],[14.88139,57.674],[14.8785,57.67344],[14.87723,57.67298],[14.87493,57.67378],[14.87391,57.67388],[14.87217,57.67357],[14.87206,57.67336],[14.87077,57.67317],[14.87067,57.67286],[14.86997,57.67286],[14.86937,57.67263],[14.86712,57.67137],[14.86612,57.67126],[14.86448,57.67071],[14.86176,57.67018],[14.86297,57.66857],[14.86291,57.66767],[14.86269,57.66764],[14.86278,57.66542],[14.86244,57.66505],[14.86219,57.66369],[14.86241,57.66267],[14.86126,57.66255],[14.8572,57.66333],[14.85632,57.66298],[14.85401,57.66108],[14.84886,57.66026],[14.84638,57.66076],[14.84465,57.66028],[14.8442,57.6592],[14.84423,57.65821],[14.84389,57.65785],[14.84438,57.65692],[14.84421,57.65608],[14.84252,57.65611],[14.8433,57.65539],[14.84455,57.655],[14.84655,57.64698],[14.84461,57.6466],[14.83866,57.6429],[14.83265,57.63729],[14.83123,57.63418],[14.82958,57.63333],[14.82845,57.63216],[14.82846,57.63109],[14.82897,57.63075],[14.832,57.63017],[14.83363,57.6302],[14.83407,57.62721],[14.83209,57.6253],[14.83211,57.6243],[14.83115,57.62417],[14.82916,57.62332],[14.82626,57.62323],[14.82499,57.62153],[14.82262,57.62003],[14.81926,57.61931],[14.81817,57.61878],[14.81571,57.61802],[14.8146,57.61797],[14.8145,57.61781],[14.81357,57.61806],[14.81181,57.61807],[14.80902,57.61875],[14.80655,57.61965],[14.80507,57.6198],[14.80434,57.62027],[14.80344,57.61996],[14.80114,57.61966],[14.80026,57.61919],[14.79894,57.61889],[14.7921,57.61822],[14.79104,57.61735],[14.78755,57.61899],[14.78601,57.62199],[14.78573,57.62565],[14.78305,57.62686],[14.78187,57.62781],[14.78126,57.62907],[14.78072,57.62942],[14.78063,57.63026],[14.77865,57.63062],[14.77798,57.63057],[14.77683,57.63181],[14.77603,57.63222],[14.77597,57.63253],[14.77717,57.63364],[14.77698,57.63415],[14.77597,57.63429],[14.77638,57.63458],[14.77574,57.63522],[14.77531,57.63509],[14.77498,57.6355],[14.77469,57.63548],[14.7753,57.63595],[14.76682,57.64065],[14.76221,57.64293],[14.76026,57.64362],[14.75504,57.64487],[14.75422,57.64854],[14.75332,57.64984],[14.75225,57.65073],[14.75089,57.65148],[14.74824,57.65254],[14.74459,57.65362],[14.74163,57.65414],[14.73942,57.65595],[14.73851,57.65772],[14.73667,57.65924],[14.73466,57.66016],[14.73224,57.66081],[14.72946,57.66227],[14.72692,57.66291],[14.72617,57.6639],[14.72421,57.66555],[14.72772,57.66531],[14.73214,57.66593],[14.73156,57.66759],[14.73221,57.66919],[14.72201,57.66906],[14.72023,57.66912],[14.71931,57.66949],[14.71817,57.67127],[14.71651,57.67256],[14.71443,57.67352],[14.71001,57.67486],[14.70817,57.67642],[14.70788,57.67851],[14.70662,57.68018],[14.70482,57.6814],[14.70258,57.6823],[14.70136,57.68353],[14.69953,57.68462],[14.69651,57.68562],[14.69331,57.68611],[14.68979,57.68624],[14.68478,57.68575],[14.6817,57.68512],[14.67903,57.68402],[14.67741,57.68284],[14.67626,57.68119],[14.6733,57.6822],[14.66511,57.68246],[14.64967,57.68529],[14.63731,57.6858],[14.63553,57.6863],[14.63474,57.68832],[14.63707,57.69459],[14.63799,57.69481],[14.63882,57.69446],[14.63988,57.69455],[14.63817,57.70008],[14.64075,57.70502],[14.65274,57.70505],[14.65424,57.70527],[14.65694,57.70495],[14.659,57.70439],[14.66253,57.70432],[14.66245,57.70406],[14.66384,57.70381],[14.6641,57.7031],[14.66467,57.70303],[14.66524,57.70262],[14.66621,57.70287],[14.66677,57.7033],[14.66968,57.70374],[14.66961,57.70424],[14.67216,57.70615],[14.67233,57.70789],[14.67361,57.70899],[14.67415,57.71039],[14.66973,57.71436],[14.66901,57.7155],[14.66916,57.71561],[14.66756,57.7164],[14.66769,57.71756],[14.66908,57.71851],[14.67016,57.72065],[14.67206,57.72229],[14.6722,57.72336],[14.67843,57.72727],[14.67809,57.73656],[14.67343,57.73747],[14.67117,57.73873],[14.67163,57.74168],[14.6712,57.74201],[14.6712,57.74238],[14.67165,57.74254],[14.67158,57.74305],[14.67125,57.7431],[14.67118,57.74368],[14.67074,57.7441],[14.67093,57.7447],[14.67131,57.74477],[14.67129,57.74506],[14.67189,57.74522],[14.67179,57.74544],[14.67219,57.74554],[14.67173,57.74577],[14.67256,57.74617],[14.67249,57.747],[14.67217,57.74712],[14.67174,57.74698],[14.67132,57.7473],[14.66952,57.74735],[14.6693,57.74749],[14.66856,57.74732],[14.6666,57.74791],[14.66542,57.74891],[14.66427,57.74901],[14.66413,57.74927],[14.66318,57.7497],[14.66348,57.74983],[14.66321,57.75002],[14.66343,57.75038],[14.66271,57.751],[14.66261,57.7522],[14.66081,57.75229],[14.65973,57.75165],[14.65962,57.75118],[14.65917,57.75136],[14.65852,57.75114],[14.65841,57.75077],[14.65799,57.75071],[14.65777,57.75095],[14.6554,57.75123],[14.65429,57.75201],[14.653,57.75238],[14.65355,57.75359],[14.65068,57.75909],[14.65643,57.76067],[14.65692,57.76436],[14.66003,57.76479],[14.6629,57.76588],[14.66592,57.76618],[14.67361,57.76857],[14.67713,57.77058],[14.68255,57.77263],[14.69066,57.77454],[14.70148,57.77498],[14.70245,57.77516],[14.70301,57.77506],[14.70349,57.77524],[14.7052,57.77657],[14.7068,57.77715],[14.70308,57.78176],[14.70182,57.78474],[14.70304,57.78515],[14.7044,57.78529],[14.70509,57.78588],[14.70685,57.78611],[14.71065,57.78772],[14.71098,57.78775],[14.71238,57.78642],[14.71489,57.78657],[14.71525,57.78614],[14.71818,57.78526],[14.71872,57.78418],[14.72171,57.78441],[14.72161,57.78369],[14.72395,57.78411],[14.72883,57.78399],[14.7302,57.78501],[14.73714,57.78574],[14.73846,57.78554],[14.74011,57.788],[14.73942,57.79117],[14.7397,57.79249],[14.7404,57.79295],[14.74053,57.79376],[14.73823,57.79639],[14.75699,57.79884],[14.75512,57.80155],[14.75531,57.80249],[14.76153,57.80211],[14.76197,57.80187],[14.76245,57.80188],[14.76738,57.80239],[14.77027,57.80246],[14.77154,57.80287],[14.77272,57.80282],[14.77346,57.803],[14.77995,57.80337],[14.78234,57.80408],[14.78459,57.80412],[14.78836,57.80472],[14.79144,57.80497],[14.79565,57.80436],[14.79915,57.80455],[14.80032,57.8044],[14.80186,57.80458],[14.80413,57.80452],[14.80565,57.8047],[14.80787,57.80441],[14.81335,57.80446],[14.81571,57.7966],[14.83598,57.79938],[14.83713,57.79866],[14.83778,57.79726],[14.8385,57.79685],[14.83851,57.79625],[14.8392,57.79571],[14.84071,57.79599],[14.84203,57.79594],[14.84345,57.79629],[14.84642,57.79653],[14.85027,57.79713],[14.85248,57.7978],[14.85492,57.79789],[14.85511,57.79847],[14.85472,57.79854],[14.85456,57.79897],[14.85509,57.7998],[14.85577,57.80028],[14.8556,57.80079],[14.85609,57.80173],[14.85744,57.80291],[14.85747,57.80322],[14.85685,57.80377],[14.85846,57.80428],[14.8586,57.80513],[14.85929,57.80537],[14.85961,57.80634],[14.86048,57.80615],[14.861,57.80627],[14.86216,57.80589],[14.86497,57.80664],[14.86525,57.80612],[14.86702,57.80609],[14.86797,57.80593],[14.86816,57.80574],[14.87068,57.80598],[14.8723,57.80688],[14.87261,57.80772],[14.87464,57.80764],[14.87509,57.80829],[14.87587,57.808],[14.8766,57.808],[14.88009,57.80858],[14.88502,57.80874],[14.88712,57.80927],[14.88701,57.80977],[14.89066,57.8119],[14.89249,57.81188],[14.89242,57.81213]]]}},{"type":"Feature","id":"0682R009","properties":{"code":"0682R009","name":"Nässjö södra landsbygd"},"geometry":{"type":"Polygon","coordinates":[[[14.76221,57.64293],[14.7753,57.63595],[14.77469,57.63548],[14.77498,57.6355],[14.77531,57.63509],[14.77574,57.63522],[14.77638,57.63458],[14.77597,57.63429],[14.77698,57.63415],[14.77717,57.63364],[14.77597,57.63253],[14.77626,57.63197],[14.77683,57.63181],[14.77798,57.63057],[14.77865,57.63062],[14.78063,57.63026],[14.78072,57.62942],[14.78126,57.62907],[14.78187,57.62781],[14.78305,57.62686],[14.78573,57.62565],[14.78601,57.62199],[14.78755,57.61899],[14.79104,57.61735],[14.79087,57.61192],[14.78799,57.60756],[14.78827,57.60677],[14.81125,57.59932],[14.81178,57.59641],[14.81341,57.59643],[14.81351,57.59676],[14.8148,57.59767],[14.81555,57.59691],[14.81824,57.59646],[14.82044,57.59674],[14.82474,57.59625],[14.82622,57.59637],[14.82865,57.59481],[14.84069,57.59218],[14.84061,57.59186],[14.84153,57.59095],[14.84314,57.59082],[14.84372,57.59006],[14.84438,57.58987],[14.84729,57.59006],[14.84938,57.59085],[14.85111,57.59066],[14.85285,57.59076],[14.85392,57.59064],[14.8576,57.59097],[14.85842,57.59133],[14.85954,57.59296],[14.86102,57.59234],[14.8623,57.59148],[14.86175,57.59005],[14.86186,57.58888],[14.86311,57.58854],[14.8633,57.58928],[14.86375,57.58955],[14.86579,57.58841],[14.86603,57.5877],[14.86684,57.58731],[14.86649,57.58683],[14.8668,57.58624],[14.86478,57.58458],[14.86519,57.5837],[14.86351,57.5821],[14.86175,57.58178],[14.86153,57.58158],[14.86204,57.58073],[14.86228,57.57879],[14.86373,57.57779],[14.86356,57.57647],[14.86285,57.57581],[14.86138,57.57579],[14.85981,57.57542],[14.86019,57.57465],[14.86125,57.57415],[14.85507,57.57391],[14.85238,57.57363],[14.85164,57.57378],[14.84984,57.57612],[14.84508,57.57908],[14.84356,57.57183],[14.84304,57.57067],[14.84394,57.56209],[14.84654,57.5512],[14.85775,57.53313],[14.86007,57.53117],[14.8581,57.52438],[14.8573,57.52474],[14.8562,57.5248],[14.85637,57.5238],[14.85623,57.52364],[14.85551,57.52362],[14.85551,57.52323],[14.85577,57.5233],[14.85587,57.52302],[14.85634,57.52303],[14.85647,57.52256],[14.85735,57.52243],[14.85749,57.52217],[14.85674,57.51961],[14.85829,57.51908],[14.8591,57.51929],[14.85947,57.51885],[14.86052,57.51861],[14.86116,57.51777],[14.86115,57.51517],[14.8599,57.5142],[14.86118,57.5119],[14.85669,57.51148],[14.85598,57.51107],[14.84686,57.51084],[14.85473,57.50564],[14.85065,57.49992],[14.85336,57.49581],[14.85113,57.49588],[14.8485,57.49532],[14.84647,57.49542],[14.84464,57.49487],[14.84381,57.49504],[14.84281,57.49481],[14.84147,57.49481],[14.84118,57.49424],[14.84048,57.49398],[14.84017,57.49306],[14.84043,57.49263],[14.84028,57.49201],[14.8407,57.4915],[14.84053,57.48941],[14.84095,57.488],[14.84062,57.48738],[14.8407,57.48629],[14.84019,57.48505],[14.83943,57.48459],[14.83783,57.48407],[14.83756,57.48322],[14.83605,57.48265],[14.83564,57.481],[14.83628,57.47891],[14.83835,57.47789],[14.83945,57.47597],[14.83711,57.47507],[14.83547,57.47478],[14.83285,57.47489],[14.82899,57.47563],[14.82556,57.47604],[14.82237,57.47618],[14.82095,57.47664],[14.82026,57.4766],[14.8194,57.47574],[14.8217,57.47561],[14.82418,57.47508],[14.82326,57.47415],[14.82528,57.47354],[14.82607,57.47187],[14.82925,57.47201],[14.82988,57.47143],[14.82986,57.46979],[14.83042,57.46939],[14.83069,57.46957],[14.83138,57.46858],[14.83434,57.46869],[14.83682,57.46924],[14.8416,57.47203],[14.84144,57.47297],[14.84272,57.47351],[14.8432,57.47277],[14.84322,57.47175],[14.8437,57.47134],[14.84426,57.46998],[14.84549,57.46898],[14.84616,57.46807],[14.84711,57.46765],[14.8467,57.46702],[14.8461,57.46689],[14.84613,57.46665],[14.8453,57.46635],[14.84567,57.46564],[14.84505,57.46546],[14.84283,57.46571],[14.84266,57.46553],[14.84119,57.46537],[14.84003,57.46546],[14.83919,57.46573],[14.83816,57.46545],[14.83683,57.46452],[14.83662,57.46398],[14.83718,57.46274],[14.83703,57.46124],[14.8357,57.45961],[14.83584,57.45649],[14.83456,57.45168],[14.83457,57.44876],[14.83432,57.44824],[14.83466,57.44753],[14.83417,57.44732],[14.83355,57.44614],[14.83338,57.44509],[14.83392,57.44451],[14.83379,57.44407],[14.83215,57.44215],[14.83211,57.44063],[14.83469,57.43988],[14.83466,57.43786],[14.83033,57.43802],[14.82773,57.4369],[14.82666,57.43591],[14.82791,57.43363],[14.82731,57.43218],[14.82858,57.43122],[14.82773,57.42944],[14.82843,57.42923],[14.82905,57.42852],[14.82905,57.42723],[14.8294,57.42704],[14.8293,57.42681],[14.82805,57.4264],[14.82789,57.42586],[14.82956,57.42384],[14.82934,57.42301],[14.82805,57.42218],[14.82794,57.42147],[14.82612,57.42083],[14.8271,57.41962],[14.82713,57.41839],[14.82769,57.41769],[14.8269,57.41685],[14.82681,57.41543],[14.8251,57.41437],[14.82513,57.41374],[14.82458,57.41366],[14.82439,57.41386],[14.82382,57.41364],[14.82444,57.41243],[14.82371,57.41185],[14.81988,57.41123],[14.81754,57.41019],[14.81631,57.40992],[14.81863,57.40362],[14.8151,57.40363],[14.81379,57.40404],[14.81285,57.40391],[14.81114,57.4041],[14.80961,57.40467],[14.80385,57.40606],[14.79766,57.40719],[14.79679,57.40689],[14.79277,57.40636],[14.78536,57.40649],[14.78318,57.40626],[14.78249,57.40587],[14.78016,57.40527],[14.77753,57.40359],[14.7759,57.40331],[14.76125,57.40353],[14.76173,57.40742],[14.76063,57.4131],[14.75771,57.41824],[14.75716,57.42003],[14.75989,57.42163],[14.74836,57.42687],[14.74853,57.42719],[14.75019,57.4281],[14.75052,57.4297],[14.74844,57.43053],[14.74737,57.43151],[14.74722,57.4326],[14.7479,57.43305],[14.74792,57.43359],[14.7458,57.43408],[14.74446,57.43459],[14.74446,57.43555],[14.74225,57.43643],[14.74087,57.43815],[14.74098,57.43914],[14.74138,57.43964],[14.74096,57.44047],[14.74104,57.44111],[14.74526,57.4426],[14.7463,57.44244],[14.74675,57.44386],[14.74846,57.44384],[14.74878,57.44483],[14.74842,57.44676],[14.75005,57.4484],[14.75009,57.44881],[14.74752,57.44909],[14.7392,57.45209],[14.73772,57.45382],[14.73828,57.45776],[14.73157,57.46331],[14.72679,57.46491],[14.71362,57.46272],[14.70444,57.46395],[14.70148,57.46348],[14.70114,57.46407],[14.70135,57.46466],[14.70081,57.4649],[14.69951,57.46495],[14.69909,57.46545],[14.69786,57.46612],[14.69793,57.46634],[14.69675,57.46665],[14.69647,57.46714],[14.69501,57.46775],[14.69363,57.46906],[14.69259,57.46968],[14.69179,57.47279],[14.68555,57.47297],[14.68287,57.47147],[14.68053,57.46901],[14.67873,57.46845],[14.67645,57.46815],[14.67503,57.46876],[14.67444,57.46808],[14.67349,57.46755],[14.67305,57.46638],[14.67184,57.46579],[14.67002,57.46537],[14.66929,57.46466],[14.6688,57.46451],[14.66832,57.46356],[14.66839,57.46204],[14.6681,57.46163],[14.66736,57.46114],[14.66664,57.46103],[14.66593,57.46063],[14.66479,57.45987],[14.66459,57.45948],[14.66373,57.45914],[14.66286,57.45955],[14.66152,57.4595],[14.65849,57.45891],[14.6583,57.4587],[14.65864,57.4584],[14.65942,57.45862],[14.66027,57.4585],[14.66061,57.4582],[14.6607,57.45752],[14.66022,57.45688],[14.65879,57.45688],[14.65813,57.45648],[14.65823,57.45592],[14.65896,57.45581],[14.65926,57.45553],[14.65923,57.45502],[14.65881,57.45458],[14.65747,57.45446],[14.65634,57.45373],[14.65521,57.45369],[14.65354,57.45321],[14.65235,57.45307],[14.65079,57.45347],[14.64884,57.45238],[14.6481,57.45147],[14.64694,57.45065],[14.64506,57.45056],[14.64141,57.44946],[14.63903,57.4491],[14.63865,57.44884],[14.6372,57.44873],[14.63653,57.44844],[14.63626,57.44805],[14.63653,57.44706],[14.63581,57.44642],[14.63495,57.44626],[14.63408,57.44662],[14.63357,57.44644],[14.63383,57.44597],[14.63264,57.44622],[14.6313,57.44609],[14.63084,57.445],[14.63134,57.44434],[14.63045,57.44363],[14.6304,57.44299],[14.62913,57.44313],[14.62786,57.44283],[14.62789,57.44177],[14.62582,57.44222],[14.62454,57.44201],[14.62094,57.44085],[14.61993,57.43999],[14.61877,57.43821],[14.61919,57.43799],[14.62037,57.43504],[14.61732,57.43489],[14.61666,57.43502],[14.61583,57.43602],[14.61413,57.43668],[14.6141,57.43725],[14.61018,57.43804],[14.60967,57.43753],[14.60687,57.436],[14.60555,57.43579],[14.60467,57.43512],[14.60457,57.43455],[14.60335,57.43392],[14.60079,57.43426],[14.59932,57.43393],[14.59809,57.43404],[14.59759,57.43365],[14.59637,57.43353],[14.59336,57.434],[14.59193,57.43351],[14.58962,57.43356],[14.5888,57.43371],[14.59093,57.43621],[14.59132,57.43719],[14.58232,57.43918],[14.58235,57.43976],[14.57804,57.43931],[14.57731,57.45198],[14.57425,57.45124],[14.57433,57.45158],[14.57386,57.45182],[14.57316,57.4516],[14.57316,57.45282],[14.57272,57.45318],[14.56913,57.45458],[14.56851,57.45539],[14.56855,57.456],[14.56803,57.45642],[14.56568,57.45714],[14.56445,57.45801],[14.56306,57.45827],[14.56216,57.45967],[14.56116,57.45951],[14.5605,57.45979],[14.56039,57.46058],[14.56085,57.46165],[14.56015,57.46257],[14.56082,57.46306],[14.56083,57.46363],[14.56133,57.46392],[14.56089,57.46454],[14.54513,57.46286],[14.54917,57.46686],[14.54748,57.47285],[14.54611,57.47283],[14.54598,57.47321],[14.54733,57.47324],[14.54713,57.4737],[14.54613,57.47393],[14.54606,57.47439],[14.54353,57.47487],[14.53497,57.47492],[14.53585,57.47227],[14.53604,57.47071],[14.53494,57.46935],[14.53464,57.46833],[14.5332,57.46686],[14.53215,57.46764],[14.53173,57.46859],[14.53022,57.46872],[14.52985,57.46918],[14.52913,57.46943],[14.52929,57.47052],[14.52877,57.47161],[14.52548,57.47223],[14.52269,57.47441],[14.52106,57.47534],[14.5185,57.47585],[14.51749,57.4764],[14.51677,57.47653],[14.51817,57.47854],[14.51843,57.48079],[14.52044,57.48359],[14.51914,57.48532],[14.51695,57.48714],[14.51516,57.48754],[14.51286,57.48733],[14.5116,57.4869],[14.51077,57.48759],[14.5081,57.48905],[14.50554,57.48769],[14.50377,57.48721],[14.50221,57.48703],[14.49929,57.48796],[14.49748,57.48824],[14.49636,57.48879],[14.49598,57.48927],[14.49456,57.48963],[14.49345,57.48956],[14.49274,57.48977],[14.49136,57.49099],[14.49188,57.49145],[14.49226,57.49263],[14.49203,57.49341],[14.49135,57.49376],[14.4914,57.49611],[14.49277,57.49708],[14.49276,57.49762],[14.49346,57.49863],[14.49445,57.49881],[14.49478,57.49949],[14.49969,57.49886],[14.50408,57.49934],[14.50547,57.50004],[14.50518,57.50069],[14.50816,57.50258],[14.50824,57.50307],[14.51546,57.50579],[14.51866,57.50612],[14.51817,57.50706],[14.51471,57.50928],[14.51417,57.51053],[14.51136,57.5129],[14.51108,57.51379],[14.5117,57.51706],[14.5111,57.51818],[14.51139,57.51859],[14.51114,57.51859],[14.51224,57.51919],[14.51515,57.51885],[14.51742,57.51961],[14.51712,57.51964],[14.51713,57.51999],[14.5172,57.52051],[14.5178,57.52102],[14.51758,57.52187],[14.51879,57.52233],[14.51982,57.52334],[14.51984,57.52382],[14.52087,57.52504],[14.52123,57.52607],[14.521,57.52626],[14.52352,57.52652],[14.52486,57.52688],[14.52561,57.5278],[14.52663,57.52841],[14.52713,57.52941],[14.52765,57.52959],[14.5299,57.52931],[14.52978,57.52867],[14.53012,57.52796],[14.53126,57.52678],[14.53199,57.52653],[14.53454,57.52639],[14.54336,57.53073],[14.544,57.53013],[14.54712,57.52855],[14.55085,57.52498],[14.55126,57.5251],[14.55338,57.52494],[14.55486,57.52465],[14.55502,57.52269],[14.55782,57.5232],[14.55996,57.52391],[14.56377,57.52342],[14.56698,57.52245],[14.57651,57.52191],[14.57725,57.52579],[14.579,57.52771],[14.57944,57.53011],[14.57897,57.53271],[14.58574,57.5328],[14.59153,57.53071],[14.59284,57.5307],[14.59795,57.52989],[14.60622,57.52794],[14.60672,57.52839],[14.60589,57.52928],[14.60689,57.53034],[14.60654,57.53182],[14.60559,57.53326],[14.60543,57.53822],[14.60425,57.53887],[14.60449,57.53958],[14.60331,57.53989],[14.60288,57.54083],[14.61104,57.54141],[14.62225,57.54648],[14.61943,57.54891],[14.61233,57.55146],[14.60604,57.55581],[14.60162,57.55686],[14.59755,57.5587],[14.59675,57.55949],[14.59536,57.56187],[14.594,57.56542],[14.59296,57.56673],[14.59336,57.56739],[14.59247,57.56984],[14.59657,57.57461],[14.59771,57.5752],[14.59969,57.57575],[14.60055,57.57636],[14.60315,57.57702],[14.6054,57.5773],[14.60736,57.57777],[14.60976,57.57866],[14.61112,57.57992],[14.61203,57.58033],[14.61352,57.58048],[14.61705,57.58027],[14.61883,57.58067],[14.62042,57.5807],[14.63972,57.58637],[14.63691,57.59401],[14.62931,57.60242],[14.62163,57.60575],[14.62484,57.60711],[14.61844,57.61226],[14.61953,57.61345],[14.62078,57.61396],[14.62161,57.61461],[14.6227,57.61637],[14.6226,57.61784],[14.62128,57.62007],[14.62177,57.62007],[14.62333,57.6209],[14.62488,57.62217],[14.625,57.62292],[14.6255,57.6231],[14.62593,57.62452],[14.62718,57.62536],[14.62815,57.62683],[14.62927,57.62764],[14.63233,57.63206],[14.63316,57.63404],[14.63633,57.63444],[14.64186,57.63455],[14.64354,57.63547],[14.64252,57.63685],[14.66383,57.63572],[14.66401,57.63389],[14.6583,57.63102],[14.65637,57.62914],[14.65492,57.62586],[14.65509,57.6244],[14.65592,57.62288],[14.65544,57.62151],[14.65552,57.62041],[14.6562,57.61903],[14.65713,57.61808],[14.66233,57.61464],[14.664,57.61397],[14.66649,57.61337],[14.66862,57.61314],[14.67073,57.61312],[14.67417,57.61358],[14.67743,57.61475],[14.67931,57.61613],[14.6805,57.61801],[14.6828,57.61805],[14.68538,57.61844],[14.68861,57.61941],[14.69058,57.62034],[14.69307,57.62247],[14.69396,57.62381],[14.69421,57.62525],[14.69381,57.62721],[14.6968,57.62932],[14.69769,57.62927],[14.69918,57.63042],[14.70109,57.62957],[14.70241,57.6285],[14.70385,57.62775],[14.7074,57.62674],[14.71001,57.6265],[14.71358,57.62651],[14.71611,57.62673],[14.71799,57.62712],[14.72019,57.62791],[14.72158,57.6287],[14.72446,57.63166],[14.7268,57.63313],[14.72803,57.63481],[14.73171,57.63706],[14.73491,57.63865],[14.74206,57.63822],[14.74672,57.63848],[14.74987,57.63913],[14.75245,57.64026],[14.75397,57.64146],[14.75499,57.64315],[14.75504,57.64487],[14.76026,57.64362],[14.76221,57.64293]],[[14.70908,57.51946],[14.70525,57.51895],[14.7022,57.51781],[14.69921,57.51834],[14.69337,57.51877],[14.69073,57.5187],[14.68816,57.51826],[14.68592,57.51751],[14.68446,57.51673],[14.68305,57.51553],[14.68228,57.51429],[14.67806,57.5136],[14.67566,57.51291],[14.67347,57.51182],[14.6717,57.51018],[14.67105,57.50876],[14.67106,57.5073],[14.67177,57.50584],[14.67336,57.50413],[14.67494,57.50299],[14.6765,57.50227],[14.67825,57.50174],[14.68073,57.50133],[14.67976,57.49926],[14.67956,57.49813],[14.67991,57.49668],[14.68069,57.49554],[14.68219,57.49432],[14.68378,57.4935],[14.68585,57.4918],[14.68732,57.49112],[14.68962,57.49046],[14.69284,57.49011],[14.69668,57.49042],[14.69953,57.49125],[14.70152,57.49216],[14.70289,57.49305],[14.70535,57.49274],[14.70783,57.49276],[14.71008,57.49232],[14.71206,57.49217],[14.71474,57.49229],[14.71784,57.49293],[14.7204,57.49406],[14.72219,57.49557],[14.72294,57.49695],[14.72305,57.49833],[14.72421,57.50032],[14.72665,57.50108],[14.73019,57.50269],[14.73187,57.50384],[14.73282,57.50492],[14.73349,57.50679],[14.73281,57.50899],[14.73058,57.51145],[14.72693,57.51424],[14.72435,57.51537],[14.7207,57.51627],[14.71875,57.51767],[14.7166,57.51854],[14.71348,57.51917],[14.70908,57.51946]]]}},{"type":"Feature","id":"0682R010","properties":{"code":"0682R010","name":"Nässjö västra landsbygd"},"geometry":{"type":"Polygon","coordinates":[[[14.65334,57.75227],[14.65429,57.75201],[14.6554,57.75123],[14.65777,57.75095],[14.65799,57.75071],[14.65841,57.75077],[14.65852,57.75114],[14.65917,57.75136],[14.65962,57.75118],[14.65973,57.75165],[14.66081,57.75229],[14.66261,57.7522],[14.66271,57.751],[14.66343,57.75038],[14.66321,57.75002],[14.66348,57.74983],[14.66318,57.7497],[14.66413,57.74927],[14.66427,57.74901],[14.66542,57.74891],[14.6666,57.74791],[14.66856,57.74732],[14.6693,57.74749],[14.66952,57.74735],[14.67132,57.7473],[14.67174,57.74698],[14.67217,57.74712],[14.67249,57.747],[14.67256,57.74617],[14.67173,57.74577],[14.67219,57.74554],[14.67179,57.74544],[14.67189,57.74522],[14.67129,57.74506],[14.67131,57.74477],[14.67093,57.7447],[14.67074,57.7441],[14.67118,57.74368],[14.67125,57.7431],[14.67158,57.74305],[14.67165,57.74254],[14.6712,57.74238],[14.6712,57.74201],[14.67163,57.74168],[14.67117,57.73873],[14.67343,57.73747],[14.67809,57.73656],[14.67843,57.72727],[14.6722,57.72336],[14.67206,57.72229],[14.67016,57.72065],[14.66908,57.71851],[14.66769,57.71756],[14.66753,57.71672],[14.66756,57.7164],[14.66916,57.71561],[14.66901,57.7155],[14.66973,57.71436],[14.67415,57.71039],[14.67361,57.70899],[14.67233,57.70789],[14.67216,57.70615],[14.66961,57.70424],[14.66968,57.70374],[14.66677,57.7033],[14.66573,57.70268],[14.665,57.70265],[14.66467,57.70303],[14.6641,57.7031],[14.66384,57.70381],[14.66245,57.70406],[14.66253,57.70432],[14.659,57.70439],[14.65694,57.70495],[14.65424,57.70527],[14.65274,57.70505],[14.64075,57.70502],[14.63817,57.70008],[14.63988,57.69455],[14.63882,57.69446],[14.63799,57.69481],[14.63707,57.69459],[14.63474,57.68832],[14.63553,57.6863],[14.63731,57.6858],[14.64967,57.68529],[14.66511,57.68246],[14.6733,57.6822],[14.67626,57.68119],[14.67579,57.67979],[14.67581,57.67843],[14.67478,57.67648],[14.67359,57.67544],[14.67269,57.67395],[14.67273,57.67175],[14.67027,57.66968],[14.66931,57.668],[14.66693,57.66783],[14.66496,57.66745],[14.66157,57.66614],[14.65997,57.66496],[14.65898,57.66366],[14.6564,57.662],[14.65517,57.65995],[14.65511,57.65859],[14.65563,57.6572],[14.65738,57.65547],[14.65841,57.65337],[14.66073,57.65169],[14.6609,57.65016],[14.66173,57.64881],[14.66546,57.64517],[14.66681,57.64437],[14.66872,57.64363],[14.66803,57.64192],[14.66849,57.63992],[14.66667,57.6391],[14.66543,57.63824],[14.66431,57.63696],[14.66383,57.63572],[14.64252,57.63685],[14.64354,57.63547],[14.64186,57.63455],[14.63633,57.63444],[14.63316,57.63404],[14.63233,57.63206],[14.62927,57.62764],[14.62815,57.62683],[14.62718,57.62536],[14.62593,57.62452],[14.6255,57.6231],[14.625,57.62292],[14.62488,57.62217],[14.62333,57.6209],[14.62177,57.62007],[14.62128,57.62007],[14.6226,57.61784],[14.6227,57.61637],[14.62161,57.61461],[14.62078,57.61396],[14.61953,57.61345],[14.61844,57.61226],[14.62484,57.60711],[14.62163,57.60575],[14.62931,57.60242],[14.63077,57.60086],[14.63691,57.59401],[14.63972,57.58637],[14.62042,57.5807],[14.61883,57.58067],[14.61705,57.58027],[14.61352,57.58048],[14.61203,57.58033],[14.61112,57.57992],[14.60976,57.57866],[14.60736,57.57777],[14.6054,57.5773],[14.60315,57.57702],[14.60055,57.57636],[14.59969,57.57575],[14.59771,57.5752],[14.59657,57.57461],[14.59247,57.56984],[14.59336,57.56739],[14.59296,57.56673],[14.594,57.56542],[14.59536,57.56187],[14.59675,57.55949],[14.59755,57.5587],[14.60162,57.55686],[14.60604,57.55581],[14.61233,57.55146],[14.61943,57.54891],[14.62225,57.54648],[14.61104,57.54141],[14.60288,57.54083],[14.60331,57.53989],[14.60449,57.53958],[14.60425,57.53887],[14.60543,57.53822],[14.60559,57.53326],[14.60654,57.53182],[14.60689,57.53034],[14.60589,57.52928],[14.60676,57.52847],[14.6063,57.52799],[14.59795,57.52989],[14.59284,57.5307],[14.59153,57.53071],[14.58574,57.5328],[14.57897,57.53271],[14.57944,57.53011],[14.579,57.52771],[14.57725,57.52579],[14.57651,57.52191],[14.56698,57.52245],[14.56377,57.52342],[14.55996,57.52391],[14.55782,57.5232],[14.55502,57.52269],[14.55486,57.52465],[14.55338,57.52494],[14.55126,57.5251],[14.55085,57.52498],[14.54712,57.52855],[14.544,57.53013],[14.54336,57.53073],[14.53454,57.52639],[14.53199,57.52653],[14.53126,57.52678],[14.53012,57.52796],[14.52978,57.52867],[14.5299,57.52931],[14.52765,57.52959],[14.52713,57.52941],[14.52663,57.52841],[14.52561,57.5278],[14.52486,57.52688],[14.52352,57.52652],[14.521,57.52626],[14.52123,57.52607],[14.52087,57.52504],[14.51984,57.52382],[14.51982,57.52334],[14.51879,57.52233],[14.51758,57.52187],[14.5178,57.52102],[14.5172,57.52051],[14.51713,57.51999],[14.51712,57.51964],[14.51742,57.51961],[14.51515,57.51885],[14.51224,57.51919],[14.51114,57.51859],[14.51139,57.51859],[14.5111,57.51818],[14.5117,57.51706],[14.51108,57.51379],[14.51136,57.5129],[14.51417,57.51053],[14.51471,57.50928],[14.51817,57.50706],[14.51866,57.50612],[14.51546,57.50579],[14.50824,57.50307],[14.50816,57.50258],[14.50518,57.50069],[14.50547,57.50004],[14.50408,57.49934],[14.49969,57.49886],[14.49478,57.49949],[14.49445,57.49881],[14.49346,57.49863],[14.49276,57.49762],[14.49277,57.49708],[14.4914,57.49611],[14.49135,57.49376],[14.49203,57.49341],[14.49226,57.49263],[14.49188,57.49145],[14.49136,57.49099],[14.49165,57.49079],[14.4808,57.48781],[14.47341,57.48714],[14.46748,57.48759],[14.46227,57.48776],[14.45511,57.48834],[14.45063,57.48967],[14.44558,57.49075],[14.44421,57.49075],[14.44004,57.49194],[14.43754,57.49223],[14.43662,57.49208],[14.43455,57.49793],[14.44086,57.50484],[14.43802,57.50681],[14.42651,57.50615],[14.4237,57.50982],[14.40509,57.51036],[14.40523,57.51058],[14.40475,57.51074],[14.40375,57.51063],[14.40153,57.50994],[14.40002,57.51033],[14.39937,57.51082],[14.39782,57.51052],[14.39585,57.51064],[14.39549,57.51362],[14.39277,57.51521],[14.37672,57.51741],[14.36431,57.51588],[14.36197,57.51584],[14.35265,57.51687],[14.35132,57.51767],[14.35096,57.5177],[14.3502,57.5175],[14.34906,57.51665],[14.34837,57.5175],[14.34723,57.51776],[14.3466,57.51755],[14.3457,57.51825],[14.34421,57.51875],[14.34336,57.51952],[14.34221,57.51969],[14.34144,57.5194],[14.34074,57.51937],[14.33973,57.51999],[14.33996,57.52136],[14.33774,57.52508],[14.33476,57.52482],[14.32662,57.52625],[14.31394,57.53178],[14.3312,57.53957],[14.33153,57.54023],[14.33283,57.54052],[14.34275,57.54022],[14.34392,57.53997],[14.34579,57.53919],[14.34646,57.53936],[14.34649,57.54139],[14.34662,57.54174],[14.34716,57.54205],[14.34765,57.54343],[14.34567,57.54612],[14.34643,57.54663],[14.3468,57.54801],[14.34781,57.5487],[14.34751,57.54928],[14.34777,57.55007],[14.3475,57.55047],[14.34762,57.55167],[14.34697,57.55275],[14.34658,57.55282],[14.34569,57.55385],[14.34476,57.55431],[14.3445,57.55527],[14.3447,57.55568],[14.34397,57.55704],[14.34363,57.55864],[14.34213,57.5607],[14.34116,57.56737],[14.33709,57.57181],[14.33752,57.57249],[14.33803,57.5727],[14.33775,57.57516],[14.33742,57.5754],[14.33682,57.57727],[14.33669,57.58055],[14.33601,57.58289],[14.33605,57.58398],[14.33646,57.58503],[14.33713,57.58526],[14.33746,57.58694],[14.33599,57.59092],[14.33166,57.59606],[14.34671,57.59749],[14.35407,57.59772],[14.35793,57.59828],[14.36087,57.59902],[14.37002,57.60395],[14.3799,57.61269],[14.37684,57.61402],[14.37002,57.61496],[14.3678,57.61559],[14.3675,57.61674],[14.36617,57.61745],[14.36586,57.61969],[14.36492,57.62145],[14.36027,57.62586],[14.35985,57.62779],[14.36012,57.62813],[14.36028,57.63018],[14.35995,57.63079],[14.36371,57.63216],[14.36383,57.63299],[14.36449,57.63367],[14.36877,57.63393],[14.36936,57.63462],[14.37016,57.63461],[14.37054,57.63431],[14.37126,57.63421],[14.37296,57.63476],[14.37825,57.6357],[14.38232,57.63776],[14.38348,57.63799],[14.38518,57.63865],[14.38697,57.63983],[14.3852,57.64098],[14.38571,57.64159],[14.38584,57.64262],[14.3845,57.64321],[14.38488,57.64547],[14.38462,57.6462],[14.38378,57.64655],[14.38369,57.64714],[14.38407,57.64778],[14.3833,57.64815],[14.3833,57.64863],[14.38288,57.64905],[14.38322,57.64951],[14.38311,57.64992],[14.38457,57.65116],[14.38591,57.65091],[14.38992,57.65072],[14.39108,57.65042],[14.39146,57.6508],[14.39133,57.65161],[14.39303,57.65227],[14.39302,57.65353],[14.39431,57.65432],[14.39275,57.65456],[14.39197,57.65495],[14.39109,57.65616],[14.39353,57.65741],[14.39425,57.65824],[14.3943,57.65878],[14.39571,57.66004],[14.39495,57.6609],[14.39425,57.66119],[14.39555,57.66492],[14.39522,57.66611],[14.39806,57.66535],[14.40327,57.66535],[14.40602,57.66472],[14.41154,57.66427],[14.41305,57.66212],[14.41474,57.66312],[14.42186,57.66302],[14.42547,57.66375],[14.42628,57.66532],[14.42617,57.66657],[14.42675,57.66715],[14.4268,57.66772],[14.42721,57.66797],[14.42169,57.66937],[14.4209,57.67231],[14.41867,57.67656],[14.42291,57.68432],[14.43195,57.68281],[14.44197,57.68763],[14.43929,57.68826],[14.43773,57.69197],[14.43959,57.69322],[14.4447,57.69445],[14.44894,57.69429],[14.44992,57.69533],[14.44956,57.69594],[14.45101,57.69469],[14.45302,57.6936],[14.45491,57.69184],[14.45746,57.69053],[14.45931,57.68998],[14.46186,57.68951],[14.46198,57.6891],[14.46312,57.68899],[14.46335,57.68931],[14.46424,57.68921],[14.4654,57.68881],[14.46779,57.68753],[14.47006,57.68679],[14.47265,57.68637],[14.47594,57.68636],[14.4784,57.6867],[14.48024,57.68715],[14.48311,57.68847],[14.48718,57.68957],[14.48888,57.69023],[14.49128,57.6917],[14.49264,57.69315],[14.49545,57.69398],[14.49733,57.69498],[14.49844,57.69592],[14.49933,57.69726],[14.49964,57.6985],[14.49949,57.69958],[14.49811,57.70157],[14.49687,57.70245],[14.49485,57.70337],[14.49087,57.70439],[14.48877,57.70472],[14.48924,57.70662],[14.48852,57.70852],[14.48687,57.71008],[14.4844,57.71128],[14.48261,57.71178],[14.4796,57.71225],[14.47552,57.71226],[14.47185,57.71295],[14.4676,57.71342],[14.46558,57.71346],[14.46294,57.7132],[14.4598,57.71325],[14.45472,57.71283],[14.45174,57.71202],[14.44823,57.71038],[14.44818,57.71051],[14.44819,57.71036],[14.44665,57.71234],[14.44672,57.71296],[14.44243,57.71375],[14.44131,57.71439],[14.43431,57.71695],[14.43445,57.71796],[14.43381,57.71931],[14.43453,57.72059],[14.43636,57.72139],[14.44296,57.72174],[14.44774,57.72228],[14.4513,57.72232],[14.45513,57.72301],[14.45531,57.72582],[14.45635,57.73095],[14.45906,57.7307],[14.45946,57.73088],[14.46476,57.72906],[14.47191,57.72735],[14.47191,57.72715],[14.47283,57.72676],[14.47636,57.72661],[14.47815,57.72613],[14.48273,57.72653],[14.48567,57.72635],[14.49944,57.72332],[14.50022,57.72479],[14.50204,57.72603],[14.50513,57.72629],[14.50663,57.72676],[14.50841,57.72694],[14.5087,57.72741],[14.50854,57.72927],[14.50905,57.73116],[14.51047,57.73304],[14.5153,57.74098],[14.52085,57.74394],[14.52537,57.74481],[14.52824,57.74393],[14.5289,57.74281],[14.53016,57.74241],[14.53152,57.7428],[14.5323,57.74268],[14.53367,57.7428],[14.53627,57.74362],[14.53741,57.74357],[14.54061,57.74584],[14.54044,57.74508],[14.54124,57.74443],[14.54236,57.7442],[14.54272,57.74386],[14.54198,57.74323],[14.5451,57.7428],[14.54662,57.74344],[14.54519,57.74709],[14.54764,57.74676],[14.54742,57.74601],[14.54888,57.74469],[14.54962,57.74453],[14.54961,57.7437],[14.55288,57.74331],[14.55307,57.74279],[14.55246,57.74219],[14.55472,57.74063],[14.5576,57.74094],[14.56,57.74409],[14.56135,57.74523],[14.56449,57.74571],[14.56615,57.74567],[14.56754,57.74534],[14.56921,57.74445],[14.57003,57.74375],[14.57068,57.73988],[14.56922,57.73818],[14.56923,57.73704],[14.5701,57.73665],[14.57003,57.73604],[14.57079,57.73569],[14.57098,57.73535],[14.57337,57.73572],[14.57752,57.73411],[14.57933,57.73508],[14.58272,57.73765],[14.58444,57.73865],[14.59199,57.73948],[14.59455,57.73896],[14.59585,57.73891],[14.59852,57.73897],[14.60041,57.73934],[14.60128,57.73902],[14.60339,57.73887],[14.60581,57.73936],[14.6057,57.73981],[14.6063,57.74019],[14.60661,57.74103],[14.60622,57.74256],[14.60514,57.74295],[14.60367,57.74274],[14.6033,57.743],[14.60385,57.74356],[14.60317,57.74382],[14.60313,57.74402],[14.60484,57.74428],[14.60602,57.74478],[14.60773,57.74468],[14.60814,57.74573],[14.60869,57.74607],[14.61078,57.74632],[14.61155,57.74667],[14.61275,57.74689],[14.61399,57.74781],[14.61506,57.74774],[14.61597,57.74798],[14.61675,57.7486],[14.61796,57.74872],[14.62537,57.7479],[14.62635,57.74843],[14.62823,57.75],[14.63032,57.75115],[14.63389,57.75011],[14.63473,57.74957],[14.63705,57.74946],[14.63896,57.74914],[14.63995,57.74911],[14.6422,57.74954],[14.64329,57.74949],[14.64618,57.74986],[14.64656,57.74973],[14.64727,57.75045],[14.6474,57.75097],[14.6496,57.75184],[14.65001,57.75223],[14.65097,57.75244],[14.65162,57.75224],[14.65292,57.7526],[14.65334,57.75227]],[[14.46826,57.59013],[14.46595,57.5892],[14.46468,57.5891],[14.46255,57.58963],[14.46059,57.58988],[14.45664,57.58976],[14.45399,57.58925],[14.45204,57.58861],[14.44944,57.58853],[14.44638,57.58808],[14.44334,57.58711],[14.44064,57.58555],[14.43935,57.58428],[14.43864,57.58254],[14.43883,57.57949],[14.43604,57.57727],[14.43492,57.57557],[14.43472,57.57414],[14.43501,57.57263],[14.43559,57.5716],[14.43689,57.57037],[14.44092,57.5682],[14.44331,57.56752],[14.44605,57.56719],[14.44756,57.56627],[14.44932,57.56558],[14.44954,57.56241],[14.4501,57.56141],[14.45133,57.56013],[14.4531,57.55902],[14.45477,57.55835],[14.45665,57.55786],[14.45881,57.55755],[14.46237,57.55754],[14.46557,57.55809],[14.46804,57.559],[14.47017,57.56039],[14.47146,57.56217],[14.47173,57.56337],[14.47163,57.56542],[14.47301,57.56806],[14.47585,57.56878],[14.47788,57.56973],[14.48055,57.57198],[14.4821,57.57384],[14.48288,57.57589],[14.48272,57.57814],[14.48212,57.57952],[14.48493,57.58212],[14.48594,57.58382],[14.48601,57.5856],[14.48515,57.58733],[14.48375,57.58856],[14.48129,57.58976],[14.47826,57.59049],[14.47409,57.59082],[14.47082,57.59066],[14.46826,57.59013]]]}},{"type":"Feature","id":"0682R011","properties":{"code":"0682R011","name":"Södra Åker-Åkershäll-Södergården"},"geometry":{"type":"Polygon","coordinates":[[[14.69757,57.64955],[14.69943,57.6478],[14.70337,57.64085],[14.70398,57.63913],[14.70397,57.63592],[14.70166,57.62904],[14.70109,57.62957],[14.69918,57.63042],[14.69769,57.62927],[14.6968,57.62932],[14.69381,57.62721],[14.69421,57.62525],[14.69396,57.62381],[14.69307,57.62247],[14.69137,57.62088],[14.68916,57.61962],[14.68596,57.61858],[14.68343,57.61811],[14.6805,57.61801],[14.679,57.61583],[14.67647,57.6143],[14.67357,57.61346],[14.67073,57.61312],[14.6673,57.61326],[14.66456,57.6138],[14.66132,57.61521],[14.65981,57.61646],[14.65713,57.61808],[14.65578,57.61971],[14.65542,57.62114],[14.65592,57.62288],[14.65509,57.6244],[14.65492,57.62586],[14.65525,57.62698],[14.65688,57.62983],[14.65876,57.6313],[14.66189,57.63295],[14.66365,57.63357],[14.66401,57.63389],[14.66383,57.63572],[14.67763,57.63509],[14.67956,57.63558],[14.67804,57.63729],[14.67596,57.63906],[14.67602,57.63962],[14.67758,57.64172],[14.67756,57.64238],[14.67851,57.64295],[14.68068,57.64362],[14.68343,57.64505],[14.68445,57.64513],[14.69757,57.64955]]]}},{"type":"Feature","id":"0682R012","properties":{"code":"0682R012","name":"Åker-Målen"},"geometry":{"type":"Polygon","coordinates":[[[14.68844,57.68616],[14.68467,57.6743],[14.68381,57.66961],[14.67928,57.66838],[14.67846,57.66514],[14.68147,57.66243],[14.68134,57.66076],[14.68016,57.65857],[14.68491,57.65766],[14.68801,57.65769],[14.69751,57.6496],[14.68445,57.64513],[14.68343,57.64505],[14.68068,57.64362],[14.67851,57.64295],[14.67756,57.64238],[14.67758,57.64172],[14.67602,57.63962],[14.67596,57.63906],[14.67804,57.63729],[14.67956,57.63558],[14.67763,57.63509],[14.66383,57.63572],[14.66431,57.63696],[14.66543,57.63824],[14.66667,57.6391],[14.66849,57.63992],[14.66803,57.64192],[14.66872,57.64363],[14.66681,57.64437],[14.66546,57.64517],[14.66147,57.64913],[14.66079,57.6505],[14.66073,57.65169],[14.65841,57.65337],[14.65738,57.65547],[14.65615,57.65652],[14.65545,57.65753],[14.65509,57.65897],[14.65542,57.66068],[14.65675,57.66231],[14.65898,57.66366],[14.66029,57.66525],[14.66203,57.66638],[14.66555,57.66759],[14.66931,57.668],[14.67027,57.66968],[14.67273,57.67175],[14.67254,57.67327],[14.67287,57.67438],[14.67359,57.67544],[14.67478,57.67648],[14.67581,57.67843],[14.67584,57.68013],[14.67634,57.68138],[14.67704,57.68245],[14.6781,57.68342],[14.6801,57.68455],[14.68302,57.68546],[14.68844,57.68616]]]}},{"type":"Feature","id":"0682R013","properties":{"code":"0682R013","name":"Östra Runneryd"},"geometry":{"type":"Polygon","coordinates":[[[14.70956,57.66863],[14.70639,57.66747],[14.70589,57.66656],[14.70646,57.66545],[14.7079,57.66451],[14.7079,57.66346],[14.70876,57.66281],[14.70871,57.66186],[14.70329,57.66026],[14.70449,57.65911],[14.70388,57.65889],[14.70167,57.65874],[14.70209,57.65691],[14.70381,57.65672],[14.70343,57.65405],[14.69981,57.65589],[14.69613,57.65881],[14.69701,57.66026],[14.69642,57.66265],[14.70061,57.66321],[14.69945,57.66923],[14.70426,57.66997],[14.70956,57.66863]]]}}]}