{"type":"FeatureCollection","features":[{"type":"Feature","id":"0683R009","properties":{"code":"0683R009","name":"Trälleborg"},"geometry":{"type":"Polygon","coordinates":[[[14.03048,57.19375],[14.0312,57.19352],[14.03187,57.19283],[14.03406,57.19257],[14.0341,57.19204],[14.0353,57.19229],[14.03596,57.18404],[14.02974,57.18348],[14.02847,57.18425],[14.02798,57.18545],[14.0225,57.18853],[14.02522,57.19019],[14.02477,57.19091],[14.02727,57.19175],[14.02848,57.19197],[14.02753,57.19292],[14.03048,57.19375]]]}},{"type":"Feature","id":"0683R001","properties":{"code":"0683R001","name":"Bor"},"geometry":{"type":"Polygon","coordinates":[[[14.16869,57.12892],[14.17131,57.12871],[14.17317,57.12834],[14.17636,57.12706],[14.1782,57.12555],[14.17942,57.12341],[14.1797,57.12199],[14.17931,57.12007],[14.18386,57.1199],[14.18743,57.11897],[14.19142,57.11676],[14.19268,57.11547],[14.19322,57.11437],[14.19342,57.11304],[14.19302,57.11159],[14.19228,57.11055],[14.19074,57.10931],[14.18912,57.10753],[14.18869,57.10541],[14.1871,57.10308],[14.18548,57.10193],[14.18311,57.10084],[14.18078,57.10019],[14.17763,57.09971],[14.17497,57.09967],[14.17205,57.10007],[14.16841,57.09968],[14.16505,57.09992],[14.1619,57.10073],[14.15916,57.10223],[14.15684,57.1027],[14.15518,57.10329],[14.14946,57.10661],[14.14786,57.10867],[14.14763,57.10978],[14.14783,57.11099],[14.14736,57.11136],[14.14384,57.11266],[14.1417,57.11395],[14.13983,57.1158],[14.13914,57.11717],[14.13919,57.11895],[14.14,57.12035],[14.14264,57.1224],[14.1446,57.1234],[14.14823,57.12441],[14.15081,57.12487],[14.1548,57.12501],[14.15794,57.12473],[14.15953,57.12656],[14.16188,57.12785],[14.16481,57.12866],[14.16869,57.12892]]]}},{"type":"Feature","id":"0683R002","properties":{"code":"0683R002","name":"Bredaryd"},"geometry":{"type":"Polygon","coordinates":[[[13.735,57.18974],[13.7389,57.18933],[13.74428,57.18788],[13.74592,57.18727],[13.74831,57.18611],[13.74984,57.18496],[13.75164,57.1819],[13.75436,57.18111],[13.75672,57.17978],[13.7588,57.17983],[13.76135,57.17962],[13.76385,57.17908],[13.76556,57.17844],[13.76737,57.17742],[13.76851,57.17648],[13.76946,57.17511],[13.76976,57.174],[13.76959,57.17111],[13.76914,57.16968],[13.76811,57.16835],[13.76653,57.16722],[13.76444,57.16632],[13.76109,57.16562],[13.75879,57.16486],[13.75697,57.16454],[13.75466,57.1644],[13.75188,57.16317],[13.74993,57.1626],[13.74815,57.16148],[13.74601,57.15936],[13.74421,57.15836],[13.74143,57.15752],[13.73829,57.15718],[13.73449,57.15751],[13.73251,57.15801],[13.73096,57.15863],[13.72865,57.15999],[13.72755,57.16093],[13.7268,57.16198],[13.72641,57.16328],[13.72318,57.16392],[13.7205,57.16499],[13.71847,57.16653],[13.71752,57.1681],[13.71212,57.16901],[13.70845,57.17038],[13.70596,57.17216],[13.70486,57.17432],[13.70499,57.17579],[13.70553,57.17687],[13.70645,57.17788],[13.70814,57.17902],[13.71291,57.18103],[13.71801,57.18196],[13.71993,57.18283],[13.7216,57.18394],[13.72461,57.18519],[13.72613,57.18706],[13.72878,57.18862],[13.7317,57.18945],[13.735,57.18974]]]}},{"type":"Feature","id":"0683R003","properties":{"code":"0683R003","name":"Centrum-Apladalen"},"geometry":{"type":"Polygon","coordinates":[[[14.05559,57.19072],[14.05599,57.18971],[14.05922,57.18932],[14.06317,57.18937],[14.06312,57.18914],[14.06566,57.18886],[14.06708,57.18822],[14.0678,57.18735],[14.06874,57.18528],[14.06876,57.18433],[14.06605,57.18155],[14.06508,57.18166],[14.06476,57.17736],[14.06347,57.17636],[14.06054,57.17581],[14.06117,57.17324],[14.07348,57.16933],[14.07205,57.16575],[14.07141,57.16149],[14.06998,57.16119],[14.06734,57.16097],[14.06408,57.1612],[14.06223,57.16161],[14.05823,57.16287],[14.05659,57.16372],[14.05544,57.1646],[14.05415,57.16664],[14.05233,57.1683],[14.04884,57.16798],[14.04929,57.16653],[14.04871,57.16523],[14.04736,57.16444],[14.0452,57.16363],[14.042,57.16309],[14.03488,57.16353],[14.03723,57.17022],[14.03758,57.1732],[14.03665,57.17855],[14.03252,57.17818],[14.03143,57.18366],[14.03747,57.18414],[14.04092,57.18464],[14.04142,57.18488],[14.04436,57.18446],[14.04519,57.18637],[14.04796,57.18857],[14.04766,57.18932],[14.04616,57.19025],[14.04431,57.19035],[14.0427,57.19087],[14.0435,57.19192],[14.04573,57.19272],[14.04755,57.193],[14.05233,57.19263],[14.05258,57.19211],[14.05559,57.19072]]]}},{"type":"Feature","id":"0683R010","properties":{"code":"0683R010","name":"Vråen-Rörstorp"},"geometry":{"type":"Polygon","coordinates":[[[14.08118,57.18739],[14.07996,57.18166],[14.08435,57.18217],[14.08761,57.18413],[14.08834,57.18413],[14.08942,57.18216],[14.08926,57.18026],[14.08838,57.17888],[14.0872,57.17786],[14.08687,57.17579],[14.08525,57.17398],[14.08432,57.17178],[14.08323,57.17041],[14.083,57.16868],[14.08211,57.1673],[14.08007,57.16576],[14.07692,57.16458],[14.07448,57.16265],[14.07141,57.16149],[14.07205,57.16575],[14.07348,57.16933],[14.06117,57.17324],[14.06054,57.17581],[14.06316,57.17625],[14.06457,57.17706],[14.06489,57.17771],[14.06508,57.18166],[14.06605,57.18155],[14.06844,57.18384],[14.06883,57.18472],[14.06858,57.18568],[14.08028,57.18739],[14.08118,57.18739]]]}},{"type":"Feature","id":"0683R011","properties":{"code":"0683R011","name":"Värnamo sydöstra"},"geometry":{"type":"Polygon","coordinates":[[[14.26884,57.10606],[14.27651,57.1051],[14.27883,57.10499],[14.28001,57.10382],[14.27778,57.08917],[14.27877,57.08694],[14.27683,57.08277],[14.27717,57.07841],[14.28541,57.07168],[14.28908,57.07203],[14.29122,57.07178],[14.29195,57.07235],[14.29356,57.07241],[14.29386,57.07263],[14.29394,57.0746],[14.29661,57.07548],[14.30732,57.07517],[14.31638,57.07565],[14.32186,57.08089],[14.3255,57.08272],[14.32753,57.08615],[14.3267,57.0896],[14.32882,57.09071],[14.33015,57.09115],[14.33204,57.09271],[14.33598,57.09293],[14.33713,57.09238],[14.33838,57.09219],[14.34125,57.09245],[14.3433,57.09405],[14.3459,57.09558],[14.34705,57.09663],[14.34755,57.09678],[14.35072,57.09634],[14.3577,57.09632],[14.35914,57.0879],[14.35607,57.0847],[14.35908,57.08306],[14.3625,57.0801],[14.35724,57.07442],[14.35998,57.06421],[14.35992,57.05766],[14.34972,57.0565],[14.338,57.0558],[14.33599,57.04595],[14.33779,57.04623],[14.33726,57.04525],[14.3371,57.04388],[14.33702,57.04375],[14.33533,57.04393],[14.3346,57.04371],[14.33436,57.04207],[14.33246,57.0409],[14.3321,57.03966],[14.33344,57.03779],[14.33255,57.03593],[14.33251,57.03315],[14.33213,57.03244],[14.33221,57.03041],[14.33173,57.02888],[14.33189,57.0273],[14.33151,57.027],[14.33054,57.02335],[14.3328,57.02207],[14.33398,57.0196],[14.33331,57.01843],[14.33553,57.01563],[14.34719,57.01131],[14.35225,57.01152],[14.34941,57.00324],[14.35129,57.00366],[14.35167,57.00357],[14.35646,57.00401],[14.36044,57.00508],[14.36184,57.00509],[14.3627,57.00485],[14.37217,57.00522],[14.37423,57.00386],[14.37412,57.00297],[14.37582,57.00186],[14.37585,57.00112],[14.37635,57.00065],[14.37686,57.00051],[14.37739,57.00058],[14.37778,57.00018],[14.37904,56.99968],[14.37837,56.99908],[14.37584,56.99798],[14.37606,56.9975],[14.3757,56.99724],[14.3747,56.99664],[14.37383,56.99668],[14.3729,56.99625],[14.37191,56.99499],[14.36883,56.99364],[14.36818,56.99306],[14.36809,56.99101],[14.36669,56.98843],[14.36688,56.98708],[14.36778,56.98598],[14.36839,56.98589],[14.36759,56.98487],[14.36682,56.98311],[14.36698,56.98144],[14.37653,56.98119],[14.37935,56.97542],[14.39446,56.96459],[14.39492,56.96296],[14.39266,56.96175],[14.39131,56.96034],[14.38733,56.95375],[14.38683,56.9478],[14.38482,56.94427],[14.38378,56.94355],[14.37935,56.94163],[14.37854,56.94034],[14.37766,56.94005],[14.3768,56.93904],[14.37695,56.93814],[14.37601,56.93736],[14.37621,56.93669],[14.37765,56.93564],[14.37585,56.93188],[14.37517,56.93145],[14.37471,56.93074],[14.37375,56.93065],[14.37237,56.93083],[14.36968,56.93016],[14.36139,56.92034],[14.34562,56.91341],[14.33248,56.8961],[14.32596,56.89086],[14.32686,56.88953],[14.3272,56.88733],[14.32663,56.88677],[14.32662,56.88569],[14.3255,56.88499],[14.32551,56.88394],[14.3248,56.8834],[14.32499,56.88288],[14.32312,56.88192],[14.32191,56.88249],[14.32069,56.88363],[14.31857,56.88399],[14.31701,56.88395],[14.31665,56.88427],[14.31603,56.88404],[14.31553,56.88343],[14.31472,56.88296],[14.31229,56.88183],[14.3106,56.88173],[14.30976,56.88221],[14.30978,56.88255],[14.30912,56.88279],[14.30717,56.88236],[14.30674,56.88194],[14.30517,56.88144],[14.30458,56.88062],[14.30145,56.87993],[14.30125,56.87924],[14.29804,56.87919],[14.26967,56.8834],[14.25584,56.88674],[14.24572,56.89407],[14.24583,56.89456],[14.24532,56.895],[14.24386,56.89598],[14.24335,56.89601],[14.23159,56.9057],[14.23187,56.90658],[14.22844,56.90828],[14.22628,56.91044],[14.22645,56.91111],[14.22543,56.91132],[14.21898,56.93219],[14.22082,56.93568],[14.21666,56.93629],[14.2132,56.9377],[14.21223,56.93838],[14.21404,56.93891],[14.21471,56.9397],[14.21507,56.94292],[14.21468,56.94353],[14.21236,56.94393],[14.21114,56.9445],[14.20994,56.94453],[14.20929,56.94525],[14.21391,56.9463],[14.21241,56.94846],[14.21285,56.95005],[14.21411,56.95077],[14.21241,56.95108],[14.21337,56.95215],[14.21322,56.95237],[14.21413,56.95268],[14.21473,56.95356],[14.21565,56.95373],[14.21569,56.95393],[14.21541,56.95397],[14.21475,56.95378],[14.21532,56.95466],[14.21613,56.95496],[14.19177,56.95781],[14.18637,56.96558],[14.1889,56.96528],[14.18035,56.98871],[14.17795,56.98809],[14.17565,56.99023],[14.17288,56.99175],[14.17256,56.99165],[14.17125,56.99184],[14.17035,56.99228],[14.16909,56.99373],[14.16856,56.99509],[14.1688,56.9957],[14.16512,56.99595],[14.15995,56.99889],[14.1559,56.99849],[14.1531,56.99842],[14.15352,57.00058],[14.15527,57.00171],[14.15518,57.0027],[14.15327,57.00504],[14.15534,57.00552],[14.15258,57.00916],[14.15569,57.01088],[14.15824,57.01321],[14.15808,57.01397],[14.15599,57.01422],[14.15599,57.01443],[14.15796,57.01441],[14.15239,57.02941],[14.15827,57.03413],[14.1632,57.04057],[14.16494,57.04499],[14.17509,57.04474],[14.17843,57.0433],[14.17914,57.04319],[14.17973,57.04281],[14.17997,57.04301],[14.18061,57.04305],[14.18065,57.04209],[14.18127,57.04191],[14.18174,57.04226],[14.18628,57.0435],[14.20029,57.03913],[14.20021,57.03888],[14.2011,57.03861],[14.20135,57.03877],[14.20268,57.03834],[14.20362,57.0384],[14.20408,57.03877],[14.20447,57.03871],[14.20541,57.0371],[14.2065,57.03686],[14.219,57.04558],[14.21828,57.04606],[14.21858,57.04678],[14.21766,57.04731],[14.21697,57.04741],[14.21687,57.0477],[14.21632,57.04776],[14.21583,57.04812],[14.21633,57.04858],[14.21579,57.04877],[14.21571,57.04911],[14.21465,57.04915],[14.21426,57.04951],[14.21417,57.05077],[14.21476,57.05164],[14.21349,57.05295],[14.21336,57.05361],[14.21426,57.05477],[14.21337,57.05574],[14.21345,57.05602],[14.21412,57.05634],[14.21439,57.05693],[14.21474,57.05703],[14.21523,57.05821],[14.21587,57.05858],[14.21589,57.05891],[14.21746,57.05968],[14.21947,57.06108],[14.2202,57.06239],[14.22003,57.06319],[14.2207,57.0636],[14.22049,57.0652],[14.21967,57.06621],[14.21877,57.06655],[14.21826,57.06712],[14.21822,57.06806],[14.21867,57.06889],[14.21848,57.06948],[14.21724,57.07047],[14.22345,57.07088],[14.22266,57.07263],[14.22451,57.07283],[14.22488,57.07309],[14.22483,57.07364],[14.22511,57.07373],[14.2278,57.07362],[14.22941,57.07332],[14.22831,57.07073],[14.23349,57.06992],[14.23407,57.07136],[14.23306,57.07232],[14.23278,57.07316],[14.23339,57.07404],[14.23266,57.07439],[14.23365,57.07506],[14.23566,57.07529],[14.2364,57.07565],[14.2367,57.07628],[14.2362,57.07682],[14.23801,57.07843],[14.23678,57.07955],[14.23647,57.08061],[14.23686,57.08158],[14.23658,57.08298],[14.23736,57.08409],[14.23824,57.08443],[14.2385,57.08484],[14.23834,57.08546],[14.23736,57.08661],[14.23763,57.08747],[14.23783,57.08738],[14.23787,57.08818],[14.24034,57.08878],[14.24104,57.08939],[14.24351,57.09052],[14.24375,57.09079],[14.24326,57.09082],[14.24379,57.09124],[14.24446,57.09127],[14.24528,57.09099],[14.24721,57.09103],[14.24815,57.09136],[14.24906,57.09242],[14.2498,57.0928],[14.25162,57.09281],[14.252,57.09387],[14.25244,57.09395],[14.25197,57.09425],[14.25222,57.09448],[14.25335,57.09487],[14.25471,57.09485],[14.2558,57.09529],[14.25459,57.09591],[14.25595,57.09622],[14.25637,57.09598],[14.2566,57.09609],[14.25662,57.09716],[14.25598,57.09721],[14.25568,57.09744],[14.25569,57.09797],[14.25626,57.09841],[14.25742,57.09859],[14.25762,57.09922],[14.2584,57.09929],[14.25879,57.09954],[14.25808,57.09996],[14.25723,57.101],[14.25779,57.10254],[14.25839,57.10241],[14.25998,57.10269],[14.26422,57.10235],[14.26782,57.10434],[14.2675,57.10482],[14.26756,57.10574],[14.26884,57.10606]],[[14.30961,56.99783],[14.30703,56.99766],[14.30111,56.99654],[14.29852,56.99545],[14.29691,56.99422],[14.29506,56.99385],[14.29319,56.99323],[14.28997,56.99284],[14.28764,56.99215],[14.28616,56.99143],[14.28405,56.98997],[14.28025,56.98969],[14.27714,56.98883],[14.27488,56.98768],[14.27327,56.98618],[14.27261,56.98449],[14.27282,56.98298],[14.27374,56.98087],[14.27473,56.97956],[14.27632,56.9784],[14.2784,56.97751],[14.28078,56.97693],[14.28339,56.97669],[14.28843,56.97666],[14.29302,56.9773],[14.29908,56.97685],[14.30048,56.97527],[14.30257,56.97355],[14.3039,56.97275],[14.30578,56.97202],[14.30817,56.97057],[14.31004,56.96991],[14.31374,56.969],[14.31569,56.96879],[14.31829,56.96883],[14.32145,56.96938],[14.32618,56.97108],[14.32825,56.97245],[14.32941,56.97407],[14.32985,56.97678],[14.32969,56.97874],[14.32894,56.98049],[14.32873,56.9824],[14.32726,56.98425],[14.32899,56.98873],[14.32872,56.99184],[14.32801,56.9934],[14.32712,56.9944],[14.32549,56.9955],[14.32337,56.99636],[14.3203,56.99698],[14.31739,56.9971],[14.3151,56.99697],[14.31228,56.99764],[14.30961,56.99783]]]}},{"type":"Feature","id":"0683R012","properties":{"code":"0683R012","name":"Värnamo västra"},"geometry":{"type":"Polygon","coordinates":[[[13.91174,57.26915],[13.91379,57.23798],[13.95915,57.22014],[13.9631,57.21826],[13.97265,57.21501],[13.97753,57.21273],[13.97709,57.20692],[13.97434,57.2052],[13.9719,57.20527],[13.97152,57.20513],[13.97057,57.20418],[13.9685,57.20313],[13.96777,57.19878],[13.97061,57.19986],[13.97326,57.19861],[13.97468,57.19863],[13.97794,57.18447],[13.97369,57.18462],[13.97401,57.18416],[13.97254,57.18419],[13.97062,57.18209],[13.96129,57.1803],[13.97588,57.17865],[13.98498,57.17657],[13.98655,57.17663],[13.98613,57.17496],[13.9865,57.17356],[13.98775,57.17183],[13.98933,57.1707],[13.9915,57.16976],[13.99468,57.16897],[13.99773,57.16757],[14.00121,57.16672],[14.00369,57.16575],[14.00597,57.16526],[14.01095,57.16456],[14.01489,57.16476],[14.01841,57.16574],[14.01985,57.16648],[14.02113,57.16748],[14.02164,57.16761],[14.02318,57.16707],[14.02601,57.1655],[14.02762,57.16485],[14.03005,57.16427],[14.0337,57.16384],[14.03364,57.16361],[14.04269,57.16314],[14.04579,57.16381],[14.04871,57.16523],[14.0489,57.16434],[14.04924,57.16408],[14.05028,57.16388],[14.05231,57.16409],[14.05323,57.16372],[14.05319,57.16295],[14.05433,57.16215],[14.05489,57.16091],[14.05506,57.15849],[14.05474,57.15694],[14.05436,57.15575],[14.04834,57.15205],[14.04803,57.14713],[14.04286,57.13941],[14.04307,57.13706],[14.04162,57.13365],[14.03666,57.1261],[14.03515,57.12446],[14.03502,57.12346],[14.03457,57.12343],[14.02394,57.10475],[14.00875,57.09598],[14.00415,57.09218],[14.00539,57.08344],[14.00738,57.07924],[14.02278,57.07379],[14.01868,57.06801],[14.0232,57.06298],[14.02433,57.06114],[14.02158,57.06052],[14.02223,57.05867],[14.02316,57.05191],[14.02407,57.05181],[14.02272,57.05013],[14.01977,57.05057],[14.0168,57.05182],[14.01207,57.04843],[14.00881,57.04354],[13.99507,57.03279],[13.98999,57.02935],[13.97569,57.04149],[13.92477,57.04059],[13.9243,57.02942],[13.91032,57.01842],[13.89094,57.01699],[13.87442,57.01839],[13.87275,57.01649],[13.87073,57.01245],[13.86782,57.01225],[13.85843,56.99946],[13.85438,56.99822],[13.85247,56.99832],[13.85142,56.99889],[13.84901,56.99845],[13.84539,56.99888],[13.84427,56.99861],[13.84338,56.99793],[13.84295,56.99788],[13.84115,56.9982],[13.84027,56.99888],[13.84232,57.00006],[13.84271,57.00112],[13.84251,57.00164],[13.84092,57.00277],[13.83973,57.00415],[13.83874,57.00444],[13.83841,57.00435],[13.83714,57.00512],[13.83648,57.00506],[13.8361,57.00539],[13.83381,57.00632],[13.83188,57.00603],[13.82186,57.008],[13.80249,57.02877],[13.79801,57.02598],[13.77632,57.02422],[13.76223,57.02581],[13.75456,57.02883],[13.76024,57.03563],[13.74726,57.0372],[13.74688,57.03852],[13.74692,57.07111],[13.74513,57.07226],[13.74419,57.07234],[13.74299,57.07273],[13.74276,57.07292],[13.7431,57.07361],[13.74296,57.07406],[13.74011,57.0746],[13.73763,57.07798],[13.73753,57.07901],[13.73655,57.07933],[13.7365,57.08024],[13.73435,57.08156],[13.73283,57.08153],[13.73267,57.08172],[13.73275,57.08296],[13.73406,57.0838],[13.73297,57.08536],[13.73337,57.08562],[13.73475,57.08582],[13.7351,57.0861],[13.73328,57.08688],[13.73274,57.0874],[13.73162,57.08725],[13.7312,57.08736],[13.73188,57.08854],[13.73293,57.0887],[13.73309,57.08978],[13.73209,57.09026],[13.73081,57.09054],[13.73016,57.09099],[13.73047,57.09113],[13.73122,57.09079],[13.73171,57.09079],[13.73197,57.09174],[13.73296,57.09216],[13.73306,57.09258],[13.73239,57.09272],[13.73143,57.09222],[13.72865,57.09284],[13.7286,57.09321],[13.73056,57.09348],[13.73005,57.09357],[13.71669,57.09172],[13.71633,57.0918],[13.71631,57.09212],[13.71547,57.09281],[13.71593,57.09333],[13.71549,57.09554],[13.7161,57.0968],[13.71492,57.0974],[13.71472,57.09792],[13.71393,57.09842],[13.71025,57.10004],[13.70904,57.10107],[13.70888,57.10148],[13.7075,57.1023],[13.70563,57.10306],[13.70319,57.10356],[13.70244,57.10423],[13.70246,57.1052],[13.70193,57.10584],[13.70175,57.10723],[13.70028,57.1087],[13.69892,57.10959],[13.69885,57.10999],[13.69962,57.11007],[13.69959,57.11065],[13.73269,57.1212],[13.73804,57.13412],[13.74358,57.14043],[13.72012,57.13887],[13.7042,57.13952],[13.70353,57.13971],[13.70174,57.14288],[13.7019,57.14364],[13.69711,57.14879],[13.72203,57.16038],[13.70848,57.16698],[13.701,57.16536],[13.70006,57.1636],[13.69949,57.16355],[13.6988,57.16313],[13.69832,57.16311],[13.69786,57.16171],[13.69836,57.16104],[13.69817,57.16038],[13.69724,57.15967],[13.69621,57.15955],[13.69553,57.1587],[13.69559,57.15576],[13.69401,57.15353],[13.69402,57.15247],[13.69365,57.15203],[13.69069,57.15046],[13.6896,57.14858],[13.68846,57.14812],[13.68887,57.147],[13.68158,57.14456],[13.6833,57.14015],[13.67644,57.13816],[13.67326,57.14057],[13.67382,57.14097],[13.6751,57.14094],[13.67587,57.14116],[13.67658,57.14154],[13.67715,57.14229],[13.67826,57.14168],[13.67907,57.14175],[13.67817,57.14285],[13.6783,57.14367],[13.67778,57.14336],[13.67077,57.14243],[13.66878,57.14393],[13.66379,57.14672],[13.65004,57.15942],[13.64097,57.17126],[13.64056,57.17127],[13.64045,57.17172],[13.64173,57.17301],[13.64172,57.17413],[13.64396,57.17439],[13.6443,57.17513],[13.64509,57.17473],[13.64519,57.17515],[13.64557,57.17533],[13.64651,57.17503],[13.64664,57.17541],[13.6463,57.17609],[13.64661,57.17646],[13.64705,57.17653],[13.6472,57.17711],[13.64814,57.1772],[13.6485,57.17757],[13.65249,57.17832],[13.65628,57.17761],[13.6605,57.17836],[13.66161,57.1796],[13.66141,57.18075],[13.6632,57.18083],[13.66599,57.18287],[13.66715,57.18421],[13.66807,57.18426],[13.66878,57.18406],[13.66978,57.18324],[13.66988,57.18541],[13.66967,57.18547],[13.66995,57.18612],[13.66965,57.18612],[13.66956,57.1876],[13.67004,57.18926],[13.67102,57.19007],[13.67216,57.19075],[13.67266,57.1908],[13.67392,57.19182],[13.67663,57.1917],[13.67745,57.192],[13.67673,57.19251],[13.67581,57.19278],[13.66315,57.19508],[13.65931,57.19659],[13.65737,57.19715],[13.65576,57.19794],[13.6577,57.19995],[13.65751,57.20035],[13.65815,57.20094],[13.6576,57.20118],[13.65815,57.20144],[13.658,57.20173],[13.65851,57.2019],[13.65808,57.20224],[13.65848,57.20256],[13.65836,57.2028],[13.6588,57.20281],[13.65891,57.20306],[13.65838,57.20324],[13.65891,57.2037],[13.65848,57.20391],[13.65898,57.20401],[13.65877,57.20442],[13.65913,57.20463],[13.65885,57.2048],[13.65935,57.20492],[13.65973,57.20575],[13.65916,57.20604],[13.65923,57.20757],[13.65893,57.20766],[13.65866,57.2084],[13.65824,57.20869],[13.65842,57.209],[13.65792,57.20913],[13.65783,57.2095],[13.65709,57.20971],[13.65674,57.21084],[13.65709,57.21163],[13.65677,57.21185],[13.65709,57.21215],[13.65655,57.21236],[13.65689,57.21254],[13.65631,57.21348],[13.65732,57.21392],[13.6576,57.21458],[13.65825,57.21492],[13.65757,57.21516],[13.65798,57.21552],[13.65802,57.21646],[13.65736,57.21705],[13.66739,57.23019],[13.66167,57.23131],[13.66128,57.23688],[13.66235,57.23875],[13.66244,57.24179],[13.66291,57.24181],[13.66357,57.24153],[13.66401,57.24363],[13.66538,57.24503],[13.66655,57.247],[13.66646,57.2478],[13.66681,57.24884],[13.67068,57.24945],[13.68299,57.24884],[13.68647,57.2485],[13.68697,57.24602],[13.6877,57.24525],[13.68793,57.24451],[13.6883,57.24455],[13.68867,57.24416],[13.68946,57.24494],[13.70992,57.2459],[13.71087,57.2443],[13.71145,57.24393],[13.71682,57.24311],[13.71846,57.2435],[13.72402,57.24157],[13.72775,57.24063],[13.7289,57.24015],[13.73625,57.23859],[13.73687,57.23828],[13.74004,57.23836],[13.74135,57.23938],[13.74332,57.23888],[13.74622,57.23886],[13.7549,57.24003],[13.7789,57.23466],[13.79158,57.23514],[13.83253,57.23564],[13.83254,57.23507],[13.83294,57.23484],[13.83358,57.2346],[13.83528,57.23452],[13.83667,57.23487],[13.83723,57.23522],[13.83747,57.2358],[13.84131,57.23589],[13.84105,57.23624],[13.8416,57.23674],[13.84143,57.23699],[13.83991,57.23701],[13.83914,57.23678],[13.83832,57.23695],[13.83857,57.23736],[13.83986,57.23743],[13.84018,57.23796],[13.83928,57.23829],[13.83823,57.23841],[13.83864,57.23926],[13.83835,57.23935],[13.83747,57.23901],[13.8367,57.23999],[13.83757,57.24025],[13.83828,57.24103],[13.8378,57.2424],[13.83813,57.24276],[13.83897,57.24244],[13.83989,57.24276],[13.83994,57.24295],[13.83941,57.24321],[13.83971,57.24377],[13.83927,57.24404],[13.83866,57.24361],[13.83802,57.24363],[13.8376,57.24441],[13.83805,57.24489],[13.83793,57.24536],[13.83739,57.2456],[13.83699,57.24524],[13.83592,57.2455],[13.83797,57.24623],[13.8379,57.24646],[13.83717,57.24659],[13.83739,57.24709],[13.83671,57.24703],[13.83575,57.24726],[13.83478,57.24707],[13.8343,57.2475],[13.83441,57.24772],[13.83535,57.24774],[13.83569,57.24795],[13.8357,57.24813],[13.83468,57.24833],[13.83536,57.24919],[13.83661,57.24976],[13.83651,57.25015],[13.83464,57.24991],[13.83459,57.25075],[13.8331,57.25047],[13.83285,57.25056],[13.83288,57.2507],[13.83414,57.25108],[13.83382,57.25136],[13.83254,57.25125],[13.83231,57.25163],[13.83101,57.25164],[13.83091,57.25192],[13.83174,57.25244],[13.83154,57.25256],[13.83061,57.2524],[13.82939,57.25285],[13.82999,57.25374],[13.82848,57.25484],[13.82873,57.25538],[13.82928,57.25541],[13.83,57.25507],[13.83283,57.25573],[13.83795,57.25569],[13.84091,57.25697],[13.84078,57.25708],[13.84351,57.25851],[13.84046,57.26333],[13.84405,57.26357],[13.87141,57.27265],[13.89879,57.28853],[13.91174,57.26915]],[[13.83856,57.1765],[13.83408,57.17636],[13.83079,57.17572],[13.82803,57.17454],[13.82598,57.17288],[13.82214,57.17269],[13.81738,57.17203],[13.81538,57.17157],[13.8122,57.17013],[13.81006,57.16814],[13.80882,57.1652],[13.80867,57.16405],[13.80737,57.16275],[13.80659,57.16139],[13.80643,57.16032],[13.80671,57.1583],[13.80826,57.15632],[13.81092,57.15485],[13.811,57.15276],[13.81223,57.15099],[13.81443,57.14952],[13.81752,57.14846],[13.82031,57.14797],[13.82347,57.14786],[13.82533,57.14748],[13.82796,57.14722],[13.83084,57.14727],[13.83434,57.14788],[13.8367,57.14876],[13.83845,57.14987],[13.83965,57.15118],[13.84027,57.15266],[13.84319,57.15369],[13.84538,57.1552],[13.84867,57.1552],[13.85235,57.15593],[13.8549,57.15709],[13.85664,57.15861],[13.85774,57.16086],[13.85731,57.16299],[13.85563,57.16475],[13.85537,57.16652],[13.85419,57.16819],[13.85264,57.16936],[13.85038,57.17036],[13.85006,57.17197],[13.84903,57.17343],[13.84701,57.17486],[13.8447,57.17578],[13.84145,57.17641],[13.83856,57.1765]],[[13.72648,57.18735],[13.72461,57.18519],[13.7216,57.18394],[13.71993,57.18283],[13.71801,57.18196],[13.71291,57.18103],[13.70875,57.17931],[13.70729,57.17851],[13.70605,57.1775],[13.70511,57.17612],[13.70483,57.17466],[13.70522,57.17321],[13.70634,57.17178],[13.70845,57.17038],[13.71212,57.16901],[13.71752,57.1681],[13.71847,57.16653],[13.7205,57.16499],[13.72318,57.16392],[13.72641,57.16328],[13.7268,57.16198],[13.72785,57.16063],[13.72905,57.15972],[13.73144,57.15841],[13.73367,57.15769],[13.73574,57.15731],[13.73829,57.15718],[13.7408,57.15741],[13.74317,57.15797],[13.74517,57.15883],[13.74671,57.15993],[13.74815,57.16148],[13.74993,57.1626],[13.75188,57.16317],[13.75466,57.1644],[13.75697,57.16454],[13.75879,57.16486],[13.76109,57.16562],[13.76444,57.16632],[13.76696,57.16747],[13.76871,57.16901],[13.76952,57.17074],[13.76976,57.174],[13.76929,57.17544],[13.76776,57.17715],[13.76603,57.17822],[13.76454,57.17885],[13.76073,57.17969],[13.75672,57.17978],[13.75436,57.18111],[13.75164,57.1819],[13.75016,57.18461],[13.74831,57.18611],[13.74482,57.1877],[13.73948,57.18919],[13.73563,57.18973],[13.73364,57.18969],[13.73111,57.18933],[13.72778,57.18816],[13.72648,57.18735]]]}},{"type":"Feature","id":"0683R013","properties":{"code":"0683R013","name":"Värnamo östra"},"geometry":{"type":"Polygon","coordinates":[[[14.36406,57.38242],[14.36859,57.37789],[14.36837,57.37621],[14.36888,57.37595],[14.37133,57.37263],[14.37293,57.37215],[14.3773,57.36505],[14.37669,57.36356],[14.37847,57.36224],[14.37791,57.36105],[14.3783,57.35966],[14.37793,57.35785],[14.37914,57.35515],[14.37703,57.35176],[14.37695,57.34899],[14.37882,57.34894],[14.38167,57.34944],[14.38193,57.3483],[14.38341,57.34524],[14.38263,57.33834],[14.38288,57.33739],[14.38259,57.33382],[14.37883,57.32949],[14.38108,57.33062],[14.3816,57.33019],[14.38071,57.32819],[14.38941,57.32885],[14.39265,57.32797],[14.39453,57.32706],[14.39496,57.3264],[14.39464,57.32537],[14.39512,57.32483],[14.39573,57.32301],[14.3952,57.32073],[14.39375,57.31921],[14.39563,57.31739],[14.39647,57.31598],[14.39943,57.31407],[14.40004,57.3134],[14.40296,57.31203],[14.40294,57.31158],[14.40412,57.31094],[14.40524,57.30962],[14.40507,57.30914],[14.40778,57.30854],[14.40831,57.30858],[14.41019,57.30778],[14.41106,57.3077],[14.41219,57.30673],[14.41268,57.30588],[14.41279,57.30396],[14.41232,57.30186],[14.41175,57.30066],[14.41082,57.3],[14.4109,57.29934],[14.41054,57.29869],[14.40825,57.29744],[14.40814,57.29677],[14.40668,57.29484],[14.40819,57.29407],[14.40886,57.29347],[14.40858,57.29288],[14.40871,57.29205],[14.40959,57.29103],[14.41242,57.29079],[14.41293,57.29003],[14.41211,57.28965],[14.41223,57.28908],[14.41434,57.28893],[14.41509,57.28859],[14.41695,57.28901],[14.41723,57.29147],[14.41664,57.29168],[14.41732,57.29266],[14.41909,57.29231],[14.41966,57.29236],[14.42027,57.29435],[14.42074,57.2946],[14.42201,57.29473],[14.42244,57.29556],[14.42221,57.29586],[14.42409,57.29892],[14.42565,57.29991],[14.42648,57.3015],[14.42821,57.30147],[14.42894,57.30162],[14.4289,57.30131],[14.42969,57.30137],[14.42982,57.30076],[14.42949,57.30054],[14.43013,57.30039],[14.43012,57.30003],[14.4307,57.30005],[14.43054,57.29984],[14.431,57.29966],[14.4308,57.29949],[14.43177,57.29902],[14.43148,57.29873],[14.43191,57.29841],[14.43166,57.29829],[14.43171,57.29785],[14.4324,57.29684],[14.43273,57.29695],[14.44059,57.29606],[14.44242,57.2881],[14.44363,57.27348],[14.4361,57.26469],[14.43443,57.26339],[14.43314,57.26177],[14.43271,57.26045],[14.42984,57.26026],[14.42944,57.25938],[14.42741,57.24806],[14.42459,57.24009],[14.4254,57.23948],[14.42428,57.23924],[14.42168,57.23323],[14.41979,57.22225],[14.42029,57.2161],[14.41757,57.21225],[14.41699,57.21253],[14.41653,57.21252],[14.4146,57.21141],[14.41251,57.21173],[14.41312,57.21112],[14.41313,57.21016],[14.41272,57.20998],[14.41127,57.21006],[14.4068,57.19773],[14.40245,57.18695],[14.38963,57.18516],[14.38961,57.18],[14.39038,57.17943],[14.39171,57.1776],[14.39126,57.17637],[14.39059,57.17608],[14.39126,57.17478],[14.39074,57.17408],[14.39241,57.17346],[14.39273,57.1727],[14.39494,57.17162],[14.39489,57.17014],[14.39588,57.16837],[14.39524,57.16647],[14.39303,57.16522],[14.39311,57.16277],[14.3958,57.16066],[14.39626,57.16059],[14.398,57.16097],[14.39939,57.16077],[14.39786,57.15597],[14.39715,57.15496],[14.3976,57.15323],[14.39708,57.15154],[14.39788,57.15133],[14.39787,57.15111],[14.3844,57.15371],[14.37582,57.14832],[14.3704,57.15027],[14.36616,57.15154],[14.3623,57.1506],[14.36155,57.15015],[14.36177,57.14978],[14.36101,57.14965],[14.36048,57.14918],[14.35886,57.14843],[14.35264,57.14704],[14.34812,57.14483],[14.35563,57.13709],[14.35914,57.13237],[14.36058,57.12025],[14.34941,57.1178],[14.34352,57.1134],[14.33898,57.11699],[14.33738,57.11269],[14.34668,57.10585],[14.34548,57.10326],[14.34757,57.10179],[14.34809,57.09991],[14.3536,57.09925],[14.3577,57.09632],[14.35072,57.09634],[14.34755,57.09678],[14.34705,57.09663],[14.3459,57.09558],[14.3433,57.09405],[14.34125,57.09245],[14.33838,57.09219],[14.33713,57.09238],[14.33598,57.09293],[14.33204,57.09271],[14.33015,57.09115],[14.32882,57.09071],[14.3267,57.0896],[14.32753,57.08615],[14.3255,57.08272],[14.32186,57.08089],[14.31638,57.07565],[14.30732,57.07517],[14.29661,57.07548],[14.29394,57.0746],[14.29386,57.07263],[14.29356,57.07241],[14.29195,57.07235],[14.29122,57.07178],[14.28908,57.07203],[14.28541,57.07168],[14.27717,57.07841],[14.27683,57.08277],[14.27877,57.08694],[14.27778,57.08917],[14.28001,57.10382],[14.27883,57.10499],[14.27651,57.1051],[14.26884,57.10606],[14.26806,57.10596],[14.26756,57.10574],[14.2675,57.10482],[14.26782,57.10434],[14.26422,57.10235],[14.25998,57.10269],[14.25839,57.10241],[14.25779,57.10254],[14.25723,57.101],[14.25808,57.09996],[14.25879,57.09954],[14.2584,57.09929],[14.25762,57.09922],[14.25742,57.09859],[14.25626,57.09841],[14.25569,57.09797],[14.25568,57.09744],[14.25598,57.09721],[14.25662,57.09716],[14.2566,57.09609],[14.25637,57.09598],[14.25595,57.09622],[14.25459,57.09591],[14.2558,57.09529],[14.25471,57.09485],[14.25335,57.09487],[14.25222,57.09448],[14.25197,57.09425],[14.25244,57.09395],[14.252,57.09387],[14.25162,57.09281],[14.2498,57.0928],[14.24906,57.09242],[14.24815,57.09136],[14.24721,57.09103],[14.24528,57.09099],[14.24446,57.09127],[14.24379,57.09124],[14.24326,57.09082],[14.24375,57.09079],[14.24351,57.09052],[14.24104,57.08939],[14.24034,57.08878],[14.23787,57.08818],[14.23783,57.08738],[14.23763,57.08747],[14.23736,57.08661],[14.23834,57.08546],[14.2385,57.08484],[14.23824,57.08443],[14.23736,57.08409],[14.23658,57.08298],[14.23686,57.08158],[14.23647,57.08061],[14.23678,57.07955],[14.23801,57.07843],[14.2362,57.07682],[14.2367,57.07628],[14.2364,57.07565],[14.23566,57.07529],[14.23365,57.07506],[14.23266,57.07439],[14.23339,57.07404],[14.23278,57.07316],[14.23306,57.07232],[14.23407,57.07136],[14.23349,57.06992],[14.22831,57.07073],[14.22941,57.07332],[14.2278,57.07362],[14.22511,57.07373],[14.22483,57.07364],[14.22488,57.07309],[14.22451,57.07283],[14.22266,57.07263],[14.22345,57.07088],[14.21724,57.07047],[14.21848,57.06948],[14.21867,57.06889],[14.21822,57.06806],[14.21826,57.06712],[14.21877,57.06655],[14.21967,57.06621],[14.22049,57.0652],[14.2207,57.0636],[14.22003,57.06319],[14.2202,57.06239],[14.21947,57.06108],[14.21746,57.05968],[14.21589,57.05891],[14.21587,57.05858],[14.21523,57.05821],[14.21474,57.05703],[14.21439,57.05693],[14.21412,57.05634],[14.21345,57.05602],[14.21337,57.05574],[14.21426,57.05477],[14.21336,57.05361],[14.21349,57.05295],[14.21476,57.05164],[14.21417,57.05077],[14.21426,57.04951],[14.21465,57.04915],[14.21571,57.04911],[14.21579,57.04877],[14.21633,57.04858],[14.21583,57.04812],[14.21632,57.04776],[14.21687,57.0477],[14.21697,57.04741],[14.21766,57.04731],[14.21858,57.04678],[14.21828,57.04606],[14.219,57.04558],[14.2065,57.03686],[14.20541,57.0371],[14.20447,57.03871],[14.20408,57.03877],[14.20362,57.0384],[14.20268,57.03834],[14.20135,57.03877],[14.2011,57.03861],[14.20021,57.03888],[14.20029,57.03913],[14.18628,57.0435],[14.18174,57.04226],[14.18127,57.04191],[14.18065,57.04209],[14.18061,57.04305],[14.17997,57.04301],[14.17973,57.04281],[14.17914,57.04319],[14.17843,57.0433],[14.17509,57.04474],[14.16494,57.04499],[14.1632,57.04057],[14.15827,57.03413],[14.15239,57.02941],[14.13235,57.02255],[14.10901,57.02208],[14.10569,57.02111],[14.09481,57.0211],[14.09481,57.03006],[14.10019,57.03488],[14.09101,57.04112],[14.07024,57.04644],[14.0641,57.04725],[14.04486,57.05054],[14.03595,57.05033],[14.02316,57.05191],[14.02223,57.05867],[14.02158,57.06052],[14.02433,57.06114],[14.0232,57.06298],[14.01868,57.06801],[14.02278,57.07379],[14.00738,57.07924],[14.00539,57.08344],[14.00415,57.09218],[14.00875,57.09598],[14.02394,57.10475],[14.03457,57.12343],[14.03502,57.12346],[14.03515,57.12446],[14.03666,57.1261],[14.04092,57.13241],[14.04307,57.13706],[14.04286,57.13941],[14.04803,57.14713],[14.04834,57.15205],[14.05436,57.15575],[14.05474,57.15694],[14.05506,57.15849],[14.05489,57.16091],[14.05433,57.16215],[14.05319,57.16295],[14.05323,57.16372],[14.05231,57.16409],[14.05028,57.16388],[14.04924,57.16408],[14.0489,57.16434],[14.04878,57.16568],[14.04929,57.16653],[14.04884,57.16798],[14.05233,57.1683],[14.05415,57.16664],[14.05514,57.1649],[14.05706,57.16345],[14.05877,57.16265],[14.06223,57.16161],[14.06603,57.16099],[14.06998,57.16119],[14.07295,57.16196],[14.07494,57.16292],[14.07692,57.16458],[14.07912,57.16531],[14.08102,57.16635],[14.08266,57.16803],[14.08315,57.16913],[14.08323,57.17041],[14.08432,57.17178],[14.08525,57.17398],[14.08687,57.17579],[14.0872,57.17786],[14.08864,57.17919],[14.08937,57.1806],[14.08933,57.1825],[14.08834,57.18413],[14.08935,57.18582],[14.08951,57.18757],[14.08882,57.18914],[14.08775,57.19027],[14.08939,57.1916],[14.09036,57.19328],[14.09043,57.19544],[14.08981,57.19685],[14.08787,57.19905],[14.08571,57.2004],[14.08231,57.20169],[14.07848,57.20223],[14.07456,57.20226],[14.0714,57.20193],[14.06916,57.2014],[14.06593,57.20019],[14.06373,57.19966],[14.06031,57.19892],[14.05683,57.19864],[14.05369,57.19773],[14.05241,57.19946],[14.04997,57.20092],[14.04997,57.2016],[14.05182,57.20375],[14.05386,57.20546],[14.05536,57.20823],[14.05559,57.21009],[14.05653,57.21116],[14.05715,57.2127],[14.05714,57.21518],[14.05651,57.21658],[14.05446,57.21839],[14.05194,57.21981],[14.04984,57.22065],[14.04095,57.22267],[14.0383,57.22285],[14.0357,57.22268],[14.03264,57.22196],[14.03018,57.22077],[14.0283,57.21889],[14.02676,57.21538],[14.02325,57.21434],[14.02075,57.21267],[14.01894,57.2102],[14.01848,57.2088],[14.01544,57.20666],[14.01323,57.20385],[14.01252,57.20126],[14.01322,57.19928],[14.00993,57.19863],[14.00688,57.19725],[14.00411,57.19475],[13.99935,57.1913],[13.9984,57.18995],[13.99811,57.18866],[13.99529,57.18817],[13.99181,57.18837],[13.98859,57.18798],[13.98573,57.18705],[13.98325,57.1854],[13.98214,57.18421],[13.9816,57.18318],[13.98165,57.18103],[13.98225,57.17997],[13.98356,57.17875],[13.98491,57.17795],[13.98689,57.17716],[13.98655,57.17663],[13.98498,57.17657],[13.97588,57.17865],[13.96129,57.1803],[13.97062,57.18209],[13.97254,57.18419],[13.97401,57.18416],[13.97369,57.18462],[13.97794,57.18447],[13.97468,57.19863],[13.97326,57.19861],[13.97061,57.19986],[13.96777,57.19878],[13.9685,57.20313],[13.97057,57.20418],[13.97152,57.20513],[13.9719,57.20527],[13.97434,57.2052],[13.97709,57.20692],[13.97753,57.21273],[13.97265,57.21501],[13.9631,57.21826],[13.95915,57.22014],[13.91379,57.23798],[13.91174,57.26915],[13.96029,57.25875],[13.97945,57.25192],[13.98768,57.25884],[13.98794,57.2599],[13.99391,57.26497],[13.99844,57.27514],[14.00379,57.28267],[14.00542,57.28414],[14.00802,57.28474],[14.01776,57.28257],[14.01912,57.28275],[14.01971,57.28254],[14.02014,57.28259],[14.02307,57.28135],[14.02358,57.28141],[14.03531,57.27768],[14.0373,57.27831],[14.04339,57.27727],[14.04471,57.27903],[14.04765,57.28407],[14.04575,57.28593],[14.05018,57.28994],[14.05966,57.30974],[14.07337,57.32385],[14.08377,57.32536],[14.08394,57.32584],[14.08672,57.32482],[14.09033,57.32396],[14.09087,57.32346],[14.09178,57.32311],[14.09199,57.32326],[14.09344,57.32267],[14.09594,57.32318],[14.09632,57.32283],[14.09669,57.32287],[14.0965,57.32259],[14.09718,57.32203],[14.09775,57.32191],[14.09714,57.32121],[14.09881,57.32092],[14.09878,57.32066],[14.09727,57.32051],[14.09672,57.3202],[14.09693,57.31976],[14.09632,57.31959],[14.09721,57.31906],[14.09618,57.31805],[14.0956,57.31795],[14.09512,57.31821],[14.09479,57.31809],[14.09499,57.31764],[14.09583,57.31727],[14.09491,57.3169],[14.09529,57.31645],[14.0952,57.31609],[14.09345,57.31579],[14.09346,57.31539],[14.09403,57.31507],[14.09315,57.31488],[14.09298,57.31451],[14.09384,57.31455],[14.09392,57.3143],[14.0919,57.31382],[14.09229,57.3125],[14.09141,57.31213],[14.09177,57.31191],[14.0927,57.31198],[14.09295,57.31175],[14.09171,57.31134],[14.09141,57.31074],[14.09249,57.31012],[14.09255,57.30972],[14.09154,57.30972],[14.09117,57.30957],[14.09121,57.309],[14.09179,57.30882],[14.09254,57.30712],[14.09219,57.30594],[14.09248,57.30504],[14.09227,57.30404],[14.09157,57.30243],[14.09071,57.30169],[14.09117,57.30173],[14.09156,57.30117],[14.12763,57.3094],[14.14936,57.31504],[14.16877,57.31913],[14.17896,57.31754],[14.17669,57.31757],[14.17673,57.31609],[14.17715,57.31582],[14.18371,57.31588],[14.18314,57.31675],[14.18175,57.31714],[14.19363,57.3152],[14.19485,57.31548],[14.19661,57.31509],[14.19712,57.31534],[14.19691,57.31585],[14.19719,57.316],[14.2024,57.31584],[14.20448,57.31668],[14.20559,57.31624],[14.2071,57.31594],[14.20792,57.31712],[14.20852,57.31733],[14.20965,57.31719],[14.21001,57.3175],[14.20958,57.31875],[14.20968,57.31949],[14.20989,57.31977],[14.21095,57.32016],[14.21127,57.32158],[14.21338,57.32231],[14.21431,57.32229],[14.21524,57.322],[14.2157,57.3221],[14.2164,57.32296],[14.21641,57.32367],[14.21721,57.32376],[14.21775,57.3242],[14.21702,57.32549],[14.21803,57.32678],[14.21834,57.32689],[14.21871,57.32676],[14.21936,57.32615],[14.22004,57.32632],[14.21951,57.32731],[14.22013,57.32821],[14.21921,57.32927],[14.2202,57.32956],[14.22211,57.33088],[14.2235,57.33086],[14.22403,57.33108],[14.22506,57.33105],[14.22581,57.32898],[14.22495,57.32757],[14.22828,57.32539],[14.23219,57.32133],[14.24226,57.30747],[14.25651,57.30885],[14.27367,57.30768],[14.27368,57.34719],[14.27699,57.34824],[14.28949,57.34945],[14.30078,57.35974],[14.30165,57.36079],[14.30345,57.36144],[14.30417,57.36135],[14.30486,57.36287],[14.30613,57.36325],[14.30703,57.36379],[14.30856,57.36515],[14.30937,57.36558],[14.31409,57.36534],[14.32728,57.36898],[14.33168,57.36824],[14.33186,57.36761],[14.3334,57.3671],[14.33417,57.36825],[14.33293,57.36933],[14.33269,57.37479],[14.33438,57.37504],[14.3429,57.37707],[14.34374,57.3774],[14.34515,57.37856],[14.34739,57.37867],[14.34845,57.37912],[14.35305,57.38034],[14.36406,57.38242]],[[14.15827,57.12529],[14.15794,57.12473],[14.15475,57.12501],[14.15161,57.12493],[14.14959,57.1247],[14.14567,57.12377],[14.14305,57.12266],[14.14029,57.12066],[14.1392,57.11897],[14.13925,57.11683],[14.14066,57.11487],[14.14339,57.1129],[14.14736,57.11136],[14.14783,57.11099],[14.14763,57.10978],[14.14801,57.10833],[14.14874,57.10728],[14.15022,57.10606],[14.15259,57.10493],[14.15518,57.10329],[14.15684,57.1027],[14.15916,57.10223],[14.16077,57.10122],[14.16242,57.10055],[14.16445,57.10002],[14.16709,57.0997],[14.16986,57.09975],[14.17205,57.10007],[14.17565,57.09965],[14.17825,57.09978],[14.18198,57.10048],[14.18502,57.10169],[14.1871,57.10308],[14.18869,57.10541],[14.18912,57.10753],[14.19283,57.11127],[14.19339,57.1127],[14.19336,57.11383],[14.19288,57.11514],[14.19208,57.11618],[14.18961,57.11789],[14.18633,57.11936],[14.1832,57.11998],[14.17931,57.12007],[14.17965,57.1227],[14.17844,57.12524],[14.17636,57.12706],[14.17322,57.12833],[14.17131,57.12871],[14.16869,57.12892],[14.16608,57.12883],[14.16417,57.12853],[14.1624,57.12804],[14.16039,57.12713],[14.15827,57.12529]]]}},{"type":"Feature","id":"0683R004","properties":{"code":"0683R004","name":"Forsheda"},"geometry":{"type":"Polygon","coordinates":[[[13.84,57.17651],[13.84217,57.17632],[13.84414,57.17594],[13.84746,57.17461],[13.84963,57.17272],[13.85019,57.17163],[13.85038,57.17036],[13.85264,57.16936],[13.85419,57.16819],[13.85537,57.16652],[13.85563,57.16475],[13.85708,57.16334],[13.85771,57.16196],[13.85767,57.16052],[13.85664,57.15861],[13.8549,57.15709],[13.85235,57.15593],[13.84867,57.1552],[13.84538,57.1552],[13.84319,57.15369],[13.84027,57.15266],[13.83942,57.15086],[13.83758,57.14925],[13.83557,57.14828],[13.83377,57.14773],[13.83084,57.14727],[13.82796,57.14722],[13.82533,57.14748],[13.82347,57.14786],[13.82031,57.14797],[13.81734,57.1485],[13.81443,57.14952],[13.81223,57.15099],[13.811,57.15276],[13.81092,57.15485],[13.80826,57.15632],[13.80671,57.1583],[13.80643,57.16032],[13.80659,57.16139],[13.80737,57.16275],[13.80867,57.16405],[13.80952,57.16711],[13.8103,57.16846],[13.81261,57.17039],[13.81594,57.17172],[13.82276,57.17277],[13.82598,57.17288],[13.82705,57.17388],[13.82861,57.17486],[13.83209,57.17605],[13.8347,57.17642],[13.84,57.17651]]]}},{"type":"Feature","id":"0683R005","properties":{"code":"0683R005","name":"Gröndal-Norregård"},"geometry":{"type":"Polygon","coordinates":[[[14.03483,57.19687],[14.0353,57.19229],[14.0341,57.19204],[14.03406,57.19257],[14.03208,57.19277],[14.03104,57.19361],[14.02996,57.1937],[14.02753,57.19292],[14.02848,57.19197],[14.02727,57.19175],[14.02477,57.19091],[14.02522,57.19019],[14.0225,57.18853],[14.02798,57.18545],[14.02847,57.18425],[14.02943,57.18364],[14.02974,57.18348],[14.03143,57.18366],[14.03252,57.17818],[14.02282,57.17737],[14.0222,57.17815],[14.02121,57.17791],[14.02113,57.17679],[14.01988,57.174],[14.01788,57.17263],[14.01642,57.17121],[14.01751,57.17069],[14.01723,57.16945],[14.01784,57.16856],[14.02074,57.16712],[14.01985,57.16648],[14.01786,57.16552],[14.01493,57.16477],[14.01231,57.16454],[14.00966,57.16468],[14.00369,57.16575],[14.00121,57.16672],[13.99773,57.16757],[13.99468,57.16897],[13.9915,57.16976],[13.98982,57.17044],[13.98775,57.17183],[13.98635,57.17389],[13.98619,57.17567],[13.98689,57.17716],[13.98491,57.17795],[13.98356,57.17875],[13.98181,57.18067],[13.9815,57.18281],[13.98266,57.18484],[13.98481,57.18658],[13.98797,57.18783],[13.99181,57.18837],[13.99529,57.18817],[13.99811,57.18866],[13.9984,57.18995],[13.99935,57.1913],[14.00411,57.19475],[14.00688,57.19725],[14.00993,57.19863],[14.01322,57.19928],[14.01262,57.20052],[14.01253,57.2016],[14.01345,57.2042],[14.01576,57.20696],[14.01848,57.2088],[14.01894,57.2102],[14.02109,57.21299],[14.02375,57.21455],[14.02676,57.21538],[14.0283,57.21889],[14.02942,57.2202],[14.03155,57.22152],[14.03379,57.2223],[14.03632,57.22275],[14.03898,57.22284],[14.0402,57.22276],[14.03969,57.2205],[14.03472,57.20817],[14.03483,57.19687]]]}},{"type":"Feature","id":"0683R006","properties":{"code":"0683R006","name":"Mossle"},"geometry":{"type":"Polygon","coordinates":[[[14.03758,57.1732],[14.03723,57.17022],[14.03488,57.16353],[14.03364,57.16361],[14.0337,57.16384],[14.03005,57.16427],[14.02821,57.16467],[14.02606,57.16548],[14.02318,57.16707],[14.02164,57.16761],[14.02074,57.16712],[14.01784,57.16856],[14.01723,57.16945],[14.01751,57.17069],[14.01642,57.17121],[14.01788,57.17263],[14.01988,57.174],[14.02113,57.17679],[14.02121,57.17791],[14.0222,57.17815],[14.02282,57.17737],[14.03665,57.17855],[14.03758,57.1732]]]}},{"type":"Feature","id":"0683R007","properties":{"code":"0683R007","name":"Nylund-Duvelund"},"geometry":{"type":"Polygon","coordinates":[[[14.05366,57.19781],[14.05683,57.19864],[14.06031,57.19892],[14.06373,57.19966],[14.06593,57.20019],[14.06982,57.20159],[14.07296,57.20215],[14.07543,57.20228],[14.07978,57.20214],[14.08227,57.2017],[14.08402,57.20113],[14.08622,57.20016],[14.08787,57.19905],[14.08981,57.19685],[14.09043,57.19544],[14.09044,57.19364],[14.09008,57.19258],[14.08906,57.19127],[14.08775,57.19027],[14.08903,57.18881],[14.08956,57.18723],[14.08934,57.18579],[14.08834,57.18413],[14.08761,57.18413],[14.08435,57.18217],[14.07996,57.18166],[14.08118,57.18739],[14.08028,57.18739],[14.06858,57.18568],[14.06753,57.1878],[14.06606,57.18875],[14.06312,57.18914],[14.06317,57.18937],[14.05922,57.18932],[14.05599,57.18971],[14.05559,57.19072],[14.05258,57.19211],[14.05233,57.19263],[14.04755,57.193],[14.04573,57.19272],[14.0435,57.19192],[14.0427,57.19087],[14.04431,57.19035],[14.04616,57.19025],[14.04793,57.18897],[14.04796,57.18857],[14.04519,57.18637],[14.04436,57.18446],[14.04142,57.18488],[14.04056,57.18457],[14.03596,57.18404],[14.03483,57.19687],[14.03472,57.20817],[14.0392,57.21908],[14.0402,57.22276],[14.04709,57.22135],[14.05094,57.22027],[14.05487,57.21813],[14.05674,57.21624],[14.05719,57.21484],[14.05715,57.2127],[14.05653,57.21116],[14.05559,57.21009],[14.05521,57.20789],[14.05386,57.20546],[14.05182,57.20375],[14.04997,57.2016],[14.04997,57.20092],[14.05241,57.19946],[14.05366,57.19781]]]}},{"type":"Feature","id":"0683R008","properties":{"code":"0683R008","name":"Rydaholm"},"geometry":{"type":"Polygon","coordinates":[[[14.31029,56.99782],[14.31289,56.99754],[14.3151,56.99697],[14.31963,56.99704],[14.32337,56.99636],[14.32549,56.9955],[14.32712,56.9944],[14.32801,56.9934],[14.32872,56.99184],[14.32899,56.98873],[14.32726,56.98425],[14.32873,56.9824],[14.32894,56.98049],[14.32969,56.97874],[14.32985,56.97678],[14.32941,56.97407],[14.32825,56.97245],[14.32618,56.97108],[14.32145,56.96938],[14.31829,56.96883],[14.31569,56.96879],[14.31374,56.969],[14.31004,56.96991],[14.30817,56.97057],[14.30578,56.97202],[14.3039,56.97275],[14.30257,56.97355],[14.30048,56.97527],[14.29908,56.97685],[14.29302,56.9773],[14.28843,56.97666],[14.28339,56.97669],[14.28078,56.97693],[14.2784,56.97751],[14.27632,56.9784],[14.27444,56.97986],[14.2727,56.98338],[14.27266,56.98483],[14.27353,56.98651],[14.27488,56.98768],[14.27714,56.98883],[14.28025,56.98969],[14.28405,56.98997],[14.28616,56.99143],[14.28764,56.99215],[14.28997,56.99284],[14.29319,56.99323],[14.29506,56.99385],[14.29691,56.99422],[14.29896,56.99569],[14.30167,56.99669],[14.30703,56.99766],[14.31029,56.99782]]]}}]}