{"type":"FeatureCollection","features":[{"type":"Feature","id":"0684R001","properties":{"code":"0684R001","name":"Stockaryd"},"geometry":{"type":"Polygon","coordinates":[[[14.58016,57.33141],[14.58276,57.33122],[14.58519,57.33068],[14.58683,57.33006],[14.58918,57.32867],[14.58997,57.32842],[14.59144,57.32948],[14.59301,57.33021],[14.59677,57.33115],[14.59884,57.33131],[14.60107,57.33125],[14.60498,57.33052],[14.60714,57.32964],[14.60883,57.3285],[14.61109,57.32607],[14.61168,57.32466],[14.61357,57.32328],[14.61634,57.32019],[14.61678,57.31876],[14.61668,57.31582],[14.61611,57.31443],[14.6149,57.31314],[14.61313,57.31206],[14.61094,57.31126],[14.60511,57.31027],[14.6043,57.30854],[14.60294,57.3073],[14.60052,57.30608],[14.59751,57.30525],[14.59597,57.3043],[14.59562,57.30499],[14.59239,57.30479],[14.58968,57.30494],[14.58649,57.30562],[14.58439,57.3057],[14.5804,57.30627],[14.57739,57.30706],[14.57545,57.30802],[14.57402,57.30921],[14.57316,57.31058],[14.573,57.31219],[14.57141,57.31322],[14.57024,57.31452],[14.56947,57.31664],[14.56922,57.31862],[14.56972,57.32019],[14.57075,57.32139],[14.56936,57.32288],[14.56879,57.32392],[14.5686,57.32536],[14.56908,57.32675],[14.57059,57.32857],[14.57278,57.32991],[14.57619,57.33102],[14.58016,57.33141]]]}},{"type":"Feature","id":"0684R002","properties":{"code":"0684R002","name":"Sävsjö nordöst"},"geometry":{"type":"Polygon","coordinates":[[[14.68308,57.41725],[14.68623,57.41685],[14.6889,57.41606],[14.69093,57.41512],[14.69273,57.41362],[14.69396,57.41119],[14.69422,57.40977],[14.69382,57.40834],[14.69295,57.40722],[14.6927,57.40581],[14.68696,57.40424],[14.68552,57.40407],[14.6852,57.40251],[14.68585,57.40211],[14.68398,57.40048],[14.68364,57.39871],[14.68341,57.39853],[14.67919,57.39868],[14.67866,57.39561],[14.67637,57.39567],[14.67131,57.39527],[14.66879,57.39527],[14.66244,57.39595],[14.66689,57.40575],[14.66839,57.40776],[14.6721,57.41176],[14.67091,57.41213],[14.6699,57.41275],[14.66707,57.41716],[14.67062,57.41686],[14.6734,57.41608],[14.67765,57.41695],[14.68308,57.41725]]]}},{"type":"Feature","id":"0684R003","properties":{"code":"0684R003","name":"Sävsjö norra omland"},"geometry":{"type":"Polygon","coordinates":[[[14.49156,57.49078],[14.49274,57.48977],[14.49345,57.48956],[14.49456,57.48963],[14.49598,57.48927],[14.49636,57.48879],[14.49748,57.48824],[14.49929,57.48796],[14.50221,57.48703],[14.50377,57.48721],[14.50554,57.48769],[14.5081,57.48905],[14.51077,57.48759],[14.5116,57.4869],[14.51286,57.48733],[14.51516,57.48754],[14.51695,57.48714],[14.51914,57.48532],[14.52044,57.48359],[14.51843,57.48079],[14.51817,57.47854],[14.51677,57.47653],[14.51749,57.4764],[14.5185,57.47585],[14.52106,57.47534],[14.52269,57.47441],[14.52548,57.47223],[14.52877,57.47161],[14.52929,57.47052],[14.52913,57.46943],[14.52985,57.46918],[14.53022,57.46872],[14.53173,57.46859],[14.53215,57.46764],[14.5332,57.46686],[14.53464,57.46833],[14.53494,57.46935],[14.53604,57.47071],[14.53585,57.47227],[14.53497,57.47492],[14.54353,57.47487],[14.54606,57.47439],[14.54613,57.47393],[14.54713,57.4737],[14.54733,57.47324],[14.54598,57.47321],[14.54611,57.47283],[14.54748,57.47285],[14.54917,57.46686],[14.54513,57.46286],[14.56089,57.46454],[14.56133,57.46392],[14.56083,57.46363],[14.56082,57.46306],[14.56015,57.46257],[14.56085,57.46165],[14.56039,57.46058],[14.5605,57.45979],[14.56116,57.45951],[14.56216,57.45967],[14.56306,57.45827],[14.56445,57.45801],[14.56568,57.45714],[14.56803,57.45642],[14.56855,57.456],[14.56851,57.45539],[14.56913,57.45458],[14.57272,57.45318],[14.57316,57.45282],[14.57316,57.4516],[14.57386,57.45182],[14.57433,57.45158],[14.57425,57.45124],[14.57731,57.45198],[14.57804,57.43931],[14.58235,57.43976],[14.58232,57.43918],[14.59132,57.43719],[14.59093,57.43621],[14.5888,57.43371],[14.58962,57.43356],[14.59193,57.43351],[14.59336,57.434],[14.59637,57.43353],[14.59759,57.43365],[14.59809,57.43404],[14.59932,57.43393],[14.60079,57.43426],[14.60335,57.43392],[14.60457,57.43455],[14.60467,57.43512],[14.60555,57.43579],[14.60687,57.436],[14.60967,57.43753],[14.61018,57.43804],[14.6141,57.43725],[14.61413,57.43668],[14.61583,57.43602],[14.61666,57.43502],[14.61732,57.43489],[14.62037,57.43504],[14.61919,57.43799],[14.61877,57.43821],[14.61993,57.43999],[14.62094,57.44085],[14.62454,57.44201],[14.62582,57.44222],[14.62789,57.44177],[14.62786,57.44283],[14.62913,57.44313],[14.6304,57.44299],[14.63045,57.44363],[14.63134,57.44434],[14.63084,57.445],[14.6313,57.44609],[14.63264,57.44622],[14.63383,57.44597],[14.63357,57.44644],[14.63408,57.44662],[14.63495,57.44626],[14.63581,57.44642],[14.63653,57.44706],[14.63626,57.44805],[14.63653,57.44844],[14.6372,57.44873],[14.63865,57.44884],[14.63903,57.4491],[14.64141,57.44946],[14.64506,57.45056],[14.64694,57.45065],[14.6481,57.45147],[14.64884,57.45238],[14.65079,57.45347],[14.65235,57.45307],[14.65354,57.45321],[14.65521,57.45369],[14.65634,57.45373],[14.65747,57.45446],[14.65881,57.45458],[14.65923,57.45502],[14.65926,57.45553],[14.65896,57.45581],[14.65823,57.45592],[14.65813,57.45648],[14.65879,57.45688],[14.66022,57.45688],[14.6607,57.45752],[14.66061,57.4582],[14.66027,57.4585],[14.65942,57.45862],[14.65864,57.4584],[14.6583,57.4587],[14.65849,57.45891],[14.66152,57.4595],[14.66286,57.45955],[14.66373,57.45914],[14.66459,57.45948],[14.66479,57.45987],[14.66593,57.46063],[14.66664,57.46103],[14.66736,57.46114],[14.6681,57.46163],[14.66839,57.46204],[14.66832,57.46356],[14.6688,57.46451],[14.66929,57.46466],[14.67002,57.46537],[14.67184,57.46579],[14.67305,57.46638],[14.67349,57.46755],[14.67444,57.46808],[14.67503,57.46876],[14.67645,57.46815],[14.67873,57.46845],[14.68053,57.46901],[14.68287,57.47147],[14.68555,57.47297],[14.69179,57.47279],[14.69259,57.46968],[14.69363,57.46906],[14.69501,57.46775],[14.69647,57.46714],[14.69675,57.46665],[14.69793,57.46634],[14.69786,57.46612],[14.69909,57.46545],[14.69951,57.46495],[14.70081,57.4649],[14.70135,57.46466],[14.70114,57.46407],[14.70148,57.46348],[14.70444,57.46395],[14.71362,57.46272],[14.72679,57.46491],[14.73157,57.46331],[14.73828,57.45776],[14.73772,57.45382],[14.7392,57.45209],[14.74752,57.44909],[14.75009,57.44881],[14.75005,57.4484],[14.74842,57.44676],[14.74878,57.44483],[14.74846,57.44384],[14.74675,57.44386],[14.7463,57.44244],[14.74526,57.4426],[14.74104,57.44111],[14.74096,57.44047],[14.74138,57.43964],[14.74098,57.43914],[14.74087,57.43815],[14.74225,57.43643],[14.74446,57.43555],[14.74446,57.43459],[14.7458,57.43408],[14.74792,57.43359],[14.7479,57.43305],[14.74722,57.4326],[14.74737,57.43151],[14.74844,57.43053],[14.75052,57.4297],[14.75019,57.4281],[14.74853,57.42719],[14.74836,57.42687],[14.75989,57.42163],[14.75716,57.42003],[14.75771,57.41824],[14.76063,57.4131],[14.76173,57.40742],[14.76125,57.40353],[14.7759,57.40331],[14.77753,57.40359],[14.78016,57.40527],[14.78249,57.40587],[14.78318,57.40626],[14.78536,57.40649],[14.79277,57.40636],[14.79679,57.40689],[14.79766,57.40719],[14.80385,57.40606],[14.80961,57.40467],[14.81114,57.4041],[14.81285,57.40391],[14.81379,57.40404],[14.8151,57.40363],[14.81863,57.40362],[14.81741,57.39731],[14.82244,57.37853],[14.82218,57.37595],[14.82375,57.37114],[14.8246,57.36586],[14.82777,57.35906],[14.82815,57.35904],[14.82833,57.35812],[14.82769,57.35642],[14.82665,57.35522],[14.82711,57.35399],[14.82697,57.35331],[14.82749,57.35312],[14.82727,57.35217],[14.82752,57.35142],[14.82711,57.35142],[14.82679,57.35083],[14.82711,57.35044],[14.82624,57.35016],[14.82588,57.34967],[14.82539,57.34965],[14.82423,57.34907],[14.82436,57.34857],[14.82384,57.34775],[14.82402,57.34712],[14.82293,57.34645],[14.82283,57.34607],[14.82238,57.34591],[14.82134,57.34454],[14.82095,57.34447],[14.82054,57.34405],[14.82076,57.34322],[14.82167,57.34247],[14.82062,57.34138],[14.82109,57.34084],[14.82034,57.33936],[14.82077,57.33924],[14.82073,57.33868],[14.82006,57.33846],[14.8197,57.33809],[14.81919,57.33819],[14.81913,57.33785],[14.81871,57.33819],[14.81848,57.3381],[14.81844,57.33744],[14.81797,57.33747],[14.81788,57.33724],[14.81731,57.33711],[14.81751,57.33687],[14.81686,57.33696],[14.81709,57.33571],[14.81657,57.33553],[14.81439,57.33375],[14.81425,57.33312],[14.81473,57.33213],[14.81261,57.32969],[14.80955,57.32765],[14.80917,57.32648],[14.80639,57.3249],[14.80182,57.32391],[14.8047,57.3223],[14.80508,57.32201],[14.80533,57.32088],[14.80804,57.31928],[14.81134,57.31886],[14.81298,57.31786],[14.81361,57.31771],[14.81449,57.318],[14.81553,57.31741],[14.81229,57.3115],[14.80828,57.30963],[14.80684,57.30642],[14.80711,57.30323],[14.80683,57.30273],[14.80603,57.30198],[14.80513,57.30164],[14.80492,57.30122],[14.80199,57.3005],[14.80142,57.30015],[14.80293,57.29901],[14.80288,57.2979],[14.80432,57.29582],[14.80687,57.29499],[14.80658,57.29396],[14.80621,57.29369],[14.8068,57.29307],[14.80637,57.29198],[14.80601,57.29179],[14.8063,57.29082],[14.80694,57.28969],[14.80732,57.28968],[14.80692,57.28898],[14.80816,57.28885],[14.80897,57.28804],[14.80784,57.28604],[14.80619,57.28485],[14.80693,57.28305],[14.80659,57.28231],[14.80607,57.28204],[14.80503,57.28193],[14.8042,57.28153],[14.80419,57.28036],[14.80267,57.27837],[14.80537,57.27621],[14.80249,57.27302],[14.80022,57.27298],[14.79889,57.27237],[14.79848,57.27176],[14.79766,57.27146],[14.79394,57.27129],[14.79319,57.271],[14.79152,57.27082],[14.79083,57.27035],[14.78858,57.26986],[14.78395,57.26477],[14.77969,57.26249],[14.77974,57.2607],[14.78225,57.25744],[14.77943,57.25411],[14.77427,57.25148],[14.76997,57.24971],[14.76438,57.2516],[14.76307,57.25367],[14.76332,57.25583],[14.76152,57.25747],[14.75906,57.25861],[14.75549,57.26159],[14.75501,57.26384],[14.75625,57.26467],[14.75573,57.26528],[14.75652,57.2654],[14.75624,57.26581],[14.7572,57.26678],[14.7579,57.26698],[14.75844,57.26898],[14.76204,57.26985],[14.76239,57.2701],[14.76187,57.27053],[14.76224,57.27108],[14.76153,57.27129],[14.76197,57.2715],[14.76409,57.27412],[14.76586,57.28107],[14.7664,57.28205],[14.76845,57.28312],[14.76879,57.28656],[14.77006,57.28984],[14.7723,57.29177],[14.77106,57.29571],[14.77123,57.29899],[14.77395,57.301],[14.76665,57.30228],[14.7644,57.30689],[14.75516,57.31249],[14.75649,57.31406],[14.75688,57.31727],[14.76344,57.32375],[14.7573,57.32561],[14.75165,57.32563],[14.74747,57.32675],[14.7417,57.32697],[14.74135,57.32875],[14.74171,57.32955],[14.74027,57.32988],[14.73951,57.33176],[14.73844,57.33233],[14.73776,57.33197],[14.73746,57.33201],[14.73617,57.33291],[14.73528,57.33269],[14.73485,57.33333],[14.73367,57.33368],[14.73201,57.33466],[14.73061,57.33509],[14.72917,57.33476],[14.72935,57.33414],[14.72781,57.33303],[14.72747,57.33172],[14.72672,57.33174],[14.72583,57.33144],[14.72462,57.33153],[14.72376,57.33054],[14.72284,57.33034],[14.72114,57.3311],[14.72082,57.33179],[14.71674,57.33178],[14.71697,57.33288],[14.71559,57.33289],[14.71373,57.33356],[14.70878,57.33607],[14.70662,57.33857],[14.70595,57.3387],[14.7055,57.33854],[14.7039,57.33751],[14.70192,57.33673],[14.70133,57.33662],[14.69946,57.33687],[14.69789,57.33639],[14.69637,57.33635],[14.69469,57.33666],[14.6942,57.33693],[14.69066,57.33687],[14.69071,57.33976],[14.68767,57.3394],[14.68305,57.33811],[14.68203,57.33798],[14.68044,57.33823],[14.6788,57.33883],[14.67762,57.33898],[14.67877,57.33685],[14.67919,57.33452],[14.67974,57.33342],[14.67524,57.33383],[14.67261,57.33352],[14.66972,57.33362],[14.66753,57.3342],[14.66383,57.33439],[14.66332,57.33395],[14.6635,57.33308],[14.66325,57.33254],[14.65846,57.33302],[14.65437,57.33298],[14.64599,57.33139],[14.64557,57.33017],[14.64246,57.33014],[14.62934,57.33511],[14.62025,57.33528],[14.61768,57.33492],[14.61749,57.33519],[14.61452,57.33581],[14.61359,57.3374],[14.6088,57.33888],[14.60777,57.33883],[14.60732,57.33905],[14.60689,57.33975],[14.60608,57.34006],[14.6057,57.34049],[14.60502,57.34045],[14.60304,57.34095],[14.60154,57.3409],[14.60088,57.34109],[14.59926,57.34281],[14.5925,57.34346],[14.59249,57.34461],[14.59315,57.34566],[14.5865,57.34833],[14.5874,57.34935],[14.58501,57.3499],[14.57837,57.35063],[14.5762,57.35103],[14.5786,57.35202],[14.57848,57.35248],[14.57872,57.35265],[14.57758,57.35306],[14.57742,57.35407],[14.57563,57.35527],[14.57601,57.35593],[14.57515,57.35653],[14.57542,57.35725],[14.57461,57.35749],[14.5742,57.35871],[14.5724,57.3584],[14.57138,57.35793],[14.571,57.35707],[14.56591,57.35359],[14.55179,57.35743],[14.55246,57.35506],[14.54862,57.35566],[14.54551,57.35001],[14.54324,57.34697],[14.52869,57.33509],[14.52753,57.33533],[14.5164,57.33222],[14.50646,57.3276],[14.49865,57.32596],[14.48878,57.31935],[14.48819,57.31917],[14.4883,57.31875],[14.48781,57.3183],[14.48715,57.31611],[14.48409,57.31321],[14.48153,57.31202],[14.4797,57.31082],[14.47932,57.31043],[14.47904,57.30925],[14.4784,57.3092],[14.4777,57.30872],[14.47436,57.3089],[14.47322,57.30865],[14.47293,57.30789],[14.47194,57.30687],[14.47001,57.30589],[14.46803,57.30561],[14.46745,57.30533],[14.46741,57.30426],[14.44059,57.29606],[14.43273,57.29695],[14.4324,57.29684],[14.43171,57.29785],[14.43166,57.29829],[14.43191,57.29841],[14.43148,57.29873],[14.43177,57.29902],[14.4308,57.29949],[14.431,57.29966],[14.43054,57.29984],[14.4307,57.30005],[14.43012,57.30003],[14.43013,57.30039],[14.42949,57.30054],[14.42982,57.30076],[14.42969,57.30137],[14.4289,57.30131],[14.42894,57.30162],[14.42821,57.30147],[14.42648,57.3015],[14.42565,57.29991],[14.42409,57.29892],[14.42221,57.29586],[14.42244,57.29556],[14.42201,57.29473],[14.42074,57.2946],[14.42027,57.29435],[14.41966,57.29236],[14.41909,57.29231],[14.41732,57.29266],[14.41664,57.29168],[14.41723,57.29147],[14.41695,57.28901],[14.41509,57.28859],[14.41434,57.28893],[14.41252,57.28898],[14.41202,57.28934],[14.41223,57.28975],[14.41293,57.29003],[14.41242,57.29079],[14.40959,57.29103],[14.40871,57.29205],[14.40858,57.29288],[14.40886,57.29347],[14.40819,57.29407],[14.40668,57.29484],[14.40814,57.29677],[14.40825,57.29744],[14.41054,57.29869],[14.4109,57.29934],[14.41082,57.3],[14.41175,57.30066],[14.41232,57.30186],[14.41279,57.30396],[14.41268,57.30588],[14.41219,57.30673],[14.41106,57.3077],[14.41019,57.30778],[14.40831,57.30858],[14.40778,57.30854],[14.40507,57.30914],[14.40524,57.30962],[14.40412,57.31094],[14.40294,57.31158],[14.40296,57.31203],[14.40004,57.3134],[14.39943,57.31407],[14.39647,57.31598],[14.39563,57.31739],[14.39375,57.31921],[14.3952,57.32073],[14.39573,57.32301],[14.39512,57.32483],[14.39464,57.32537],[14.39496,57.3264],[14.39453,57.32706],[14.39265,57.32797],[14.38941,57.32885],[14.38071,57.32819],[14.3816,57.33019],[14.38108,57.33062],[14.37883,57.32949],[14.38259,57.33382],[14.38288,57.33739],[14.38263,57.33834],[14.38341,57.34524],[14.38193,57.3483],[14.38167,57.34944],[14.37882,57.34894],[14.37695,57.34899],[14.37703,57.35176],[14.37914,57.35515],[14.37793,57.35785],[14.3783,57.35966],[14.37791,57.36105],[14.37847,57.36224],[14.37669,57.36356],[14.3773,57.36505],[14.37293,57.37215],[14.37133,57.37263],[14.36888,57.37595],[14.36828,57.37633],[14.36859,57.37789],[14.36406,57.38242],[14.3684,57.38724],[14.36777,57.39986],[14.36481,57.40825],[14.36767,57.41952],[14.36847,57.41993],[14.36655,57.42182],[14.36702,57.42313],[14.36782,57.42383],[14.36792,57.42514],[14.36882,57.42569],[14.36858,57.42775],[14.36917,57.43512],[14.36893,57.43584],[14.36949,57.43741],[14.36931,57.43848],[14.37064,57.43995],[14.37128,57.44188],[14.37577,57.44841],[14.37685,57.45069],[14.37753,57.45228],[14.37694,57.45445],[14.38125,57.46381],[14.3973,57.46217],[14.40705,57.46079],[14.40733,57.46164],[14.40868,57.46099],[14.40899,57.46107],[14.41413,57.46397],[14.41574,57.46555],[14.41619,57.46574],[14.41715,57.4658],[14.41768,57.46557],[14.41787,57.46489],[14.4203,57.46292],[14.42057,57.46296],[14.4207,57.46393],[14.42223,57.46426],[14.42276,57.46479],[14.42332,57.46483],[14.42371,57.46517],[14.42461,57.46535],[14.42486,57.4661],[14.42551,57.46609],[14.42594,57.4663],[14.42639,57.46606],[14.42718,57.46634],[14.42862,57.4664],[14.42856,57.46653],[14.42954,57.46647],[14.43348,57.46774],[14.43432,57.46846],[14.43487,57.46853],[14.43533,57.46832],[14.43579,57.46835],[14.43633,57.46928],[14.4371,57.46962],[14.43609,57.47111],[14.43618,57.47183],[14.43722,57.4722],[14.43707,57.47238],[14.43762,57.47265],[14.43735,57.47283],[14.43777,57.4733],[14.43962,57.47323],[14.44056,57.47333],[14.44141,57.4737],[14.4426,57.4737],[14.44528,57.47347],[14.44886,57.47283],[14.45027,57.4728],[14.45041,57.47321],[14.45141,57.47385],[14.45148,57.47443],[14.45259,57.47526],[14.45306,57.47667],[14.45243,57.47744],[14.45238,57.47818],[14.45047,57.48158],[14.4495,57.48191],[14.44754,57.4821],[14.44535,57.48437],[14.44493,57.48451],[14.44487,57.48507],[14.44508,57.48602],[14.44674,57.48676],[14.44763,57.48667],[14.44965,57.48724],[14.4505,57.4878],[14.45175,57.48935],[14.45511,57.48834],[14.46227,57.48776],[14.46748,57.48759],[14.47341,57.48714],[14.4808,57.48781],[14.49156,57.49078]],[[14.46098,57.37009],[14.45842,57.36997],[14.45587,57.36953],[14.45279,57.36835],[14.45076,57.36804],[14.44845,57.36742],[14.44638,57.36649],[14.44455,57.36503],[14.44373,57.36366],[14.44365,57.36187],[14.44435,57.36047],[14.44649,57.35843],[14.44889,57.35731],[14.45007,57.35639],[14.45301,57.35485],[14.45408,57.35308],[14.45559,57.35169],[14.45684,57.34985],[14.45884,57.34835],[14.45942,57.3473],[14.46042,57.3463],[14.46076,57.34439],[14.46224,57.34221],[14.46341,57.34117],[14.46569,57.33979],[14.46894,57.33855],[14.47346,57.33798],[14.47579,57.33708],[14.47873,57.3364],[14.482,57.33617],[14.48585,57.33661],[14.48816,57.33735],[14.49049,57.33847],[14.4934,57.34028],[14.49479,57.34155],[14.4958,57.3437],[14.49554,57.34556],[14.49795,57.34655],[14.50013,57.348],[14.50143,57.34974],[14.50185,57.3514],[14.50331,57.35314],[14.50381,57.35513],[14.50316,57.35689],[14.50153,57.35844],[14.50014,57.35922],[14.49801,57.35997],[14.49552,57.36181],[14.49389,57.36252],[14.48942,57.36385],[14.48949,57.36403],[14.48885,57.3644],[14.48721,57.36467],[14.48665,57.36434],[14.48377,57.36438],[14.47923,57.36518],[14.47523,57.36523],[14.47317,57.36734],[14.4704,57.36878],[14.46749,57.36948],[14.46397,57.36994],[14.46098,57.37009]],[[14.68181,57.41726],[14.67765,57.41695],[14.6734,57.41608],[14.67062,57.41686],[14.66736,57.41716],[14.66531,57.41706],[14.66033,57.41636],[14.65797,57.41568],[14.65613,57.41476],[14.65402,57.41453],[14.6521,57.41409],[14.64659,57.41176],[14.64383,57.41089],[14.64158,57.41049],[14.63986,57.40995],[14.63751,57.40869],[14.63622,57.40743],[14.6354,57.40558],[14.63548,57.40377],[14.63617,57.40237],[14.63744,57.40114],[14.63785,57.40039],[14.63522,57.39899],[14.63366,57.39731],[14.63312,57.39542],[14.63373,57.39318],[14.63523,57.39163],[14.63752,57.39043],[14.64441,57.38838],[14.64733,57.38783],[14.64656,57.38669],[14.64625,57.38562],[14.64598,57.3832],[14.64651,57.38147],[14.64751,57.38018],[14.64907,57.37905],[14.65113,57.37816],[14.65327,57.37757],[14.65734,57.37717],[14.66024,57.37744],[14.66254,57.37726],[14.66603,57.37727],[14.67,57.37759],[14.67257,57.37707],[14.67463,57.37692],[14.67873,57.37725],[14.68206,57.37817],[14.68465,57.37948],[14.68606,57.38075],[14.68705,57.38231],[14.68839,57.38317],[14.68962,57.38446],[14.69017,57.3858],[14.68996,57.38747],[14.69168,57.3884],[14.69271,57.38927],[14.6938,57.39132],[14.69359,57.39302],[14.69213,57.39483],[14.69189,57.39758],[14.69094,57.39895],[14.68956,57.40004],[14.6899,57.40177],[14.69159,57.40369],[14.69257,57.4054],[14.69295,57.40722],[14.6941,57.40904],[14.69418,57.41049],[14.69273,57.41362],[14.69046,57.41538],[14.6889,57.41606],[14.68623,57.41685],[14.68438,57.41715],[14.68181,57.41726]]]}},{"type":"Feature","id":"0684R004","properties":{"code":"0684R004","name":"Sävsjö sydöst"},"geometry":{"type":"Polygon","coordinates":[[[14.69269,57.40577],[14.69182,57.404],[14.6899,57.40177],[14.68956,57.40004],[14.69094,57.39895],[14.69189,57.39758],[14.69213,57.39483],[14.69359,57.39302],[14.69372,57.39098],[14.6924,57.38897],[14.68996,57.38747],[14.69017,57.3858],[14.68962,57.38446],[14.68839,57.38317],[14.68705,57.38231],[14.68613,57.38083],[14.68503,57.37976],[14.68306,57.37859],[14.68137,57.37794],[14.67873,57.37725],[14.67671,57.37698],[14.67319,57.37701],[14.67,57.37759],[14.66534,57.37725],[14.66024,57.37744],[14.65734,57.37717],[14.65467,57.37733],[14.65526,57.37801],[14.6544,57.37914],[14.65438,57.38019],[14.65705,57.37977],[14.65869,57.37909],[14.65961,57.37919],[14.65986,57.38002],[14.66093,57.38032],[14.66148,57.38074],[14.66012,57.38389],[14.65692,57.3838],[14.65569,57.38408],[14.65895,57.38838],[14.66244,57.39595],[14.66879,57.39527],[14.67131,57.39527],[14.67637,57.39567],[14.67866,57.39561],[14.67919,57.39868],[14.68341,57.39853],[14.68364,57.39871],[14.68398,57.40048],[14.68585,57.40211],[14.6852,57.40251],[14.68552,57.40407],[14.68696,57.40424],[14.69269,57.40577]]]}},{"type":"Feature","id":"0684R005","properties":{"code":"0684R005","name":"Sävsjö södra omland"},"geometry":{"type":"Polygon","coordinates":[[[14.57421,57.35863],[14.57461,57.35749],[14.57542,57.35725],[14.57515,57.35653],[14.57601,57.35593],[14.57563,57.35527],[14.57742,57.35407],[14.57758,57.35306],[14.57872,57.35265],[14.57848,57.35248],[14.5786,57.35202],[14.5762,57.35103],[14.57837,57.35063],[14.58501,57.3499],[14.5874,57.34935],[14.5865,57.34833],[14.59315,57.34566],[14.59249,57.34461],[14.5925,57.34346],[14.59926,57.34281],[14.60088,57.34109],[14.60154,57.3409],[14.60304,57.34095],[14.60502,57.34045],[14.6057,57.34049],[14.60608,57.34006],[14.60689,57.33975],[14.60732,57.33905],[14.60777,57.33883],[14.6088,57.33888],[14.61359,57.3374],[14.61452,57.33581],[14.61749,57.33519],[14.61768,57.33492],[14.62025,57.33528],[14.62934,57.33511],[14.64246,57.33014],[14.64557,57.33017],[14.64599,57.33139],[14.65437,57.33298],[14.65846,57.33302],[14.66325,57.33254],[14.6635,57.33308],[14.66332,57.33395],[14.66383,57.33439],[14.66753,57.3342],[14.66972,57.33362],[14.67261,57.33352],[14.67524,57.33383],[14.67974,57.33342],[14.67919,57.33452],[14.67877,57.33685],[14.67762,57.33898],[14.6788,57.33883],[14.68044,57.33823],[14.68203,57.33798],[14.68305,57.33811],[14.68767,57.3394],[14.69071,57.33976],[14.69066,57.33687],[14.6942,57.33693],[14.69469,57.33666],[14.69637,57.33635],[14.69789,57.33639],[14.69946,57.33687],[14.70133,57.33662],[14.70192,57.33673],[14.7039,57.33751],[14.7055,57.33854],[14.70595,57.3387],[14.70662,57.33857],[14.70878,57.33607],[14.71373,57.33356],[14.71559,57.33289],[14.71697,57.33288],[14.71674,57.33178],[14.72082,57.33179],[14.72114,57.3311],[14.72284,57.33034],[14.72376,57.33054],[14.72462,57.33153],[14.72583,57.33144],[14.72672,57.33174],[14.72747,57.33172],[14.72781,57.33303],[14.72935,57.33414],[14.72917,57.33476],[14.73061,57.33509],[14.73201,57.33466],[14.73367,57.33368],[14.73485,57.33333],[14.73528,57.33269],[14.73617,57.33291],[14.73746,57.33201],[14.73776,57.33197],[14.73844,57.33233],[14.73951,57.33176],[14.74027,57.32988],[14.74171,57.32955],[14.74135,57.32875],[14.7417,57.32697],[14.74747,57.32675],[14.75165,57.32563],[14.7573,57.32561],[14.76344,57.32375],[14.75688,57.31727],[14.75649,57.31406],[14.75516,57.31249],[14.7644,57.30689],[14.76665,57.30228],[14.77395,57.301],[14.77123,57.29899],[14.77106,57.29571],[14.7723,57.29177],[14.77006,57.28984],[14.76879,57.28656],[14.76845,57.28312],[14.7664,57.28205],[14.76586,57.28107],[14.76409,57.27412],[14.76197,57.2715],[14.76153,57.27129],[14.76224,57.27108],[14.76187,57.27053],[14.76239,57.2701],[14.76204,57.26985],[14.75844,57.26898],[14.7579,57.26698],[14.7572,57.26678],[14.75624,57.26581],[14.75652,57.2654],[14.75573,57.26528],[14.75625,57.26467],[14.75501,57.26384],[14.75549,57.26159],[14.75906,57.25861],[14.76152,57.25747],[14.76332,57.25583],[14.76307,57.25367],[14.76438,57.2516],[14.76997,57.24971],[14.77427,57.25148],[14.77986,57.24818],[14.7797,57.24654],[14.78158,57.24501],[14.78246,57.24468],[14.78316,57.24373],[14.78245,57.24298],[14.78248,57.24236],[14.78286,57.24168],[14.78497,57.23988],[14.78551,57.23899],[14.77834,57.2317],[14.78133,57.23078],[14.78155,57.23016],[14.781,57.23008],[14.78074,57.22981],[14.78099,57.22948],[14.78183,57.22954],[14.78183,57.22976],[14.78203,57.2295],[14.78302,57.22932],[14.78427,57.22878],[14.78705,57.2284],[14.78789,57.22783],[14.78922,57.22797],[14.7903,57.22725],[14.78997,57.22683],[14.79019,57.22631],[14.78984,57.2262],[14.7897,57.22551],[14.79009,57.22495],[14.78996,57.22458],[14.78922,57.22508],[14.78859,57.22479],[14.78398,57.2251],[14.78307,57.22483],[14.77987,57.22472],[14.7775,57.22545],[14.77384,57.2244],[14.77367,57.22495],[14.7729,57.22551],[14.76928,57.22637],[14.76394,57.22679],[14.76212,57.22749],[14.76099,57.2274],[14.75956,57.22753],[14.75677,57.22692],[14.75472,57.2277],[14.75277,57.22773],[14.75043,57.22814],[14.74594,57.22647],[14.7415,57.22522],[14.73942,57.22515],[14.73706,57.22565],[14.73524,57.22553],[14.73461,57.22501],[14.73216,57.22538],[14.72912,57.2252],[14.7286,57.2253],[14.72635,57.22504],[14.72507,57.22446],[14.72395,57.22421],[14.72005,57.2238],[14.71804,57.22476],[14.71531,57.22327],[14.71335,57.2219],[14.71275,57.21993],[14.7115,57.21979],[14.71004,57.2191],[14.70792,57.21849],[14.7075,57.21791],[14.70523,57.21739],[14.70463,57.21696],[14.69963,57.2151],[14.6968,57.21469],[14.6929,57.21319],[14.68944,57.2121],[14.68764,57.21141],[14.68759,57.21085],[14.68722,57.21073],[14.68492,57.21066],[14.68166,57.20942],[14.67736,57.20888],[14.67428,57.20773],[14.67164,57.20783],[14.67037,57.20754],[14.66913,57.20773],[14.66811,57.20746],[14.66665,57.20747],[14.66572,57.2072],[14.6634,57.20699],[14.65997,57.20747],[14.65906,57.20811],[14.6576,57.20866],[14.65581,57.20881],[14.65485,57.20866],[14.65443,57.20815],[14.65561,57.2069],[14.65687,57.20447],[14.65643,57.20395],[14.65667,57.20327],[14.65614,57.20298],[14.65342,57.20323],[14.65051,57.20324],[14.63869,57.20452],[14.63497,57.20431],[14.63059,57.20519],[14.62949,57.20457],[14.62689,57.2041],[14.61643,57.2033],[14.60678,57.20441],[14.61204,57.18307],[14.61087,57.18065],[14.60649,57.18042],[14.60518,57.18013],[14.60341,57.18024],[14.6031,57.18093],[14.60076,57.18125],[14.59867,57.17814],[14.59578,57.17788],[14.59291,57.18027],[14.59163,57.18043],[14.58433,57.18679],[14.58351,57.18661],[14.58317,57.18625],[14.58279,57.18627],[14.58205,57.18587],[14.58071,57.18714],[14.57939,57.18723],[14.57704,57.18781],[14.57557,57.18945],[14.57062,57.18996],[14.56346,57.18912],[14.56254,57.18858],[14.56164,57.1886],[14.56108,57.18824],[14.56005,57.18797],[14.55798,57.18786],[14.55701,57.18762],[14.55589,57.18729],[14.55485,57.18662],[14.55471,57.18479],[14.55358,57.18283],[14.55327,57.17995],[14.54978,57.17408],[14.55158,57.17367],[14.55011,57.17203],[14.54847,57.17118],[14.54375,57.17144],[14.53868,57.16068],[14.53422,57.16012],[14.52803,57.16006],[14.51982,57.15963],[14.51546,57.16068],[14.51401,57.16079],[14.51203,57.16062],[14.51111,57.1624],[14.50965,57.16317],[14.50599,57.16144],[14.49871,57.1586],[14.49865,57.15782],[14.49897,57.15737],[14.49775,57.15697],[14.4974,57.15637],[14.49708,57.15515],[14.49743,57.15439],[14.49611,57.15369],[14.48951,57.15212],[14.4872,57.15201],[14.486,57.15433],[14.48659,57.15495],[14.48668,57.15589],[14.48496,57.15769],[14.4844,57.15782],[14.48153,57.15778],[14.4706,57.15747],[14.46072,57.15774],[14.4602,57.15889],[14.46046,57.15971],[14.45967,57.16043],[14.45973,57.16081],[14.46081,57.16152],[14.46105,57.1621],[14.46059,57.16339],[14.45931,57.16308],[14.45825,57.16306],[14.45711,57.16333],[14.45234,57.16298],[14.44957,57.16297],[14.4489,57.16256],[14.44833,57.16135],[14.44742,57.16103],[14.44732,57.15996],[14.44776,57.15957],[14.447,57.15725],[14.4466,57.15674],[14.44581,57.15676],[14.44565,57.15581],[14.44638,57.15548],[14.44547,57.15465],[14.44508,57.15488],[14.44431,57.1546],[14.44424,57.15274],[14.44322,57.15234],[14.44261,57.15233],[14.44256,57.1519],[14.44354,57.15191],[14.44341,57.15116],[14.44236,57.15107],[14.44178,57.15074],[14.44082,57.14957],[14.43977,57.14993],[14.43906,57.14939],[14.43909,57.14886],[14.43768,57.14867],[14.43736,57.14883],[14.43743,57.15102],[14.43708,57.15237],[14.43618,57.15257],[14.43473,57.15259],[14.43367,57.15234],[14.4329,57.15246],[14.43249,57.15217],[14.43267,57.15174],[14.43159,57.15173],[14.43139,57.15122],[14.43182,57.15101],[14.43069,57.15042],[14.43074,57.15018],[14.43152,57.14991],[14.4315,57.14963],[14.43056,57.14984],[14.43,57.14959],[14.42993,57.14855],[14.42893,57.14853],[14.4277,57.14736],[14.42759,57.14659],[14.42705,57.14655],[14.42661,57.14618],[14.42595,57.14422],[14.42408,57.14351],[14.4239,57.14378],[14.42467,57.14459],[14.42416,57.14536],[14.42438,57.14717],[14.4238,57.14819],[14.42316,57.14832],[14.42254,57.14787],[14.42163,57.14807],[14.42202,57.14865],[14.42112,57.14888],[14.42066,57.14927],[14.42094,57.14948],[14.42092,57.15001],[14.42036,57.15115],[14.41947,57.15166],[14.419,57.1525],[14.41729,57.15356],[14.41725,57.15396],[14.4152,57.1543],[14.41259,57.15537],[14.40775,57.15158],[14.40259,57.15161],[14.40128,57.15094],[14.39792,57.15056],[14.39788,57.15133],[14.39708,57.15154],[14.3976,57.15323],[14.39715,57.15496],[14.39786,57.15597],[14.39939,57.16077],[14.398,57.16097],[14.39626,57.16059],[14.3958,57.16066],[14.39311,57.16277],[14.39303,57.16522],[14.39524,57.16647],[14.39588,57.16837],[14.39489,57.17014],[14.39494,57.17162],[14.39273,57.1727],[14.39241,57.17346],[14.39074,57.17408],[14.39126,57.17478],[14.39059,57.17608],[14.39126,57.17637],[14.39171,57.1776],[14.39038,57.17943],[14.38961,57.18],[14.38963,57.18516],[14.40245,57.18695],[14.4068,57.19773],[14.41127,57.21006],[14.41272,57.20998],[14.41313,57.21016],[14.41312,57.21112],[14.41251,57.21173],[14.4146,57.21141],[14.41653,57.21252],[14.41699,57.21253],[14.41757,57.21225],[14.42029,57.2161],[14.41979,57.22225],[14.42168,57.23323],[14.42428,57.23924],[14.4254,57.23948],[14.42459,57.24009],[14.42741,57.24806],[14.42944,57.25938],[14.42984,57.26026],[14.43271,57.26045],[14.43314,57.26177],[14.43443,57.26339],[14.4361,57.26469],[14.44363,57.27348],[14.44242,57.2881],[14.44059,57.29606],[14.46741,57.30426],[14.46745,57.30533],[14.46803,57.30561],[14.47001,57.30589],[14.47194,57.30687],[14.47293,57.30789],[14.47322,57.30865],[14.47436,57.3089],[14.4777,57.30872],[14.4784,57.3092],[14.47904,57.30925],[14.47932,57.31043],[14.4797,57.31082],[14.48153,57.31202],[14.48409,57.31321],[14.48715,57.31611],[14.48781,57.3183],[14.4883,57.31875],[14.48819,57.31917],[14.48878,57.31935],[14.49865,57.32596],[14.50646,57.3276],[14.5164,57.33222],[14.52753,57.33533],[14.52869,57.33509],[14.54324,57.34697],[14.54551,57.35001],[14.54862,57.35566],[14.55246,57.35506],[14.55179,57.35743],[14.56591,57.35359],[14.571,57.35707],[14.57138,57.35793],[14.5724,57.3584],[14.57421,57.35863]],[[14.57947,57.33141],[14.57619,57.33102],[14.57278,57.32991],[14.57059,57.32857],[14.56908,57.32675],[14.5686,57.32536],[14.56879,57.32392],[14.56936,57.32288],[14.57075,57.32139],[14.56972,57.32019],[14.56922,57.31862],[14.56947,57.31664],[14.57024,57.31452],[14.57141,57.31322],[14.573,57.31219],[14.57316,57.31058],[14.57402,57.30921],[14.57545,57.30802],[14.57739,57.30706],[14.5804,57.30627],[14.58439,57.3057],[14.58649,57.30562],[14.58968,57.30494],[14.59239,57.30479],[14.59562,57.30499],[14.59597,57.3043],[14.59751,57.30525],[14.60052,57.30608],[14.60294,57.3073],[14.6043,57.30854],[14.60511,57.31027],[14.61094,57.31126],[14.61313,57.31206],[14.6149,57.31314],[14.61611,57.31443],[14.61668,57.31582],[14.61678,57.31876],[14.61634,57.32019],[14.61357,57.32328],[14.61168,57.32466],[14.61109,57.32607],[14.60883,57.3285],[14.60714,57.32964],[14.60498,57.33052],[14.60107,57.33125],[14.59884,57.33131],[14.59677,57.33115],[14.59301,57.33021],[14.59144,57.32948],[14.58997,57.32842],[14.58918,57.32867],[14.58683,57.33006],[14.58463,57.33084],[14.5821,57.3313],[14.57947,57.33141]]]}},{"type":"Feature","id":"0684R006","properties":{"code":"0684R006","name":"Sävsjö väst"},"geometry":{"type":"Polygon","coordinates":[[[14.6696,57.41312],[14.67091,57.41213],[14.6721,57.41176],[14.66839,57.40776],[14.66689,57.40575],[14.65947,57.38937],[14.65768,57.38644],[14.65569,57.38408],[14.65692,57.3838],[14.66012,57.38389],[14.66148,57.38074],[14.66093,57.38032],[14.65986,57.38002],[14.65961,57.37919],[14.65869,57.37909],[14.65705,57.37977],[14.65438,57.38019],[14.6544,57.37914],[14.65526,57.37801],[14.65465,57.37733],[14.65212,57.37785],[14.65005,57.37857],[14.64823,57.37959],[14.64693,57.38083],[14.64618,57.38215],[14.646,57.38355],[14.64641,57.38633],[14.64733,57.38783],[14.64441,57.38838],[14.63752,57.39043],[14.63523,57.39163],[14.63373,57.39318],[14.63312,57.39542],[14.63366,57.39731],[14.63522,57.39899],[14.63785,57.40039],[14.63559,57.4034],[14.63534,57.40521],[14.6358,57.40673],[14.63712,57.40839],[14.63986,57.40995],[14.64158,57.41049],[14.64383,57.41089],[14.64659,57.41176],[14.6521,57.41409],[14.65402,57.41453],[14.65613,57.41476],[14.6585,57.41587],[14.66093,57.41648],[14.66707,57.41716],[14.6696,57.41312]]]}},{"type":"Feature","id":"0684R007","properties":{"code":"0684R007","name":"Vrigstad"},"geometry":{"type":"Polygon","coordinates":[[[14.46158,57.37008],[14.46749,57.36948],[14.4704,57.36878],[14.47317,57.36734],[14.47523,57.36523],[14.47923,57.36518],[14.48377,57.36438],[14.48665,57.36434],[14.48721,57.36467],[14.48885,57.3644],[14.48949,57.36403],[14.48942,57.36385],[14.49389,57.36252],[14.49552,57.36181],[14.49801,57.35997],[14.50014,57.35922],[14.50153,57.35844],[14.50316,57.35689],[14.50381,57.35513],[14.50331,57.35314],[14.50185,57.3514],[14.50143,57.34974],[14.50013,57.348],[14.49795,57.34655],[14.49554,57.34556],[14.49584,57.34442],[14.49573,57.34336],[14.49452,57.34124],[14.4934,57.34028],[14.49035,57.3384],[14.48765,57.33714],[14.48526,57.33649],[14.482,57.33617],[14.47868,57.33641],[14.47579,57.33708],[14.47346,57.33798],[14.46894,57.33855],[14.46569,57.33979],[14.46341,57.34117],[14.46224,57.34221],[14.46076,57.34439],[14.46042,57.3463],[14.45942,57.3473],[14.45884,57.34835],[14.45684,57.34985],[14.45559,57.35169],[14.45408,57.35308],[14.45301,57.35485],[14.45007,57.35639],[14.44889,57.35731],[14.44649,57.35843],[14.44435,57.36047],[14.44365,57.36187],[14.44373,57.36366],[14.44484,57.36534],[14.44642,57.36651],[14.44845,57.36742],[14.45076,57.36804],[14.45279,57.36835],[14.45587,57.36953],[14.45842,57.36997],[14.46158,57.37008]]]}}]}