{"type":"FeatureCollection","features":[{"type":"Feature","id":"0780R001","properties":{"code":"0780R001","name":"Araby-Dalbo-Nydala"},"geometry":{"type":"Polygon","coordinates":[[[14.79887,56.89116],[14.80038,56.88644],[14.79581,56.88735],[14.79466,56.88954],[14.79013,56.8891],[14.78721,56.89387],[14.78606,56.89908],[14.79191,56.90032],[14.79845,56.90112],[14.79953,56.89655],[14.79885,56.89283],[14.79887,56.89116]]]}},{"type":"Feature","id":"0780R005","properties":{"code":"0780R005","name":"Hov-Norr"},"geometry":{"type":"Polygon","coordinates":[[[14.84334,56.90582],[14.84391,56.90517],[14.84434,56.90513],[14.84502,56.90469],[14.84629,56.90551],[14.84642,56.90587],[14.84731,56.90614],[14.84488,56.90397],[14.84483,56.9024],[14.84426,56.90222],[14.84292,56.9031],[14.84259,56.90293],[14.84138,56.90305],[14.84076,56.90325],[14.84053,56.90393],[14.83945,56.90391],[14.83742,56.90221],[14.83501,56.90139],[14.83008,56.90033],[14.8273,56.89853],[14.8286,56.89724],[14.82919,56.89508],[14.82799,56.89019],[14.82788,56.8875],[14.82689,56.88758],[14.82426,56.88835],[14.8206,56.88894],[14.81733,56.88582],[14.81622,56.8865],[14.81617,56.88762],[14.81409,56.88736],[14.81666,56.89053],[14.81572,56.89076],[14.81344,56.89087],[14.81349,56.89137],[14.81183,56.89513],[14.81085,56.89514],[14.81061,56.89592],[14.80921,56.89589],[14.80897,56.89652],[14.80834,56.89647],[14.80688,56.89926],[14.80688,56.90202],[14.81489,56.90241],[14.82134,56.90218],[14.82487,56.90225],[14.82551,56.9015],[14.82645,56.90249],[14.82784,56.90307],[14.8386,56.90911],[14.83989,56.90898],[14.84292,56.90712],[14.84229,56.90692],[14.84377,56.90618],[14.84334,56.90582]]]}},{"type":"Feature","id":"0780R002","properties":{"code":"0780R002","name":"Braås"},"geometry":{"type":"Polygon","coordinates":[[[15.05911,57.07624],[15.06112,57.07605],[15.06386,57.0755],[15.06701,57.0742],[15.06904,57.07236],[15.06953,57.07132],[15.06963,57.07006],[15.07229,57.06927],[15.07418,57.06825],[15.07588,57.0665],[15.07803,57.06494],[15.07895,57.06357],[15.07917,57.06167],[15.07822,57.05974],[15.07634,57.05813],[15.07367,57.05682],[15.07304,57.05493],[15.07026,57.05205],[15.06848,57.05097],[15.06569,57.05003],[15.06318,57.04965],[15.05973,57.04951],[15.05712,57.04976],[15.05487,57.05031],[15.05205,57.05059],[15.04936,57.05115],[15.04855,57.05112],[15.0459,57.05035],[15.04383,57.04999],[15.03988,57.04996],[15.03509,57.05067],[15.02767,57.05256],[15.02575,57.05353],[15.02463,57.05441],[15.02382,57.05543],[15.02333,57.05682],[15.02383,57.05895],[15.02652,57.06194],[15.02886,57.06319],[15.0312,57.06387],[15.0351,57.06435],[15.03816,57.06446],[15.03853,57.06714],[15.03895,57.06814],[15.04003,57.06937],[15.04135,57.07028],[15.04384,57.07131],[15.04674,57.07186],[15.04888,57.07353],[15.05281,57.07541],[15.05584,57.0761],[15.05911,57.07624]]]}},{"type":"Feature","id":"0780R003","properties":{"code":"0780R003","name":"Gamla norr-Fagrabäck"},"geometry":{"type":"Polygon","coordinates":[[[14.84975,56.90238],[14.84962,56.90142],[14.84769,56.89944],[14.84748,56.89892],[14.85347,56.89752],[14.85435,56.89653],[14.85174,56.89493],[14.85006,56.89436],[14.84761,56.89389],[14.8456,56.89377],[14.84269,56.89391],[14.83915,56.89462],[14.83874,56.89282],[14.83737,56.89084],[14.83768,56.88841],[14.83838,56.88766],[14.84279,56.88838],[14.84871,56.88892],[14.85253,56.889],[14.8552,56.88879],[14.85473,56.88723],[14.84976,56.88651],[14.85479,56.88393],[14.84677,56.88324],[14.84297,56.88275],[14.83397,56.88068],[14.8293,56.8803],[14.82841,56.8788],[14.82677,56.87809],[14.82499,56.87656],[14.82385,56.87626],[14.82126,56.87643],[14.81868,56.87728],[14.81744,56.87796],[14.8133,56.87835],[14.81348,56.87907],[14.81419,56.87913],[14.81461,56.88103],[14.81185,56.8812],[14.81286,56.88537],[14.81409,56.88736],[14.81617,56.88762],[14.81622,56.8865],[14.81733,56.88582],[14.8206,56.88894],[14.82426,56.88835],[14.82689,56.88758],[14.82788,56.8875],[14.82799,56.89019],[14.82919,56.89508],[14.8286,56.89724],[14.8273,56.89853],[14.82865,56.89945],[14.83021,56.90037],[14.83501,56.90139],[14.83742,56.90221],[14.83945,56.90391],[14.84053,56.90393],[14.84076,56.90325],[14.84138,56.90305],[14.84259,56.90293],[14.84292,56.9031],[14.84426,56.90222],[14.84483,56.9024],[14.84488,56.90397],[14.84731,56.90614],[14.84977,56.90549],[14.84916,56.90392],[14.84975,56.90238]]]}},{"type":"Feature","id":"0780R004","properties":{"code":"0780R004","name":"Gemla"},"geometry":{"type":"Polygon","coordinates":[[[14.64243,56.88902],[14.64496,56.88874],[14.64756,56.8881],[14.6497,56.88722],[14.65102,56.88636],[14.65343,56.88403],[14.65517,56.88116],[14.65656,56.87992],[14.6573,56.87858],[14.66022,56.87733],[14.66215,56.87604],[14.66322,56.87499],[14.6641,56.87317],[14.66408,56.8713],[14.66598,56.87067],[14.66742,56.86995],[14.67045,56.86962],[14.67273,56.86901],[14.67648,56.86759],[14.67846,56.86637],[14.6806,56.8643],[14.68162,56.86279],[14.68183,56.86099],[14.6812,56.85947],[14.6792,56.85763],[14.67761,56.85681],[14.67586,56.85621],[14.67334,56.85571],[14.67059,56.85557],[14.66844,56.85517],[14.66409,56.85471],[14.66116,56.85466],[14.65869,56.85498],[14.65643,56.85563],[14.65338,56.85697],[14.65045,56.85708],[14.64742,56.8568],[14.64467,56.85696],[14.64119,56.85636],[14.63916,56.85576],[14.64045,56.85458],[14.64133,56.85299],[14.64149,56.85176],[14.64107,56.85032],[14.63869,56.84732],[14.63608,56.84571],[14.63257,56.84475],[14.62937,56.84455],[14.62594,56.84392],[14.62287,56.84389],[14.61943,56.84328],[14.61355,56.84333],[14.61097,56.84366],[14.6092,56.84413],[14.60717,56.84502],[14.60528,56.84647],[14.60347,56.8475],[14.60244,56.84842],[14.60153,56.84984],[14.6012,56.85091],[14.60126,56.85202],[14.6019,56.85339],[14.6028,56.85435],[14.60445,56.85544],[14.60669,56.85651],[14.60939,56.85727],[14.61104,56.85855],[14.61312,56.85948],[14.61541,56.86179],[14.61877,56.86363],[14.62023,56.86471],[14.62249,56.8657],[14.62401,56.8674],[14.6247,56.86894],[14.62611,56.87092],[14.62751,56.87212],[14.62932,56.87305],[14.62993,56.87434],[14.63081,56.8753],[14.62954,56.87734],[14.62944,56.87996],[14.62882,56.88126],[14.62868,56.88263],[14.6292,56.88416],[14.63034,56.88549],[14.63204,56.88661],[14.63571,56.88822],[14.63854,56.88881],[14.64243,56.88902]]]}},{"type":"Feature","id":"0780R006","properties":{"code":"0780R006","name":"Hovshaga"},"geometry":{"type":"Polygon","coordinates":[[[14.78101,56.92668],[14.78368,56.92426],[14.79176,56.92522],[14.79272,56.92318],[14.7931,56.92322],[14.79418,56.92279],[14.79584,56.92277],[14.79587,56.92251],[14.79707,56.92255],[14.79714,56.92109],[14.79639,56.92107],[14.79625,56.92071],[14.79583,56.92081],[14.79293,56.9204],[14.79174,56.9204],[14.79538,56.91759],[14.79532,56.91636],[14.79635,56.91633],[14.79613,56.9148],[14.79728,56.91349],[14.79903,56.91384],[14.79897,56.91342],[14.80051,56.91333],[14.80569,56.91367],[14.80564,56.91344],[14.80435,56.91273],[14.80442,56.91255],[14.80666,56.9121],[14.80634,56.91099],[14.80469,56.91134],[14.80397,56.91125],[14.80349,56.91084],[14.80269,56.91112],[14.8017,56.90995],[14.805,56.90612],[14.80688,56.90302],[14.80601,56.9023],[14.80591,56.90193],[14.7939,56.90061],[14.78738,56.89943],[14.78232,56.89788],[14.77514,56.89483],[14.76962,56.89302],[14.76424,56.89188],[14.75683,56.89085],[14.75325,56.88998],[14.75006,56.89553],[14.75528,56.90258],[14.76388,56.92093],[14.77315,56.92363],[14.77905,56.9276],[14.78101,56.92668]]]}},{"type":"Feature","id":"0780R007","properties":{"code":"0780R007","name":"Högstorp-Hollstorp"},"geometry":{"type":"Polygon","coordinates":[[[14.86555,56.88064],[14.86555,56.87814],[14.86423,56.87613],[14.86539,56.87453],[14.86563,56.87249],[14.86485,56.87072],[14.86382,56.86942],[14.86149,56.86774],[14.8602,56.86644],[14.85847,56.86538],[14.85683,56.86474],[14.85443,56.86419],[14.85249,56.864],[14.85028,56.86404],[14.84959,56.86287],[14.84822,56.86161],[14.84621,56.86053],[14.84439,56.85991],[14.84117,56.86246],[14.83318,56.8675],[14.83636,56.86886],[14.83458,56.87075],[14.83791,56.87197],[14.83648,56.87587],[14.83344,56.87588],[14.83088,56.87652],[14.82542,56.8771],[14.82677,56.87809],[14.82841,56.8788],[14.8293,56.8803],[14.83397,56.88068],[14.84297,56.88275],[14.84677,56.88324],[14.85479,56.88393],[14.84976,56.88651],[14.85473,56.88723],[14.8552,56.88879],[14.86063,56.8874],[14.86346,56.88589],[14.86504,56.88392],[14.86555,56.88064]]]}},{"type":"Feature","id":"0780R008","properties":{"code":"0780R008","name":"Ingelstad"},"geometry":{"type":"Polygon","coordinates":[[[14.92248,56.76026],[14.92572,56.75994],[14.92908,56.75891],[14.93152,56.75888],[14.93401,56.7585],[14.93579,56.75799],[14.93774,56.75706],[14.93929,56.75584],[14.94073,56.75391],[14.94099,56.75247],[14.94041,56.75077],[14.9429,56.74925],[14.94412,56.74757],[14.94427,56.74506],[14.94351,56.74341],[14.94414,56.74113],[14.9437,56.73931],[14.9451,56.73801],[14.94584,56.73662],[14.94619,56.73269],[14.94569,56.73113],[14.9471,56.72976],[14.94772,56.72874],[14.94817,56.72614],[14.94805,56.72509],[14.94676,56.72314],[14.94471,56.7218],[14.94183,56.7208],[14.93747,56.72015],[14.93463,56.72002],[14.93127,56.7204],[14.92876,56.72114],[14.92467,56.72301],[14.92298,56.72412],[14.92169,56.72573],[14.92134,56.72716],[14.92175,56.72893],[14.9198,56.73141],[14.91928,56.73325],[14.91556,56.73359],[14.91339,56.73402],[14.90932,56.73412],[14.9058,56.73499],[14.90386,56.73597],[14.89952,56.7391],[14.89851,56.74003],[14.8977,56.74138],[14.89704,56.74421],[14.8971,56.74531],[14.89801,56.74702],[14.89961,56.74834],[14.89854,56.75131],[14.89852,56.75278],[14.89922,56.75429],[14.90056,56.7556],[14.90254,56.75673],[14.90539,56.75763],[14.9094,56.75802],[14.91318,56.7576],[14.91486,56.75868],[14.91705,56.75953],[14.91966,56.76009],[14.92248,56.76026]]]}},{"type":"Feature","id":"0780R009","properties":{"code":"0780R009","name":"Kungsmad-Pilbäcken"},"geometry":{"type":"Polygon","coordinates":[[[14.80834,56.89647],[14.80897,56.89652],[14.80921,56.89589],[14.81061,56.89592],[14.81085,56.89514],[14.81183,56.89513],[14.81349,56.89137],[14.81344,56.89087],[14.81572,56.89076],[14.81666,56.89053],[14.81336,56.88631],[14.81236,56.88359],[14.80806,56.88367],[14.80652,56.88502],[14.807,56.886],[14.80678,56.88658],[14.80365,56.88595],[14.80333,56.88673],[14.80033,56.88661],[14.79887,56.89116],[14.79885,56.89283],[14.79953,56.89655],[14.79845,56.90112],[14.80688,56.90202],[14.80688,56.89926],[14.80834,56.89647]]]}},{"type":"Feature","id":"0780R019","properties":{"code":"0780R019","name":"Växjö centrum-Väster-Spetsamossen"},"geometry":{"type":"Polygon","coordinates":[[[14.79581,56.88735],[14.80038,56.88644],[14.80033,56.88661],[14.80333,56.88673],[14.80365,56.88595],[14.80678,56.88658],[14.807,56.886],[14.80652,56.88502],[14.80806,56.88367],[14.81236,56.88359],[14.81185,56.8812],[14.81461,56.88103],[14.81419,56.87913],[14.81348,56.87907],[14.8133,56.87835],[14.81357,56.87833],[14.81339,56.87783],[14.81464,56.87721],[14.81521,56.87622],[14.81436,56.87606],[14.81393,56.87661],[14.81321,56.87664],[14.81373,56.87574],[14.81015,56.87636],[14.80649,56.87676],[14.8038,56.87687],[14.79882,56.8766],[14.7992,56.8792],[14.79445,56.87867],[14.78503,56.87881],[14.78433,56.88248],[14.78716,56.88215],[14.79051,56.88123],[14.79323,56.88101],[14.79486,56.88111],[14.79602,56.88205],[14.79772,56.88216],[14.79793,56.88496],[14.79581,56.88735]]]}},{"type":"Feature","id":"0780R020","properties":{"code":"0780R020","name":"Växjö landsbygd"},"geometry":{"type":"Polygon","coordinates":[[[14.75058,57.22813],[14.75277,57.22773],[14.75472,57.2277],[14.75677,57.22692],[14.75956,57.22753],[14.76099,57.2274],[14.76212,57.22749],[14.76394,57.22679],[14.76928,57.22637],[14.7729,57.22551],[14.77367,57.22495],[14.77384,57.2244],[14.7775,57.22545],[14.77987,57.22472],[14.78307,57.22483],[14.78398,57.2251],[14.78859,57.22479],[14.78922,57.22508],[14.79033,57.22423],[14.81074,57.22025],[14.81766,57.21704],[14.82439,57.21359],[14.82568,57.21258],[14.82596,57.21184],[14.82666,57.21144],[14.82722,57.21061],[14.82842,57.21011],[14.83016,57.20891],[14.83104,57.20753],[14.83431,57.20804],[14.8361,57.20248],[14.83657,57.20201],[14.84098,57.20307],[14.8437,57.20125],[14.84885,57.19987],[14.85166,57.2003],[14.85393,57.20042],[14.85769,57.19987],[14.86115,57.19885],[14.86736,57.19832],[14.86813,57.19802],[14.8698,57.19837],[14.87063,57.19832],[14.87133,57.19803],[14.87137,57.19748],[14.87214,57.19714],[14.87574,57.19449],[14.87771,57.19091],[14.8793,57.18708],[14.89103,57.17688],[14.88917,57.17568],[14.88725,57.1739],[14.88719,57.17315],[14.88621,57.17236],[14.88419,57.16736],[14.88601,57.16728],[14.89222,57.16393],[14.89017,57.1617],[14.89032,57.16071],[14.89173,57.15859],[14.8918,57.15746],[14.89206,57.15738],[14.89297,57.15494],[14.89298,57.15303],[14.89594,57.14952],[14.89637,57.14673],[14.89828,57.1433],[14.89907,57.14233],[14.90058,57.14157],[14.9007,57.14071],[14.90257,57.13911],[14.90207,57.13601],[14.90268,57.13538],[14.90413,57.13488],[14.90541,57.1351],[14.90755,57.13503],[14.91237,57.13392],[14.91399,57.13457],[14.92209,57.13461],[14.92416,57.13332],[14.93062,57.1348],[14.9329,57.13501],[14.93441,57.13496],[14.93518,57.13535],[14.93644,57.13555],[14.93945,57.1354],[14.94076,57.13556],[14.94237,57.13544],[14.94446,57.13563],[14.94949,57.13562],[14.94989,57.13611],[14.95148,57.13708],[14.95594,57.13564],[14.95733,57.13548],[14.9602,57.13474],[14.96337,57.13487],[14.96716,57.13479],[14.96948,57.13642],[14.97054,57.13625],[14.9772,57.13613],[14.98041,57.13579],[14.98284,57.13679],[14.99912,57.14218],[14.9972,57.14548],[15.00457,57.15119],[15.00916,57.15566],[15.01117,57.16405],[15.0137,57.1648],[15.02088,57.16453],[15.02324,57.16536],[15.02431,57.16613],[15.02563,57.16656],[15.02851,57.16583],[15.03016,57.16576],[15.03363,57.16462],[15.03657,57.1631],[15.03793,57.16307],[15.03892,57.16406],[15.03863,57.16429],[15.03928,57.16575],[15.03921,57.16753],[15.03986,57.16789],[15.04159,57.16822],[15.04243,57.16861],[15.04437,57.17081],[15.04401,57.17165],[15.0442,57.17248],[15.04373,57.17258],[15.04346,57.17298],[15.04482,57.17366],[15.04484,57.17399],[15.04435,57.17408],[15.04467,57.17427],[15.04598,57.17438],[15.0479,57.17399],[15.0484,57.1745],[15.04959,57.17472],[15.05067,57.17447],[15.05237,57.17441],[15.05279,57.17469],[15.05256,57.17591],[15.05318,57.17675],[15.05434,57.17692],[15.05493,57.17767],[15.05578,57.17815],[15.05695,57.178],[15.058,57.17856],[15.05873,57.17933],[15.06059,57.17994],[15.06215,57.18101],[15.06344,57.18145],[15.06402,57.18148],[15.06473,57.18109],[15.066,57.18083],[15.06746,57.18015],[15.07225,57.17855],[15.07312,57.17761],[15.07534,57.1766],[15.07549,57.17631],[15.07852,57.17458],[15.0792,57.17391],[15.08119,57.17275],[15.0828,57.1713],[15.08273,57.17061],[15.0838,57.16967],[15.08467,57.16837],[15.08514,57.16796],[15.08558,57.16788],[15.08292,57.16589],[15.08155,57.16554],[15.07838,57.16513],[15.07767,57.16394],[15.07719,57.16072],[15.0775,57.15995],[15.07731,57.15914],[15.0777,57.15839],[15.07675,57.15777],[15.07688,57.15756],[15.07592,57.15716],[15.07614,57.15645],[15.07781,57.15468],[15.0793,57.15362],[15.08144,57.15293],[15.08174,57.15155],[15.08458,57.14805],[15.0847,57.1471],[15.0854,57.14718],[15.08733,57.14697],[15.09136,57.14553],[15.09365,57.14519],[15.09572,57.14456],[15.09874,57.14305],[15.10196,57.14233],[15.10555,57.14118],[15.10676,57.14108],[15.10895,57.14134],[15.11156,57.1414],[15.11376,57.14087],[15.11635,57.14214],[15.11845,57.1419],[15.11868,57.14214],[15.11936,57.142],[15.12087,57.14073],[15.12295,57.14008],[15.12351,57.13933],[15.12547,57.13804],[15.12717,57.1378],[15.12903,57.13714],[15.12893,57.13676],[15.12797,57.13623],[15.1274,57.13643],[15.1269,57.13608],[15.12619,57.13218],[15.12868,57.13205],[15.12898,57.13216],[15.12922,57.13289],[15.13003,57.13323],[15.1294,57.13366],[15.12939,57.13421],[15.13174,57.13409],[15.13344,57.13271],[15.13396,57.12556],[15.14019,57.11041],[15.14088,57.10982],[15.14136,57.10857],[15.14127,57.10759],[15.14217,57.10701],[15.1429,57.10149],[15.12669,57.09906],[15.10737,57.09016],[15.10881,57.08445],[15.14109,57.07656],[15.14083,57.07605],[15.14179,57.0747],[15.14184,57.07383],[15.14319,57.07275],[15.14313,57.07234],[15.1442,57.07096],[15.14434,57.0701],[15.14421,57.06959],[15.14228,57.06835],[15.14179,57.06659],[15.14272,57.06498],[15.14294,57.0637],[15.14349,57.06326],[15.14362,57.06234],[15.14414,57.06183],[15.14302,57.06099],[15.14254,57.05982],[15.14264,57.05889],[15.14191,57.05769],[15.14305,57.05633],[15.14244,57.0548],[15.14394,57.05401],[15.14639,57.05349],[15.14722,57.053],[15.15049,57.05261],[15.15379,57.05295],[15.15516,57.05234],[15.13916,57.03531],[15.13863,57.02712],[15.14774,57.02589],[15.14836,57.02553],[15.14889,57.02689],[15.14833,57.02764],[15.14802,57.0279],[15.14557,57.0287],[15.14458,57.02996],[15.1449,57.03075],[15.14688,57.03118],[15.14867,57.03247],[15.151,57.03249],[15.15386,57.03079],[15.15493,57.03107],[15.1653,57.03139],[15.16678,57.03264],[15.17191,57.04031],[15.16753,57.04215],[15.18453,57.0403],[15.21067,57.03235],[15.21345,57.03111],[15.21731,57.02876],[15.22122,57.02683],[15.22276,57.02629],[15.22663,57.02329],[15.22686,57.0228],[15.22964,57.02104],[15.23429,57.01592],[15.23628,57.01272],[15.23705,57.01228],[15.22684,57.01032],[15.22482,57.00731],[15.22362,57.00676],[15.22338,57.00632],[15.22386,57.00534],[15.22448,57.00504],[15.22418,57.00474],[15.22458,57.00372],[15.22464,57.00133],[15.22534,57.00019],[15.2253,56.9994],[15.22462,56.9982],[15.22511,56.99702],[15.22649,56.99556],[15.22643,56.99404],[15.22607,56.99368],[15.22707,56.99271],[15.22666,56.99238],[15.2273,56.9915],[15.22705,56.9913],[15.22766,56.99042],[15.23388,56.98624],[15.23421,56.96592],[15.23002,56.96497],[15.22467,56.96223],[15.21544,56.95795],[15.20148,56.95004],[15.19822,56.95121],[15.19384,56.93647],[15.1925,56.93589],[15.19158,56.93581],[15.19129,56.93502],[15.19112,56.93526],[15.19006,56.93546],[15.1875,56.9356],[15.18717,56.93436],[15.18737,56.93398],[15.18844,56.93342],[15.18812,56.93309],[15.18738,56.93309],[15.18364,56.93229],[15.17665,56.93742],[15.17597,56.93846],[15.17481,56.93925],[15.17243,56.94013],[15.16897,56.94093],[15.16795,56.9416],[15.1644,56.94306],[15.16333,56.94405],[15.15113,56.94325],[15.13278,56.93218],[15.13538,56.92733],[15.16028,56.92788],[15.16209,56.92666],[15.15812,56.92461],[15.15824,56.92423],[15.15941,56.9236],[15.16095,56.92413],[15.16276,56.92372],[15.15986,56.92165],[15.15991,56.92109],[15.16837,56.92123],[15.16985,56.91581],[15.16943,56.91303],[15.17059,56.91213],[15.17108,56.91129],[15.1707,56.91069],[15.17011,56.91045],[15.16969,56.90991],[15.16772,56.90862],[15.16511,56.90792],[15.16445,56.90707],[15.164,56.90704],[15.16258,56.90741],[15.16136,56.90714],[15.16097,56.90582],[15.15986,56.90519],[15.15983,56.90452],[15.15856,56.9044],[15.15806,56.903],[15.15828,56.90253],[15.15788,56.90231],[15.15728,56.90056],[15.15884,56.89777],[15.15806,56.89687],[15.15825,56.89636],[15.15805,56.89584],[15.15878,56.89399],[15.1581,56.89334],[15.15899,56.89296],[15.1593,56.89134],[15.15882,56.89086],[15.15902,56.89066],[15.15868,56.88972],[15.15801,56.88918],[15.15957,56.888],[15.16044,56.88773],[15.16087,56.88712],[15.16198,56.88682],[15.16251,56.88574],[15.16384,56.88501],[15.1646,56.88418],[15.16591,56.88373],[15.16652,56.88307],[15.1678,56.8824],[15.17058,56.88149],[15.17112,56.88053],[15.17188,56.88002],[15.17168,56.87914],[15.17033,56.87831],[15.17014,56.87796],[15.17078,56.87736],[15.17101,56.87652],[15.17099,56.87593],[15.17021,56.87499],[15.17042,56.87437],[15.17115,56.874],[15.1723,56.87173],[15.17207,56.87076],[15.1717,56.87039],[15.1711,56.86995],[15.16935,56.86927],[15.16821,56.86816],[15.16825,56.86744],[15.16894,56.86615],[15.17038,56.86626],[15.17628,56.8649],[15.17916,56.8646],[15.18296,56.8638],[15.18372,56.8634],[15.18362,56.86305],[15.18394,56.86284],[15.18455,56.86278],[15.1863,56.86161],[15.18614,56.86075],[15.18529,56.86043],[15.18529,56.85979],[15.18627,56.85955],[15.18729,56.85962],[15.18755,56.85928],[15.18743,56.85884],[15.18793,56.85841],[15.18587,56.85775],[15.18361,56.85633],[15.18256,56.85625],[15.18134,56.85563],[15.18088,56.85482],[15.1791,56.85339],[15.17918,56.85309],[15.1749,56.85169],[15.17359,56.85071],[15.17257,56.85055],[15.17135,56.84969],[15.17228,56.84864],[15.17201,56.84764],[15.17396,56.84729],[15.17568,56.84675],[15.17679,56.84605],[15.17757,56.84599],[15.17773,56.84536],[15.17891,56.8451],[15.17912,56.84435],[15.1799,56.84396],[15.17992,56.84352],[15.18059,56.84336],[15.18028,56.84272],[15.18048,56.84251],[15.18095,56.84251],[15.18208,56.84173],[15.18217,56.84093],[15.18286,56.8405],[15.18315,56.83982],[15.18379,56.83949],[15.18449,56.83832],[15.18633,56.83729],[15.18609,56.83662],[15.18656,56.83579],[15.18789,56.83519],[15.18786,56.83485],[15.18393,56.83271],[15.18289,56.83237],[15.18275,56.83188],[15.18074,56.8307],[15.18089,56.82991],[15.18008,56.82888],[15.18012,56.82869],[15.18085,56.82851],[15.18036,56.82723],[15.18067,56.82683],[15.18236,56.82631],[15.18254,56.82598],[15.18122,56.82529],[15.17038,56.82304],[15.13632,56.81543],[15.12901,56.81479],[15.11321,56.81155],[15.11016,56.80999],[15.0944,56.80782],[15.06631,56.80692],[15.06706,56.8058],[15.06704,56.80487],[15.06532,56.80274],[15.07364,56.79844],[15.07368,56.79697],[15.07483,56.79579],[15.08125,56.79105],[15.08764,56.78666],[15.08857,56.78629],[15.08778,56.78513],[15.08816,56.78457],[15.0891,56.78466],[15.08942,56.78422],[15.08942,56.78372],[15.08862,56.78337],[15.08853,56.78315],[15.0889,56.78271],[15.0886,56.7817],[15.08689,56.78189],[15.0858,56.78179],[15.08519,56.78155],[15.08485,56.78012],[15.0842,56.77929],[15.083,56.77847],[15.08301,56.77638],[15.07985,56.77529],[15.07786,56.77228],[15.07664,56.77136],[15.06612,56.76528],[15.07674,56.74258],[15.12102,56.72816],[15.13245,56.71988],[15.14094,56.70438],[15.13238,56.70163],[15.118,56.69563],[15.11709,56.69557],[15.11754,56.69402],[15.09164,56.68776],[15.09319,56.68632],[15.09464,56.68595],[15.09511,56.68565],[15.0961,56.68457],[15.09708,56.68215],[15.09757,56.67987],[15.09884,56.67836],[15.10577,56.67813],[15.10651,56.67728],[15.1078,56.67485],[15.10808,56.67334],[15.10904,56.67204],[15.10903,56.67156],[15.10776,56.67102],[15.10598,56.66866],[15.10612,56.66786],[15.10561,56.66619],[15.10568,56.66454],[15.10529,56.66441],[15.10456,56.66119],[15.10454,56.65831],[15.10309,56.65554],[15.10207,56.65533],[15.09977,56.65588],[15.09692,56.65617],[15.09358,56.65523],[15.09101,56.65537],[15.08949,56.65475],[15.08965,56.65449],[15.09184,56.65439],[15.09315,56.65318],[15.09269,56.65185],[15.0933,56.6507],[15.09415,56.65027],[15.09768,56.64944],[15.1014,56.64801],[15.10105,56.64685],[15.10104,56.64527],[15.10137,56.64446],[15.10143,56.64271],[15.10085,56.64143],[15.10233,56.6403],[15.10379,56.6396],[15.10309,56.639],[15.10313,56.63785],[15.10233,56.63651],[15.09988,56.63375],[15.1002,56.63214],[15.10107,56.63095],[15.10013,56.62969],[15.09746,56.62767],[15.097,56.62586],[15.0972,56.62459],[15.0996,56.62104],[15.09899,56.62044],[15.09952,56.61753],[15.10056,56.61715],[15.10112,56.61617],[15.10104,56.61508],[15.10151,56.61368],[15.098,56.61193],[15.0857,56.61196],[15.08341,56.61148],[15.08252,56.61172],[15.07936,56.61141],[15.07893,56.61104],[15.07783,56.61068],[15.07701,56.61077],[15.07408,56.61055],[15.06886,56.61109],[15.06719,56.6105],[15.06563,56.60962],[15.06304,56.60889],[15.05833,56.60834],[15.05731,56.6094],[15.05557,56.61563],[15.05659,56.61969],[15.05431,56.6196],[15.05402,56.62105],[15.05114,56.62289],[15.04919,56.62358],[15.04802,56.62269],[15.04715,56.62242],[15.0455,56.62212],[15.04343,56.6222],[15.04332,56.62296],[15.04461,56.62595],[15.04432,56.62789],[15.04472,56.62855],[15.04423,56.62922],[15.04447,56.63136],[15.04374,56.63134],[15.04082,56.6323],[15.03629,56.63213],[15.03493,56.63237],[15.03515,56.63265],[15.03478,56.63301],[15.03331,56.63382],[15.03273,56.63379],[15.0317,56.63441],[15.02995,56.63686],[15.0297,56.63918],[15.03025,56.64149],[15.02208,56.64078],[15.01937,56.64083],[15.01454,56.64141],[15.0137,56.64339],[15.00878,56.64339],[15.00752,56.64405],[15.00509,56.64264],[14.99929,56.64578],[14.9965,56.64509],[14.99651,56.64625],[14.99702,56.64693],[14.99682,56.64735],[14.99576,56.64728],[14.9953,56.64758],[14.99505,56.64849],[14.99416,56.64925],[14.99425,56.64961],[14.99392,56.64984],[14.99348,56.64978],[14.9929,56.65002],[14.99255,56.65039],[14.9927,56.65074],[15.00586,56.65058],[15.00602,56.6514],[14.99484,56.65149],[14.99597,56.65249],[14.99596,56.6528],[14.99551,56.65395],[14.99323,56.65761],[14.99345,56.6579],[14.99415,56.65812],[14.99118,56.65974],[14.98795,56.66004],[14.98741,56.66028],[14.98683,56.66105],[14.98499,56.66235],[14.9848,56.66373],[14.98364,56.66517],[14.98085,56.66714],[14.97689,56.67512],[14.97094,56.67685],[14.96459,56.68959],[14.96177,56.69215],[14.95991,56.69294],[14.95787,56.69433],[14.95813,56.69464],[14.95893,56.69484],[14.95753,56.69614],[14.95564,56.69933],[14.94566,56.70458],[14.93812,56.70737],[14.9349,56.70879],[14.92153,56.71158],[14.93093,56.71751],[14.93127,56.71743],[14.9311,56.71826],[14.918,56.7165],[14.91544,56.72395],[14.91237,56.72446],[14.90896,56.72573],[14.9086,56.72614],[14.90764,56.72612],[14.90711,56.72682],[14.90716,56.72728],[14.90396,56.72823],[14.90364,56.72851],[14.90396,56.72894],[14.90379,56.7291],[14.90307,56.72875],[14.90344,56.72835],[14.90328,56.72815],[14.90162,56.7281],[14.90014,56.72732],[14.89968,56.72643],[14.89845,56.72568],[14.89868,56.72551],[14.89938,56.72551],[14.89943,56.72526],[14.89874,56.7251],[14.89791,56.72519],[14.89721,56.7255],[14.89706,56.72538],[14.89691,56.72451],[14.89812,56.72321],[14.89757,56.72199],[14.89636,56.72029],[14.8959,56.72007],[14.89531,56.72039],[14.89491,56.72034],[14.893,56.71917],[14.89156,56.71919],[14.89033,56.72192],[14.89002,56.72129],[14.89034,56.71949],[14.88246,56.72091],[14.87278,56.72121],[14.86755,56.71992],[14.85906,56.71911],[14.8516,56.71866],[14.85364,56.72408],[14.85261,56.72658],[14.85205,56.72653],[14.85191,56.72705],[14.85233,56.72714],[14.85249,56.72749],[14.85233,56.72794],[14.84995,56.72921],[14.85064,56.73006],[14.8519,56.73094],[14.85194,56.73128],[14.85249,56.73132],[14.85255,56.73184],[14.8531,56.7321],[14.85321,56.73413],[14.85357,56.73436],[14.85315,56.73475],[14.85252,56.73491],[14.8523,56.73529],[14.85235,56.73629],[14.85141,56.73715],[14.85094,56.7395],[14.85325,56.74052],[14.8532,56.74104],[14.85359,56.74147],[14.85524,56.74233],[14.85527,56.74327],[14.85609,56.74344],[14.85617,56.7448],[14.85541,56.74785],[14.85612,56.7488],[14.85631,56.74988],[14.85607,56.75073],[14.8548,56.75209],[14.85456,56.75433],[14.85326,56.75637],[14.85225,56.757],[14.85212,56.75767],[14.8525,56.75805],[14.85479,56.75907],[14.8553,56.76021],[14.85533,56.76139],[14.85486,56.76192],[14.85325,56.76233],[14.85202,56.76347],[14.85123,56.7643],[14.85086,56.76586],[14.85123,56.76638],[14.85234,56.76683],[14.85272,56.76726],[14.85425,56.76782],[14.85517,56.76865],[14.85524,56.76928],[14.85735,56.77247],[14.85904,56.77305],[14.86342,56.77351],[14.86435,56.77411],[14.86862,56.78291],[14.86697,56.79276],[14.87246,56.79203],[14.88051,56.79053],[14.88486,56.78821],[14.88495,56.78837],[14.88569,56.78822],[14.88569,56.78799],[14.88615,56.78778],[14.88976,56.78727],[14.9013,56.78465],[14.90054,56.78505],[14.90024,56.78577],[14.9014,56.78592],[14.9013,56.78648],[14.9058,56.78681],[14.90834,56.78602],[14.91551,56.78528],[14.91949,56.78339],[14.94423,56.78089],[14.94841,56.78153],[14.94754,56.78309],[14.95749,56.78487],[14.95821,56.78303],[14.96791,56.78462],[14.96958,56.78567],[14.97042,56.78567],[14.97386,56.78695],[14.97649,56.78842],[14.97826,56.78855],[14.98221,56.78943],[14.98281,56.78944],[14.98328,56.78868],[14.98385,56.78836],[14.98891,56.78806],[14.99038,56.78779],[14.99416,56.78785],[15.00467,56.78857],[15.00669,56.78835],[15.02554,56.79291],[15.02151,56.7958],[15.01756,56.797],[15.01164,56.80187],[15.00902,56.80467],[15.00759,56.80678],[15.00565,56.81228],[15.00162,56.81821],[15.00079,56.82252],[14.99921,56.82386],[14.99785,56.82665],[14.99473,56.83037],[15.00195,56.83477],[15.00252,56.83787],[15.01227,56.84788],[15.0106,56.85257],[15.01152,56.85639],[15.00894,56.86376],[15.00654,56.86437],[15.00526,56.86417],[15.00453,56.86475],[15.00437,56.86541],[15.00345,56.86633],[15.00247,56.86622],[15.00132,56.86661],[15.00068,56.86743],[14.99986,56.8679],[14.99998,56.86821],[14.99949,56.86834],[14.99958,56.8688],[14.99849,56.86932],[14.9987,56.86981],[14.99838,56.87046],[14.99775,56.87075],[14.99685,56.87175],[14.99673,56.87258],[14.99494,56.87504],[14.99368,56.87547],[14.99236,56.8763],[14.9923,56.87715],[14.991,56.87802],[14.99116,56.87896],[14.99017,56.88185],[14.99251,56.88359],[14.99296,56.88427],[14.99318,56.88733],[14.99475,56.88735],[14.9955,56.88788],[14.99534,56.88882],[14.9964,56.88984],[14.99538,56.89025],[14.99653,56.89098],[14.99743,56.89064],[14.99823,56.8912],[14.99759,56.89466],[14.99803,56.89728],[14.99703,56.89915],[14.99796,56.89967],[14.99821,56.90065],[15.00125,56.90135],[15.00223,56.9022],[15.00244,56.90473],[15.00143,56.9077],[15.00012,56.9101],[14.99806,56.91176],[14.99553,56.91653],[14.99565,56.91882],[14.99514,56.92091],[14.99665,56.92243],[15.00149,56.92536],[14.99726,56.92535],[14.99633,56.92667],[14.99484,56.92746],[14.99404,56.92886],[15.00332,56.93049],[15.00371,56.93043],[15.00412,56.92889],[15.00494,56.92767],[15.0053,56.9255],[15.00659,56.92557],[15.00813,56.92746],[15.00833,56.92893],[15.01698,56.93727],[15.02479,56.93835],[15.02398,56.93901],[15.02512,56.94301],[15.02347,56.94556],[15.01527,56.95571],[15.01329,56.95784],[15.0107,56.95902],[15.00896,56.96068],[15.00758,56.96296],[15.00716,56.96494],[15.00661,56.96556],[15.00705,56.96611],[15.00891,56.96658],[14.99751,56.98938],[14.99535,56.99266],[14.99218,57.00005],[14.98447,57.00339],[14.94633,57.00018],[14.94528,56.99637],[14.9085,56.99752],[14.9002,57.00218],[14.89808,57.00312],[14.89403,56.99777],[14.8939,56.99724],[14.89278,56.99658],[14.89185,56.99468],[14.89211,56.99352],[14.89268,56.9928],[14.89292,56.98879],[14.89358,56.98832],[14.89363,56.98648],[14.89465,56.98554],[14.8948,56.98311],[14.89075,56.98095],[14.88731,56.97746],[14.88079,56.9791],[14.88062,56.97889],[14.88016,56.97927],[14.8797,56.98088],[14.87936,56.98887],[14.87804,56.9894],[14.86962,56.98818],[14.8639,56.9919],[14.85755,56.99186],[14.85167,56.99445],[14.84627,56.99147],[14.84377,56.99037],[14.84099,56.98762],[14.81681,56.98488],[14.80318,56.97075],[14.79784,56.97008],[14.78939,56.98475],[14.78435,56.98348],[14.78289,56.98266],[14.78249,56.9819],[14.78316,56.9789],[14.78243,56.97443],[14.78381,56.97196],[14.77417,56.97109],[14.77082,56.97218],[14.76384,56.97189],[14.76498,56.96647],[14.72896,56.96357],[14.725,56.96967],[14.71248,56.96698],[14.71078,56.96693],[14.71027,56.96542],[14.70519,56.96554],[14.70316,56.96338],[14.70408,56.96315],[14.7042,56.9627],[14.70178,56.96261],[14.69813,56.96179],[14.69809,56.96123],[14.69879,56.96047],[14.69772,56.9606],[14.6967,56.96096],[14.69159,56.96176],[14.68908,56.96176],[14.68838,56.96158],[14.68912,56.96037],[14.69075,56.95901],[14.6908,56.95824],[14.69193,56.95808],[14.69192,56.95756],[14.68813,56.95737],[14.68828,56.95575],[14.69118,56.95596],[14.69179,56.95493],[14.69118,56.95448],[14.69024,56.95432],[14.68466,56.95189],[14.68119,56.95369],[14.68219,56.95923],[14.67976,56.96283],[14.65925,56.97012],[14.65604,56.9715],[14.65561,56.97276],[14.65576,56.97518],[14.65404,56.9773],[14.65291,56.98135],[14.64973,56.98045],[14.64326,56.98232],[14.63678,56.98111],[14.63597,56.98255],[14.63383,56.98333],[14.63361,56.9837],[14.63165,56.99069],[14.63199,56.9923],[14.63023,56.99568],[14.63158,56.99796],[14.63204,56.99963],[14.63222,57.00134],[14.63188,57.0047],[14.63289,57.00957],[14.63281,57.01332],[14.63371,57.01521],[14.63354,57.01594],[14.63382,57.01696],[14.63211,57.01829],[14.63131,57.02019],[14.63196,57.0221],[14.63237,57.02554],[14.6367,57.02593],[14.63904,57.02632],[14.63942,57.02808],[14.63882,57.02972],[14.63855,57.03185],[14.64758,57.03196],[14.64751,57.03228],[14.63858,57.0322],[14.63826,57.03432],[14.63468,57.03463],[14.63375,57.03519],[14.63271,57.03626],[14.6337,57.03871],[14.63326,57.04223],[14.63464,57.0435],[14.63518,57.04507],[14.63391,57.04529],[14.63375,57.04653],[14.6325,57.04686],[14.63188,57.04895],[14.62999,57.05147],[14.62407,57.0564],[14.62292,57.06248],[14.62576,57.06374],[14.62666,57.06445],[14.62949,57.0656],[14.63091,57.06716],[14.63142,57.06953],[14.63096,57.07043],[14.62899,57.07164],[14.62879,57.07367],[14.62994,57.07705],[14.63011,57.07853],[14.62976,57.07864],[14.63171,57.07967],[14.63001,57.08126],[14.62698,57.08315],[14.62437,57.08315],[14.62469,57.08386],[14.62715,57.08345],[14.62771,57.08442],[14.62654,57.08681],[14.62079,57.08551],[14.62036,57.08503],[14.62009,57.08392],[14.61931,57.08415],[14.616,57.08454],[14.61091,57.08668],[14.60202,57.08786],[14.60015,57.09189],[14.58082,57.09405],[14.55668,57.09705],[14.54536,57.0994],[14.52969,57.10638],[14.51756,57.10887],[14.5164,57.10975],[14.51553,57.11503],[14.50624,57.11515],[14.50537,57.1157],[14.49644,57.11859],[14.49662,57.11729],[14.49596,57.11726],[14.49479,57.11932],[14.49317,57.11908],[14.49239,57.12029],[14.49309,57.12208],[14.49247,57.12213],[14.49303,57.12288],[14.49332,57.12287],[14.49212,57.12416],[14.4921,57.12678],[14.4927,57.12862],[14.4924,57.13143],[14.49114,57.13387],[14.48993,57.13427],[14.48606,57.13743],[14.48467,57.13694],[14.48229,57.13653],[14.48096,57.13758],[14.4809,57.13845],[14.47998,57.13947],[14.4789,57.13874],[14.47469,57.13849],[14.4733,57.13991],[14.47247,57.14036],[14.48275,57.14599],[14.48759,57.14974],[14.48875,57.1499],[14.4895,57.15212],[14.49611,57.15369],[14.49743,57.15439],[14.49708,57.15515],[14.4974,57.15637],[14.49775,57.15697],[14.49897,57.15737],[14.49865,57.15782],[14.49871,57.1586],[14.50599,57.16144],[14.50965,57.16317],[14.51111,57.1624],[14.51203,57.16062],[14.51401,57.16079],[14.51546,57.16068],[14.51982,57.15963],[14.52803,57.16006],[14.53422,57.16012],[14.53868,57.16068],[14.54375,57.17144],[14.54847,57.17118],[14.55011,57.17203],[14.55158,57.17367],[14.54978,57.17408],[14.55327,57.17995],[14.55358,57.18283],[14.55471,57.18479],[14.55485,57.18662],[14.55589,57.18729],[14.55701,57.18762],[14.55798,57.18786],[14.56005,57.18797],[14.56108,57.18824],[14.56164,57.1886],[14.56254,57.18858],[14.56346,57.18912],[14.57062,57.18996],[14.57557,57.18945],[14.57704,57.18781],[14.57939,57.18723],[14.58071,57.18714],[14.58205,57.18587],[14.58279,57.18627],[14.58317,57.18625],[14.58351,57.18661],[14.58433,57.18679],[14.58837,57.18328],[14.58521,57.18289],[14.58227,57.18199],[14.57954,57.18077],[14.57765,57.17925],[14.57228,57.17999],[14.56872,57.17996],[14.56497,57.17926],[14.5619,57.1779],[14.56023,57.17636],[14.55957,57.17496],[14.55959,57.17354],[14.56048,57.17139],[14.56,57.17025],[14.55996,57.16898],[14.55617,57.16701],[14.55516,57.16608],[14.55436,57.16473],[14.55415,57.16192],[14.55489,57.16018],[14.55718,57.15822],[14.56004,57.15675],[14.56322,57.15572],[14.56576,57.1552],[14.5686,57.15502],[14.57144,57.15525],[14.57392,57.15583],[14.57635,57.15689],[14.57774,57.15558],[14.57956,57.15456],[14.58184,57.1538],[14.58555,57.15302],[14.58752,57.15288],[14.59013,57.153],[14.59316,57.15352],[14.59656,57.15437],[14.59863,57.15524],[14.60248,57.1576],[14.60371,57.1589],[14.60433,57.16042],[14.60422,57.16189],[14.60366,57.16301],[14.604,57.16427],[14.60387,57.16532],[14.60257,57.16726],[14.60265,57.16782],[14.60422,57.16894],[14.60529,57.17029],[14.60567,57.17251],[14.6046,57.17452],[14.60454,57.1761],[14.60342,57.17838],[14.60234,57.1797],[14.60052,57.18091],[14.60076,57.18125],[14.6031,57.18093],[14.60341,57.18024],[14.60518,57.18013],[14.60649,57.18042],[14.61087,57.18065],[14.61204,57.18307],[14.60678,57.20441],[14.61643,57.2033],[14.62689,57.2041],[14.62949,57.20457],[14.63059,57.20519],[14.63497,57.20431],[14.63869,57.20452],[14.65051,57.20324],[14.65342,57.20323],[14.65614,57.20298],[14.65667,57.20327],[14.65643,57.20395],[14.65687,57.20447],[14.65561,57.2069],[14.65443,57.20815],[14.65448,57.20842],[14.65513,57.20874],[14.6563,57.20881],[14.6576,57.20866],[14.65906,57.20811],[14.65997,57.20747],[14.6634,57.20699],[14.66572,57.2072],[14.66665,57.20747],[14.66811,57.20746],[14.66913,57.20773],[14.67037,57.20754],[14.67164,57.20783],[14.67428,57.20773],[14.67736,57.20888],[14.68166,57.20942],[14.68492,57.21066],[14.68722,57.21073],[14.68759,57.21085],[14.68764,57.21141],[14.68944,57.2121],[14.6929,57.21319],[14.6968,57.21469],[14.69963,57.2151],[14.70463,57.21696],[14.70523,57.21739],[14.7075,57.21791],[14.70792,57.21849],[14.71004,57.2191],[14.7115,57.21979],[14.71275,57.21993],[14.71335,57.2219],[14.71531,57.22327],[14.71804,57.22476],[14.72005,57.2238],[14.72395,57.22421],[14.72507,57.22446],[14.72635,57.22504],[14.7286,57.2253],[14.72912,57.2252],[14.73216,57.22538],[14.73461,57.22501],[14.73524,57.22553],[14.73706,57.22565],[14.73942,57.22515],[14.7415,57.22522],[14.74452,57.22601],[14.75058,57.22813]],[[15.0382,57.0645],[15.0351,57.06435],[15.0312,57.06387],[15.0289,57.06321],[15.02736,57.06249],[15.02581,57.06134],[15.02383,57.05895],[15.02339,57.05787],[15.02339,57.05645],[15.02463,57.05441],[15.02575,57.05353],[15.02767,57.05256],[15.03509,57.05067],[15.04051,57.04991],[15.04445,57.05007],[15.04855,57.05112],[15.04936,57.05115],[15.05205,57.05059],[15.05487,57.05031],[15.05712,57.04976],[15.05906,57.04954],[15.0638,57.04971],[15.06687,57.05035],[15.06898,57.05122],[15.0706,57.05234],[15.07304,57.05493],[15.07367,57.05682],[15.07591,57.05788],[15.07722,57.05874],[15.07846,57.06005],[15.07909,57.06133],[15.0791,57.06313],[15.07803,57.06494],[15.07588,57.0665],[15.07492,57.06766],[15.07374,57.06853],[15.07177,57.06946],[15.06963,57.07006],[15.06925,57.07201],[15.06781,57.07365],[15.06607,57.0747],[15.06446,57.07533],[15.05978,57.0762],[15.05589,57.07611],[15.05281,57.07541],[15.04888,57.07353],[15.04674,57.07186],[15.04384,57.07131],[15.0418,57.07052],[15.04003,57.06937],[15.03895,57.06814],[15.03853,57.06714],[15.0382,57.0645]],[[14.88052,57.03493],[14.88049,57.03283],[14.88004,57.03122],[14.87744,57.0305],[14.87522,57.0293],[14.87224,57.0262],[14.87139,57.02478],[14.87078,57.02221],[14.87085,57.02117],[14.87149,57.01983],[14.87267,57.01866],[14.87264,57.01643],[14.87414,57.01435],[14.87553,57.0134],[14.87763,57.01248],[14.8806,57.01159],[14.88341,57.01115],[14.88577,57.00941],[14.89077,57.00774],[14.89188,57.00671],[14.89368,57.00569],[14.89712,57.00468],[14.89974,57.00443],[14.903,57.00463],[14.90609,57.00535],[14.90815,57.00606],[14.91171,57.00649],[14.91403,57.00711],[14.91635,57.00828],[14.91767,57.00949],[14.91846,57.01115],[14.91837,57.01256],[14.91773,57.01393],[14.91656,57.01516],[14.91532,57.01595],[14.91327,57.01683],[14.91343,57.01849],[14.91264,57.0203],[14.91328,57.02136],[14.91353,57.0228],[14.91311,57.0242],[14.91233,57.02524],[14.91244,57.02629],[14.91188,57.02922],[14.91053,57.03151],[14.90783,57.03383],[14.90715,57.03498],[14.90614,57.03596],[14.90425,57.03709],[14.90262,57.03841],[14.90065,57.03934],[14.89762,57.04009],[14.89436,57.04028],[14.88964,57.03991],[14.88484,57.03863],[14.88202,57.03701],[14.88052,57.03493]],[[14.91634,56.7593],[14.91318,56.7576],[14.91082,56.75796],[14.90878,56.75802],[14.90481,56.7575],[14.90149,56.75621],[14.89947,56.7546],[14.89878,56.75355],[14.89844,56.75209],[14.89961,56.74834],[14.89775,56.74669],[14.89704,56.74495],[14.89759,56.74175],[14.89826,56.74034],[14.89952,56.7391],[14.90383,56.73599],[14.90632,56.73481],[14.90932,56.73412],[14.91339,56.73402],[14.91556,56.73359],[14.91928,56.73325],[14.9198,56.73141],[14.92175,56.72893],[14.92136,56.72682],[14.9221,56.72505],[14.92419,56.72327],[14.92827,56.72135],[14.93127,56.7204],[14.93463,56.72002],[14.93747,56.72015],[14.94183,56.7208],[14.94471,56.7218],[14.94643,56.72285],[14.94777,56.72441],[14.94817,56.72614],[14.94756,56.72907],[14.94569,56.73113],[14.94619,56.73269],[14.94583,56.73665],[14.94505,56.73807],[14.9437,56.73931],[14.94414,56.74113],[14.94351,56.74341],[14.94427,56.74506],[14.94425,56.74721],[14.94292,56.74923],[14.94041,56.75077],[14.94099,56.75284],[14.94013,56.75491],[14.93823,56.75675],[14.93522,56.75818],[14.93218,56.75882],[14.92908,56.75891],[14.92703,56.75964],[14.92452,56.76012],[14.92168,56.76025],[14.91906,56.76],[14.91634,56.7593]]]}},{"type":"Feature","id":"0780R021","properties":{"code":"0780R021","name":"Växjö öster"},"geometry":{"type":"Polygon","coordinates":[[[14.82126,56.87643],[14.82438,56.87633],[14.82499,56.87656],[14.82542,56.8771],[14.83088,56.87652],[14.83344,56.87588],[14.83648,56.87587],[14.83791,56.87197],[14.83458,56.87075],[14.83636,56.86886],[14.83318,56.8675],[14.84117,56.86246],[14.84439,56.85991],[14.84396,56.8598],[14.84422,56.8595],[14.83908,56.85958],[14.83588,56.85843],[14.83189,56.86153],[14.82006,56.86313],[14.81816,56.86305],[14.81197,56.86749],[14.8121,56.87111],[14.80671,56.87138],[14.80731,56.87212],[14.80925,56.87296],[14.81015,56.87636],[14.81373,56.87574],[14.81321,56.87664],[14.81393,56.87661],[14.81436,56.87606],[14.81521,56.87622],[14.81464,56.87721],[14.81339,56.87783],[14.81356,56.87826],[14.81744,56.87796],[14.81868,56.87728],[14.82126,56.87643]]]}},{"type":"Feature","id":"0780R010","properties":{"code":"0780R010","name":"Lammhult"},"geometry":{"type":"Polygon","coordinates":[[[14.59163,57.18043],[14.59291,57.18027],[14.59578,57.17788],[14.59867,57.17814],[14.60052,57.18091],[14.60196,57.18001],[14.60295,57.17907],[14.6044,57.17646],[14.6046,57.17452],[14.60543,57.17328],[14.60571,57.17173],[14.60487,57.16964],[14.60265,57.16782],[14.60257,57.16726],[14.60357,57.16603],[14.60395,57.16498],[14.60366,57.16301],[14.60422,57.16189],[14.60436,57.16077],[14.60376,57.15899],[14.60248,57.1576],[14.59863,57.15524],[14.59656,57.15437],[14.59253,57.15339],[14.5882,57.15288],[14.58489,57.15312],[14.58068,57.15413],[14.57813,57.15531],[14.57635,57.15689],[14.57445,57.15601],[14.57263,57.15548],[14.5686,57.15502],[14.56455,57.1554],[14.56059,57.15653],[14.55722,57.1582],[14.55517,57.15985],[14.55422,57.16155],[14.55418,57.16366],[14.5545,57.16507],[14.55547,57.16641],[14.55701,57.16756],[14.55996,57.16898],[14.56,57.17025],[14.56048,57.17139],[14.55959,57.17354],[14.55957,57.17496],[14.56023,57.17636],[14.56148,57.17761],[14.56438,57.17908],[14.56616,57.17956],[14.56872,57.17996],[14.57228,57.17999],[14.57765,57.17925],[14.57954,57.18077],[14.58227,57.18199],[14.58458,57.18275],[14.58713,57.18318],[14.58837,57.18328],[14.59163,57.18043]]]}},{"type":"Feature","id":"0780R011","properties":{"code":"0780R011","name":"Rottne"},"geometry":{"type":"Polygon","coordinates":[[[14.90104,57.00444],[14.89777,57.00459],[14.89475,57.00527],[14.89227,57.00644],[14.89077,57.00774],[14.88577,57.00941],[14.88341,57.01115],[14.88003,57.01174],[14.87696,57.01273],[14.87541,57.01347],[14.87382,57.01464],[14.87299,57.01567],[14.87248,57.01711],[14.87267,57.01866],[14.87149,57.01983],[14.87085,57.02117],[14.87084,57.02255],[14.87153,57.02514],[14.87425,57.02842],[14.87647,57.03007],[14.87797,57.03069],[14.88004,57.03122],[14.88049,57.03283],[14.88052,57.03493],[14.8817,57.03671],[14.88287,57.03764],[14.88484,57.03863],[14.88842,57.03966],[14.89096,57.04009],[14.89634,57.04023],[14.90007,57.03953],[14.90262,57.03841],[14.90688,57.03529],[14.90783,57.03383],[14.91053,57.03151],[14.912,57.02888],[14.91245,57.02627],[14.91233,57.02524],[14.91311,57.0242],[14.91353,57.0228],[14.91328,57.02136],[14.91264,57.0203],[14.91343,57.01849],[14.91327,57.01683],[14.91532,57.01595],[14.91656,57.01516],[14.91773,57.01393],[14.91836,57.0126],[14.91846,57.01115],[14.9179,57.0098],[14.91674,57.00857],[14.91503,57.00753],[14.91234,57.00662],[14.90815,57.00606],[14.90428,57.00487],[14.90104,57.00444]]]}},{"type":"Feature","id":"0780R012","properties":{"code":"0780R012","name":"Sandsbro"},"geometry":{"type":"Polygon","coordinates":[[[14.8564,56.93255],[14.86185,56.93022],[14.8658,56.92992],[14.86818,56.92929],[14.87058,56.92808],[14.87219,56.92653],[14.87275,56.92518],[14.87326,56.9213],[14.87286,56.91991],[14.8715,56.91835],[14.87183,56.91739],[14.87179,56.91615],[14.87408,56.91358],[14.8769,56.91119],[14.87765,56.90981],[14.87773,56.90836],[14.87721,56.90697],[14.87648,56.90597],[14.87364,56.90332],[14.87069,56.90128],[14.86775,56.90027],[14.86285,56.89958],[14.8596,56.89972],[14.85604,56.90049],[14.85556,56.89819],[14.85435,56.89653],[14.85347,56.89752],[14.84748,56.89892],[14.84769,56.89944],[14.84962,56.90142],[14.84974,56.90251],[14.84916,56.90392],[14.84977,56.90549],[14.84731,56.90614],[14.84642,56.90587],[14.84629,56.90551],[14.84502,56.90469],[14.84434,56.90513],[14.84391,56.90517],[14.84334,56.90582],[14.84377,56.90618],[14.84229,56.90692],[14.84292,56.90712],[14.83918,56.90937],[14.84356,56.91195],[14.84689,56.91309],[14.84649,56.91335],[14.84345,56.91302],[14.84204,56.91268],[14.84084,56.91269],[14.83978,56.91399],[14.83979,56.91532],[14.84261,56.91472],[14.84285,56.91536],[14.84381,56.91546],[14.84403,56.91592],[14.84429,56.91553],[14.84529,56.91541],[14.8448,56.92075],[14.83181,56.92709],[14.83129,56.92856],[14.83135,56.92974],[14.83332,56.93334],[14.83534,56.93506],[14.83777,56.93617],[14.8394,56.93669],[14.8429,56.93748],[14.84537,56.93772],[14.84916,56.93742],[14.85271,56.93631],[14.85526,56.93455],[14.8564,56.93255]]]}},{"type":"Feature","id":"0780R013","properties":{"code":"0780R013","name":"Stadsnära landsbygd"},"geometry":{"type":"Polygon","coordinates":[[[14.99218,57.00005],[14.99535,56.99266],[14.99751,56.98938],[15.00891,56.96658],[15.00705,56.96611],[15.00661,56.96556],[15.00716,56.96494],[15.00758,56.96296],[15.00896,56.96068],[15.0107,56.95902],[15.01329,56.95784],[15.01527,56.95571],[15.02347,56.94556],[15.02512,56.94301],[15.02398,56.93901],[15.02479,56.93835],[15.01698,56.93727],[15.00833,56.92893],[15.00813,56.92746],[15.00659,56.92557],[15.0053,56.9255],[15.00494,56.92767],[15.00412,56.92889],[15.00371,56.93043],[15.00332,56.93049],[14.99404,56.92886],[14.99484,56.92746],[14.99633,56.92667],[14.99726,56.92535],[15.00149,56.92536],[14.99665,56.92243],[14.99514,56.92091],[14.99565,56.91882],[14.99553,56.91653],[14.99806,56.91176],[15.00012,56.9101],[15.00143,56.9077],[15.00244,56.90473],[15.00223,56.9022],[15.00125,56.90135],[14.99821,56.90065],[14.99796,56.89967],[14.99703,56.89915],[14.99803,56.89728],[14.99759,56.89466],[14.99823,56.8912],[14.99743,56.89064],[14.99653,56.89098],[14.99538,56.89025],[14.9964,56.88984],[14.99534,56.88882],[14.9955,56.88788],[14.99475,56.88735],[14.99318,56.88733],[14.99296,56.88427],[14.99251,56.88359],[14.99017,56.88185],[14.99116,56.87896],[14.991,56.87802],[14.9923,56.87715],[14.99236,56.8763],[14.99368,56.87547],[14.99494,56.87504],[14.99673,56.87258],[14.99685,56.87175],[14.99775,56.87075],[14.99838,56.87046],[14.9987,56.86981],[14.99849,56.86932],[14.99958,56.8688],[14.99949,56.86834],[14.99998,56.86821],[14.99986,56.8679],[15.00068,56.86743],[15.00132,56.86661],[15.00247,56.86622],[15.00345,56.86633],[15.00437,56.86541],[15.00453,56.86475],[15.00526,56.86417],[15.00654,56.86437],[15.00894,56.86376],[15.01152,56.85639],[15.0106,56.85257],[15.01227,56.84788],[15.00252,56.83787],[15.00195,56.83477],[14.99473,56.83037],[14.99785,56.82665],[14.99921,56.82386],[15.00079,56.82252],[15.00162,56.81821],[15.00565,56.81228],[15.00759,56.80678],[15.00902,56.80467],[15.01164,56.80187],[15.01756,56.797],[15.02151,56.7958],[15.02554,56.79291],[15.00669,56.78835],[15.00467,56.78857],[14.99416,56.78785],[14.99038,56.78779],[14.98891,56.78806],[14.98385,56.78836],[14.98328,56.78868],[14.98281,56.78944],[14.98221,56.78943],[14.97826,56.78855],[14.97649,56.78842],[14.97386,56.78695],[14.97042,56.78567],[14.96958,56.78567],[14.96791,56.78462],[14.95821,56.78303],[14.95749,56.78487],[14.94754,56.78309],[14.94841,56.78153],[14.94423,56.78089],[14.91949,56.78339],[14.91551,56.78528],[14.90834,56.78602],[14.9058,56.78681],[14.9013,56.78648],[14.9014,56.78592],[14.90024,56.78577],[14.90054,56.78505],[14.9013,56.78465],[14.88976,56.78727],[14.88615,56.78778],[14.88569,56.78799],[14.88569,56.78822],[14.88495,56.78837],[14.88486,56.78821],[14.88051,56.79053],[14.87246,56.79203],[14.86713,56.79279],[14.86862,56.78291],[14.86435,56.77411],[14.86342,56.77351],[14.85904,56.77305],[14.85735,56.77247],[14.85524,56.76928],[14.85517,56.76865],[14.85425,56.76782],[14.85272,56.76726],[14.85234,56.76683],[14.85123,56.76638],[14.85086,56.76586],[14.85123,56.7643],[14.85202,56.76347],[14.85325,56.76233],[14.85486,56.76192],[14.85533,56.76139],[14.8553,56.76021],[14.85479,56.75907],[14.8525,56.75805],[14.85212,56.75767],[14.85225,56.757],[14.85326,56.75637],[14.85456,56.75433],[14.8548,56.75209],[14.85607,56.75073],[14.85631,56.74988],[14.85612,56.7488],[14.85541,56.74785],[14.85617,56.7448],[14.85609,56.74344],[14.85527,56.74327],[14.85524,56.74233],[14.85359,56.74147],[14.8532,56.74104],[14.85325,56.74052],[14.85094,56.7395],[14.85141,56.73715],[14.85235,56.73629],[14.8523,56.73529],[14.85252,56.73491],[14.85315,56.73475],[14.85357,56.73436],[14.85321,56.73413],[14.8531,56.7321],[14.85255,56.73184],[14.85249,56.73132],[14.85194,56.73128],[14.8519,56.73094],[14.85064,56.73006],[14.84995,56.72921],[14.85233,56.72794],[14.85249,56.72749],[14.85233,56.72714],[14.85191,56.72705],[14.85205,56.72653],[14.85261,56.72658],[14.85364,56.72408],[14.8516,56.71866],[14.85906,56.71911],[14.86755,56.71992],[14.87278,56.72121],[14.88246,56.72091],[14.89034,56.71949],[14.89002,56.72129],[14.89033,56.72192],[14.89156,56.71919],[14.893,56.71917],[14.89491,56.72034],[14.89531,56.72039],[14.8959,56.72007],[14.89636,56.72029],[14.89757,56.72199],[14.89812,56.72321],[14.89691,56.72451],[14.89706,56.72538],[14.89721,56.7255],[14.89791,56.72519],[14.89874,56.7251],[14.89943,56.72526],[14.89938,56.72551],[14.89868,56.72551],[14.89845,56.72568],[14.89968,56.72643],[14.90014,56.72732],[14.90162,56.7281],[14.90328,56.72815],[14.90344,56.72835],[14.90307,56.72875],[14.90379,56.7291],[14.90396,56.72894],[14.90364,56.72851],[14.90396,56.72823],[14.90716,56.72728],[14.90711,56.72682],[14.90764,56.72612],[14.9086,56.72614],[14.90896,56.72573],[14.91237,56.72446],[14.91544,56.72395],[14.918,56.7165],[14.9311,56.71826],[14.93127,56.71743],[14.93093,56.71751],[14.92153,56.71158],[14.9349,56.70879],[14.93812,56.70737],[14.94566,56.70458],[14.95564,56.69933],[14.95753,56.69614],[14.95893,56.69484],[14.95813,56.69464],[14.95787,56.69433],[14.95991,56.69294],[14.96177,56.69215],[14.96459,56.68959],[14.95703,56.68749],[14.94974,56.68593],[14.92312,56.67538],[14.91515,56.67252],[14.9074,56.67005],[14.90227,56.67263],[14.89689,56.67418],[14.89114,56.67623],[14.87929,56.67705],[14.87981,56.67596],[14.87945,56.67563],[14.87963,56.67543],[14.87929,56.67397],[14.87868,56.67382],[14.87874,56.67305],[14.87809,56.67243],[14.87751,56.67213],[14.8767,56.67203],[14.87575,56.67116],[14.87436,56.67092],[14.87345,56.67092],[14.87296,56.67115],[14.87178,56.67107],[14.86063,56.66341],[14.85774,56.66245],[14.85662,56.66177],[14.85681,56.65889],[14.85532,56.65745],[14.85489,56.65567],[14.85507,56.65487],[14.85618,56.65434],[14.85637,56.65393],[14.85616,56.65193],[14.85522,56.65021],[14.85546,56.64919],[14.85602,56.64858],[14.85494,56.64755],[14.85458,56.64748],[14.85318,56.64782],[14.85224,56.6477],[14.85033,56.64581],[14.84874,56.64583],[14.84275,56.64352],[14.81571,56.62897],[14.80067,56.6287],[14.76997,56.63397],[14.74979,56.6404],[14.72625,56.63023],[14.72025,56.63071],[14.71731,56.63314],[14.71436,56.63196],[14.7118,56.63318],[14.7101,56.63845],[14.70395,56.64237],[14.6992,56.64279],[14.69507,56.64452],[14.69351,56.64931],[14.68837,56.66002],[14.68849,56.66786],[14.69293,56.67263],[14.69567,56.67345],[14.68957,56.67555],[14.68655,56.67576],[14.68593,56.67364],[14.67824,56.66976],[14.67585,56.66972],[14.67439,56.66999],[14.67324,56.66976],[14.67327,56.66949],[14.67107,56.66942],[14.67099,56.67027],[14.6686,56.67046],[14.66794,56.67033],[14.66716,56.67037],[14.66604,56.67066],[14.6647,56.67139],[14.66609,56.6707],[14.66718,56.67041],[14.6686,56.67051],[14.67098,56.67032],[14.67095,56.67065],[14.67313,56.67071],[14.67323,56.66981],[14.67422,56.67001],[14.67386,56.67005],[14.67362,56.67168],[14.66461,56.67201],[14.66441,56.67317],[14.66518,56.67315],[14.66586,56.67596],[14.67153,56.67762],[14.66624,56.68343],[14.66333,56.68747],[14.66288,56.68904],[14.65869,56.69639],[14.66055,56.71233],[14.65221,56.72056],[14.65803,56.72783],[14.66666,56.74062],[14.6662,56.74522],[14.6656,56.7477],[14.66646,56.75042],[14.66039,56.7508],[14.65961,56.75711],[14.6608,56.75747],[14.66126,56.75786],[14.66157,56.75856],[14.66409,56.76136],[14.66399,56.76281],[14.66165,56.76824],[14.65548,56.77173],[14.65585,56.7736],[14.65766,56.77443],[14.65804,56.77614],[14.65827,56.77768],[14.65735,56.77806],[14.65692,56.78107],[14.65574,56.78159],[14.6494,56.78053],[14.64625,56.78181],[14.644,56.78906],[14.6382,56.79781],[14.63686,56.80755],[14.62004,56.80443],[14.61984,56.80367],[14.62005,56.80336],[14.61976,56.80311],[14.61675,56.80317],[14.61499,56.80296],[14.61431,56.80336],[14.61329,56.80347],[14.61067,56.80423],[14.60804,56.80436],[14.60541,56.8042],[14.60489,56.80518],[14.60393,56.80558],[14.6033,56.80511],[14.60193,56.80503],[14.60028,56.80444],[14.59728,56.80446],[14.59474,56.80427],[14.59449,56.8041],[14.59353,56.80452],[14.59344,56.80498],[14.59266,56.80521],[14.59206,56.80616],[14.591,56.80691],[14.58688,56.8075],[14.57086,56.80612],[14.56374,56.81819],[14.55634,56.84147],[14.57228,56.84423],[14.57497,56.84392],[14.57915,56.84415],[14.57963,56.84338],[14.58073,56.84414],[14.58128,56.84399],[14.58155,56.84408],[14.58222,56.84503],[14.58715,56.84441],[14.58672,56.84317],[14.58867,56.8424],[14.58928,56.84312],[14.59076,56.84377],[14.59135,56.84511],[14.59283,56.84665],[14.59293,56.84841],[14.59229,56.85055],[14.59263,56.85094],[14.59339,56.85119],[14.5933,56.8515],[14.59379,56.85148],[14.59447,56.85193],[14.59458,56.85272],[14.59381,56.85429],[14.59389,56.85452],[14.59535,56.85483],[14.59558,56.85597],[14.59563,56.85987],[14.59448,56.86106],[14.59422,56.86327],[14.59524,56.86463],[14.59456,56.86571],[14.59462,56.86673],[14.59573,56.8678],[14.59582,56.86839],[14.59519,56.87076],[14.59443,56.87169],[14.59427,56.87283],[14.60512,56.8769],[14.60845,56.87709],[14.62505,56.87339],[14.62633,56.87211],[14.62623,56.87326],[14.6273,56.87342],[14.6282,56.87389],[14.62869,56.87452],[14.62848,56.87576],[14.62819,56.87603],[14.62838,56.8767],[14.62794,56.87716],[14.62801,56.87786],[14.6274,56.88],[14.62755,56.88088],[14.62695,56.88337],[14.62741,56.88683],[14.62847,56.88757],[14.62759,56.88888],[14.62539,56.88876],[14.62488,56.88913],[14.62333,56.89206],[14.61567,56.90113],[14.62177,56.90239],[14.6234,56.90318],[14.62466,56.9038],[14.6304,56.9078],[14.63489,56.91056],[14.63555,56.91133],[14.63502,56.9117],[14.63551,56.91468],[14.63969,56.91434],[14.64186,56.91468],[14.64327,56.91454],[14.6457,56.91498],[14.64624,56.91538],[14.64648,56.91597],[14.65576,56.92219],[14.65474,56.92323],[14.65683,56.9262],[14.65678,56.92918],[14.65651,56.9294],[14.65491,56.92963],[14.65272,56.92951],[14.65295,56.93064],[14.65256,56.93304],[14.65066,56.93322],[14.6493,56.93779],[14.6504,56.93968],[14.65431,56.94201],[14.65465,56.94187],[14.65522,56.94241],[14.65618,56.94284],[14.65821,56.94323],[14.65889,56.94321],[14.65942,56.94348],[14.6596,56.9429],[14.65859,56.94281],[14.65884,56.94239],[14.66197,56.94286],[14.66433,56.94387],[14.66623,56.9454],[14.66933,56.9464],[14.67233,56.9481],[14.6761,56.95101],[14.68119,56.95369],[14.68466,56.95189],[14.69024,56.95432],[14.69118,56.95448],[14.69179,56.95493],[14.69118,56.95596],[14.68828,56.95575],[14.68813,56.95737],[14.69192,56.95756],[14.69193,56.95808],[14.6908,56.95824],[14.69075,56.95901],[14.68912,56.96037],[14.68838,56.96158],[14.68908,56.96176],[14.69159,56.96176],[14.6967,56.96096],[14.69772,56.9606],[14.69879,56.96047],[14.69809,56.96123],[14.69813,56.96179],[14.70178,56.96261],[14.7042,56.9627],[14.70408,56.96315],[14.70316,56.96338],[14.70519,56.96554],[14.71027,56.96542],[14.71078,56.96693],[14.71248,56.96698],[14.725,56.96967],[14.72896,56.96357],[14.76498,56.96647],[14.76384,56.97189],[14.77082,56.97218],[14.77417,56.97109],[14.78381,56.97196],[14.78243,56.97443],[14.78316,56.9789],[14.78249,56.9819],[14.78289,56.98266],[14.78435,56.98348],[14.78939,56.98475],[14.79784,56.97008],[14.80318,56.97075],[14.81681,56.98488],[14.84099,56.98762],[14.84377,56.99037],[14.84627,56.99147],[14.85167,56.99445],[14.85755,56.99186],[14.8639,56.9919],[14.86962,56.98818],[14.87804,56.9894],[14.87936,56.98887],[14.8797,56.98088],[14.88016,56.97927],[14.88062,56.97889],[14.88079,56.9791],[14.88731,56.97746],[14.89075,56.98095],[14.8948,56.98311],[14.89465,56.98554],[14.89363,56.98648],[14.89358,56.98832],[14.89292,56.98879],[14.89268,56.9928],[14.89211,56.99352],[14.89185,56.99468],[14.89278,56.99658],[14.8939,56.99724],[14.89403,56.99777],[14.89808,57.00312],[14.9002,57.00218],[14.9085,56.99752],[14.94528,56.99637],[14.94633,57.00018],[14.98447,57.00339],[14.99218,57.00005]],[[14.61881,56.84324],[14.62287,56.84389],[14.62656,56.84398],[14.62937,56.84455],[14.63321,56.84486],[14.63557,56.84551],[14.63796,56.84673],[14.63902,56.84764],[14.64064,56.84967],[14.64137,56.85108],[14.64121,56.85332],[14.64045,56.85458],[14.63916,56.85576],[14.64119,56.85636],[14.64467,56.85696],[14.64742,56.8568],[14.65045,56.85708],[14.65338,56.85697],[14.65643,56.85563],[14.65869,56.85498],[14.66116,56.85466],[14.66409,56.85471],[14.66844,56.85517],[14.67059,56.85557],[14.67334,56.85571],[14.67641,56.85637],[14.67809,56.85703],[14.6796,56.8579],[14.68146,56.85989],[14.68187,56.86133],[14.68158,56.86288],[14.6806,56.8643],[14.67846,56.86637],[14.67648,56.86759],[14.67273,56.86901],[14.67045,56.86962],[14.66742,56.86995],[14.66598,56.87067],[14.66408,56.8713],[14.6641,56.87317],[14.66322,56.87499],[14.66215,56.87604],[14.66022,56.87733],[14.6573,56.87858],[14.65656,56.87992],[14.65517,56.88116],[14.65343,56.88403],[14.65136,56.88608],[14.64861,56.88773],[14.64686,56.88831],[14.64436,56.88884],[14.64047,56.88899],[14.63627,56.88837],[14.63366,56.88741],[14.63034,56.88549],[14.6292,56.88416],[14.62868,56.88263],[14.62882,56.88126],[14.62944,56.87996],[14.62954,56.87734],[14.63081,56.8753],[14.62993,56.87434],[14.62932,56.87305],[14.62751,56.87212],[14.62611,56.87092],[14.6247,56.86894],[14.62401,56.8674],[14.62249,56.8657],[14.62023,56.86471],[14.61877,56.86363],[14.61541,56.86179],[14.61312,56.85948],[14.61104,56.85855],[14.60939,56.85727],[14.60669,56.85651],[14.60356,56.85493],[14.60245,56.85404],[14.6015,56.85272],[14.6012,56.85091],[14.60217,56.84876],[14.60347,56.8475],[14.60813,56.84454],[14.61039,56.84379],[14.6135,56.84333],[14.61881,56.84324]],[[14.78985,56.94406],[14.78915,56.94201],[14.78751,56.939],[14.78746,56.93787],[14.78797,56.93644],[14.78957,56.93475],[14.79144,56.93369],[14.79336,56.93301],[14.79523,56.93086],[14.79814,56.92925],[14.79565,56.92901],[14.7929,56.92991],[14.7898,56.93032],[14.78719,56.93024],[14.78475,56.92982],[14.78177,56.92882],[14.77948,56.92736],[14.77905,56.9276],[14.77315,56.92363],[14.76388,56.92093],[14.76117,56.92199],[14.75747,56.92255],[14.75469,56.92247],[14.75168,56.9219],[14.74812,56.92214],[14.74391,56.92182],[14.74157,56.92245],[14.7396,56.92271],[14.737,56.92272],[14.73443,56.92238],[14.7303,56.92095],[14.72877,56.91997],[14.72637,56.91894],[14.72458,56.91751],[14.72106,56.91688],[14.71783,56.91552],[14.71419,56.91271],[14.71337,56.91131],[14.7132,56.90985],[14.71397,56.908],[14.71557,56.90649],[14.71902,56.90469],[14.72117,56.90394],[14.72121,56.90084],[14.72042,56.89928],[14.72042,56.89793],[14.71931,56.89666],[14.71882,56.89536],[14.71878,56.89424],[14.71924,56.89261],[14.71755,56.89163],[14.71654,56.8907],[14.71556,56.88862],[14.71574,56.88717],[14.71771,56.88181],[14.71884,56.88013],[14.72091,56.87871],[14.72413,56.87762],[14.72726,56.87545],[14.72755,56.87497],[14.72771,56.87277],[14.72884,56.8711],[14.73139,56.86946],[14.73422,56.86857],[14.739,56.86792],[14.74102,56.86784],[14.74423,56.86816],[14.74659,56.8688],[14.74937,56.87031],[14.75055,56.87158],[14.75109,56.87275],[14.75325,56.87417],[14.7545,56.87595],[14.75563,56.87628],[14.75833,56.87369],[14.76019,56.8725],[14.76227,56.87158],[14.76471,56.87097],[14.76786,56.87055],[14.7718,56.8703],[14.77494,56.87033],[14.77742,56.86898],[14.78147,56.86787],[14.78419,56.86577],[14.78435,56.86378],[14.78548,56.86211],[14.7866,56.86122],[14.78818,56.8604],[14.78865,56.85913],[14.78973,56.8579],[14.79246,56.85637],[14.79211,56.85533],[14.7907,56.85412],[14.7894,56.85236],[14.78725,56.84838],[14.78628,56.84576],[14.78567,56.84506],[14.78364,56.84467],[14.78144,56.83668],[14.78148,56.83551],[14.78251,56.83509],[14.78496,56.83496],[14.78689,56.83309],[14.78933,56.83165],[14.79098,56.83096],[14.79358,56.83033],[14.79684,56.83008],[14.80132,56.83042],[14.8043,56.83118],[14.80725,56.83148],[14.80944,56.83207],[14.8145,56.83199],[14.81907,56.83251],[14.82086,56.83296],[14.82294,56.83378],[14.82522,56.83534],[14.82872,56.83575],[14.83188,56.83664],[14.83427,56.83785],[14.83588,56.83944],[14.83644,56.84082],[14.83635,56.8425],[14.83714,56.84395],[14.83727,56.84516],[14.83996,56.84542],[14.84243,56.84598],[14.84456,56.84687],[14.84633,56.84809],[14.8477,56.85019],[14.84769,56.85216],[14.84672,56.85409],[14.84585,56.85685],[14.84396,56.8598],[14.84621,56.86053],[14.84822,56.86161],[14.84959,56.86287],[14.85028,56.86404],[14.85249,56.864],[14.85443,56.86419],[14.85683,56.86474],[14.85847,56.86538],[14.8602,56.86644],[14.86149,56.86774],[14.86412,56.86972],[14.86526,56.87143],[14.86567,56.87284],[14.86539,56.87453],[14.86423,56.87613],[14.86525,56.87742],[14.86563,56.87851],[14.86533,56.88296],[14.86442,56.88495],[14.86263,56.88646],[14.86009,56.88758],[14.85576,56.8887],[14.85316,56.88899],[14.84891,56.88893],[14.84281,56.88838],[14.83838,56.88766],[14.83768,56.88841],[14.83737,56.89084],[14.83874,56.89282],[14.83915,56.89462],[14.84131,56.8941],[14.84429,56.8938],[14.84632,56.89379],[14.84886,56.89409],[14.85222,56.89515],[14.85435,56.89654],[14.85556,56.89819],[14.85604,56.90049],[14.85899,56.89981],[14.86223,56.89956],[14.86652,56.90004],[14.86948,56.90078],[14.87205,56.90207],[14.87648,56.90597],[14.87753,56.90766],[14.87777,56.9091],[14.8769,56.91119],[14.87408,56.91358],[14.87179,56.91615],[14.87183,56.91739],[14.8715,56.91835],[14.87286,56.91991],[14.87326,56.92164],[14.87267,56.92552],[14.87166,56.92718],[14.87018,56.92834],[14.86818,56.92929],[14.8652,56.93003],[14.86185,56.93022],[14.86007,56.93115],[14.85791,56.93184],[14.8564,56.93255],[14.85585,56.93382],[14.85496,56.93485],[14.85373,56.93576],[14.85171,56.93673],[14.84795,56.9376],[14.84412,56.93764],[14.83883,56.93653],[14.83578,56.9353],[14.83357,56.93365],[14.83144,56.93008],[14.83135,56.92822],[14.83226,56.92628],[14.83045,56.92615],[14.82968,56.92724],[14.82926,56.92855],[14.82825,56.9298],[14.827,56.93071],[14.82515,56.93158],[14.81982,56.93661],[14.81636,56.93823],[14.8155,56.93882],[14.81278,56.9417],[14.81044,56.94318],[14.8088,56.94508],[14.80649,56.94639],[14.80423,56.94709],[14.80167,56.94747],[14.79813,56.94746],[14.79548,56.9471],[14.79328,56.94645],[14.79106,56.94525],[14.78985,56.94406]]]}},{"type":"Feature","id":"0780R014","properties":{"code":"0780R014","name":"Söder-Bäckaslöv"},"geometry":{"type":"Polygon","coordinates":[[[14.76535,56.87897],[14.79445,56.87867],[14.7992,56.8792],[14.79882,56.8766],[14.8038,56.87687],[14.80774,56.87667],[14.81015,56.87636],[14.80925,56.87296],[14.80731,56.87212],[14.80671,56.87138],[14.8121,56.87111],[14.81197,56.86749],[14.80677,56.86243],[14.7902,56.85346],[14.79211,56.85533],[14.79246,56.85637],[14.78973,56.8579],[14.78865,56.85913],[14.78818,56.8604],[14.7866,56.86122],[14.78517,56.86243],[14.78424,56.86414],[14.78419,56.86577],[14.78239,56.86728],[14.78078,56.86813],[14.77738,56.86899],[14.77494,56.87033],[14.7718,56.8703],[14.7672,56.87063],[14.76353,56.87121],[14.76111,56.87204],[14.75831,56.87371],[14.75563,56.87628],[14.75492,56.87608],[14.7537,56.88025],[14.75527,56.88335],[14.76223,56.87994],[14.76535,56.87897]]]}},{"type":"Feature","id":"0780R015","properties":{"code":"0780R015","name":"Teleborg"},"geometry":{"type":"Polygon","coordinates":[[[14.81816,56.86305],[14.81958,56.8631],[14.82096,56.85936],[14.82217,56.85453],[14.81286,56.85399],[14.80936,56.85433],[14.80914,56.85395],[14.80975,56.85181],[14.80927,56.85178],[14.80986,56.84964],[14.80937,56.84961],[14.80959,56.84866],[14.80849,56.84858],[14.80876,56.84745],[14.80823,56.84742],[14.80848,56.84636],[14.80571,56.84616],[14.80432,56.84631],[14.80308,56.84432],[14.80466,56.844],[14.80619,56.8433],[14.80967,56.84266],[14.81165,56.84258],[14.81443,56.84292],[14.81778,56.84289],[14.82128,56.84384],[14.82396,56.84436],[14.82415,56.84646],[14.82833,56.84588],[14.82922,56.84558],[14.82931,56.84518],[14.83189,56.84456],[14.83246,56.84405],[14.83239,56.84338],[14.83576,56.84341],[14.83521,56.84312],[14.83556,56.84296],[14.83668,56.84297],[14.83635,56.8425],[14.83636,56.84046],[14.83563,56.83909],[14.83427,56.83785],[14.83243,56.83685],[14.82872,56.83575],[14.82522,56.83534],[14.82294,56.83378],[14.82086,56.83296],[14.81907,56.83251],[14.8145,56.83199],[14.80944,56.83207],[14.80725,56.83148],[14.8043,56.83118],[14.80255,56.83066],[14.80001,56.83027],[14.79622,56.83009],[14.79224,56.8306],[14.79045,56.83115],[14.78886,56.8319],[14.7865,56.83336],[14.78496,56.83496],[14.78251,56.83509],[14.78148,56.83551],[14.78144,56.83668],[14.78364,56.84467],[14.78567,56.84506],[14.78628,56.84576],[14.78725,56.84838],[14.79001,56.85323],[14.80677,56.86243],[14.81197,56.86749],[14.81816,56.86305]]]}},{"type":"Feature","id":"0780R016","properties":{"code":"0780R016","name":"Teleborg centrum"},"geometry":{"type":"Polygon","coordinates":[[[14.84739,56.84943],[14.84589,56.84772],[14.84362,56.84642],[14.84056,56.84552],[14.83727,56.84516],[14.83668,56.84297],[14.83556,56.84296],[14.83521,56.84312],[14.83576,56.84341],[14.83239,56.84338],[14.83246,56.84405],[14.83189,56.84456],[14.82931,56.84518],[14.82889,56.84576],[14.82415,56.84646],[14.82396,56.84436],[14.82128,56.84384],[14.81778,56.84289],[14.81443,56.84292],[14.81165,56.84258],[14.80967,56.84266],[14.80619,56.8433],[14.80466,56.844],[14.80308,56.84432],[14.80432,56.84631],[14.80571,56.84616],[14.80848,56.84636],[14.80823,56.84742],[14.80876,56.84745],[14.80849,56.84858],[14.80959,56.84866],[14.80937,56.84961],[14.80986,56.84964],[14.80927,56.85178],[14.80975,56.85181],[14.80914,56.85395],[14.80936,56.85433],[14.81286,56.85399],[14.82217,56.85453],[14.8237,56.84951],[14.8263,56.84976],[14.82757,56.84928],[14.83243,56.85021],[14.83236,56.8506],[14.83725,56.85107],[14.84199,56.85206],[14.83588,56.85843],[14.83908,56.85958],[14.84428,56.85944],[14.84585,56.85685],[14.84672,56.85409],[14.84761,56.8525],[14.84781,56.85088],[14.84739,56.84943]]]}},{"type":"Feature","id":"0780R017","properties":{"code":"0780R017","name":"Universitetsområde"},"geometry":{"type":"Polygon","coordinates":[[[14.83588,56.85843],[14.84199,56.85206],[14.83725,56.85107],[14.83236,56.8506],[14.83243,56.85021],[14.82757,56.84928],[14.8263,56.84976],[14.8237,56.84951],[14.82096,56.85936],[14.81958,56.8631],[14.83189,56.86153],[14.83588,56.85843]]]}},{"type":"Feature","id":"0780R018","properties":{"code":"0780R018","name":"Västra mark"},"geometry":{"type":"Polygon","coordinates":[[[14.78721,56.89387],[14.79013,56.8891],[14.79466,56.88954],[14.79592,56.88706],[14.79793,56.88496],[14.79772,56.88216],[14.79602,56.88205],[14.79486,56.88111],[14.79323,56.88101],[14.79051,56.88123],[14.78716,56.88215],[14.78433,56.88248],[14.78503,56.87881],[14.76535,56.87897],[14.76223,56.87994],[14.75527,56.88335],[14.75603,56.88503],[14.75325,56.88998],[14.75683,56.89085],[14.76424,56.89188],[14.76962,56.89302],[14.77324,56.89412],[14.78162,56.89761],[14.78606,56.89908],[14.78721,56.89387]]]}},{"type":"Feature","id":"0780R022","properties":{"code":"0780R022","name":"Öjaby-Räppe"},"geometry":{"type":"Polygon","coordinates":[[[14.7439,56.92182],[14.74812,56.92214],[14.75168,56.9219],[14.75469,56.92247],[14.75747,56.92255],[14.76117,56.92199],[14.76388,56.92093],[14.75528,56.90258],[14.75006,56.89553],[14.75603,56.88503],[14.7537,56.88025],[14.75492,56.87608],[14.7545,56.87595],[14.75325,56.87417],[14.75109,56.87275],[14.75055,56.87158],[14.74973,56.87063],[14.74812,56.86949],[14.74482,56.86828],[14.74232,56.8679],[14.74035,56.86784],[14.73422,56.86857],[14.73193,56.86923],[14.73039,56.86996],[14.72884,56.8711],[14.72805,56.87209],[14.72726,56.87545],[14.72413,56.87762],[14.72188,56.87828],[14.71997,56.87924],[14.71804,56.88112],[14.71574,56.88717],[14.71556,56.88862],[14.71654,56.8907],[14.71755,56.89163],[14.71924,56.89261],[14.71878,56.89424],[14.71882,56.89536],[14.71931,56.89666],[14.72042,56.89793],[14.72042,56.89928],[14.72121,56.90084],[14.72117,56.90394],[14.71695,56.90565],[14.71493,56.907],[14.71352,56.90875],[14.7132,56.91054],[14.71419,56.91271],[14.71783,56.91552],[14.72106,56.91688],[14.72458,56.91751],[14.72637,56.91894],[14.72877,56.91997],[14.73135,56.92142],[14.73443,56.92238],[14.73763,56.92275],[14.74092,56.92256],[14.7439,56.92182]]]}},{"type":"Feature","id":"0780R023","properties":{"code":"0780R023","name":"Östra Lugnet-Evedal"},"geometry":{"type":"Polygon","coordinates":[[[14.82883,56.92919],[14.83045,56.92615],[14.83226,56.92628],[14.83181,56.92709],[14.8448,56.92075],[14.84529,56.91541],[14.84429,56.91553],[14.84403,56.91592],[14.84381,56.91546],[14.84285,56.91536],[14.84261,56.91472],[14.83979,56.91532],[14.83978,56.91399],[14.84084,56.91269],[14.84204,56.91268],[14.84345,56.91302],[14.84649,56.91335],[14.84689,56.91309],[14.84356,56.91195],[14.83918,56.90937],[14.83989,56.90898],[14.8386,56.90911],[14.83827,56.90897],[14.82784,56.90307],[14.82645,56.90249],[14.82551,56.9015],[14.82487,56.90225],[14.82134,56.90218],[14.81489,56.90241],[14.80591,56.90193],[14.80601,56.9023],[14.80688,56.90302],[14.805,56.90612],[14.8017,56.90995],[14.80269,56.91112],[14.80349,56.91084],[14.80397,56.91125],[14.80469,56.91134],[14.80634,56.91099],[14.80666,56.9121],[14.80442,56.91255],[14.80435,56.91273],[14.80564,56.91344],[14.80569,56.91367],[14.80051,56.91333],[14.79897,56.91342],[14.79903,56.91384],[14.79728,56.91349],[14.79613,56.9148],[14.79635,56.91633],[14.79532,56.91636],[14.79538,56.91759],[14.79174,56.9204],[14.79293,56.9204],[14.79583,56.92081],[14.79625,56.92071],[14.79639,56.92107],[14.79714,56.92109],[14.79707,56.92255],[14.79587,56.92251],[14.79584,56.92277],[14.79418,56.92279],[14.7931,56.92322],[14.79272,56.92318],[14.79176,56.92522],[14.78368,56.92426],[14.78101,56.92668],[14.77948,56.92736],[14.78083,56.92835],[14.78227,56.92903],[14.78475,56.92982],[14.78719,56.93024],[14.78917,56.93033],[14.79168,56.93014],[14.79347,56.92977],[14.79565,56.92901],[14.79814,56.92925],[14.79523,56.93086],[14.79336,56.93301],[14.79144,56.93369],[14.78957,56.93475],[14.78851,56.93571],[14.78765,56.9371],[14.78744,56.93831],[14.78778,56.93976],[14.78915,56.94201],[14.78963,56.94374],[14.79144,56.94552],[14.79434,56.94682],[14.79813,56.94746],[14.80234,56.94741],[14.80481,56.94695],[14.80653,56.94637],[14.80895,56.94495],[14.81044,56.94318],[14.81278,56.9417],[14.8155,56.93882],[14.81636,56.93823],[14.81982,56.93661],[14.82515,56.93158],[14.82748,56.93041],[14.82883,56.92919]]]}}]}