{"type":"FeatureCollection","features":[{"type":"Feature","id":"0781R001","properties":{"code":"0781R001","name":"Angelstad-Bolmen"},"geometry":{"type":"Polygon","coordinates":[[[13.74726,57.0372],[13.76024,57.03563],[13.75456,57.02883],[13.76223,57.02581],[13.77632,57.02422],[13.79801,57.02598],[13.80249,57.02877],[13.82197,57.00798],[13.82292,57.00314],[13.82274,57.00267],[13.82386,57.00182],[13.82183,56.99973],[13.82053,56.9995],[13.81877,56.9983],[13.81873,56.99656],[13.81757,56.99525],[13.81696,56.99368],[13.81592,56.98991],[13.81594,56.98876],[13.81847,56.98677],[13.81992,56.98595],[13.82304,56.98477],[13.82713,56.98355],[13.8288,56.98326],[13.83009,56.98366],[13.83161,56.9835],[13.83186,56.98318],[13.84177,56.98183],[13.84533,56.98073],[13.83731,56.96295],[13.83787,56.96262],[13.83347,56.96183],[13.8317,56.96037],[13.83169,56.95989],[13.83113,56.95945],[13.82888,56.95866],[13.82812,56.95759],[13.82739,56.95768],[13.82683,56.95742],[13.8255,56.95553],[13.82415,56.95466],[13.82099,56.9535],[13.81983,56.95289],[13.81766,56.95074],[13.81698,56.94981],[13.81704,56.94934],[13.81646,56.94901],[13.81504,56.94874],[13.81334,56.94766],[13.81206,56.94635],[13.81051,56.94615],[13.80961,56.94567],[13.80966,56.94503],[13.80875,56.94394],[13.80341,56.94102],[13.79951,56.93446],[13.79469,56.93251],[13.79394,56.9316],[13.79393,56.93123],[13.79337,56.93082],[13.79335,56.93044],[13.79386,56.92912],[13.79705,56.92949],[13.83551,56.93011],[13.83813,56.91026],[13.83719,56.88877],[13.8412,56.88222],[13.85883,56.87691],[13.86713,56.87533],[13.85822,56.86953],[13.84666,56.86342],[13.84265,56.85772],[13.8426,56.85755],[13.84341,56.85712],[13.84016,56.85398],[13.84371,56.8529],[13.84324,56.85212],[13.83936,56.85324],[13.83294,56.84692],[13.83892,56.8451],[13.83933,56.84558],[13.86024,56.8359],[13.86094,56.83109],[13.84825,56.82708],[13.84783,56.82534],[13.84662,56.82442],[13.84632,56.82381],[13.84556,56.82332],[13.84509,56.82253],[13.84331,56.82088],[13.84163,56.81996],[13.83969,56.81849],[13.83624,56.81791],[13.83514,56.81739],[13.83395,56.81643],[13.83302,56.81615],[13.83214,56.80934],[13.8397,56.80244],[13.84172,56.79495],[13.84252,56.79547],[13.84302,56.79555],[13.84461,56.79384],[13.84351,56.79313],[13.84512,56.7923],[13.84453,56.79195],[13.84355,56.79188],[13.84255,56.79292],[13.84117,56.79261],[13.83983,56.79398],[13.83956,56.79388],[13.84032,56.79235],[13.84047,56.7913],[13.84143,56.7915],[13.83934,56.78812],[13.83183,56.77941],[13.83326,56.77827],[13.83291,56.77779],[13.8319,56.77704],[13.83055,56.77681],[13.8293,56.77608],[13.8288,56.77537],[13.82811,56.77529],[13.82802,56.77463],[13.82766,56.77446],[13.82882,56.77409],[13.82944,56.77363],[13.83119,56.77053],[13.83216,56.77001],[13.83478,56.76943],[13.8366,56.76931],[13.86524,56.76533],[13.83558,56.74426],[13.83212,56.745],[13.81359,56.74263],[13.78334,56.7407],[13.78309,56.74105],[13.78261,56.74105],[13.78216,56.74047],[13.78395,56.73995],[13.78575,56.73803],[13.78766,56.73726],[13.78803,56.73675],[13.78682,56.73568],[13.78635,56.73348],[13.78145,56.72981],[13.78136,56.72877],[13.7536,56.72977],[13.71912,56.72372],[13.71353,56.71841],[13.68756,56.71768],[13.67041,56.71738],[13.66497,56.71958],[13.64647,56.72577],[13.64034,56.72846],[13.63293,56.73065],[13.63377,56.73192],[13.63548,56.73183],[13.63602,56.73214],[13.63047,56.73836],[13.61486,56.742],[13.59895,56.74485],[13.59635,56.74598],[13.59382,56.7466],[13.59366,56.74869],[13.59233,56.75039],[13.56908,56.75109],[13.55626,56.74445],[13.55551,56.74414],[13.5553,56.74426],[13.55572,56.74481],[13.555,56.74478],[13.55241,56.74364],[13.55157,56.74366],[13.55119,56.74318],[13.55072,56.74311],[13.55053,56.74258],[13.55002,56.74245],[13.54993,56.74218],[13.54894,56.74201],[13.5472,56.74277],[13.5469,56.75032],[13.54705,56.75045],[13.54761,56.7504],[13.54824,56.75097],[13.54919,56.75107],[13.54955,56.75144],[13.55106,56.75176],[13.55183,56.75213],[13.55273,56.75315],[13.55206,56.75364],[13.55208,56.75386],[13.54982,56.754],[13.54529,56.75968],[13.5413,56.76043],[13.53262,56.75647],[13.53089,56.75447],[13.5301,56.75464],[13.52972,56.75409],[13.52851,56.75484],[13.5266,56.75504],[13.51401,56.75319],[13.50991,56.75818],[13.51005,56.7591],[13.51965,56.76548],[13.52349,56.77231],[13.52059,56.77522],[13.50866,56.7849],[13.50813,56.78567],[13.50848,56.79071],[13.55722,56.79208],[13.55841,56.79254],[13.55955,56.79267],[13.56071,56.79255],[13.56365,56.7912],[13.56516,56.79111],[13.56747,56.79189],[13.56894,56.79176],[13.57125,56.79246],[13.57219,56.79314],[13.57231,56.79492],[13.57203,56.79606],[13.57299,56.79686],[13.57297,56.79723],[13.5748,56.79784],[13.57586,56.79742],[13.57645,56.79784],[13.57643,56.7983],[13.57767,56.79861],[13.57736,56.79906],[13.57812,56.79884],[13.5787,56.79941],[13.57958,56.79949],[13.58024,56.79931],[13.58058,56.79964],[13.58183,56.79991],[13.58234,56.8002],[13.58317,56.80001],[13.58371,56.80009],[13.58401,56.8007],[13.58453,56.80089],[13.58584,56.8009],[13.58641,56.80044],[13.5883,56.80081],[13.59062,56.80305],[13.59404,56.8037],[13.59679,56.8046],[13.59693,56.80386],[13.59742,56.80346],[13.60109,56.80374],[13.60851,56.80394],[13.61363,56.80624],[13.62058,56.80779],[13.64279,56.82024],[13.68273,56.8431],[13.69514,56.85653],[13.67357,56.86244],[13.66206,56.89054],[13.66291,56.89827],[13.66204,56.91355],[13.66602,56.9209],[13.68742,56.92681],[13.68487,56.93182],[13.6889,56.9371],[13.68218,56.93967],[13.68155,56.9422],[13.68409,56.94494],[13.68917,56.94624],[13.69357,56.96354],[13.6807,56.9721],[13.69142,56.97604],[13.69255,56.9886],[13.7096,57.00463],[13.71262,57.01796],[13.73312,57.036],[13.74688,57.03852],[13.74726,57.0372]]]}},{"type":"Feature","id":"0781R002","properties":{"code":"0781R002","name":"Annelund"},"geometry":{"type":"Polygon","coordinates":[[[13.93657,56.85974],[13.93917,56.85947],[13.94214,56.85876],[13.94424,56.85888],[13.94686,56.8587],[13.94929,56.85821],[13.95148,56.85744],[13.95327,56.85637],[13.95685,56.85322],[13.95781,56.85153],[13.95802,56.84945],[13.9551,56.84992],[13.95146,56.8463],[13.94481,56.84215],[13.94322,56.84082],[13.93619,56.8427],[13.93411,56.84092],[13.9333,56.84049],[13.93376,56.84019],[13.9289,56.83789],[13.92843,56.83811],[13.92673,56.8371],[13.92504,56.83823],[13.92413,56.83778],[13.92145,56.83725],[13.91911,56.83736],[13.91895,56.83675],[13.91728,56.83651],[13.91553,56.83703],[13.91262,56.83465],[13.91092,56.83514],[13.915,56.83843],[13.92025,56.84133],[13.91193,56.84627],[13.91113,56.84626],[13.90998,56.84737],[13.90629,56.84949],[13.90661,56.84985],[13.90816,56.85103],[13.91382,56.85388],[13.91557,56.85437],[13.91756,56.85468],[13.9213,56.85595],[13.9232,56.85625],[13.92564,56.85634],[13.92826,56.8581],[13.93097,56.85913],[13.93398,56.85965],[13.93657,56.85974]]]}},{"type":"Feature","id":"0781R003","properties":{"code":"0781R003","name":"Ekebacken"},"geometry":{"type":"Polygon","coordinates":[[[13.94418,56.83203],[13.94941,56.83053],[13.94877,56.83035],[13.94711,56.83027],[13.94441,56.82879],[13.94284,56.8289],[13.94329,56.82843],[13.94421,56.82817],[13.94485,56.82761],[13.94636,56.82699],[13.94638,56.82669],[13.94572,56.82638],[13.94642,56.82603],[13.94683,56.82558],[13.94644,56.82536],[13.94733,56.82512],[13.94722,56.82481],[13.94785,56.82431],[13.94559,56.82159],[13.94453,56.82095],[13.9477,56.81919],[13.94168,56.81697],[13.93644,56.81341],[13.93395,56.8133],[13.93078,56.81282],[13.93028,56.81295],[13.93006,56.81268],[13.92491,56.81315],[13.92851,56.81804],[13.92812,56.81871],[13.92718,56.81928],[13.92652,56.82002],[13.9275,56.82175],[13.93013,56.82327],[13.93303,56.82418],[13.93532,56.82543],[13.93582,56.82598],[13.93567,56.82657],[13.93622,56.82713],[13.93758,56.82739],[13.93796,56.8283],[13.93927,56.82927],[13.93893,56.82971],[13.94045,56.83163],[13.94321,56.83093],[13.94418,56.83203]]]}},{"type":"Feature","id":"0781R004","properties":{"code":"0781R004","name":"Hamneda-Kånna"},"geometry":{"type":"Polygon","coordinates":[[[13.92458,56.87969],[13.92742,56.87814],[13.92687,56.87806],[13.94083,56.8692],[13.97719,56.85361],[13.97734,56.85449],[13.97816,56.85537],[13.97799,56.85561],[13.97652,56.85606],[13.97659,56.85684],[13.97709,56.85731],[13.98065,56.85914],[13.98174,56.86064],[13.98289,56.86165],[13.99241,56.86115],[13.99349,56.8634],[13.99621,56.86273],[14.00411,56.8625],[14.00376,56.86062],[14.00975,56.86034],[14.01009,56.8612],[14.011,56.86165],[14.0127,56.86196],[14.0181,56.86356],[14.02036,56.86319],[14.01919,56.86264],[14.01805,56.86243],[14.0155,56.85946],[14.01528,56.85888],[14.01726,56.85933],[14.01823,56.8589],[14.0171,56.85822],[14.01475,56.85522],[14.01324,56.85554],[14.01148,56.8533],[14.00287,56.85444],[14.00185,56.85167],[14.01036,56.85202],[14.00953,56.8509],[14.00939,56.85024],[14.00788,56.84826],[14.00947,56.84721],[14.01143,56.84648],[14.00944,56.84067],[14.01506,56.84036],[14.01632,56.84005],[14.0169,56.83873],[14.01648,56.83742],[14.01902,56.83658],[14.01591,56.83164],[14.01142,56.83245],[14.0103,56.832],[14.00939,56.83132],[14.00834,56.82849],[14.00767,56.82794],[14.00705,56.82676],[14.02092,56.82643],[14.00648,56.81662],[13.99758,56.81628],[13.99712,56.81609],[13.9945,56.81158],[13.99296,56.81047],[13.99532,56.80999],[13.99893,56.80873],[13.99958,56.8091],[14.01158,56.80627],[14.01176,56.8065],[14.01202,56.80647],[14.01223,56.80638],[14.01203,56.80617],[14.02951,56.80035],[14.03225,56.80389],[14.04117,56.80615],[14.04061,56.80773],[14.04254,56.80762],[14.04753,56.80806],[14.04784,56.80886],[14.05174,56.81408],[14.06188,56.81264],[14.06396,56.8108],[14.06343,56.80893],[14.07816,56.80069],[14.08958,56.79552],[14.08968,56.79682],[14.08925,56.79739],[14.09557,56.79639],[14.09655,56.79598],[14.09719,56.79522],[14.09774,56.79502],[14.10136,56.79431],[14.10351,56.79509],[14.10605,56.79449],[14.11108,56.794],[14.09492,56.78053],[14.09233,56.77364],[14.09199,56.77176],[14.09189,56.76725],[14.09108,56.76542],[14.09246,56.76472],[14.08892,56.76057],[14.0944,56.75776],[14.09566,56.75687],[14.09576,56.75646],[14.09253,56.75529],[14.09058,56.75525],[14.0911,56.75488],[14.09138,56.75415],[14.09049,56.75132],[14.08856,56.75088],[14.08748,56.75033],[14.08646,56.7502],[14.08483,56.74963],[14.07736,56.75005],[14.07724,56.73693],[14.07803,56.73595],[14.07774,56.73495],[14.07404,56.73197],[14.07004,56.72662],[14.06315,56.7255],[14.0492,56.71931],[14.04696,56.70921],[14.03995,56.69876],[14.03757,56.69725],[14.03204,56.6956],[14.03007,56.69337],[14.02526,56.69095],[14.01914,56.68647],[14.01708,56.6861],[14.00901,56.68304],[13.99148,56.67732],[13.9735,56.67185],[13.9897,56.66601],[13.96777,56.62673],[13.9553,56.62918],[13.95095,56.6292],[13.94115,56.63038],[13.93879,56.62962],[13.9368,56.62977],[13.932,56.63393],[13.91757,56.63716],[13.91081,56.63919],[13.90678,56.63608],[13.90443,56.63272],[13.89278,56.62408],[13.88778,56.62301],[13.88432,56.61884],[13.87952,56.61924],[13.87642,56.61886],[13.87455,56.61783],[13.87397,56.61673],[13.87089,56.61564],[13.87002,56.61552],[13.86757,56.61412],[13.86146,56.61213],[13.85922,56.61234],[13.85184,56.6105],[13.85092,56.60982],[13.84645,56.6084],[13.84455,56.60639],[13.84184,56.60493],[13.83621,56.60332],[13.83473,56.60413],[13.83457,56.60487],[13.79894,56.60796],[13.79273,56.6058],[13.78048,56.60361],[13.7769,56.60086],[13.77223,56.60172],[13.77246,56.6034],[13.77403,56.60393],[13.77458,56.60463],[13.77451,56.60502],[13.77088,56.60878],[13.76876,56.61031],[13.76524,56.61554],[13.76319,56.6171],[13.76023,56.61999],[13.76024,56.62054],[13.7627,56.62385],[13.76339,56.62597],[13.76332,56.62658],[13.76282,56.62719],[13.76267,56.62869],[13.76164,56.62977],[13.76239,56.63248],[13.76191,56.63318],[13.76078,56.63384],[13.76038,56.63443],[13.76068,56.635],[13.76132,56.63546],[13.76311,56.63598],[13.76365,56.63649],[13.76377,56.63704],[13.76096,56.64145],[13.76059,56.64303],[13.76123,56.64342],[13.76406,56.64342],[13.76493,56.64358],[13.76738,56.64442],[13.76822,56.64431],[13.76937,56.64366],[13.76994,56.64355],[13.77085,56.64381],[13.77018,56.64538],[13.769,56.64624],[13.76934,56.64711],[13.76824,56.64813],[13.768,56.65059],[13.76928,56.65154],[13.77034,56.65399],[13.77045,56.65559],[13.76995,56.65696],[13.77035,56.65751],[13.77017,56.65778],[13.76917,56.65809],[13.76411,56.65662],[13.7638,56.65733],[13.76709,56.659],[13.76648,56.65929],[13.76601,56.66007],[13.76527,56.66065],[13.76443,56.66271],[13.76347,56.66361],[13.76166,56.66452],[13.75593,56.66676],[13.75858,56.67338],[13.75675,56.67636],[13.76419,56.67773],[13.8095,56.68871],[13.81462,56.69435],[13.81954,56.70063],[13.81946,56.72054],[13.81594,56.72189],[13.80786,56.72168],[13.80664,56.72377],[13.80643,56.72481],[13.80686,56.72559],[13.80826,56.72721],[13.81147,56.72765],[13.81152,56.72781],[13.8121,56.72792],[13.81267,56.72777],[13.81541,56.7278],[13.81612,56.72802],[13.81878,56.728],[13.82025,56.72778],[13.82093,56.72787],[13.82268,56.7275],[13.8225,56.72696],[13.82912,56.72725],[13.83366,56.74007],[13.83558,56.74426],[13.86524,56.76533],[13.8366,56.76931],[13.83478,56.76943],[13.83216,56.77001],[13.83119,56.77053],[13.82944,56.77363],[13.82882,56.77409],[13.82766,56.77446],[13.82802,56.77463],[13.82811,56.77529],[13.8288,56.77537],[13.8293,56.77608],[13.83055,56.77681],[13.8319,56.77704],[13.83291,56.77779],[13.83326,56.77827],[13.83183,56.77941],[13.83934,56.78812],[13.84143,56.7915],[13.84047,56.7913],[13.84032,56.79235],[13.83956,56.79388],[13.83983,56.79398],[13.84117,56.79261],[13.84255,56.79292],[13.84355,56.79188],[13.84453,56.79195],[13.84512,56.7923],[13.84351,56.79313],[13.84461,56.79384],[13.84302,56.79555],[13.84252,56.79547],[13.84172,56.79495],[13.8397,56.80244],[13.83214,56.80934],[13.83302,56.81615],[13.83395,56.81643],[13.83514,56.81739],[13.83624,56.81791],[13.83969,56.81849],[13.84163,56.81996],[13.84331,56.82088],[13.84509,56.82253],[13.84556,56.82332],[13.84632,56.82381],[13.84662,56.82442],[13.84783,56.82534],[13.84825,56.82708],[13.86094,56.83109],[13.86024,56.8359],[13.83933,56.84558],[13.83892,56.8451],[13.83294,56.84692],[13.83936,56.85324],[13.84324,56.85212],[13.84371,56.8529],[13.84016,56.85398],[13.84341,56.85712],[13.84296,56.85738],[13.88946,56.86729],[13.90343,56.8787],[13.90636,56.87827],[13.90697,56.87786],[13.90672,56.87709],[13.90693,56.87618],[13.90724,56.87621],[13.90741,56.87583],[13.90862,56.87233],[13.90812,56.8701],[13.90765,56.86977],[13.91171,56.86924],[13.91323,56.8696],[13.91582,56.87069],[13.91615,56.87065],[13.91763,56.87204],[13.91938,56.87311],[13.91938,56.87342],[13.91997,56.87376],[13.92064,56.87466],[13.92173,56.87502],[13.92127,56.8767],[13.92173,56.8772],[13.92195,56.87813],[13.92458,56.87969]],[[13.93532,56.85974],[13.93229,56.85942],[13.92988,56.85879],[13.92782,56.85786],[13.92564,56.85634],[13.9232,56.85625],[13.9213,56.85595],[13.91756,56.85468],[13.91557,56.85437],[13.91382,56.85388],[13.90959,56.8518],[13.9073,56.85045],[13.90607,56.8492],[13.9052,56.84765],[13.90473,56.84532],[13.90394,56.84342],[13.9045,56.84129],[13.90626,56.83957],[13.90395,56.83714],[13.90231,56.83583],[13.90033,56.83338],[13.89737,56.83266],[13.89532,56.83172],[13.89367,56.83045],[13.89273,56.82907],[13.89233,56.82736],[13.89293,56.82492],[13.89388,56.82344],[13.8957,56.82204],[13.89536,56.82045],[13.89425,56.81872],[13.89405,56.81684],[13.8934,56.81478],[13.8936,56.81331],[13.89439,56.81193],[13.89455,56.80994],[13.89371,56.80793],[13.89411,56.80604],[13.89585,56.80412],[13.8992,56.80218],[13.90136,56.80147],[13.90633,56.8006],[13.90977,56.80036],[13.913,56.8007],[13.91553,56.80142],[13.91841,56.80279],[13.92186,56.80375],[13.92366,56.80474],[13.92492,56.80594],[13.92561,56.80729],[13.92569,56.80844],[13.92862,56.80816],[13.93238,56.80838],[13.93956,56.80984],[13.94225,56.81071],[13.94419,56.81164],[13.94618,56.81142],[13.94871,56.81147],[13.95114,56.81186],[13.95283,56.81237],[13.95471,56.81329],[13.95583,56.81415],[13.95684,56.81547],[13.95717,56.81652],[13.96137,56.81797],[13.96449,56.81932],[13.96754,56.81988],[13.97108,56.82102],[13.97745,56.82433],[13.9786,56.8252],[13.97959,56.82648],[13.98129,56.82738],[13.98623,56.8308],[13.9884,56.8327],[13.98942,56.83403],[13.98986,56.83532],[13.98974,56.83674],[13.98784,56.84005],[13.98568,56.84192],[13.9834,56.84325],[13.98294,56.84378],[13.98249,56.84519],[13.9814,56.84651],[13.97676,56.84934],[13.97507,56.84999],[13.97303,56.85048],[13.9704,56.85075],[13.96835,56.8507],[13.96513,56.85019],[13.95815,56.84807],[13.95795,56.85104],[13.95721,56.85274],[13.956,56.85408],[13.95198,56.85719],[13.94985,56.85805],[13.94686,56.8587],[13.94424,56.85888],[13.94214,56.85876],[13.93852,56.85958],[13.93532,56.85974]]]}},{"type":"Feature","id":"0781R005","properties":{"code":"0781R005","name":"Hångers"},"geometry":{"type":"Polygon","coordinates":[[[13.94941,56.83053],[13.95441,56.8287],[13.9571,56.82814],[13.98128,56.82737],[13.97959,56.82648],[13.9786,56.8252],[13.97745,56.82433],[13.97173,56.82129],[13.96811,56.82002],[13.96449,56.81932],[13.96137,56.81797],[13.95717,56.81652],[13.95684,56.81547],[13.95583,56.81415],[13.95471,56.81329],[13.95283,56.81237],[13.95114,56.81186],[13.94871,56.81147],[13.94618,56.81142],[13.94419,56.81164],[13.94225,56.81071],[13.93956,56.80984],[13.93238,56.80838],[13.92862,56.80816],[13.92569,56.80844],[13.92535,56.80661],[13.92366,56.80474],[13.92136,56.80354],[13.91841,56.80279],[13.91758,56.80238],[13.91771,56.80346],[13.91844,56.80394],[13.92011,56.80381],[13.92071,56.804],[13.9207,56.80444],[13.9194,56.80516],[13.91964,56.80637],[13.92303,56.80934],[13.92398,56.81111],[13.92355,56.81224],[13.92491,56.81315],[13.93006,56.81268],[13.93028,56.81295],[13.93078,56.81282],[13.93395,56.8133],[13.93644,56.81341],[13.94168,56.81697],[13.9477,56.81919],[13.94453,56.82095],[13.94559,56.82159],[13.94785,56.82431],[13.94722,56.82481],[13.94733,56.82512],[13.94644,56.82536],[13.94683,56.82558],[13.94642,56.82603],[13.94572,56.82638],[13.94638,56.82669],[13.94636,56.82699],[13.94485,56.82761],[13.94421,56.82817],[13.94329,56.82843],[13.94284,56.8289],[13.94441,56.82879],[13.94748,56.83035],[13.94857,56.83032],[13.94941,56.83053]]]}},{"type":"Feature","id":"0781R006","properties":{"code":"0781R006","name":"Kungshög"},"geometry":{"type":"Polygon","coordinates":[[[13.94842,56.84437],[13.94964,56.8438],[13.94686,56.841],[13.95052,56.83908],[13.94741,56.83671],[13.94601,56.835],[13.94619,56.83489],[13.9451,56.83379],[13.94377,56.83309],[13.94217,56.83574],[13.93997,56.8377],[13.93657,56.83465],[13.93313,56.83309],[13.92673,56.8371],[13.92843,56.83811],[13.9289,56.83789],[13.93376,56.84019],[13.9333,56.84049],[13.93411,56.84092],[13.93619,56.8427],[13.94322,56.84082],[13.94544,56.84255],[13.94842,56.84437]]]}},{"type":"Feature","id":"0781R007","properties":{"code":"0781R007","name":"Lagan"},"geometry":{"type":"Polygon","coordinates":[[[13.99243,56.9296],[13.99752,56.92929],[14.00048,56.92859],[14.00239,56.92771],[14.00537,56.92584],[14.00678,56.92456],[14.00947,56.92397],[14.01319,56.92246],[14.0163,56.92173],[14.02171,56.9198],[14.02363,56.91844],[14.02482,56.91704],[14.0253,56.91525],[14.02606,56.9139],[14.0263,56.91208],[14.02575,56.91067],[14.02457,56.90938],[14.02287,56.90831],[14.02069,56.90749],[14.01757,56.90693],[14.01379,56.90683],[14.01048,56.90637],[14.00781,56.90632],[14.0054,56.90596],[14.00343,56.90589],[14.00116,56.90607],[13.99898,56.9037],[13.9961,56.90211],[13.99234,56.90122],[13.98872,56.90109],[13.9867,56.90129],[13.98389,56.90189],[13.98223,56.90247],[13.98026,56.90348],[13.97708,56.90327],[13.97451,56.90349],[13.97263,56.9039],[13.96858,56.90529],[13.96618,56.90669],[13.96405,56.90882],[13.96319,56.91018],[13.96299,56.91163],[13.96369,56.91557],[13.96478,56.91834],[13.96535,56.9211],[13.9663,56.92248],[13.96795,56.92375],[13.97082,56.92521],[13.97323,56.92604],[13.97578,56.92649],[13.97865,56.92656],[13.98083,56.92746],[13.983,56.92795],[13.98462,56.92864],[13.98696,56.92924],[13.98914,56.92952],[13.99243,56.9296]]]}},{"type":"Feature","id":"0781R008","properties":{"code":"0781R008","name":"Lidhult-Odensjö-Torpa"},"geometry":{"type":"Polygon","coordinates":[[[13.66204,56.91355],[13.66291,56.89827],[13.66206,56.89054],[13.67357,56.86244],[13.69514,56.85653],[13.68273,56.8431],[13.64279,56.82024],[13.62058,56.80779],[13.61363,56.80624],[13.60851,56.80394],[13.60109,56.80374],[13.59742,56.80346],[13.59693,56.80386],[13.59679,56.8046],[13.59404,56.8037],[13.59062,56.80305],[13.5883,56.80081],[13.58641,56.80044],[13.58584,56.8009],[13.58453,56.80089],[13.58401,56.8007],[13.58371,56.80009],[13.58317,56.80001],[13.58234,56.8002],[13.58183,56.79991],[13.58058,56.79964],[13.58024,56.79931],[13.57958,56.79949],[13.5787,56.79941],[13.57812,56.79884],[13.57736,56.79906],[13.57767,56.79861],[13.57643,56.7983],[13.57645,56.79784],[13.57586,56.79742],[13.5748,56.79784],[13.57297,56.79723],[13.57299,56.79686],[13.57203,56.79606],[13.57231,56.79492],[13.57219,56.79314],[13.57125,56.79246],[13.56894,56.79176],[13.56747,56.79189],[13.56516,56.79111],[13.56365,56.7912],[13.56071,56.79255],[13.55955,56.79267],[13.55841,56.79254],[13.55722,56.79208],[13.50848,56.79071],[13.50813,56.78567],[13.50866,56.7849],[13.52059,56.77522],[13.52349,56.77231],[13.51965,56.76548],[13.51005,56.7591],[13.50991,56.75818],[13.51401,56.75319],[13.5266,56.75504],[13.52851,56.75484],[13.52972,56.75409],[13.5301,56.75464],[13.53089,56.75447],[13.53262,56.75647],[13.5413,56.76043],[13.54529,56.75968],[13.54982,56.754],[13.55208,56.75386],[13.55206,56.75364],[13.55273,56.75315],[13.55183,56.75213],[13.55106,56.75176],[13.54955,56.75144],[13.54919,56.75107],[13.54824,56.75097],[13.54761,56.7504],[13.54705,56.75045],[13.5469,56.75032],[13.5472,56.74277],[13.54894,56.74201],[13.54993,56.74218],[13.55002,56.74245],[13.55053,56.74258],[13.55072,56.74311],[13.55119,56.74318],[13.55157,56.74366],[13.55241,56.74364],[13.555,56.74478],[13.55572,56.74481],[13.5553,56.74426],[13.55551,56.74414],[13.55626,56.74445],[13.56908,56.75109],[13.59233,56.75039],[13.59366,56.74869],[13.59382,56.7466],[13.59635,56.74598],[13.59895,56.74485],[13.61486,56.742],[13.63047,56.73836],[13.63602,56.73214],[13.63548,56.73183],[13.63377,56.73192],[13.63293,56.73065],[13.64034,56.72846],[13.64647,56.72577],[13.66497,56.71958],[13.67041,56.71738],[13.68756,56.71768],[13.71353,56.71841],[13.71912,56.72372],[13.7536,56.72977],[13.78136,56.72877],[13.78145,56.72981],[13.78635,56.73348],[13.78682,56.73568],[13.78803,56.73675],[13.78766,56.73726],[13.78575,56.73803],[13.78395,56.73995],[13.78216,56.74047],[13.78261,56.74105],[13.78309,56.74105],[13.78334,56.7407],[13.81359,56.74263],[13.83212,56.745],[13.83558,56.74426],[13.83366,56.74007],[13.82912,56.72725],[13.8225,56.72696],[13.82268,56.7275],[13.82093,56.72787],[13.82025,56.72778],[13.81878,56.728],[13.81612,56.72802],[13.81541,56.7278],[13.81267,56.72777],[13.8121,56.72792],[13.81152,56.72781],[13.81147,56.72765],[13.80826,56.72721],[13.80643,56.72481],[13.80664,56.72377],[13.80786,56.72168],[13.81594,56.72189],[13.81946,56.72054],[13.81954,56.70063],[13.81462,56.69435],[13.8095,56.68871],[13.76419,56.67773],[13.75675,56.67636],[13.75611,56.67741],[13.74867,56.67592],[13.71617,56.65378],[13.71619,56.65359],[13.71473,56.65285],[13.71558,56.65236],[13.71541,56.6519],[13.71291,56.65069],[13.71265,56.64999],[13.71137,56.64969],[13.70997,56.64859],[13.70871,56.64847],[13.70663,56.64657],[13.70533,56.64678],[13.70408,56.64645],[13.63907,56.6491],[13.62186,56.65026],[13.61605,56.64815],[13.61261,56.64824],[13.61151,56.64872],[13.60993,56.64903],[13.60951,56.64946],[13.60847,56.64969],[13.6079,56.64949],[13.60776,56.64873],[13.60731,56.64866],[13.60641,56.64881],[13.60601,56.6494],[13.60763,56.65184],[13.60649,56.65332],[13.60729,56.654],[13.60814,56.65432],[13.60526,56.65361],[13.60497,56.6539],[13.60455,56.6538],[13.60438,56.65391],[13.60456,56.65447],[13.60615,56.65533],[13.60576,56.65568],[13.60591,56.65613],[13.60523,56.65613],[13.60509,56.65645],[13.60428,56.65681],[13.60504,56.65749],[13.60588,56.65772],[13.60598,56.65933],[13.60626,56.65958],[13.60591,56.65995],[13.60654,56.66032],[13.60622,56.66036],[13.60501,56.65989],[13.60413,56.65906],[13.60276,56.65835],[13.60165,56.65807],[13.60002,56.65835],[13.59713,56.65977],[13.59562,56.65988],[13.59432,56.65977],[13.59443,56.65867],[13.59436,56.65814],[13.59383,56.65735],[13.59379,56.65666],[13.59336,56.65599],[13.59415,56.65515],[13.59415,56.65497],[13.59389,56.65452],[13.59346,56.65424],[13.59407,56.65497],[13.59328,56.65599],[13.59376,56.65736],[13.59428,56.65814],[13.59418,56.66071],[13.59108,56.66258],[13.58462,56.66423],[13.58336,56.66405],[13.5819,56.66431],[13.58159,56.6648],[13.5832,56.66612],[13.57677,56.66767],[13.56543,56.6685],[13.5471,56.66934],[13.52992,56.66653],[13.52211,56.66593],[13.50669,56.66071],[13.50371,56.65491],[13.49771,56.64799],[13.49673,56.64622],[13.49477,56.6448],[13.48737,56.6424],[13.4862,56.63923],[13.48587,56.63913],[13.4857,56.63875],[13.48624,56.63711],[13.48449,56.63572],[13.48067,56.63513],[13.47784,56.63046],[13.47853,56.6266],[13.47293,56.62541],[13.47372,56.6243],[13.46718,56.62405],[13.46046,56.622],[13.45532,56.62096],[13.45441,56.62055],[13.45184,56.62021],[13.45154,56.61901],[13.45064,56.6182],[13.43413,56.61317],[13.41573,56.61023],[13.40787,56.60867],[13.39758,56.60885],[13.39727,56.61574],[13.39566,56.61761],[13.39299,56.61952],[13.39273,56.62017],[13.39306,56.6207],[13.38055,56.63561],[13.37895,56.63652],[13.37597,56.64611],[13.37122,56.65182],[13.36414,56.6651],[13.32827,56.68769],[13.32669,56.68734],[13.32498,56.68662],[13.32481,56.68636],[13.32376,56.68625],[13.31968,56.68712],[13.31905,56.68712],[13.31887,56.6873],[13.31609,56.68792],[13.31318,56.68791],[13.31208,56.6877],[13.31143,56.68722],[13.3108,56.68718],[13.30998,56.68618],[13.30861,56.68554],[13.30779,56.68547],[13.31588,56.69227],[13.31665,56.70128],[13.31532,56.70191],[13.31513,56.70231],[13.31717,56.70356],[13.32007,56.70437],[13.32177,56.70514],[13.32239,56.7061],[13.3238,56.70656],[13.32511,56.70757],[13.32497,56.70922],[13.31712,56.71952],[13.3165,56.73029],[13.31825,56.74],[13.3198,56.75865],[13.31887,56.78224],[13.31502,56.79392],[13.30493,56.80404],[13.3031,56.8095],[13.30149,56.8092],[13.29971,56.81418],[13.30087,56.81384],[13.30154,56.81414],[13.29816,56.82365],[13.30455,56.8259],[13.30657,56.82685],[13.31091,56.82793],[13.31461,56.82923],[13.31608,56.82999],[13.32308,56.83228],[13.32779,56.83439],[13.33269,56.83596],[13.33791,56.83824],[13.33705,56.84098],[13.33461,56.84389],[13.33462,56.84421],[13.33822,56.84448],[13.3399,56.85004],[13.33411,56.8516],[13.3373,56.85563],[13.33151,56.86185],[13.33259,56.86413],[13.33377,56.86464],[13.33394,56.86497],[13.3353,56.86524],[13.33447,56.86652],[13.33482,56.86717],[13.33461,56.86829],[13.33548,56.87007],[13.33463,56.87416],[13.33853,56.87243],[13.34046,56.87229],[13.34113,56.8726],[13.34208,56.87271],[13.34432,56.87269],[13.34543,56.87167],[13.34541,56.8707],[13.34484,56.87003],[13.34573,56.86969],[13.34564,56.86928],[13.34602,56.8688],[13.34721,56.86882],[13.34755,56.86869],[13.3478,56.86814],[13.34553,56.86606],[13.3453,56.86534],[13.34584,56.86485],[13.34541,56.86448],[13.34569,56.86399],[13.34624,56.86387],[13.34818,56.86415],[13.34997,56.86328],[13.35157,56.86356],[13.35252,56.86341],[13.35375,56.86224],[13.35391,56.86152],[13.35481,56.86061],[13.35449,56.86013],[13.35483,56.8588],[13.35564,56.85828],[13.35745,56.85789],[13.35896,56.85729],[13.36051,56.85842],[13.36424,56.85926],[13.37278,56.86273],[13.37598,56.8633],[13.3816,56.86464],[13.38597,56.86615],[13.38937,56.86696],[13.3904,56.86713],[13.39631,56.86712],[13.40299,56.8692],[13.40415,56.87005],[13.4042,56.87037],[13.40507,56.87059],[13.40647,56.87076],[13.41047,56.87036],[13.41365,56.87121],[13.4178,56.86955],[13.42086,56.86953],[13.42354,56.86977],[13.42697,56.86913],[13.42923,56.86928],[13.43222,56.86904],[13.43655,56.87185],[13.43838,56.87564],[13.44369,56.8798],[13.44694,56.87971],[13.44893,56.87924],[13.44984,56.8794],[13.45074,56.87933],[13.45165,56.87955],[13.45279,56.87939],[13.4546,56.87966],[13.45534,56.88012],[13.45617,56.87995],[13.45985,56.88053],[13.46072,56.87898],[13.46046,56.87814],[13.46698,56.87656],[13.46996,56.87859],[13.47411,56.87559],[13.47155,56.87558],[13.46864,56.87409],[13.47089,56.873],[13.47129,56.87029],[13.47345,56.87109],[13.48199,56.87234],[13.48727,56.87106],[13.48754,56.8714],[13.48891,56.87206],[13.49441,56.87428],[13.49633,56.87495],[13.49709,56.87501],[13.49795,56.8755],[13.50027,56.87597],[13.50106,56.8764],[13.50173,56.87649],[13.50194,56.87682],[13.50285,56.87715],[13.50358,56.87713],[13.50395,56.87773],[13.5048,56.87758],[13.50593,56.87827],[13.50787,56.87898],[13.50892,56.87982],[13.51007,56.88017],[13.51045,56.88083],[13.51142,56.88143],[13.51321,56.88212],[13.51403,56.88217],[13.51447,56.88333],[13.51518,56.88393],[13.51724,56.88484],[13.51848,56.88589],[13.51987,56.88647],[13.52164,56.88778],[13.5229,56.88808],[13.52371,56.88808],[13.52379,56.88792],[13.52385,56.88835],[13.52439,56.8886],[13.52639,56.88883],[13.52711,56.88924],[13.52766,56.88923],[13.52802,56.88949],[13.52774,56.88971],[13.52808,56.89034],[13.52988,56.89129],[13.53646,56.89131],[13.53869,56.88687],[13.5438,56.88693],[13.55517,56.89283],[13.55711,56.89283],[13.55879,56.89358],[13.55932,56.89364],[13.56146,56.89291],[13.56278,56.89171],[13.56415,56.89118],[13.57661,56.88928],[13.58227,56.89007],[13.58705,56.89217],[13.59024,56.8922],[13.60363,56.89724],[13.61817,56.90859],[13.6234,56.90756],[13.62672,56.90796],[13.66204,56.91355]]]}},{"type":"Feature","id":"0781R009","properties":{"code":"0781R009","name":"Ljungby centrum"},"geometry":{"type":"Polygon","coordinates":[[[13.93997,56.8377],[13.94231,56.83556],[13.94339,56.83399],[13.94418,56.83203],[13.94321,56.83093],[13.94045,56.83163],[13.93893,56.82971],[13.93927,56.82927],[13.93796,56.8283],[13.93758,56.82739],[13.93622,56.82713],[13.93567,56.82657],[13.93582,56.82598],[13.93532,56.82543],[13.93303,56.82418],[13.93013,56.82327],[13.9275,56.82175],[13.92652,56.82002],[13.92718,56.81928],[13.92812,56.81871],[13.92851,56.81804],[13.92491,56.81315],[13.92355,56.81224],[13.92398,56.81111],[13.92303,56.80934],[13.91964,56.80637],[13.9194,56.80516],[13.9207,56.80444],[13.92071,56.804],[13.92011,56.80381],[13.91844,56.80394],[13.91771,56.80346],[13.91758,56.80238],[13.91431,56.80101],[13.91163,56.80049],[13.90835,56.80038],[13.91229,56.80374],[13.91468,56.80648],[13.91562,56.80887],[13.91662,56.81361],[13.91625,56.81396],[13.91686,56.81469],[13.91772,56.81982],[13.9172,56.82414],[13.91834,56.82657],[13.91993,56.8281],[13.92236,56.82943],[13.92481,56.83028],[13.92943,56.83119],[13.93253,56.83282],[13.93569,56.83414],[13.93759,56.83545],[13.93997,56.8377]]]}},{"type":"Feature","id":"0781R010","properties":{"code":"0781R010","name":"Replösa"},"geometry":{"type":"Polygon","coordinates":[[[13.9738,56.85033],[13.97723,56.84911],[13.98102,56.84681],[13.98227,56.84554],[13.9834,56.84325],[13.98568,56.84192],[13.98784,56.84005],[13.98943,56.83743],[13.98988,56.83603],[13.98966,56.83459],[13.98871,56.83302],[13.98586,56.83052],[13.98128,56.82737],[13.95821,56.82805],[13.95621,56.82825],[13.95477,56.8286],[13.94925,56.83071],[13.94953,56.83094],[13.95002,56.83089],[13.95114,56.83121],[13.95178,56.83166],[13.95191,56.83221],[13.95712,56.83246],[13.9613,56.83327],[13.96344,56.83429],[13.96387,56.83485],[13.96357,56.83576],[13.96398,56.8371],[13.96554,56.83908],[13.96793,56.84081],[13.96825,56.84229],[13.96947,56.84352],[13.97134,56.84479],[13.97143,56.84544],[13.97003,56.84705],[13.97012,56.84769],[13.97109,56.84877],[13.97202,56.849],[13.9738,56.85033]]]}},{"type":"Feature","id":"0781R011","properties":{"code":"0781R011","name":"Ryssby-Agunnaryd"},"geometry":{"type":"Polygon","coordinates":[[[14.18643,56.96551],[14.19177,56.95781],[14.21613,56.95496],[14.21532,56.95466],[14.21475,56.95378],[14.21541,56.95397],[14.21569,56.95393],[14.21565,56.95373],[14.21473,56.95356],[14.21413,56.95268],[14.21322,56.95237],[14.21337,56.95215],[14.21241,56.95108],[14.21411,56.95077],[14.21285,56.95005],[14.21241,56.94846],[14.21391,56.9463],[14.20929,56.94525],[14.20994,56.94453],[14.21114,56.9445],[14.21236,56.94393],[14.21468,56.94353],[14.21507,56.94292],[14.21471,56.9397],[14.21404,56.93891],[14.21223,56.93838],[14.2132,56.9377],[14.21666,56.93629],[14.22082,56.93568],[14.21898,56.93219],[14.22543,56.91132],[14.22645,56.91111],[14.22628,56.91044],[14.22844,56.90828],[14.23187,56.90658],[14.23159,56.9057],[14.24335,56.89601],[14.24386,56.89598],[14.24532,56.895],[14.24583,56.89456],[14.24572,56.89407],[14.24625,56.89365],[14.25584,56.88674],[14.26967,56.8834],[14.29804,56.87919],[14.2992,56.87921],[14.29805,56.87833],[14.29873,56.8779],[14.29861,56.87769],[14.29896,56.87746],[14.29887,56.87688],[14.29789,56.87652],[14.29771,56.8761],[14.29769,56.87563],[14.29827,56.87544],[14.29821,56.87503],[14.29854,56.87493],[14.29836,56.87431],[14.29804,56.87429],[14.29764,56.87386],[14.29893,56.8734],[14.29882,56.87287],[14.29942,56.87271],[14.29941,56.87171],[14.29886,56.87076],[14.29922,56.86947],[14.29955,56.86924],[14.2984,56.86838],[14.29706,56.8681],[14.29661,56.86824],[14.29616,56.86877],[14.29541,56.86902],[14.2946,56.86876],[14.29362,56.86877],[14.29297,56.86773],[14.29152,56.86657],[14.29157,56.86366],[14.29301,56.86251],[14.29422,56.85932],[14.28997,56.85],[14.28615,56.84434],[14.27841,56.84337],[14.2814,56.84081],[14.27974,56.83745],[14.28748,56.83327],[14.28805,56.82987],[14.28827,56.82546],[14.291,56.82484],[14.29125,56.82426],[14.29266,56.82283],[14.29348,56.82253],[14.2952,56.82134],[14.29609,56.81811],[14.2959,56.81746],[14.3001,56.81552],[14.30081,56.81458],[14.30328,56.81409],[14.30279,56.81321],[14.30363,56.81083],[14.30218,56.81032],[14.3019,56.80987],[14.30239,56.80872],[14.30188,56.80625],[14.30049,56.80498],[14.29766,56.80505],[14.29742,56.80254],[14.29564,56.80184],[14.29513,56.80137],[14.2957,56.80093],[14.29505,56.80026],[14.29506,56.79989],[14.29616,56.79882],[14.29554,56.79802],[14.29433,56.79758],[14.29444,56.79693],[14.29489,56.79666],[14.29441,56.79506],[14.29488,56.79463],[14.29499,56.79409],[14.29459,56.79383],[14.29327,56.79101],[14.29654,56.78921],[14.29631,56.78836],[14.29613,56.78807],[14.29572,56.78803],[14.29557,56.78816],[14.29546,56.78805],[14.29554,56.78751],[14.29342,56.7873],[14.29284,56.7868],[14.29234,56.78672],[14.29156,56.78692],[14.28989,56.78588],[14.28974,56.78552],[14.28999,56.78547],[14.29049,56.78456],[14.29032,56.78357],[14.28896,56.78103],[14.28944,56.78023],[14.28867,56.77971],[14.28883,56.77877],[14.28852,56.77861],[14.28911,56.77738],[14.28885,56.77738],[14.28896,56.77715],[14.28839,56.7769],[14.28776,56.77519],[14.28602,56.76799],[14.28703,56.76449],[14.28684,56.75769],[14.28936,56.75207],[14.28838,56.74309],[14.27722,56.7354],[14.2758,56.73275],[14.26636,56.72572],[14.26361,56.72614],[14.26266,56.72525],[14.26178,56.72493],[14.2604,56.72398],[14.2602,56.72301],[14.25963,56.72253],[14.2574,56.72223],[14.25425,56.72151],[14.25225,56.72193],[14.25147,56.72187],[14.25043,56.7215],[14.24777,56.72103],[14.24481,56.71948],[14.24285,56.71881],[14.24209,56.71802],[14.24202,56.71664],[14.2403,56.71571],[14.2397,56.71502],[14.23978,56.71203],[14.23882,56.70941],[14.23824,56.70912],[14.23831,56.70857],[14.2358,56.7026],[14.20553,56.68975],[14.1977,56.67438],[14.1442,56.66523],[14.1301,56.66228],[14.12646,56.66233],[14.12264,56.66377],[14.1218,56.66462],[14.12164,56.66588],[14.12286,56.668],[14.12294,56.66913],[14.12241,56.66984],[14.12155,56.66994],[14.12016,56.66954],[14.11874,56.66942],[14.1173,56.66873],[14.1152,56.66897],[14.11143,56.66884],[14.10992,56.66837],[14.10913,56.66844],[14.10857,56.66871],[14.11001,56.67126],[14.11007,56.67287],[14.11045,56.67393],[14.10962,56.67524],[14.1092,56.6778],[14.10799,56.68057],[14.10772,56.68507],[14.10514,56.68486],[14.10382,56.68518],[14.10246,56.68514],[14.10121,56.68492],[14.09754,56.68378],[14.09019,56.67845],[14.08983,56.68204],[14.09041,56.68253],[14.09169,56.68494],[14.09024,56.68866],[14.09186,56.68885],[14.09288,56.69127],[14.09292,56.69213],[14.09208,56.69261],[14.09117,56.69268],[14.08976,56.69137],[14.08821,56.69182],[14.086,56.69441],[14.08557,56.69554],[14.08497,56.69614],[14.08674,56.69772],[14.08531,56.69817],[14.0856,56.69865],[14.0872,56.70016],[14.08896,56.69963],[14.08934,56.69994],[14.08992,56.70004],[14.08663,56.70098],[14.08673,56.70121],[14.08444,56.70506],[14.08054,56.70582],[14.07923,56.70794],[14.07782,56.70875],[14.07572,56.70984],[14.06571,56.71392],[14.06312,56.71394],[14.06152,56.71414],[14.0581,56.71493],[14.04826,56.71481],[14.0492,56.71931],[14.06315,56.7255],[14.07004,56.72662],[14.07404,56.73197],[14.07774,56.73495],[14.07803,56.73595],[14.07724,56.73693],[14.07736,56.75005],[14.08483,56.74963],[14.08646,56.7502],[14.08748,56.75033],[14.08856,56.75088],[14.09049,56.75132],[14.09138,56.75415],[14.0911,56.75488],[14.09058,56.75525],[14.09253,56.75529],[14.09576,56.75646],[14.09566,56.75687],[14.0944,56.75776],[14.08892,56.76057],[14.09246,56.76472],[14.09108,56.76542],[14.09189,56.76725],[14.09199,56.77176],[14.09233,56.77364],[14.09492,56.78053],[14.11108,56.794],[14.10605,56.79449],[14.10351,56.79509],[14.10136,56.79431],[14.09774,56.79502],[14.09719,56.79522],[14.09655,56.79598],[14.09557,56.79639],[14.08925,56.79739],[14.08968,56.79682],[14.08958,56.79552],[14.07816,56.80069],[14.06343,56.80893],[14.06396,56.8108],[14.06188,56.81264],[14.05174,56.81408],[14.04784,56.80886],[14.04753,56.80806],[14.04254,56.80762],[14.04061,56.80773],[14.04117,56.80615],[14.03225,56.80389],[14.02951,56.80035],[14.01203,56.80617],[14.01223,56.80638],[14.01202,56.80647],[14.01176,56.8065],[14.01158,56.80627],[13.99958,56.8091],[13.99893,56.80873],[13.99532,56.80999],[13.99296,56.81047],[13.9945,56.81158],[13.99712,56.81609],[13.99758,56.81628],[14.00648,56.81662],[14.02092,56.82643],[14.00705,56.82676],[14.00767,56.82794],[14.00834,56.82849],[14.00939,56.83132],[14.0103,56.832],[14.01142,56.83245],[14.01591,56.83164],[14.01902,56.83658],[14.01648,56.83742],[14.0169,56.83873],[14.01632,56.84005],[14.01506,56.84036],[14.00944,56.84067],[14.01143,56.84648],[14.00947,56.84721],[14.00788,56.84826],[14.00939,56.85024],[14.00953,56.8509],[14.01036,56.85202],[14.00185,56.85167],[14.00287,56.85444],[14.01148,56.8533],[14.01324,56.85554],[14.01475,56.85522],[14.0171,56.85822],[14.01823,56.8589],[14.01726,56.85933],[14.01528,56.85888],[14.0155,56.85946],[14.01805,56.86243],[14.01919,56.86264],[14.02106,56.86354],[14.02302,56.86434],[14.02438,56.86466],[14.0251,56.8651],[14.02949,56.86685],[14.02899,56.86704],[14.02853,56.87045],[14.03713,56.87622],[14.04035,56.8763],[14.04135,56.87664],[14.05892,56.87835],[14.05948,56.87544],[14.08893,56.88493],[14.09389,56.89576],[14.09015,56.90003],[14.08892,56.90253],[14.08805,56.90645],[14.08844,56.90798],[14.08817,56.90886],[14.08732,56.90945],[14.0876,56.91003],[14.08732,56.91164],[14.08789,56.91299],[14.0902,56.91524],[14.09996,56.92208],[14.09882,56.92281],[14.09423,56.92454],[14.09542,56.92631],[14.11073,56.92524],[14.13387,56.92139],[14.13476,56.92276],[14.13708,56.92225],[14.13677,56.92333],[14.13801,56.92474],[14.1376,56.92552],[14.14154,56.92631],[14.14341,56.92724],[14.14299,56.92734],[14.14317,56.92743],[14.14577,56.92818],[14.14823,56.92948],[14.14914,56.93074],[14.14918,56.93165],[14.14837,56.93222],[14.14826,56.93263],[14.14883,56.93426],[14.14872,56.93538],[14.14933,56.9366],[14.1514,56.93682],[14.15347,56.93809],[14.15444,56.93976],[14.15468,56.94166],[14.15506,56.94225],[14.15538,56.94241],[14.15572,56.94232],[14.15797,56.9413],[14.16079,56.94216],[14.16198,56.94302],[14.16274,56.94316],[14.16343,56.94407],[14.16532,56.94535],[14.16539,56.94638],[14.16488,56.94707],[14.16634,56.94892],[14.16807,56.94957],[14.16818,56.95027],[14.16788,56.95079],[14.18643,56.96551]]]}},{"type":"Feature","id":"0781R012","properties":{"code":"0781R012","name":"Stensberg"},"geometry":{"type":"Polygon","coordinates":[[[13.90629,56.84949],[13.90998,56.84737],[13.91113,56.84626],[13.91193,56.84627],[13.92025,56.84133],[13.915,56.83843],[13.91092,56.83514],[13.91262,56.83465],[13.91553,56.83703],[13.91728,56.83651],[13.91895,56.83675],[13.91911,56.83736],[13.92145,56.83725],[13.92413,56.83778],[13.92504,56.83823],[13.93313,56.83309],[13.92943,56.83119],[13.92481,56.83028],[13.92236,56.82943],[13.91993,56.8281],[13.91834,56.82657],[13.9172,56.82414],[13.91772,56.81982],[13.91686,56.81469],[13.91625,56.81396],[13.91662,56.81361],[13.91562,56.80887],[13.91468,56.80648],[13.91229,56.80374],[13.90835,56.80038],[13.90194,56.80135],[13.8997,56.80198],[13.89799,56.80276],[13.89596,56.80405],[13.8943,56.80571],[13.8937,56.80758],[13.89388,56.8087],[13.89455,56.80994],[13.89439,56.81193],[13.8936,56.81331],[13.8934,56.81478],[13.89405,56.81684],[13.89425,56.81872],[13.89536,56.82045],[13.8957,56.82204],[13.89418,56.82314],[13.89332,56.82416],[13.89233,56.82736],[13.89273,56.82907],[13.89407,56.83083],[13.89686,56.83247],[13.90033,56.83338],[13.90231,56.83583],[13.90395,56.83714],[13.90626,56.83957],[13.9045,56.84129],[13.90394,56.84342],[13.90473,56.84532],[13.9052,56.84765],[13.90629,56.84949]]]}},{"type":"Feature","id":"0781R013","properties":{"code":"0781R013","name":"Vittaryd"},"geometry":{"type":"Polygon","coordinates":[[[14.01977,57.05057],[14.02272,57.05013],[14.02407,57.05181],[14.03595,57.05033],[14.04486,57.05054],[14.0641,57.04725],[14.07024,57.04644],[14.09101,57.04112],[14.10019,57.03488],[14.09481,57.03006],[14.09481,57.0211],[14.10569,57.02111],[14.10901,57.02208],[14.13235,57.02255],[14.15239,57.02941],[14.15796,57.01441],[14.15599,57.01443],[14.15599,57.01422],[14.15808,57.01397],[14.15824,57.01321],[14.15569,57.01088],[14.15258,57.00916],[14.15534,57.00552],[14.15327,57.00504],[14.15518,57.0027],[14.15527,57.00171],[14.15352,57.00058],[14.1531,56.99842],[14.1559,56.99849],[14.15995,56.99889],[14.16512,56.99595],[14.1688,56.9957],[14.16856,56.99509],[14.16909,56.99373],[14.17035,56.99228],[14.17125,56.99184],[14.17256,56.99165],[14.17288,56.99175],[14.17565,56.99023],[14.17795,56.98809],[14.18035,56.98871],[14.1889,56.96528],[14.18637,56.96558],[14.16817,56.95105],[14.16788,56.95079],[14.16818,56.95027],[14.16807,56.94957],[14.16634,56.94892],[14.16488,56.94707],[14.16539,56.94638],[14.16532,56.94535],[14.16343,56.94407],[14.16274,56.94316],[14.16198,56.94302],[14.16079,56.94216],[14.15797,56.9413],[14.15572,56.94232],[14.15538,56.94241],[14.15506,56.94225],[14.15468,56.94166],[14.15444,56.93976],[14.15347,56.93809],[14.1514,56.93682],[14.14933,56.9366],[14.14872,56.93538],[14.14883,56.93426],[14.14826,56.93263],[14.14837,56.93222],[14.14918,56.93165],[14.14914,56.93074],[14.14823,56.92948],[14.14577,56.92818],[14.14317,56.92743],[14.14299,56.92734],[14.14341,56.92724],[14.14154,56.92631],[14.1376,56.92552],[14.13801,56.92474],[14.13677,56.92333],[14.13708,56.92225],[14.13476,56.92276],[14.13387,56.92139],[14.11073,56.92524],[14.09542,56.92631],[14.09423,56.92454],[14.09882,56.92281],[14.09996,56.92208],[14.0902,56.91524],[14.08789,56.91299],[14.08732,56.91164],[14.0876,56.91003],[14.08732,56.90945],[14.08817,56.90886],[14.08844,56.90798],[14.08805,56.90645],[14.08892,56.90253],[14.09015,56.90003],[14.09389,56.89576],[14.08893,56.88493],[14.05948,56.87544],[14.05892,56.87835],[14.04135,56.87664],[14.04035,56.8763],[14.03713,56.87622],[14.02853,56.87045],[14.02899,56.86704],[14.02949,56.86685],[14.0251,56.8651],[14.02438,56.86466],[14.02302,56.86434],[14.02036,56.86319],[14.0181,56.86356],[14.0127,56.86196],[14.011,56.86165],[14.01009,56.8612],[14.00975,56.86034],[14.00376,56.86062],[14.00411,56.8625],[13.99621,56.86273],[13.99349,56.8634],[13.99241,56.86115],[13.98289,56.86165],[13.98174,56.86064],[13.98065,56.85914],[13.97709,56.85731],[13.97659,56.85684],[13.97652,56.85606],[13.97799,56.85561],[13.97816,56.85537],[13.97734,56.85449],[13.97719,56.85361],[13.94083,56.8692],[13.92687,56.87806],[13.92742,56.87814],[13.92458,56.87969],[13.92195,56.87813],[13.92173,56.8772],[13.92127,56.8767],[13.92173,56.87502],[13.92064,56.87466],[13.91997,56.87376],[13.91938,56.87342],[13.91938,56.87311],[13.91763,56.87204],[13.91615,56.87065],[13.91582,56.87069],[13.91323,56.8696],[13.91171,56.86924],[13.90765,56.86977],[13.90812,56.8701],[13.90862,56.87233],[13.90741,56.87583],[13.90724,56.87621],[13.90693,56.87618],[13.90672,56.87709],[13.90697,56.87786],[13.90636,56.87827],[13.90343,56.8787],[13.88946,56.86729],[13.84296,56.85738],[13.84265,56.85772],[13.84666,56.86342],[13.85822,56.86953],[13.86713,56.87533],[13.85883,56.87691],[13.8412,56.88222],[13.83719,56.88877],[13.83813,56.91026],[13.83551,56.93011],[13.79705,56.92949],[13.79386,56.92912],[13.79335,56.93044],[13.79337,56.93082],[13.79393,56.93123],[13.79394,56.9316],[13.79469,56.93251],[13.79951,56.93446],[13.80341,56.94102],[13.80875,56.94394],[13.80966,56.94503],[13.80961,56.94567],[13.81051,56.94615],[13.81206,56.94635],[13.81334,56.94766],[13.81504,56.94874],[13.81646,56.94901],[13.81704,56.94934],[13.81698,56.94981],[13.81766,56.95074],[13.81983,56.95289],[13.82099,56.9535],[13.82415,56.95466],[13.8255,56.95553],[13.82683,56.95742],[13.82739,56.95768],[13.82812,56.95759],[13.82888,56.95866],[13.83113,56.95945],[13.83169,56.95989],[13.8317,56.96037],[13.83347,56.96183],[13.83787,56.96262],[13.83731,56.96295],[13.84533,56.98073],[13.84177,56.98183],[13.83186,56.98318],[13.83161,56.9835],[13.83009,56.98366],[13.8288,56.98326],[13.82713,56.98355],[13.82304,56.98477],[13.81992,56.98595],[13.81847,56.98677],[13.81594,56.98876],[13.81592,56.98991],[13.81696,56.99368],[13.81757,56.99525],[13.81873,56.99656],[13.81877,56.9983],[13.82053,56.9995],[13.82183,56.99973],[13.82386,57.00182],[13.82274,57.00267],[13.82292,57.00314],[13.82197,57.00798],[13.83188,57.00603],[13.83381,57.00632],[13.8361,57.00539],[13.83648,57.00506],[13.83714,57.00512],[13.83841,57.00435],[13.83874,57.00444],[13.83973,57.00415],[13.84092,57.00277],[13.84251,57.00164],[13.84271,57.00112],[13.84232,57.00006],[13.84029,56.99897],[13.84115,56.9982],[13.84319,56.99789],[13.84427,56.99861],[13.84539,56.99888],[13.84901,56.99845],[13.85099,56.9989],[13.85164,56.99884],[13.85247,56.99832],[13.85438,56.99822],[13.85843,56.99946],[13.86782,57.01225],[13.87073,57.01245],[13.87275,57.01649],[13.87442,57.01839],[13.89094,57.01699],[13.91032,57.01842],[13.9243,57.02942],[13.92477,57.04059],[13.97569,57.04149],[13.98999,57.02935],[13.99507,57.03279],[14.00881,57.04354],[14.01207,57.04843],[14.0168,57.05182],[14.01977,57.05057]],[[13.99118,56.9296],[13.98852,56.92946],[13.98576,56.92898],[13.983,56.92795],[13.98029,56.92729],[13.97865,56.92656],[13.97578,56.92649],[13.97307,56.926],[13.97082,56.92521],[13.96754,56.92349],[13.96602,56.92217],[13.96522,56.92077],[13.96478,56.91834],[13.96369,56.91557],[13.96298,56.91159],[13.96319,56.91018],[13.96405,56.90882],[13.96654,56.90641],[13.96909,56.90508],[13.97268,56.90389],[13.97451,56.90349],[13.97708,56.90327],[13.98026,56.90348],[13.98223,56.90247],[13.98389,56.90189],[13.9867,56.90129],[13.98934,56.90106],[13.99312,56.90133],[13.9966,56.90231],[13.99898,56.9037],[14.00116,56.90607],[14.00473,56.90591],[14.00781,56.90632],[14.01048,56.90637],[14.01379,56.90683],[14.01673,56.90685],[14.01945,56.9072],[14.02128,56.90767],[14.02332,56.90854],[14.02493,56.90969],[14.02595,56.91102],[14.02633,56.91243],[14.02606,56.9139],[14.02461,56.91736],[14.02297,56.919],[14.02124,56.92002],[14.01625,56.92175],[14.01319,56.92246],[14.00936,56.92401],[14.00678,56.92456],[14.00537,56.92584],[14.00239,56.92771],[13.99994,56.92876],[13.9969,56.92936],[13.99118,56.9296]]]}},{"type":"Feature","id":"0781R014","properties":{"code":"0781R014","name":"Ågård-Hjortsberg"},"geometry":{"type":"Polygon","coordinates":[[[13.9704,56.85075],[13.9738,56.85033],[13.97202,56.849],[13.97109,56.84877],[13.97012,56.84769],[13.97003,56.84705],[13.97143,56.84544],[13.97134,56.84479],[13.96947,56.84352],[13.96825,56.84229],[13.96793,56.84081],[13.96554,56.83908],[13.96398,56.8371],[13.96357,56.83576],[13.96387,56.83485],[13.96344,56.83429],[13.9613,56.83327],[13.95712,56.83246],[13.95191,56.83221],[13.95144,56.83139],[13.95063,56.83102],[13.94953,56.83094],[13.94925,56.83071],[13.94941,56.83053],[13.94418,56.83203],[13.94377,56.83309],[13.94538,56.83402],[13.94741,56.83671],[13.95052,56.83908],[13.94686,56.841],[13.94964,56.8438],[13.94842,56.84437],[13.95193,56.84667],[13.9551,56.84992],[13.95802,56.84945],[13.95819,56.84808],[13.96571,56.85032],[13.96773,56.85065],[13.9704,56.85075]]]}}]}