{"type":"FeatureCollection","features":[{"type":"Feature","id":"0860R001","properties":{"code":"0860R001","name":"Hultsfreds tätort norra"},"geometry":{"type":"Polygon","coordinates":[[[15.86424,57.51697],[15.86766,57.51648],[15.87094,57.51528],[15.87272,57.51404],[15.87559,57.51089],[15.87618,57.50876],[15.87522,57.50491],[15.87637,57.50382],[15.87695,57.50284],[15.87716,57.50182],[15.87697,57.50061],[15.87839,57.49877],[15.87877,57.49655],[15.87789,57.49371],[15.87699,57.49273],[15.87509,57.49129],[15.87385,57.49052],[15.87111,57.48931],[15.8668,57.48793],[15.86231,57.48702],[15.86043,57.48686],[15.85811,57.48692],[15.85808,57.48679],[15.85752,57.4868],[15.8562,57.48814],[15.85222,57.48824],[15.84649,57.48777],[15.84516,57.48828],[15.84263,57.48876],[15.84271,57.48925],[15.84069,57.49219],[15.83991,57.49323],[15.83884,57.49404],[15.83077,57.49702],[15.82448,57.49984],[15.82282,57.50026],[15.81757,57.49934],[15.81568,57.49849],[15.81521,57.49863],[15.81304,57.50033],[15.81098,57.50129],[15.80737,57.49926],[15.80603,57.49901],[15.80275,57.50109],[15.8017,57.50204],[15.80091,57.50339],[15.80077,57.50484],[15.8013,57.50623],[15.80214,57.50723],[15.80515,57.50926],[15.80821,57.51029],[15.81025,57.51144],[15.81251,57.51217],[15.81508,57.51259],[15.8184,57.51259],[15.82157,57.5121],[15.82382,57.51139],[15.82864,57.51428],[15.83017,57.51498],[15.83317,57.51575],[15.83583,57.51599],[15.83908,57.51577],[15.84222,57.5151],[15.84441,57.5143],[15.84818,57.51238],[15.85004,57.51339],[15.8528,57.51428],[15.85485,57.51535],[15.85654,57.51593],[15.86071,57.51683],[15.86424,57.51697]]]}},{"type":"Feature","id":"0860R002","properties":{"code":"0860R002","name":"Hultsfreds tätort södra"},"geometry":{"type":"Polygon","coordinates":[[[15.81921,57.48964],[15.8208,57.49024],[15.82517,57.49022],[15.82636,57.48881],[15.82713,57.48891],[15.82838,57.48852],[15.84184,57.48881],[15.8439,57.4886],[15.84649,57.48777],[15.85222,57.48824],[15.8562,57.48814],[15.85752,57.4868],[15.85808,57.48679],[15.86064,57.48502],[15.86197,57.48298],[15.86202,57.48123],[15.86114,57.47946],[15.86102,57.47803],[15.85959,57.47602],[15.85746,57.47469],[15.85439,57.47358],[15.85126,57.47296],[15.84819,57.47286],[15.84624,57.4721],[15.84375,57.47157],[15.84113,57.47138],[15.83748,57.47155],[15.83502,57.47195],[15.83276,57.47259],[15.82792,57.47501],[15.82535,57.47747],[15.82311,57.48033],[15.82282,57.48179],[15.82309,57.48299],[15.82119,57.48419],[15.82006,57.48551],[15.81965,57.48656],[15.81958,57.48815],[15.81786,57.4894],[15.81691,57.49065],[15.81494,57.49202],[15.81921,57.48964]]]}},{"type":"Feature","id":"0860R003","properties":{"code":"0860R003","name":"Hultsfreds tätort västra"},"geometry":{"type":"Polygon","coordinates":[[[15.81181,57.50103],[15.81568,57.49849],[15.81757,57.49934],[15.82282,57.50026],[15.82585,57.49932],[15.83077,57.49702],[15.83884,57.49404],[15.83991,57.49323],[15.84069,57.49219],[15.84271,57.48925],[15.84263,57.48876],[15.83489,57.48875],[15.82838,57.48852],[15.82713,57.48891],[15.82636,57.48881],[15.82517,57.49022],[15.8208,57.49024],[15.81921,57.48964],[15.81494,57.49202],[15.81431,57.49258],[15.81289,57.49437],[15.81204,57.49673],[15.80826,57.49794],[15.80603,57.49901],[15.80737,57.49926],[15.81098,57.50129],[15.81181,57.50103]]]}},{"type":"Feature","id":"0860R004","properties":{"code":"0860R004","name":"Järnforsen-Målilla-Virserum landsbygd"},"geometry":{"type":"Polygon","coordinates":[[[15.7696,57.50591],[15.77472,57.50363],[15.77536,57.50283],[15.79399,57.50103],[15.79837,57.49964],[15.80024,57.49928],[15.80202,57.49827],[15.80603,57.49901],[15.80826,57.49794],[15.81204,57.49673],[15.81271,57.49471],[15.81356,57.49342],[15.81494,57.49202],[15.81691,57.49065],[15.81818,57.48911],[15.81958,57.48815],[15.81965,57.48656],[15.82029,57.48516],[15.82155,57.48391],[15.82309,57.48299],[15.82289,57.48101],[15.82386,57.47918],[15.82753,57.47528],[15.83118,57.47325],[15.83276,57.47259],[15.83502,57.47195],[15.83748,57.47155],[15.84113,57.47138],[15.8438,57.47157],[15.84624,57.4721],[15.84819,57.47286],[15.85126,57.47296],[15.85439,57.47358],[15.85793,57.47492],[15.85981,57.47622],[15.86068,57.46592],[15.86299,57.46267],[15.86234,57.46021],[15.86831,57.45673],[15.87714,57.45513],[15.92589,57.45119],[15.94138,57.45913],[15.96113,57.44767],[15.949,57.43923],[15.95537,57.4359],[15.95447,57.4349],[15.95518,57.43451],[15.95614,57.43432],[15.95688,57.43458],[15.95789,57.4338],[15.95826,57.43296],[15.96006,57.43207],[15.97174,57.43556],[15.98094,57.43854],[15.98146,57.43825],[15.98124,57.43809],[15.98229,57.43713],[15.98365,57.43764],[15.99296,57.43342],[15.98623,57.41348],[15.9836,57.41293],[15.98446,57.41174],[15.98915,57.4105],[15.99086,57.40966],[15.99213,57.40839],[16.00349,57.40621],[16.01059,57.40378],[16.01523,57.40383],[16.01668,57.40322],[15.99802,57.3901],[15.98925,57.40105],[15.96898,57.39582],[15.96754,57.39443],[15.96739,57.39312],[15.96554,57.39109],[15.96507,57.39124],[15.94944,57.38502],[15.94891,57.38539],[15.94287,57.38287],[15.94274,57.3833],[15.94191,57.38383],[15.94123,57.38397],[15.94016,57.38387],[15.94091,57.38316],[15.93384,57.37965],[15.92027,57.38469],[15.90904,57.37271],[15.8876,57.37346],[15.87878,57.37513],[15.86226,57.37422],[15.86074,57.37531],[15.84476,57.37367],[15.84253,57.37451],[15.84174,57.37568],[15.84012,57.37698],[15.84005,57.37869],[15.83938,57.38132],[15.83835,57.38264],[15.83698,57.38365],[15.83859,57.38516],[15.83922,57.38657],[15.83905,57.38967],[15.83849,57.39108],[15.83765,57.39206],[15.83617,57.39312],[15.83538,57.39554],[15.83416,57.39732],[15.83281,57.39869],[15.83001,57.40022],[15.82825,57.40074],[15.82572,57.40113],[15.82367,57.4012],[15.82107,57.40097],[15.81866,57.40039],[15.81696,57.39972],[15.81364,57.39983],[15.81024,57.39935],[15.80791,57.3986],[15.80554,57.39721],[15.80194,57.39659],[15.7978,57.39534],[15.79593,57.39431],[15.79451,57.39291],[15.79034,57.39232],[15.78623,57.39118],[15.78407,57.39198],[15.78159,57.39246],[15.77956,57.39259],[15.77639,57.39246],[15.77381,57.39204],[15.77197,57.39148],[15.76802,57.39096],[15.76569,57.39021],[15.76389,57.38923],[15.76169,57.38938],[15.75962,57.38929],[15.75702,57.38887],[15.7552,57.38831],[15.7521,57.38872],[15.7487,57.38863],[15.74588,57.38818],[15.74339,57.38737],[15.74031,57.38564],[15.73885,57.38387],[15.73847,57.3823],[15.73883,57.38077],[15.73853,57.37919],[15.73757,57.37724],[15.73738,57.37434],[15.73684,57.37312],[15.73678,57.37191],[15.73556,57.3706],[15.73426,57.36757],[15.7344,57.36611],[15.73528,57.36461],[15.73676,57.36334],[15.73873,57.36234],[15.74224,57.36137],[15.74551,57.3611],[15.75123,57.36156],[15.75537,57.36231],[15.75725,57.363],[15.75858,57.36374],[15.76165,57.36663],[15.76231,57.36872],[15.76208,57.36979],[15.76125,57.3711],[15.76206,57.37284],[15.76545,57.37335],[15.76864,57.37464],[15.77168,57.37481],[15.77412,57.37534],[15.77638,57.37624],[15.77822,57.37754],[15.78022,57.37792],[15.78191,57.37847],[15.78423,57.37837],[15.78704,57.37856],[15.79175,57.37842],[15.79654,57.37907],[15.79865,57.37811],[15.80125,57.37743],[15.80374,57.37718],[15.80822,57.37728],[15.80915,57.37684],[15.80975,57.37556],[15.81096,57.37436],[15.81281,57.37327],[15.81467,57.37262],[15.81588,57.3697],[15.8173,57.36817],[15.81957,57.36694],[15.82249,57.36614],[15.82241,57.36552],[15.82155,57.36415],[15.82135,57.36271],[15.82182,57.36131],[15.82305,57.35988],[15.82334,57.35884],[15.82486,57.3563],[15.82409,57.35449],[15.82293,57.3544],[15.82219,57.35466],[15.82164,57.35524],[15.82222,57.35577],[15.82202,57.35607],[15.82133,57.356],[15.82078,57.35544],[15.81998,57.35561],[15.81981,57.35594],[15.82048,57.3559],[15.82086,57.35612],[15.82064,57.35639],[15.81985,57.35658],[15.81948,57.35656],[15.81946,57.35605],[15.81899,57.35591],[15.81852,57.35597],[15.8186,57.35644],[15.81815,57.35654],[15.81738,57.35606],[15.81708,57.35686],[15.81648,57.3568],[15.81608,57.35695],[15.81591,57.35674],[15.81621,57.35603],[15.81558,57.35621],[15.81535,57.35586],[15.81465,57.35573],[15.81414,57.35538],[15.81389,57.35551],[15.8142,57.35597],[15.81329,57.35591],[15.8127,57.35635],[15.8122,57.35624],[15.81263,57.35586],[15.81234,57.35564],[15.80986,57.35586],[15.80918,57.35651],[15.80978,57.35733],[15.80927,57.35736],[15.80897,57.35709],[15.80846,57.35716],[15.80847,57.35647],[15.80723,57.35595],[15.80678,57.35483],[15.80624,57.35503],[15.80418,57.35423],[15.8044,57.35401],[15.80567,57.35398],[15.80586,57.35374],[15.80539,57.35365],[15.80478,57.35291],[15.80045,57.34937],[15.7946,57.34558],[15.78482,57.33722],[15.7731,57.33221],[15.74564,57.31282],[15.73137,57.32226],[15.7191,57.31664],[15.70195,57.31195],[15.6971,57.31034],[15.69465,57.30996],[15.69347,57.31011],[15.69196,57.30969],[15.69164,57.30978],[15.6912,57.30878],[15.69189,57.30799],[15.69117,57.30756],[15.69034,57.3065],[15.68854,57.3061],[15.68636,57.30616],[15.68555,57.30558],[15.68625,57.30516],[15.68608,57.30441],[15.68354,57.3019],[15.68305,57.29952],[15.68159,57.2978],[15.67872,57.29696],[15.67678,57.29675],[15.67428,57.29611],[15.67772,57.29414],[15.68053,57.29162],[15.68334,57.29021],[15.68581,57.28866],[15.68615,57.28831],[15.68538,57.28736],[15.68633,57.28635],[15.68567,57.28575],[15.6855,57.28443],[15.67213,57.2747],[15.67117,57.26836],[15.67353,57.26306],[15.67547,57.26331],[15.67964,57.26315],[15.68097,57.26228],[15.68404,57.26108],[15.67902,57.25811],[15.67839,57.25711],[15.67624,57.25688],[15.65006,57.25817],[15.63899,57.24905],[15.61965,57.23975],[15.61038,57.23413],[15.60077,57.22784],[15.59758,57.22386],[15.59275,57.21711],[15.59149,57.21717],[15.59085,57.21687],[15.59028,57.21691],[15.58568,57.21584],[15.58492,57.21545],[15.58103,57.21557],[15.58099,57.21464],[15.58337,57.21258],[15.5847,57.21053],[15.58573,57.20969],[15.58627,57.20847],[15.58616,57.20812],[15.58473,57.20818],[15.58423,57.20862],[15.58003,57.21014],[15.57783,57.21138],[15.57716,57.21206],[15.57578,57.21266],[15.56243,57.21513],[15.56214,57.2144],[15.56031,57.21482],[15.55696,57.21634],[15.55221,57.21696],[15.55148,57.21685],[15.55006,57.21505],[15.55035,57.21348],[15.5518,57.21111],[15.55083,57.21051],[15.55082,57.20989],[15.53621,57.19973],[15.52764,57.19245],[15.52909,57.19195],[15.52908,57.19158],[15.52837,57.19164],[15.52702,57.19203],[15.51851,57.20138],[15.51683,57.2016],[15.51419,57.20247],[15.51281,57.20379],[15.51275,57.20414],[15.51303,57.20576],[15.51403,57.20636],[15.51588,57.20642],[15.51595,57.20684],[15.51484,57.20853],[15.51738,57.20913],[15.51905,57.20901],[15.52016,57.21022],[15.52036,57.21064],[15.52011,57.2111],[15.52088,57.21292],[15.52062,57.2138],[15.52191,57.21467],[15.5223,57.21594],[15.52214,57.21634],[15.52356,57.21866],[15.52364,57.2196],[15.52393,57.22011],[15.52612,57.22168],[15.52621,57.22261],[15.52589,57.22333],[15.52665,57.22428],[15.52627,57.22456],[15.52735,57.22466],[15.52792,57.22518],[15.52768,57.22538],[15.52805,57.22576],[15.52693,57.22589],[15.52522,57.22813],[15.52451,57.2285],[15.52386,57.22925],[15.52446,57.22972],[15.52332,57.23104],[15.52347,57.23127],[15.52318,57.23162],[15.52358,57.23175],[15.52364,57.23234],[15.52399,57.23251],[15.52517,57.23286],[15.52693,57.23296],[15.52768,57.23362],[15.52332,57.23478],[15.5222,57.2358],[15.52196,57.23639],[15.52038,57.23797],[15.51961,57.23834],[15.51833,57.24],[15.51594,57.24172],[15.51667,57.24401],[15.50627,57.24806],[15.50403,57.24977],[15.50189,57.24948],[15.49898,57.24992],[15.49695,57.24922],[15.49512,57.24912],[15.49418,57.2488],[15.49117,57.249],[15.48946,57.24873],[15.48906,57.24928],[15.48792,57.24958],[15.4871,57.25049],[15.48529,57.25152],[15.48404,57.2531],[15.48248,57.25446],[15.48109,57.25505],[15.47838,57.25674],[15.47643,57.25867],[15.4732,57.26074],[15.46818,57.26268],[15.46728,57.26353],[15.46304,57.26539],[15.46114,57.26681],[15.4593,57.26781],[15.45907,57.26853],[15.4581,57.26896],[15.45752,57.26995],[15.45763,57.27015],[15.46203,57.27047],[15.46364,57.27087],[15.46652,57.27069],[15.47068,57.271],[15.47267,57.27148],[15.47345,57.27263],[15.47462,57.27212],[15.47511,57.27216],[15.47522,57.27247],[15.47457,57.27377],[15.47292,57.27473],[15.4729,57.27576],[15.47248,57.27642],[15.47367,57.27767],[15.4744,57.27901],[15.48066,57.27837],[15.48187,57.27841],[15.48225,57.27869],[15.48162,57.27999],[15.48035,57.28085],[15.47991,57.28182],[15.47828,57.28268],[15.477,57.28409],[15.47633,57.28633],[15.47355,57.28813],[15.47193,57.29012],[15.47023,57.29122],[15.47201,57.29232],[15.47217,57.29324],[15.46979,57.29561],[15.46908,57.29914],[15.46935,57.29983],[15.46877,57.30017],[15.46796,57.30126],[15.46905,57.30245],[15.46995,57.3028],[15.46905,57.30519],[15.46994,57.30647],[15.47029,57.30679],[15.47104,57.30679],[15.47338,57.30756],[15.47437,57.30833],[15.4751,57.30834],[15.47686,57.30895],[15.48086,57.30814],[15.48226,57.30848],[15.48295,57.30903],[15.48307,57.30984],[15.48662,57.31129],[15.4887,57.31167],[15.49238,57.31108],[15.4933,57.31029],[15.49459,57.30988],[15.49557,57.30926],[15.49675,57.30959],[15.49741,57.3102],[15.4988,57.31043],[15.50547,57.3099],[15.51319,57.30742],[15.51274,57.31258],[15.51337,57.31529],[15.5118,57.31968],[15.51259,57.32039],[15.51344,57.32323],[15.51459,57.32418],[15.51422,57.32635],[15.51273,57.32841],[15.51347,57.32988],[15.51325,57.33034],[15.51349,57.33088],[15.51461,57.33119],[15.5154,57.33173],[15.51494,57.33207],[15.5154,57.33252],[15.51529,57.33372],[15.51749,57.33513],[15.51897,57.33574],[15.51924,57.33664],[15.52039,57.33823],[15.52115,57.33839],[15.52165,57.33874],[15.52169,57.33963],[15.51977,57.34085],[15.5201,57.3411],[15.51997,57.34132],[15.51804,57.34223],[15.5172,57.34286],[15.51657,57.34301],[15.51611,57.34459],[15.51517,57.34521],[15.51417,57.34688],[15.51237,57.34775],[15.5117,57.34838],[15.51188,57.34909],[15.50988,57.35069],[15.51131,57.35161],[15.51073,57.35245],[15.51148,57.35342],[15.51169,57.3536],[15.51228,57.35363],[15.51269,57.35409],[15.51398,57.35436],[15.51436,57.35477],[15.51341,57.35625],[15.5134,57.35895],[15.51105,57.35982],[15.51029,57.36032],[15.50937,57.36152],[15.51206,57.36125],[15.51623,57.36139],[15.5171,57.36183],[15.51773,57.36261],[15.51801,57.36373],[15.51566,57.36381],[15.51293,57.36439],[15.51137,57.36511],[15.50848,57.36774],[15.49861,57.37076],[15.49515,57.37408],[15.49847,57.37384],[15.49998,57.37518],[15.50715,57.37974],[15.5125,57.38061],[15.51423,57.38112],[15.51735,57.38151],[15.52006,57.38253],[15.52074,57.38349],[15.5213,57.38379],[15.52353,57.38417],[15.52404,57.3844],[15.52113,57.39062],[15.52044,57.39132],[15.52098,57.39568],[15.52066,57.3998],[15.52107,57.40007],[15.52116,57.40062],[15.52039,57.40083],[15.5241,57.40612],[15.5279,57.40551],[15.52883,57.4059],[15.5288,57.40624],[15.52915,57.40638],[15.52778,57.40726],[15.52651,57.40778],[15.52494,57.40913],[15.52428,57.40938],[15.5216,57.40962],[15.52106,57.41044],[15.5207,57.41053],[15.51769,57.4108],[15.51531,57.4108],[15.51411,57.41063],[15.51211,57.41127],[15.50933,57.41161],[15.50719,57.41102],[15.5031,57.41048],[15.49868,57.41106],[15.49904,57.41221],[15.49788,57.4123],[15.49778,57.41248],[15.49774,57.41518],[15.49727,57.41556],[15.49617,57.42915],[15.49755,57.43228],[15.49832,57.43553],[15.49977,57.43887],[15.50053,57.44024],[15.50187,57.44178],[15.50428,57.44971],[15.50496,57.45725],[15.50916,57.45703],[15.51184,57.45634],[15.51142,57.45509],[15.51132,57.45201],[15.50799,57.44808],[15.50844,57.44799],[15.51181,57.45213],[15.51178,57.45508],[15.51213,57.45627],[15.51373,57.45584],[15.51403,57.45448],[15.51376,57.4542],[15.51411,57.4541],[15.52458,57.45707],[15.52704,57.45929],[15.52886,57.45901],[15.52997,57.45817],[15.53097,57.45875],[15.53106,57.45956],[15.53147,57.45997],[15.53294,57.46041],[15.53475,57.4606],[15.53575,57.46092],[15.53735,57.46187],[15.54171,57.46344],[15.54417,57.46392],[15.54821,57.46504],[15.54946,57.46766],[15.55068,57.46767],[15.5524,57.46825],[15.5528,57.46713],[15.55594,57.46505],[15.55968,57.46598],[15.56022,57.46556],[15.56114,57.46395],[15.56193,57.46315],[15.56141,57.46211],[15.56102,57.45697],[15.56492,57.45666],[15.56956,57.4549],[15.57291,57.45157],[15.5744,57.44869],[15.57727,57.44821],[15.58298,57.44845],[15.58379,57.44763],[15.59181,57.4446],[15.59425,57.44258],[15.5949,57.43957],[15.59513,57.43657],[15.5969,57.43492],[15.60523,57.43575],[15.60573,57.43602],[15.60631,57.43711],[15.60699,57.43721],[15.60848,57.43805],[15.60879,57.43921],[15.60966,57.43965],[15.60982,57.44044],[15.61113,57.44062],[15.61211,57.44052],[15.61391,57.44117],[15.61454,57.44326],[15.61535,57.44409],[15.61551,57.44508],[15.61722,57.44739],[15.61726,57.44815],[15.61792,57.44952],[15.61882,57.45079],[15.61968,57.4511],[15.62016,57.45167],[15.62035,57.45399],[15.61889,57.45572],[15.61884,57.45653],[15.61763,57.45826],[15.61768,57.45878],[15.61841,57.4597],[15.61816,57.46002],[15.61683,57.46064],[15.6165,57.46199],[15.61783,57.46408],[15.61888,57.46514],[15.61832,57.46567],[15.61852,57.46668],[15.61796,57.46806],[15.61826,57.4687],[15.61783,57.46936],[15.61793,57.46975],[15.6187,57.47008],[15.61904,57.47126],[15.61847,57.47235],[15.61854,57.47367],[15.62027,57.47545],[15.61892,57.47594],[15.6183,57.47689],[15.61918,57.47736],[15.62046,57.47765],[15.62043,57.47877],[15.61946,57.47972],[15.62174,57.48151],[15.62108,57.48194],[15.62167,57.48253],[15.62164,57.48338],[15.62231,57.48421],[15.62186,57.48482],[15.62203,57.48538],[15.6217,57.48583],[15.62251,57.48721],[15.62356,57.48795],[15.62361,57.48852],[15.62429,57.48923],[15.62689,57.49096],[15.63194,57.49171],[15.63768,57.49407],[15.63845,57.49392],[15.63961,57.49261],[15.64048,57.49242],[15.64135,57.49334],[15.64307,57.49441],[15.64354,57.49512],[15.64303,57.49561],[15.64473,57.49635],[15.64451,57.49655],[15.64665,57.49705],[15.64749,57.49774],[15.65072,57.4986],[15.66218,57.49877],[15.67814,57.48974],[15.68952,57.47773],[15.6948,57.47874],[15.70731,57.47809],[15.70875,57.47964],[15.71806,57.48419],[15.71795,57.48682],[15.71889,57.48809],[15.72123,57.48964],[15.72184,57.49129],[15.72617,57.49126],[15.727,57.49198],[15.72733,57.49191],[15.72816,57.49217],[15.72864,57.49205],[15.73035,57.49215],[15.73284,57.49163],[15.73411,57.49195],[15.73469,57.49247],[15.7371,57.49327],[15.75133,57.49536],[15.74164,57.50645],[15.74388,57.50679],[15.7696,57.50591]],[[15.58492,57.33364],[15.58228,57.3334],[15.57938,57.33265],[15.57794,57.33261],[15.57413,57.3332],[15.57117,57.33314],[15.56857,57.33272],[15.56593,57.33182],[15.56405,57.33201],[15.56142,57.332],[15.55946,57.33179],[15.55698,57.33123],[15.55433,57.33017],[15.55062,57.32791],[15.54769,57.32724],[15.54502,57.32601],[15.543,57.32406],[15.54254,57.32296],[15.5424,57.32141],[15.54274,57.3202],[15.54373,57.31884],[15.54532,57.31766],[15.5474,57.31672],[15.55219,57.31552],[15.55587,57.31525],[15.55779,57.31429],[15.56032,57.31355],[15.56295,57.3132],[15.56507,57.31318],[15.56491,57.312],[15.56384,57.31084],[15.56212,57.30998],[15.56103,57.30914],[15.55972,57.30702],[15.55964,57.3059],[15.56013,57.30446],[15.56094,57.30343],[15.56252,57.30224],[15.56475,57.30124],[15.56819,57.30043],[15.57106,57.30024],[15.57561,57.30042],[15.578,57.29847],[15.58011,57.29741],[15.58309,57.2966],[15.58675,57.29631],[15.58944,57.29651],[15.59194,57.29706],[15.59412,57.29793],[15.59558,57.29885],[15.59683,57.30015],[15.59737,57.30125],[15.59732,57.30431],[15.59988,57.30529],[15.60183,57.3067],[15.60277,57.30805],[15.60309,57.30981],[15.60446,57.3111],[15.60654,57.31135],[15.60915,57.31204],[15.61094,57.31281],[15.61262,57.31396],[15.61417,57.31588],[15.6154,57.31807],[15.61589,57.31995],[15.61501,57.32214],[15.61311,57.32376],[15.61111,57.32478],[15.60902,57.32553],[15.6065,57.32601],[15.60396,57.32614],[15.60277,57.32832],[15.60176,57.32919],[15.59997,57.33016],[15.59836,57.33071],[15.59371,57.33177],[15.5919,57.33262],[15.59014,57.33314],[15.58761,57.33353],[15.58492,57.33364]]]}},{"type":"Feature","id":"0860R005","properties":{"code":"0860R005","name":"Lönneberga-Silverdalen tätort-landsbygd"},"geometry":{"type":"Polygon","coordinates":[[[15.66626,57.59918],[15.66708,57.59852],[15.66984,57.59795],[15.67224,57.59798],[15.67288,57.59732],[15.67701,57.59579],[15.67873,57.59471],[15.67991,57.59477],[15.68062,57.59454],[15.68306,57.59295],[15.68492,57.59244],[15.68578,57.59198],[15.68743,57.5899],[15.68936,57.58954],[15.68971,57.58841],[15.69189,57.58734],[15.69284,57.58517],[15.69361,57.58483],[15.69395,57.58342],[15.69325,57.58178],[15.69422,57.5816],[15.69364,57.58024],[15.69383,57.57949],[15.69571,57.57788],[15.69503,57.57738],[15.69506,57.57711],[15.69649,57.57653],[15.6976,57.57566],[15.69917,57.57522],[15.69902,57.57421],[15.69934,57.57385],[15.70057,57.57417],[15.70119,57.57397],[15.72527,57.57837],[15.72711,57.57962],[15.72736,57.57958],[15.72962,57.58089],[15.73415,57.58109],[15.735,57.58082],[15.7357,57.58027],[15.7488,57.58271],[15.75335,57.57992],[15.75609,57.57854],[15.75899,57.57563],[15.76349,57.57291],[15.76473,57.57246],[15.76965,57.5725],[15.77036,57.57345],[15.77285,57.57243],[15.77379,57.57114],[15.77316,57.57068],[15.77304,57.56993],[15.77622,57.56726],[15.77734,57.56533],[15.78019,57.56342],[15.78093,57.56224],[15.78103,57.56108],[15.78058,57.55955],[15.78163,57.5586],[15.78195,57.55775],[15.78197,57.55715],[15.78132,57.55711],[15.78319,57.55393],[15.78456,57.55323],[15.78514,57.55183],[15.78644,57.55086],[15.78623,57.54996],[15.78754,57.54872],[15.78802,57.54761],[15.78953,57.54754],[15.79149,57.54772],[15.79322,57.54736],[15.79403,57.54745],[15.79496,57.54696],[15.79856,57.54493],[15.80293,57.54051],[15.80339,57.5394],[15.80682,57.53817],[15.80755,57.53746],[15.80904,57.5371],[15.8103,57.53652],[15.81103,57.53486],[15.81162,57.53423],[15.81629,57.53223],[15.82409,57.53238],[15.82682,57.53333],[15.82995,57.53276],[15.83256,57.53101],[15.83332,57.53083],[15.83378,57.52996],[15.83498,57.52962],[15.83733,57.52994],[15.8406,57.52994],[15.84048,57.52871],[15.83103,57.51884],[15.83173,57.51872],[15.83252,57.51823],[15.83281,57.51874],[15.83328,57.51866],[15.83307,57.51687],[15.83267,57.51635],[15.83287,57.51621],[15.83395,57.51624],[15.83413,57.51588],[15.83193,57.51551],[15.82962,57.51476],[15.82382,57.51139],[15.82098,57.51222],[15.81777,57.51264],[15.81508,57.51259],[15.81193,57.51202],[15.80972,57.5112],[15.80821,57.51029],[15.80515,57.50926],[15.80214,57.50723],[15.80084,57.5052],[15.80104,57.50306],[15.80236,57.50139],[15.80603,57.49901],[15.80202,57.49827],[15.80024,57.49928],[15.79837,57.49964],[15.79399,57.50103],[15.77536,57.50283],[15.77472,57.50363],[15.7696,57.50591],[15.74388,57.50679],[15.74164,57.50645],[15.75133,57.49536],[15.7371,57.49327],[15.73469,57.49247],[15.73411,57.49195],[15.73284,57.49163],[15.73035,57.49215],[15.72864,57.49205],[15.72816,57.49217],[15.72733,57.49191],[15.727,57.49198],[15.72617,57.49126],[15.72184,57.49129],[15.72123,57.48964],[15.71889,57.48809],[15.71795,57.48682],[15.71806,57.48419],[15.70875,57.47964],[15.70731,57.47809],[15.6948,57.47874],[15.68952,57.47773],[15.67814,57.48974],[15.66218,57.49877],[15.65164,57.49861],[15.65163,57.49904],[15.65434,57.50037],[15.65481,57.50112],[15.65416,57.50239],[15.65368,57.50246],[15.65185,57.50472],[15.64957,57.50549],[15.64683,57.5056],[15.64559,57.50654],[15.64448,57.50802],[15.63836,57.51251],[15.63481,57.52067],[15.63438,57.52542],[15.63497,57.52722],[15.6342,57.52941],[15.63273,57.52912],[15.62566,57.532],[15.62353,57.53356],[15.61623,57.53762],[15.61889,57.5393],[15.61699,57.5406],[15.61721,57.5417],[15.61514,57.54182],[15.61484,57.54108],[15.61382,57.54141],[15.61345,57.54204],[15.61222,57.54266],[15.60905,57.54313],[15.60753,57.54261],[15.6059,57.54286],[15.60519,57.5426],[15.60442,57.54261],[15.60377,57.54367],[15.60273,57.54404],[15.60101,57.54412],[15.5984,57.54577],[15.59419,57.5469],[15.59448,57.54725],[15.59352,57.54733],[15.59333,57.54777],[15.59271,57.54798],[15.59201,57.54794],[15.59162,57.54761],[15.58898,57.54756],[15.58719,57.54681],[15.5862,57.54668],[15.58594,57.54671],[15.58577,57.54711],[15.58532,57.54685],[15.58396,57.54753],[15.58204,57.54765],[15.58021,57.54742],[15.57863,57.54752],[15.57764,57.54785],[15.57711,57.54756],[15.57681,57.54768],[15.57651,57.5479],[15.57867,57.55033],[15.58281,57.55176],[15.58433,57.55313],[15.58492,57.55399],[15.58482,57.55473],[15.58663,57.55741],[15.59326,57.56109],[15.59728,57.56227],[15.59994,57.56348],[15.60355,57.5659],[15.60476,57.5677],[15.60691,57.56935],[15.60833,57.57131],[15.61216,57.57469],[15.61955,57.57959],[15.62089,57.581],[15.62445,57.58358],[15.62523,57.58541],[15.63075,57.58842],[15.63087,57.5931],[15.64156,57.58977],[15.64624,57.5907],[15.66567,57.59929],[15.66626,57.59918]]]}},{"type":"Feature","id":"0860R006","properties":{"code":"0860R006","name":"Målilla-Gårdveda-Rosenfors-Ämmenäs tätort"},"geometry":{"type":"Polygon","coordinates":[[[15.8244,57.4012],[15.82701,57.40098],[15.82887,57.40058],[15.83105,57.39978],[15.83241,57.39899],[15.83387,57.39766],[15.83532,57.39563],[15.83617,57.39312],[15.83765,57.39206],[15.83849,57.39108],[15.83905,57.38967],[15.83922,57.38657],[15.83859,57.38516],[15.83698,57.38365],[15.83835,57.38264],[15.83919,57.38165],[15.84004,57.37876],[15.84012,57.37698],[15.84174,57.37568],[15.84253,57.37451],[15.84461,57.37374],[15.84605,57.37288],[15.84825,57.37236],[15.84991,57.37171],[15.85164,57.37064],[15.85274,57.36949],[15.8553,57.36899],[15.85747,57.36819],[15.85923,57.3671],[15.86061,57.36548],[15.86096,57.36442],[15.86092,57.36302],[15.86051,57.36196],[15.85943,57.36067],[15.85728,57.35931],[15.85098,57.35688],[15.84897,57.35565],[15.84674,57.35487],[15.84331,57.35436],[15.84064,57.3535],[15.83731,57.35306],[15.8341,57.35298],[15.83204,57.35315],[15.82952,57.35368],[15.82765,57.35437],[15.8258,57.35545],[15.82471,57.35646],[15.82334,57.35884],[15.82305,57.35988],[15.82164,57.36167],[15.82137,57.36345],[15.82249,57.36614],[15.81957,57.36694],[15.81694,57.36846],[15.81588,57.3697],[15.81467,57.37262],[15.81281,57.37327],[15.81096,57.37436],[15.80975,57.37556],[15.80915,57.37684],[15.80822,57.37728],[15.80612,57.37715],[15.80186,57.37734],[15.79865,57.37811],[15.79654,57.37907],[15.79175,57.37842],[15.78704,57.37856],[15.78423,57.37837],[15.78191,57.37847],[15.78022,57.37792],[15.77822,57.37754],[15.77638,57.37624],[15.77412,57.37534],[15.77168,57.37481],[15.76864,57.37464],[15.76545,57.37335],[15.76206,57.37284],[15.76125,57.3711],[15.76208,57.36979],[15.76231,57.36872],[15.76163,57.3666],[15.75858,57.36374],[15.75675,57.36279],[15.7548,57.36215],[15.75185,57.36164],[15.74749,57.3612],[15.74419,57.36114],[15.74224,57.36137],[15.73995,57.36192],[15.73676,57.36334],[15.73556,57.36431],[15.73474,57.36535],[15.7343,57.36645],[15.73433,57.36791],[15.73556,57.3706],[15.73678,57.37191],[15.73684,57.37312],[15.73738,57.37434],[15.73757,57.37724],[15.73853,57.37919],[15.73883,57.38077],[15.73847,57.3823],[15.73885,57.38387],[15.74031,57.38564],[15.74339,57.38737],[15.74588,57.38818],[15.7487,57.38863],[15.7521,57.38872],[15.7552,57.38831],[15.75702,57.38887],[15.75962,57.38929],[15.76169,57.38938],[15.76389,57.38923],[15.76569,57.39021],[15.76802,57.39096],[15.77197,57.39148],[15.77381,57.39204],[15.77639,57.39246],[15.77956,57.39259],[15.78159,57.39246],[15.78407,57.39198],[15.78623,57.39118],[15.79034,57.39232],[15.79451,57.39291],[15.79593,57.39431],[15.7978,57.39534],[15.80194,57.39659],[15.80554,57.39721],[15.80729,57.39831],[15.80966,57.3992],[15.81284,57.39977],[15.81696,57.39972],[15.82046,57.40086],[15.8244,57.4012]]]}},{"type":"Feature","id":"0860R007","properties":{"code":"0860R007","name":"Mörlunda tätort-landsbygd"},"geometry":{"type":"Polygon","coordinates":[[[16.01668,57.40322],[16.01913,57.40309],[16.02606,57.39945],[16.02854,57.39681],[16.02239,57.39732],[16.0428,57.38057],[16.05317,57.35584],[16.04252,57.35303],[16.03791,57.35032],[16.04216,57.34406],[16.042,57.34265],[16.04094,57.33962],[16.04038,57.33871],[16.03993,57.33875],[16.04315,57.32436],[16.04293,57.32295],[16.04455,57.32183],[16.04385,57.32051],[16.04385,57.31873],[16.04474,57.317],[16.04464,57.31335],[16.04492,57.31297],[16.04418,57.3125],[16.04367,57.31139],[16.04386,57.31035],[16.04338,57.30946],[16.04376,57.30877],[16.04376,57.30766],[16.04318,57.3059],[16.04414,57.30281],[16.0445,57.30246],[16.04416,57.3013],[16.04583,57.29927],[16.04136,57.29732],[16.03984,57.29239],[16.04068,57.28693],[16.041,57.28644],[16.04085,57.28568],[16.04111,57.2847],[16.04076,57.28371],[16.04144,57.28174],[16.04203,57.28133],[16.04215,57.28082],[16.04226,57.27987],[16.04197,57.27969],[16.04182,57.2787],[16.04208,57.27851],[16.04173,57.27798],[16.04239,57.27675],[16.04232,57.2743],[16.04303,57.27333],[16.04298,57.27302],[16.04417,57.27224],[16.04383,57.27144],[16.04535,57.27021],[16.04629,57.26991],[16.04705,57.26833],[16.04994,57.26705],[16.04994,57.26662],[16.0506,57.26583],[16.04759,57.26517],[16.04653,57.26455],[16.04459,57.26434],[16.04376,57.26388],[16.04267,57.26378],[16.04174,57.2632],[16.04091,57.2632],[16.04026,57.26287],[16.03826,57.26244],[16.03757,57.26254],[16.03671,57.26197],[16.03663,57.26139],[16.03587,57.26124],[16.03486,57.26042],[16.03367,57.25983],[16.03282,57.25966],[16.03216,57.25967],[16.02966,57.26044],[16.02806,57.26146],[16.02657,57.26201],[16.02298,57.26261],[16.02103,57.26272],[16.02051,57.26227],[16.01817,57.26151],[16.01773,57.26103],[16.01334,57.25886],[15.99182,57.24979],[15.9766,57.24608],[15.97087,57.24735],[15.95623,57.25111],[15.93493,57.243],[15.93411,57.24486],[15.93282,57.24644],[15.93185,57.24738],[15.92825,57.24994],[15.92601,57.25114],[15.92305,57.25216],[15.91943,57.25304],[15.9156,57.25344],[15.91322,57.25399],[15.9112,57.25681],[15.88441,57.25179],[15.87808,57.249],[15.85207,57.24495],[15.80226,57.23911],[15.78615,57.23271],[15.78505,57.23165],[15.78518,57.23131],[15.786,57.23076],[15.78391,57.2276],[15.78725,57.22358],[15.78744,57.22274],[15.78866,57.22235],[15.78924,57.22125],[15.78988,57.22077],[15.78497,57.21599],[15.78584,57.21486],[15.78429,57.21362],[15.78571,57.21157],[15.78517,57.20888],[15.78567,57.20782],[15.78212,57.20834],[15.78136,57.20812],[15.78111,57.20751],[15.78004,57.20662],[15.7775,57.20586],[15.77645,57.20575],[15.77637,57.20526],[15.77684,57.20446],[15.77615,57.20366],[15.77515,57.20304],[15.77445,57.20301],[15.77315,57.20361],[15.77182,57.20389],[15.77114,57.20313],[15.76988,57.20296],[15.76988,57.2026],[15.76912,57.20222],[15.76935,57.20186],[15.76834,57.20158],[15.76454,57.20371],[15.76206,57.20703],[15.76118,57.20863],[15.75916,57.21038],[15.75882,57.2118],[15.75749,57.21326],[15.7568,57.21335],[15.75687,57.21379],[15.7564,57.21382],[15.74201,57.22066],[15.74314,57.22101],[15.74333,57.22163],[15.74371,57.22188],[15.74473,57.22196],[15.74621,57.22169],[15.747,57.22253],[15.74066,57.22529],[15.73873,57.2267],[15.73797,57.228],[15.73664,57.22911],[15.73508,57.22969],[15.73166,57.23045],[15.72959,57.23053],[15.72389,57.23174],[15.71896,57.23243],[15.7151,57.23283],[15.71292,57.23273],[15.71065,57.23287],[15.70594,57.23347],[15.69855,57.23362],[15.67605,57.22656],[15.67421,57.23087],[15.66948,57.23324],[15.66577,57.23308],[15.66494,57.2329],[15.66039,57.23304],[15.65899,57.23281],[15.65667,57.23488],[15.6568,57.23519],[15.65762,57.23563],[15.65753,57.236],[15.65609,57.23657],[15.65502,57.23624],[15.65333,57.23617],[15.64905,57.23658],[15.6427,57.23956],[15.63899,57.24905],[15.65006,57.25817],[15.67624,57.25688],[15.67839,57.25711],[15.67902,57.25811],[15.68404,57.26108],[15.68097,57.26228],[15.67964,57.26315],[15.67547,57.26331],[15.67353,57.26306],[15.67117,57.26836],[15.67213,57.2747],[15.6855,57.28443],[15.68567,57.28575],[15.68633,57.28635],[15.68538,57.28736],[15.68615,57.28831],[15.68581,57.28866],[15.68334,57.29021],[15.68053,57.29162],[15.67772,57.29414],[15.67428,57.29611],[15.67678,57.29675],[15.67872,57.29696],[15.68159,57.2978],[15.68305,57.29952],[15.68354,57.3019],[15.68608,57.30441],[15.68625,57.30516],[15.68555,57.30558],[15.68636,57.30616],[15.68854,57.3061],[15.69034,57.3065],[15.69117,57.30756],[15.69189,57.30799],[15.6912,57.30878],[15.69164,57.30978],[15.69196,57.30969],[15.69347,57.31011],[15.69465,57.30996],[15.6971,57.31034],[15.70195,57.31195],[15.7191,57.31664],[15.73137,57.32226],[15.74564,57.31282],[15.7731,57.33221],[15.78482,57.33722],[15.7946,57.34558],[15.80045,57.34937],[15.80478,57.35291],[15.80539,57.35365],[15.80586,57.35374],[15.80567,57.35398],[15.8044,57.35401],[15.80418,57.35423],[15.80624,57.35503],[15.80678,57.35483],[15.80723,57.35595],[15.80847,57.35647],[15.80846,57.35716],[15.80897,57.35709],[15.80927,57.35736],[15.80978,57.35733],[15.80918,57.35651],[15.80986,57.35586],[15.81234,57.35564],[15.81263,57.35586],[15.8122,57.35624],[15.8127,57.35635],[15.81329,57.35591],[15.8142,57.35597],[15.81389,57.35551],[15.81414,57.35538],[15.81465,57.35573],[15.81535,57.35586],[15.81558,57.35621],[15.81621,57.35603],[15.81591,57.35674],[15.81608,57.35695],[15.81648,57.3568],[15.81708,57.35686],[15.81738,57.35606],[15.81815,57.35654],[15.8186,57.35644],[15.81852,57.35597],[15.81899,57.35591],[15.81946,57.35605],[15.81948,57.35656],[15.82046,57.35647],[15.82084,57.356],[15.81981,57.35594],[15.81983,57.3557],[15.82078,57.35544],[15.82133,57.356],[15.82224,57.35601],[15.82164,57.35524],[15.82235,57.35455],[15.82293,57.3544],[15.82409,57.35449],[15.82486,57.3563],[15.82673,57.35484],[15.82881,57.3539],[15.83126,57.35327],[15.8341,57.35298],[15.83731,57.35306],[15.84,57.35338],[15.84331,57.35436],[15.84612,57.35473],[15.84847,57.35544],[15.85098,57.35688],[15.85724,57.3593],[15.85905,57.36036],[15.86069,57.36232],[15.86096,57.36442],[15.86016,57.36618],[15.85796,57.36794],[15.8553,57.36899],[15.85274,57.36949],[15.85164,57.37064],[15.85037,57.37147],[15.8483,57.37235],[15.84605,57.37288],[15.84476,57.37367],[15.86074,57.37531],[15.86226,57.37422],[15.87878,57.37513],[15.8876,57.37346],[15.90904,57.37271],[15.92027,57.38469],[15.93384,57.37965],[15.94091,57.38316],[15.94016,57.38387],[15.94123,57.38397],[15.94191,57.38383],[15.94274,57.3833],[15.94287,57.38287],[15.94891,57.38539],[15.94944,57.38502],[15.96507,57.39124],[15.96554,57.39109],[15.96739,57.39312],[15.96754,57.39443],[15.96898,57.39582],[15.98925,57.40105],[15.99802,57.3901],[16.01668,57.40322]]]}},{"type":"Feature","id":"0860R008","properties":{"code":"0860R008","name":"Vena tätort-Vena landsbygd"},"geometry":{"type":"Polygon","coordinates":[[[15.9952,57.58774],[16.01019,57.57568],[16.01438,57.57161],[16.02965,57.55467],[16.03436,57.54794],[16.05446,57.53501],[16.06092,57.53115],[16.06442,57.52835],[16.074,57.52573],[16.09569,57.5252],[16.10484,57.52341],[16.12523,57.5151],[16.13355,57.51092],[16.13464,57.50949],[16.1385,57.50656],[16.13944,57.50554],[16.14026,57.50528],[16.14196,57.5043],[16.144,57.50251],[16.14593,57.50169],[16.15002,57.5007],[16.15508,57.50054],[16.15546,57.50147],[16.15493,57.50233],[16.15623,57.5033],[16.15984,57.50357],[16.16136,57.50335],[16.16243,57.50371],[16.16353,57.50356],[16.16555,57.5047],[16.16943,57.50373],[16.17128,57.50431],[16.17777,57.50456],[16.17846,57.50432],[16.18259,57.50368],[16.18305,57.50331],[16.18569,57.50307],[16.18459,57.50249],[16.18901,57.49884],[16.19049,57.49837],[16.19518,57.49568],[16.19672,57.49543],[16.19791,57.49497],[16.19973,57.49479],[16.20066,57.49414],[16.20121,57.49346],[16.2011,57.49316],[16.20243,57.49178],[16.20294,57.4905],[16.20378,57.49],[16.20473,57.48834],[16.20494,57.48684],[16.20585,57.48628],[16.209,57.48338],[16.20553,57.48027],[16.20339,57.47902],[16.19411,57.4753],[16.18772,57.47401],[16.17728,57.45033],[16.15168,57.46064],[16.14681,57.45982],[16.15589,57.45519],[16.13949,57.44901],[16.13978,57.44769],[16.13883,57.44711],[16.13827,57.44185],[16.13192,57.43408],[16.13241,57.43208],[16.13366,57.431],[16.13073,57.42778],[16.13023,57.42779],[16.12969,57.42709],[16.12831,57.42628],[16.12603,57.42577],[16.12601,57.42453],[16.12484,57.42411],[16.12426,57.42363],[16.11983,57.42236],[16.11956,57.42167],[16.11847,57.42126],[16.118,57.42065],[16.11585,57.4203],[16.11491,57.41891],[16.11504,57.418],[16.11461,57.4178],[16.11347,57.41774],[16.1131,57.41794],[16.11252,57.4177],[16.10987,57.41837],[16.10945,57.41887],[16.10886,57.41886],[16.10842,57.41905],[16.10708,57.42034],[16.10466,57.42115],[16.10361,57.42189],[16.10674,57.41691],[16.10643,57.41633],[16.10744,57.41539],[16.10861,57.41511],[16.10905,57.41478],[16.10881,57.41458],[16.10981,57.41392],[16.11061,57.41257],[16.11158,57.41209],[16.112,57.41153],[16.11238,57.41155],[16.11257,57.41062],[16.11336,57.40971],[16.11306,57.40911],[16.11401,57.40864],[16.11379,57.40826],[16.11339,57.40826],[16.11333,57.40774],[16.11264,57.40755],[16.10797,57.40511],[16.09648,57.40448],[16.09352,57.40381],[16.09016,57.40278],[16.08595,57.40603],[16.07349,57.41188],[16.06048,57.42002],[16.04449,57.43395],[16.03658,57.43302],[16.01718,57.43222],[15.99296,57.43342],[15.98365,57.43764],[15.98229,57.43713],[15.98124,57.43809],[15.98146,57.43825],[15.98094,57.43854],[15.97174,57.43556],[15.96006,57.43207],[15.95826,57.43296],[15.95789,57.4338],[15.95688,57.43458],[15.95614,57.43432],[15.95518,57.43451],[15.95447,57.4349],[15.95537,57.4359],[15.949,57.43923],[15.96113,57.44767],[15.94138,57.45913],[15.92589,57.45119],[15.87503,57.45541],[15.86831,57.45673],[15.86234,57.46021],[15.86299,57.46267],[15.86068,57.46592],[15.85981,57.47622],[15.86102,57.47803],[15.86114,57.47946],[15.86202,57.48123],[15.86206,57.48254],[15.8617,57.48365],[15.86095,57.48472],[15.85811,57.48692],[15.86169,57.48695],[15.86622,57.48779],[15.87059,57.48912],[15.87385,57.49052],[15.87699,57.49273],[15.87809,57.49404],[15.87876,57.4962],[15.87859,57.49806],[15.87803,57.49946],[15.87697,57.50061],[15.87716,57.50182],[15.87679,57.50317],[15.87522,57.50491],[15.87618,57.50876],[15.8758,57.51054],[15.87272,57.51404],[15.86999,57.51573],[15.86766,57.51648],[15.8655,57.51686],[15.86279,57.51699],[15.8601,57.51675],[15.8554,57.51557],[15.8528,57.51428],[15.85004,57.51339],[15.84818,57.51238],[15.84392,57.51452],[15.84165,57.51525],[15.83847,57.51586],[15.83647,57.51599],[15.83413,57.51588],[15.83395,57.51624],[15.83287,57.51621],[15.83267,57.51635],[15.83307,57.51687],[15.83299,57.51763],[15.8334,57.5185],[15.83281,57.51874],[15.83267,57.51828],[15.83228,57.51825],[15.83194,57.51863],[15.83103,57.51884],[15.84048,57.52871],[15.84081,57.53038],[15.84055,57.5311],[15.84201,57.53142],[15.84206,57.53254],[15.84347,57.53475],[15.84193,57.53477],[15.84233,57.53653],[15.83931,57.53528],[15.83802,57.53598],[15.83821,57.53693],[15.83788,57.54001],[15.83817,57.54041],[15.84427,57.54342],[15.84592,57.54614],[15.84528,57.54748],[15.84471,57.55064],[15.84643,57.55062],[15.84664,57.54808],[15.84712,57.54799],[15.85402,57.55855],[15.86463,57.56093],[15.88202,57.55614],[15.88334,57.55557],[15.88389,57.55333],[15.88994,57.55209],[15.88953,57.55337],[15.89148,57.55346],[15.89281,57.55471],[15.89319,57.5548],[15.89297,57.5551],[15.89422,57.556],[15.91006,57.56519],[15.91132,57.56456],[15.91492,57.56453],[15.91538,57.56425],[15.91626,57.56438],[15.91671,57.56414],[15.91748,57.56431],[15.91962,57.56417],[15.9234,57.56476],[15.92604,57.56476],[15.92596,57.56559],[15.92734,57.56646],[15.93036,57.56747],[15.93127,57.56709],[15.93318,57.5678],[15.93305,57.5684],[15.93408,57.56887],[15.96759,57.57689],[15.96815,57.58115],[15.96748,57.58248],[15.96861,57.58333],[15.96846,57.58348],[15.9952,57.58774]]]}},{"type":"Feature","id":"0860R009","properties":{"code":"0860R009","name":"Virserums tätort"},"geometry":{"type":"Polygon","coordinates":[[[15.58619,57.33362],[15.58885,57.33338],[15.59072,57.33299],[15.59371,57.33177],[15.59836,57.33071],[15.60046,57.32994],[15.60277,57.32832],[15.60396,57.32614],[15.6065,57.32601],[15.60902,57.32553],[15.61111,57.32478],[15.61322,57.32369],[15.61524,57.32182],[15.61589,57.31995],[15.6154,57.31807],[15.61417,57.31588],[15.61262,57.31396],[15.61094,57.31281],[15.60915,57.31204],[15.60654,57.31135],[15.60446,57.3111],[15.60309,57.30981],[15.60277,57.30805],[15.60183,57.3067],[15.59988,57.30529],[15.59732,57.30431],[15.59737,57.30125],[15.59683,57.30015],[15.59558,57.29885],[15.59412,57.29793],[15.59194,57.29706],[15.58944,57.29651],[15.58675,57.29631],[15.58309,57.2966],[15.58011,57.29741],[15.578,57.29847],[15.57561,57.30042],[15.57106,57.30024],[15.56819,57.30043],[15.56475,57.30124],[15.56252,57.30224],[15.56094,57.30343],[15.56013,57.30446],[15.55964,57.3059],[15.55972,57.30702],[15.56103,57.30914],[15.56212,57.30998],[15.56384,57.31084],[15.56491,57.312],[15.56507,57.31318],[15.56295,57.3132],[15.56032,57.31355],[15.55779,57.31429],[15.55587,57.31525],[15.55219,57.31552],[15.54688,57.31691],[15.5449,57.31791],[15.54345,57.31915],[15.54269,57.32029],[15.54239,57.32176],[15.543,57.32406],[15.54502,57.32601],[15.54769,57.32724],[15.55062,57.32791],[15.55433,57.33017],[15.55698,57.33123],[15.55946,57.33179],[15.56142,57.332],[15.56405,57.33201],[15.56593,57.33182],[15.56857,57.33272],[15.57117,57.33314],[15.57413,57.3332],[15.57794,57.33261],[15.57938,57.33265],[15.58289,57.33349],[15.58619,57.33362]]]}}]}