{"type":"FeatureCollection","features":[{"type":"Feature","id":"0862R001","properties":{"code":"0862R001","name":"Algutsboda-Algutsboda omland"},"geometry":{"type":"Polygon","coordinates":[[[15.55256,56.83841],[15.57071,56.83474],[15.58723,56.83307],[15.61526,56.82842],[15.64134,56.82551],[15.64793,56.82716],[15.65557,56.81567],[15.66281,56.80016],[15.66653,56.78067],[15.6783,56.78794],[15.68377,56.78916],[15.68448,56.78906],[15.68552,56.78938],[15.6856,56.78965],[15.68737,56.79059],[15.68842,56.79179],[15.69133,56.79377],[15.69371,56.79337],[15.69443,56.79189],[15.69943,56.7927],[15.69816,56.79405],[15.70042,56.79885],[15.70184,56.79878],[15.70367,56.79947],[15.70377,56.79991],[15.70219,56.80026],[15.70128,56.79994],[15.7,56.79991],[15.69998,56.80003],[15.70454,56.80372],[15.71355,56.79568],[15.73573,56.78398],[15.72641,56.77787],[15.72515,56.77677],[15.72427,56.77639],[15.71168,56.76819],[15.71059,56.76192],[15.71075,56.76157],[15.71006,56.75999],[15.71005,56.7588],[15.70941,56.75785],[15.70879,56.75482],[15.70871,56.75136],[15.7083,56.7506],[15.70701,56.7498],[15.70677,56.74905],[15.70624,56.74865],[15.70615,56.74714],[15.70493,56.74664],[15.70342,56.74643],[15.70222,56.74606],[15.70026,56.7447],[15.69527,56.74336],[15.69452,56.7444],[15.6905,56.74396],[15.68932,56.74302],[15.68863,56.74293],[15.68814,56.74261],[15.68652,56.74214],[15.68899,56.74066],[15.68722,56.73949],[15.6878,56.73863],[15.68772,56.73831],[15.68839,56.73788],[15.68866,56.7368],[15.68973,56.73661],[15.68901,56.73564],[15.69049,56.73465],[15.68981,56.73404],[15.69003,56.73355],[15.68979,56.73321],[15.68904,56.73292],[15.68889,56.73249],[15.68868,56.73171],[15.68896,56.7301],[15.68603,56.72948],[15.68492,56.72863],[15.68545,56.72826],[15.68504,56.72802],[15.68373,56.72793],[15.6827,56.72743],[15.68225,56.72686],[15.68376,56.72616],[15.68266,56.7252],[15.68212,56.72433],[15.68166,56.72419],[15.68055,56.72427],[15.6793,56.724],[15.67936,56.72365],[15.68153,56.72171],[15.68169,56.72077],[15.68113,56.71968],[15.68008,56.71863],[15.68036,56.71789],[15.68016,56.71743],[15.67716,56.71429],[15.6769,56.71318],[15.67747,56.71198],[15.67747,56.71065],[15.67834,56.70857],[15.68029,56.7048],[15.68158,56.70374],[15.68179,56.70263],[15.68284,56.70075],[15.68228,56.70006],[15.68239,56.69873],[15.68193,56.69787],[15.68218,56.69604],[15.67965,56.69483],[15.67882,56.69474],[15.67843,56.69504],[15.67834,56.69554],[15.67689,56.69684],[15.67688,56.6982],[15.67514,56.69991],[15.67242,56.70024],[15.67036,56.70114],[15.66887,56.70135],[15.6654,56.7007],[15.66484,56.70051],[15.66438,56.69976],[15.65983,56.69876],[15.65242,56.69359],[15.64472,56.67977],[15.64417,56.67974],[15.64373,56.67941],[15.6419,56.67882],[15.64145,56.67845],[15.64092,56.67519],[15.63871,56.67429],[15.63774,56.67354],[15.63734,56.67164],[15.63787,56.67101],[15.63787,56.67056],[15.63705,56.66885],[15.63599,56.66766],[15.63543,56.66599],[15.63584,56.66214],[15.63555,56.66101],[15.63657,56.65982],[15.63545,56.65884],[15.63453,56.65822],[15.63032,56.65637],[15.62207,56.65336],[15.61889,56.65282],[15.61825,56.65219],[15.61651,56.6513],[15.61465,56.65096],[15.61225,56.64996],[15.61202,56.64958],[15.60936,56.64802],[15.60748,56.64726],[15.60422,56.64729],[15.60018,56.64586],[15.60026,56.64547],[15.59972,56.64526],[15.59876,56.64534],[15.58926,56.64205],[15.58032,56.64078],[15.57933,56.6405],[15.57876,56.64021],[15.5787,56.63995],[15.57959,56.63929],[15.57983,56.63855],[15.5772,56.6385],[15.57413,56.63793],[15.572,56.63711],[15.5675,56.63479],[15.56517,56.6357],[15.56565,56.64162],[15.56486,56.64401],[15.56349,56.64583],[15.56189,56.64697],[15.55633,56.64967],[15.55353,56.65051],[15.55096,56.65082],[15.54747,56.65072],[15.5444,56.65015],[15.53912,56.64802],[15.53678,56.64657],[15.53124,56.64415],[15.528,56.6439],[15.52484,56.64305],[15.52213,56.64151],[15.52117,56.64052],[15.52052,56.63932],[15.51915,56.63849],[15.51794,56.63732],[15.51714,56.63785],[15.51389,56.63909],[15.51212,56.64056],[15.50954,56.64076],[15.50822,56.63992],[15.50807,56.63954],[15.50485,56.63999],[15.50216,56.64136],[15.49936,56.6418],[15.49989,56.64269],[15.49958,56.64314],[15.50038,56.64401],[15.50008,56.64429],[15.49907,56.64452],[15.49854,56.64552],[15.49868,56.64571],[15.49807,56.64635],[15.49818,56.64676],[15.4977,56.64719],[15.49509,56.64654],[15.49386,56.64674],[15.49329,56.64707],[15.49315,56.64768],[15.4901,56.64692],[15.48575,56.64792],[15.48517,56.64755],[15.48114,56.64615],[15.47954,56.64601],[15.47716,56.64529],[15.47047,56.646],[15.4675,56.64554],[15.46616,56.64557],[15.46393,56.64576],[15.46108,56.64634],[15.45983,56.64528],[15.45762,56.64442],[15.45604,56.64349],[15.45392,56.64354],[15.45353,56.64376],[15.45161,56.6436],[15.45095,56.64314],[15.44874,56.64286],[15.44642,56.64396],[15.44433,56.64454],[15.43911,56.64432],[15.43834,56.64501],[15.43724,56.64507],[15.43646,56.64424],[15.43586,56.64411],[15.43521,56.64367],[15.43289,56.64331],[15.43009,56.64338],[15.43022,56.64427],[15.42727,56.64456],[15.42489,56.64376],[15.41915,56.63949],[15.41754,56.64536],[15.41702,56.64559],[15.41557,56.64557],[15.41442,56.64527],[15.41196,56.64551],[15.41067,56.64682],[15.40999,56.64709],[15.40999,56.64733],[15.40951,56.64739],[15.40899,56.64782],[15.40775,56.64828],[15.40708,56.64824],[15.40617,56.64888],[15.40677,56.64993],[15.4067,56.65046],[15.40625,56.65079],[15.40613,56.65202],[15.40649,56.65263],[15.40733,56.65289],[15.40746,56.6537],[15.40628,56.65387],[15.4051,56.65451],[15.40499,56.6548],[15.40551,56.6554],[15.40009,56.65623],[15.40206,56.65836],[15.40254,56.65924],[15.40413,56.6606],[15.40472,56.66183],[15.40564,56.6624],[15.4073,56.66236],[15.40838,56.66308],[15.41741,56.66741],[15.42189,56.66898],[15.42341,56.67098],[15.42401,56.67125],[15.42409,56.67401],[15.42284,56.67458],[15.42115,56.67481],[15.41789,56.67663],[15.41624,56.67702],[15.41534,56.67808],[15.41284,56.67853],[15.41152,56.67894],[15.41082,56.67957],[15.4102,56.68067],[15.4098,56.6822],[15.4104,56.68462],[15.41319,56.68802],[15.41299,56.68907],[15.41338,56.69123],[15.41422,56.69304],[15.4164,56.69468],[15.41771,56.69516],[15.41878,56.69587],[15.41872,56.6969],[15.4203,56.69824],[15.42077,56.70093],[15.41872,56.70382],[15.4182,56.70709],[15.41755,56.70813],[15.41838,56.71055],[15.41945,56.71014],[15.42118,56.70985],[15.42484,56.71032],[15.42512,56.71052],[15.42447,56.71092],[15.42428,56.71173],[15.42506,56.71319],[15.42039,56.71447],[15.42007,56.71511],[15.42026,56.71558],[15.41578,56.71656],[15.40688,56.71709],[15.4021,56.717],[15.39497,56.72046],[15.39403,56.72077],[15.39222,56.72049],[15.3896,56.72551],[15.38927,56.72547],[15.38943,56.72605],[15.39094,56.72719],[15.39095,56.72762],[15.39156,56.72824],[15.39086,56.73041],[15.39274,56.73224],[15.39171,56.73389],[15.39089,56.73441],[15.39012,56.73686],[15.38838,56.73834],[15.38831,56.73986],[15.38672,56.74142],[15.38669,56.74195],[15.38526,56.74306],[15.38495,56.74383],[15.38506,56.74455],[15.38465,56.74528],[15.38489,56.74563],[15.3843,56.74647],[15.38214,56.74737],[15.37946,56.74701],[15.37869,56.74925],[15.37809,56.74949],[15.37721,56.75114],[15.37507,56.75202],[15.37357,56.75222],[15.37236,56.75397],[15.37156,56.75377],[15.36084,56.75797],[15.36829,56.78065],[15.38277,56.78224],[15.41547,56.77957],[15.42843,56.78229],[15.43214,56.78009],[15.43418,56.77921],[15.43478,56.77985],[15.43515,56.77987],[15.43554,56.77965],[15.43587,56.77982],[15.43682,56.77968],[15.43721,56.77936],[15.44485,56.77904],[15.44755,56.78259],[15.44904,56.78339],[15.44867,56.78521],[15.44491,56.79569],[15.44589,56.79608],[15.44737,56.79725],[15.45056,56.79592],[15.45278,56.79566],[15.45512,56.79588],[15.45519,56.79632],[15.4869,56.79629],[15.48697,56.79613],[15.48771,56.79622],[15.48916,56.79686],[15.48994,56.79537],[15.52274,56.80288],[15.53844,56.80581],[15.53937,56.80738],[15.54075,56.80853],[15.54494,56.81383],[15.55314,56.8226],[15.55256,56.83841]]]}},{"type":"Feature","id":"0862R002","properties":{"code":"0862R002","name":"Emmaboda norra"},"geometry":{"type":"Polygon","coordinates":[[[15.57983,56.63855],[15.58408,56.63793],[15.58713,56.63663],[15.58861,56.63543],[15.58952,56.63396],[15.59125,56.6326],[15.59214,56.63122],[15.59239,56.62962],[15.59174,56.62785],[15.59041,56.62647],[15.58835,56.62528],[15.5899,56.62458],[15.59148,56.62346],[15.59233,56.62245],[15.59287,56.62107],[15.59254,56.61715],[15.59078,56.61262],[15.58971,56.61131],[15.58807,56.61018],[15.58601,56.60933],[15.58308,56.60872],[15.57959,56.60645],[15.57633,56.60527],[15.57358,56.60486],[15.5691,56.60471],[15.56141,56.60561],[15.55758,56.60678],[15.55627,56.60751],[15.55504,56.60855],[15.55211,56.60949],[15.5501,56.61074],[15.55119,56.61078],[15.55266,56.61058],[15.55403,56.61113],[15.55663,56.61094],[15.55923,56.61178],[15.55934,56.613],[15.55962,56.61332],[15.559,56.61363],[15.55819,56.61366],[15.55813,56.61457],[15.55743,56.6154],[15.55739,56.61612],[15.55671,56.61732],[15.55675,56.61817],[15.55634,56.61875],[15.55567,56.61898],[15.55557,56.61962],[15.55505,56.61996],[15.55679,56.62186],[15.5575,56.62216],[15.55766,56.62284],[15.55845,56.62311],[15.55969,56.62401],[15.56087,56.62436],[15.56057,56.62493],[15.56106,56.62562],[15.56363,56.62512],[15.56547,56.62553],[15.56623,56.62617],[15.56766,56.62636],[15.56817,56.62673],[15.56818,56.62721],[15.56882,56.62796],[15.57174,56.62992],[15.57369,56.63026],[15.57447,56.63073],[15.57799,56.63579],[15.58037,56.63732],[15.58046,56.63789],[15.57983,56.63855]]]}},{"type":"Feature","id":"0862R003","properties":{"code":"0862R003","name":"Emmaboda södra"},"geometry":{"type":"Polygon","coordinates":[[[15.51877,56.63718],[15.51924,56.63689],[15.52086,56.63696],[15.52203,56.63604],[15.52452,56.63595],[15.52638,56.63531],[15.53154,56.63446],[15.5334,56.63456],[15.5349,56.63492],[15.54048,56.63431],[15.5431,56.63386],[15.54589,56.633],[15.54699,56.6324],[15.54612,56.63133],[15.54589,56.63006],[15.54515,56.62849],[15.54434,56.62772],[15.54545,56.62702],[15.54665,56.62532],[15.54757,56.62499],[15.54761,56.62447],[15.54987,56.62405],[15.55203,56.6223],[15.55342,56.62199],[15.55582,56.62074],[15.55505,56.61996],[15.55557,56.61962],[15.55567,56.61898],[15.55634,56.61875],[15.55675,56.61817],[15.55671,56.61732],[15.55739,56.61612],[15.55743,56.6154],[15.55813,56.61457],[15.55819,56.61366],[15.559,56.61363],[15.55962,56.61332],[15.55934,56.613],[15.55923,56.61178],[15.55663,56.61094],[15.55403,56.61113],[15.55266,56.61058],[15.55119,56.61078],[15.5501,56.61074],[15.54889,56.61212],[15.5479,56.61484],[15.54336,56.61446],[15.54073,56.61454],[15.53768,56.61514],[15.53527,56.61614],[15.5337,56.61446],[15.53144,56.61319],[15.52746,56.61187],[15.52324,56.61105],[15.52072,56.61086],[15.51762,56.61112],[15.51483,56.6119],[15.51287,56.6129],[15.51128,56.61439],[15.51059,56.61638],[15.50895,56.61815],[15.50845,56.61965],[15.50853,56.62077],[15.50921,56.62218],[15.51094,56.62419],[15.51204,56.62516],[15.51349,56.62602],[15.51251,56.62794],[15.51256,56.62974],[15.51322,56.63111],[15.51433,56.63223],[15.51501,56.63402],[15.51583,56.63505],[15.51726,56.63614],[15.51794,56.63732],[15.51877,56.63718]]]}},{"type":"Feature","id":"0862R004","properties":{"code":"0862R004","name":"Emmaboda-Lindås"},"geometry":{"type":"Polygon","coordinates":[[[15.55034,56.65084],[15.55348,56.65052],[15.55583,56.64987],[15.56189,56.64697],[15.56379,56.64553],[15.56486,56.64401],[15.56565,56.64162],[15.56517,56.6357],[15.5675,56.63479],[15.57249,56.63734],[15.57473,56.63809],[15.5772,56.6385],[15.57983,56.63855],[15.5805,56.6378],[15.58037,56.63732],[15.57799,56.63579],[15.57447,56.63073],[15.57369,56.63026],[15.57174,56.62992],[15.56882,56.62796],[15.56818,56.62721],[15.56817,56.62673],[15.56766,56.62636],[15.56623,56.62617],[15.56547,56.62553],[15.56363,56.62512],[15.56106,56.62562],[15.56057,56.62493],[15.56087,56.62436],[15.55969,56.62401],[15.55845,56.62311],[15.55766,56.62284],[15.5575,56.62216],[15.55679,56.62186],[15.55582,56.62074],[15.55342,56.62199],[15.55203,56.6223],[15.54987,56.62405],[15.54761,56.62447],[15.54757,56.62499],[15.54665,56.62532],[15.54545,56.62702],[15.54434,56.62772],[15.54515,56.62849],[15.54589,56.63006],[15.54612,56.63133],[15.54699,56.6324],[15.54589,56.633],[15.5431,56.63386],[15.53947,56.63447],[15.5349,56.63492],[15.5334,56.63456],[15.53154,56.63446],[15.52638,56.63531],[15.52452,56.63595],[15.52203,56.63604],[15.52086,56.63696],[15.51924,56.63689],[15.51877,56.63718],[15.51794,56.63732],[15.51915,56.63849],[15.52052,56.63932],[15.5211,56.64043],[15.52204,56.64143],[15.52434,56.64284],[15.52736,56.64378],[15.53124,56.64415],[15.53678,56.64657],[15.53912,56.64802],[15.5444,56.65015],[15.54686,56.65065],[15.55034,56.65084]]]}},{"type":"Feature","id":"0862R005","properties":{"code":"0862R005","name":"Långasjö-Långasjö omland"},"geometry":{"type":"Polygon","coordinates":[[[15.48575,56.64792],[15.4901,56.64692],[15.49315,56.64768],[15.49329,56.64707],[15.49386,56.64674],[15.49509,56.64654],[15.4977,56.64719],[15.49818,56.64676],[15.49807,56.64635],[15.49868,56.64571],[15.49854,56.64552],[15.49907,56.64452],[15.50008,56.64429],[15.50038,56.64401],[15.49958,56.64314],[15.49989,56.64269],[15.49936,56.6418],[15.50216,56.64136],[15.50485,56.63999],[15.50807,56.63954],[15.50822,56.63992],[15.50954,56.64076],[15.50995,56.64081],[15.51232,56.64048],[15.51242,56.63974],[15.51117,56.6385],[15.50832,56.63456],[15.50908,56.63418],[15.49809,56.63083],[15.50187,56.62718],[15.47717,56.61706],[15.47457,56.61414],[15.47499,56.61019],[15.46929,56.60625],[15.46928,56.60593],[15.46992,56.6054],[15.47272,56.60509],[15.47514,56.60425],[15.47875,56.6026],[15.47953,56.60275],[15.48171,56.60158],[15.4824,56.60092],[15.48276,56.60087],[15.48458,56.6014],[15.48515,56.60132],[15.48718,56.59994],[15.48967,56.59922],[15.48942,56.59872],[15.48971,56.59775],[15.49046,56.59746],[15.49063,56.59638],[15.49416,56.59744],[15.49541,56.59656],[15.49602,56.59586],[15.49112,56.59424],[15.49139,56.59403],[15.49178,56.59154],[15.50882,56.58298],[15.5021,56.57684],[15.50606,56.57241],[15.5109,56.56791],[15.51028,56.56451],[15.51273,56.56266],[15.51793,56.5638],[15.5194,56.56558],[15.52518,56.56408],[15.52495,56.56353],[15.52353,56.56208],[15.52377,56.5616],[15.52993,56.56073],[15.53093,56.55834],[15.5341,56.55583],[15.52762,56.55508],[15.52313,56.55353],[15.52198,56.55419],[15.5219,56.55351],[15.52057,56.55397],[15.52174,56.55434],[15.5168,56.55704],[15.51299,56.55388],[15.51527,56.5522],[15.52014,56.55055],[15.51937,56.55024],[15.51937,56.54937],[15.52004,56.54842],[15.52051,56.54692],[15.51988,56.54516],[15.52036,56.54497],[15.51601,56.5406],[15.50222,56.54108],[15.49479,56.54389],[15.49136,56.54418],[15.48587,56.54359],[15.48089,56.54246],[15.47747,56.54329],[15.47483,56.54251],[15.47191,56.54202],[15.46747,56.54003],[15.46537,56.54091],[15.4594,56.53945],[15.45948,56.53924],[15.46678,56.53838],[15.46611,56.53687],[15.46665,56.53628],[15.46704,56.5349],[15.4646,56.53496],[15.46092,56.53383],[15.45416,56.53266],[15.45057,56.53019],[15.45129,56.52892],[15.44893,56.52759],[15.4435,56.52235],[15.4422,56.52223],[15.43958,56.52248],[15.4387,56.512],[15.43851,56.51049],[15.43801,56.51009],[15.43879,56.50742],[15.43744,56.50573],[15.43717,56.5001],[15.43313,56.49509],[15.43192,56.49085],[15.42909,56.49084],[15.42576,56.49108],[15.42336,56.492],[15.42079,56.4919],[15.41785,56.49254],[15.41546,56.49445],[15.413,56.49542],[15.41017,56.49689],[15.40987,56.49724],[15.39791,56.4976],[15.39498,56.49832],[15.38932,56.50015],[15.38648,56.50062],[15.38118,56.49989],[15.37892,56.49826],[15.37202,56.49504],[15.37107,56.49413],[15.371,56.49313],[15.36999,56.49303],[15.36877,56.4934],[15.36819,56.49332],[15.36677,56.49258],[15.36612,56.49089],[15.36627,56.4838],[15.36545,56.48363],[15.36486,56.48312],[15.36468,56.48214],[15.36382,56.48233],[15.36239,56.48209],[15.36198,56.48241],[15.36185,56.48204],[15.36155,56.48198],[15.36106,56.48224],[15.35925,56.48174],[15.35777,56.48218],[15.35749,56.48246],[15.35614,56.48264],[15.35414,56.4832],[15.3513,56.48341],[15.34928,56.48328],[15.34736,56.48292],[15.34655,56.48301],[15.34549,56.4839],[15.34417,56.48449],[15.34247,56.48449],[15.34159,56.48491],[15.34039,56.4863],[15.33932,56.48661],[15.33843,56.4874],[15.33888,56.48865],[15.33737,56.48909],[15.33858,56.49056],[15.33917,56.49065],[15.34065,56.49324],[15.3414,56.49346],[15.34166,56.49381],[15.34155,56.49516],[15.34195,56.49566],[15.34038,56.49692],[15.34054,56.49877],[15.34083,56.499],[15.34344,56.49966],[15.34307,56.5011],[15.34496,56.50227],[15.34706,56.50222],[15.34901,56.50419],[15.34639,56.50521],[15.34574,56.50591],[15.34647,56.50702],[15.34649,56.50815],[15.34611,56.50895],[15.34649,56.50981],[15.34653,56.51126],[15.34774,56.51438],[15.35008,56.51456],[15.35061,56.51494],[15.35204,56.5154],[15.35358,56.51549],[15.35332,56.51693],[15.35454,56.51768],[15.35467,56.51815],[15.35455,56.51894],[15.35365,56.52045],[15.35409,56.52115],[15.35384,56.52201],[15.35323,56.52249],[15.35401,56.52318],[15.35642,56.52337],[15.35707,56.52357],[15.3575,56.52509],[15.3573,56.52602],[15.3559,56.52729],[15.35549,56.52822],[15.35313,56.52937],[15.3504,56.5329],[15.35051,56.53327],[15.35106,56.53317],[15.35228,56.53391],[15.35693,56.53516],[15.35748,56.53599],[15.35757,56.53702],[15.35707,56.53833],[15.35976,56.53976],[15.36021,56.54074],[15.35971,56.54095],[15.35919,56.54158],[15.35874,56.54325],[15.35724,56.54482],[15.35618,56.547],[15.3561,56.5481],[15.35841,56.54832],[15.35994,56.54917],[15.35723,56.55308],[15.35999,56.5536],[15.36249,56.5546],[15.3662,56.55504],[15.36473,56.5553],[15.36356,56.55632],[15.36156,56.55692],[15.35883,56.55813],[15.35716,56.55955],[15.3578,56.56077],[15.35758,56.56127],[15.35783,56.5639],[15.35923,56.56638],[15.36605,56.56743],[15.36729,56.56739],[15.36829,56.56099],[15.36927,56.55706],[15.37054,56.55433],[15.38194,56.55234],[15.38429,56.55353],[15.37991,56.55693],[15.37901,56.56108],[15.38118,56.56415],[15.38121,56.56532],[15.38281,56.56618],[15.38727,56.56951],[15.38774,56.5738],[15.38752,56.57823],[15.38802,56.57799],[15.38779,56.57902],[15.3917,56.58343],[15.39016,56.58544],[15.38865,56.58592],[15.38793,56.58728],[15.38612,56.58855],[15.38488,56.59015],[15.38213,56.59003],[15.38075,56.59055],[15.37922,56.59065],[15.37649,56.5913],[15.37641,56.59154],[15.37486,56.59164],[15.3749,56.59376],[15.37285,56.59484],[15.37353,56.59628],[15.37114,56.59685],[15.37108,56.59724],[15.37021,56.59755],[15.36977,56.598],[15.36987,56.59893],[15.36841,56.59968],[15.36797,56.60022],[15.36713,56.6015],[15.36714,56.6023],[15.37038,56.60271],[15.37203,56.6034],[15.37167,56.60417],[15.37166,56.60726],[15.37178,56.60773],[15.37238,56.60781],[15.37238,56.60874],[15.37427,56.60958],[15.37809,56.61041],[15.38307,56.61073],[15.3848,56.61065],[15.38588,56.61139],[15.38608,56.61268],[15.38763,56.61317],[15.38829,56.61365],[15.38889,56.61638],[15.39048,56.61975],[15.39043,56.62251],[15.39154,56.62465],[15.39274,56.62587],[15.39408,56.62675],[15.40096,56.62936],[15.40344,56.63051],[15.41237,56.63567],[15.4126,56.63658],[15.41388,56.63773],[15.41915,56.63949],[15.42489,56.64376],[15.42727,56.64456],[15.43022,56.64427],[15.43009,56.64338],[15.43289,56.64331],[15.43521,56.64367],[15.43586,56.64411],[15.43646,56.64424],[15.43724,56.64507],[15.43834,56.64501],[15.43911,56.64432],[15.44433,56.64454],[15.44642,56.64396],[15.44874,56.64286],[15.45095,56.64314],[15.45161,56.6436],[15.45353,56.64376],[15.45392,56.64354],[15.45604,56.64349],[15.45762,56.64442],[15.45983,56.64528],[15.46108,56.64634],[15.46393,56.64576],[15.46616,56.64557],[15.4675,56.64554],[15.47047,56.646],[15.47716,56.64529],[15.47954,56.64601],[15.48114,56.64615],[15.48517,56.64755],[15.48575,56.64792]]]}},{"type":"Feature","id":"0862R006","properties":{"code":"0862R006","name":"Vissefjärda-Vissefjärda omland"},"geometry":{"type":"Polygon","coordinates":[[[15.66463,56.66464],[15.66658,56.6639],[15.66788,56.66399],[15.66891,56.66449],[15.68061,56.66384],[15.68323,56.6595],[15.68212,56.65758],[15.68143,56.65712],[15.6803,56.6569],[15.67991,56.65663],[15.67724,56.65394],[15.67735,56.65376],[15.67549,56.65281],[15.6752,56.65226],[15.67447,56.65185],[15.67358,56.65091],[15.67306,56.65069],[15.67239,56.65082],[15.67171,56.65073],[15.67013,56.64876],[15.67107,56.64808],[15.67046,56.64549],[15.671,56.64507],[15.67091,56.64472],[15.67156,56.64447],[15.67126,56.64389],[15.67156,56.64323],[15.67094,56.64267],[15.6717,56.641],[15.67159,56.63969],[15.67219,56.63892],[15.67318,56.63844],[15.67394,56.63833],[15.67496,56.63852],[15.67436,56.63538],[15.67408,56.63462],[15.67384,56.63458],[15.6739,56.63268],[15.67347,56.6314],[15.67384,56.62996],[15.67515,56.63011],[15.67647,56.63079],[15.67964,56.63082],[15.68142,56.63155],[15.68482,56.63057],[15.68677,56.63085],[15.69015,56.63098],[15.69203,56.63193],[15.69378,56.63246],[15.70472,56.62562],[15.70379,56.62486],[15.70239,56.62476],[15.70165,56.62438],[15.70497,56.62343],[15.70472,56.62314],[15.70514,56.6229],[15.70642,56.62422],[15.70756,56.62481],[15.72496,56.61982],[15.74424,56.60534],[15.74823,56.60467],[15.76046,56.60311],[15.76005,56.59126],[15.76057,56.5907],[15.76233,56.59048],[15.76496,56.5907],[15.76973,56.59065],[15.77267,56.58962],[15.77507,56.58916],[15.77604,56.58921],[15.77656,56.58861],[15.77474,56.58684],[15.77506,56.58375],[15.77383,56.58312],[15.77218,56.58171],[15.77247,56.58134],[15.7709,56.57127],[15.77028,56.57087],[15.76057,56.56724],[15.75831,56.5658],[15.75663,56.5638],[15.75469,56.56327],[15.75041,56.56418],[15.74955,56.56405],[15.74932,56.56364],[15.74809,56.56391],[15.74549,56.56366],[15.74501,56.56269],[15.74204,56.56086],[15.7417,56.56007],[15.7416,56.55878],[15.74401,56.55712],[15.74411,56.5531],[15.74453,56.55144],[15.74245,56.54846],[15.74246,56.54783],[15.74985,56.5427],[15.75605,56.53028],[15.75523,56.5292],[15.75409,56.52886],[15.74922,56.52523],[15.74861,56.52429],[15.74669,56.52328],[15.7451,56.52121],[15.74337,56.51968],[15.73846,56.51772],[15.73499,56.51295],[15.71288,56.50393],[15.70421,56.50164],[15.69086,56.4935],[15.69065,56.49292],[15.69108,56.49256],[15.69159,56.49285],[15.69338,56.49221],[15.6937,56.49058],[15.69616,56.4881],[15.6965,56.48743],[15.69756,56.48673],[15.69807,56.48651],[15.70044,56.48619],[15.70149,56.48646],[15.7019,56.48791],[15.71188,56.48351],[15.71583,56.47704],[15.71395,56.47015],[15.71112,56.47014],[15.71024,56.47046],[15.70674,56.47548],[15.70511,56.47635],[15.70334,56.47906],[15.70313,56.4799],[15.69977,56.48024],[15.69862,56.47986],[15.69568,56.48027],[15.69399,56.48022],[15.6907,56.47941],[15.69048,56.47878],[15.69087,56.47842],[15.69018,56.47793],[15.68964,56.47681],[15.69082,56.47345],[15.69053,56.47023],[15.69083,56.4691],[15.69092,56.46495],[15.69057,56.46356],[15.69111,56.46323],[15.68339,56.46072],[15.67954,56.45349],[15.67955,56.45145],[15.67802,56.4505],[15.67754,56.44922],[15.67611,56.44755],[15.67602,56.44723],[15.67828,56.44717],[15.67907,56.44662],[15.67593,56.44523],[15.67484,56.44441],[15.67496,56.44464],[15.67463,56.44492],[15.67408,56.44498],[15.67335,56.44348],[15.66989,56.44285],[15.66856,56.44155],[15.66607,56.44372],[15.66625,56.4452],[15.66713,56.44702],[15.6654,56.44841],[15.66507,56.4509],[15.66226,56.45261],[15.66303,56.45407],[15.66283,56.45474],[15.66216,56.45518],[15.66113,56.45545],[15.6605,56.4563],[15.65884,56.45706],[15.65846,56.45766],[15.65778,56.45806],[15.65759,56.45868],[15.65853,56.45972],[15.65846,56.46027],[15.65644,56.46217],[15.65562,56.4625],[15.65451,56.46261],[15.65416,56.46342],[15.65314,56.4636],[15.6525,56.46339],[15.65228,56.46304],[15.65258,56.46242],[15.65232,56.46207],[15.64905,56.46022],[15.64768,56.46009],[15.64685,56.46028],[15.64611,56.46021],[15.64595,56.45863],[15.64517,56.45768],[15.64197,56.45741],[15.6405,56.45682],[15.63964,56.45683],[15.63787,56.45723],[15.63677,56.45696],[15.63601,56.45708],[15.63508,56.45753],[15.63526,56.45773],[15.63649,56.45793],[15.63543,56.45846],[15.63427,56.45892],[15.63234,56.45913],[15.63074,56.45991],[15.63045,56.46059],[15.63087,56.46148],[15.62966,56.46241],[15.62821,56.46312],[15.62312,56.46452],[15.61994,56.46614],[15.61869,56.46652],[15.61455,56.46846],[15.61197,56.47065],[15.60988,56.47087],[15.60529,56.47065],[15.60422,56.47213],[15.60228,56.47285],[15.59923,56.47205],[15.59914,56.47275],[15.59952,56.47311],[15.59933,56.47368],[15.59554,56.47749],[15.59517,56.47822],[15.59453,56.47873],[15.59355,56.47908],[15.59256,56.48006],[15.59219,56.48085],[15.59235,56.48175],[15.59116,56.48194],[15.59054,56.48235],[15.58864,56.48174],[15.58594,56.48454],[15.58651,56.48539],[15.58645,56.48652],[15.58717,56.48812],[15.58725,56.48948],[15.58871,56.49171],[15.58818,56.49182],[15.5874,56.49123],[15.58706,56.49194],[15.58596,56.49251],[15.586,56.49296],[15.58514,56.49326],[15.58496,56.49377],[15.58559,56.49397],[15.58533,56.49433],[15.58576,56.49524],[15.58398,56.49529],[15.5831,56.49509],[15.58196,56.49565],[15.58216,56.49603],[15.58194,56.49619],[15.57823,56.49548],[15.57722,56.49552],[15.57654,56.4953],[15.57587,56.49476],[15.57517,56.49466],[15.57257,56.49532],[15.57167,56.49657],[15.57064,56.4971],[15.569,56.49747],[15.5683,56.49829],[15.56615,56.49835],[15.56183,56.49962],[15.5549,56.50085],[15.55349,56.50086],[15.55195,56.50137],[15.55101,56.50196],[15.54983,56.5022],[15.54867,56.50354],[15.54788,56.50326],[15.54578,56.50349],[15.54298,56.50353],[15.53571,56.5029],[15.52849,56.50285],[15.52388,56.50249],[15.52151,56.49984],[15.5185,56.49757],[15.51673,56.49535],[15.516,56.49497],[15.51262,56.49416],[15.51102,56.4913],[15.51331,56.48699],[15.51273,56.48472],[15.51378,56.48203],[15.51292,56.4809],[15.51264,56.48005],[15.51313,56.47885],[15.51305,56.47812],[15.51173,56.47638],[15.50534,56.47405],[15.4944,56.47572],[15.4806,56.47998],[15.47751,56.48373],[15.4685,56.48731],[15.46437,56.4861],[15.46342,56.48483],[15.46186,56.48436],[15.46057,56.48366],[15.45883,56.48383],[15.45834,56.48354],[15.45839,56.48318],[15.45735,56.48248],[15.45681,56.48269],[15.45648,56.48335],[15.45433,56.48338],[15.45423,56.4831],[15.45341,56.48305],[15.45234,56.48362],[15.45099,56.48381],[15.44856,56.48301],[15.44779,56.48325],[15.44737,56.48311],[15.44789,56.48278],[15.44704,56.4825],[15.44543,56.48421],[15.44543,56.48451],[15.44516,56.48455],[15.44522,56.48516],[15.44437,56.48555],[15.44375,56.48706],[15.44402,56.48801],[15.44243,56.48997],[15.44243,56.49067],[15.44196,56.49145],[15.44064,56.49296],[15.43953,56.49345],[15.43884,56.49433],[15.43713,56.49441],[15.43629,56.49476],[15.43313,56.49509],[15.43717,56.5001],[15.43744,56.50573],[15.43879,56.50742],[15.43801,56.51009],[15.43851,56.51049],[15.4387,56.512],[15.43958,56.52248],[15.4422,56.52223],[15.4435,56.52235],[15.44893,56.52759],[15.45129,56.52892],[15.45057,56.53019],[15.45416,56.53266],[15.46092,56.53383],[15.4646,56.53496],[15.46704,56.5349],[15.46665,56.53628],[15.46611,56.53687],[15.46678,56.53838],[15.45948,56.53924],[15.4594,56.53945],[15.46537,56.54091],[15.46747,56.54003],[15.47191,56.54202],[15.47483,56.54251],[15.47747,56.54329],[15.48089,56.54246],[15.48587,56.54359],[15.49136,56.54418],[15.49479,56.54389],[15.50222,56.54108],[15.51601,56.5406],[15.52036,56.54497],[15.51988,56.54516],[15.52051,56.54692],[15.52004,56.54842],[15.51937,56.54937],[15.51937,56.55024],[15.52014,56.55055],[15.51527,56.5522],[15.51299,56.55388],[15.5168,56.55704],[15.52174,56.55434],[15.52057,56.55397],[15.5219,56.55351],[15.52198,56.55419],[15.52313,56.55353],[15.52762,56.55508],[15.5341,56.55583],[15.53093,56.55834],[15.52993,56.56073],[15.52377,56.5616],[15.52353,56.56208],[15.52495,56.56353],[15.52518,56.56408],[15.5194,56.56558],[15.51793,56.5638],[15.51273,56.56266],[15.51028,56.56451],[15.5109,56.56791],[15.50606,56.57241],[15.5021,56.57684],[15.50882,56.58298],[15.49178,56.59154],[15.49139,56.59403],[15.49112,56.59424],[15.49602,56.59586],[15.49541,56.59656],[15.49416,56.59744],[15.49063,56.59638],[15.49046,56.59746],[15.48971,56.59775],[15.48942,56.59872],[15.48967,56.59922],[15.48718,56.59994],[15.48515,56.60132],[15.48458,56.6014],[15.48276,56.60087],[15.4824,56.60092],[15.48171,56.60158],[15.47953,56.60275],[15.47875,56.6026],[15.47774,56.60293],[15.476,56.60392],[15.47272,56.60509],[15.46992,56.6054],[15.46945,56.60567],[15.46929,56.60625],[15.47499,56.61019],[15.47457,56.61414],[15.47717,56.61706],[15.50187,56.62718],[15.49809,56.63083],[15.50908,56.63418],[15.50832,56.63456],[15.51117,56.6385],[15.51242,56.63974],[15.51238,56.64021],[15.51389,56.63909],[15.51714,56.63785],[15.51794,56.63732],[15.51726,56.63614],[15.51529,56.63444],[15.51433,56.63223],[15.51324,56.63113],[15.51267,56.6301],[15.51251,56.62794],[15.51349,56.62602],[15.51204,56.62516],[15.51094,56.62419],[15.50899,56.62186],[15.50846,56.62043],[15.50877,56.61848],[15.50946,56.61742],[15.51059,56.61638],[15.51127,56.6144],[15.51249,56.61317],[15.51375,56.61238],[15.51588,56.61153],[15.51822,56.61103],[15.52075,56.61086],[15.52384,56.61115],[15.52746,56.61187],[15.53148,56.6132],[15.5337,56.61446],[15.53527,56.61614],[15.53768,56.61514],[15.54073,56.61454],[15.54336,56.61446],[15.5479,56.61484],[15.54889,56.61212],[15.55041,56.61048],[15.55261,56.60928],[15.55504,56.60855],[15.55668,56.60725],[15.55894,56.60625],[15.56201,56.60551],[15.5691,56.60471],[15.57358,56.60486],[15.5769,56.60541],[15.57959,56.60645],[15.58308,56.60872],[15.58541,56.60916],[15.58709,56.60972],[15.58971,56.61131],[15.59057,56.61227],[15.59137,56.61393],[15.59169,56.61541],[15.59245,56.61681],[15.59287,56.61901],[15.59287,56.62107],[15.59208,56.6228],[15.59036,56.62431],[15.58835,56.62528],[15.59051,56.62655],[15.59194,56.62817],[15.5924,56.63006],[15.5918,56.63188],[15.59095,56.6329],[15.58952,56.63396],[15.58861,56.63543],[15.58716,56.63661],[15.58404,56.63794],[15.58221,56.63833],[15.57983,56.63855],[15.57959,56.63929],[15.5787,56.63995],[15.57894,56.64034],[15.58032,56.64078],[15.58926,56.64205],[15.59876,56.64534],[15.59972,56.64526],[15.60026,56.64547],[15.60018,56.64586],[15.60422,56.64729],[15.60748,56.64726],[15.60936,56.64802],[15.61202,56.64958],[15.61225,56.64996],[15.61465,56.65096],[15.61651,56.6513],[15.61825,56.65219],[15.61889,56.65282],[15.62207,56.65336],[15.63032,56.65637],[15.63453,56.65822],[15.63657,56.65982],[15.63624,56.66018],[15.63891,56.65989],[15.64317,56.66021],[15.65018,56.66206],[15.65528,56.66384],[15.65868,56.66404],[15.66016,56.66439],[15.6608,56.66435],[15.66162,56.66463],[15.66463,56.66464]]]}}]}