{"type":"FeatureCollection","features":[{"type":"Feature","id":"0881R001","properties":{"code":"0881R001","name":"Alsjöholm-Örsjö"},"geometry":{"type":"Polygon","coordinates":[[[15.70427,56.74652],[15.70424,56.74546],[15.70462,56.7451],[15.70816,56.74446],[15.70974,56.74378],[15.71469,56.74229],[15.71799,56.74169],[15.73108,56.73258],[15.7337,56.73128],[15.73544,56.73006],[15.74374,56.72582],[15.74477,56.72558],[15.75033,56.72244],[15.75252,56.72318],[15.75356,56.72331],[15.76012,56.72582],[15.76569,56.72951],[15.7679,56.73067],[15.77269,56.73198],[15.77524,56.73295],[15.77887,56.7338],[15.78011,56.73279],[15.78288,56.73157],[15.78478,56.72863],[15.77925,56.72487],[15.77741,56.72421],[15.77547,56.72378],[15.77219,56.72041],[15.77238,56.72006],[15.77005,56.71682],[15.76826,56.71544],[15.76691,56.71239],[15.76791,56.71191],[15.77007,56.71162],[15.77183,56.71112],[15.77309,56.71148],[15.7758,56.71083],[15.78439,56.71001],[15.78733,56.70945],[15.78795,56.70953],[15.78632,56.70034],[15.80648,56.69464],[15.81002,56.69342],[15.8108,56.69297],[15.81343,56.69267],[15.8137,56.69233],[15.81312,56.6917],[15.81525,56.69124],[15.81338,56.6894],[15.81142,56.68552],[15.81344,56.6817],[15.8137,56.68053],[15.81583,56.67929],[15.81301,56.67656],[15.80799,56.67234],[15.8053,56.67047],[15.80907,56.66831],[15.80901,56.66762],[15.81139,56.66557],[15.80954,56.66513],[15.80318,56.66431],[15.79489,56.66381],[15.78838,56.66282],[15.79006,56.65968],[15.79121,56.65585],[15.79363,56.65636],[15.79472,56.6544],[15.7918,56.65357],[15.79202,56.65273],[15.80322,56.64739],[15.80524,56.64846],[15.81329,56.65155],[15.82089,56.65501],[15.82239,56.65746],[15.82339,56.65803],[15.82638,56.65872],[15.83373,56.6574],[15.83329,56.65705],[15.83234,56.65682],[15.8331,56.65516],[15.83227,56.65301],[15.83399,56.65272],[15.83284,56.65384],[15.83427,56.65462],[15.86383,56.6652],[15.8904,56.66815],[15.91436,56.66903],[15.91323,56.66514],[15.9142,56.66323],[15.9149,56.66053],[15.91671,56.65824],[15.91943,56.65162],[15.92152,56.65076],[15.9232,56.64917],[15.92344,56.64862],[15.92464,56.64838],[15.92497,56.64814],[15.92482,56.64731],[15.92551,56.64648],[15.92706,56.64642],[15.92697,56.64556],[15.92832,56.64505],[15.92776,56.64454],[15.92789,56.64435],[15.92933,56.64442],[15.92984,56.64386],[15.93062,56.64367],[15.93068,56.64339],[15.93005,56.64294],[15.93007,56.64264],[15.93083,56.64257],[15.93147,56.64215],[15.93224,56.64206],[15.93293,56.64173],[15.93347,56.64174],[15.9363,56.64014],[15.93839,56.63968],[15.93917,56.63896],[15.939,56.63764],[15.9395,56.63728],[15.93856,56.63684],[15.93446,56.63661],[15.93271,56.63607],[15.92675,56.63179],[15.92725,56.62762],[15.90958,56.6245],[15.88168,56.6161],[15.88294,56.59634],[15.87835,56.59516],[15.87543,56.59476],[15.87227,56.59374],[15.87226,56.59316],[15.8673,56.59319],[15.86645,56.59286],[15.86231,56.59261],[15.86174,56.59246],[15.85936,56.59106],[15.85504,56.58954],[15.85311,56.58911],[15.8508,56.58906],[15.83707,56.59052],[15.83738,56.59213],[15.83478,56.59448],[15.82869,56.59468],[15.82722,56.59492],[15.82271,56.59496],[15.81113,56.5966],[15.8061,56.59325],[15.80021,56.58978],[15.78464,56.5866],[15.78011,56.58551],[15.77492,56.58525],[15.77474,56.58684],[15.77656,56.58861],[15.77604,56.58921],[15.77507,56.58916],[15.77267,56.58962],[15.76973,56.59065],[15.7664,56.59073],[15.76199,56.59049],[15.76057,56.5907],[15.76005,56.59126],[15.76046,56.60311],[15.74823,56.60467],[15.74424,56.60534],[15.72496,56.61982],[15.70756,56.62481],[15.70642,56.62422],[15.70514,56.6229],[15.70472,56.62314],[15.70497,56.62343],[15.70165,56.62438],[15.70239,56.62476],[15.70379,56.62486],[15.70472,56.62562],[15.69378,56.63246],[15.69203,56.63193],[15.69015,56.63098],[15.68677,56.63085],[15.68482,56.63057],[15.68142,56.63155],[15.67964,56.63082],[15.67647,56.63079],[15.67515,56.63011],[15.67384,56.62996],[15.67347,56.6314],[15.6739,56.63268],[15.67384,56.63458],[15.67408,56.63462],[15.67436,56.63538],[15.67496,56.63852],[15.67394,56.63833],[15.67318,56.63844],[15.67219,56.63892],[15.67159,56.63969],[15.6717,56.641],[15.67094,56.64267],[15.67156,56.64323],[15.67126,56.64389],[15.67156,56.64447],[15.67091,56.64472],[15.671,56.64507],[15.67046,56.64549],[15.67107,56.64808],[15.67013,56.64876],[15.67171,56.65073],[15.67239,56.65082],[15.67306,56.65069],[15.67358,56.65091],[15.67447,56.65185],[15.6752,56.65226],[15.67549,56.65281],[15.67735,56.65376],[15.67724,56.65394],[15.67991,56.65663],[15.6803,56.6569],[15.68143,56.65712],[15.68212,56.65758],[15.68323,56.6595],[15.68061,56.66384],[15.66891,56.66449],[15.66788,56.66399],[15.66658,56.6639],[15.66463,56.66464],[15.66162,56.66463],[15.6608,56.66435],[15.66016,56.66439],[15.65868,56.66404],[15.65528,56.66384],[15.65018,56.66206],[15.64317,56.66021],[15.63891,56.65989],[15.63624,56.66018],[15.63554,56.66113],[15.63584,56.66214],[15.63543,56.66599],[15.63599,56.66766],[15.63705,56.66885],[15.63787,56.67056],[15.63787,56.67101],[15.63734,56.67164],[15.63774,56.67354],[15.63871,56.67429],[15.64092,56.67519],[15.64145,56.67845],[15.6419,56.67882],[15.64373,56.67941],[15.64417,56.67974],[15.64472,56.67977],[15.65242,56.69359],[15.65983,56.69876],[15.66438,56.69976],[15.66502,56.70059],[15.66836,56.70135],[15.67036,56.70114],[15.67242,56.70024],[15.67514,56.69991],[15.67688,56.6982],[15.67689,56.69684],[15.67834,56.69554],[15.67843,56.69504],[15.67882,56.69474],[15.67965,56.69483],[15.68218,56.69604],[15.68193,56.69787],[15.68239,56.69873],[15.68228,56.70006],[15.68284,56.70075],[15.68179,56.70263],[15.68158,56.70374],[15.68029,56.7048],[15.67834,56.70857],[15.67747,56.71065],[15.67747,56.71198],[15.6769,56.71318],[15.67716,56.71429],[15.68016,56.71743],[15.68036,56.71789],[15.68008,56.71863],[15.68113,56.71968],[15.68169,56.72077],[15.68153,56.72171],[15.67936,56.72365],[15.6793,56.724],[15.68055,56.72427],[15.68166,56.72419],[15.68212,56.72433],[15.68266,56.7252],[15.68376,56.72616],[15.68225,56.72686],[15.6827,56.72743],[15.68373,56.72793],[15.68504,56.72802],[15.68545,56.72826],[15.68492,56.72863],[15.68603,56.72948],[15.68896,56.7301],[15.68868,56.73171],[15.68889,56.73249],[15.68904,56.73292],[15.68979,56.73321],[15.69003,56.73355],[15.68981,56.73404],[15.69049,56.73465],[15.68901,56.73564],[15.68973,56.73661],[15.68866,56.7368],[15.68839,56.73788],[15.68772,56.73831],[15.6878,56.73863],[15.68722,56.73949],[15.68899,56.74066],[15.68652,56.74214],[15.68814,56.74261],[15.68863,56.74293],[15.68932,56.74302],[15.6905,56.74396],[15.69452,56.7444],[15.69527,56.74336],[15.70026,56.7447],[15.70222,56.74606],[15.70427,56.74652]]]}},{"type":"Feature","id":"0881R002","properties":{"code":"0881R002","name":"Hälleberga-Kristvalla"},"geometry":{"type":"Polygon","coordinates":[[[15.55545,56.9297],[15.57186,56.92384],[15.57316,56.92373],[15.57422,56.92324],[15.57587,56.92284],[15.57629,56.92251],[15.58004,56.92204],[15.58434,56.92086],[15.59564,56.92575],[15.63618,56.9115],[15.66687,56.90277],[15.69259,56.91427],[15.70109,56.91524],[15.7116,56.91269],[15.71432,56.91236],[15.71451,56.91252],[15.7379,56.91122],[15.74552,56.91255],[15.75512,56.91387],[15.75375,56.91487],[15.75356,56.91537],[15.75399,56.91618],[15.75531,56.91622],[15.75634,56.9159],[15.75828,56.91425],[15.77697,56.91651],[15.7992,56.91061],[15.7973,56.90816],[15.80899,56.90417],[15.84152,56.89965],[15.854,56.90319],[15.86431,56.90723],[15.8721,56.90554],[15.87218,56.90523],[15.87545,56.90525],[15.8774,56.90605],[15.8788,56.90607],[15.88485,56.90082],[15.89301,56.88659],[15.89222,56.88619],[15.93667,56.88205],[15.94745,56.88174],[15.95123,56.88231],[15.97434,56.88219],[15.97393,56.88419],[15.97416,56.88451],[15.97593,56.88388],[15.97904,56.88147],[15.98274,56.8824],[15.98435,56.88058],[15.98633,56.88],[15.98661,56.87953],[15.98593,56.87782],[15.99383,56.87408],[15.99505,56.87329],[15.99881,56.87257],[15.99989,56.87168],[16.00083,56.87025],[16.00371,56.86937],[16.00363,56.86854],[16.00407,56.86686],[16.00389,56.86486],[16.00464,56.86399],[16.0038,56.86288],[16.00407,56.86013],[15.99979,56.85882],[15.99824,56.85804],[16.00876,56.8529],[16.01465,56.85488],[16.01744,56.85438],[16.0193,56.85332],[16.02302,56.85239],[16.02957,56.852],[16.03232,56.85321],[16.03355,56.85321],[16.03385,56.85277],[16.03454,56.85245],[16.03616,56.85227],[16.03771,56.85178],[16.03974,56.85142],[16.04993,56.8481],[16.05151,56.84883],[16.05312,56.85016],[16.05123,56.8511],[16.05175,56.85178],[16.05803,56.85371],[16.06307,56.85458],[16.06628,56.85357],[16.07036,56.85197],[16.07143,56.85145],[16.07196,56.85088],[16.07975,56.85378],[16.08177,56.85524],[16.08301,56.85575],[16.08384,56.85575],[16.08572,56.85631],[16.08736,56.85959],[16.09394,56.86848],[16.09468,56.86982],[16.09502,56.87],[16.09864,56.86987],[16.10289,56.84732],[16.09634,56.83569],[16.10233,56.83115],[16.10642,56.82966],[16.10586,56.82893],[16.10325,56.82678],[16.10235,56.82679],[16.102,56.8265],[16.09816,56.82272],[16.09924,56.82224],[16.09922,56.82104],[16.10037,56.81525],[16.10263,56.81502],[16.10655,56.80801],[16.10572,56.79206],[16.12243,56.78554],[16.11284,56.78271],[16.11348,56.78258],[16.11412,56.78142],[16.11561,56.78012],[16.11788,56.777],[16.11822,56.77581],[16.13072,56.75193],[16.124,56.74831],[16.11866,56.7411],[16.11396,56.73975],[16.10694,56.73737],[16.10519,56.73774],[16.10545,56.73918],[16.10492,56.73935],[16.10478,56.73966],[16.10358,56.74035],[16.10406,56.74081],[16.10501,56.74098],[16.10413,56.74185],[16.1045,56.74248],[16.10374,56.74295],[16.10342,56.74369],[16.1014,56.74491],[16.09656,56.74287],[16.09684,56.74256],[16.08697,56.73955],[16.07419,56.74009],[16.06805,56.73908],[16.06833,56.73881],[16.06463,56.73779],[16.06424,56.73807],[16.06293,56.73814],[16.06249,56.73855],[16.04809,56.73516],[16.01978,56.73342],[16.02552,56.72624],[16.01557,56.71751],[16.00965,56.71615],[16.00899,56.71616],[16.00827,56.71585],[16.00374,56.71484],[16.00265,56.71609],[16.00134,56.71651],[15.99847,56.71654],[15.9961,56.71598],[15.99439,56.71626],[15.99288,56.71717],[15.98867,56.71717],[15.98689,56.71776],[15.98485,56.71728],[15.98309,56.71739],[15.98099,56.71881],[15.97999,56.71881],[15.9792,56.71904],[15.97334,56.71685],[15.97162,56.71762],[15.97132,56.71814],[15.97223,56.71949],[15.97464,56.72157],[15.97699,56.72213],[15.97779,56.72184],[15.97845,56.72192],[15.97832,56.72246],[15.98274,56.72284],[15.98424,56.72365],[15.97737,56.73118],[15.97787,56.73133],[15.97766,56.73146],[15.97625,56.73133],[15.97399,56.73035],[15.97276,56.72884],[15.96984,56.72937],[15.97005,56.73001],[15.96971,56.73038],[15.97048,56.73153],[15.97059,56.73222],[15.96519,56.73295],[15.9627,56.73554],[15.96289,56.7401],[15.96192,56.7418],[15.96045,56.743],[15.958,56.74418],[15.95508,56.745],[15.95189,56.74533],[15.9485,56.74511],[15.94802,56.74537],[15.94911,56.74736],[15.94902,56.74948],[15.94813,56.75117],[15.9463,56.75279],[15.94431,56.75376],[15.94203,56.7545],[15.93972,56.75493],[15.93685,56.75506],[15.93577,56.75646],[15.93404,56.75768],[15.93193,56.7586],[15.92933,56.75922],[15.92669,56.75944],[15.92402,56.7593],[15.91925,56.76048],[15.91309,56.76108],[15.90683,56.76097],[15.90173,56.76018],[15.90076,56.76118],[15.89952,56.76202],[15.89596,56.76346],[15.8934,56.76506],[15.89113,56.7658],[15.8885,56.7662],[15.88752,56.7688],[15.88538,56.77054],[15.88275,56.77159],[15.87962,56.77226],[15.87666,56.77266],[15.87402,56.77261],[15.8706,56.77207],[15.86773,56.77103],[15.86436,56.77127],[15.86002,56.77085],[15.855,56.76949],[15.85335,56.76873],[15.85209,56.76787],[15.84811,56.76956],[15.8378,56.77077],[15.83215,56.77],[15.83339,56.76135],[15.81963,56.75901],[15.81358,56.7635],[15.80828,56.76294],[15.80635,56.76388],[15.79205,56.76114],[15.79149,56.76253],[15.77515,56.76843],[15.77146,56.7713],[15.75101,56.76999],[15.74799,56.77183],[15.74461,56.77193],[15.73074,56.77627],[15.72671,56.77803],[15.73573,56.78398],[15.71355,56.79568],[15.70454,56.80372],[15.69998,56.80003],[15.7,56.79991],[15.70128,56.79994],[15.70219,56.80026],[15.70377,56.79991],[15.70367,56.79947],[15.70184,56.79878],[15.70042,56.79885],[15.69816,56.79405],[15.69943,56.7927],[15.69443,56.79189],[15.69371,56.79337],[15.69133,56.79377],[15.68842,56.79179],[15.68737,56.79059],[15.6856,56.78965],[15.68552,56.78938],[15.68448,56.78906],[15.68377,56.78916],[15.6783,56.78794],[15.66653,56.78067],[15.66281,56.80016],[15.65557,56.81567],[15.64793,56.82716],[15.64134,56.82551],[15.61526,56.82842],[15.58723,56.83307],[15.57071,56.83474],[15.55256,56.83841],[15.54759,56.84895],[15.53773,56.86174],[15.55619,56.87406],[15.54624,56.89056],[15.54485,56.89106],[15.54369,56.89116],[15.54286,56.89172],[15.53941,56.89268],[15.53887,56.89262],[15.53864,56.89295],[15.53604,56.89296],[15.53464,56.89417],[15.53469,56.8947],[15.53416,56.89484],[15.53445,56.89518],[15.5343,56.89546],[15.53377,56.8956],[15.53346,56.89613],[15.53244,56.89664],[15.53244,56.89685],[15.53208,56.8969],[15.53111,56.89828],[15.53059,56.89834],[15.52866,56.90041],[15.51928,56.90065],[15.52128,56.91261],[15.52017,56.91406],[15.53377,56.92155],[15.53279,56.92213],[15.53509,56.92406],[15.54174,56.92743],[15.55545,56.9297]],[[15.74407,56.85344],[15.73817,56.85283],[15.73574,56.85233],[15.73309,56.85125],[15.73121,56.84979],[15.73037,56.84845],[15.72992,56.84674],[15.72861,56.84509],[15.72757,56.84266],[15.72598,56.84202],[15.72429,56.84094],[15.72335,56.83996],[15.72262,56.83856],[15.72243,56.83712],[15.72289,56.83572],[15.724,56.83441],[15.72567,56.83329],[15.72777,56.83246],[15.72985,56.83199],[15.73411,56.82955],[15.7365,56.82876],[15.73835,56.82839],[15.74086,56.82734],[15.74397,56.82673],[15.74723,56.82668],[15.75036,56.8272],[15.75304,56.82821],[15.75547,56.82992],[15.75622,56.83092],[15.75685,56.83246],[15.75738,56.83292],[15.75997,56.83339],[15.7617,56.83397],[15.76315,56.83469],[15.76532,56.83623],[15.76731,56.83449],[15.76871,56.83381],[15.7705,56.83325],[15.77146,56.83119],[15.77345,56.82962],[15.77457,56.82824],[15.7762,56.82716],[15.77824,56.82634],[15.78187,56.8257],[15.78824,56.82562],[15.79129,56.82612],[15.79431,56.82735],[15.79673,56.82889],[15.79768,56.8298],[15.79843,56.83114],[15.79856,56.83275],[15.79813,56.83464],[15.79744,56.83561],[15.79598,56.83682],[15.79573,56.83839],[15.79435,56.84095],[15.79425,56.842],[15.79541,56.84414],[15.79524,56.84592],[15.79405,56.84758],[15.79211,56.84903],[15.79006,56.84991],[15.78827,56.85037],[15.78636,56.85063],[15.78376,56.85067],[15.7806,56.85022],[15.77686,56.84913],[15.77474,56.84913],[15.77059,56.84878],[15.76876,56.84837],[15.76673,56.84761],[15.76443,56.8488],[15.75692,56.85123],[15.75447,56.85171],[15.75192,56.85184],[15.74997,56.85263],[15.74751,56.85321],[15.74407,56.85344]]]}},{"type":"Feature","id":"0881R003","properties":{"code":"0881R003","name":"Kråksmåla"},"geometry":{"type":"Polygon","coordinates":[[[15.888,57.08938],[15.88685,57.08455],[15.88758,57.0844],[15.88761,57.0842],[15.8869,57.08318],[15.88905,57.08246],[15.88937,57.0822],[15.88936,57.08175],[15.89046,57.08103],[15.89218,57.08056],[15.89237,57.08017],[15.89079,57.07969],[15.89064,57.07946],[15.89117,57.07877],[15.8941,57.07907],[15.89436,57.07937],[15.8937,57.08001],[15.89542,57.08068],[15.89651,57.08086],[15.8969,57.08124],[15.89986,57.08136],[15.90227,57.08083],[15.90351,57.08097],[15.90437,57.08132],[15.90505,57.08105],[15.90575,57.08113],[15.90601,57.08155],[15.90496,57.0815],[15.90436,57.082],[15.9068,57.083],[15.90941,57.08246],[15.90958,57.08214],[15.909,57.08184],[15.90974,57.08102],[15.91018,57.08104],[15.91092,57.08167],[15.91016,57.08198],[15.91009,57.08245],[15.91073,57.08237],[15.91309,57.0826],[15.91351,57.08284],[15.91384,57.08284],[15.91415,57.0819],[15.91489,57.08193],[15.91505,57.08225],[15.91736,57.08193],[15.91691,57.08119],[15.91802,57.08107],[15.91813,57.08162],[15.91777,57.08181],[15.91909,57.08212],[15.91957,57.08188],[15.92065,57.08193],[15.92129,57.0817],[15.92119,57.08131],[15.92148,57.08129],[15.92197,57.08191],[15.92368,57.08151],[15.92524,57.0817],[15.92543,57.082],[15.92585,57.08188],[15.92761,57.0821],[15.92838,57.08196],[15.92865,57.08211],[15.92755,57.08272],[15.92788,57.08325],[15.93005,57.08196],[15.93074,57.08232],[15.92877,57.08346],[15.92814,57.0835],[15.92851,57.08391],[15.93074,57.08357],[15.93182,57.08305],[15.93222,57.08189],[15.93278,57.08133],[15.93225,57.08072],[15.93279,57.08027],[15.93179,57.07952],[15.93111,57.07991],[15.93027,57.07966],[15.92908,57.07972],[15.92899,57.07935],[15.92999,57.07907],[15.92938,57.07836],[15.92977,57.07799],[15.93075,57.07791],[15.93225,57.07866],[15.93329,57.07885],[15.93465,57.07846],[15.93481,57.07805],[15.93426,57.07807],[15.93365,57.07777],[15.93364,57.07739],[15.93462,57.07686],[15.93325,57.07651],[15.93275,57.07691],[15.93235,57.0767],[15.9321,57.07437],[15.93396,57.07388],[15.93448,57.07455],[15.93536,57.07478],[15.93794,57.07437],[15.93786,57.07341],[15.94029,57.07323],[15.9407,57.07187],[15.94202,57.07112],[15.9407,57.06998],[15.94061,57.06908],[15.94183,57.06884],[15.94305,57.06822],[15.94586,57.06773],[15.94743,57.06652],[15.94828,57.06651],[15.94949,57.06612],[15.95101,57.06611],[15.95281,57.06554],[15.95355,57.06446],[15.95576,57.06321],[15.95568,57.06253],[15.95725,57.06139],[15.95761,57.06063],[15.96119,57.05809],[15.96374,57.05708],[15.96511,57.05686],[15.96604,57.05596],[15.96789,57.05512],[15.97089,57.05486],[15.97205,57.05435],[15.97212,57.05416],[15.9715,57.05388],[15.97134,57.05318],[15.9709,57.05288],[15.97242,57.05183],[15.975,57.0513],[15.97622,57.05077],[15.97727,57.05092],[15.97964,57.05075],[15.9848,57.05121],[15.98562,57.05095],[15.98578,57.05034],[15.98634,57.04994],[15.98889,57.04967],[15.98945,57.04943],[15.99051,57.04806],[15.98983,57.048],[15.98838,57.04658],[15.9885,57.04569],[15.98779,57.04427],[15.98665,57.04292],[15.98989,57.04208],[15.99118,57.04071],[15.99179,57.04039],[15.99204,57.04045],[15.99225,57.0402],[15.9919,57.04005],[15.99176,57.03937],[15.99265,57.0382],[15.99336,57.03608],[15.99454,57.03575],[15.99546,57.03608],[15.99568,57.03571],[15.99672,57.03646],[15.99725,57.03616],[15.99797,57.03633],[15.99806,57.03548],[15.99767,57.0349],[15.99832,57.0349],[15.9982,57.03398],[15.99784,57.03399],[15.99737,57.03369],[15.99731,57.03331],[15.99653,57.03312],[15.9959,57.03268],[15.99459,57.03265],[15.99362,57.03239],[15.99306,57.03193],[15.993,57.03152],[15.99231,57.03131],[15.99205,57.03156],[15.99046,57.03182],[15.98893,57.03164],[15.98766,57.03101],[15.98749,57.02967],[15.98705,57.02941],[15.988,57.02822],[15.98743,57.02766],[15.98862,57.02578],[15.98979,57.026],[15.99117,57.02507],[15.99087,57.02491],[15.99051,57.02513],[15.99028,57.02506],[15.9903,57.0245],[15.99117,57.02395],[15.99109,57.0233],[15.98893,57.02204],[15.98969,57.01986],[15.99432,57.01722],[15.99521,57.01734],[15.99693,57.01711],[15.99712,57.01724],[15.99767,57.01703],[15.99749,57.01625],[15.99846,57.01584],[15.99844,57.01531],[15.99921,57.01569],[15.9994,57.01613],[16.00019,57.01623],[16.00025,57.01527],[16.00096,57.01494],[16.00084,57.01472],[16.00191,57.01381],[16.00129,57.01271],[16.00226,57.01176],[16.00209,57.01103],[16.00093,57.0109],[16.00044,57.0111],[15.9998,57.01098],[15.9995,57.01113],[15.99868,57.01045],[15.99889,57.0101],[15.99989,57.00992],[15.99985,57.00962],[15.9991,57.00966],[15.99886,57.00945],[16.00044,57.00836],[15.99999,57.00807],[16.00082,57.00747],[16.00092,57.0065],[16.00126,57.0063],[16.00123,57.0061],[16.00056,57.00592],[16.00104,57.0058],[16.00093,57.00564],[16.00156,57.00553],[16.00134,57.00519],[16.00083,57.00506],[16.00066,57.00454],[16.00089,57.004],[16.00062,57.00266],[16.00121,57.00199],[16.0002,57.00148],[16.00058,57.00086],[15.99981,56.9999],[16.00114,56.99538],[16.00073,56.99513],[16.00112,56.99488],[16.00028,56.99338],[16.00116,56.99241],[16.00124,56.99161],[16.002,56.99132],[16.00153,56.99082],[16.00169,56.99072],[16.00235,56.99089],[16.00265,56.99035],[16.00165,56.99025],[16.00099,56.9898],[16.00107,56.98803],[16.00037,56.98743],[15.99989,56.98556],[16.0002,56.98512],[16.00065,56.98498],[16.00105,56.98506],[16.00129,56.98537],[16.00203,56.98527],[16.00213,56.985],[16.00236,56.98526],[16.00318,56.98513],[16.00327,56.98487],[16.00377,56.98474],[16.00348,56.98434],[16.00394,56.984],[16.00379,56.98354],[16.00436,56.98367],[16.0051,56.98332],[16.00565,56.98369],[16.00605,56.98364],[16.00722,56.98155],[16.00723,56.98142],[16.0066,56.98134],[16.00636,56.98094],[16.00584,56.98087],[16.00533,56.98003],[16.00403,56.97941],[16.00421,56.97885],[16.00268,56.97801],[16.00326,56.97693],[16.00407,56.97654],[16.00278,56.97546],[16.00199,56.97552],[16.00104,56.97466],[15.99999,56.97449],[15.99949,56.97391],[15.99948,56.97352],[15.99976,56.97337],[16.00154,56.97347],[16.00207,56.97336],[16.00313,56.97387],[16.00383,56.9739],[16.00444,56.97452],[16.00407,56.97519],[16.00436,56.97575],[16.00756,56.97469],[16.008,56.97494],[16.00863,56.97499],[16.00976,56.97689],[16.01149,56.97686],[16.01419,56.97587],[16.01514,56.97589],[16.01538,56.9763],[16.01607,56.97643],[16.01641,56.97555],[16.01795,56.97519],[16.02036,56.97605],[16.02169,56.97699],[16.02301,56.97692],[16.02422,56.97586],[16.02759,56.97603],[16.02854,56.97632],[16.02929,56.97683],[16.0307,56.97688],[16.03153,56.97726],[16.03197,56.978],[16.03344,56.97841],[16.03479,56.9791],[16.03541,56.97977],[16.03535,56.98313],[16.03576,56.98374],[16.0383,56.98113],[16.03866,56.97982],[16.03859,56.97751],[16.04024,56.97724],[16.04066,56.97682],[16.04041,56.97597],[16.03876,56.97519],[16.04083,56.97272],[16.04541,56.96923],[16.05981,56.96534],[16.06329,56.96834],[16.06475,56.96818],[16.06658,56.96892],[16.06926,56.96955],[16.07028,56.97002],[16.07262,56.97019],[16.07335,56.97085],[16.08096,56.97496],[16.08189,56.97742],[16.08159,56.97774],[16.08006,56.97842],[16.07914,56.9795],[16.07932,56.97983],[16.08165,56.97984],[16.08214,56.98101],[16.0838,56.98212],[16.08688,56.98219],[16.0895,56.98333],[16.09179,56.98591],[16.09705,56.98588],[16.09942,56.98547],[16.10051,56.98489],[16.10128,56.98472],[16.12038,56.98328],[16.16042,56.97819],[16.17902,56.97897],[16.19051,56.96855],[16.21194,56.96461],[16.2151,56.96088],[16.22014,56.95557],[16.22158,56.95144],[16.22132,56.94217],[16.22467,56.93675],[16.22816,56.93536],[16.22887,56.93443],[16.23033,56.93395],[16.23075,56.93345],[16.2324,56.93243],[16.23456,56.93179],[16.23617,56.93198],[16.2369,56.93175],[16.22629,56.92652],[16.22562,56.91961],[16.21482,56.91649],[16.21372,56.91599],[16.19852,56.91176],[16.15772,56.89736],[16.15909,56.89671],[16.16099,56.89643],[16.16293,56.89548],[16.16358,56.89529],[16.16405,56.8954],[16.16811,56.88765],[16.17206,56.88266],[16.17404,56.87829],[16.18371,56.87111],[16.17983,56.87092],[16.16374,56.85987],[16.15412,56.85408],[16.1406,56.85627],[16.13384,56.85596],[16.13688,56.84892],[16.14005,56.84654],[16.1389,56.84429],[16.13713,56.84356],[16.13548,56.84033],[16.13547,56.83905],[16.13641,56.83829],[16.1382,56.83745],[16.13912,56.83545],[16.14109,56.83395],[16.13826,56.833],[16.1346,56.83257],[16.13234,56.83179],[16.13021,56.83178],[16.12875,56.83214],[16.12895,56.83243],[16.12358,56.83525],[16.12233,56.83648],[16.11957,56.83787],[16.11865,56.83894],[16.11684,56.83998],[16.11289,56.84186],[16.10708,56.84405],[16.10377,56.84562],[16.10289,56.84732],[16.09864,56.86987],[16.09502,56.87],[16.09468,56.86982],[16.09394,56.86848],[16.08736,56.85959],[16.08572,56.85631],[16.08384,56.85575],[16.08301,56.85575],[16.08177,56.85524],[16.07975,56.85378],[16.07196,56.85088],[16.07143,56.85145],[16.07036,56.85197],[16.06628,56.85357],[16.06307,56.85458],[16.05716,56.8535],[16.05175,56.85178],[16.05123,56.8511],[16.05312,56.85016],[16.05151,56.84883],[16.04993,56.8481],[16.03974,56.85142],[16.03771,56.85178],[16.03616,56.85227],[16.03454,56.85245],[16.03385,56.85277],[16.03355,56.85321],[16.03232,56.85321],[16.02957,56.852],[16.02302,56.85239],[16.0193,56.85332],[16.01744,56.85438],[16.01465,56.85488],[16.00876,56.8529],[15.99824,56.85804],[15.99979,56.85882],[16.00407,56.86013],[16.0038,56.86288],[16.00464,56.86399],[16.00389,56.86486],[16.00407,56.86686],[16.00363,56.86854],[16.00378,56.8693],[16.00083,56.87025],[15.99989,56.87168],[15.99881,56.87257],[15.99505,56.87329],[15.99383,56.87408],[15.98593,56.87782],[15.98661,56.87953],[15.98633,56.88],[15.98435,56.88058],[15.98274,56.8824],[15.97904,56.88147],[15.97593,56.88388],[15.97416,56.88451],[15.97393,56.88419],[15.97434,56.88219],[15.95123,56.88231],[15.94745,56.88174],[15.93667,56.88205],[15.89222,56.88619],[15.89301,56.88659],[15.88485,56.90082],[15.8788,56.90607],[15.8774,56.90605],[15.87545,56.90525],[15.87218,56.90523],[15.8721,56.90554],[15.86431,56.90723],[15.854,56.90319],[15.84152,56.89965],[15.80899,56.90417],[15.7973,56.90816],[15.79986,56.91146],[15.79862,56.91292],[15.79993,56.91493],[15.80111,56.91487],[15.80137,56.91521],[15.80116,56.91545],[15.80323,56.91665],[15.80542,56.91888],[15.80624,56.91933],[15.80703,56.92031],[15.81004,56.92236],[15.81082,56.92309],[15.81176,56.92464],[15.81355,56.92484],[15.81459,56.92615],[15.81816,56.92805],[15.82011,56.92865],[15.82072,56.92968],[15.8217,56.93048],[15.82297,56.9311],[15.82305,56.93211],[15.82199,56.93287],[15.82181,56.93331],[15.82209,56.93373],[15.82235,56.93401],[15.82501,56.93509],[15.82681,56.93751],[15.82758,56.93808],[15.82783,56.93873],[15.83368,56.94351],[15.83244,56.94513],[15.83379,56.95269],[15.83527,56.95625],[15.83469,56.959],[15.83486,56.96454],[15.83619,56.96883],[15.83607,56.96987],[15.8355,56.97096],[15.83613,56.97233],[15.83558,56.97351],[15.83614,56.97419],[15.83417,56.97719],[15.83435,56.97838],[15.8303,56.98769],[15.82986,56.99067],[15.82891,56.99156],[15.82871,56.9921],[15.82701,56.99305],[15.8264,56.9938],[15.82595,56.99395],[15.8256,56.99551],[15.82381,56.99709],[15.82186,56.99795],[15.82116,56.99859],[15.81973,56.99889],[15.81829,56.99983],[15.81477,57.00064],[15.816,57.00185],[15.81577,57.00336],[15.81518,57.00377],[15.81437,57.00495],[15.81313,57.00564],[15.81185,57.00782],[15.81078,57.00822],[15.80348,57.01268],[15.80284,57.01333],[15.80145,57.01381],[15.80012,57.01467],[15.79611,57.016],[15.79209,57.01898],[15.79061,57.01944],[15.7839,57.02363],[15.77948,57.03217],[15.77427,57.03461],[15.76726,57.03888],[15.76573,57.03956],[15.76544,57.03934],[15.73371,57.05642],[15.72989,57.06144],[15.73259,57.06293],[15.73377,57.06527],[15.73714,57.0649],[15.74317,57.06669],[15.75124,57.06543],[15.7537,57.06449],[15.76215,57.06363],[15.77241,57.06321],[15.78202,57.06578],[15.78949,57.0691],[15.79427,57.0702],[15.80771,57.07158],[15.80943,57.07049],[15.8152,57.07038],[15.81437,57.07431],[15.83294,57.08653],[15.83526,57.08564],[15.83672,57.08581],[15.83656,57.08681],[15.83691,57.0873],[15.83954,57.08724],[15.8455,57.08346],[15.84736,57.08478],[15.84765,57.08547],[15.86254,57.08884],[15.888,57.08938]]]}},{"type":"Feature","id":"0881R004","properties":{"code":"0881R004","name":"Kungshall"},"geometry":{"type":"Polygon","coordinates":[[[15.91392,56.75675],[15.91405,56.7512],[15.91306,56.74857],[15.90975,56.74669],[15.90856,56.74665],[15.90814,56.74983],[15.90773,56.75073],[15.90625,56.75128],[15.90523,56.75262],[15.90249,56.7515],[15.90183,56.75137],[15.90054,56.75155],[15.89899,56.75293],[15.89862,56.75286],[15.89783,56.75396],[15.89862,56.75559],[15.9042,56.75566],[15.90811,56.75645],[15.90936,56.75641],[15.91042,56.75672],[15.91198,56.75619],[15.91299,56.75672],[15.91392,56.75675]]]}},{"type":"Feature","id":"0881R005","properties":{"code":"0881R005","name":"Myrdalen-Idehult-Rismåla"},"geometry":{"type":"Polygon","coordinates":[[[15.87661,56.77266],[15.8786,56.77245],[15.88214,56.77175],[15.88488,56.77079],[15.88627,56.76998],[15.88752,56.7688],[15.8885,56.7662],[15.89113,56.7658],[15.8934,56.76506],[15.89596,56.76346],[15.89952,56.76202],[15.90076,56.76118],[15.90173,56.76018],[15.90683,56.76097],[15.91309,56.76108],[15.91364,56.75674],[15.91299,56.75672],[15.91198,56.75619],[15.91042,56.75672],[15.90936,56.75641],[15.90811,56.75645],[15.9042,56.75566],[15.89862,56.75559],[15.89783,56.75396],[15.89862,56.75286],[15.89899,56.75293],[15.90054,56.75155],[15.90183,56.75137],[15.90249,56.7515],[15.90523,56.75262],[15.90625,56.75128],[15.90773,56.75073],[15.90814,56.74983],[15.90856,56.74665],[15.90538,56.74647],[15.90253,56.74786],[15.89745,56.74466],[15.90137,56.74265],[15.90333,56.74198],[15.90526,56.74178],[15.90295,56.74149],[15.90089,56.74098],[15.89202,56.73825],[15.88912,56.74104],[15.88935,56.74401],[15.88134,56.75005],[15.87837,56.74815],[15.87777,56.74813],[15.87733,56.74789],[15.87696,56.74796],[15.87634,56.7476],[15.87506,56.74867],[15.87477,56.7492],[15.87423,56.74941],[15.87397,56.7499],[15.87293,56.74983],[15.87161,56.75011],[15.87204,56.75144],[15.87137,56.75461],[15.86919,56.75595],[15.87128,56.75855],[15.87001,56.75974],[15.86745,56.76071],[15.86407,56.76101],[15.86119,56.76022],[15.85886,56.76052],[15.85301,56.76178],[15.85435,56.76597],[15.85209,56.76787],[15.85443,56.76926],[15.85705,56.77014],[15.86002,56.77085],[15.86436,56.77127],[15.86773,56.77103],[15.86945,56.77175],[15.87122,56.77221],[15.87402,56.77261],[15.87661,56.77266]]]}},{"type":"Feature","id":"0881R006","properties":{"code":"0881R006","name":"Nybro centrum-Paradiset-Åkrahäll"},"geometry":{"type":"Polygon","coordinates":[[[15.91309,56.76108],[15.91925,56.76048],[15.92402,56.7593],[15.92731,56.75942],[15.93067,56.75896],[15.93296,56.75821],[15.93457,56.75737],[15.93577,56.75646],[15.93685,56.75506],[15.93972,56.75493],[15.94203,56.7545],[15.94431,56.75376],[15.9463,56.75279],[15.9475,56.75188],[15.94853,56.75058],[15.94902,56.74948],[15.94918,56.74779],[15.9489,56.74668],[15.94802,56.74537],[15.94479,56.74505],[15.94618,56.74194],[15.94563,56.74099],[15.94475,56.74022],[15.94054,56.7401],[15.94006,56.73908],[15.92435,56.74136],[15.91677,56.74313],[15.91364,56.74302],[15.90532,56.74176],[15.90333,56.74198],[15.90137,56.74265],[15.89745,56.74466],[15.90253,56.74786],[15.90538,56.74647],[15.90975,56.74669],[15.91306,56.74857],[15.91405,56.7512],[15.91422,56.7563],[15.91392,56.75675],[15.91364,56.75674],[15.91309,56.76108]]]}},{"type":"Feature","id":"0881R007","properties":{"code":"0881R007","name":"Nybro södra-Madesjö"},"geometry":{"type":"Polygon","coordinates":[[[15.85886,56.76052],[15.86119,56.76022],[15.86407,56.76101],[15.86756,56.7607],[15.87001,56.75974],[15.87128,56.75855],[15.86919,56.75595],[15.87137,56.75461],[15.87204,56.75144],[15.87161,56.75011],[15.87293,56.74983],[15.87397,56.7499],[15.87423,56.74941],[15.87477,56.7492],[15.87506,56.74867],[15.87634,56.7476],[15.87696,56.74796],[15.87733,56.74789],[15.87777,56.74813],[15.87837,56.74815],[15.88134,56.75005],[15.88935,56.74401],[15.88912,56.74104],[15.89202,56.73825],[15.90295,56.74149],[15.91515,56.74315],[15.91779,56.74298],[15.92435,56.74136],[15.94006,56.73908],[15.94054,56.7401],[15.94475,56.74022],[15.94563,56.74099],[15.94618,56.74194],[15.94479,56.74505],[15.94802,56.74537],[15.9485,56.74511],[15.95256,56.74531],[15.95513,56.74499],[15.958,56.74418],[15.96003,56.74325],[15.96127,56.74241],[15.96278,56.74043],[15.963,56.73936],[15.9627,56.73554],[15.96498,56.73325],[15.96576,56.7315],[15.96563,56.72994],[15.96482,56.72845],[15.96674,56.72697],[15.96777,56.72493],[15.96751,56.72313],[15.96591,56.7212],[15.9636,56.7199],[15.95997,56.7188],[15.95676,56.71852],[15.954,56.71872],[15.9516,56.71785],[15.94853,56.71735],[15.94451,56.71747],[15.942,56.71792],[15.93665,56.71959],[15.93446,56.72079],[15.93208,56.72143],[15.93053,56.72209],[15.92827,56.72382],[15.92527,56.72274],[15.92151,56.72202],[15.91889,56.72183],[15.91568,56.72211],[15.91225,56.72315],[15.91009,56.72431],[15.90878,56.72545],[15.90582,56.72572],[15.90349,56.72632],[15.90031,56.72671],[15.89852,56.72721],[15.89635,56.72823],[15.8936,56.72914],[15.89118,56.73074],[15.89012,56.73122],[15.88693,56.73084],[15.88369,56.73088],[15.88107,56.73116],[15.87866,56.73178],[15.8757,56.73332],[15.87348,56.73554],[15.86987,56.73638],[15.86761,56.73711],[15.86474,56.7386],[15.86291,56.74043],[15.86227,56.74183],[15.86231,56.74328],[15.86325,56.74497],[15.86181,56.74611],[15.86073,56.7476],[15.8589,56.74818],[15.8573,56.74895],[15.85529,56.75072],[15.85469,56.75206],[15.85456,56.7553],[15.85529,56.75699],[15.85662,56.75824],[15.85199,56.76147],[15.85062,56.76322],[15.85042,56.76545],[15.85112,56.76687],[15.85209,56.76787],[15.85435,56.76597],[15.85301,56.76178],[15.85886,56.76052]]]}},{"type":"Feature","id":"0881R008","properties":{"code":"0881R008","name":"Nybros södra omland"},"geometry":{"type":"Polygon","coordinates":[[[15.73074,56.77627],[15.74461,56.77193],[15.74799,56.77183],[15.75101,56.76999],[15.77146,56.7713],[15.77515,56.76843],[15.79149,56.76253],[15.79205,56.76114],[15.80635,56.76388],[15.80828,56.76294],[15.81358,56.7635],[15.81963,56.75901],[15.83339,56.76135],[15.83215,56.77],[15.8378,56.77077],[15.84811,56.76956],[15.85209,56.76787],[15.85112,56.76687],[15.85042,56.76545],[15.85062,56.76322],[15.85199,56.76147],[15.85662,56.75824],[15.85529,56.75699],[15.85463,56.75566],[15.85464,56.7524],[15.85509,56.75104],[15.85583,56.75008],[15.8573,56.74895],[15.8589,56.74818],[15.86073,56.7476],[15.86181,56.74611],[15.86325,56.74497],[15.86231,56.74328],[15.86237,56.74147],[15.86345,56.73978],[15.86602,56.73779],[15.86931,56.73654],[15.87348,56.73554],[15.87608,56.73305],[15.8792,56.73161],[15.88167,56.73106],[15.88386,56.73087],[15.88755,56.73087],[15.89012,56.73122],[15.89118,56.73074],[15.8936,56.72914],[15.89635,56.72823],[15.89909,56.72702],[15.9015,56.72649],[15.90349,56.72632],[15.90582,56.72572],[15.90878,56.72545],[15.91097,56.72379],[15.91278,56.72292],[15.91447,56.72237],[15.9176,56.72188],[15.92085,56.72194],[15.92527,56.72274],[15.92827,56.72382],[15.92962,56.72263],[15.93153,56.72164],[15.93446,56.72079],[15.93717,56.7194],[15.94325,56.71765],[15.9459,56.71734],[15.94848,56.71735],[15.9516,56.71785],[15.954,56.71872],[15.95676,56.71852],[15.95932,56.7187],[15.96235,56.71943],[15.96551,56.7209],[15.96714,56.72247],[15.9678,56.72456],[15.967,56.72666],[15.96482,56.72845],[15.96579,56.73072],[15.96569,56.73184],[15.96519,56.73295],[15.97059,56.73222],[15.97048,56.73153],[15.96971,56.73038],[15.97005,56.73001],[15.96984,56.72937],[15.97276,56.72884],[15.97399,56.73035],[15.97625,56.73133],[15.97766,56.73146],[15.97787,56.73133],[15.97737,56.73118],[15.98424,56.72365],[15.98313,56.72292],[15.97832,56.72246],[15.97845,56.72192],[15.97779,56.72184],[15.97699,56.72213],[15.97448,56.72149],[15.97249,56.71981],[15.9713,56.71807],[15.97153,56.71767],[15.97334,56.71685],[15.9792,56.71904],[15.97999,56.71881],[15.98099,56.71881],[15.98309,56.71739],[15.98485,56.71728],[15.98689,56.71776],[15.98867,56.71717],[15.99288,56.71717],[15.99439,56.71626],[15.9961,56.71598],[15.99847,56.71654],[16.00134,56.71651],[16.00265,56.71609],[16.00374,56.71484],[16.00827,56.71585],[16.00899,56.71616],[16.00965,56.71615],[16.01557,56.71751],[16.02552,56.72624],[16.02649,56.7267],[16.02743,56.7277],[16.02839,56.72807],[16.02956,56.72824],[16.03172,56.72818],[16.03779,56.72679],[16.04012,56.72682],[16.04167,56.7265],[16.0454,56.72494],[16.04855,56.7226],[16.05101,56.7216],[16.05355,56.71961],[16.05574,56.71855],[16.05735,56.71701],[16.05886,56.7161],[16.06163,56.71527],[16.06501,56.7159],[16.06536,56.71488],[16.06612,56.71387],[16.06824,56.7124],[16.07017,56.71044],[16.0714,56.7098],[16.07176,56.70862],[16.07086,56.70871],[16.07035,56.70845],[16.06806,56.70921],[16.06529,56.71084],[16.0632,56.7109],[16.06276,56.71063],[16.06307,56.71042],[16.06291,56.71024],[16.06082,56.7098],[16.06058,56.70952],[16.06113,56.70917],[16.06018,56.70873],[16.05992,56.70813],[16.06191,56.70631],[16.06159,56.70249],[16.06187,56.70198],[16.06153,56.70166],[16.06181,56.70127],[16.05966,56.6998],[16.05922,56.6998],[16.05841,56.70032],[16.05799,56.69983],[16.05671,56.69983],[16.05611,56.70031],[16.05492,56.70075],[16.05451,56.70057],[16.05444,56.7001],[16.05495,56.69944],[16.05436,56.69922],[16.05392,56.69945],[16.04834,56.69737],[16.04892,56.69595],[16.04826,56.69511],[16.04691,56.69199],[16.04714,56.69106],[16.05602,56.69086],[16.06553,56.69029],[16.07029,56.69025],[16.07513,56.68746],[16.0749,56.68567],[16.07428,56.68569],[16.07436,56.6851],[16.07388,56.68421],[16.07424,56.68387],[16.07331,56.68258],[16.07306,56.68112],[16.07201,56.67983],[16.07103,56.67667],[16.06772,56.67018],[16.06874,56.66925],[16.06905,56.66857],[16.06443,56.66609],[16.05266,56.66133],[16.04584,56.66584],[16.03698,56.66953],[16.0252,56.66682],[16.01916,56.6656],[16.01677,56.66533],[16.01514,56.66539],[16.00473,56.66664],[16.00122,56.67724],[16.00718,56.67539],[16.0079,56.6749],[16.00843,56.67414],[16.01646,56.67386],[16.01609,56.67726],[16.01479,56.67768],[16.0124,56.67786],[16.0104,56.67866],[16.00898,56.67859],[16.00875,56.67837],[16.00628,56.67831],[16.00547,56.67885],[16.00444,56.67901],[16.00259,56.67869],[15.99827,56.67843],[15.99787,56.67833],[15.99663,56.67702],[15.99592,56.67738],[15.99562,56.67709],[15.99694,56.67575],[15.99725,56.67474],[15.98637,56.67924],[15.9796,56.68056],[15.97071,56.6859],[15.96809,56.68634],[15.96335,56.68759],[15.96182,56.68751],[15.95997,56.68775],[15.95968,56.68949],[15.95396,56.69025],[15.95381,56.6904],[15.95362,56.69028],[15.94321,56.69157],[15.94342,56.69177],[15.94241,56.69188],[15.93907,56.69014],[15.93422,56.6881],[15.91814,56.68193],[15.91436,56.66903],[15.8904,56.66815],[15.86383,56.6652],[15.83427,56.65462],[15.83284,56.65384],[15.83399,56.65272],[15.83227,56.65301],[15.8331,56.65516],[15.83234,56.65682],[15.83329,56.65705],[15.83373,56.6574],[15.82638,56.65872],[15.82339,56.65803],[15.82239,56.65746],[15.82089,56.65501],[15.81329,56.65155],[15.80524,56.64846],[15.80322,56.64739],[15.79202,56.65273],[15.7918,56.65357],[15.79472,56.6544],[15.79363,56.65636],[15.79121,56.65585],[15.79006,56.65968],[15.78838,56.66282],[15.79489,56.66381],[15.80318,56.66431],[15.80954,56.66513],[15.81139,56.66557],[15.80901,56.66762],[15.80907,56.66831],[15.8053,56.67047],[15.80799,56.67234],[15.81301,56.67656],[15.81583,56.67929],[15.8137,56.68053],[15.81344,56.6817],[15.81142,56.68552],[15.81338,56.6894],[15.81525,56.69124],[15.81312,56.6917],[15.8137,56.69233],[15.81343,56.69267],[15.8108,56.69297],[15.81002,56.69342],[15.80648,56.69464],[15.78632,56.70034],[15.78795,56.70953],[15.78733,56.70945],[15.78439,56.71001],[15.7758,56.71083],[15.77309,56.71148],[15.77183,56.71112],[15.77007,56.71162],[15.76791,56.71191],[15.76691,56.71239],[15.76826,56.71544],[15.77005,56.71682],[15.77238,56.72006],[15.77219,56.72041],[15.77547,56.72378],[15.77741,56.72421],[15.77925,56.72487],[15.78478,56.72863],[15.78288,56.73157],[15.78011,56.73279],[15.77887,56.7338],[15.77524,56.73295],[15.77269,56.73198],[15.7679,56.73067],[15.76569,56.72951],[15.76012,56.72582],[15.75356,56.72331],[15.75252,56.72318],[15.75033,56.72244],[15.74477,56.72558],[15.74374,56.72582],[15.73544,56.73006],[15.7337,56.73128],[15.73108,56.73258],[15.71799,56.74169],[15.71469,56.74229],[15.70974,56.74378],[15.70816,56.74446],[15.70518,56.74494],[15.7043,56.74531],[15.70422,56.74656],[15.70493,56.74664],[15.70623,56.74721],[15.70624,56.74865],[15.70677,56.74905],[15.70701,56.7498],[15.7083,56.7506],[15.70871,56.75136],[15.70879,56.75482],[15.70941,56.75785],[15.71005,56.7588],[15.71006,56.75999],[15.71075,56.76157],[15.71059,56.76192],[15.71168,56.76819],[15.72427,56.77639],[15.72515,56.77677],[15.72671,56.77803],[15.73074,56.77627]]]}},{"type":"Feature","id":"0881R009","properties":{"code":"0881R009","name":"Orrefors-Flygsfors"},"geometry":{"type":"Polygon","coordinates":[[[15.74487,56.85344],[15.74869,56.85298],[15.75192,56.85184],[15.75447,56.85171],[15.75697,56.85122],[15.76443,56.8488],[15.76673,56.84761],[15.76876,56.84837],[15.77059,56.84878],[15.77474,56.84913],[15.77686,56.84913],[15.7806,56.85022],[15.78376,56.85067],[15.78636,56.85063],[15.78827,56.85037],[15.79006,56.84991],[15.79211,56.84903],[15.79405,56.84758],[15.79524,56.84592],[15.79541,56.84414],[15.79425,56.842],[15.79435,56.84095],[15.79573,56.83839],[15.79598,56.83682],[15.79744,56.83561],[15.79813,56.83464],[15.79856,56.83275],[15.79843,56.83114],[15.79768,56.8298],[15.79673,56.82889],[15.79431,56.82735],[15.79129,56.82612],[15.78824,56.82562],[15.78187,56.8257],[15.77824,56.82634],[15.7762,56.82716],[15.77457,56.82824],[15.77345,56.82962],[15.77146,56.83119],[15.7705,56.83325],[15.76871,56.83381],[15.76731,56.83449],[15.76532,56.83623],[15.76315,56.83469],[15.7617,56.83397],[15.75997,56.83339],[15.75738,56.83292],[15.75685,56.83246],[15.75622,56.83092],[15.75547,56.82992],[15.75304,56.82821],[15.75036,56.8272],[15.74723,56.82668],[15.74397,56.82673],[15.74086,56.82734],[15.73835,56.82839],[15.7365,56.82876],[15.73411,56.82955],[15.72985,56.83199],[15.72777,56.83246],[15.72567,56.83329],[15.724,56.83441],[15.72289,56.83572],[15.72243,56.83712],[15.72262,56.83856],[15.72335,56.83996],[15.72429,56.84094],[15.72598,56.84202],[15.72757,56.84266],[15.72861,56.84509],[15.72992,56.84674],[15.73037,56.84845],[15.73121,56.84979],[15.73309,56.85125],[15.73574,56.85233],[15.73817,56.85283],[15.74282,56.85337],[15.74487,56.85344]]]}}]}