{"type":"FeatureCollection","features":[{"type":"Feature","id":"0980R001","properties":{"code":"0980R001","name":"Bingeby"},"geometry":{"type":"Polygon","coordinates":[[[18.31773,57.64209],[18.324,57.64109],[18.32318,57.63921],[18.32267,57.63878],[18.31973,57.63742],[18.3173,57.63747],[18.31712,57.63652],[18.31464,57.63661],[18.31271,57.63691],[18.31056,57.63737],[18.31174,57.63903],[18.31241,57.63953],[18.3092,57.64151],[18.30886,57.64133],[18.30742,57.64216],[18.30565,57.64389],[18.30522,57.64403],[18.30538,57.64473],[18.31245,57.64837],[18.31431,57.64736],[18.31589,57.64599],[18.31575,57.64507],[18.31366,57.64389],[18.31599,57.64267],[18.31773,57.64209]]]}},{"type":"Feature","id":"0980R002","properties":{"code":"0980R002","name":"Gotland mellersta"},"geometry":{"type":"Polygon","coordinates":[[[18.20058,57.53335],[18.20193,57.53316],[18.20509,57.53342],[18.20883,57.53292],[18.20722,57.53083],[18.20805,57.53046],[18.20978,57.53026],[18.21224,57.53027],[18.21478,57.52933],[18.21608,57.52774],[18.21799,57.52638],[18.21983,57.52571],[18.22236,57.52204],[18.22403,57.52178],[18.225,57.52143],[18.22601,57.52031],[18.22744,57.52013],[18.22786,57.52042],[18.22843,57.52041],[18.23287,57.51949],[18.23807,57.51696],[18.24131,57.51636],[18.24172,57.51597],[18.24373,57.515],[18.24543,57.51303],[18.24574,57.51219],[18.24425,57.51036],[18.24261,57.50736],[18.24236,57.50517],[18.24288,57.50328],[18.2441,57.50108],[18.24599,57.50019],[18.24592,57.50001],[18.25014,57.49859],[18.25535,57.49742],[18.2573,57.49593],[18.25826,57.49362],[18.2581,57.4926],[18.25834,57.49257],[18.2576,57.49182],[18.25478,57.48991],[18.25279,57.48888],[18.26,57.48428],[18.26362,57.48944],[18.25885,57.49248],[18.26013,57.49364],[18.26232,57.49493],[18.26558,57.49585],[18.26591,57.49633],[18.26837,57.49694],[18.26992,57.49652],[18.27115,57.49671],[18.27448,57.49633],[18.27573,57.49675],[18.28031,57.49542],[18.2837,57.49502],[18.28742,57.49323],[18.28944,57.493],[18.29512,57.49268],[18.29578,57.49283],[18.31073,57.49297],[18.318,57.49118],[18.31736,57.49077],[18.31659,57.48972],[18.31638,57.48723],[18.31646,57.48698],[18.31674,57.48703],[18.31664,57.48641],[18.31555,57.48457],[18.31902,57.48461],[18.32,57.48135],[18.31935,57.48134],[18.31942,57.47727],[18.3205,57.47648],[18.33109,57.469],[18.34154,57.47116],[18.34042,57.47326],[18.34414,57.47491],[18.33676,57.48222],[18.33694,57.48406],[18.33535,57.48582],[18.33936,57.48636],[18.33835,57.48858],[18.34653,57.48924],[18.34684,57.48983],[18.35035,57.49231],[18.35172,57.49925],[18.36372,57.49948],[18.36911,57.49691],[18.37245,57.4974],[18.38452,57.50074],[18.38407,57.50763],[18.392,57.50929],[18.39444,57.52028],[18.40028,57.51842],[18.40127,57.52045],[18.40249,57.52498],[18.3628,57.53976],[18.36253,57.54445],[18.35132,57.5512],[18.35226,57.55863],[18.35929,57.55802],[18.38049,57.56299],[18.39086,57.56138],[18.39027,57.5623],[18.3906,57.56349],[18.39271,57.56612],[18.40946,57.56373],[18.40951,57.5639],[18.41048,57.56399],[18.40974,57.56488],[18.41025,57.5649],[18.41184,57.564],[18.41558,57.56308],[18.41808,57.56198],[18.42038,57.5607],[18.42343,57.55845],[18.42477,57.55781],[18.42409,57.55426],[18.42843,57.55105],[18.43769,57.55047],[18.4354,57.54875],[18.43444,57.54716],[18.44045,57.54643],[18.45158,57.5474],[18.45172,57.54764],[18.46838,57.54812],[18.47169,57.55224],[18.47689,57.55148],[18.47681,57.55128],[18.5013,57.56002],[18.49787,57.56502],[18.50436,57.56783],[18.49933,57.57475],[18.4959,57.57457],[18.48978,57.57868],[18.48992,57.58362],[18.48707,57.58503],[18.48992,57.59126],[18.49351,57.59158],[18.4941,57.59147],[18.4979,57.59748],[18.49279,57.59783],[18.49829,57.6048],[18.50319,57.61075],[18.51023,57.60917],[18.51303,57.61264],[18.50613,57.6143],[18.50874,57.61751],[18.51125,57.61927],[18.51852,57.62354],[18.54141,57.61281],[18.54274,57.61166],[18.54519,57.60886],[18.5463,57.6083],[18.54696,57.60634],[18.54857,57.60569],[18.55302,57.60133],[18.55557,57.60059],[18.56274,57.60355],[18.56403,57.60227],[18.55755,57.5999],[18.55987,57.59919],[18.55685,57.58694],[18.58162,57.57826],[18.5856,57.58938],[18.58192,57.58986],[18.58251,57.59105],[18.57906,57.592],[18.57869,57.59342],[18.58021,57.59298],[18.58158,57.59502],[18.58217,57.59486],[18.58105,57.59273],[18.58218,57.59239],[18.58438,57.59414],[18.58587,57.59369],[18.59389,57.59884],[18.60077,57.60647],[18.61197,57.60326],[18.61669,57.60341],[18.62231,57.60397],[18.62685,57.60113],[18.63139,57.60063],[18.63164,57.60016],[18.63106,57.59998],[18.63064,57.59956],[18.62939,57.59778],[18.62867,57.59753],[18.6266,57.59561],[18.62495,57.59468],[18.63448,57.5928],[18.63437,57.59166],[18.63559,57.59151],[18.63717,57.58833],[18.64112,57.58673],[18.64569,57.58243],[18.65383,57.5775],[18.65063,57.57628],[18.63753,57.56728],[18.64362,57.56468],[18.64653,57.5664],[18.64779,57.56747],[18.65596,57.56344],[18.65803,57.56546],[18.65871,57.56659],[18.65486,57.56817],[18.65909,57.57033],[18.66078,57.56913],[18.6619,57.56783],[18.66199,57.56793],[18.6717,57.5653],[18.67414,57.55025],[18.67862,57.54664],[18.6749,57.54436],[18.69938,57.5417],[18.69915,57.54239],[18.71353,57.54237],[18.70974,57.53491],[18.71631,57.53321],[18.71782,57.53418],[18.71942,57.53609],[18.7201,57.53652],[18.72162,57.5365],[18.72338,57.5369],[18.72454,57.53662],[18.72547,57.53669],[18.72833,57.52244],[18.73086,57.52327],[18.73741,57.5241],[18.73833,57.52391],[18.73854,57.52416],[18.73992,57.52395],[18.74084,57.524],[18.74169,57.52451],[18.7445,57.52203],[18.74987,57.52491],[18.75099,57.52519],[18.7545,57.52524],[18.75478,57.52534],[18.75461,57.5257],[18.75626,57.52591],[18.76287,57.52592],[18.7661,57.5258],[18.77983,57.52396],[19.34534,57.5028],[19.34885,57.4961],[19.35191,57.48933],[19.35453,57.48251],[19.35671,57.47564],[19.35844,57.46874],[19.35972,57.46181],[19.36056,57.45486],[19.36094,57.44789],[19.36087,57.44093],[19.36035,57.43397],[19.35884,57.42084],[19.35742,57.41392],[19.35555,57.40703],[19.35195,57.39608],[19.3492,57.38927],[19.34602,57.38253],[19.3424,57.37584],[19.33306,57.36125],[19.32838,57.35476],[19.32328,57.34836],[19.31778,57.34206],[19.31188,57.33587],[19.30558,57.32979],[19.2989,57.32384],[19.29184,57.31802],[19.28067,57.30962],[19.12477,57.19809],[19.12319,57.19833],[18.76907,57.36465],[18.76553,57.36735],[18.7273,57.40586],[18.72403,57.40682],[18.72124,57.40362],[18.71989,57.40319],[18.71267,57.40534],[18.70914,57.40731],[18.70901,57.4079],[18.70799,57.40867],[18.67853,57.4043],[18.67449,57.40742],[18.63413,57.40022],[18.64303,57.38423],[18.63935,57.3855],[18.63444,57.38582],[18.63187,57.38636],[18.62707,57.38638],[18.61325,57.3891],[18.61397,57.3867],[18.61311,57.38468],[18.59091,57.38212],[18.59088,57.38354],[18.58894,57.38543],[18.58653,57.38622],[18.58706,57.39028],[18.57828,57.38924],[18.57998,57.38593],[18.57444,57.38441],[18.56697,57.38064],[18.53045,57.37767],[18.52866,57.37496],[18.50484,57.37923],[18.48794,57.37875],[18.47122,57.38181],[18.46853,57.37918],[18.46665,57.37682],[18.46387,57.37711],[18.44793,57.37471],[18.44882,57.3731],[18.46115,57.36296],[18.45847,57.36157],[18.46095,57.35951],[18.46513,57.35804],[18.45685,57.35288],[18.45503,57.35358],[18.44444,57.35209],[18.44638,57.35093],[18.44396,57.34988],[18.44684,57.34789],[18.44179,57.34563],[18.44357,57.34453],[18.43872,57.3437],[18.43663,57.34263],[18.43344,57.34459],[18.42876,57.34242],[18.42774,57.34245],[18.42607,57.34218],[18.42518,57.34321],[18.42281,57.34269],[18.4279,57.33651],[18.42222,57.33557],[18.41506,57.34602],[18.41315,57.34414],[18.4127,57.34232],[18.4059,57.34134],[18.40018,57.34312],[18.40545,57.3451],[18.41465,57.34634],[18.40693,57.3528],[18.40626,57.35247],[18.40155,57.35232],[18.39408,57.35036],[18.38977,57.34846],[18.39052,57.34493],[18.38758,57.34289],[18.38522,57.34649],[18.38125,57.34607],[18.37591,57.34704],[18.37404,57.34775],[18.3702,57.3481],[18.36919,57.35423],[18.36972,57.3592],[18.35879,57.35998],[18.34672,57.35478],[18.34,57.35673],[18.3333,57.3565],[18.33161,57.35389],[18.32671,57.35581],[18.30992,57.35412],[18.30931,57.35354],[18.30883,57.35703],[18.30936,57.36],[18.30865,57.36155],[18.30271,57.36215],[18.29636,57.36057],[18.28949,57.36153],[18.28424,57.36378],[18.28485,57.36637],[18.2723,57.36628],[18.27149,57.36182],[18.2686,57.362],[18.26519,57.36262],[18.26318,57.36278],[18.26204,57.36317],[18.26073,57.36414],[18.26057,57.36545],[18.25463,57.36437],[18.25244,57.36431],[18.25127,57.36541],[18.24706,57.36812],[18.24687,57.36792],[18.23755,57.37118],[18.23976,57.37234],[18.24192,57.37439],[18.24513,57.37496],[18.24798,57.37591],[18.24982,57.37692],[18.25097,57.37793],[18.25537,57.37993],[18.25904,57.38071],[18.26182,57.38166],[18.26417,57.38179],[18.26608,57.38212],[18.26834,57.38285],[18.26982,57.38361],[18.27179,57.38545],[18.27259,57.3876],[18.2721,57.38938],[18.27024,57.39125],[18.26597,57.39332],[18.26418,57.39399],[18.26102,57.39461],[18.25814,57.39472],[18.25488,57.39433],[18.25209,57.39347],[18.24819,57.394],[18.24436,57.39374],[18.241,57.39273],[18.23964,57.39199],[18.23836,57.39094],[18.23532,57.39165],[18.23182,57.39184],[18.22839,57.39142],[18.22524,57.39037],[18.22269,57.39167],[18.22059,57.39232],[18.21987,57.39368],[18.219,57.39462],[18.21535,57.39696],[18.21528,57.39875],[18.2144,57.40024],[18.21288,57.40154],[18.21141,57.40234],[18.20912,57.40312],[18.20496,57.40388],[18.20237,57.40397],[18.19987,57.40371],[18.19657,57.405],[18.19319,57.40552],[18.19047,57.40552],[18.18726,57.40501],[18.18481,57.40417],[18.1826,57.40279],[18.18123,57.40104],[18.18097,57.39915],[18.18176,57.3974],[18.18385,57.39539],[18.18425,57.39462],[18.18193,57.39429],[18.18024,57.39381],[18.17669,57.39216],[18.1749,57.39036],[18.17442,57.38843],[18.00061,57.36048],[17.71219,57.44067],[17.71467,57.45027],[17.71341,57.46051],[17.71312,57.46747],[17.71327,57.47444],[17.71388,57.4814],[17.71493,57.48834],[17.71644,57.49526],[17.71839,57.50214],[17.7208,57.50899],[17.72364,57.51578],[17.72692,57.52252],[17.7304,57.52877],[17.73429,57.55012],[17.73673,57.56149],[17.73869,57.56838],[17.7411,57.57522],[17.74394,57.58202],[17.74746,57.5892],[17.75118,57.59588],[17.75534,57.60247],[17.75993,57.60899],[17.76494,57.61541],[17.77037,57.62174],[17.78113,57.63301],[17.79448,57.64537],[17.80374,57.65309],[17.81062,57.65842],[17.822,57.66899],[17.82903,57.67485],[17.84005,57.68318],[18.14962,57.57404],[18.1662,57.56713],[18.1752,57.56548],[18.18035,57.56308],[18.18016,57.56292],[18.18287,57.56095],[18.18191,57.55665],[18.1821,57.55539],[18.1845,57.55377],[18.1838,57.55305],[18.18366,57.54948],[18.18861,57.54655],[18.19137,57.54184],[18.19185,57.54168],[18.18951,57.53904],[18.18905,57.53645],[18.19676,57.53567],[18.19792,57.53505],[18.19891,57.53408],[18.20058,57.53335]],[[18.46604,57.52991],[18.4649,57.53191],[18.46218,57.53385],[18.45867,57.53505],[18.45483,57.53546],[18.45357,57.53782],[18.45178,57.53927],[18.4487,57.5405],[18.44495,57.54103],[18.4409,57.54075],[18.4391,57.54033],[18.43735,57.53967],[18.43366,57.5393],[18.4312,57.53867],[18.42955,57.53798],[18.42778,57.53688],[18.42477,57.53629],[18.42214,57.53519],[18.42029,57.53371],[18.41925,57.53193],[18.41919,57.53012],[18.42037,57.52823],[18.41944,57.52634],[18.41958,57.5246],[18.42074,57.52298],[18.42322,57.52143],[18.42141,57.51996],[18.4206,57.51858],[18.42054,57.5168],[18.42125,57.51541],[18.42257,57.51418],[18.42445,57.51315],[18.42864,57.51189],[18.43146,57.51146],[18.43357,57.51033],[18.43397,57.50791],[18.43531,57.50609],[18.43507,57.50434],[18.43566,57.50281],[18.43653,57.50175],[18.43772,57.50083],[18.4406,57.49953],[18.44098,57.4975],[18.44249,57.49568],[18.44345,57.49404],[18.44698,57.49121],[18.44834,57.49042],[18.45113,57.48945],[18.45424,57.48891],[18.45688,57.48886],[18.4595,57.48917],[18.46589,57.49122],[18.46731,57.49205],[18.46969,57.49301],[18.47142,57.49418],[18.47374,57.49664],[18.47447,57.49804],[18.47442,57.49984],[18.47336,57.50202],[18.4719,57.50361],[18.4687,57.50575],[18.46784,57.5076],[18.46741,57.50943],[18.46533,57.51183],[18.46458,57.51401],[18.4639,57.51509],[18.46258,57.51629],[18.46076,57.51735],[18.45854,57.51813],[18.45636,57.51854],[18.45519,57.52023],[18.45707,57.52124],[18.45827,57.5223],[18.46166,57.52327],[18.46439,57.52495],[18.46575,57.52707],[18.46604,57.52991]]]}},{"type":"Feature","id":"0980R003","properties":{"code":"0980R003","name":"Gotland norra"},"geometry":{"type":"Polygon","coordinates":[[[19.21629,58.5969],[19.22958,58.59629],[19.24282,58.59544],[19.256,58.59434],[19.26909,58.59301],[19.2812,58.59155],[19.30569,58.58993],[19.31882,58.58872],[19.33187,58.58726],[19.3448,58.58557],[19.35762,58.58364],[19.37029,58.58148],[19.38282,58.57908],[19.40497,58.57419],[19.42438,58.57059],[19.43673,58.56796],[19.44889,58.56512],[19.46086,58.56205],[19.47261,58.55876],[19.48413,58.55527],[19.49541,58.55156],[19.50643,58.54765],[19.51719,58.54353],[19.52765,58.53923],[19.53783,58.53473],[19.54769,58.53005],[19.55723,58.5252],[19.56615,58.52033],[19.57992,58.5141],[19.58962,58.50933],[19.59899,58.50439],[19.60803,58.49928],[19.61671,58.494],[19.62504,58.48857],[19.633,58.48299],[19.64057,58.47727],[19.64776,58.47141],[19.65455,58.46542],[19.66094,58.45931],[19.66691,58.45309],[19.67247,58.44677],[19.6776,58.44034],[19.68229,58.43383],[19.68655,58.42723],[19.69036,58.42056],[19.69373,58.41382],[19.69664,58.40703],[19.6991,58.40018],[19.70111,58.3933],[19.70265,58.38638],[19.70373,58.37944],[19.70435,58.37249],[19.70451,58.36552],[19.7042,58.35856],[19.70344,58.35161],[19.70221,58.34467],[19.70052,58.33776],[19.69838,58.33089],[19.69578,58.32406],[19.6902,58.3121],[19.68649,58.30542],[19.68233,58.29881],[19.67774,58.29228],[19.67272,58.28583],[19.66728,58.27948],[19.66143,58.27324],[19.65517,58.26711],[19.6485,58.26109],[19.64145,58.2552],[19.63401,58.24945],[19.6262,58.24383],[19.61826,58.23851],[19.60811,58.23023],[19.59857,58.22312],[19.59058,58.21757],[19.58223,58.21218],[19.57354,58.20694],[19.5645,58.20187],[19.55513,58.19696],[19.54545,58.19223],[19.53256,58.18641],[19.55133,58.18034],[19.56223,58.17643],[19.57287,58.17232],[19.58323,58.16801],[19.5933,58.16352],[19.60306,58.15884],[19.61251,58.15398],[19.62162,58.14895],[19.63039,58.14376],[19.63882,58.1384],[19.64688,58.1329],[19.65457,58.12724],[19.66188,58.12145],[19.6688,58.11553],[19.67533,58.10948],[19.68145,58.10331],[19.68716,58.09704],[19.69245,58.09066],[19.69731,58.08419],[19.70175,58.07763],[19.70574,58.071],[19.7093,58.06429],[19.71241,58.05753],[19.71507,58.05071],[19.71728,58.04384],[19.71904,58.03694],[19.72034,58.03001],[19.72118,58.02306],[19.72157,58.0161],[19.7215,58.00913],[19.72048,57.99833],[19.72346,57.98742],[19.72476,57.98049],[19.72561,57.97354],[19.72617,57.96313],[19.72609,57.95617],[19.72556,57.94921],[19.72458,57.94226],[19.72289,57.93404],[19.721,57.92715],[19.71865,57.9203],[19.71586,57.91349],[19.71263,57.90675],[19.70896,57.90006],[19.70485,57.89345],[19.70031,57.88692],[19.69536,57.88047],[19.68998,57.87412],[19.68419,57.86788],[19.678,57.86174],[19.67141,57.85573],[19.66444,57.84984],[19.65451,57.84217],[19.40367,57.65638],[19.3909,57.64642],[19.38078,57.63936],[19.28401,57.56741],[19.29392,57.56011],[19.30112,57.55432],[19.30793,57.54839],[19.31436,57.54235],[19.32143,57.53512],[19.32705,57.52884],[19.33225,57.52246],[19.33704,57.51599],[19.34141,57.50944],[19.34534,57.5028],[18.77983,57.52396],[18.7661,57.5258],[18.76287,57.52592],[18.75626,57.52591],[18.75461,57.5257],[18.75478,57.52534],[18.7545,57.52524],[18.75099,57.52519],[18.74987,57.52491],[18.7445,57.52203],[18.74169,57.52451],[18.74084,57.524],[18.73992,57.52395],[18.73854,57.52416],[18.73833,57.52391],[18.73741,57.5241],[18.73086,57.52327],[18.72833,57.52244],[18.72547,57.53669],[18.72454,57.53662],[18.72338,57.5369],[18.72162,57.5365],[18.7201,57.53652],[18.71942,57.53609],[18.71782,57.53418],[18.71631,57.53321],[18.70974,57.53491],[18.71353,57.54237],[18.69915,57.54239],[18.69938,57.5417],[18.6749,57.54436],[18.67862,57.54664],[18.67414,57.55025],[18.6717,57.5653],[18.66199,57.56793],[18.6619,57.56783],[18.66078,57.56913],[18.65909,57.57033],[18.65486,57.56817],[18.65871,57.56659],[18.65803,57.56546],[18.65596,57.56344],[18.64779,57.56747],[18.64653,57.5664],[18.64362,57.56468],[18.63753,57.56728],[18.65063,57.57628],[18.65383,57.5775],[18.64569,57.58243],[18.64112,57.58673],[18.63717,57.58833],[18.63559,57.59151],[18.63437,57.59166],[18.63448,57.5928],[18.62495,57.59468],[18.6266,57.59561],[18.62867,57.59753],[18.62939,57.59778],[18.63064,57.59956],[18.63106,57.59998],[18.63164,57.60016],[18.63139,57.60063],[18.62685,57.60113],[18.62231,57.60397],[18.61669,57.60341],[18.61197,57.60326],[18.60077,57.60647],[18.59389,57.59884],[18.58587,57.59369],[18.58438,57.59414],[18.58218,57.59239],[18.58105,57.59273],[18.58217,57.59486],[18.58158,57.59502],[18.58021,57.59298],[18.57869,57.59342],[18.57906,57.592],[18.58251,57.59105],[18.58192,57.58986],[18.5856,57.58938],[18.58162,57.57826],[18.55685,57.58694],[18.55987,57.59919],[18.55755,57.5999],[18.56403,57.60227],[18.56274,57.60355],[18.55557,57.60059],[18.55302,57.60133],[18.54857,57.60569],[18.54696,57.60634],[18.5463,57.6083],[18.54519,57.60886],[18.54274,57.61166],[18.54141,57.61281],[18.51852,57.62354],[18.51125,57.61927],[18.50876,57.61753],[18.48147,57.62761],[18.48285,57.62922],[18.4932,57.63524],[18.49765,57.63488],[18.4951,57.63989],[18.49195,57.64254],[18.49016,57.64554],[18.4853,57.6502],[18.49172,57.65575],[18.49277,57.6601],[18.49833,57.65972],[18.50695,57.65808],[18.50703,57.66045],[18.50812,57.66199],[18.51229,57.66045],[18.51383,57.66078],[18.51749,57.66083],[18.51906,57.65996],[18.51982,57.65895],[18.52633,57.66145],[18.54117,57.65952],[18.53986,57.66139],[18.53782,57.66332],[18.56501,57.66799],[18.57132,57.67243],[18.57608,57.67321],[18.57975,57.68669],[18.58985,57.70114],[18.59203,57.70343],[18.59291,57.70571],[18.58742,57.70849],[18.58333,57.71157],[18.57222,57.71021],[18.56902,57.71229],[18.56516,57.71377],[18.5663,57.71818],[18.56284,57.71961],[18.5604,57.7189],[18.55767,57.71954],[18.55953,57.72049],[18.55763,57.72135],[18.56138,57.72321],[18.5541,57.72384],[18.55481,57.72607],[18.53086,57.72979],[18.5318,57.7203],[18.5093,57.71957],[18.50737,57.72563],[18.49786,57.72466],[18.48837,57.72891],[18.47079,57.72062],[18.46532,57.72279],[18.45569,57.73281],[18.45134,57.73147],[18.43495,57.72703],[18.434,57.72795],[18.43367,57.72928],[18.42076,57.73038],[18.42034,57.72957],[18.41709,57.7278],[18.41694,57.72921],[18.41627,57.72901],[18.41167,57.72902],[18.4117,57.72925],[18.40889,57.73138],[18.40737,57.73187],[18.39947,57.73346],[18.39007,57.73566],[18.05888,57.82707],[18.06092,57.8307],[18.0706,57.84587],[18.075,57.85242],[18.08302,57.8632],[18.0893,57.87087],[18.09802,57.88071],[18.10437,57.8893],[18.10962,57.89567],[18.1153,57.90195],[18.12139,57.90812],[18.12787,57.91416],[18.13519,57.92064],[18.14227,57.9265],[18.15958,57.93941],[18.1676,57.94492],[18.17598,57.95027],[18.18856,57.95772],[18.19762,57.96275],[18.20701,57.9676],[18.21672,57.97228],[18.22673,57.97678],[18.23704,57.98109],[18.24762,57.9852],[18.25847,57.98911],[18.27545,57.99467],[18.29368,58.00091],[18.30502,58.00441],[18.32615,58.01021],[18.33733,58.0177],[18.35562,58.02866],[18.3647,58.03368],[18.38548,58.04433],[18.39536,58.04892],[18.40555,58.05332],[18.41601,58.05753],[18.42607,58.0613],[18.43844,58.06799],[18.44802,58.07276],[18.45791,58.07735],[18.4681,58.08175],[18.47858,58.08596],[18.48932,58.08997],[18.50744,58.09613],[18.51882,58.09963],[18.53042,58.10292],[18.56389,58.11185],[18.5759,58.1147],[18.58809,58.11732],[18.60282,58.12018],[18.62164,58.12334],[18.98872,58.17838],[18.9721,58.18529],[18.96211,58.18984],[18.95243,58.19457],[18.94307,58.19947],[18.93403,58.20454],[18.92533,58.20978],[18.91698,58.21517],[18.90899,58.22072],[18.90137,58.22641],[18.89412,58.23223],[18.88727,58.23818],[18.88081,58.24425],[18.87475,58.25044],[18.86911,58.25674],[18.86388,58.26314],[18.85908,58.26963],[18.85471,58.2762],[18.84845,58.28722],[18.83802,58.29904],[18.82245,58.3197],[18.81785,58.32623],[18.80886,58.34064],[18.80536,58.34736],[18.80231,58.35414],[18.79971,58.36097],[18.79756,58.36784],[18.79587,58.37475],[18.79464,58.38168],[18.79387,58.38863],[18.79357,58.3956],[18.79372,58.40256],[18.79434,58.40952],[18.79573,58.41819],[18.79727,58.4251],[18.79927,58.43199],[18.80173,58.43883],[18.80465,58.44563],[18.80802,58.45236],[18.81184,58.45904],[18.81609,58.46563],[18.82079,58.47215],[18.82592,58.47857],[18.83148,58.4849],[18.83746,58.49112],[18.84385,58.49723],[18.85065,58.50322],[18.85784,58.50908],[18.86542,58.5148],[18.87339,58.52038],[18.88172,58.52581],[18.89041,58.53109],[18.89945,58.5362],[18.90883,58.54114],[18.91854,58.54591],[18.92856,58.5505],[18.93889,58.5549],[18.9495,58.55911],[18.96039,58.56313],[18.97155,58.56694],[18.98296,58.57054],[18.9946,58.57394],[19.00646,58.57711],[19.01853,58.58007],[19.0308,58.58281],[19.04324,58.58532],[19.05584,58.5876],[19.06859,58.58964],[19.08147,58.59146],[19.09446,58.59303],[19.11114,58.59473],[19.12431,58.59583],[19.13755,58.59668],[19.15084,58.59729],[19.16416,58.59766],[19.1775,58.59778],[19.19081,58.59766],[19.21629,58.5969]],[[18.7904,57.7323],[18.7855,57.73171],[18.78523,57.73142],[18.7812,57.72955],[18.77766,57.72845],[18.77537,57.72852],[18.77277,57.72827],[18.77039,57.72767],[18.76847,57.72686],[18.76634,57.72539],[18.76478,57.72328],[18.76428,57.72183],[18.76435,57.72064],[18.7649,57.71925],[18.76569,57.7183],[18.76855,57.71652],[18.77076,57.7158],[18.77336,57.71532],[18.77536,57.71517],[18.77859,57.71538],[18.77988,57.71528],[18.78115,57.71362],[18.77956,57.71278],[18.77809,57.71155],[18.7772,57.71006],[18.77705,57.70859],[18.77775,57.70613],[18.7794,57.70445],[18.78056,57.70276],[18.78229,57.70127],[18.78458,57.70019],[18.78491,57.69773],[18.78626,57.69589],[18.78327,57.69041],[18.7834,57.6886],[18.78426,57.68723],[18.78664,57.68554],[18.79058,57.68401],[18.79379,57.68342],[18.79693,57.6832],[18.79894,57.68326],[18.80217,57.68381],[18.80436,57.68461],[18.80574,57.6854],[18.80934,57.68811],[18.8105,57.68998],[18.81072,57.69193],[18.81008,57.69368],[18.81129,57.69602],[18.81413,57.69658],[18.81632,57.69737],[18.8184,57.69871],[18.81946,57.70004],[18.82014,57.70272],[18.8211,57.70378],[18.82157,57.70477],[18.82144,57.70814],[18.82086,57.70947],[18.81974,57.71062],[18.8198,57.71258],[18.81876,57.71422],[18.8173,57.71534],[18.81552,57.71617],[18.81398,57.71737],[18.81093,57.7186],[18.81091,57.71957],[18.81036,57.72101],[18.80827,57.72351],[18.80576,57.72519],[18.80245,57.72621],[18.80178,57.72833],[18.79993,57.73008],[18.79744,57.7313],[18.79404,57.73211],[18.7904,57.7323]]]}},{"type":"Feature","id":"0980R004","properties":{"code":"0980R004","name":"Gotland södra"},"geometry":{"type":"Polygon","coordinates":[[[17.71219,57.44067],[18.00061,57.36048],[18.17442,57.38843],[18.17799,57.38242],[18.17697,57.38118],[18.17655,57.38008],[18.17647,57.37756],[18.17701,57.37614],[18.1791,57.3739],[18.18031,57.37298],[18.1834,57.37136],[18.18648,57.37045],[18.18913,57.37013],[18.1925,57.37024],[18.19524,57.36934],[18.19847,57.36889],[18.20137,57.36895],[18.20407,57.36938],[18.20701,57.37041],[18.20911,57.37181],[18.21024,57.3733],[18.21075,57.37482],[18.2107,57.37599],[18.21109,57.37602],[18.21302,57.37454],[18.21548,57.37349],[18.21875,57.37279],[18.22216,57.37269],[18.22448,57.37132],[18.22737,57.37045],[18.22999,57.37014],[18.23305,57.37017],[18.23558,57.37057],[18.23755,57.37118],[18.24687,57.36792],[18.24706,57.36812],[18.25127,57.36541],[18.25244,57.36431],[18.25463,57.36437],[18.26057,57.36545],[18.26073,57.36414],[18.26204,57.36317],[18.26318,57.36278],[18.26519,57.36262],[18.2686,57.362],[18.27149,57.36182],[18.2723,57.36628],[18.28485,57.36637],[18.28424,57.36378],[18.28949,57.36153],[18.29636,57.36057],[18.30271,57.36215],[18.30865,57.36155],[18.30936,57.36],[18.30883,57.35703],[18.30931,57.35354],[18.30992,57.35412],[18.32671,57.35581],[18.33161,57.35389],[18.3333,57.3565],[18.34,57.35673],[18.34672,57.35478],[18.35879,57.35998],[18.36972,57.3592],[18.36919,57.35423],[18.3702,57.3481],[18.37404,57.34775],[18.37591,57.34704],[18.38125,57.34607],[18.38522,57.34649],[18.38758,57.34289],[18.39052,57.34493],[18.38977,57.34846],[18.39408,57.35036],[18.40155,57.35232],[18.40626,57.35247],[18.40693,57.3528],[18.41465,57.34634],[18.40545,57.3451],[18.40018,57.34312],[18.4059,57.34134],[18.4127,57.34232],[18.41315,57.34414],[18.41506,57.34602],[18.42222,57.33557],[18.4279,57.33651],[18.42281,57.34269],[18.42518,57.34321],[18.42607,57.34218],[18.42774,57.34245],[18.42876,57.34242],[18.43344,57.34459],[18.43663,57.34263],[18.43872,57.3437],[18.44357,57.34453],[18.44179,57.34563],[18.44684,57.34789],[18.44396,57.34988],[18.44638,57.35093],[18.44444,57.35209],[18.45503,57.35358],[18.45685,57.35288],[18.46513,57.35804],[18.46095,57.35951],[18.45847,57.36157],[18.46115,57.36296],[18.44882,57.3731],[18.44793,57.37471],[18.46387,57.37711],[18.46665,57.37682],[18.46853,57.37918],[18.47122,57.38181],[18.48794,57.37875],[18.50484,57.37923],[18.52866,57.37496],[18.53045,57.37767],[18.56697,57.38064],[18.57444,57.38441],[18.57998,57.38593],[18.57828,57.38924],[18.58706,57.39028],[18.58653,57.38622],[18.58894,57.38543],[18.59088,57.38354],[18.59091,57.38212],[18.61311,57.38468],[18.61397,57.3867],[18.61325,57.3891],[18.62707,57.38638],[18.63187,57.38636],[18.63444,57.38582],[18.63935,57.3855],[18.64303,57.38423],[18.63413,57.40022],[18.67449,57.40742],[18.67853,57.4043],[18.70799,57.40867],[18.70901,57.4079],[18.70914,57.40731],[18.71267,57.40534],[18.71989,57.40319],[18.72124,57.40362],[18.72403,57.40682],[18.7273,57.40586],[18.76553,57.36735],[18.76907,57.36465],[19.12319,57.19833],[19.12477,57.19809],[18.9933,57.10336],[18.6981,56.87806],[18.68502,56.86861],[18.63702,56.83592],[18.62285,56.82683],[18.54377,56.78114],[18.52958,56.77379],[18.51998,56.76923],[18.51009,56.76487],[18.49324,56.75808],[18.48271,56.7542],[18.47194,56.75053],[18.46094,56.74706],[18.44973,56.74381],[18.43832,56.74077],[18.42673,56.73795],[18.41497,56.73535],[18.40306,56.73298],[18.37263,56.7275],[18.36258,56.72447],[18.35128,56.72132],[18.33979,56.71839],[18.32811,56.71568],[18.31628,56.7132],[18.3043,56.71094],[18.29218,56.70891],[18.27994,56.70712],[18.2676,56.70556],[18.25516,56.70424],[18.24265,56.70315],[18.23008,56.70231],[18.21747,56.7017],[18.20482,56.70134],[18.19216,56.70122],[18.1795,56.70134],[18.16685,56.7017],[18.15423,56.70231],[18.14166,56.70315],[18.12213,56.70495],[18.10161,56.70542],[18.08899,56.70602],[18.07642,56.70686],[18.06391,56.70795],[18.05147,56.70927],[18.03913,56.71083],[18.02689,56.71262],[18.01477,56.71465],[18.00278,56.7169],[17.99094,56.71939],[17.97927,56.7221],[17.96778,56.72503],[17.95647,56.72817],[17.94537,56.73153],[17.93449,56.73511],[17.92384,56.73888],[17.91343,56.74286],[17.90328,56.74704],[17.88644,56.75463],[17.87698,56.75927],[17.86783,56.76409],[17.85898,56.76909],[17.85045,56.77424],[17.84226,56.77956],[17.8344,56.78503],[17.8269,56.79065],[17.81975,56.79641],[17.81298,56.8023],[17.80657,56.80832],[17.80056,56.81445],[17.79494,56.8207],[17.78971,56.82705],[17.78489,56.8335],[17.78049,56.84003],[17.7765,56.84664],[17.77293,56.85333],[17.76979,56.86008],[17.76708,56.86689],[17.76277,56.87935],[17.76094,56.88625],[17.75954,56.89317],[17.75771,56.90724],[17.75742,56.91421],[17.75783,56.92888],[17.75865,56.93583],[17.76021,56.9442],[17.7835,57.05012],[17.76405,57.11004],[17.75355,57.11373],[17.74304,57.11771],[17.73279,57.12188],[17.72281,57.12625],[17.71311,57.1308],[17.70371,57.13553],[17.69462,57.14044],[17.68584,57.14551],[17.67739,57.15075],[17.66928,57.15615],[17.66152,57.16169],[17.65412,57.16738],[17.64631,57.17385],[17.63965,57.1798],[17.63338,57.18588],[17.6275,57.19207],[17.62202,57.19837],[17.61695,57.20477],[17.61229,57.21126],[17.60805,57.21783],[17.60049,57.23165],[17.59732,57.2384],[17.59458,57.24521],[17.59228,57.25206],[17.59042,57.25896],[17.58901,57.26588],[17.58804,57.27283],[17.58753,57.27979],[17.58761,57.29136],[17.58822,57.29832],[17.58913,57.30448],[17.59124,57.31505],[17.59318,57.32193],[17.59557,57.32878],[17.59944,57.33817],[17.60271,57.34491],[17.60641,57.35158],[17.61054,57.35817],[17.6151,57.36469],[17.62008,57.37112],[17.62547,57.37744],[17.63127,57.38367],[17.63747,57.38977],[17.64406,57.39576],[17.65104,57.40162],[17.6584,57.40734],[17.66612,57.41292],[17.6742,57.41836],[17.68854,57.42718],[17.69748,57.43221],[17.71193,57.43964],[17.71219,57.44067]],[[18.3846,57.25136],[18.38104,57.25005],[18.3791,57.25002],[18.37683,57.24972],[18.37348,57.25041],[18.37015,57.25048],[18.36737,57.25009],[18.36294,57.24878],[18.3591,57.2465],[18.35744,57.24473],[18.35695,57.24285],[18.3578,57.2403],[18.35401,57.23937],[18.35184,57.2385],[18.35012,57.23737],[18.34893,57.23595],[18.34846,57.23451],[18.34856,57.23339],[18.34906,57.23229],[18.34997,57.23121],[18.35313,57.22884],[18.35526,57.22793],[18.35754,57.22737],[18.35859,57.22663],[18.35715,57.22486],[18.35666,57.22297],[18.35462,57.22149],[18.3535,57.22015],[18.3527,57.21782],[18.35185,57.21639],[18.35161,57.21509],[18.35217,57.21333],[18.35374,57.21174],[18.35612,57.2105],[18.35909,57.20973],[18.36306,57.20936],[18.36637,57.20958],[18.37005,57.21043],[18.37313,57.21192],[18.37478,57.2136],[18.3761,57.21585],[18.37649,57.21729],[18.37746,57.21841],[18.3785,57.22036],[18.38019,57.22234],[18.38069,57.22396],[18.38287,57.22441],[18.38507,57.22523],[18.38715,57.22661],[18.38833,57.22826],[18.38915,57.22858],[18.39185,57.22909],[18.39352,57.22967],[18.3954,57.23069],[18.39671,57.23192],[18.39749,57.23353],[18.39754,57.23498],[18.39638,57.23701],[18.39433,57.23847],[18.3947,57.23964],[18.40146,57.24105],[18.40372,57.24177],[18.406,57.2431],[18.40738,57.24472],[18.40883,57.24805],[18.40882,57.24917],[18.40835,57.25036],[18.40721,57.2517],[18.40586,57.25266],[18.40379,57.2536],[18.40143,57.25426],[18.39766,57.25466],[18.39392,57.25427],[18.38933,57.25272],[18.38765,57.25189],[18.3846,57.25136]]]}},{"type":"Feature","id":"0980R005","properties":{"code":"0980R005","name":"Gråbo"},"geometry":{"type":"Polygon","coordinates":[[[18.31408,57.62039],[18.3163,57.61858],[18.31449,57.61695],[18.31163,57.61477],[18.30849,57.61286],[18.3026,57.60971],[18.30043,57.60875],[18.2994,57.60863],[18.29716,57.60984],[18.29289,57.61109],[18.28845,57.61416],[18.29065,57.61424],[18.29238,57.61587],[18.29167,57.61715],[18.29062,57.61822],[18.29386,57.61967],[18.29878,57.62394],[18.29986,57.62535],[18.30364,57.62765],[18.30869,57.62542],[18.31231,57.62148],[18.31408,57.62039]]]}},{"type":"Feature","id":"0980R006","properties":{"code":"0980R006","name":"Hemse"},"geometry":{"type":"Polygon","coordinates":[[[18.39896,57.25461],[18.40084,57.25438],[18.40325,57.25377],[18.40495,57.25313],[18.4064,57.25232],[18.40762,57.25131],[18.40841,57.25027],[18.40884,57.24815],[18.40717,57.24437],[18.40517,57.24251],[18.40208,57.24121],[18.3947,57.23964],[18.39433,57.23847],[18.39638,57.23701],[18.39754,57.23498],[18.39743,57.23331],[18.39645,57.23161],[18.39537,57.23067],[18.39352,57.22967],[18.39185,57.22909],[18.38915,57.22858],[18.38833,57.22826],[18.38715,57.22661],[18.38507,57.22523],[18.38287,57.22441],[18.38069,57.22396],[18.38019,57.22234],[18.3785,57.22036],[18.37746,57.21841],[18.37649,57.21729],[18.3761,57.21585],[18.37471,57.2135],[18.3735,57.2122],[18.37218,57.21133],[18.3695,57.21027],[18.36504,57.20942],[18.36174,57.20943],[18.35909,57.20973],[18.35724,57.21014],[18.3546,57.2112],[18.35299,57.21235],[18.35197,57.21368],[18.35162,57.21543],[18.3535,57.22015],[18.35462,57.22149],[18.35666,57.22297],[18.35715,57.22486],[18.35859,57.22663],[18.35754,57.22737],[18.35526,57.22793],[18.35313,57.22884],[18.34958,57.2316],[18.34867,57.23305],[18.34845,57.23417],[18.34876,57.23562],[18.34972,57.23699],[18.35098,57.238],[18.35295,57.239],[18.3578,57.2403],[18.35695,57.24285],[18.35765,57.24505],[18.35949,57.24678],[18.36243,57.24854],[18.36396,57.24919],[18.36742,57.2501],[18.37015,57.25048],[18.37348,57.25041],[18.37683,57.24972],[18.3791,57.25002],[18.38104,57.25005],[18.38403,57.2512],[18.38765,57.25189],[18.38933,57.25272],[18.39331,57.25413],[18.39577,57.25456],[18.39896,57.25461]]]}},{"type":"Feature","id":"0980R007","properties":{"code":"0980R007","name":"Innerstaden-Visby norra"},"geometry":{"type":"Polygon","coordinates":[[[18.34324,57.64756],[18.34505,57.6461],[18.34598,57.64431],[18.34829,57.64318],[18.34985,57.64175],[18.35084,57.64154],[18.3532,57.64167],[18.35575,57.64138],[18.35871,57.64186],[18.35907,57.64049],[18.36163,57.63909],[18.36332,57.63877],[18.36317,57.63747],[18.36366,57.6356],[18.36328,57.63415],[18.36338,57.63191],[18.3629,57.63],[18.362,57.62863],[18.36053,57.62745],[18.35907,57.62671],[18.35737,57.62613],[18.35477,57.62556],[18.35328,57.62416],[18.35122,57.62302],[18.3487,57.62222],[18.34584,57.62181],[18.34524,57.6203],[18.34365,57.6186],[18.34358,57.61732],[18.34309,57.61623],[18.34059,57.61379],[18.3405,57.61266],[18.34002,57.61161],[18.33884,57.61034],[18.33707,57.60925],[18.33413,57.60825],[18.33066,57.60779],[18.32565,57.60536],[18.32354,57.60466],[18.32191,57.60368],[18.31751,57.60171],[18.31519,57.60097],[18.31128,57.6005],[18.30752,57.60081],[18.30381,57.6004],[18.3002,57.60064],[18.30163,57.60173],[18.30308,57.60218],[18.30469,57.60315],[18.30764,57.60447],[18.31046,57.60545],[18.31072,57.60577],[18.31879,57.6096],[18.32278,57.61116],[18.32319,57.61181],[18.32302,57.61234],[18.32138,57.61381],[18.32025,57.61555],[18.31408,57.62039],[18.31231,57.62148],[18.30869,57.62542],[18.30393,57.62758],[18.29879,57.62878],[18.30072,57.63083],[18.29838,57.63147],[18.29502,57.63319],[18.29078,57.63227],[18.28975,57.63186],[18.28895,57.63191],[18.28792,57.63123],[18.28522,57.63215],[18.28385,57.63286],[18.28175,57.6326],[18.2801,57.63075],[18.27858,57.63244],[18.2625,57.63874],[18.26582,57.6406],[18.26804,57.6415],[18.27615,57.64345],[18.28255,57.64557],[18.28689,57.64984],[18.29209,57.65338],[18.29345,57.65489],[18.29591,57.65679],[18.29764,57.65779],[18.30131,57.65908],[18.3016,57.6603],[18.30228,57.66134],[18.30482,57.66324],[18.30661,57.66493],[18.3102,57.66665],[18.31377,57.66753],[18.31728,57.66867],[18.31949,57.6691],[18.32091,57.67121],[18.32357,57.67368],[18.3254,57.67474],[18.32765,57.67551],[18.32771,57.67869],[18.32849,57.68002],[18.32988,57.68122],[18.33176,57.68217],[18.33344,57.68271],[18.33835,57.68336],[18.34108,57.68328],[18.34326,57.68294],[18.34592,57.68217],[18.34801,57.68123],[18.34996,57.67964],[18.35115,57.67765],[18.3533,57.67667],[18.35487,57.67547],[18.35584,57.67411],[18.35633,57.67228],[18.35597,57.67056],[18.35496,57.66927],[18.35292,57.66794],[18.35028,57.66702],[18.34932,57.66545],[18.3511,57.66365],[18.35151,57.66158],[18.35069,57.65983],[18.34794,57.65697],[18.34599,57.65542],[18.34271,57.65392],[18.3397,57.65327],[18.33567,57.65306],[18.33479,57.65267],[18.33753,57.65097],[18.33885,57.64961],[18.34103,57.64874],[18.34324,57.64756]],[[18.30742,57.64216],[18.30886,57.64133],[18.3092,57.64151],[18.31241,57.63953],[18.31174,57.63903],[18.31056,57.63737],[18.31464,57.63661],[18.31712,57.63652],[18.3173,57.63747],[18.31973,57.63742],[18.32267,57.63878],[18.32318,57.63921],[18.324,57.64109],[18.31983,57.6416],[18.31805,57.64199],[18.31599,57.64267],[18.31366,57.64389],[18.31575,57.64507],[18.31589,57.64599],[18.31431,57.64736],[18.31245,57.64837],[18.30538,57.64473],[18.30522,57.64403],[18.30565,57.64389],[18.30742,57.64216]]]}},{"type":"Feature","id":"0980R008","properties":{"code":"0980R008","name":"Klintehamn"},"geometry":{"type":"Polygon","coordinates":[[[18.19319,57.40552],[18.19657,57.405],[18.19987,57.40371],[18.20237,57.40397],[18.20496,57.40388],[18.20912,57.40312],[18.21141,57.40234],[18.21288,57.40154],[18.2144,57.40024],[18.21528,57.39875],[18.21535,57.39696],[18.219,57.39462],[18.21987,57.39368],[18.22059,57.39232],[18.22269,57.39167],[18.22524,57.39037],[18.22839,57.39142],[18.23182,57.39184],[18.23532,57.39165],[18.23836,57.39094],[18.23964,57.39199],[18.24149,57.39294],[18.24316,57.39348],[18.24559,57.39391],[18.24882,57.39396],[18.25209,57.39347],[18.25547,57.39445],[18.25877,57.39473],[18.26102,57.39461],[18.26361,57.39414],[18.26547,57.39354],[18.26932,57.39179],[18.27165,57.39002],[18.27243,57.38867],[18.27259,57.3876],[18.2722,57.38616],[18.27128,57.38479],[18.26936,57.38334],[18.26725,57.38245],[18.26484,57.38188],[18.26182,57.38166],[18.25904,57.38071],[18.25537,57.37993],[18.25097,57.37793],[18.24982,57.37692],[18.24846,57.37613],[18.2457,57.37511],[18.24192,57.37439],[18.24016,57.37264],[18.23887,57.37178],[18.23679,57.37091],[18.23434,57.37033],[18.23237,57.37013],[18.22999,57.37014],[18.22673,57.37059],[18.22395,57.37156],[18.22216,57.37269],[18.21858,57.37281],[18.21494,57.37367],[18.21259,57.3748],[18.21109,57.37602],[18.2107,57.37599],[18.21075,57.37482],[18.21024,57.3733],[18.20911,57.37181],[18.20688,57.37035],[18.20348,57.36925],[18.20055,57.36889],[18.19784,57.36894],[18.19514,57.36937],[18.1925,57.37024],[18.1885,57.37017],[18.18515,57.37076],[18.18291,57.37158],[18.17991,57.37324],[18.17754,57.37547],[18.17682,57.37647],[18.17643,57.3779],[18.17655,57.38008],[18.17697,57.38118],[18.17799,57.38242],[18.17442,57.38843],[18.17451,57.38936],[18.17563,57.39131],[18.17759,57.39269],[18.18079,57.39399],[18.18425,57.39462],[18.18385,57.39539],[18.18176,57.3974],[18.18097,57.39915],[18.18123,57.40104],[18.1826,57.40279],[18.18481,57.40417],[18.18726,57.40501],[18.19047,57.40552],[18.19319,57.40552]]]}},{"type":"Feature","id":"0980R009","properties":{"code":"0980R009","name":"Roma"},"geometry":{"type":"Polygon","coordinates":[[[18.44559,57.541],[18.4487,57.5405],[18.45133,57.53952],[18.45357,57.53782],[18.45483,57.53546],[18.45807,57.53517],[18.46121,57.53429],[18.46355,57.53301],[18.46544,57.53127],[18.46604,57.52991],[18.46608,57.52879],[18.4656,57.52663],[18.46469,57.52526],[18.46215,57.52349],[18.46046,57.52283],[18.45827,57.5223],[18.45707,57.52124],[18.45519,57.52023],[18.45636,57.51854],[18.45854,57.51813],[18.46076,57.51735],[18.46216,57.51659],[18.46355,57.51547],[18.46458,57.51401],[18.46533,57.51183],[18.46741,57.50943],[18.46784,57.5076],[18.4687,57.50575],[18.47262,57.50299],[18.47338,57.50199],[18.47452,57.49947],[18.47454,57.49838],[18.47399,57.49699],[18.47226,57.49491],[18.47012,57.49326],[18.46428,57.49058],[18.46013,57.48931],[18.45692,57.48886],[18.4542,57.48891],[18.45113,57.48945],[18.44834,57.49042],[18.44658,57.49151],[18.44317,57.49437],[18.44249,57.49568],[18.44098,57.4975],[18.4406,57.49953],[18.43772,57.50083],[18.43574,57.50268],[18.43507,57.50434],[18.43531,57.50609],[18.43397,57.50791],[18.43357,57.51033],[18.43146,57.51146],[18.42859,57.5119],[18.42553,57.51274],[18.42392,57.51338],[18.42154,57.51507],[18.42054,57.5168],[18.4205,57.51822],[18.42093,57.5193],[18.42171,57.52029],[18.42322,57.52143],[18.42072,57.52299],[18.41947,57.52496],[18.41953,57.52668],[18.42037,57.52823],[18.4193,57.52979],[18.4191,57.53123],[18.41957,57.53263],[18.42057,57.53402],[18.42311,57.53568],[18.42534,57.53645],[18.42778,57.53688],[18.42955,57.53798],[18.43175,57.53885],[18.43428,57.53939],[18.43735,57.53967],[18.4391,57.54033],[18.44152,57.54084],[18.44365,57.54103],[18.44559,57.541]]]}},{"type":"Feature","id":"0980R010","properties":{"code":"0980R010","name":"Slite"},"geometry":{"type":"Polygon","coordinates":[[[18.79259,57.73226],[18.79617,57.73169],[18.79907,57.73059],[18.80042,57.72973],[18.80154,57.72865],[18.80219,57.72758],[18.80245,57.72621],[18.80576,57.72519],[18.80796,57.72381],[18.81036,57.72101],[18.81091,57.71957],[18.81093,57.7186],[18.81398,57.71737],[18.81552,57.71617],[18.81771,57.71508],[18.81906,57.71389],[18.81989,57.71224],[18.81974,57.71062],[18.82123,57.70881],[18.8216,57.70709],[18.82145,57.70444],[18.82014,57.70272],[18.81961,57.70037],[18.81871,57.69901],[18.81763,57.69811],[18.81583,57.69715],[18.81413,57.69658],[18.81129,57.69602],[18.81008,57.69368],[18.81072,57.69193],[18.8105,57.68998],[18.80934,57.68811],[18.80574,57.6854],[18.80436,57.68461],[18.8015,57.68365],[18.79826,57.68322],[18.79311,57.6835],[18.79002,57.68417],[18.78571,57.68605],[18.78374,57.68792],[18.78322,57.68931],[18.78337,57.69075],[18.78626,57.69589],[18.78491,57.69773],[18.78458,57.70019],[18.78229,57.70127],[18.78056,57.70276],[18.7794,57.70445],[18.77775,57.70613],[18.77705,57.70859],[18.7772,57.71006],[18.77809,57.71155],[18.77956,57.71278],[18.78115,57.71362],[18.77988,57.71528],[18.77399,57.71525],[18.77135,57.71567],[18.76906,57.71631],[18.76683,57.71743],[18.76569,57.7183],[18.76471,57.71958],[18.76428,57.72098],[18.7646,57.72295],[18.76605,57.72509],[18.76754,57.72633],[18.76986,57.72748],[18.77339,57.72836],[18.77537,57.72852],[18.77766,57.72845],[18.7812,57.72955],[18.78523,57.73142],[18.7855,57.73171],[18.78977,57.73227],[18.79259,57.73226]]]}},{"type":"Feature","id":"0980R011","properties":{"code":"0980R011","name":"Visby omland"},"geometry":{"type":"Polygon","coordinates":[[[18.4117,57.72925],[18.41167,57.72902],[18.41627,57.72901],[18.41694,57.72921],[18.41709,57.7278],[18.42034,57.72957],[18.42076,57.73038],[18.43126,57.72951],[18.43367,57.72928],[18.434,57.72795],[18.43495,57.72703],[18.45134,57.73147],[18.45569,57.73281],[18.46532,57.72279],[18.47079,57.72062],[18.48837,57.72891],[18.49786,57.72466],[18.50737,57.72563],[18.5093,57.71957],[18.5318,57.7203],[18.53086,57.72979],[18.55481,57.72607],[18.5541,57.72384],[18.56138,57.72321],[18.55763,57.72135],[18.55953,57.72049],[18.55767,57.71954],[18.5604,57.7189],[18.56284,57.71961],[18.5663,57.71818],[18.56516,57.71377],[18.56902,57.71229],[18.57222,57.71021],[18.58333,57.71157],[18.58742,57.70849],[18.59291,57.70571],[18.59203,57.70343],[18.58985,57.70114],[18.57975,57.68669],[18.57608,57.67321],[18.57132,57.67243],[18.56501,57.66799],[18.53782,57.66332],[18.53986,57.66139],[18.54117,57.65952],[18.52633,57.66145],[18.51982,57.65895],[18.51906,57.65996],[18.51749,57.66083],[18.51383,57.66078],[18.51229,57.66045],[18.50812,57.66199],[18.50703,57.66045],[18.50695,57.65808],[18.49833,57.65972],[18.49277,57.6601],[18.49172,57.65575],[18.4853,57.6502],[18.49016,57.64554],[18.49195,57.64254],[18.4951,57.63989],[18.49765,57.63488],[18.4932,57.63524],[18.48285,57.62922],[18.48147,57.62761],[18.50876,57.61753],[18.50613,57.6143],[18.51303,57.61264],[18.51023,57.60917],[18.50319,57.61075],[18.49279,57.59783],[18.4979,57.59748],[18.4941,57.59147],[18.49351,57.59158],[18.48992,57.59126],[18.48707,57.58503],[18.48992,57.58362],[18.48978,57.57868],[18.4959,57.57457],[18.49933,57.57475],[18.50436,57.56783],[18.49787,57.56502],[18.5013,57.56002],[18.47681,57.55128],[18.47689,57.55148],[18.47169,57.55224],[18.46838,57.54812],[18.45172,57.54764],[18.45158,57.5474],[18.44045,57.54643],[18.43444,57.54716],[18.4354,57.54875],[18.43769,57.55047],[18.42843,57.55105],[18.42409,57.55426],[18.42477,57.55781],[18.42343,57.55845],[18.42038,57.5607],[18.41808,57.56198],[18.41558,57.56308],[18.41184,57.564],[18.41025,57.5649],[18.40974,57.56488],[18.41048,57.56399],[18.40951,57.5639],[18.40946,57.56373],[18.39271,57.56612],[18.3906,57.56349],[18.39027,57.5623],[18.39086,57.56138],[18.38049,57.56299],[18.35929,57.55802],[18.35226,57.55863],[18.35132,57.5512],[18.36253,57.54445],[18.3628,57.53976],[18.40249,57.52498],[18.40233,57.52427],[18.40127,57.52045],[18.40028,57.51842],[18.39444,57.52028],[18.392,57.50929],[18.38407,57.50763],[18.38452,57.50074],[18.37245,57.4974],[18.36911,57.49691],[18.36372,57.49948],[18.35172,57.49925],[18.35035,57.49231],[18.34684,57.48983],[18.34653,57.48924],[18.33835,57.48858],[18.33936,57.48636],[18.33535,57.48582],[18.33694,57.48406],[18.33676,57.48222],[18.34414,57.47491],[18.34042,57.47326],[18.34154,57.47116],[18.33109,57.469],[18.31942,57.47727],[18.31935,57.48134],[18.32,57.48135],[18.31902,57.48461],[18.31555,57.48457],[18.31664,57.48641],[18.31674,57.48703],[18.31646,57.48698],[18.31638,57.48723],[18.31659,57.48972],[18.31736,57.49077],[18.318,57.49118],[18.31073,57.49297],[18.29578,57.49283],[18.29512,57.49268],[18.28944,57.493],[18.28742,57.49323],[18.2837,57.49502],[18.28031,57.49542],[18.27573,57.49675],[18.27448,57.49633],[18.27115,57.49671],[18.26992,57.49652],[18.26837,57.49694],[18.26591,57.49633],[18.26558,57.49585],[18.26232,57.49493],[18.26013,57.49364],[18.25885,57.49248],[18.26362,57.48944],[18.26,57.48428],[18.25279,57.48888],[18.25478,57.48991],[18.2576,57.49182],[18.25834,57.49257],[18.2581,57.4926],[18.25826,57.49362],[18.2573,57.49593],[18.25535,57.49742],[18.25014,57.49859],[18.24592,57.50001],[18.24599,57.50019],[18.2441,57.50108],[18.24288,57.50328],[18.24236,57.50517],[18.24261,57.50736],[18.24425,57.51036],[18.24574,57.51219],[18.24543,57.51303],[18.24373,57.515],[18.24172,57.51597],[18.24131,57.51636],[18.23807,57.51696],[18.23287,57.51949],[18.22843,57.52041],[18.22786,57.52042],[18.22744,57.52013],[18.22601,57.52031],[18.225,57.52143],[18.22403,57.52178],[18.22236,57.52204],[18.21983,57.52571],[18.21799,57.52638],[18.21608,57.52774],[18.21478,57.52933],[18.21224,57.53027],[18.20978,57.53026],[18.20805,57.53046],[18.20722,57.53083],[18.20883,57.53292],[18.20509,57.53342],[18.20193,57.53316],[18.20058,57.53335],[18.19891,57.53408],[18.19792,57.53505],[18.19676,57.53567],[18.18905,57.53645],[18.18951,57.53904],[18.19185,57.54168],[18.19137,57.54184],[18.18861,57.54655],[18.18366,57.54948],[18.1838,57.55305],[18.1845,57.55377],[18.1821,57.55539],[18.18191,57.55665],[18.18287,57.56095],[18.18016,57.56292],[18.18035,57.56308],[18.1752,57.56548],[18.1662,57.56713],[18.14962,57.57404],[17.84005,57.68318],[17.84795,57.68881],[17.86141,57.69759],[17.87327,57.70594],[17.88062,57.71081],[17.88894,57.71617],[17.89761,57.72136],[17.90662,57.72639],[17.91595,57.73125],[17.93137,57.73858],[17.94613,57.74642],[17.95578,57.7511],[17.96573,57.7556],[17.98379,57.76299],[17.99223,57.76822],[18.00717,57.77665],[18.01536,57.78248],[18.02492,57.79127],[18.03391,57.80205],[18.03978,57.80827],[18.04605,57.81438],[18.05725,57.82418],[18.05888,57.82707],[18.39007,57.73566],[18.39947,57.73346],[18.40737,57.73187],[18.40889,57.73138],[18.4117,57.72925]],[[18.26669,57.61728],[18.2599,57.61382],[18.25649,57.61509],[18.25449,57.6161],[18.25088,57.61716],[18.24678,57.61758],[18.24329,57.61727],[18.24083,57.61664],[18.23842,57.6155],[18.23618,57.61509],[18.2332,57.61419],[18.22852,57.61311],[18.21969,57.61063],[18.21361,57.60791],[18.21138,57.60631],[18.20957,57.60536],[18.20709,57.60552],[18.2034,57.60533],[18.16679,57.58759],[18.16689,57.58554],[18.16848,57.58348],[18.1698,57.58261],[18.17208,57.58164],[18.17398,57.58114],[18.17617,57.58084],[18.18022,57.58092],[18.18417,57.58044],[18.18768,57.58071],[18.19061,57.5801],[18.19329,57.57996],[18.19656,57.5803],[18.19951,57.58121],[18.19967,57.58066],[18.20393,57.57791],[18.20667,57.57555],[18.20802,57.57517],[18.20784,57.57458],[18.21093,57.57435],[18.21537,57.57461],[18.21509,57.5753],[18.21853,57.57571],[18.22234,57.57566],[18.22579,57.57622],[18.22915,57.57585],[18.23253,57.57609],[18.23599,57.57704],[18.23911,57.57885],[18.23993,57.57833],[18.24135,57.57909],[18.24624,57.58074],[18.25069,57.58315],[18.25286,57.58505],[18.25543,57.58872],[18.2558,57.59051],[18.25521,57.59217],[18.25695,57.59294],[18.26402,57.59709],[18.26552,57.59881],[18.26592,57.60058],[18.26793,57.60173],[18.26907,57.60274],[18.27105,57.60262],[18.27361,57.60274],[18.2752,57.60191],[18.27695,57.60129],[18.28095,57.60065],[18.28448,57.60077],[18.28777,57.60149],[18.2901,57.60242],[18.292,57.60364],[18.29268,57.60376],[18.2937,57.60502],[18.29593,57.60677],[18.2994,57.60863],[18.30043,57.60875],[18.3026,57.60971],[18.30849,57.61286],[18.31163,57.61477],[18.3163,57.61858],[18.32025,57.61555],[18.32138,57.61381],[18.32302,57.61234],[18.32303,57.61143],[18.32239,57.61092],[18.31879,57.6096],[18.31072,57.60577],[18.31046,57.60545],[18.30764,57.60447],[18.30469,57.60315],[18.30308,57.60218],[18.30163,57.60173],[18.3002,57.60064],[18.30381,57.6004],[18.30752,57.60081],[18.31128,57.6005],[18.31519,57.60097],[18.31751,57.60171],[18.32191,57.60368],[18.32354,57.60466],[18.32565,57.60536],[18.33066,57.60779],[18.33426,57.60828],[18.33757,57.6095],[18.33918,57.61063],[18.34002,57.61161],[18.3405,57.61266],[18.34059,57.61379],[18.34309,57.61623],[18.34358,57.61732],[18.34365,57.6186],[18.34524,57.6203],[18.34584,57.62181],[18.34811,57.6221],[18.35071,57.62282],[18.35318,57.62409],[18.35477,57.62556],[18.35797,57.62631],[18.36009,57.6272],[18.36167,57.62831],[18.36252,57.62929],[18.36338,57.63191],[18.36328,57.63415],[18.36366,57.6356],[18.36317,57.63747],[18.36332,57.63877],[18.36163,57.63909],[18.35907,57.64049],[18.35871,57.64186],[18.35575,57.64138],[18.3532,57.64167],[18.35084,57.64154],[18.34985,57.64175],[18.34829,57.64318],[18.34598,57.64431],[18.34532,57.64575],[18.34404,57.64703],[18.34155,57.64849],[18.33885,57.64961],[18.33753,57.65097],[18.33479,57.65267],[18.33567,57.65306],[18.3397,57.65327],[18.34213,57.65374],[18.34429,57.65454],[18.34678,57.65598],[18.35043,57.65951],[18.35144,57.66124],[18.35126,57.66332],[18.35063,57.6643],[18.34932,57.66545],[18.35028,57.66702],[18.35241,57.66771],[18.35422,57.66869],[18.35527,57.66959],[18.35612,57.6709],[18.35628,57.67262],[18.35584,57.67411],[18.35516,57.67517],[18.3533,57.67667],[18.35115,57.67765],[18.3502,57.67933],[18.34892,57.68062],[18.34592,57.68217],[18.34188,57.68319],[18.33835,57.68336],[18.33402,57.68284],[18.33075,57.68172],[18.32912,57.68065],[18.32786,57.67905],[18.32757,57.67799],[18.32765,57.67551],[18.3254,57.67474],[18.32357,57.67368],[18.32091,57.67121],[18.31949,57.6691],[18.31728,57.66867],[18.31377,57.66753],[18.3102,57.66665],[18.30661,57.66493],[18.30482,57.66324],[18.30228,57.66134],[18.3016,57.6603],[18.30131,57.65908],[18.29764,57.65779],[18.29591,57.65679],[18.29345,57.65489],[18.29209,57.65338],[18.28689,57.64984],[18.28255,57.64557],[18.27615,57.64345],[18.26749,57.64131],[18.26537,57.64035],[18.26116,57.63783],[18.2598,57.63592],[18.25975,57.63416],[18.26057,57.63261],[18.26148,57.63169],[18.26305,57.6307],[18.26373,57.62935],[18.26069,57.62753],[18.25915,57.62621],[18.25829,57.62456],[18.25833,57.623],[18.25971,57.62088],[18.26191,57.61942],[18.26488,57.61839],[18.26841,57.61791],[18.26669,57.61728]]]}},{"type":"Feature","id":"0980R012","properties":{"code":"0980R012","name":"Visby södra"},"geometry":{"type":"Polygon","coordinates":[[[18.27858,57.63244],[18.2801,57.63075],[18.28175,57.6326],[18.28385,57.63286],[18.28522,57.63215],[18.28792,57.63123],[18.28895,57.63191],[18.28975,57.63186],[18.29078,57.63227],[18.29502,57.63319],[18.29838,57.63147],[18.30072,57.63083],[18.29879,57.62878],[18.30365,57.62767],[18.29986,57.62535],[18.29878,57.62394],[18.29386,57.61967],[18.29062,57.61822],[18.29167,57.61715],[18.29238,57.61587],[18.29065,57.61424],[18.28845,57.61416],[18.29289,57.61109],[18.29716,57.60984],[18.29851,57.60925],[18.29946,57.60858],[18.29515,57.60631],[18.29268,57.60376],[18.292,57.60364],[18.28947,57.60213],[18.28571,57.60096],[18.2824,57.60063],[18.27969,57.60076],[18.27639,57.60146],[18.27361,57.60274],[18.27105,57.60262],[18.26907,57.60274],[18.26793,57.60173],[18.26592,57.60058],[18.26552,57.59881],[18.26402,57.59709],[18.25695,57.59294],[18.25521,57.59217],[18.2558,57.59051],[18.25558,57.58905],[18.25286,57.58505],[18.25065,57.58312],[18.24675,57.58094],[18.24135,57.57909],[18.23993,57.57833],[18.23911,57.57885],[18.23601,57.57705],[18.23318,57.5762],[18.22915,57.57585],[18.22579,57.57622],[18.22234,57.57566],[18.21853,57.57571],[18.21509,57.5753],[18.21537,57.57461],[18.21062,57.57435],[18.20784,57.57458],[18.20802,57.57517],[18.20667,57.57555],[18.20393,57.57791],[18.19967,57.58066],[18.19951,57.58121],[18.19656,57.5803],[18.19329,57.57996],[18.19061,57.5801],[18.18768,57.58071],[18.18417,57.58044],[18.18022,57.58092],[18.17681,57.5808],[18.17281,57.58142],[18.17089,57.58208],[18.16936,57.58286],[18.16815,57.58377],[18.16708,57.58512],[18.1667,57.58622],[18.16679,57.58759],[18.2034,57.60533],[18.20709,57.60552],[18.20957,57.60536],[18.21138,57.60631],[18.21361,57.60791],[18.21969,57.61063],[18.22852,57.61311],[18.2332,57.61419],[18.23618,57.61509],[18.23842,57.6155],[18.24083,57.61664],[18.24329,57.61727],[18.24678,57.61758],[18.25088,57.61716],[18.25449,57.6161],[18.25649,57.61509],[18.2599,57.61382],[18.26621,57.61705],[18.26841,57.61791],[18.26488,57.61839],[18.26191,57.61942],[18.25971,57.62088],[18.25833,57.623],[18.25829,57.62456],[18.25915,57.62621],[18.26069,57.62753],[18.26373,57.62935],[18.26305,57.6307],[18.26148,57.63169],[18.26057,57.63261],[18.25968,57.63453],[18.25971,57.63558],[18.26031,57.63691],[18.26116,57.63783],[18.2625,57.63874],[18.27858,57.63244]]]}}]}