{"type":"FeatureCollection","features":[{"type":"Feature","id":"1080R020","properties":{"code":"1080R020","name":"Saltö-Björkholmen"},"geometry":{"type":"Polygon","coordinates":[[[15.57356,56.1797],[15.57473,56.17842],[15.57437,56.17739],[15.5725,56.17467],[15.57311,56.1731],[15.57645,56.17264],[15.57957,56.17139],[15.58071,56.17131],[15.58282,56.16975],[15.58036,56.16898],[15.57951,56.16699],[15.57798,56.1658],[15.57614,56.1656],[15.57629,56.1649],[15.57492,56.1643],[15.57438,56.16345],[15.57458,56.16243],[15.57417,56.16085],[15.57315,56.16079],[15.57304,56.16051],[15.57103,56.16079],[15.5704,56.16104],[15.56855,56.16111],[15.56869,56.16058],[15.56667,56.15856],[15.56533,56.15537],[15.56445,56.15429],[15.56314,56.1543],[15.5601,56.1557],[15.55516,56.15943],[15.55204,56.165],[15.55234,56.16545],[15.5537,56.17322],[15.55324,56.17851],[15.56667,56.18014],[15.57025,56.18165],[15.57036,56.18185],[15.57356,56.1797]]]}},{"type":"Feature","id":"1080R021","properties":{"code":"1080R021","name":"Skärgården"},"geometry":{"type":"Polygon","coordinates":[[[15.52553,56.16447],[15.53422,56.16169],[15.53762,56.16294],[15.53652,56.16568],[15.53644,56.16746],[15.53733,56.17011],[15.53777,56.17663],[15.55324,56.17851],[15.5537,56.17322],[15.55234,56.16545],[15.55204,56.165],[15.55516,56.15943],[15.5601,56.1557],[15.56314,56.1543],[15.56495,56.15319],[15.56704,56.15246],[15.56857,56.15155],[15.57019,56.15001],[15.57157,56.14924],[15.57487,56.14824],[15.5779,56.14694],[15.58064,56.14537],[15.5825,56.14466],[15.58654,56.14384],[15.58898,56.14367],[15.59402,56.14385],[15.59938,56.14476],[15.60231,56.14598],[15.60414,56.14752],[15.60585,56.15057],[15.60599,56.1516],[15.60572,56.1528],[15.60804,56.15372],[15.60961,56.15481],[15.61062,56.15606],[15.61121,56.15787],[15.61107,56.1599],[15.61021,56.16287],[15.60854,56.16485],[15.60722,56.16582],[15.6086,56.16654],[15.60955,56.16635],[15.62123,56.16613],[15.6216,56.16446],[15.62505,56.15768],[15.62644,56.157],[15.62887,56.15622],[15.63271,56.15567],[15.64604,56.15533],[15.64893,56.15639],[15.65055,56.15738],[15.6671,56.15196],[15.68764,56.14887],[15.6908,56.14719],[15.68294,56.1427],[15.67713,56.13786],[15.68202,56.13391],[15.69195,56.13137],[15.69527,56.12645],[15.72172,56.12427],[15.72739,56.12232],[15.72892,56.12134],[15.73123,56.12105],[15.73298,56.12059],[15.73503,56.1197],[15.7369,56.11825],[15.73787,56.11655],[15.73792,56.1151],[15.73726,56.11337],[15.73494,56.1105],[15.73109,56.10739],[15.73189,56.10579],[15.73193,56.10374],[15.73094,56.10213],[15.7291,56.10077],[15.72714,56.09995],[15.72477,56.09942],[15.72153,56.0979],[15.71866,56.09731],[15.71622,56.09722],[15.7144,56.09737],[15.71212,56.09787],[15.71017,56.09866],[15.70731,56.09827],[15.7089,56.09682],[15.70961,56.09542],[15.70952,56.09209],[15.70906,56.09066],[15.7116,56.08869],[15.71393,56.08748],[15.71504,56.08662],[15.71614,56.08504],[15.71639,56.08342],[15.71612,56.08233],[15.71547,56.08127],[15.71298,56.0793],[15.71225,56.07605],[15.71063,56.0741],[15.70909,56.07304],[15.70357,56.06382],[15.69439,56.06388],[15.68471,56.04636],[15.46236,55.79773],[15.45329,55.80246],[15.44046,55.80975],[15.30656,55.88961],[15.23066,55.89404],[15.33805,56.02227],[15.40653,56.108],[15.41225,56.10967],[15.4154,56.11605],[15.42741,56.1213],[15.43628,56.12298],[15.44013,56.12341],[15.44177,56.12328],[15.44617,56.12667],[15.45305,56.12889],[15.46604,56.12608],[15.4784,56.13395],[15.48858,56.13406],[15.50585,56.13106],[15.52399,56.14113],[15.51869,56.14896],[15.52118,56.15298],[15.51938,56.15838],[15.51219,56.16231],[15.50678,56.16243],[15.50221,56.16448],[15.50204,56.16757],[15.49977,56.17038],[15.4937,56.17186],[15.49155,56.17615],[15.48916,56.17987],[15.48889,56.18128],[15.48951,56.18479],[15.49183,56.18278],[15.49335,56.18204],[15.49553,56.18137],[15.49681,56.17951],[15.49784,56.17854],[15.50078,56.1769],[15.50508,56.17387],[15.50687,56.17202],[15.50908,56.17091],[15.51059,56.16973],[15.51256,56.16883],[15.51696,56.16526],[15.52553,56.16447]]]}},{"type":"Feature","id":"1080R022","properties":{"code":"1080R022","name":"Spandelstorp"},"geometry":{"type":"Polygon","coordinates":[[[15.66753,56.21765],[15.66698,56.21662],[15.66792,56.21651],[15.6668,56.21518],[15.66672,56.2146],[15.66714,56.21463],[15.6673,56.21436],[15.66651,56.21365],[15.66927,56.2123],[15.66973,56.21167],[15.66868,56.21086],[15.66962,56.20809],[15.66977,56.20628],[15.66772,56.20446],[15.66798,56.2025],[15.66773,56.20207],[15.66514,56.20249],[15.66334,56.20366],[15.66112,56.20361],[15.65993,56.20385],[15.65843,56.20442],[15.6563,56.20328],[15.65186,56.20418],[15.6512,56.20379],[15.65076,56.20402],[15.64879,56.20375],[15.64486,56.205],[15.64428,56.20602],[15.64513,56.2059],[15.64522,56.20719],[15.64352,56.20718],[15.64338,56.20738],[15.64257,56.20756],[15.64279,56.20842],[15.64165,56.21022],[15.64134,56.21015],[15.64137,56.21068],[15.63877,56.2149],[15.64224,56.21561],[15.6425,56.2152],[15.6451,56.21443],[15.64968,56.21682],[15.65091,56.21701],[15.65175,56.21741],[15.65289,56.21687],[15.65398,56.21702],[15.65741,56.21659],[15.65741,56.217],[15.66061,56.21699],[15.66063,56.21656],[15.66317,56.21649],[15.66417,56.21665],[15.66402,56.21689],[15.66468,56.21702],[15.66486,56.21682],[15.66639,56.21733],[15.6663,56.21786],[15.66753,56.21765]]]}},{"type":"Feature","id":"1080R001","properties":{"code":"1080R001","name":"Bergåsa-Västra Mark-Annebo"},"geometry":{"type":"Polygon","coordinates":[[[15.58964,56.19877],[15.59821,56.19834],[15.60343,56.19528],[15.60555,56.19282],[15.60846,56.19212],[15.60819,56.19171],[15.60914,56.19036],[15.61038,56.18966],[15.61172,56.18923],[15.61329,56.18898],[15.61698,56.1879],[15.61905,56.18749],[15.6209,56.18839],[15.62253,56.18863],[15.62914,56.18745],[15.62614,56.18544],[15.62451,56.18277],[15.61913,56.18435],[15.61862,56.18359],[15.61821,56.18341],[15.61727,56.1817],[15.61776,56.18159],[15.61716,56.18039],[15.61495,56.17771],[15.61051,56.17783],[15.61062,56.17716],[15.61013,56.17514],[15.60651,56.17543],[15.60493,56.17584],[15.60296,56.17664],[15.60235,56.1773],[15.59958,56.17805],[15.59863,56.17866],[15.59979,56.17981],[15.60074,56.18203],[15.59782,56.18191],[15.59502,56.18072],[15.59414,56.1807],[15.5947,56.18228],[15.59655,56.1829],[15.59573,56.18374],[15.59403,56.18462],[15.5928,56.185],[15.59071,56.18512],[15.59054,56.18554],[15.5757,56.18622],[15.57953,56.18724],[15.58202,56.19028],[15.58298,56.19289],[15.58024,56.19615],[15.58093,56.19634],[15.58125,56.19603],[15.58184,56.19721],[15.5827,56.19811],[15.5864,56.20043],[15.58856,56.20127],[15.59128,56.2018],[15.58964,56.19877]]]}},{"type":"Feature","id":"1080R002","properties":{"code":"1080R002","name":"Fridlevstad-Tving"},"geometry":{"type":"Polygon","coordinates":[[[15.45558,56.45205],[15.46811,56.44632],[15.47217,56.44861],[15.47392,56.44936],[15.47542,56.44932],[15.48014,56.4483],[15.48159,56.44844],[15.48264,56.44705],[15.48534,56.44673],[15.48724,56.44619],[15.49013,56.44476],[15.49191,56.44335],[15.4949,56.43987],[15.49699,56.43906],[15.4999,56.43646],[15.50144,56.43614],[15.50325,56.4351],[15.50579,56.43498],[15.51093,56.4303],[15.50916,56.42945],[15.51266,56.42495],[15.51063,56.42312],[15.51047,56.42175],[15.51246,56.41975],[15.51136,56.4159],[15.51156,56.41172],[15.51238,56.40859],[15.51008,56.40702],[15.51072,56.40396],[15.50659,56.39911],[15.50598,56.39707],[15.50473,56.38229],[15.51078,56.37902],[15.51687,56.37751],[15.51957,56.37732],[15.52205,56.37755],[15.52633,56.37753],[15.53078,56.37797],[15.53466,56.37764],[15.53664,56.37689],[15.538,56.37527],[15.54059,56.3764],[15.54458,56.37688],[15.54762,56.37689],[15.56263,56.37229],[15.56434,56.37318],[15.56426,56.37339],[15.5649,56.3734],[15.56672,56.37399],[15.56685,56.37423],[15.56796,56.3744],[15.5681,56.37462],[15.56933,56.37395],[15.56948,56.37468],[15.57034,56.3749],[15.57018,56.376],[15.57244,56.37779],[15.57487,56.37682],[15.57548,56.37601],[15.58002,56.37714],[15.58169,56.37722],[15.58472,56.37698],[15.58603,56.37751],[15.58881,56.37796],[15.58924,56.37236],[15.61471,56.36974],[15.62252,56.36935],[15.61329,56.3659],[15.59954,56.35732],[15.59554,56.35711],[15.59463,56.35622],[15.59286,56.35605],[15.592,56.35577],[15.59051,56.35373],[15.59016,56.35137],[15.58919,56.35077],[15.58906,56.34993],[15.58631,56.35033],[15.58393,56.34945],[15.58276,56.34928],[15.58202,56.34832],[15.5808,56.34739],[15.58122,56.34223],[15.58274,56.33838],[15.5835,56.33744],[15.5832,56.33634],[15.58262,56.33614],[15.58248,56.33568],[15.58563,56.33403],[15.58558,56.33291],[15.58647,56.33194],[15.58614,56.33073],[15.58637,56.33037],[15.58584,56.33018],[15.58657,56.3295],[15.58641,56.32793],[15.58688,56.32778],[15.58714,56.32719],[15.58658,56.32673],[15.58659,56.32586],[15.58734,56.32565],[15.58754,56.32508],[15.58715,56.32475],[15.58721,56.32432],[15.58768,56.32398],[15.58793,56.32334],[15.58852,56.32311],[15.58897,56.32154],[15.58967,56.32111],[15.59028,56.32098],[15.59022,56.3206],[15.59195,56.32017],[15.59211,56.31997],[15.59162,56.31961],[15.59159,56.31895],[15.59276,56.31707],[15.59252,56.3167],[15.59253,56.31463],[15.59317,56.31288],[15.59289,56.31255],[15.5936,56.31038],[15.59315,56.30966],[15.59421,56.30917],[15.59498,56.30801],[15.59473,56.30779],[15.59582,56.30722],[15.59574,56.30684],[15.5961,56.30639],[15.59558,56.30618],[15.59591,56.30548],[15.59702,56.30496],[15.59672,56.30405],[15.59706,56.30356],[15.59596,56.30171],[15.59962,56.29924],[15.59747,56.29693],[15.59965,56.29383],[15.60119,56.29223],[15.60507,56.29138],[15.60725,56.28953],[15.60897,56.28708],[15.60925,56.28497],[15.61241,56.28508],[15.61851,56.28712],[15.6188,56.28589],[15.61949,56.28483],[15.619,56.28449],[15.61641,56.28367],[15.61493,56.2829],[15.61366,56.28202],[15.61258,56.28082],[15.61032,56.27983],[15.60846,56.27847],[15.6075,56.27718],[15.60716,56.2758],[15.60732,56.27474],[15.60813,56.27324],[15.60488,56.273],[15.60163,56.27219],[15.59949,56.27135],[15.59739,56.27005],[15.59626,56.26877],[15.59534,56.26693],[15.59507,56.26473],[15.59312,56.26326],[15.59148,56.26129],[15.59096,56.25986],[15.59102,56.25874],[15.59165,56.25732],[15.59263,56.25624],[15.59388,56.25535],[15.5959,56.25441],[15.5977,56.2539],[15.60022,56.25353],[15.59852,56.25215],[15.57729,56.24381],[15.57497,56.2384],[15.5664,56.23748],[15.56374,56.23796],[15.55699,56.2372],[15.55461,56.23756],[15.55112,56.23664],[15.54412,56.23594],[15.53872,56.23595],[15.53281,56.23544],[15.5251,56.23532],[15.52158,56.23466],[15.51643,56.23408],[15.51479,56.23783],[15.51443,56.24047],[15.51468,56.24123],[15.51417,56.24202],[15.51408,56.24339],[15.51137,56.24361],[15.50448,56.24299],[15.50306,56.24264],[15.49913,56.24029],[15.49134,56.23839],[15.48618,56.2398],[15.48248,56.24058],[15.47792,56.24203],[15.47314,56.24256],[15.47238,56.24277],[15.47118,56.24266],[15.4683,56.24199],[15.46548,56.24182],[15.46785,56.24577],[15.46917,56.24628],[15.47079,56.24808],[15.47224,56.25252],[15.47222,56.25494],[15.47178,56.25544],[15.46979,56.25639],[15.47245,56.25688],[15.47834,56.25745],[15.48265,56.259],[15.48848,56.26078],[15.48834,56.26261],[15.48379,56.2671],[15.48326,56.26847],[15.4822,56.26917],[15.48237,56.26962],[15.48286,56.26978],[15.48413,56.27756],[15.4836,56.27782],[15.48308,56.27781],[15.48227,56.27734],[15.48127,56.27712],[15.48049,56.27785],[15.47894,56.27773],[15.47862,56.27671],[15.47691,56.27551],[15.47551,56.27488],[15.47428,56.27479],[15.47126,56.27499],[15.46768,56.27565],[15.46495,56.277],[15.46414,56.27776],[15.46193,56.27812],[15.46118,56.27803],[15.45825,56.27669],[15.45118,56.27491],[15.45003,56.27508],[15.44368,56.27013],[15.44431,56.27468],[15.43757,56.28359],[15.43668,56.28367],[15.43603,56.28401],[15.4353,56.2857],[15.43478,56.28575],[15.43438,56.28741],[15.43386,56.28739],[15.43357,56.28471],[15.42604,56.28259],[15.41699,56.28061],[15.41559,56.28079],[15.41388,56.28055],[15.41382,56.27993],[15.40724,56.2785],[15.40454,56.28121],[15.39289,56.27946],[15.39135,56.28069],[15.39052,56.28198],[15.38971,56.28248],[15.38905,56.28342],[15.38682,56.28549],[15.38687,56.28642],[15.38948,56.2871],[15.38916,56.2888],[15.3849,56.29274],[15.38515,56.29394],[15.38349,56.30158],[15.38074,56.30286],[15.37736,56.30403],[15.37516,56.30467],[15.37347,56.30491],[15.37282,56.30562],[15.3756,56.31041],[15.37697,56.31162],[15.37615,56.31208],[15.37591,56.31243],[15.3762,56.31257],[15.37293,56.31558],[15.37104,56.3162],[15.37076,56.31907],[15.38004,56.31823],[15.38162,56.31927],[15.38097,56.32323],[15.37988,56.32508],[15.3814,56.32903],[15.38149,56.33158],[15.38103,56.33297],[15.37945,56.33525],[15.37793,56.33607],[15.37785,56.33818],[15.37861,56.33822],[15.37938,56.34083],[15.37668,56.34137],[15.37527,56.34298],[15.35916,56.34313],[15.35018,56.34479],[15.33814,56.35057],[15.336,56.35143],[15.32898,56.3554],[15.32225,56.35647],[15.31418,56.36096],[15.31356,56.3631],[15.30458,56.36066],[15.30471,56.36207],[15.30436,56.36291],[15.30462,56.36414],[15.30307,56.36564],[15.30242,56.36671],[15.30235,56.3671],[15.30286,56.36783],[15.30194,56.36945],[15.30332,56.37164],[15.30102,56.37331],[15.29976,56.37981],[15.29704,56.38319],[15.30156,56.38316],[15.30725,56.3845],[15.30732,56.3847],[15.31559,56.38304],[15.31575,56.38234],[15.3174,56.38162],[15.32005,56.38258],[15.32602,56.38327],[15.33469,56.38284],[15.3484,56.38138],[15.34948,56.39024],[15.34866,56.39024],[15.34701,56.3895],[15.34647,56.38951],[15.34638,56.39027],[15.3478,56.39196],[15.34617,56.39355],[15.34477,56.39413],[15.34462,56.39458],[15.34405,56.39474],[15.34388,56.39538],[15.34306,56.39631],[15.34207,56.39663],[15.34146,56.3971],[15.34139,56.39767],[15.34216,56.39827],[15.34203,56.39855],[15.34251,56.39859],[15.343,56.39905],[15.34276,56.39952],[15.34139,56.40065],[15.3429,56.40094],[15.34181,56.40142],[15.34093,56.40149],[15.33986,56.40217],[15.34003,56.4041],[15.33764,56.40568],[15.33814,56.40617],[15.33571,56.40755],[15.33672,56.40905],[15.33891,56.41091],[15.34074,56.41116],[15.34173,56.41185],[15.34292,56.41213],[15.34483,56.4123],[15.34915,56.4112],[15.35512,56.41154],[15.3593,56.41099],[15.36237,56.41093],[15.36283,56.411],[15.36398,56.41229],[15.36469,56.41382],[15.36571,56.41423],[15.36723,56.41454],[15.36949,56.41422],[15.37205,56.41351],[15.37412,56.41331],[15.37557,56.41254],[15.37735,56.41302],[15.37751,56.41347],[15.37725,56.41446],[15.37663,56.4149],[15.37664,56.4153],[15.37594,56.41587],[15.37588,56.41621],[15.38826,56.41518],[15.39681,56.40912],[15.3973,56.40914],[15.39793,56.40586],[15.40556,56.40388],[15.41331,56.40276],[15.41695,56.40453],[15.418,56.4048],[15.41836,56.4055],[15.41834,56.40679],[15.41883,56.40771],[15.41881,56.40863],[15.42029,56.41011],[15.42028,56.41064],[15.4213,56.41196],[15.41903,56.41317],[15.42043,56.41557],[15.42122,56.41627],[15.42271,56.41664],[15.42736,56.42157],[15.43213,56.42326],[15.4364,56.42454],[15.4371,56.42456],[15.43668,56.42553],[15.43691,56.42682],[15.43523,56.42698],[15.43356,56.42752],[15.43303,56.42809],[15.43202,56.4303],[15.43231,56.43356],[15.43401,56.43855],[15.43413,56.44054],[15.43369,56.44188],[15.4354,56.4422],[15.43678,56.44506],[15.43711,56.44731],[15.43762,56.44836],[15.43833,56.44813],[15.43871,56.44726],[15.44005,56.44655],[15.4475,56.44594],[15.44831,56.44769],[15.44762,56.44828],[15.44783,56.44878],[15.44935,56.44948],[15.45275,56.45175],[15.45558,56.45205]]]}},{"type":"Feature","id":"1080R003","properties":{"code":"1080R003","name":"Galgamarken"},"geometry":{"type":"Polygon","coordinates":[[[15.60074,56.18203],[15.59951,56.17943],[15.5981,56.17838],[15.59365,56.17697],[15.59291,56.17739],[15.59047,56.17755],[15.59025,56.17911],[15.59058,56.18018],[15.59322,56.18068],[15.59502,56.18072],[15.59782,56.18191],[15.60074,56.18203]]]}},{"type":"Feature","id":"1080R004","properties":{"code":"1080R004","name":"Holmsjö-Strömsberg-Kättilsmåla"},"geometry":{"type":"Polygon","coordinates":[[[15.54867,56.50354],[15.54983,56.5022],[15.55101,56.50196],[15.55195,56.50137],[15.55349,56.50086],[15.5549,56.50085],[15.56183,56.49962],[15.56615,56.49835],[15.5683,56.49829],[15.569,56.49747],[15.57064,56.4971],[15.57167,56.49657],[15.57257,56.49532],[15.57517,56.49466],[15.57587,56.49476],[15.57654,56.4953],[15.57722,56.49552],[15.57823,56.49548],[15.58173,56.49621],[15.58216,56.49603],[15.58196,56.49565],[15.5831,56.49509],[15.58398,56.49529],[15.58576,56.49524],[15.58533,56.49433],[15.58559,56.49397],[15.58496,56.49377],[15.58514,56.49326],[15.586,56.49296],[15.58596,56.49251],[15.58706,56.49194],[15.5874,56.49123],[15.5883,56.49186],[15.58874,56.49162],[15.58725,56.48948],[15.58717,56.48812],[15.58645,56.48652],[15.58651,56.48539],[15.58594,56.48454],[15.58864,56.48174],[15.59054,56.48235],[15.59116,56.48194],[15.59235,56.48175],[15.59219,56.48085],[15.59256,56.48006],[15.59355,56.47908],[15.59453,56.47873],[15.59517,56.47822],[15.59554,56.47749],[15.59933,56.47368],[15.59952,56.47311],[15.59914,56.47275],[15.59923,56.47205],[15.60228,56.47285],[15.60422,56.47213],[15.60529,56.47065],[15.60988,56.47087],[15.61197,56.47065],[15.61455,56.46846],[15.61869,56.46652],[15.61994,56.46614],[15.62312,56.46452],[15.62821,56.46312],[15.62966,56.46241],[15.63087,56.46148],[15.63045,56.46059],[15.63074,56.45991],[15.63234,56.45913],[15.63427,56.45892],[15.63649,56.45793],[15.63511,56.45763],[15.63601,56.45708],[15.63677,56.45696],[15.63787,56.45723],[15.63964,56.45683],[15.6405,56.45682],[15.64197,56.45741],[15.64517,56.45768],[15.64595,56.45863],[15.64611,56.46021],[15.64816,56.4601],[15.64944,56.46041],[15.65232,56.46207],[15.65258,56.46242],[15.65233,56.46323],[15.65291,56.46358],[15.65416,56.46342],[15.65451,56.46261],[15.65562,56.4625],[15.65644,56.46217],[15.65856,56.46007],[15.65842,56.45955],[15.65759,56.45868],[15.65761,56.45826],[15.65846,56.45766],[15.65884,56.45706],[15.6605,56.4563],[15.66113,56.45545],[15.66216,56.45518],[15.66283,56.45474],[15.66303,56.45407],[15.66226,56.45261],[15.66507,56.4509],[15.6654,56.44841],[15.66713,56.44702],[15.66625,56.4452],[15.66607,56.44372],[15.66893,56.4411],[15.66953,56.4408],[15.66965,56.44039],[15.66877,56.43977],[15.66865,56.43928],[15.66949,56.43725],[15.67225,56.43476],[15.67335,56.43259],[15.67337,56.43192],[15.67433,56.43068],[15.67737,56.42496],[15.69729,56.42312],[15.69836,56.42272],[15.70294,56.42172],[15.70666,56.42042],[15.71746,56.41792],[15.72438,56.41696],[15.72679,56.41696],[15.72932,56.4164],[15.73003,56.41648],[15.73099,56.41616],[15.73238,56.41609],[15.73579,56.41452],[15.73811,56.41254],[15.73796,56.41155],[15.7385,56.41106],[15.73914,56.41063],[15.74045,56.41029],[15.74012,56.41004],[15.74084,56.40891],[15.74304,56.40824],[15.7437,56.4073],[15.74367,56.40541],[15.74396,56.40451],[15.74461,56.40364],[15.74522,56.40368],[15.74537,56.40327],[15.74576,56.40314],[15.74576,56.40221],[15.74716,56.40117],[15.74909,56.40113],[15.75121,56.39904],[15.75126,56.39869],[15.75251,56.39797],[15.75356,56.39639],[15.7534,56.39485],[15.755,56.39315],[15.75605,56.39239],[15.75664,56.39048],[15.75702,56.39007],[15.75761,56.38993],[15.75811,56.38927],[15.7594,56.38888],[15.76027,56.3877],[15.76181,56.38709],[15.76193,56.38604],[15.76266,56.38493],[15.76485,56.38397],[15.76553,56.38339],[15.76764,56.38272],[15.76881,56.38203],[15.76972,56.38209],[15.772,56.38156],[15.77436,56.38011],[15.77528,56.38029],[15.7757,56.38005],[15.77599,56.3774],[15.77674,56.37492],[15.77815,56.37258],[15.77706,56.37043],[15.77688,56.36949],[15.79883,56.35163],[15.7999,56.34808],[15.80701,56.34183],[15.81121,56.33906],[15.81273,56.33762],[15.81658,56.33469],[15.81773,56.33516],[15.81859,56.33495],[15.81954,56.335],[15.82084,56.33469],[15.82143,56.33432],[15.82181,56.33385],[15.82032,56.33355],[15.81917,56.33293],[15.82115,56.3314],[15.83247,56.32675],[15.83441,56.32777],[15.83715,56.32595],[15.83559,56.32539],[15.84185,56.32275],[15.8503,56.32112],[15.85054,56.31874],[15.84941,56.3167],[15.85019,56.31552],[15.84456,56.3146],[15.84565,56.31374],[15.84426,56.31336],[15.84256,56.31221],[15.84135,56.311],[15.85318,56.3107],[15.86184,56.30342],[15.86392,56.30357],[15.86484,56.30339],[15.86808,56.30196],[15.86894,56.30184],[15.87039,56.30228],[15.8692,56.29935],[15.86948,56.29681],[15.86582,56.29392],[15.8632,56.29242],[15.86123,56.29134],[15.85623,56.28944],[15.85548,56.28869],[15.85537,56.28763],[15.85336,56.28638],[15.85163,56.28401],[15.85116,56.28284],[15.85139,56.27838],[15.85072,56.2778],[15.84754,56.2761],[15.84734,56.2755],[15.84758,56.27457],[15.85365,56.26877],[15.84113,56.25435],[15.83735,56.25214],[15.80622,56.25601],[15.80524,56.25408],[15.80365,56.25208],[15.7993,56.24896],[15.79877,56.24833],[15.79653,56.25006],[15.796,56.24954],[15.79613,56.24866],[15.79462,56.24907],[15.79126,56.24936],[15.79123,56.25008],[15.78925,56.25004],[15.78789,56.24962],[15.78626,56.24977],[15.7851,56.24934],[15.78304,56.24943],[15.78265,56.24923],[15.78179,56.24709],[15.78209,56.24656],[15.78004,56.24341],[15.7813,56.24031],[15.78073,56.23877],[15.78068,56.23757],[15.77841,56.23783],[15.77597,56.23764],[15.77552,56.23791],[15.77427,56.23787],[15.77412,56.23761],[15.76771,56.23653],[15.76589,56.23547],[15.75147,56.24177],[15.74934,56.2431],[15.74671,56.24386],[15.74461,56.24407],[15.74377,56.24353],[15.73668,56.24487],[15.73817,56.25029],[15.73442,56.25227],[15.72558,56.25639],[15.72336,56.25454],[15.7226,56.25425],[15.71901,56.25189],[15.71821,56.25061],[15.71583,56.24964],[15.71529,56.24996],[15.71452,56.24965],[15.71415,56.24969],[15.70541,56.25558],[15.70405,56.2563],[15.70291,56.25661],[15.69982,56.25667],[15.698,56.25761],[15.69594,56.25826],[15.6938,56.26008],[15.68989,56.26234],[15.69171,56.26387],[15.69736,56.26661],[15.70071,56.26789],[15.70394,56.26842],[15.70529,56.26897],[15.70739,56.27013],[15.70967,56.2718],[15.71223,56.2728],[15.71433,56.27435],[15.71605,56.27431],[15.71666,56.27525],[15.71604,56.27616],[15.71384,56.27692],[15.71237,56.27808],[15.71045,56.27861],[15.70892,56.27943],[15.70937,56.28065],[15.7092,56.28125],[15.70761,56.28244],[15.70563,56.28304],[15.70598,56.28497],[15.70397,56.28617],[15.7009,56.28584],[15.69841,56.28713],[15.69652,56.28712],[15.69536,56.2865],[15.69518,56.28535],[15.69399,56.28511],[15.69334,56.28424],[15.69297,56.28415],[15.6873,56.28501],[15.68584,56.28459],[15.68498,56.28468],[15.68465,56.28552],[15.68243,56.28621],[15.68216,56.2866],[15.68335,56.28765],[15.68108,56.2887],[15.67994,56.28891],[15.678,56.2884],[15.67719,56.28798],[15.67465,56.28827],[15.6726,56.28806],[15.6713,56.28884],[15.67017,56.28908],[15.66889,56.28587],[15.6649,56.28448],[15.66328,56.2843],[15.66279,56.28367],[15.66372,56.28184],[15.6592,56.27832],[15.65221,56.27231],[15.64913,56.27284],[15.64859,56.27317],[15.64443,56.27356],[15.64351,56.27419],[15.64065,56.27379],[15.64065,56.27352],[15.63922,56.27365],[15.63832,56.27352],[15.63698,56.27751],[15.63954,56.27921],[15.64267,56.2805],[15.64417,56.28168],[15.64508,56.28303],[15.64532,56.28479],[15.64615,56.28589],[15.6466,56.28733],[15.64636,56.28888],[15.64517,56.29056],[15.64344,56.2918],[15.64069,56.29291],[15.63821,56.2934],[15.63543,56.29354],[15.6323,56.29318],[15.6278,56.29329],[15.62469,56.29283],[15.622,56.29185],[15.61999,56.29046],[15.619,56.28912],[15.61851,56.28712],[15.61241,56.28508],[15.60925,56.28497],[15.60897,56.28708],[15.60725,56.28953],[15.60507,56.29138],[15.60119,56.29223],[15.59965,56.29383],[15.59747,56.29693],[15.59962,56.29924],[15.59596,56.30171],[15.59706,56.30356],[15.59672,56.30405],[15.59702,56.30496],[15.59591,56.30548],[15.59558,56.30618],[15.5961,56.30639],[15.59574,56.30684],[15.59582,56.30722],[15.59473,56.30779],[15.59498,56.30801],[15.59421,56.30917],[15.59315,56.30966],[15.5936,56.31038],[15.59289,56.31255],[15.59317,56.31288],[15.59253,56.31463],[15.59252,56.3167],[15.59276,56.31707],[15.59159,56.31895],[15.59162,56.31961],[15.59211,56.31997],[15.59195,56.32017],[15.59022,56.3206],[15.59028,56.32098],[15.58967,56.32111],[15.58897,56.32154],[15.58852,56.32311],[15.58793,56.32334],[15.58768,56.32398],[15.58721,56.32432],[15.58715,56.32475],[15.58754,56.32508],[15.58734,56.32565],[15.58659,56.32586],[15.58658,56.32673],[15.58714,56.32719],[15.58688,56.32778],[15.58641,56.32793],[15.58657,56.3295],[15.58584,56.33018],[15.58637,56.33037],[15.58614,56.33073],[15.58647,56.33194],[15.58558,56.33291],[15.58563,56.33403],[15.58248,56.33568],[15.58262,56.33614],[15.5832,56.33634],[15.5835,56.33744],[15.58274,56.33838],[15.58122,56.34223],[15.5808,56.34739],[15.58202,56.34832],[15.58276,56.34928],[15.58393,56.34945],[15.58631,56.35033],[15.58906,56.34993],[15.58919,56.35077],[15.59016,56.35137],[15.59051,56.35373],[15.592,56.35577],[15.59286,56.35605],[15.59463,56.35622],[15.59554,56.35711],[15.59954,56.35732],[15.61329,56.3659],[15.62252,56.36935],[15.61471,56.36974],[15.58924,56.37236],[15.58881,56.37796],[15.58603,56.37751],[15.58472,56.37698],[15.58169,56.37722],[15.58002,56.37714],[15.57548,56.37601],[15.57487,56.37682],[15.57244,56.37779],[15.57018,56.376],[15.57034,56.3749],[15.56948,56.37468],[15.56933,56.37395],[15.5681,56.37462],[15.56796,56.3744],[15.56685,56.37423],[15.56672,56.37399],[15.5649,56.3734],[15.56426,56.37339],[15.56434,56.37318],[15.56263,56.37229],[15.54762,56.37689],[15.54458,56.37688],[15.54059,56.3764],[15.538,56.37527],[15.53664,56.37689],[15.53466,56.37764],[15.53078,56.37797],[15.52633,56.37753],[15.52205,56.37755],[15.51957,56.37732],[15.51687,56.37751],[15.51078,56.37902],[15.50473,56.38229],[15.50598,56.39707],[15.50659,56.39911],[15.51072,56.40396],[15.51008,56.40702],[15.51238,56.40859],[15.51156,56.41172],[15.51136,56.4159],[15.51246,56.41975],[15.51047,56.42175],[15.51063,56.42312],[15.51266,56.42495],[15.50916,56.42945],[15.51093,56.4303],[15.50549,56.43525],[15.5039,56.43723],[15.50215,56.43871],[15.50107,56.4404],[15.50033,56.44091],[15.50182,56.44417],[15.50636,56.44778],[15.5067,56.44845],[15.50627,56.44973],[15.50713,56.45092],[15.50717,56.45247],[15.50683,56.45299],[15.50596,56.4535],[15.5047,56.45359],[15.50298,56.4542],[15.50206,56.45508],[15.49853,56.45653],[15.49551,56.45854],[15.49195,56.45885],[15.47212,56.46663],[15.46891,56.46898],[15.47703,56.47112],[15.4806,56.47998],[15.4944,56.47572],[15.50534,56.47405],[15.51173,56.47638],[15.51305,56.47812],[15.51313,56.47885],[15.51264,56.48005],[15.51292,56.4809],[15.51378,56.48203],[15.51273,56.48472],[15.51331,56.48699],[15.51102,56.4913],[15.51262,56.49416],[15.516,56.49497],[15.51673,56.49535],[15.5185,56.49757],[15.52151,56.49984],[15.52388,56.50249],[15.52849,56.50285],[15.53571,56.5029],[15.54298,56.50353],[15.54578,56.50349],[15.54788,56.50326],[15.54867,56.50354]]]}},{"type":"Feature","id":"1080R005","properties":{"code":"1080R005","name":"Hässlegården-Bastasjö-Torskors"},"geometry":{"type":"Polygon","coordinates":[[[15.6888,56.2404],[15.69196,56.23996],[15.69539,56.23878],[15.69706,56.23772],[15.69805,56.23668],[15.69975,56.236],[15.70174,56.23476],[15.70349,56.23284],[15.70387,56.23141],[15.70343,56.22964],[15.70236,56.22833],[15.70074,56.22721],[15.7008,56.22575],[15.69997,56.22403],[15.69759,56.22212],[15.69612,56.22138],[15.69389,56.22068],[15.69143,56.22032],[15.68938,56.22028],[15.68634,56.21879],[15.68476,56.21825],[15.68244,56.21781],[15.68034,56.21702],[15.68035,56.21677],[15.66729,56.21742],[15.66753,56.21765],[15.66676,56.21788],[15.6663,56.21786],[15.66639,56.21733],[15.66486,56.21682],[15.66468,56.21702],[15.66402,56.21689],[15.66417,56.21665],[15.66317,56.21649],[15.66063,56.21656],[15.66061,56.21699],[15.65741,56.217],[15.65741,56.21659],[15.65398,56.21702],[15.65289,56.21687],[15.65175,56.21741],[15.65091,56.21701],[15.64968,56.21682],[15.6451,56.21443],[15.6425,56.2152],[15.64224,56.21561],[15.64024,56.21531],[15.63877,56.2149],[15.64137,56.21068],[15.64134,56.21015],[15.64165,56.21022],[15.64279,56.20842],[15.64257,56.20756],[15.64338,56.20738],[15.64352,56.20718],[15.64522,56.20719],[15.64513,56.2059],[15.64428,56.20602],[15.64486,56.205],[15.64211,56.20278],[15.63966,56.2035],[15.63185,56.20426],[15.63249,56.20522],[15.63138,56.20549],[15.63113,56.2062],[15.63052,56.20661],[15.62952,56.20693],[15.62772,56.20792],[15.62808,56.20954],[15.63206,56.20951],[15.62578,56.21206],[15.63229,56.2146],[15.62374,56.21817],[15.62622,56.2192],[15.62505,56.22003],[15.62403,56.22117],[15.6233,56.22303],[15.62386,56.22525],[15.62587,56.22718],[15.62887,56.22852],[15.63388,56.22947],[15.63542,56.23021],[15.63768,56.23087],[15.64176,56.23139],[15.64469,56.23136],[15.6462,56.23267],[15.64871,56.2341],[15.65093,56.23485],[15.65311,56.23528],[15.65697,56.23536],[15.66067,56.23482],[15.66285,56.23421],[15.66803,56.23401],[15.67048,56.23352],[15.6729,56.23257],[15.67543,56.23457],[15.67689,56.23654],[15.67939,56.23822],[15.68381,56.23994],[15.68625,56.24035],[15.6888,56.2404]]]}},{"type":"Feature","id":"1080R006","properties":{"code":"1080R006","name":"Hästö"},"geometry":{"type":"Polygon","coordinates":[[[15.63201,56.18736],[15.63453,56.18679],[15.63678,56.18603],[15.63987,56.18411],[15.63583,56.1824],[15.63524,56.18172],[15.63495,56.18012],[15.6322,56.17823],[15.63117,56.1771],[15.62732,56.17612],[15.6265,56.17567],[15.62028,56.17034],[15.61603,56.16984],[15.61442,56.17062],[15.6118,56.17098],[15.61027,56.17226],[15.60967,56.17356],[15.61062,56.17716],[15.61051,56.17783],[15.61495,56.17771],[15.61716,56.18039],[15.61776,56.18159],[15.61727,56.1817],[15.61821,56.18341],[15.61862,56.18359],[15.61913,56.18435],[15.62451,56.18277],[15.62614,56.18544],[15.62914,56.18745],[15.63201,56.18736]]]}},{"type":"Feature","id":"1080R007","properties":{"code":"1080R007","name":"Jämjö tätort"},"geometry":{"type":"Polygon","coordinates":[[[15.87031,56.20325],[15.86913,56.20228],[15.86827,56.20102],[15.86799,56.19974],[15.86951,56.19895],[15.87095,56.19775],[15.8718,56.19641],[15.87201,56.19497],[15.87136,56.19322],[15.87004,56.19184],[15.87053,56.18898],[15.87022,56.18771],[15.86932,56.18638],[15.86689,56.18471],[15.86352,56.18366],[15.86102,56.18339],[15.85806,56.18349],[15.85436,56.18279],[15.85081,56.18288],[15.84772,56.18121],[15.84844,56.17995],[15.84867,56.17849],[15.84837,56.17728],[15.84738,56.17581],[15.84484,56.17408],[15.84232,56.17308],[15.8405,56.17264],[15.83739,56.17235],[15.83481,56.17252],[15.83006,56.1734],[15.8273,56.17431],[15.82556,56.17535],[15.82276,56.17807],[15.82097,56.17939],[15.82007,56.18069],[15.81969,56.18221],[15.81825,56.18301],[15.81717,56.18391],[15.81621,56.18503],[15.81517,56.18692],[15.81009,56.18705],[15.80689,56.1877],[15.80523,56.18833],[15.80329,56.1894],[15.80151,56.19123],[15.80108,56.19342],[15.80159,56.19477],[15.80236,56.19572],[15.80386,56.19683],[15.80575,56.19767],[15.80743,56.19875],[15.80956,56.19957],[15.81326,56.20018],[15.81912,56.2001],[15.82198,56.20027],[15.82368,56.20099],[15.82684,56.20187],[15.82984,56.20221],[15.83205,56.20275],[15.83687,56.20341],[15.84567,56.20335],[15.84774,56.20528],[15.8497,56.20801],[15.8503,56.21072],[15.8514,56.21233],[15.85384,56.2139],[15.85715,56.21486],[15.86027,56.21508],[15.86408,56.21472],[15.86796,56.21357],[15.87027,56.21219],[15.87163,56.21056],[15.87205,56.20903],[15.87149,56.20699],[15.87145,56.20513],[15.87031,56.20325]]]}},{"type":"Feature","id":"1080R008","properties":{"code":"1080R008","name":"Karlskronas omland-Nättrabys omland"},"geometry":{"type":"Polygon","coordinates":[[[15.6713,56.28884],[15.6726,56.28806],[15.67465,56.28827],[15.67719,56.28798],[15.678,56.2884],[15.67994,56.28891],[15.68108,56.2887],[15.68335,56.28765],[15.68216,56.2866],[15.68243,56.28621],[15.68465,56.28552],[15.68498,56.28468],[15.68584,56.28459],[15.6873,56.28501],[15.69297,56.28415],[15.69334,56.28424],[15.69399,56.28511],[15.69518,56.28535],[15.69536,56.2865],[15.69652,56.28712],[15.69841,56.28713],[15.7009,56.28584],[15.70397,56.28617],[15.70598,56.28497],[15.70563,56.28304],[15.70761,56.28244],[15.7092,56.28125],[15.70937,56.28065],[15.70892,56.27943],[15.71045,56.27861],[15.71237,56.27808],[15.71384,56.27692],[15.71604,56.27616],[15.71666,56.27525],[15.71605,56.27431],[15.71433,56.27435],[15.71223,56.2728],[15.70967,56.2718],[15.70739,56.27013],[15.70486,56.26876],[15.70394,56.26842],[15.70071,56.26789],[15.69652,56.26623],[15.69171,56.26387],[15.68989,56.26234],[15.6938,56.26008],[15.69594,56.25826],[15.698,56.25761],[15.69982,56.25667],[15.70291,56.25661],[15.70405,56.2563],[15.71157,56.25155],[15.71394,56.24981],[15.71452,56.24965],[15.71529,56.24996],[15.71583,56.24964],[15.71821,56.25061],[15.71901,56.25189],[15.7226,56.25425],[15.72336,56.25454],[15.72558,56.25639],[15.73442,56.25227],[15.73817,56.25029],[15.73668,56.24487],[15.74377,56.24353],[15.74461,56.24407],[15.74671,56.24386],[15.74934,56.2431],[15.75147,56.24177],[15.76589,56.23547],[15.76491,56.23307],[15.76558,56.23234],[15.76218,56.2294],[15.76017,56.22847],[15.75937,56.22721],[15.76054,56.22628],[15.7608,56.22574],[15.76067,56.223],[15.75037,56.22125],[15.74762,56.21621],[15.74765,56.21541],[15.74671,56.21466],[15.74624,56.21463],[15.74455,56.21166],[15.74003,56.20932],[15.71837,56.18304],[15.71415,56.18225],[15.70575,56.17201],[15.70396,56.17232],[15.69655,56.16228],[15.69789,56.16029],[15.69421,56.16],[15.69304,56.14746],[15.6908,56.14719],[15.68764,56.14887],[15.6671,56.15196],[15.65055,56.15738],[15.65153,56.15834],[15.65223,56.15947],[15.65678,56.1603],[15.6601,56.16256],[15.66016,56.16588],[15.65939,56.16724],[15.66039,56.16873],[15.66431,56.16834],[15.66824,56.16879],[15.67114,56.16978],[15.67354,56.17145],[15.67447,56.17282],[15.67481,56.17413],[15.67444,56.1759],[15.67446,56.17892],[15.67396,56.18103],[15.6741,56.18133],[15.67673,56.18318],[15.67788,56.18467],[15.67913,56.1857],[15.68041,56.1879],[15.68077,56.18801],[15.68427,56.18741],[15.68768,56.18748],[15.69182,56.18828],[15.69463,56.18936],[15.69594,56.19021],[15.6987,56.1928],[15.70081,56.19729],[15.70283,56.19863],[15.70396,56.20001],[15.70455,56.20241],[15.70398,56.20412],[15.70287,56.20536],[15.70152,56.20624],[15.70028,56.20767],[15.69806,56.209],[15.69528,56.20984],[15.69275,56.21015],[15.69014,56.2101],[15.68728,56.20967],[15.68502,56.20901],[15.6831,56.20803],[15.6817,56.20685],[15.68072,56.20522],[15.68002,56.20497],[15.67823,56.20564],[15.67876,56.20728],[15.6784,56.20899],[15.67741,56.21028],[15.67547,56.21163],[15.67758,56.21269],[15.67913,56.21393],[15.68006,56.2153],[15.68034,56.21702],[15.68244,56.21781],[15.68584,56.21859],[15.68938,56.22028],[15.69143,56.22032],[15.69389,56.22068],[15.69612,56.22138],[15.69759,56.22212],[15.69997,56.22403],[15.7008,56.22575],[15.70074,56.22721],[15.70236,56.22833],[15.70343,56.22964],[15.70384,56.23178],[15.70349,56.23284],[15.70249,56.23415],[15.70019,56.23577],[15.69805,56.23668],[15.69706,56.23772],[15.69583,56.23855],[15.69257,56.2398],[15.69011,56.24029],[15.68752,56.24042],[15.68442,56.24008],[15.68212,56.23941],[15.67939,56.23822],[15.67727,56.23684],[15.67625,56.23592],[15.67543,56.23457],[15.6729,56.23257],[15.67102,56.23336],[15.66867,56.23392],[15.66505,56.23423],[15.66285,56.23421],[15.66067,56.23482],[15.65697,56.23536],[15.65372,56.23535],[15.65095,56.23486],[15.64875,56.23412],[15.6462,56.23267],[15.64469,56.23136],[15.64176,56.23139],[15.63772,56.23088],[15.63542,56.23021],[15.63388,56.22947],[15.63025,56.22887],[15.62782,56.22816],[15.62628,56.22744],[15.6247,56.22627],[15.62386,56.22525],[15.62333,56.22381],[15.62338,56.2226],[15.62383,56.22149],[15.62474,56.22033],[15.62622,56.2192],[15.62185,56.21721],[15.61842,56.21469],[15.61702,56.21285],[15.61451,56.21315],[15.61203,56.2131],[15.60961,56.2127],[15.60749,56.21198],[15.60506,56.2104],[15.60378,56.20823],[15.60295,56.2075],[15.60095,56.20713],[15.59913,56.20656],[15.59618,56.20504],[15.59438,56.20362],[15.59349,56.202],[15.58968,56.20155],[15.5864,56.20043],[15.5827,56.19811],[15.58184,56.19721],[15.58125,56.19603],[15.57893,56.19774],[15.57589,56.19889],[15.57101,56.19961],[15.56907,56.1996],[15.56587,56.19927],[15.56391,56.19999],[15.56143,56.20048],[15.55943,56.20061],[15.55704,56.20049],[15.55486,56.20145],[15.55156,56.20216],[15.5509,56.20304],[15.5517,56.20505],[15.55484,56.20576],[15.55764,56.20605],[15.56173,56.20712],[15.56611,56.20716],[15.56941,56.20762],[15.57243,56.20868],[15.57483,56.21036],[15.57584,56.21202],[15.57603,56.21386],[15.57473,56.21722],[15.57343,56.21845],[15.5711,56.21977],[15.56892,56.22049],[15.56648,56.22087],[15.56367,56.22098],[15.56175,56.22084],[15.55789,56.22003],[15.55349,56.21942],[15.54761,56.21815],[15.54373,56.21867],[15.54175,56.21873],[15.53771,56.21829],[15.53506,56.21747],[15.53219,56.21782],[15.52899,56.2177],[15.52711,56.21734],[15.52473,56.2165],[15.52093,56.21555],[15.51903,56.21459],[15.51768,56.21344],[15.51574,56.20975],[15.51114,56.20985],[15.50732,56.20937],[15.50452,56.20849],[15.50209,56.20717],[15.50083,56.20594],[15.50027,56.2049],[15.50023,56.20146],[15.49741,56.20099],[15.49529,56.20027],[15.49243,56.19858],[15.49119,56.19736],[15.49048,56.19569],[15.49082,56.19384],[15.48918,56.19216],[15.48867,56.19002],[15.47881,56.199],[15.47924,56.2],[15.47796,56.20023],[15.47315,56.20706],[15.47333,56.21539],[15.47893,56.21784],[15.48085,56.2231],[15.48195,56.22469],[15.48123,56.22676],[15.48256,56.22732],[15.48396,56.22747],[15.48372,56.23004],[15.48417,56.23116],[15.48654,56.23336],[15.49125,56.23841],[15.49913,56.24029],[15.50306,56.24264],[15.50448,56.24299],[15.51137,56.24361],[15.51408,56.24339],[15.51417,56.24202],[15.51468,56.24123],[15.51443,56.24047],[15.51479,56.23783],[15.51643,56.23408],[15.52158,56.23466],[15.5251,56.23532],[15.53281,56.23544],[15.53872,56.23595],[15.54412,56.23594],[15.55112,56.23664],[15.55461,56.23756],[15.55699,56.2372],[15.56374,56.23796],[15.5664,56.23748],[15.57497,56.2384],[15.57729,56.24381],[15.59852,56.25215],[15.59766,56.25086],[15.59731,56.24943],[15.59748,56.24819],[15.59825,56.24684],[15.60008,56.24534],[15.60205,56.24443],[15.60384,56.24393],[15.60512,56.24281],[15.60652,56.24203],[15.60981,56.24101],[15.61369,56.2405],[15.61538,56.23917],[15.61851,56.23764],[15.62191,56.2366],[15.62442,56.23634],[15.62697,56.23644],[15.62936,56.23682],[15.63158,56.23752],[15.63345,56.23853],[15.63504,56.24008],[15.63567,56.24183],[15.63536,56.24346],[15.63712,56.24511],[15.63776,56.247],[15.63966,56.24881],[15.64165,56.25014],[15.64365,56.25225],[15.64439,56.25256],[15.64681,56.25284],[15.65097,56.25368],[15.65374,56.25461],[15.65527,56.25549],[15.65682,56.25688],[15.65795,56.25894],[15.65777,56.26121],[15.65678,56.26293],[15.65433,56.2647],[15.6513,56.26576],[15.64527,56.26668],[15.64202,56.26667],[15.63898,56.26611],[15.63656,56.26526],[15.63496,56.26437],[15.6347,56.26444],[15.6339,56.2666],[15.63533,56.26788],[15.63683,56.26995],[15.63806,56.27229],[15.63832,56.27352],[15.63922,56.27365],[15.64065,56.27352],[15.64065,56.27379],[15.64351,56.27419],[15.64443,56.27356],[15.64859,56.27317],[15.64913,56.27284],[15.65221,56.27231],[15.6592,56.27832],[15.66372,56.28184],[15.66279,56.28367],[15.66328,56.2843],[15.6649,56.28448],[15.66889,56.28587],[15.67017,56.28908],[15.6713,56.28884]]]}},{"type":"Feature","id":"1080R009","properties":{"code":"1080R009","name":"Kronotorp-Nordöstra Lyckeby"},"geometry":{"type":"Polygon","coordinates":[[[15.67564,56.2169],[15.68035,56.21677],[15.68006,56.2153],[15.67913,56.21393],[15.67758,56.21269],[15.67547,56.21163],[15.67741,56.21028],[15.6784,56.20899],[15.67876,56.20728],[15.67823,56.20564],[15.68002,56.20497],[15.68072,56.20522],[15.68143,56.20651],[15.68233,56.20747],[15.68449,56.20879],[15.68616,56.20939],[15.68851,56.20989],[15.69209,56.21017],[15.69524,56.20985],[15.69809,56.20898],[15.69992,56.20795],[15.70152,56.20624],[15.70319,56.20507],[15.70444,56.20311],[15.70429,56.20077],[15.70318,56.19897],[15.70081,56.19729],[15.69959,56.19492],[15.69933,56.19383],[15.69681,56.19569],[15.69495,56.1965],[15.68991,56.19726],[15.68589,56.19824],[15.68119,56.19887],[15.68066,56.19847],[15.68001,56.19721],[15.67876,56.19599],[15.67531,56.19479],[15.67372,56.1946],[15.67219,56.19472],[15.67204,56.19449],[15.67154,56.19457],[15.66963,56.1936],[15.66888,56.19344],[15.66827,56.19386],[15.66831,56.19433],[15.66578,56.19453],[15.66551,56.19367],[15.66467,56.19357],[15.66369,56.1938],[15.66347,56.19351],[15.66317,56.19353],[15.66349,56.19416],[15.66373,56.19414],[15.66375,56.19472],[15.66296,56.19486],[15.66314,56.19534],[15.66176,56.19549],[15.66138,56.19632],[15.66035,56.19698],[15.66242,56.19781],[15.66303,56.19839],[15.66307,56.19889],[15.66457,56.20033],[15.66467,56.20075],[15.66546,56.201],[15.66728,56.20101],[15.6677,56.20117],[15.66798,56.2025],[15.66772,56.20446],[15.66977,56.20628],[15.66962,56.20809],[15.66868,56.21086],[15.66973,56.21167],[15.66927,56.2123],[15.66651,56.21365],[15.6673,56.21436],[15.66714,56.21463],[15.66672,56.2146],[15.6668,56.21518],[15.66792,56.21651],[15.66698,56.21662],[15.66705,56.21712],[15.66732,56.21711],[15.6676,56.21743],[15.67564,56.2169]]]}},{"type":"Feature","id":"1080R010","properties":{"code":"1080R010","name":"Kungsmarken"},"geometry":{"type":"Polygon","coordinates":[[[15.62574,56.19851],[15.62686,56.1977],[15.62482,56.19519],[15.62356,56.19261],[15.62179,56.19303],[15.62093,56.19372],[15.61981,56.19379],[15.61979,56.19465],[15.61724,56.19427],[15.61615,56.19489],[15.61584,56.19581],[15.61763,56.19715],[15.61883,56.19765],[15.62082,56.198],[15.62282,56.19767],[15.62317,56.19804],[15.62574,56.19851]]]}},{"type":"Feature","id":"1080R011","properties":{"code":"1080R011","name":"Långö-Gräsvik"},"geometry":{"type":"Polygon","coordinates":[[[15.5757,56.18622],[15.59054,56.18554],[15.59071,56.18512],[15.5928,56.185],[15.59403,56.18462],[15.59573,56.18374],[15.59655,56.1829],[15.5947,56.18228],[15.59414,56.1807],[15.59058,56.18018],[15.59025,56.17911],[15.59037,56.1778],[15.58743,56.17777],[15.58671,56.17721],[15.58613,56.1765],[15.5859,56.17516],[15.58501,56.17308],[15.58325,56.17224],[15.58474,56.17208],[15.58527,56.17109],[15.58501,56.17052],[15.58282,56.16975],[15.58071,56.17131],[15.57957,56.17139],[15.57645,56.17264],[15.57311,56.1731],[15.5725,56.17467],[15.57437,56.17739],[15.57473,56.17842],[15.57356,56.1797],[15.57036,56.18185],[15.5757,56.18622]]]}},{"type":"Feature","id":"1080R012","properties":{"code":"1080R012","name":"Marieberg-Gullberna"},"geometry":{"type":"Polygon","coordinates":[[[15.63185,56.20426],[15.63966,56.2035],[15.63836,56.20213],[15.64095,56.20118],[15.64073,56.20071],[15.64171,56.20032],[15.64054,56.19843],[15.63998,56.19674],[15.63879,56.19616],[15.63836,56.19616],[15.63766,56.19575],[15.63812,56.19551],[15.63615,56.19451],[15.63743,56.19378],[15.64121,56.19265],[15.64208,56.19186],[15.64177,56.19153],[15.64495,56.18979],[15.64356,56.18569],[15.63987,56.18411],[15.63678,56.18603],[15.63453,56.18679],[15.63201,56.18736],[15.62914,56.18745],[15.62253,56.18863],[15.6209,56.18839],[15.61905,56.18749],[15.61698,56.1879],[15.61329,56.18898],[15.61172,56.18923],[15.61038,56.18966],[15.60914,56.19036],[15.60819,56.19171],[15.60846,56.19212],[15.60938,56.1919],[15.61093,56.19219],[15.61213,56.19154],[15.61281,56.19164],[15.61291,56.19138],[15.61359,56.19143],[15.61255,56.19286],[15.61406,56.19324],[15.61362,56.19357],[15.61656,56.19455],[15.61724,56.19427],[15.61979,56.19465],[15.61981,56.19379],[15.62093,56.19372],[15.62179,56.19303],[15.62356,56.19261],[15.62482,56.19519],[15.63185,56.20426]]]}},{"type":"Feature","id":"1080R013","properties":{"code":"1080R013","name":"Mariedal-Backabo"},"geometry":{"type":"Polygon","coordinates":[[[15.62374,56.21817],[15.63229,56.2146],[15.62578,56.21206],[15.63206,56.20951],[15.62808,56.20954],[15.62772,56.20792],[15.62952,56.20693],[15.63052,56.20661],[15.63113,56.2062],[15.63138,56.20549],[15.63249,56.20522],[15.62686,56.1977],[15.62574,56.19851],[15.62317,56.19804],[15.62282,56.19767],[15.6213,56.19796],[15.62005,56.19792],[15.61763,56.19715],[15.61584,56.19581],[15.61582,56.19546],[15.61656,56.19455],[15.61362,56.19357],[15.61406,56.19324],[15.61255,56.19286],[15.61359,56.19143],[15.61291,56.19138],[15.61281,56.19164],[15.61213,56.19154],[15.61093,56.19219],[15.60938,56.1919],[15.60555,56.19282],[15.60343,56.19528],[15.59821,56.19834],[15.58964,56.19877],[15.59128,56.2018],[15.59349,56.202],[15.59413,56.2033],[15.59501,56.20423],[15.59816,56.20613],[15.60034,56.20697],[15.60295,56.2075],[15.60378,56.20823],[15.60506,56.2104],[15.60702,56.21176],[15.60906,56.21255],[15.612,56.2131],[15.61451,56.21315],[15.61702,56.21285],[15.61845,56.21471],[15.62185,56.21721],[15.62374,56.21817]]]}},{"type":"Feature","id":"1080R014","properties":{"code":"1080R014","name":"Nordvästra Trossö"},"geometry":{"type":"Polygon","coordinates":[[[15.58705,56.16714],[15.59134,56.16708],[15.59174,56.16694],[15.59437,56.16465],[15.59154,56.16464],[15.59153,56.16435],[15.58698,56.16503],[15.58685,56.16293],[15.58488,56.16301],[15.58483,56.16215],[15.58306,56.16219],[15.58546,56.15979],[15.57845,56.15997],[15.57632,56.16112],[15.5744,56.1611],[15.57438,56.16345],[15.57492,56.1643],[15.57629,56.1649],[15.57614,56.1656],[15.57798,56.1658],[15.57951,56.16699],[15.58036,56.16898],[15.58501,56.17052],[15.58735,56.1698],[15.58705,56.16714]]]}},{"type":"Feature","id":"1080R015","properties":{"code":"1080R015","name":"Nordöstra Trossö"},"geometry":{"type":"Polygon","coordinates":[[[15.59193,56.16877],[15.60336,56.16358],[15.60951,56.16386],[15.61047,56.1622],[15.61126,56.15855],[15.6109,56.15673],[15.61024,56.15549],[15.60115,56.15631],[15.5982,56.15718],[15.59597,56.15883],[15.59562,56.15995],[15.59591,56.16095],[15.58903,56.16111],[15.58865,56.16073],[15.58454,56.16073],[15.58306,56.16219],[15.58483,56.16215],[15.58488,56.16301],[15.58685,56.16293],[15.58698,56.16503],[15.59153,56.16435],[15.59154,56.16464],[15.59437,56.16465],[15.59134,56.16708],[15.58705,56.16714],[15.58735,56.1698],[15.59193,56.16877]]]}},{"type":"Feature","id":"1080R016","properties":{"code":"1080R016","name":"Nättraby tätort"},"geometry":{"type":"Polygon","coordinates":[[[15.57382,56.21815],[15.57516,56.21655],[15.57603,56.21386],[15.57555,56.21133],[15.57375,56.20943],[15.57114,56.20813],[15.56854,56.20744],[15.5655,56.20712],[15.56173,56.20712],[15.55764,56.20605],[15.55484,56.20576],[15.5517,56.20505],[15.5509,56.20304],[15.55156,56.20216],[15.55486,56.20145],[15.55704,56.20049],[15.55943,56.20061],[15.56143,56.20048],[15.56391,56.19999],[15.56587,56.19927],[15.56969,56.19963],[15.57346,56.19935],[15.57645,56.19874],[15.57893,56.19774],[15.58093,56.19634],[15.58024,56.19615],[15.58298,56.19289],[15.58202,56.19028],[15.57953,56.18724],[15.5757,56.18622],[15.57054,56.18214],[15.57025,56.18165],[15.56667,56.18014],[15.53777,56.17663],[15.53733,56.17011],[15.53644,56.16746],[15.53652,56.16568],[15.53762,56.16294],[15.53422,56.16169],[15.52553,56.16447],[15.51696,56.16526],[15.51256,56.16883],[15.51059,56.16973],[15.50908,56.17091],[15.50687,56.17202],[15.50508,56.17387],[15.50078,56.1769],[15.49784,56.17854],[15.49681,56.17951],[15.49553,56.18137],[15.49335,56.18204],[15.49183,56.18278],[15.48951,56.18479],[15.49017,56.1886],[15.48867,56.19002],[15.48868,56.19076],[15.48942,56.1925],[15.49082,56.19384],[15.49048,56.19498],[15.49055,56.19603],[15.49174,56.198],[15.49281,56.19885],[15.49578,56.20048],[15.49798,56.20112],[15.50023,56.20146],[15.50007,56.20383],[15.50041,56.20524],[15.50139,56.20658],[15.50295,56.20773],[15.50557,56.2089],[15.50795,56.20949],[15.51175,56.20988],[15.51574,56.20975],[15.51743,56.21313],[15.51902,56.21459],[15.52148,56.21576],[15.52473,56.2165],[15.52716,56.21735],[15.53091,56.21784],[15.53285,56.21778],[15.53506,56.21747],[15.53771,56.21829],[15.54175,56.21873],[15.54373,56.21867],[15.54761,56.21815],[15.55408,56.21953],[15.55789,56.22003],[15.56116,56.22075],[15.56367,56.22098],[15.56712,56.22081],[15.56948,56.22034],[15.57158,56.21955],[15.57382,56.21815]]]}},{"type":"Feature","id":"1080R017","properties":{"code":"1080R017","name":"Pantarholmen"},"geometry":{"type":"Polygon","coordinates":[[[15.59863,56.17866],[15.60021,56.17783],[15.60235,56.1773],[15.60296,56.17664],[15.60493,56.17584],[15.60651,56.17543],[15.61013,56.17514],[15.60967,56.17356],[15.61027,56.17226],[15.6118,56.17098],[15.61442,56.17062],[15.61603,56.16984],[15.62028,56.17034],[15.62123,56.16613],[15.60955,56.16635],[15.6086,56.16654],[15.60722,56.16582],[15.60951,56.16386],[15.60336,56.16358],[15.59193,56.16877],[15.58832,56.16951],[15.58501,56.17052],[15.58527,56.17109],[15.58474,56.17208],[15.58325,56.17224],[15.58501,56.17308],[15.5859,56.17516],[15.58613,56.1765],[15.58743,56.17777],[15.59037,56.1778],[15.59047,56.17755],[15.59291,56.17739],[15.59365,56.17697],[15.59863,56.17866]]]}},{"type":"Feature","id":"1080R018","properties":{"code":"1080R018","name":"Ramdala-Senoren"},"geometry":{"type":"Polygon","coordinates":[[[15.83735,56.25214],[15.83365,56.24997],[15.82673,56.2321],[15.82322,56.23029],[15.81527,56.22437],[15.81524,56.22053],[15.81383,56.21789],[15.81161,56.21152],[15.81164,56.21094],[15.80587,56.20678],[15.80419,56.20233],[15.80314,56.20134],[15.79887,56.19601],[15.79814,56.19261],[15.79764,56.19165],[15.79736,56.18855],[15.80059,56.18675],[15.8046,56.18236],[15.8021,56.18203],[15.79957,56.18094],[15.79579,56.18084],[15.79621,56.17847],[15.79786,56.1788],[15.7982,56.17867],[15.7983,56.17784],[15.79931,56.17718],[15.80385,56.17492],[15.80527,56.17486],[15.80827,56.17436],[15.81098,56.17353],[15.81086,56.17333],[15.812,56.17328],[15.81315,56.173],[15.8157,56.17106],[15.81705,56.17062],[15.81726,56.16455],[15.80629,56.15777],[15.81001,56.15248],[15.80687,56.15005],[15.80521,56.14495],[15.80281,56.14412],[15.79865,56.14474],[15.79162,56.14427],[15.79079,56.14242],[15.78506,56.14113],[15.77315,56.14009],[15.77028,56.13834],[15.78156,56.13292],[15.7851,56.12931],[15.7819,56.12254],[15.77657,56.11815],[15.77513,56.1116],[15.77719,56.10798],[15.78161,56.10189],[15.77298,56.10163],[15.75645,56.09777],[15.75219,56.0919],[15.74029,56.08727],[15.73526,56.08061],[15.73036,56.07709],[15.72477,56.07019],[15.71093,56.05777],[15.68471,56.04636],[15.69439,56.06388],[15.70357,56.06382],[15.70909,56.07304],[15.71063,56.0741],[15.71225,56.07605],[15.71298,56.0793],[15.7149,56.08067],[15.71612,56.08233],[15.71637,56.08421],[15.71533,56.08632],[15.71393,56.08748],[15.7116,56.08869],[15.70906,56.09066],[15.70952,56.09209],[15.70961,56.09542],[15.7089,56.09682],[15.70731,56.09827],[15.71017,56.09866],[15.71212,56.09787],[15.7144,56.09737],[15.71622,56.09722],[15.71866,56.09731],[15.72205,56.09808],[15.72477,56.09942],[15.72714,56.09995],[15.72953,56.10101],[15.73121,56.10244],[15.73201,56.10408],[15.73189,56.10579],[15.73109,56.10739],[15.73435,56.10994],[15.73554,56.11122],[15.73746,56.1137],[15.73798,56.11584],[15.7376,56.11725],[15.7369,56.11825],[15.73455,56.11996],[15.73185,56.12091],[15.72892,56.12134],[15.72739,56.12232],[15.72172,56.12427],[15.69527,56.12645],[15.69195,56.13137],[15.68202,56.13391],[15.67713,56.13786],[15.68294,56.1427],[15.6908,56.14719],[15.69304,56.14746],[15.69421,56.16],[15.69789,56.16029],[15.69655,56.16228],[15.70396,56.17232],[15.70575,56.17201],[15.71415,56.18225],[15.71837,56.18304],[15.74003,56.20932],[15.74455,56.21166],[15.74624,56.21463],[15.74671,56.21466],[15.74765,56.21541],[15.74762,56.21621],[15.75037,56.22125],[15.76067,56.223],[15.7608,56.22574],[15.76054,56.22628],[15.75937,56.22721],[15.76017,56.22847],[15.76218,56.2294],[15.76558,56.23234],[15.76491,56.23307],[15.76558,56.2351],[15.76771,56.23653],[15.77412,56.23761],[15.77427,56.23787],[15.77552,56.23791],[15.77597,56.23764],[15.77841,56.23783],[15.78068,56.23757],[15.78073,56.23877],[15.7813,56.24031],[15.78004,56.24341],[15.78209,56.24656],[15.78179,56.24709],[15.78265,56.24923],[15.78304,56.24943],[15.7851,56.24934],[15.78626,56.24977],[15.78789,56.24962],[15.78925,56.25004],[15.79123,56.25008],[15.79126,56.24936],[15.79462,56.24907],[15.79613,56.24866],[15.796,56.24954],[15.79653,56.25006],[15.79877,56.24833],[15.7993,56.24896],[15.80365,56.25208],[15.80524,56.25408],[15.80622,56.25601],[15.83735,56.25214]]]}},{"type":"Feature","id":"1080R019","properties":{"code":"1080R019","name":"Rödeby tätort"},"geometry":{"type":"Polygon","coordinates":[[[15.6394,56.29321],[15.64241,56.2923],[15.64485,56.29085],[15.64636,56.28888],[15.64656,56.28699],[15.64615,56.28589],[15.64532,56.28479],[15.64508,56.28303],[15.64417,56.28168],[15.64267,56.2805],[15.63954,56.27921],[15.63698,56.27751],[15.63821,56.27438],[15.63827,56.27299],[15.63683,56.26995],[15.63533,56.26788],[15.6339,56.2666],[15.63469,56.26446],[15.63496,56.26437],[15.63656,56.26526],[15.63898,56.26611],[15.64202,56.26667],[15.64527,56.26668],[15.6513,56.26576],[15.65433,56.2647],[15.65678,56.26293],[15.65777,56.26121],[15.65786,56.2586],[15.65711,56.25721],[15.65597,56.25605],[15.65374,56.25461],[15.65097,56.25368],[15.64681,56.25284],[15.64439,56.25256],[15.64365,56.25225],[15.64165,56.25014],[15.63966,56.24881],[15.63776,56.247],[15.63712,56.24511],[15.63536,56.24346],[15.63567,56.24183],[15.63525,56.24043],[15.63449,56.23941],[15.63302,56.23825],[15.63104,56.23731],[15.62874,56.23669],[15.62575,56.23635],[15.62315,56.23643],[15.62071,56.23686],[15.619,56.23743],[15.61538,56.23917],[15.61369,56.2405],[15.61039,56.2409],[15.60701,56.24182],[15.60515,56.24279],[15.60384,56.24393],[15.6015,56.24464],[15.59923,56.2459],[15.59762,56.24783],[15.59734,56.24981],[15.59815,56.25171],[15.60022,56.25353],[15.59786,56.25386],[15.59605,56.25436],[15.59309,56.25587],[15.59198,56.25691],[15.59128,56.25797],[15.59096,56.25908],[15.59105,56.2603],[15.59154,56.26138],[15.59284,56.26296],[15.59507,56.26473],[15.59534,56.26693],[15.59626,56.26877],[15.59739,56.27005],[15.59949,56.27135],[15.60163,56.27219],[15.60488,56.273],[15.60813,56.27324],[15.60732,56.27474],[15.60716,56.2758],[15.6075,56.27718],[15.60846,56.27847],[15.61032,56.27983],[15.61258,56.28082],[15.61366,56.28202],[15.61493,56.2829],[15.61641,56.28367],[15.619,56.28449],[15.61949,56.28483],[15.61866,56.28625],[15.61859,56.28803],[15.61943,56.28982],[15.62111,56.29134],[15.62409,56.29267],[15.62718,56.29325],[15.6323,56.29318],[15.63421,56.29347],[15.63621,56.29354],[15.6394,56.29321]]]}},{"type":"Feature","id":"1080R023","properties":{"code":"1080R023","name":"Sydvästra Trossö"},"geometry":{"type":"Polygon","coordinates":[[[15.57632,56.16112],[15.57845,56.15997],[15.58546,56.15979],[15.58558,56.1591],[15.58509,56.15646],[15.58053,56.15658],[15.58048,56.15647],[15.58054,56.15616],[15.58264,56.15611],[15.58263,56.15587],[15.58352,56.15592],[15.58371,56.15571],[15.5835,56.15422],[15.58092,56.15397],[15.58002,56.15287],[15.58163,56.14496],[15.57929,56.14603],[15.5779,56.14694],[15.57487,56.14824],[15.5731,56.14866],[15.57111,56.14947],[15.56982,56.15028],[15.56857,56.15155],[15.56704,56.15246],[15.56449,56.15342],[15.56314,56.1543],[15.56445,56.15429],[15.56533,56.15537],[15.56667,56.15856],[15.56869,56.16058],[15.56855,56.16111],[15.5704,56.16104],[15.57103,56.16079],[15.57304,56.16051],[15.57315,56.16079],[15.57404,56.16077],[15.57452,56.16117],[15.57632,56.16112]]]}},{"type":"Feature","id":"1080R024","properties":{"code":"1080R024","name":"Sydöstra Lyckeby"},"geometry":{"type":"Polygon","coordinates":[[[15.68589,56.19824],[15.68991,56.19726],[15.69495,56.1965],[15.69681,56.19569],[15.69933,56.19383],[15.69841,56.19247],[15.69628,56.19049],[15.69417,56.18913],[15.69126,56.18814],[15.68707,56.18743],[15.68427,56.18741],[15.68077,56.18801],[15.68041,56.1879],[15.67913,56.1857],[15.67788,56.18467],[15.67673,56.18318],[15.6741,56.18133],[15.67396,56.18101],[15.67332,56.18134],[15.67333,56.1819],[15.6714,56.18268],[15.67214,56.18546],[15.67021,56.18719],[15.67176,56.18987],[15.66531,56.18985],[15.66528,56.18921],[15.66143,56.18836],[15.66101,56.18642],[15.66102,56.1839],[15.65581,56.18387],[15.65565,56.18907],[15.65476,56.19055],[15.65289,56.19176],[15.65352,56.19335],[15.65274,56.19479],[15.65335,56.19516],[15.65904,56.19647],[15.66035,56.19698],[15.66138,56.19632],[15.66176,56.19549],[15.66314,56.19534],[15.66296,56.19486],[15.66375,56.19472],[15.66373,56.19414],[15.66349,56.19416],[15.66317,56.19353],[15.66347,56.19351],[15.66369,56.1938],[15.66467,56.19357],[15.66551,56.19367],[15.66578,56.19453],[15.66831,56.19433],[15.66827,56.19386],[15.66888,56.19344],[15.66963,56.1936],[15.67154,56.19457],[15.67204,56.19449],[15.67219,56.19472],[15.67372,56.1946],[15.67531,56.19479],[15.67876,56.19599],[15.68001,56.19721],[15.68066,56.19847],[15.68119,56.19887],[15.68589,56.19824]]]}},{"type":"Feature","id":"1080R025","properties":{"code":"1080R025","name":"Sydöstra Trossö"},"geometry":{"type":"Polygon","coordinates":[[[15.58903,56.16111],[15.59591,56.16095],[15.59562,56.15995],[15.59597,56.15883],[15.5982,56.15718],[15.60115,56.15631],[15.61024,56.15549],[15.60847,56.15396],[15.60572,56.1528],[15.60598,56.15126],[15.60552,56.14979],[15.60387,56.14721],[15.60189,56.14574],[15.59938,56.14476],[15.59461,56.14393],[15.5928,56.14376],[15.58775,56.14371],[15.58381,56.14432],[15.58163,56.14496],[15.58002,56.15287],[15.58092,56.15397],[15.5835,56.15422],[15.58371,56.15571],[15.58352,56.15592],[15.58263,56.15587],[15.58264,56.15611],[15.58054,56.15616],[15.58048,56.15647],[15.58053,56.15658],[15.58509,56.15646],[15.58558,56.1591],[15.58546,56.15979],[15.58454,56.16073],[15.58865,56.16073],[15.58903,56.16111]]]}},{"type":"Feature","id":"1080R026","properties":{"code":"1080R026","name":"Torhamn-Kristianopel-Jämjös omland"},"geometry":{"type":"Polygon","coordinates":[[[16.04914,56.3228],[16.04961,56.32254],[16.04975,56.32188],[16.05198,56.32127],[16.07598,56.32168],[16.22368,56.30529],[16.21948,55.91413],[16.0256,55.85635],[15.98512,55.82667],[15.97045,55.81661],[15.95786,55.80893],[15.94909,55.80402],[15.9332,55.79588],[15.9237,55.79141],[15.91393,55.78714],[15.90391,55.78306],[15.89364,55.77918],[15.87654,55.77331],[15.86571,55.76995],[15.85469,55.7668],[15.84348,55.76387],[15.83209,55.76116],[15.82055,55.75867],[15.80886,55.75642],[15.79704,55.75439],[15.7851,55.75259],[15.77306,55.75103],[15.76093,55.74971],[15.74873,55.74863],[15.73647,55.74778],[15.72416,55.74718],[15.71182,55.74681],[15.69947,55.74669],[15.68712,55.74681],[15.67479,55.74718],[15.66248,55.74778],[15.65022,55.74862],[15.63802,55.74971],[15.62589,55.75103],[15.61385,55.75259],[15.60191,55.75438],[15.59009,55.75641],[15.5784,55.75867],[15.56685,55.76115],[15.55547,55.76386],[15.54426,55.76679],[15.53323,55.76994],[15.52241,55.7733],[15.51179,55.77688],[15.50141,55.78065],[15.49126,55.78463],[15.48136,55.78881],[15.47172,55.79318],[15.46236,55.79773],[15.68471,56.04636],[15.71093,56.05777],[15.72477,56.07019],[15.73036,56.07709],[15.73526,56.08061],[15.74029,56.08727],[15.75219,56.0919],[15.75645,56.09777],[15.77298,56.10163],[15.78161,56.10189],[15.77719,56.10798],[15.77513,56.1116],[15.77657,56.11815],[15.7819,56.12254],[15.7851,56.12931],[15.78156,56.13292],[15.77028,56.13834],[15.77315,56.14009],[15.78506,56.14113],[15.79079,56.14242],[15.79162,56.14427],[15.79865,56.14474],[15.80281,56.14412],[15.80521,56.14495],[15.80687,56.15005],[15.81001,56.15248],[15.80629,56.15777],[15.81726,56.16455],[15.81705,56.17062],[15.8157,56.17106],[15.81315,56.173],[15.812,56.17328],[15.81086,56.17333],[15.81098,56.17353],[15.80827,56.17436],[15.80527,56.17486],[15.80385,56.17492],[15.79931,56.17718],[15.7983,56.17784],[15.7982,56.17867],[15.79786,56.1788],[15.79621,56.17847],[15.79579,56.18084],[15.79957,56.18094],[15.8021,56.18203],[15.8046,56.18236],[15.80059,56.18675],[15.79736,56.18855],[15.79725,56.1888],[15.79764,56.19165],[15.79814,56.19261],[15.79887,56.19601],[15.80314,56.20134],[15.80419,56.20233],[15.80587,56.20678],[15.81164,56.21094],[15.81161,56.21152],[15.81383,56.21789],[15.81524,56.22053],[15.81527,56.22437],[15.82322,56.23029],[15.82673,56.2321],[15.83365,56.24997],[15.84113,56.25435],[15.85365,56.26877],[15.84758,56.27457],[15.84734,56.2755],[15.84754,56.2761],[15.85072,56.2778],[15.85139,56.27838],[15.85116,56.28284],[15.85163,56.28401],[15.85336,56.28638],[15.85537,56.28763],[15.85548,56.28869],[15.85623,56.28944],[15.86123,56.29134],[15.8632,56.29242],[15.86582,56.29392],[15.86948,56.29681],[15.8692,56.29935],[15.87039,56.30228],[15.86894,56.30184],[15.86808,56.30196],[15.86484,56.30339],[15.86392,56.30357],[15.86184,56.30342],[15.85318,56.3107],[15.84135,56.311],[15.84256,56.31221],[15.84426,56.31336],[15.84565,56.31374],[15.84456,56.3146],[15.85019,56.31552],[15.84941,56.3167],[15.85054,56.31874],[15.8503,56.32112],[15.86668,56.31795],[15.86703,56.31774],[15.86856,56.31803],[15.86857,56.31869],[15.86914,56.31883],[15.87256,56.31768],[15.87319,56.31763],[15.87368,56.31803],[15.87454,56.31809],[15.87588,56.31747],[15.87709,56.31732],[15.87815,56.31747],[15.88024,56.31833],[15.88324,56.31727],[15.88337,56.31701],[15.88601,56.31669],[15.88881,56.31596],[15.89078,56.31593],[15.891,56.3158],[15.89155,56.3161],[15.89255,56.31616],[15.89451,56.31699],[15.89476,56.31727],[15.89583,56.31684],[15.89798,56.31677],[15.90126,56.31634],[15.9023,56.31681],[15.90296,56.31686],[15.90415,56.31662],[15.90687,56.31515],[15.90759,56.31519],[15.90824,56.31561],[15.9096,56.3148],[15.91178,56.3157],[15.91377,56.31557],[15.91438,56.31583],[15.91665,56.31603],[15.91762,56.31677],[15.91808,56.31675],[15.91898,56.31731],[15.9204,56.31731],[15.92319,56.31645],[15.92438,56.31642],[15.92646,56.31662],[15.92893,56.31713],[15.93315,56.31723],[15.93761,56.3165],[15.93892,56.316],[15.93991,56.31603],[15.94086,56.31707],[15.9418,56.31894],[15.94268,56.31961],[15.94406,56.319],[15.94488,56.31796],[15.94579,56.31753],[15.94613,56.3165],[15.94733,56.31697],[15.94918,56.31673],[15.95251,56.31786],[15.95444,56.31709],[15.95472,56.31676],[15.95673,56.31631],[15.95701,56.31597],[15.95598,56.31454],[15.95902,56.31373],[15.95958,56.31253],[15.96261,56.31203],[15.96318,56.31141],[15.96413,56.31171],[15.96446,56.31212],[15.96569,56.31218],[15.96615,56.31251],[15.96682,56.31255],[15.9669,56.31351],[15.96746,56.31392],[15.9685,56.31409],[15.9702,56.31401],[15.97055,56.3137],[15.97066,56.31215],[15.97137,56.31164],[15.97269,56.31113],[15.97265,56.31061],[15.97365,56.31008],[15.97466,56.30911],[15.97386,56.30866],[15.97275,56.30677],[15.97326,56.30637],[15.97298,56.30557],[15.97323,56.30522],[15.97525,56.30528],[15.97812,56.30478],[15.98005,56.30413],[15.9806,56.30371],[15.98035,56.3024],[15.97942,56.30199],[15.97872,56.30117],[15.97915,56.30089],[15.98188,56.30013],[15.98282,56.30024],[15.98715,56.29995],[15.99098,56.29911],[15.99137,56.29916],[15.99268,56.30025],[15.9949,56.30117],[15.99582,56.30114],[15.99637,56.30137],[15.99714,56.30132],[15.99773,56.30106],[15.99922,56.30129],[16.00009,56.30083],[15.99993,56.30045],[16.00043,56.2999],[16.00193,56.29981],[16.00415,56.29935],[16.0065,56.29931],[16.00817,56.29861],[16.00872,56.29791],[16.00945,56.29783],[16.0098,56.29822],[16.01163,56.29741],[16.01373,56.29816],[16.01789,56.30152],[16.0191,56.3033],[16.01821,56.3042],[16.01777,56.30569],[16.01804,56.30623],[16.01773,56.3066],[16.01705,56.30699],[16.01525,56.3074],[16.01468,56.3079],[16.01365,56.30803],[16.01351,56.30852],[16.01433,56.30916],[16.01455,56.31003],[16.01624,56.31024],[16.01616,56.31086],[16.01688,56.31122],[16.0182,56.31249],[16.01813,56.31327],[16.02108,56.31412],[16.0215,56.31467],[16.0224,56.31508],[16.02547,56.31557],[16.02731,56.31611],[16.0277,56.31654],[16.02701,56.31714],[16.02789,56.31736],[16.03163,56.31988],[16.03341,56.32017],[16.03663,56.31975],[16.03838,56.32099],[16.03872,56.32168],[16.0404,56.32165],[16.04079,56.32204],[16.0418,56.3219],[16.04175,56.32237],[16.04234,56.32273],[16.04457,56.32224],[16.04589,56.3227],[16.04914,56.3228]],[[15.84774,56.20528],[15.84567,56.20335],[15.84123,56.20328],[15.83881,56.20348],[15.83687,56.20341],[15.83205,56.20275],[15.82984,56.20221],[15.82684,56.20187],[15.82368,56.20099],[15.82198,56.20027],[15.81912,56.2001],[15.81387,56.20021],[15.81073,56.19986],[15.8079,56.19897],[15.80575,56.19767],[15.80344,56.19657],[15.80206,56.1954],[15.80125,56.19409],[15.80107,56.19271],[15.80135,56.19156],[15.80224,56.19027],[15.80371,56.18913],[15.80636,56.18787],[15.80873,56.18724],[15.81131,56.18696],[15.81517,56.18692],[15.81621,56.18503],[15.81717,56.18391],[15.81825,56.18301],[15.81969,56.18221],[15.82007,56.18069],[15.82097,56.17939],[15.82276,56.17807],[15.82594,56.17508],[15.82734,56.17429],[15.82949,56.17353],[15.83541,56.17245],[15.838,56.17236],[15.84113,56.17276],[15.84339,56.17347],[15.84626,56.17488],[15.84796,56.17652],[15.84861,56.17805],[15.84855,56.17961],[15.84772,56.18121],[15.85081,56.18288],[15.85436,56.18279],[15.85806,56.18349],[15.86163,56.18342],[15.86475,56.18394],[15.86689,56.18471],[15.86862,56.18576],[15.86961,56.18672],[15.87036,56.18807],[15.87053,56.18935],[15.87004,56.19184],[15.87158,56.19357],[15.87198,56.1957],[15.87145,56.19709],[15.87064,56.19807],[15.86951,56.19895],[15.86799,56.19974],[15.86827,56.20102],[15.86913,56.20228],[15.87066,56.20364],[15.87131,56.20471],[15.8716,56.20591],[15.87149,56.20699],[15.87205,56.20903],[15.87122,56.2112],[15.86942,56.2128],[15.86626,56.21416],[15.86225,56.21498],[15.85961,56.21508],[15.85775,56.21495],[15.85433,56.21411],[15.85248,56.21318],[15.85086,56.21171],[15.85029,56.21069],[15.8497,56.20801],[15.84774,56.20528]]]}},{"type":"Feature","id":"1080R027","properties":{"code":"1080R027","name":"Verkö-Ringö-Knösö"},"geometry":{"type":"Polygon","coordinates":[[[15.65289,56.19176],[15.65476,56.19055],[15.65565,56.18907],[15.65581,56.18387],[15.66102,56.1839],[15.66101,56.18642],[15.66143,56.18836],[15.66528,56.18921],[15.66531,56.18985],[15.67176,56.18987],[15.67021,56.18719],[15.67214,56.18546],[15.6714,56.18268],[15.67333,56.1819],[15.67332,56.18134],[15.67396,56.18101],[15.67407,56.18069],[15.67449,56.17858],[15.67444,56.1759],[15.67482,56.17447],[15.67464,56.17326],[15.67412,56.17217],[15.67202,56.17026],[15.6688,56.16893],[15.66492,56.16836],[15.66289,56.16839],[15.66039,56.16873],[15.65939,56.16724],[15.66016,56.16588],[15.6601,56.16256],[15.65678,56.1603],[15.65223,56.15947],[15.65058,56.1574],[15.64794,56.15598],[15.64604,56.15533],[15.63271,56.15567],[15.62943,56.15608],[15.62695,56.15681],[15.62505,56.15768],[15.6216,56.16446],[15.62028,56.17034],[15.6265,56.17567],[15.62732,56.17612],[15.63117,56.1771],[15.6322,56.17823],[15.63495,56.18012],[15.63524,56.18172],[15.63583,56.1824],[15.64356,56.18569],[15.64495,56.18979],[15.64931,56.18952],[15.65021,56.18918],[15.65155,56.19084],[15.65249,56.19158],[15.65289,56.19176]]]}},{"type":"Feature","id":"1080R028","properties":{"code":"1080R028","name":"Västra Lyckeby"},"geometry":{"type":"Polygon","coordinates":[[[15.64879,56.20375],[15.65076,56.20402],[15.6512,56.20379],[15.65186,56.20418],[15.6563,56.20328],[15.65843,56.20442],[15.65993,56.20385],[15.66112,56.20361],[15.66334,56.20366],[15.66514,56.20249],[15.66773,56.20207],[15.6677,56.20117],[15.66728,56.20101],[15.66546,56.201],[15.66467,56.20075],[15.66457,56.20033],[15.66307,56.19889],[15.66303,56.19839],[15.66242,56.19781],[15.65904,56.19647],[15.65494,56.19562],[15.65335,56.19516],[15.65274,56.19479],[15.65352,56.19335],[15.6533,56.19233],[15.65289,56.19176],[15.65105,56.19039],[15.65021,56.18918],[15.64931,56.18952],[15.64495,56.18979],[15.64177,56.19153],[15.64208,56.19186],[15.64121,56.19265],[15.63743,56.19378],[15.63615,56.19451],[15.63812,56.19551],[15.63766,56.19575],[15.63836,56.19616],[15.63879,56.19616],[15.63998,56.19674],[15.64054,56.19843],[15.64171,56.20032],[15.64073,56.20071],[15.64095,56.20118],[15.63836,56.20213],[15.63966,56.2035],[15.64211,56.20278],[15.64486,56.205],[15.64879,56.20375]]]}}]}