{"type":"FeatureCollection","features":[{"type":"Feature","id":"1083R006","properties":{"code":"1083R006","name":"Norje-Pukavik"},"geometry":{"type":"Polygon","coordinates":[[[14.66493,56.16667],[14.66544,56.16657],[14.66513,56.16626],[14.66562,56.16608],[14.66484,56.16585],[14.66524,56.16537],[14.66456,56.16491],[14.66497,56.16467],[14.6647,56.16444],[14.66429,56.16443],[14.66431,56.16397],[14.66336,56.16382],[14.66643,56.16308],[14.66772,56.16236],[14.67021,56.16192],[14.67284,56.16205],[14.67338,56.16386],[14.67436,56.16384],[14.67504,56.16337],[14.67501,56.1619],[14.67773,56.16111],[14.68082,56.16069],[14.68136,56.16067],[14.68183,56.16122],[14.68297,56.16144],[14.68503,56.16033],[14.68392,56.15692],[14.68615,56.1545],[14.68644,56.15174],[14.69034,56.15056],[14.70292,56.14469],[14.68606,56.14142],[14.68788,56.12845],[14.71063,56.12568],[14.71148,56.10468],[14.70125,56.10657],[14.69958,56.10471],[14.69831,56.10397],[14.69653,56.10328],[14.69526,56.10171],[14.69383,56.10054],[14.69135,56.0994],[14.68833,56.09875],[14.68486,56.09859],[14.68231,56.09883],[14.67995,56.09943],[14.67771,56.10048],[14.67486,56.10084],[14.67218,56.1017],[14.67046,56.10269],[14.66947,56.1036],[14.66854,56.10551],[14.66607,56.10796],[14.66557,56.10974],[14.66312,56.11007],[14.66024,56.11102],[14.65679,56.11147],[14.65462,56.11211],[14.65208,56.11358],[14.6507,56.11548],[14.65059,56.11718],[14.65187,56.12035],[14.65293,56.12161],[14.65493,56.12288],[14.65551,56.12409],[14.65724,56.12596],[14.65725,56.12631],[14.65538,56.12764],[14.65432,56.12908],[14.65397,56.13062],[14.65434,56.1322],[14.65219,56.1344],[14.6515,56.13545],[14.65116,56.1369],[14.65152,56.13845],[14.65315,56.14038],[14.65566,56.14178],[14.65872,56.14263],[14.66249,56.14287],[14.66496,56.14375],[14.66162,56.14477],[14.65914,56.14641],[14.65617,56.15065],[14.65553,56.15324],[14.65601,56.15497],[14.65711,56.15628],[14.65923,56.15762],[14.6618,56.15848],[14.6619,56.15877],[14.66091,56.15996],[14.66046,56.16106],[14.66057,56.16302],[14.66199,56.16501],[14.66328,56.16594],[14.66493,56.16667]]]}},{"type":"Feature","id":"1083R007","properties":{"code":"1083R007","name":"Stadskärnan"},"geometry":{"type":"Polygon","coordinates":[[[14.59133,56.05924],[14.59759,56.05965],[14.59411,56.05765],[14.59285,56.05657],[14.59137,56.05379],[14.59614,56.05015],[14.5943,56.04816],[14.58342,56.04931],[14.5831,56.05],[14.57913,56.05068],[14.58002,56.05236],[14.57913,56.05239],[14.57932,56.05356],[14.58157,56.0539],[14.58114,56.0552],[14.58069,56.05565],[14.58236,56.05632],[14.58374,56.05561],[14.58555,56.0569],[14.58742,56.05868],[14.59133,56.05924]]]}},{"type":"Feature","id":"1083R008","properties":{"code":"1083R008","name":"Sölvesborg"},"geometry":{"type":"Polygon","coordinates":[[[14.62613,56.07289],[14.63355,56.07224],[14.6371,56.07139],[14.63902,56.07046],[14.64017,56.0696],[14.64176,56.06759],[14.64224,56.06658],[14.64225,56.06486],[14.64155,56.0635],[14.63866,56.06064],[14.63672,56.05947],[14.63552,56.05762],[14.63702,56.05572],[14.63725,56.05394],[14.63631,56.05157],[14.63538,56.05063],[14.63405,56.04975],[14.63449,56.0476],[14.63429,56.04628],[14.6391,56.04456],[14.64133,56.04325],[14.64481,56.04171],[14.64602,56.04091],[14.64717,56.03969],[14.64783,56.03753],[14.6476,56.03648],[14.64678,56.03518],[14.64744,56.03183],[14.64704,56.03002],[14.64794,56.02897],[14.64918,56.02653],[14.64963,56.02459],[14.6487,56.02203],[14.64676,56.0202],[14.64371,56.01889],[14.63951,56.01811],[14.63627,56.01813],[14.63325,56.0187],[14.63071,56.01977],[14.62841,56.02142],[14.6273,56.02313],[14.62571,56.02462],[14.62506,56.02599],[14.62496,56.02898],[14.62526,56.03229],[14.62046,56.03153],[14.61846,56.03153],[14.61635,56.03176],[14.61448,56.03219],[14.61266,56.03286],[14.61134,56.03357],[14.60952,56.03503],[14.60855,56.03637],[14.60823,56.03812],[14.60854,56.03922],[14.60963,56.04116],[14.60996,56.04258],[14.60799,56.04428],[14.60719,56.04561],[14.60708,56.0474],[14.60791,56.04904],[14.60729,56.05019],[14.60712,56.05167],[14.60511,56.05175],[14.60244,56.05217],[14.60165,56.05179],[14.60096,56.05051],[14.59997,56.0495],[14.59799,56.0483],[14.59622,56.04688],[14.59459,56.04607],[14.5949,56.04765],[14.5943,56.04816],[14.59614,56.05015],[14.59137,56.05379],[14.59245,56.05605],[14.59321,56.05692],[14.59474,56.05805],[14.59759,56.05965],[14.59133,56.05924],[14.58742,56.05868],[14.58555,56.0569],[14.58374,56.05561],[14.58236,56.05632],[14.58069,56.05565],[14.58114,56.0552],[14.58157,56.0539],[14.57932,56.05356],[14.57913,56.05239],[14.58002,56.05236],[14.57913,56.05068],[14.5831,56.05],[14.58342,56.04931],[14.58488,56.04922],[14.58372,56.04674],[14.58289,56.04628],[14.58196,56.04606],[14.58063,56.04412],[14.5786,56.04471],[14.57644,56.04417],[14.57343,56.04418],[14.56994,56.04487],[14.56798,56.04564],[14.56486,56.04827],[14.56626,56.04871],[14.56713,56.04879],[14.56603,56.05257],[14.56578,56.05477],[14.55863,56.05712],[14.56023,56.05289],[14.54153,56.0481],[14.54157,56.05611],[14.54684,56.06116],[14.54641,56.0615],[14.54723,56.06279],[14.54838,56.06302],[14.54944,56.06301],[14.55178,56.06553],[14.55305,56.06557],[14.55363,56.06611],[14.55411,56.06852],[14.55353,56.07112],[14.55709,56.06913],[14.55929,56.06823],[14.56153,56.06676],[14.56495,56.06749],[14.56824,56.06752],[14.56994,56.06867],[14.57221,56.0696],[14.57437,56.0701],[14.57945,56.07075],[14.58326,56.07046],[14.58702,56.06939],[14.58992,56.06997],[14.59252,56.07014],[14.5971,56.06986],[14.59978,56.06945],[14.603,56.06937],[14.60545,56.06899],[14.60818,56.0681],[14.61151,56.06962],[14.6145,56.07032],[14.61649,56.07156],[14.61885,56.07239],[14.62302,56.07296],[14.62613,56.07289]]]}},{"type":"Feature","id":"1083R001","properties":{"code":"1083R001","name":"Falkvik"},"geometry":{"type":"Polygon","coordinates":[[[14.55863,56.05712],[14.56578,56.05477],[14.56603,56.05257],[14.56713,56.04879],[14.56626,56.04871],[14.56486,56.04827],[14.56798,56.04564],[14.57099,56.04459],[14.57343,56.04418],[14.57575,56.04413],[14.57731,56.04431],[14.5786,56.04471],[14.58063,56.04412],[14.58196,56.04606],[14.58289,56.04628],[14.58372,56.04674],[14.58488,56.04922],[14.5943,56.04816],[14.5949,56.04765],[14.59459,56.04607],[14.59315,56.04559],[14.59211,56.04423],[14.59269,56.04308],[14.59282,56.04206],[14.59211,56.03838],[14.58911,56.03477],[14.58919,56.03347],[14.58866,56.03213],[14.58536,56.0288],[14.58469,56.02634],[14.58356,56.0251],[14.58194,56.02407],[14.57986,56.02329],[14.57755,56.02284],[14.57501,56.02267],[14.57307,56.02276],[14.56964,56.02347],[14.56559,56.02258],[14.56241,56.02248],[14.55943,56.02293],[14.55322,56.02466],[14.5513,56.02563],[14.54991,56.02682],[14.54815,56.02916],[14.54773,56.03016],[14.54643,56.03105],[14.54529,56.03223],[14.54458,56.0337],[14.54271,56.03621],[14.5425,56.03729],[14.54281,56.0387],[14.54375,56.04049],[14.54524,56.04191],[14.54471,56.04324],[14.54321,56.04534],[14.5429,56.04703],[14.54246,56.04676],[14.54151,56.0449],[14.54153,56.0481],[14.56023,56.05289],[14.55863,56.05712]]]}},{"type":"Feature","id":"1083R002","properties":{"code":"1083R002","name":"Hällevik"},"geometry":{"type":"Polygon","coordinates":[[[14.72361,56.03154],[14.72635,56.03123],[14.72827,56.03074],[14.73036,56.02986],[14.73199,56.02871],[14.73327,56.02695],[14.7334,56.02472],[14.73234,56.02291],[14.73007,56.021],[14.73199,56.02082],[14.73428,56.02029],[14.73627,56.01945],[14.73838,56.01819],[14.73966,56.01701],[14.74036,56.01568],[14.74045,56.01428],[14.74002,56.0131],[14.74271,56.01251],[14.74478,56.01164],[14.7481,56.0096],[14.7501,56.00746],[14.7505,56.00577],[14.74971,56.00377],[14.7459,56.0],[14.74279,55.99777],[14.73975,55.99663],[14.73447,55.99565],[14.72978,55.99537],[14.72623,55.99584],[14.72368,55.99678],[14.71922,55.99935],[14.71833,56.00031],[14.71768,56.00168],[14.71761,56.00279],[14.71795,56.00393],[14.71658,56.00477],[14.71486,56.0051],[14.71277,56.0051],[14.7104,56.00541],[14.70591,56.00692],[14.70455,56.00558],[14.70256,56.00451],[14.70142,56.00285],[14.69776,55.99997],[14.69592,55.99907],[14.69035,55.99729],[14.68385,55.99667],[14.68049,55.99694],[14.67783,55.99765],[14.675,55.99716],[14.67242,55.99713],[14.66885,55.99767],[14.66574,55.99889],[14.66389,56.00038],[14.66298,56.00209],[14.6631,56.00481],[14.66266,56.0065],[14.66312,56.00828],[14.66266,56.00939],[14.66265,56.01081],[14.66323,56.01293],[14.66399,56.01429],[14.66487,56.01526],[14.66645,56.01632],[14.6663,56.01834],[14.6669,56.02006],[14.66866,56.02272],[14.66978,56.02387],[14.67172,56.02696],[14.67353,56.02845],[14.6761,56.02955],[14.67972,56.03019],[14.68295,56.03011],[14.68675,56.02927],[14.68924,56.02815],[14.69099,56.02665],[14.69229,56.02376],[14.69233,56.02216],[14.69485,56.02296],[14.69787,56.02342],[14.70041,56.02349],[14.70331,56.02312],[14.70384,56.02321],[14.70465,56.02461],[14.70677,56.02629],[14.70812,56.02803],[14.71089,56.02966],[14.71453,56.03059],[14.71767,56.03078],[14.72099,56.03146],[14.72361,56.03154]]]}},{"type":"Feature","id":"1083R003","properties":{"code":"1083R003","name":"Kylinge-Gammalstorp-Ysane"},"geometry":{"type":"Polygon","coordinates":[[[14.65059,56.20761],[14.64863,56.19057],[14.65005,56.19087],[14.66154,56.19152],[14.66092,56.19012],[14.65642,56.17255],[14.66601,56.16811],[14.66565,56.16793],[14.66607,56.16794],[14.66622,56.16762],[14.66592,56.16748],[14.66532,56.16759],[14.66521,56.1673],[14.6647,56.16731],[14.66444,56.16694],[14.66482,56.1667],[14.66243,56.16537],[14.66071,56.16335],[14.66039,56.16225],[14.66046,56.16106],[14.66091,56.15996],[14.6619,56.15877],[14.6618,56.15848],[14.65927,56.15764],[14.65748,56.15659],[14.65603,56.155],[14.65555,56.15358],[14.65616,56.15068],[14.65914,56.14641],[14.66162,56.14477],[14.66496,56.14375],[14.66249,56.14287],[14.65872,56.14263],[14.65518,56.14158],[14.65365,56.14074],[14.65249,56.1398],[14.65124,56.13768],[14.65118,56.13656],[14.65168,56.13512],[14.65434,56.1322],[14.65397,56.13062],[14.65432,56.12908],[14.65538,56.12764],[14.65725,56.12631],[14.65698,56.1255],[14.65575,56.1244],[14.65493,56.12288],[14.65327,56.12189],[14.65208,56.12068],[14.65069,56.11752],[14.65052,56.1165],[14.65084,56.11514],[14.65243,56.1133],[14.65413,56.11232],[14.65622,56.11161],[14.66024,56.11102],[14.66255,56.1102],[14.66557,56.10974],[14.66629,56.10764],[14.66854,56.10551],[14.66922,56.10391],[14.67084,56.10243],[14.67374,56.10112],[14.67548,56.10072],[14.67771,56.10048],[14.67999,56.09942],[14.68295,56.09874],[14.68547,56.09859],[14.68833,56.09875],[14.69022,56.09908],[14.69241,56.0998],[14.69461,56.1011],[14.69653,56.10328],[14.69831,56.10397],[14.69994,56.10499],[14.70125,56.10657],[14.71148,56.10468],[14.71063,56.12568],[14.68788,56.12845],[14.68606,56.14142],[14.70292,56.14469],[14.78857,56.10441],[14.73231,56.07139],[14.73189,56.07303],[14.7309,56.07428],[14.72849,56.07643],[14.72565,56.07779],[14.72113,56.07879],[14.71863,56.07908],[14.71429,56.07891],[14.71126,56.07818],[14.71095,56.07997],[14.71007,56.0813],[14.70859,56.08249],[14.70666,56.08342],[14.70434,56.08406],[14.69974,56.08461],[14.69714,56.08462],[14.69467,56.08428],[14.69191,56.08339],[14.68976,56.08203],[14.68849,56.08039],[14.68729,56.0761],[14.68464,56.07527],[14.68236,56.074],[14.68082,56.07231],[14.68033,56.07082],[14.67848,56.06975],[14.67708,56.06822],[14.67656,56.0667],[14.67677,56.06522],[14.67587,56.06423],[14.67524,56.06286],[14.67527,56.06115],[14.67625,56.05908],[14.67725,56.05816],[14.679,56.05714],[14.67754,56.0568],[14.67365,56.05645],[14.67053,56.0556],[14.66766,56.05543],[14.6648,56.05493],[14.66297,56.05516],[14.66005,56.05586],[14.65664,56.05606],[14.65491,56.05675],[14.65192,56.05748],[14.6494,56.05767],[14.64743,56.05758],[14.64501,56.05715],[14.64281,56.05639],[14.64107,56.05535],[14.63988,56.0542],[14.63819,56.05452],[14.63718,56.05224],[14.63667,56.05212],[14.63724,56.05391],[14.63723,56.05502],[14.63666,56.0564],[14.63552,56.05762],[14.63672,56.05947],[14.63866,56.06064],[14.64155,56.0635],[14.64213,56.0645],[14.64236,56.06588],[14.64195,56.06726],[14.64017,56.0696],[14.63811,56.07096],[14.63595,56.07175],[14.63353,56.07224],[14.62805,56.0728],[14.62427,56.073],[14.62075,56.07275],[14.61762,56.07202],[14.61603,56.07133],[14.6145,56.07032],[14.61151,56.06962],[14.60818,56.0681],[14.60545,56.06899],[14.603,56.06937],[14.59978,56.06945],[14.5971,56.06986],[14.59252,56.07014],[14.58992,56.06997],[14.58702,56.06939],[14.58268,56.07056],[14.57884,56.07072],[14.57418,56.07007],[14.57216,56.06959],[14.56994,56.06867],[14.56824,56.06752],[14.56495,56.06749],[14.56153,56.06676],[14.55929,56.06823],[14.55709,56.06913],[14.55353,56.07112],[14.55247,56.07593],[14.55534,56.07864],[14.55586,56.08294],[14.55861,56.0841],[14.56058,56.08415],[14.57832,56.09749],[14.57765,56.09875],[14.57847,56.1018],[14.57835,56.11156],[14.58166,56.11677],[14.58111,56.1215],[14.58625,56.12917],[14.58608,56.13058],[14.58134,56.13704],[14.58051,56.13924],[14.57982,56.14008],[14.57953,56.14132],[14.57927,56.14483],[14.58225,56.14879],[14.58225,56.14934],[14.58159,56.15116],[14.57849,56.15705],[14.57859,56.15814],[14.57747,56.1627],[14.58175,56.17305],[14.57797,56.18102],[14.57455,56.19053],[14.59127,56.19768],[14.59053,56.19852],[14.59023,56.19986],[14.59123,56.20218],[14.5925,56.20271],[14.59463,56.20287],[14.59853,56.20225],[14.59848,56.20198],[14.59945,56.20139],[14.59926,56.20106],[14.60045,56.20063],[14.60156,56.2006],[14.60132,56.20132],[14.60266,56.20044],[14.60557,56.19929],[14.60599,56.19977],[14.60612,56.20069],[14.60683,56.20072],[14.6072,56.20094],[14.6104,56.20095],[14.61061,56.20048],[14.61136,56.20071],[14.61197,56.20018],[14.61374,56.19979],[14.61462,56.20016],[14.61531,56.20102],[14.61767,56.20044],[14.6202,56.20102],[14.62097,56.20194],[14.6213,56.20214],[14.62201,56.20218],[14.6227,56.20307],[14.62717,56.20345],[14.64265,56.20737],[14.65059,56.20761]]]}},{"type":"Feature","id":"1083R004","properties":{"code":"1083R004","name":"Listerlandet-Hanö"},"geometry":{"type":"Polygon","coordinates":[[[15.23066,55.89404],[15.15826,55.89823],[15.15149,55.89242],[15.14433,55.88673],[15.13683,55.88118],[15.12899,55.87578],[15.12083,55.87054],[15.1097,55.86387],[15.10091,55.85897],[15.09182,55.85423],[15.08245,55.84968],[15.0728,55.84531],[15.06289,55.84113],[15.05272,55.83715],[15.03489,55.83085],[15.02496,55.82752],[15.01412,55.82415],[15.00308,55.821],[14.99185,55.81807],[14.98045,55.81536],[14.96416,55.81187],[14.95245,55.80961],[14.94062,55.80759],[14.92866,55.80579],[14.91661,55.80423],[14.90446,55.80291],[14.89224,55.80182],[14.87996,55.80098],[14.79894,55.7968],[14.59533,55.755],[14.55363,55.92196],[14.53275,56.01201],[14.5321,56.03688],[14.5415,56.04353],[14.54151,56.0449],[14.54246,56.04676],[14.5429,56.04703],[14.54321,56.04534],[14.54471,56.04324],[14.54524,56.04191],[14.54375,56.04049],[14.54281,56.0387],[14.54252,56.03763],[14.54269,56.03627],[14.54324,56.03523],[14.54458,56.0337],[14.54554,56.03192],[14.54773,56.03016],[14.54815,56.02916],[14.54964,56.02715],[14.5513,56.02563],[14.5543,56.02429],[14.55943,56.02293],[14.5618,56.02253],[14.56559,56.02258],[14.56964,56.02347],[14.57188,56.02291],[14.57379,56.0227],[14.57586,56.0227],[14.57873,56.02302],[14.58147,56.02386],[14.58389,56.02539],[14.58503,56.027],[14.58536,56.0288],[14.58866,56.03213],[14.58919,56.03347],[14.58911,56.03477],[14.59169,56.03773],[14.59237,56.03905],[14.59282,56.0424],[14.59211,56.04423],[14.59315,56.04559],[14.5958,56.04663],[14.59799,56.0483],[14.59961,56.04922],[14.60096,56.05051],[14.60165,56.05179],[14.60244,56.05217],[14.60511,56.05175],[14.60712,56.05167],[14.60729,56.05019],[14.60791,56.04904],[14.60708,56.0474],[14.60719,56.04561],[14.60799,56.04428],[14.60996,56.04258],[14.60963,56.04116],[14.60854,56.03922],[14.60823,56.03812],[14.60855,56.03637],[14.60952,56.03503],[14.61134,56.03357],[14.61266,56.03286],[14.61448,56.03219],[14.61635,56.03176],[14.61846,56.03153],[14.62046,56.03153],[14.62526,56.03229],[14.62496,56.02898],[14.62516,56.02565],[14.62573,56.02459],[14.6273,56.02313],[14.62875,56.0211],[14.63118,56.01952],[14.63384,56.01854],[14.63753,56.01805],[14.64075,56.01825],[14.64429,56.01907],[14.64718,56.02049],[14.6489,56.02238],[14.64952,56.02391],[14.64963,56.02504],[14.64819,56.02854],[14.64704,56.03002],[14.64744,56.03183],[14.64678,56.03518],[14.6476,56.03648],[14.64783,56.03753],[14.64717,56.03969],[14.64602,56.04091],[14.64481,56.04171],[14.64133,56.04325],[14.6391,56.04456],[14.63429,56.04628],[14.63449,56.0476],[14.63405,56.04975],[14.63573,56.05094],[14.63667,56.05212],[14.63718,56.05224],[14.63819,56.05452],[14.63988,56.0542],[14.63909,56.05283],[14.63894,56.05142],[14.63927,56.05033],[14.64023,56.04901],[14.64281,56.0467],[14.64768,56.044],[14.64912,56.04247],[14.65154,56.04114],[14.65519,56.04022],[14.65879,56.0401],[14.66107,56.03865],[14.66268,56.03806],[14.66496,56.03757],[14.66756,56.03585],[14.67023,56.03487],[14.67398,56.03437],[14.67764,56.03432],[14.67982,56.03448],[14.681,56.03332],[14.68229,56.03252],[14.68556,56.03139],[14.68807,56.03106],[14.69041,56.03102],[14.69292,56.03123],[14.69471,56.03162],[14.69776,56.03292],[14.69972,56.03477],[14.7003,56.03692],[14.70173,56.03823],[14.70245,56.03962],[14.70252,56.04104],[14.70164,56.04314],[14.7018,56.04332],[14.70551,56.04404],[14.70715,56.0447],[14.70893,56.04581],[14.71497,56.04751],[14.71735,56.0468],[14.72027,56.04642],[14.7289,56.04671],[14.73073,56.04696],[14.73295,56.04758],[14.73525,56.04863],[14.73654,56.04949],[14.73774,56.05079],[14.73828,56.05198],[14.73834,56.05349],[14.73775,56.05492],[14.73568,56.05683],[14.7342,56.05759],[14.73217,56.05825],[14.73155,56.05995],[14.73082,56.06095],[14.72974,56.06188],[14.72805,56.06282],[14.72905,56.0643],[14.72967,56.06642],[14.73102,56.06752],[14.7317,56.06848],[14.73231,56.07139],[14.78857,56.10441],[15.23066,55.89404]],[[14.73101,55.99538],[14.73506,55.99573],[14.73918,55.99651],[14.74137,55.99712],[14.74279,55.99777],[14.74568,55.99983],[14.74825,56.00212],[14.74993,56.00409],[14.7505,56.00577],[14.74991,56.00778],[14.74762,56.00995],[14.74377,56.01212],[14.74213,56.01268],[14.74002,56.0131],[14.74045,56.01428],[14.74036,56.01568],[14.73966,56.01701],[14.73838,56.01819],[14.73627,56.01945],[14.73428,56.02029],[14.73199,56.02082],[14.73007,56.021],[14.7326,56.02322],[14.73328,56.02438],[14.73353,56.0255],[14.73287,56.0277],[14.73078,56.02961],[14.72757,56.03095],[14.72559,56.03136],[14.72361,56.03154],[14.72099,56.03146],[14.71767,56.03078],[14.71377,56.03047],[14.71089,56.02966],[14.70847,56.02832],[14.70677,56.02629],[14.70465,56.02461],[14.70384,56.02321],[14.70331,56.02312],[14.70041,56.02349],[14.69787,56.02342],[14.69485,56.02296],[14.69233,56.02216],[14.69229,56.02376],[14.69099,56.02665],[14.68924,56.02815],[14.68728,56.02909],[14.68355,56.03003],[14.68037,56.03022],[14.67721,56.02984],[14.674,56.02871],[14.67174,56.02698],[14.66978,56.02387],[14.66866,56.02272],[14.6669,56.02006],[14.6663,56.01834],[14.66645,56.01632],[14.66487,56.01526],[14.66399,56.01429],[14.66323,56.01293],[14.66265,56.01081],[14.66266,56.00939],[14.66312,56.00828],[14.66266,56.0065],[14.6631,56.00481],[14.66298,56.00209],[14.66389,56.00038],[14.66574,55.99889],[14.66885,55.99767],[14.67242,55.99713],[14.675,55.99716],[14.67783,55.99765],[14.68049,55.99694],[14.68385,55.99667],[14.69035,55.99729],[14.69592,55.99907],[14.69776,55.99997],[14.70142,56.00285],[14.70256,56.00451],[14.70455,56.00558],[14.70591,56.00692],[14.7104,56.00541],[14.71277,56.0051],[14.71486,56.0051],[14.71658,56.00477],[14.71795,56.00393],[14.71761,56.00276],[14.71778,56.00134],[14.7186,55.99997],[14.71998,55.99878],[14.72368,55.99678],[14.72568,55.99599],[14.72797,55.99551],[14.73101,55.99538]]]}},{"type":"Feature","id":"1083R005","properties":{"code":"1083R005","name":"Mjällby"},"geometry":{"type":"Polygon","coordinates":[[[14.69846,56.08466],[14.7019,56.08442],[14.70434,56.08406],[14.70768,56.08299],[14.70902,56.08221],[14.71034,56.08099],[14.71108,56.07961],[14.71126,56.07818],[14.71307,56.07869],[14.71494,56.07898],[14.71796,56.07909],[14.71989,56.07898],[14.72565,56.07779],[14.72766,56.07693],[14.72894,56.07608],[14.7317,56.07335],[14.73231,56.07123],[14.7317,56.06848],[14.73102,56.06752],[14.72967,56.06642],[14.72905,56.0643],[14.72805,56.06282],[14.72974,56.06188],[14.73082,56.06095],[14.73155,56.05995],[14.73217,56.05825],[14.73526,56.05708],[14.73718,56.05563],[14.73814,56.05417],[14.73835,56.05232],[14.73774,56.05079],[14.73618,56.04922],[14.73347,56.04779],[14.73133,56.04709],[14.7289,56.04671],[14.72589,56.04671],[14.72093,56.04639],[14.71797,56.04668],[14.71497,56.04751],[14.70893,56.04581],[14.70715,56.0447],[14.70551,56.04404],[14.7018,56.04332],[14.70164,56.04314],[14.70252,56.04104],[14.70245,56.03962],[14.70173,56.03823],[14.7003,56.03692],[14.70007,56.03545],[14.6989,56.03379],[14.69686,56.03242],[14.69416,56.03147],[14.69163,56.03108],[14.68807,56.03106],[14.68556,56.03139],[14.68332,56.03206],[14.68141,56.03303],[14.67982,56.03448],[14.67764,56.03432],[14.67331,56.0344],[14.66968,56.03502],[14.66753,56.03587],[14.66496,56.03757],[14.66268,56.03806],[14.66107,56.03865],[14.65879,56.0401],[14.65657,56.04009],[14.6546,56.04031],[14.65106,56.04135],[14.64912,56.04247],[14.64768,56.044],[14.64326,56.04643],[14.64174,56.04757],[14.63944,56.05],[14.63901,56.05105],[14.63899,56.05247],[14.63989,56.05421],[14.64188,56.0559],[14.64442,56.05699],[14.64743,56.05758],[14.6494,56.05767],[14.65192,56.05748],[14.65491,56.05675],[14.65664,56.05606],[14.66005,56.05586],[14.66297,56.05516],[14.6648,56.05493],[14.66766,56.05543],[14.67053,56.0556],[14.67365,56.05645],[14.67754,56.0568],[14.679,56.05714],[14.67725,56.05816],[14.67625,56.05908],[14.67527,56.06115],[14.67524,56.06286],[14.67587,56.06423],[14.67677,56.06522],[14.67656,56.0667],[14.67729,56.06854],[14.67848,56.06975],[14.68033,56.07082],[14.68082,56.07231],[14.68236,56.074],[14.68464,56.07527],[14.68729,56.0761],[14.68849,56.08039],[14.69013,56.08234],[14.69191,56.08339],[14.69407,56.08414],[14.69649,56.08457],[14.69846,56.08466]]]}}]}