{"type":"FeatureCollection","features":[{"type":"Feature","id":"1214R001","properties":{"code":"1214R001","name":"Kågeröd-Billeberga omland"},"geometry":{"type":"Polygon","coordinates":[[[13.07045,56.08858],[13.07201,56.08694],[13.07503,56.08575],[13.07562,56.08578],[13.07642,56.08552],[13.07956,56.08652],[13.0892,56.08641],[13.08932,56.08656],[13.09335,56.08742],[13.09606,56.08852],[13.09785,56.08844],[13.09789,56.08768],[13.0991,56.08708],[13.10216,56.08674],[13.10318,56.08645],[13.10476,56.08527],[13.10697,56.08428],[13.11019,56.08396],[13.11171,56.08352],[13.11317,56.0821],[13.1135,56.08096],[13.11527,56.08018],[13.1173,56.08008],[13.11935,56.07972],[13.12059,56.07975],[13.1233,56.07916],[13.12635,56.07901],[13.1271,56.07846],[13.12675,56.07758],[13.12732,56.07722],[13.12902,56.07692],[13.1295,56.07648],[13.13156,56.07615],[13.13195,56.07576],[13.13237,56.07572],[13.13346,56.07514],[13.13589,56.07446],[13.14211,56.07221],[13.14507,56.07184],[13.14655,56.07203],[13.14843,56.072],[13.15293,56.07161],[13.15432,56.07138],[13.15525,56.07084],[13.15613,56.07073],[13.15711,56.07037],[13.15732,56.07019],[13.15688,56.07001],[13.15482,56.06982],[13.15562,56.06899],[13.15848,56.06816],[13.16187,56.06745],[13.16423,56.06637],[13.1689,56.06219],[13.17024,56.06053],[13.17106,56.05824],[13.17242,56.0583],[13.17267,56.05624],[13.16945,56.05458],[13.1673,56.05413],[13.16621,56.05343],[13.16915,56.05298],[13.1723,56.05284],[13.17827,56.0514],[13.1792,56.04926],[13.18957,56.04144],[13.18859,56.04041],[13.1884,56.03863],[13.18801,56.03817],[13.18299,56.03491],[13.18163,56.03367],[13.18489,56.03332],[13.18574,56.03295],[13.18679,56.03284],[13.18719,56.03258],[13.18922,56.03215],[13.19012,56.03146],[13.19123,56.03113],[13.19917,56.02988],[13.19926,56.02943],[13.20142,56.02825],[13.2042,56.02757],[13.20451,56.02735],[13.20543,56.0275],[13.20661,56.02741],[13.20943,56.02668],[13.21068,56.02664],[13.21272,56.02594],[13.2138,56.02578],[13.2173,56.02572],[13.21871,56.02548],[13.22034,56.02602],[13.22036,56.02492],[13.22382,56.02452],[13.22638,56.0239],[13.22691,56.02406],[13.22744,56.02399],[13.22777,56.02362],[13.22736,56.02313],[13.22866,56.02228],[13.22854,56.02197],[13.22894,56.02126],[13.2299,56.02048],[13.22949,56.01925],[13.23026,56.0187],[13.22974,56.0183],[13.2297,56.0169],[13.23176,56.01592],[13.23335,56.01552],[13.23595,56.01421],[13.25039,56.00925],[13.2508,56.00647],[13.24324,56.00282],[13.24277,56.00217],[13.2423,56.00201],[13.24144,56.00115],[13.24006,56.00082],[13.23959,56.00039],[13.23959,56.00014],[13.2429,55.99871],[13.24485,55.99578],[13.24463,55.99455],[13.24625,55.99397],[13.24605,55.99299],[13.2469,55.99127],[13.24993,55.98714],[13.25352,55.98803],[13.25446,55.99091],[13.25929,55.99202],[13.26172,55.99302],[13.26362,55.98917],[13.264,55.98742],[13.26632,55.985],[13.26792,55.98455],[13.26861,55.98219],[13.27037,55.98193],[13.27164,55.98234],[13.27255,55.98228],[13.2726,55.98255],[13.2759,55.98227],[13.27574,55.97917],[13.27649,55.97971],[13.27893,55.98064],[13.28035,55.9802],[13.28094,55.98021],[13.28161,55.98053],[13.28408,55.9802],[13.28538,55.97942],[13.28392,55.97715],[13.28207,55.97707],[13.28124,55.97617],[13.2837,55.97428],[13.2796,55.97419],[13.27673,55.97248],[13.27904,55.97117],[13.28089,55.97126],[13.28305,55.97108],[13.28683,55.96918],[13.2922,55.96784],[13.29083,55.96461],[13.28296,55.96287],[13.27606,55.96527],[13.2743,55.96265],[13.27701,55.95867],[13.27438,55.9564],[13.26751,55.95281],[13.26943,55.94647],[13.29206,55.94311],[13.29203,55.94322],[13.29851,55.94212],[13.29583,55.93792],[13.27595,55.92288],[13.27684,55.92036],[13.27988,55.9181],[13.28605,55.91483],[13.28802,55.91327],[13.2894,55.91101],[13.28964,55.90925],[13.29102,55.90834],[13.29231,55.90516],[13.29783,55.90361],[13.29819,55.90321],[13.29828,55.90205],[13.29879,55.90094],[13.29792,55.90029],[13.28977,55.90338],[13.28604,55.89205],[13.26831,55.8945],[13.25307,55.89893],[13.2508,55.89837],[13.24778,55.90198],[13.2493,55.9055],[13.25018,55.90573],[13.25163,55.90714],[13.25137,55.90764],[13.25047,55.90794],[13.24982,55.90858],[13.24979,55.90976],[13.24927,55.91115],[13.24971,55.91167],[13.24852,55.91231],[13.2471,55.91247],[13.24548,55.91398],[13.24035,55.91695],[13.22598,55.91278],[13.22548,55.91167],[13.21502,55.90794],[13.20837,55.902],[13.20134,55.90313],[13.20002,55.89545],[13.19342,55.89389],[13.18741,55.89051],[13.18246,55.88965],[13.17514,55.89254],[13.17234,55.89385],[13.16262,55.89681],[13.15913,55.89808],[13.15758,55.8984],[13.15153,55.90056],[13.14857,55.89917],[13.15041,55.89526],[13.14359,55.8938],[13.13954,55.8936],[13.13552,55.89239],[13.12971,55.88965],[13.12736,55.89004],[13.12673,55.88662],[13.12839,55.88257],[13.12824,55.8807],[13.13212,55.87491],[13.11744,55.8747],[13.11771,55.87264],[13.12123,55.87263],[13.12038,55.87176],[13.12056,55.87115],[13.12193,55.87102],[13.12709,55.87091],[13.13242,55.87146],[13.13232,55.86861],[13.13383,55.86813],[13.1332,55.86618],[13.13249,55.866],[13.1311,55.86376],[13.13198,55.86351],[13.13252,55.86301],[13.1342,55.86323],[13.13444,55.86199],[13.13516,55.86158],[13.13622,55.8623],[13.13761,55.86204],[13.13853,55.86254],[13.14087,55.86281],[13.14173,55.86267],[13.14222,55.8629],[13.14272,55.86226],[13.14269,55.86183],[13.14317,55.86143],[13.14544,55.86112],[13.14369,55.85858],[13.14523,55.85833],[13.14683,55.8583],[13.14643,55.85959],[13.14771,55.85931],[13.1559,55.85941],[13.15853,55.84956],[13.1583,55.84606],[13.15449,55.84519],[13.15339,55.84462],[13.15194,55.84433],[13.15094,55.84335],[13.14774,55.84103],[13.14689,55.83939],[13.1466,55.83289],[13.14617,55.82975],[13.11889,55.83091],[13.1133,55.8283],[13.10961,55.83121],[13.10903,55.83214],[13.10908,55.83131],[13.07978,55.83761],[13.08138,55.8396],[13.08071,55.84058],[13.08024,55.84074],[13.0808,55.84115],[13.07304,55.84297],[13.07397,55.84418],[13.07289,55.84593],[13.0703,55.84499],[13.06884,55.84595],[13.06777,55.84594],[13.06587,55.84451],[13.06584,55.84408],[13.06643,55.84321],[13.06431,55.84272],[13.06338,55.84275],[13.06292,55.84181],[13.06125,55.84156],[13.06075,55.84112],[13.05971,55.84108],[13.0596,55.84079],[13.05912,55.8407],[13.05904,55.84116],[13.05563,55.84464],[13.05366,55.84719],[13.05097,55.85191],[13.04797,55.85618],[13.04702,55.85921],[13.0432,55.85877],[13.03822,55.85962],[13.03299,55.86004],[13.03161,55.86032],[13.03083,55.86071],[13.01611,55.86276],[13.01551,55.85923],[13.01273,55.85828],[12.99475,55.85219],[12.97257,55.84799],[12.97222,55.85197],[12.96479,55.8583],[12.96483,55.85888],[12.96436,55.85933],[12.96327,55.85956],[12.96314,55.86063],[12.95996,55.86093],[12.9573,55.86177],[12.95756,55.86213],[12.95944,55.8622],[12.96176,55.86477],[12.96206,55.86671],[12.96136,55.86706],[12.9613,55.8674],[12.96346,55.86863],[12.96391,55.86966],[12.96451,55.87021],[12.96279,55.87101],[12.96261,55.87182],[12.96014,55.87228],[12.95954,55.87259],[12.95884,55.87346],[12.96174,55.87469],[12.97258,55.87602],[12.97255,55.87636],[12.97566,55.87777],[12.97982,55.87857],[12.9817,55.88277],[12.97913,55.88298],[12.97839,55.88337],[12.97854,55.88398],[12.97912,55.88395],[12.98147,55.89079],[12.98276,55.89073],[12.99296,55.88922],[12.99533,55.89275],[12.98343,55.89601],[12.98829,55.89862],[12.9976,55.89634],[12.99986,55.90318],[12.99823,55.90724],[12.99583,55.90706],[12.99256,55.90755],[12.98831,55.90757],[12.98467,55.90351],[12.97874,55.90356],[12.98036,55.90684],[12.97148,55.90824],[12.9711,55.91028],[12.97073,55.91035],[12.96982,55.91533],[12.97007,55.91571],[12.96956,55.91864],[12.96241,55.91912],[12.9625,55.91967],[12.95471,55.9204],[12.95497,55.92301],[12.95458,55.92042],[12.95141,55.92072],[12.95051,55.92311],[12.94375,55.92198],[12.94465,55.92842],[12.95202,55.92808],[12.95225,55.93294],[12.95201,55.93401],[12.95227,55.93408],[12.95145,55.93713],[12.95213,55.94252],[12.95635,55.95078],[12.95986,55.95042],[12.97022,55.95182],[12.9712,55.95474],[12.97167,55.95524],[12.97169,55.95588],[12.97366,55.95836],[12.97435,55.95863],[12.97478,55.95872],[12.98075,55.95719],[12.98122,55.96358],[12.98592,55.96371],[12.98691,55.96612],[12.98601,55.9663],[12.98915,55.97695],[12.98904,55.97784],[12.98829,55.97938],[12.9873,55.97994],[12.99037,55.98284],[12.99167,55.98375],[12.9937,55.98476],[12.99428,55.98596],[12.9944,55.98749],[12.99805,55.98782],[13.00078,55.98913],[13.00089,55.98966],[13.00187,55.99035],[13.00447,55.99116],[13.00479,55.99045],[13.00415,55.98969],[13.00459,55.9896],[13.00453,55.98907],[13.01039,55.98974],[13.00991,55.9906],[13.01058,55.99126],[13.01059,55.9918],[13.00393,55.99725],[13.00214,56.00506],[13.00428,56.005],[13.00867,56.00318],[13.01377,56.00246],[13.01976,56.00187],[13.02487,56.00159],[13.02979,56.00008],[13.03132,56.00271],[13.03358,56.00497],[13.03522,56.00473],[13.03362,56.00502],[13.03015,56.00647],[13.03278,56.00855],[13.0278,56.01033],[13.0272,56.01128],[13.02637,56.01136],[13.02337,56.00861],[13.01723,56.01045],[13.01335,56.01294],[13.015,56.01461],[13.02261,56.0183],[13.0216,56.02153],[13.02063,56.02641],[13.0226,56.0286],[13.02479,56.02952],[13.02527,56.03186],[13.02243,56.03532],[13.02492,56.03593],[13.02017,56.0373],[13.00817,56.03947],[13.01766,56.04236],[13.02479,56.04827],[13.0354,56.04946],[13.03737,56.0486],[13.03945,56.0469],[13.0415,56.05025],[13.04305,56.05136],[13.0433,56.05284],[13.04277,56.05372],[13.04276,56.05431],[13.04638,56.05621],[13.04983,56.05766],[13.04936,56.05784],[13.04967,56.0581],[13.0495,56.05829],[13.04869,56.05836],[13.04823,56.0587],[13.04979,56.0597],[13.05184,56.06031],[13.05378,56.06163],[13.05677,56.06313],[13.05783,56.06341],[13.05546,56.06491],[13.05417,56.06637],[13.0546,56.06655],[13.0547,56.06737],[13.05542,56.06785],[13.05761,56.06844],[13.05908,56.06853],[13.05924,56.06901],[13.06051,56.06927],[13.06256,56.06893],[13.06897,56.0671],[13.06999,56.06711],[13.07297,56.06823],[13.07233,56.06906],[13.0723,56.06986],[13.07167,56.07023],[13.07049,56.07029],[13.06929,56.0707],[13.0683,56.07203],[13.06906,56.07286],[13.07063,56.07553],[13.07287,56.07678],[13.07272,56.07814],[13.07314,56.07889],[13.07271,56.07954],[13.07347,56.08125],[13.07315,56.08142],[13.07327,56.08189],[13.07238,56.08344],[13.0724,56.08404],[13.07197,56.08425],[13.07047,56.08396],[13.06939,56.0846],[13.06839,56.08457],[13.06748,56.0848],[13.06637,56.08573],[13.06539,56.08616],[13.06529,56.08642],[13.06596,56.08634],[13.06629,56.08679],[13.0673,56.08699],[13.06787,56.08732],[13.06834,56.08737],[13.06895,56.08713],[13.07045,56.08858]],[[13.07126,55.86436],[13.07166,55.86262],[13.07237,55.86162],[13.07514,55.85904],[13.07682,55.85798],[13.07895,55.85718],[13.08131,55.85671],[13.08281,55.85602],[13.08445,55.85615],[13.08889,55.85505],[13.09015,55.85513],[13.09305,55.85556],[13.09533,55.85624],[13.09739,55.85733],[13.09935,55.85786],[13.10095,55.85854],[13.10229,55.85937],[13.10345,55.86045],[13.10704,55.86149],[13.10918,55.86264],[13.11093,55.8632],[13.11239,55.8639],[13.11392,55.86506],[13.11487,55.86637],[13.11519,55.86746],[13.11503,55.86888],[13.11329,55.87133],[13.11066,55.87289],[13.10719,55.87378],[13.10529,55.87394],[13.10306,55.87386],[13.10265,55.87577],[13.10168,55.87713],[13.09856,55.87927],[13.09663,55.88015],[13.09439,55.88073],[13.09255,55.88095],[13.0902,55.88101],[13.08798,55.88076],[13.08473,55.8813],[13.0815,55.88122],[13.078,55.88041],[13.07516,55.87901],[13.0734,55.8771],[13.073,55.87519],[13.0702,55.87397],[13.06822,55.87214],[13.06761,55.87039],[13.06794,55.86812],[13.06889,55.86624],[13.06982,55.8653],[13.07126,55.86436]],[[13.09073,55.93043],[13.08957,55.92922],[13.08886,55.92789],[13.08885,55.92614],[13.08999,55.92383],[13.08844,55.92172],[13.08803,55.91965],[13.08728,55.91869],[13.08389,55.91554],[13.08254,55.91305],[13.08226,55.91184],[13.08015,55.91011],[13.07929,55.90879],[13.07908,55.90707],[13.07995,55.90517],[13.08121,55.90398],[13.08512,55.90159],[13.08661,55.90091],[13.08887,55.90027],[13.09139,55.89997],[13.09332,55.89998],[13.09549,55.90025],[13.1002,55.89991],[13.10258,55.89898],[13.10562,55.89844],[13.11038,55.8983],[13.11349,55.89866],[13.11577,55.89933],[13.11801,55.90056],[13.11928,55.90182],[13.12009,55.90344],[13.12205,55.90434],[13.12587,55.90655],[13.1273,55.90778],[13.1281,55.909],[13.12842,55.91124],[13.12767,55.91309],[13.12603,55.91464],[13.12288,55.91635],[13.12335,55.91812],[13.12662,55.92444],[13.12664,55.92586],[13.126,55.92726],[13.12394,55.92907],[13.12082,55.93033],[13.11367,55.93176],[13.11176,55.93191],[13.1094,55.93182],[13.10753,55.93245],[13.10507,55.93289],[13.09938,55.93293],[13.09644,55.93268],[13.09338,55.93189],[13.09073,55.93043]]]}},{"type":"Feature","id":"1214R002","properties":{"code":"1214R002","name":"Röstånga"},"geometry":{"type":"Polygon","coordinates":[[[13.31197,56.02994],[13.31354,56.02982],[13.3136,56.02903],[13.3155,56.02836],[13.31505,56.02717],[13.31614,56.02664],[13.31788,56.02621],[13.32415,56.02192],[13.33106,56.01826],[13.34019,56.01447],[13.33474,56.01008],[13.33604,56.00672],[13.32914,55.99663],[13.32292,55.99027],[13.32034,55.98662],[13.31765,55.98482],[13.31425,55.98023],[13.31092,55.97753],[13.31093,55.97626],[13.31067,55.97625],[13.31028,55.97483],[13.30388,55.97563],[13.29385,55.97171],[13.2922,55.96784],[13.28683,55.96918],[13.28305,55.97108],[13.28089,55.97126],[13.27904,55.97117],[13.27673,55.97248],[13.2796,55.97419],[13.2837,55.97428],[13.28124,55.97617],[13.28207,55.97707],[13.28392,55.97715],[13.28538,55.97942],[13.28408,55.9802],[13.28161,55.98053],[13.28094,55.98021],[13.28035,55.9802],[13.27893,55.98064],[13.27649,55.97971],[13.27574,55.97917],[13.2759,55.98227],[13.2726,55.98255],[13.27255,55.98228],[13.27164,55.98234],[13.27037,55.98193],[13.26861,55.98219],[13.26792,55.98455],[13.26632,55.985],[13.264,55.98742],[13.26362,55.98917],[13.26172,55.99302],[13.25929,55.99202],[13.25446,55.99091],[13.25352,55.98803],[13.24993,55.98714],[13.2469,55.99127],[13.24605,55.99299],[13.24625,55.99397],[13.24463,55.99455],[13.24485,55.99578],[13.2429,55.99871],[13.23959,56.00014],[13.23959,56.00039],[13.24006,56.00082],[13.24144,56.00115],[13.2423,56.00201],[13.24277,56.00217],[13.24324,56.00282],[13.2508,56.00647],[13.25039,56.00925],[13.23776,56.01367],[13.23999,56.01448],[13.23928,56.0156],[13.2455,56.02552],[13.26485,56.02739],[13.2678,56.02736],[13.27249,56.02509],[13.27867,56.02591],[13.28286,56.02586],[13.29233,56.02401],[13.294,56.02391],[13.29937,56.02444],[13.30502,56.0269],[13.30619,56.02687],[13.30724,56.02708],[13.30794,56.02784],[13.30849,56.02785],[13.30871,56.02818],[13.30932,56.0283],[13.30949,56.02874],[13.31035,56.02918],[13.31133,56.02933],[13.31146,56.02968],[13.31197,56.02994]]]}},{"type":"Feature","id":"1214R003","properties":{"code":"1214R003","name":"Svalöv"},"geometry":{"type":"Polygon","coordinates":[[[13.09751,55.93282],[13.1038,55.93297],[13.10571,55.93281],[13.10753,55.93245],[13.1094,55.93182],[13.11176,55.93191],[13.11367,55.93176],[13.12082,55.93033],[13.12253,55.92977],[13.12438,55.9288],[13.12574,55.9276],[13.12654,55.92622],[13.12652,55.92407],[13.12439,55.92035],[13.12406,55.9192],[13.12335,55.91812],[13.12288,55.91635],[13.12603,55.91464],[13.12773,55.913],[13.12827,55.91192],[13.12846,55.91055],[13.12793,55.90867],[13.12702,55.90747],[13.12587,55.90655],[13.12205,55.90434],[13.12009,55.90344],[13.11928,55.90182],[13.11763,55.90029],[13.11465,55.89895],[13.11164,55.89837],[13.10972,55.89829],[13.10497,55.89851],[13.10258,55.89898],[13.1002,55.89991],[13.09768,55.90014],[13.09549,55.90025],[13.092,55.89995],[13.0883,55.9004],[13.0856,55.90134],[13.08121,55.90398],[13.07995,55.90517],[13.07917,55.90671],[13.07909,55.90812],[13.07965,55.90946],[13.08094,55.91088],[13.08226,55.91184],[13.08254,55.91305],[13.08389,55.91554],[13.08728,55.91869],[13.08803,55.91965],[13.08844,55.92172],[13.08999,55.92383],[13.089,55.92571],[13.08874,55.92685],[13.08898,55.92823],[13.08982,55.92952],[13.09151,55.93098],[13.09414,55.93215],[13.09751,55.93282]]]}},{"type":"Feature","id":"1214R004","properties":{"code":"1214R004","name":"Teckomatorp"},"geometry":{"type":"Polygon","coordinates":[[[13.08402,55.88133],[13.08597,55.88117],[13.08798,55.88076],[13.0902,55.88101],[13.09316,55.8809],[13.09496,55.88062],[13.09716,55.87995],[13.1002,55.87828],[13.10171,55.87711],[13.10265,55.87577],[13.10306,55.87386],[13.10529,55.87394],[13.10719,55.87378],[13.10959,55.87326],[13.11118,55.87266],[13.11363,55.87101],[13.11472,55.86957],[13.11513,55.86851],[13.11512,55.8671],[13.11447,55.8657],[13.11323,55.86446],[13.11192,55.86364],[13.10918,55.86264],[13.10704,55.86149],[13.10345,55.86045],[13.10229,55.85937],[13.10095,55.85854],[13.09935,55.85786],[13.09739,55.85733],[13.09533,55.85624],[13.09305,55.85556],[13.08954,55.85508],[13.08889,55.85505],[13.08445,55.85615],[13.08281,55.85602],[13.08131,55.85671],[13.07786,55.85753],[13.07592,55.85848],[13.07209,55.86196],[13.0715,55.86298],[13.07126,55.86436],[13.06982,55.8653],[13.06889,55.86624],[13.06775,55.86882],[13.06765,55.87073],[13.06822,55.87214],[13.0702,55.87397],[13.073,55.87519],[13.0734,55.8771],[13.0748,55.87873],[13.07649,55.87978],[13.07911,55.88077],[13.0815,55.88122],[13.08402,55.88133]]]}}]}