{"type":"FeatureCollection","features":[{"type":"Feature","id":"1231R001","properties":{"code":"1231R001","name":"Burlöv södra"},"geometry":{"type":"Polygon","coordinates":[[[13.08937,55.64595],[13.09277,55.646],[13.09813,55.64549],[13.1045,55.64452],[13.10606,55.64327],[13.10754,55.64157],[13.10832,55.64124],[13.11052,55.64079],[13.11909,55.6403],[13.11919,55.6411],[13.11908,55.64022],[13.11824,55.63828],[13.11689,55.63692],[13.12013,55.63613],[13.11975,55.63545],[13.12035,55.63536],[13.11941,55.63357],[13.11504,55.63379],[13.11298,55.63247],[13.10902,55.63152],[13.11247,55.62104],[13.11279,55.62105],[13.1132,55.61952],[13.11403,55.62013],[13.11483,55.6203],[13.11594,55.62],[13.11609,55.6195],[13.1164,55.61942],[13.1186,55.61974],[13.11919,55.6199],[13.11941,55.62065],[13.12066,55.62082],[13.12117,55.62037],[13.12166,55.62037],[13.12355,55.62092],[13.12447,55.62146],[13.12491,55.62101],[13.12471,55.62033],[13.13069,55.62024],[13.13046,55.61758],[13.12498,55.60769],[13.11545,55.60762],[13.11529,55.60824],[13.11489,55.60808],[13.11437,55.60827],[13.11322,55.607],[13.10814,55.6041],[13.10356,55.60498],[13.09597,55.60482],[13.09525,55.60632],[13.09279,55.60861],[13.09188,55.61041],[13.09036,55.61032],[13.08894,55.6098],[13.0889,55.61197],[13.08742,55.61169],[13.08733,55.6119],[13.08362,55.61122],[13.08186,55.61326],[13.08173,55.61351],[13.08213,55.61378],[13.08125,55.61338],[13.08031,55.61322],[13.07644,55.6135],[13.07409,55.61224],[13.07076,55.61195],[13.06865,55.61145],[13.06741,55.6119],[13.06681,55.61238],[13.06824,55.61437],[13.06766,55.61733],[13.06804,55.61891],[13.06947,55.61912],[13.06865,55.62187],[13.06709,55.62186],[13.06725,55.62294],[13.06677,55.62345],[13.07228,55.62522],[13.07533,55.62646],[13.09422,55.63593],[13.09189,55.638],[13.08876,55.64014],[13.08371,55.63788],[13.08074,55.64007],[13.08712,55.64362],[13.08701,55.64417],[13.08943,55.64552],[13.08937,55.64595]]]}},{"type":"Feature","id":"1231R002","properties":{"code":"1231R002","name":"Norra Åkarp"},"geometry":{"type":"Polygon","coordinates":[[[13.11203,55.66612],[13.11657,55.66228],[13.10164,55.65344],[13.1009,55.65362],[13.09947,55.6534],[13.0988,55.6548],[13.09896,55.65779],[13.09849,55.65918],[13.09877,55.66164],[13.09955,55.66164],[13.09984,55.6643],[13.10282,55.66443],[13.10284,55.66428],[13.10948,55.66605],[13.11203,55.66612]]]}},{"type":"Feature","id":"1231R003","properties":{"code":"1231R003","name":"Svenshög-Elisetorp"},"geometry":{"type":"Polygon","coordinates":[[[13.08712,55.64362],[13.08074,55.64007],[13.08371,55.63788],[13.08876,55.64014],[13.09189,55.638],[13.09422,55.63593],[13.07722,55.62734],[13.07493,55.6319],[13.07514,55.63284],[13.08361,55.6337],[13.07963,55.63751],[13.07712,55.63899],[13.08943,55.64623],[13.08943,55.64552],[13.08701,55.64417],[13.08712,55.64362]]]}},{"type":"Feature","id":"1231R004","properties":{"code":"1231R004","name":"Södra Arlöv"},"geometry":{"type":"Polygon","coordinates":[[[13.07712,55.63899],[13.07963,55.63751],[13.08361,55.6337],[13.07514,55.63284],[13.07493,55.6319],[13.07722,55.62734],[13.07228,55.62522],[13.06677,55.62345],[13.06631,55.62393],[13.06712,55.62513],[13.06731,55.62679],[13.06779,55.62775],[13.06732,55.62882],[13.067,55.62882],[13.06729,55.62981],[13.06655,55.63087],[13.06461,55.62979],[13.06379,55.62906],[13.06355,55.62915],[13.06105,55.6271],[13.05904,55.62787],[13.06198,55.62975],[13.06152,55.62993],[13.07712,55.63899]]]}},{"type":"Feature","id":"1231R005","properties":{"code":"1231R005","name":"Södra Åkarp"},"geometry":{"type":"Polygon","coordinates":[[[13.12457,55.65827],[13.1311,55.65848],[13.13652,55.6556],[13.13161,55.6534],[13.13297,55.65286],[13.1333,55.65331],[13.13361,55.65328],[13.13216,55.65193],[13.12745,55.64839],[13.1272,55.64831],[13.12605,55.64862],[13.1229,55.6498],[13.12182,55.64428],[13.11978,55.64424],[13.11952,55.6439],[13.11909,55.6403],[13.11162,55.64064],[13.10832,55.64124],[13.10725,55.64177],[13.10606,55.64327],[13.1045,55.64452],[13.09867,55.64542],[13.09479,55.64581],[13.09277,55.646],[13.08937,55.64595],[13.08943,55.64623],[13.09083,55.64711],[13.11657,55.66228],[13.11699,55.66207],[13.11694,55.66159],[13.11765,55.66032],[13.11814,55.65827],[13.12457,55.65827]]]}},{"type":"Feature","id":"1231R006","properties":{"code":"1231R006","name":"Tågarp"},"geometry":{"type":"Polygon","coordinates":[[[13.10164,55.65344],[13.06152,55.62993],[13.06123,55.63004],[13.06335,55.63138],[13.05205,55.63563],[13.04068,55.63771],[13.0169,55.64089],[13.05316,55.64082],[13.06196,55.64222],[13.064,55.64357],[13.06597,55.64441],[13.07188,55.64586],[13.07219,55.64625],[13.07724,55.64753],[13.07789,55.64788],[13.07891,55.64905],[13.07954,55.64915],[13.08024,55.649],[13.08133,55.64789],[13.09279,55.65037],[13.09307,55.65081],[13.09547,55.65144],[13.09676,55.65232],[13.09925,55.65283],[13.09954,55.65303],[13.09947,55.6534],[13.1009,55.65362],[13.10164,55.65344]]]}}]}