{"type":"FeatureCollection","features":[{"type":"Feature","id":"1256R001","properties":{"code":"1256R001","name":"Broby väst"},"geometry":{"type":"Polygon","coordinates":[[[14.05631,56.27083],[14.05852,56.2694],[14.05922,56.2685],[14.0602,56.26784],[14.06357,56.26631],[14.06594,56.26405],[14.06983,56.26186],[14.07401,56.25847],[14.07268,56.25694],[14.07059,56.25032],[14.06925,56.24927],[14.06456,56.24714],[14.06349,56.24636],[14.0629,56.24558],[14.06451,56.24431],[14.06956,56.24124],[14.0673,56.24069],[14.06468,56.24055],[14.06189,56.2408],[14.05805,56.24169],[14.05537,56.24279],[14.05408,56.24366],[14.05305,56.24474],[14.05227,56.24682],[14.0513,56.24796],[14.0498,56.2506],[14.04349,56.25008],[14.04099,56.25028],[14.03759,56.2509],[14.03536,56.25165],[14.03357,56.25266],[14.03253,56.2536],[14.03171,56.25494],[14.03151,56.25638],[14.03205,56.25805],[14.03296,56.25921],[14.03483,56.26078],[14.03723,56.26197],[14.03954,56.26258],[14.04163,56.26282],[14.04343,56.26376],[14.0457,56.26446],[14.04883,56.26485],[14.05257,56.26466],[14.05231,56.26622],[14.05293,56.26818],[14.05448,56.26988],[14.05583,56.27073],[14.05631,56.27083]]]}},{"type":"Feature","id":"1256R002","properties":{"code":"1256R002","name":"Broby öst"},"geometry":{"type":"Polygon","coordinates":[[[14.09025,56.2768],[14.09305,56.27648],[14.09527,56.27589],[14.09715,56.27501],[14.09857,56.2739],[14.09954,56.27266],[14.09994,56.2716],[14.09997,56.27052],[14.09955,56.26931],[14.10169,56.26861],[14.10318,56.26785],[14.1047,56.26666],[14.10547,56.26562],[14.10588,56.26339],[14.10565,56.26225],[14.10495,56.26109],[14.10954,56.26116],[14.11214,56.26087],[14.11523,56.26001],[14.11764,56.25866],[14.12036,56.25625],[14.12127,56.25493],[14.12155,56.25349],[14.12099,56.25173],[14.11944,56.25014],[14.11711,56.24892],[14.11238,56.24764],[14.10922,56.24714],[14.1073,56.2462],[14.10493,56.24553],[14.10128,56.24501],[14.09865,56.24496],[14.09666,56.24517],[14.09157,56.24612],[14.08951,56.24568],[14.08673,56.24358],[14.08369,56.24243],[14.08042,56.24198],[14.07707,56.24207],[14.07409,56.24141],[14.07021,56.24132],[14.06951,56.24112],[14.06451,56.24431],[14.0629,56.24558],[14.06349,56.24636],[14.06456,56.24714],[14.06925,56.24927],[14.07059,56.25032],[14.07268,56.25694],[14.07401,56.25847],[14.06983,56.26186],[14.06594,56.26405],[14.06357,56.26631],[14.06105,56.26734],[14.05956,56.26824],[14.05852,56.2694],[14.05621,56.27092],[14.0585,56.27175],[14.06178,56.27228],[14.06545,56.27229],[14.06842,56.27181],[14.07066,56.27348],[14.07388,56.27462],[14.07767,56.27503],[14.08111,56.27469],[14.08272,56.27541],[14.08587,56.27642],[14.08774,56.27671],[14.09025,56.2768]]]}},{"type":"Feature","id":"1256R003","properties":{"code":"1256R003","name":"Glimåkra"},"geometry":{"type":"Polygon","coordinates":[[[14.14078,56.32325],[14.1451,56.32275],[14.14732,56.32229],[14.14906,56.32171],[14.15109,56.32063],[14.15257,56.31923],[14.15472,56.3177],[14.15793,56.31682],[14.16018,56.31554],[14.16162,56.31392],[14.16205,56.31211],[14.16344,56.31093],[14.16437,56.30958],[14.16485,56.3075],[14.16404,56.3054],[14.16234,56.30388],[14.16039,56.30292],[14.15811,56.30228],[14.15418,56.30176],[14.15288,56.30132],[14.14985,56.29895],[14.14936,56.29679],[14.14765,56.29489],[14.14629,56.29409],[14.14437,56.29334],[14.14197,56.29192],[14.14004,56.29046],[14.13586,56.28851],[14.13347,56.28793],[14.13032,56.28772],[14.12712,56.28807],[14.12371,56.28915],[14.1211,56.2884],[14.11866,56.2881],[14.11571,56.28812],[14.11304,56.28857],[14.11043,56.2895],[14.10824,56.29107],[14.10709,56.29276],[14.10692,56.29472],[14.10757,56.29618],[14.10898,56.29761],[14.11209,56.29974],[14.11485,56.3009],[14.11516,56.30142],[14.11448,56.3028],[14.11445,56.30424],[14.11492,56.30569],[14.11589,56.30725],[14.11689,56.30821],[14.11848,56.30917],[14.11966,56.31105],[14.12059,56.31194],[14.12232,56.31297],[14.12441,56.31372],[14.12497,56.31492],[14.12618,56.31616],[14.12749,56.317],[14.1293,56.31775],[14.13001,56.31952],[14.13165,56.32108],[14.13356,56.32209],[14.13602,56.32284],[14.13859,56.3232],[14.14078,56.32325]]]}},{"type":"Feature","id":"1256R004","properties":{"code":"1256R004","name":"Hanaskog"},"geometry":{"type":"Polygon","coordinates":[[[14.09867,56.17349],[14.10388,56.17307],[14.10618,56.17245],[14.1077,56.17178],[14.10973,56.17047],[14.11201,56.16939],[14.11323,56.1685],[14.1145,56.16679],[14.11482,56.16523],[14.11426,56.16346],[14.11343,56.16244],[14.11216,56.16145],[14.11033,56.15752],[14.10977,56.15544],[14.10987,56.15346],[14.10873,56.15069],[14.10803,56.14968],[14.1055,56.14693],[14.10344,56.14553],[14.10016,56.14445],[14.09635,56.14411],[14.09379,56.14434],[14.08999,56.14523],[14.08669,56.1465],[14.0851,56.14766],[14.08402,56.1491],[14.08345,56.15119],[14.08352,56.15264],[14.07762,56.15539],[14.07563,56.15532],[14.07312,56.15555],[14.07036,56.15618],[14.06826,56.15699],[14.06692,56.15781],[14.06565,56.15904],[14.06508,56.16007],[14.06489,56.16148],[14.06534,56.16291],[14.06747,56.16627],[14.06859,56.16722],[14.07128,56.16889],[14.07327,56.16982],[14.07621,56.17053],[14.08144,56.17102],[14.08411,56.17151],[14.08695,56.17161],[14.08944,56.17135],[14.09442,56.17305],[14.09653,56.17339],[14.09867,56.17349]]]}},{"type":"Feature","id":"1256R005","properties":{"code":"1256R005","name":"Knislinge väst"},"geometry":{"type":"Polygon","coordinates":[[[14.06555,56.20846],[14.06889,56.20806],[14.07177,56.20721],[14.07457,56.20836],[14.07765,56.20364],[14.07951,56.19981],[14.08045,56.19722],[14.0807,56.19428],[14.08109,56.19308],[14.08157,56.19318],[14.08152,56.19375],[14.08235,56.19369],[14.08298,56.19406],[14.08605,56.19247],[14.08545,56.19219],[14.08521,56.19176],[14.08732,56.19188],[14.08903,56.19249],[14.09185,56.19299],[14.09495,56.1948],[14.09566,56.19547],[14.09618,56.19543],[14.09638,56.19448],[14.09816,56.19368],[14.0989,56.19361],[14.09959,56.19318],[14.0997,56.19216],[14.10087,56.19192],[14.10034,56.19092],[14.10028,56.18984],[14.10062,56.18894],[14.10239,56.18758],[14.10269,56.18704],[14.10197,56.18624],[14.10055,56.18551],[14.10058,56.18481],[14.10149,56.1844],[14.10384,56.18424],[14.10427,56.18393],[14.10435,56.1831],[14.10159,56.18235],[14.09906,56.18203],[14.09647,56.18209],[14.09391,56.18252],[14.09166,56.18089],[14.08965,56.18001],[14.08726,56.17944],[14.08408,56.17922],[14.08156,56.17944],[14.07972,56.17986],[14.07714,56.18084],[14.07504,56.18194],[14.07241,56.1818],[14.06916,56.18216],[14.06718,56.18202],[14.0646,56.18217],[14.06164,56.18283],[14.05919,56.18398],[14.0575,56.1855],[14.05664,56.18728],[14.05684,56.18945],[14.05611,56.19086],[14.05563,56.19321],[14.05585,56.1954],[14.05338,56.19643],[14.05141,56.19798],[14.05045,56.1997],[14.05041,56.20127],[14.05087,56.20245],[14.05166,56.20348],[14.05346,56.2051],[14.05515,56.20611],[14.06099,56.20805],[14.06293,56.20836],[14.06555,56.20846]]]}},{"type":"Feature","id":"1256R006","properties":{"code":"1256R006","name":"Knislinge öst"},"geometry":{"type":"Polygon","coordinates":[[[14.10685,56.21281],[14.10956,56.21263],[14.11193,56.2122],[14.11405,56.21144],[14.11573,56.21042],[14.11711,56.20885],[14.11752,56.20696],[14.11889,56.20539],[14.11935,56.2035],[14.11894,56.202],[14.11821,56.20096],[14.11675,56.19974],[14.11496,56.19883],[14.1148,56.197],[14.11326,56.19478],[14.11453,56.19328],[14.1153,56.19152],[14.11525,56.19014],[14.11458,56.18881],[14.11251,56.18708],[14.11053,56.18622],[14.10845,56.1857],[14.10681,56.18424],[14.10435,56.1831],[14.10427,56.18393],[14.10384,56.18424],[14.10149,56.1844],[14.10058,56.18481],[14.10055,56.18551],[14.10197,56.18624],[14.10269,56.18704],[14.10239,56.18758],[14.10062,56.18894],[14.10028,56.18984],[14.10034,56.19092],[14.10087,56.19192],[14.0997,56.19216],[14.09959,56.19318],[14.0989,56.19361],[14.09816,56.19368],[14.09638,56.19448],[14.09618,56.19543],[14.09566,56.19547],[14.09495,56.1948],[14.09185,56.19299],[14.08903,56.19249],[14.08732,56.19188],[14.08521,56.19176],[14.08545,56.19219],[14.08605,56.19247],[14.08298,56.19406],[14.08235,56.19369],[14.08152,56.19375],[14.08157,56.19318],[14.08109,56.19308],[14.0807,56.19428],[14.08045,56.19722],[14.07951,56.19981],[14.07765,56.20364],[14.07457,56.20836],[14.07818,56.20902],[14.0803,56.20907],[14.08215,56.2089],[14.08446,56.20838],[14.08646,56.20756],[14.08804,56.20647],[14.0889,56.20547],[14.09155,56.20587],[14.09437,56.20585],[14.09559,56.20713],[14.0959,56.20831],[14.09657,56.20938],[14.0989,56.2112],[14.10228,56.21241],[14.10422,56.21272],[14.10685,56.21281]]]}},{"type":"Feature","id":"1256R007","properties":{"code":"1256R007","name":"Sibbhult"},"geometry":{"type":"Polygon","coordinates":[[[14.20003,56.28497],[14.20225,56.28485],[14.20461,56.28441],[14.2067,56.28366],[14.20864,56.2825],[14.21002,56.28126],[14.21066,56.28022],[14.21091,56.2792],[14.21076,56.27739],[14.21263,56.27701],[14.21477,56.27623],[14.21718,56.27458],[14.22006,56.27322],[14.223,56.27071],[14.22418,56.26857],[14.224,56.26668],[14.22278,56.26494],[14.22014,56.26324],[14.21844,56.26264],[14.21623,56.26217],[14.21472,56.26022],[14.21536,56.2601],[14.21371,56.25885],[14.21297,56.25866],[14.20781,56.25296],[14.20595,56.2545],[14.20356,56.25413],[14.20156,56.25406],[14.19958,56.2542],[14.19678,56.25468],[14.19517,56.25519],[14.19163,56.25678],[14.18994,56.2577],[14.1888,56.25863],[14.18399,56.2591],[14.18064,56.26002],[14.17915,56.26072],[14.17761,56.26185],[14.17621,56.26359],[14.17574,56.26466],[14.17573,56.26623],[14.17486,56.2686],[14.17477,56.26973],[14.17524,56.27117],[14.17642,56.27259],[14.18009,56.27545],[14.18198,56.27645],[14.18608,56.27755],[14.18883,56.27792],[14.18914,56.27934],[14.19021,56.28125],[14.19121,56.28223],[14.19318,56.28348],[14.19633,56.28459],[14.20003,56.28497]]]}},{"type":"Feature","id":"1256R008","properties":{"code":"1256R008","name":"Östra Göinge landsbygd"},"geometry":{"type":"Polygon","coordinates":[[[14.22648,56.45412],[14.23018,56.45408],[14.23094,56.45312],[14.23141,56.45295],[14.23349,56.45276],[14.23505,56.45285],[14.2375,56.4521],[14.23811,56.45251],[14.23899,56.45268],[14.24057,56.45226],[14.2414,56.45232],[14.24152,56.4521],[14.24328,56.45151],[14.24419,56.45083],[14.24502,56.4494],[14.24624,56.44876],[14.24651,56.44794],[14.24559,56.44642],[14.24692,56.44441],[14.24644,56.44328],[14.24439,56.44262],[14.24437,56.44146],[14.24585,56.44047],[14.24317,56.43606],[14.24138,56.43522],[14.24157,56.43492],[14.24129,56.43451],[14.24037,56.43428],[14.24018,56.43345],[14.24088,56.43288],[14.24065,56.4324],[14.23971,56.43143],[14.2387,56.43131],[14.23654,56.43018],[14.23754,56.429],[14.23744,56.42858],[14.23613,56.42829],[14.23632,56.42759],[14.23595,56.42721],[14.23595,56.42641],[14.23518,56.42606],[14.23637,56.42527],[14.23621,56.4249],[14.23508,56.42454],[14.23484,56.42412],[14.23361,56.42361],[14.23344,56.42305],[14.23383,56.42274],[14.23328,56.42246],[14.23335,56.42172],[14.23311,56.4216],[14.23362,56.42138],[14.23344,56.42105],[14.23241,56.42044],[14.23231,56.41972],[14.23116,56.41857],[14.23137,56.41795],[14.23052,56.41772],[14.23067,56.41744],[14.23021,56.41729],[14.22995,56.41688],[14.22932,56.41671],[14.22917,56.41596],[14.22854,56.41569],[14.22845,56.41449],[14.22799,56.41436],[14.22614,56.41164],[14.22612,56.4102],[14.22554,56.40971],[14.22524,56.40886],[14.22435,56.40804],[14.22442,56.40709],[14.22397,56.40659],[14.22417,56.40643],[14.22359,56.40612],[14.22314,56.40526],[14.22148,56.40428],[14.22101,56.4036],[14.22182,56.40335],[14.22156,56.40262],[14.22208,56.4024],[14.22218,56.40201],[14.22164,56.4017],[14.22127,56.40104],[14.22057,56.4009],[14.22052,56.4005],[14.21917,56.39982],[14.2193,56.39904],[14.21905,56.39872],[14.21755,56.39826],[14.21682,56.3977],[14.21694,56.39752],[14.21759,56.39741],[14.21772,56.39706],[14.21641,56.39628],[14.21623,56.39593],[14.21552,56.3957],[14.21556,56.3954],[14.21467,56.39467],[14.21526,56.3939],[14.21542,56.39309],[14.21431,56.39263],[14.21412,56.39111],[14.21334,56.3906],[14.21403,56.38969],[14.21346,56.38952],[14.21421,56.38877],[14.21343,56.38832],[14.21334,56.38774],[14.21458,56.38714],[14.21574,56.38739],[14.21679,56.38701],[14.21665,56.38601],[14.21628,56.38577],[14.21587,56.38578],[14.21563,56.38551],[14.21648,56.38494],[14.21618,56.38454],[14.21652,56.38428],[14.2162,56.38371],[14.2146,56.3826],[14.21341,56.38223],[14.21329,56.38195],[14.214,56.38164],[14.21393,56.38123],[14.21253,56.38064],[14.21266,56.38013],[14.21337,56.37996],[14.21294,56.3793],[14.21275,56.37742],[14.21173,56.37559],[14.21201,56.3739],[14.21161,56.37357],[14.21082,56.37344],[14.20999,56.37298],[14.20999,56.37266],[14.21084,56.37226],[14.21131,56.37153],[14.21103,56.37135],[14.21097,56.37004],[14.21025,56.36854],[14.20975,56.36834],[14.20987,56.36801],[14.20907,56.36775],[14.20986,56.36741],[14.20988,56.36694],[14.2093,56.36627],[14.20808,56.36601],[14.20645,56.36509],[14.20489,56.36483],[14.20465,56.36462],[14.20478,56.36426],[14.20562,56.36375],[14.20518,56.36249],[14.20571,56.3624],[14.20627,56.36261],[14.20749,56.36202],[14.20682,56.36123],[14.20731,56.36006],[14.20976,56.35856],[14.21031,56.35797],[14.21249,56.35749],[14.21311,56.35798],[14.21424,56.35784],[14.21529,56.35807],[14.21628,56.35744],[14.21582,56.35616],[14.21618,56.35592],[14.21694,56.35594],[14.21775,56.35647],[14.21849,56.3566],[14.22036,56.3562],[14.22185,56.35562],[14.22181,56.35435],[14.22224,56.3538],[14.22025,56.35212],[14.2203,56.3513],[14.21949,56.35017],[14.2184,56.34955],[14.21811,56.34784],[14.21688,56.34631],[14.21707,56.34554],[14.21759,56.34511],[14.21831,56.34495],[14.21952,56.34404],[14.22001,56.34388],[14.22122,56.34417],[14.22169,56.34375],[14.22138,56.3432],[14.22153,56.34282],[14.22215,56.34299],[14.2233,56.34271],[14.22352,56.3432],[14.22393,56.34321],[14.22414,56.34382],[14.22484,56.34399],[14.22536,56.3437],[14.22651,56.3421],[14.23687,56.34035],[14.23823,56.33986],[14.24128,56.33935],[14.24423,56.33807],[14.24418,56.33698],[14.24606,56.3377],[14.24759,56.33804],[14.24845,56.33839],[14.24868,56.34014],[14.2514,56.34427],[14.25072,56.35089],[14.25391,56.35465],[14.25506,56.35755],[14.25512,56.35877],[14.25454,56.35944],[14.25261,56.3601],[14.25277,56.36362],[14.2536,56.3665],[14.25233,56.36773],[14.25797,56.36981],[14.26496,56.37048],[14.27826,56.37034],[14.28018,56.37078],[14.2944,56.37155],[14.29484,56.37059],[14.29525,56.3671],[14.29461,56.36467],[14.29491,56.36423],[14.29578,56.36388],[14.29544,56.36281],[14.29606,56.36186],[14.29718,56.36105],[14.29967,56.36171],[14.30037,56.36153],[14.30066,56.36122],[14.30358,56.36047],[14.30411,56.36094],[14.30507,56.36037],[14.30601,56.36015],[14.30631,56.35892],[14.30739,56.35776],[14.3085,56.35818],[14.30932,56.35804],[14.31018,56.35761],[14.31006,56.35732],[14.30947,56.35718],[14.30865,56.35658],[14.30794,56.35645],[14.30734,56.35595],[14.30741,56.35539],[14.30827,56.35508],[14.30742,56.35472],[14.30747,56.35415],[14.30822,56.35407],[14.30858,56.35384],[14.30795,56.35265],[14.30823,56.35238],[14.30933,56.3523],[14.30953,56.3514],[14.30914,56.35087],[14.30919,56.35023],[14.30819,56.34968],[14.30865,56.34847],[14.30836,56.34807],[14.3076,56.34772],[14.30727,56.34658],[14.30644,56.34556],[14.30669,56.34508],[14.30634,56.34446],[14.30783,56.34323],[14.30925,56.34279],[14.30993,56.34221],[14.31111,56.34221],[14.3117,56.34198],[14.31137,56.34057],[14.3126,56.34037],[14.31338,56.3398],[14.31293,56.33854],[14.31323,56.33731],[14.31399,56.33613],[14.31353,56.33566],[14.3127,56.33531],[14.31172,56.33541],[14.31064,56.33497],[14.31019,56.33435],[14.30852,56.33307],[14.30812,56.33192],[14.30727,56.33145],[14.30706,56.33094],[14.30743,56.33043],[14.30726,56.32998],[14.30532,56.32896],[14.30079,56.32558],[14.29009,56.32869],[14.28852,56.32829],[14.28817,56.32836],[14.28755,56.32794],[14.28704,56.32791],[14.2869,56.32763],[14.28643,56.32778],[14.28521,56.32726],[14.28401,56.32447],[14.28218,56.31528],[14.28025,56.3143],[14.28098,56.31364],[14.28001,56.31082],[14.27429,56.30907],[14.27431,56.30228],[14.27699,56.30141],[14.27788,56.30081],[14.28006,56.30029],[14.28078,56.29873],[14.28285,56.29595],[14.28435,56.29226],[14.28589,56.28958],[14.28521,56.28936],[14.28776,56.28687],[14.29043,56.28786],[14.29482,56.29054],[14.29993,56.29216],[14.30059,56.29275],[14.30103,56.29411],[14.30271,56.29623],[14.30347,56.29616],[14.30471,56.29521],[14.30747,56.29499],[14.30948,56.29442],[14.3117,56.29503],[14.31497,56.29535],[14.31477,56.29676],[14.31681,56.29709],[14.31723,56.2985],[14.31973,56.30085],[14.32129,56.30085],[14.32367,56.29977],[14.32491,56.29776],[14.32575,56.29707],[14.32484,56.29515],[14.32366,56.29358],[14.32439,56.29305],[14.32665,56.29258],[14.32807,56.29157],[14.32817,56.29113],[14.32753,56.29033],[14.3287,56.28931],[14.32841,56.28834],[14.33019,56.28828],[14.33122,56.28897],[14.33383,56.28864],[14.34537,56.2911],[14.33956,56.27939],[14.33249,56.27327],[14.32675,56.27455],[14.32146,56.27154],[14.32197,56.26678],[14.31238,56.26561],[14.3012,56.25997],[14.29701,56.25623],[14.2971,56.25592],[14.29649,56.25576],[14.29566,56.25505],[14.28837,56.24804],[14.28437,56.24731],[14.27735,56.23215],[14.27352,56.23012],[14.27085,56.22826],[14.26876,56.223],[14.26834,56.21872],[14.2647,56.21653],[14.26574,56.21485],[14.27036,56.21166],[14.2707,56.21102],[14.27321,56.20872],[14.27859,56.20463],[14.27743,56.20386],[14.27655,56.20243],[14.27642,56.20045],[14.27401,56.20091],[14.27248,56.20063],[14.26819,56.19965],[14.26233,56.19862],[14.25887,56.19743],[14.25795,56.19693],[14.25742,56.19528],[14.25656,56.19402],[14.25572,56.19302],[14.25466,56.19232],[14.25469,56.19208],[14.25205,56.19005],[14.25062,56.18838],[14.24848,56.1846],[14.24704,56.18311],[14.24649,56.17815],[14.24559,56.17624],[14.24592,56.17395],[14.24473,56.17398],[14.241,56.17318],[14.22802,56.17091],[14.22739,56.17087],[14.22384,56.17141],[14.21959,56.17228],[14.21904,56.17253],[14.21793,56.17193],[14.21718,56.1719],[14.21729,56.17106],[14.21674,56.17059],[14.21676,56.1702],[14.21705,56.16957],[14.21789,56.16882],[14.2189,56.16849],[14.21913,56.1682],[14.21933,56.16679],[14.21913,56.16637],[14.21477,56.16468],[14.2126,56.16296],[14.21214,56.16216],[14.2095,56.16243],[14.20819,56.16092],[14.20678,56.15981],[14.20493,56.15906],[14.20677,56.15677],[14.20746,56.15651],[14.20344,56.15137],[14.20481,56.15041],[14.20399,56.14946],[14.20095,56.15017],[14.19876,56.15054],[14.19764,56.15056],[14.19698,56.151],[14.1962,56.1512],[14.19299,56.15087],[14.19037,56.1515],[14.19136,56.15279],[14.19074,56.15305],[14.17582,56.15414],[14.17544,56.1534],[14.17608,56.15327],[14.17642,56.15272],[14.17617,56.15259],[14.17491,56.15284],[14.17461,56.15236],[14.17489,56.15192],[14.17542,56.15203],[14.17592,56.15189],[14.17586,56.15155],[14.17525,56.15129],[14.17449,56.15145],[14.17332,56.15108],[14.17303,56.15128],[14.17313,56.15165],[14.1728,56.15169],[14.17178,56.15061],[14.172,56.1503],[14.16994,56.1498],[14.16971,56.14946],[14.16881,56.14927],[14.16862,56.14871],[14.15194,56.15528],[14.15027,56.15476],[14.15104,56.15399],[14.15094,56.15294],[14.15006,56.15158],[14.14731,56.14935],[14.1486,56.14781],[14.1485,56.14713],[14.14799,56.14647],[14.14824,56.14619],[14.14913,56.14599],[14.15182,56.14618],[14.15374,56.14685],[14.15503,56.1466],[14.15547,56.14627],[14.15499,56.14454],[14.15545,56.14304],[14.15621,56.14226],[14.15837,56.14083],[14.15872,56.13983],[14.15821,56.13937],[14.15591,56.13895],[14.15507,56.13852],[14.15573,56.13714],[14.15569,56.13648],[14.15404,56.13471],[14.15287,56.132],[14.15175,56.13052],[14.15084,56.12978],[14.14958,56.12952],[14.1447,56.13077],[14.14403,56.13085],[14.14288,56.13063],[14.14251,56.13015],[14.14353,56.12907],[14.14351,56.12871],[14.14297,56.12831],[14.14139,56.1283],[14.14098,56.12803],[14.14085,56.12753],[14.14108,56.12647],[14.14197,56.12522],[14.13893,56.12543],[14.13091,56.12688],[14.12792,56.12678],[14.12643,56.12713],[14.12588,56.12763],[14.12532,56.12744],[14.1234,56.12589],[14.11994,56.12645],[14.11338,56.12811],[14.08405,56.13276],[14.06688,56.13329],[14.06376,56.13442],[14.05472,56.1395],[14.05359,56.13983],[14.05492,56.14118],[14.05199,56.14204],[14.05148,56.14177],[14.04834,56.14247],[14.04794,56.14211],[14.04696,56.14204],[14.04005,56.14564],[14.02738,56.15141],[14.00698,56.15906],[14.0192,56.16525],[14.01921,56.1684],[14.01813,56.16766],[14.0173,56.16736],[14.01458,56.17444],[14.01432,56.17592],[13.99284,56.17458],[13.99193,56.17492],[13.99137,56.1764],[13.99004,56.17584],[13.98937,56.17598],[13.98904,56.17734],[13.98776,56.17814],[13.98761,56.17895],[13.98802,56.17961],[13.98935,56.17974],[13.98962,56.18],[13.99045,56.17995],[13.99096,56.18252],[13.9931,56.18268],[13.99249,56.18462],[13.9929,56.18517],[13.99284,56.18659],[13.99217,56.187],[13.99176,56.18766],[13.98462,56.19096],[13.98324,56.1915],[13.97773,56.19301],[13.97772,56.19466],[13.97585,56.19555],[13.98053,56.20007],[13.98101,56.20531],[13.98089,56.20976],[13.97731,56.21434],[13.9782,56.22375],[13.97066,56.2345],[13.96996,56.23484],[13.96986,56.23503],[13.97024,56.23516],[13.96947,56.23678],[13.97855,56.24493],[13.98113,56.24661],[13.98228,56.24796],[13.98309,56.25091],[13.98586,56.25279],[13.97639,56.25438],[13.97269,56.25441],[13.99949,56.26423],[14.00437,56.26787],[14.00038,56.27536],[14.00051,56.27675],[14.00192,56.27804],[14.00239,56.27819],[14.00409,56.27795],[14.00632,56.27836],[14.00857,56.278],[14.01271,56.27948],[14.00878,56.28294],[14.00018,56.28444],[13.99119,56.27789],[13.98866,56.27858],[13.98461,56.28019],[13.98418,56.28689],[13.98482,56.28711],[13.98779,56.28979],[13.99154,56.29242],[13.99256,56.29395],[13.99149,56.30621],[13.98939,56.31413],[13.99948,56.32231],[14.00579,56.32625],[14.01056,56.33032],[14.01056,56.33164],[14.01204,56.33121],[14.01246,56.33157],[14.01257,56.33259],[14.01504,56.33259],[14.01459,56.33369],[14.0156,56.3349],[14.01554,56.33539],[14.01607,56.33625],[14.01826,56.33756],[14.01978,56.33794],[14.02188,56.33934],[14.05104,56.33441],[14.06361,56.33297],[14.06869,56.33338],[14.07251,56.33508],[14.07378,56.33595],[14.07427,56.33736],[14.07472,56.33773],[14.07549,56.33932],[14.07348,56.34093],[14.07338,56.34338],[14.07295,56.34398],[14.07402,56.34548],[14.07478,56.34585],[14.07487,56.34648],[14.07426,56.34675],[14.07444,56.34767],[14.07491,56.34826],[14.07473,56.34842],[14.0752,56.34872],[14.07547,56.35113],[14.07634,56.35196],[14.07576,56.35305],[14.07654,56.35393],[14.07657,56.35459],[14.07711,56.35491],[14.07711,56.35521],[14.07827,56.35588],[14.07846,56.35663],[14.07877,56.35666],[14.07876,56.35648],[14.07942,56.3562],[14.08035,56.35629],[14.0812,56.35737],[14.08253,56.35774],[14.08419,56.359],[14.08767,56.35953],[14.08906,56.36099],[14.09051,56.36153],[14.09249,56.36164],[14.09332,56.36119],[14.09415,56.36118],[14.09493,56.36057],[14.0966,56.36084],[14.09833,56.36028],[14.09936,56.36029],[14.10078,56.36104],[14.1025,56.36163],[14.1038,56.36321],[14.10381,56.3637],[14.1045,56.36429],[14.10665,56.36409],[14.11248,56.36462],[14.11363,56.36608],[14.11413,56.36655],[14.11471,56.36673],[14.11568,56.36663],[14.11603,56.36598],[14.11679,56.36583],[14.11798,56.36592],[14.11798,56.3663],[14.1189,56.36654],[14.119,56.36589],[14.11937,56.36558],[14.12039,56.36555],[14.12206,56.36391],[14.12391,56.36312],[14.125,56.36317],[14.12616,56.36363],[14.12753,56.36338],[14.1285,56.36371],[14.12905,56.36366],[14.13007,56.3642],[14.13092,56.36546],[14.13052,56.36747],[14.1307,56.36814],[14.13142,56.36863],[14.13109,56.36969],[14.13223,56.37019],[14.13263,56.37106],[14.13253,56.37186],[14.13145,56.37309],[14.13175,56.37436],[14.13204,56.37459],[14.13198,56.37498],[14.13304,56.37573],[14.13288,56.37613],[14.13391,56.37706],[14.13471,56.37894],[14.1353,56.37925],[14.13491,56.38],[14.13542,56.38025],[14.13539,56.38108],[14.13642,56.38325],[14.13814,56.38434],[14.13767,56.38508],[14.13886,56.38542],[14.14235,56.38574],[14.1451,56.38626],[14.14586,56.38673],[14.14996,56.38795],[14.15386,56.38807],[14.15915,56.38902],[14.15967,56.3893],[14.16007,56.38991],[14.15948,56.39064],[14.16005,56.39109],[14.16089,56.39129],[14.16125,56.39202],[14.16166,56.39224],[14.16155,56.3931],[14.16334,56.39441],[14.16425,56.39468],[14.16482,56.39509],[14.1654,56.39651],[14.16481,56.39759],[14.16487,56.39873],[14.16533,56.39934],[14.16457,56.39962],[14.1648,56.40068],[14.16461,56.40134],[14.16611,56.40234],[14.16553,56.40284],[14.16586,56.40311],[14.1655,56.40362],[14.16478,56.40398],[14.16496,56.40408],[14.16461,56.40442],[14.16546,56.40551],[14.16603,56.40584],[14.16629,56.40708],[14.16724,56.40795],[14.16638,56.4085],[14.16647,56.41007],[14.16779,56.4109],[14.16977,56.41398],[14.17142,56.41549],[14.17435,56.41969],[14.17568,56.41943],[14.17683,56.42112],[14.17659,56.42116],[14.17714,56.42365],[14.18026,56.428],[14.19047,56.42616],[14.19934,56.43271],[14.2096,56.43784],[14.22454,56.45391],[14.22499,56.45369],[14.22648,56.45412]],[[14.09385,56.17291],[14.08944,56.17135],[14.08695,56.17161],[14.08472,56.17157],[14.08144,56.17102],[14.07621,56.17053],[14.07439,56.17016],[14.07224,56.1694],[14.06859,56.16722],[14.06716,56.16592],[14.06516,56.16255],[14.06498,56.16041],[14.06622,56.1584],[14.06873,56.15677],[14.07036,56.15618],[14.07312,56.15555],[14.07563,56.15532],[14.07762,56.15539],[14.08352,56.15264],[14.08345,56.15119],[14.08425,56.14868],[14.08542,56.14737],[14.08713,56.14626],[14.08928,56.14542],[14.09321,56.14445],[14.09569,56.14414],[14.09829,56.14418],[14.10133,56.14473],[14.10395,56.1458],[14.1055,56.14693],[14.1083,56.15002],[14.10987,56.15346],[14.10977,56.15544],[14.11033,56.15752],[14.11216,56.16145],[14.11343,56.16244],[14.11444,56.16379],[14.11482,56.16523],[14.11467,56.16635],[14.1138,56.16789],[14.11201,56.16939],[14.10973,56.17047],[14.10721,56.17203],[14.10446,56.17295],[14.0999,56.17345],[14.09653,56.17339],[14.09385,56.17291]],[[14.18914,56.27934],[14.18883,56.27792],[14.18666,56.27767],[14.18426,56.27715],[14.18149,56.27624],[14.17883,56.27454],[14.17574,56.2719],[14.17494,56.27051],[14.17479,56.26894],[14.17573,56.26623],[14.17574,56.26466],[14.17643,56.26327],[14.17794,56.26156],[14.18014,56.26022],[14.18399,56.2591],[14.1888,56.25863],[14.1908,56.25721],[14.19568,56.255],[14.19793,56.25445],[14.20079,56.25409],[14.20356,56.25413],[14.20595,56.2545],[14.20781,56.25296],[14.21297,56.25866],[14.21371,56.25885],[14.21536,56.2601],[14.21472,56.26022],[14.21623,56.26217],[14.21844,56.26264],[14.22014,56.26324],[14.22199,56.26428],[14.22307,56.26524],[14.22385,56.26635],[14.22421,56.26745],[14.22418,56.26857],[14.22357,56.27],[14.22269,56.27101],[14.21966,56.27348],[14.21718,56.27458],[14.21573,56.27572],[14.21429,56.27645],[14.21076,56.27739],[14.21087,56.27954],[14.21002,56.28126],[14.20761,56.28317],[14.20461,56.28441],[14.20225,56.28485],[14.19998,56.28497],[14.19751,56.2848],[14.19519,56.28429],[14.19318,56.28348],[14.19121,56.28223],[14.18997,56.28094],[14.18914,56.27934]],[[14.11697,56.28806],[14.12051,56.28829],[14.12371,56.28915],[14.12712,56.28807],[14.13028,56.28772],[14.13351,56.28794],[14.13642,56.2887],[14.14004,56.29046],[14.14197,56.29192],[14.14437,56.29334],[14.14629,56.29409],[14.14765,56.29489],[14.14936,56.29679],[14.14985,56.29895],[14.15288,56.30132],[14.15418,56.30176],[14.15747,56.30216],[14.15987,56.30274],[14.16234,56.30388],[14.16379,56.30508],[14.16475,56.30679],[14.16471,56.30857],[14.16374,56.3106],[14.16205,56.31211],[14.16178,56.31359],[14.16087,56.31492],[14.15842,56.3166],[14.15682,56.31722],[14.15472,56.3177],[14.15057,56.32097],[14.14732,56.32229],[14.14217,56.32314],[14.13935,56.32325],[14.13602,56.32284],[14.13307,56.32188],[14.13053,56.32014],[14.12975,56.31911],[14.1293,56.31775],[14.12749,56.317],[14.12618,56.31616],[14.12497,56.31492],[14.12441,56.31372],[14.12232,56.31297],[14.12059,56.31194],[14.11966,56.31105],[14.11848,56.30917],[14.11689,56.30821],[14.11591,56.30728],[14.11492,56.30569],[14.11445,56.30424],[14.11448,56.3028],[14.11516,56.30142],[14.11485,56.3009],[14.11205,56.29972],[14.10847,56.29719],[14.10718,56.29549],[14.10686,56.29387],[14.1077,56.29169],[14.10997,56.28975],[14.11304,56.28857],[14.11697,56.28806]],[[14.09657,56.20938],[14.0959,56.20831],[14.09559,56.20713],[14.09437,56.20585],[14.09155,56.20587],[14.0889,56.20547],[14.08768,56.20677],[14.08552,56.208],[14.08274,56.2088],[14.07964,56.20908],[14.07573,56.20867],[14.07409,56.2082],[14.07177,56.20721],[14.0695,56.20793],[14.06694,56.20836],[14.06494,56.20847],[14.06233,56.20829],[14.05988,56.20776],[14.05617,56.20653],[14.05384,56.20537],[14.05166,56.20348],[14.05087,56.20245],[14.05041,56.20127],[14.05045,56.1997],[14.05116,56.19829],[14.05211,56.1973],[14.05383,56.19619],[14.05585,56.1954],[14.05563,56.19321],[14.05611,56.19086],[14.05684,56.18945],[14.05655,56.18836],[14.05676,56.18692],[14.05807,56.18486],[14.06059,56.18324],[14.06281,56.1825],[14.06525,56.18209],[14.06916,56.18216],[14.07241,56.1818],[14.07504,56.18194],[14.07714,56.18084],[14.08031,56.1797],[14.08281,56.17928],[14.08601,56.17928],[14.08847,56.17968],[14.0907,56.18041],[14.09211,56.18116],[14.09391,56.18252],[14.09647,56.18209],[14.09906,56.18203],[14.10155,56.18234],[14.10376,56.18292],[14.10635,56.18397],[14.10845,56.1857],[14.11107,56.18641],[14.11332,56.1876],[14.11481,56.18913],[14.11536,56.19084],[14.11473,56.19296],[14.11326,56.19478],[14.1148,56.197],[14.11496,56.19883],[14.11675,56.19974],[14.11792,56.20066],[14.11894,56.202],[14.11931,56.20316],[14.11905,56.20506],[14.11752,56.20696],[14.11739,56.20819],[14.11666,56.20951],[14.11494,56.21096],[14.11251,56.21203],[14.10956,56.21263],[14.10623,56.21282],[14.10303,56.21255],[14.10049,56.21189],[14.09806,56.2107],[14.09657,56.20938]],[[14.12155,56.25349],[14.12127,56.25493],[14.12036,56.25625],[14.11764,56.25866],[14.11586,56.25974],[14.11365,56.26053],[14.11076,56.26107],[14.10686,56.26119],[14.10495,56.26109],[14.10565,56.26225],[14.10588,56.26339],[14.10547,56.26562],[14.1047,56.26666],[14.10318,56.26785],[14.10169,56.26861],[14.09955,56.26931],[14.09997,56.27052],[14.09994,56.2716],[14.09954,56.27266],[14.09857,56.2739],[14.09715,56.27501],[14.09527,56.27589],[14.09305,56.27648],[14.09025,56.2768],[14.08774,56.27671],[14.08587,56.27642],[14.08272,56.27541],[14.08111,56.27469],[14.07767,56.27503],[14.07388,56.27462],[14.07066,56.27348],[14.06842,56.27181],[14.06545,56.27229],[14.0624,56.27231],[14.05981,56.27204],[14.05743,56.27142],[14.05485,56.27016],[14.05314,56.26851],[14.05236,56.26656],[14.05257,56.26466],[14.04949,56.26486],[14.04628,56.26458],[14.04398,56.26397],[14.04163,56.26282],[14.03896,56.26246],[14.03668,56.26176],[14.0348,56.26076],[14.03281,56.25905],[14.03189,56.25772],[14.03151,56.25638],[14.03171,56.25494],[14.03255,56.25358],[14.03441,56.25212],[14.03645,56.25123],[14.0404,56.25036],[14.04283,56.2501],[14.04538,56.25014],[14.0498,56.2506],[14.0513,56.24796],[14.05227,56.24682],[14.05283,56.24506],[14.05482,56.24312],[14.05635,56.24231],[14.05861,56.24154],[14.06189,56.2408],[14.0645,56.24055],[14.0673,56.24069],[14.07021,56.24132],[14.07409,56.24141],[14.07707,56.24207],[14.08042,56.24198],[14.08312,56.2423],[14.08531,56.24293],[14.08673,56.24358],[14.08951,56.24568],[14.09157,56.24612],[14.09666,56.24517],[14.09926,56.24494],[14.1028,56.24517],[14.10551,56.24566],[14.1073,56.2462],[14.10922,56.24714],[14.11165,56.24748],[14.11541,56.24839],[14.11812,56.24935],[14.12049,56.25108],[14.12133,56.25242],[14.12155,56.25349]]]}}]}