{"type":"FeatureCollection","features":[{"type":"Feature","id":"1257R001","properties":{"code":"1257R001","name":"Örkelljunga norra"},"geometry":{"type":"Polygon","coordinates":[[[13.2968,56.29812],[13.29642,56.29751],[13.29919,56.29703],[13.30209,56.29593],[13.30569,56.29615],[13.30894,56.29604],[13.30844,56.29576],[13.30834,56.29322],[13.30749,56.29045],[13.30626,56.29046],[13.30616,56.28773],[13.3071,56.28761],[13.30753,56.28686],[13.30458,56.28635],[13.3045,56.28566],[13.30211,56.2853],[13.30115,56.28538],[13.30047,56.28568],[13.2956,56.28532],[13.2954,56.28491],[13.29507,56.28479],[13.29405,56.28487],[13.29389,56.28459],[13.29235,56.28396],[13.29185,56.28354],[13.29178,56.28308],[13.289,56.28262],[13.28837,56.28236],[13.2879,56.28176],[13.28742,56.28166],[13.28689,56.28161],[13.28671,56.28197],[13.28606,56.28194],[13.2853,56.28229],[13.28412,56.28226],[13.28342,56.2819],[13.28169,56.28017],[13.28242,56.27966],[13.28303,56.2786],[13.28181,56.27836],[13.2806,56.27868],[13.27784,56.27858],[13.27749,56.27883],[13.27771,56.2798],[13.27731,56.28039],[13.27738,56.28131],[13.27789,56.28404],[13.2788,56.2864],[13.2782,56.28773],[13.27875,56.28919],[13.28052,56.29077],[13.28173,56.29251],[13.28238,56.29435],[13.28246,56.29637],[13.28591,56.29591],[13.28678,56.29598],[13.28814,56.2971],[13.29076,56.29764],[13.29477,56.29722],[13.29587,56.29822],[13.2968,56.29812]]]}},{"type":"Feature","id":"1257R002","properties":{"code":"1257R002","name":"Örkelljunga omland"},"geometry":{"type":"Polygon","coordinates":[[[13.46751,56.42692],[13.46856,56.42689],[13.46998,56.4263],[13.47073,56.42544],[13.47143,56.42545],[13.47238,56.42518],[13.47264,56.42426],[13.47248,56.42376],[13.47311,56.4233],[13.47235,56.42238],[13.47284,56.42185],[13.47678,56.42054],[13.48675,56.41524],[13.49089,56.41205],[13.49265,56.41106],[13.49521,56.41014],[13.49616,56.40921],[13.49605,56.40869],[13.49979,56.40632],[13.49993,56.40582],[13.50053,56.40562],[13.5031,56.40587],[13.50414,56.40654],[13.50474,56.40747],[13.50611,56.40827],[13.51106,56.40952],[13.51236,56.41149],[13.52146,56.41171],[13.5289,56.40946],[13.52918,56.40904],[13.53111,56.40768],[13.53127,56.40675],[13.53738,56.40542],[13.53878,56.40503],[13.54087,56.40403],[13.54262,56.40379],[13.54962,56.40437],[13.5616,56.4077],[13.56236,56.40812],[13.57076,56.41018],[13.57171,56.40991],[13.57413,56.4101],[13.58065,56.40903],[13.5787,56.40641],[13.57782,56.40606],[13.57905,56.39512],[13.52297,56.37645],[13.52521,56.37623],[13.52565,56.37594],[13.52562,56.37325],[13.52675,56.37296],[13.52566,56.37275],[13.52406,56.37317],[13.52155,56.37338],[13.52092,56.37457],[13.51022,56.3549],[13.50869,56.35034],[13.5074,56.34939],[13.50611,56.34939],[13.50296,56.34865],[13.50085,56.34705],[13.49608,56.34662],[13.50608,56.3308],[13.51199,56.31305],[13.51534,56.30717],[13.49728,56.30232],[13.50288,56.29365],[13.49304,56.29166],[13.49182,56.2946],[13.49441,56.29591],[13.4916,56.29781],[13.49035,56.29802],[13.48294,56.30353],[13.47052,56.30471],[13.46703,56.30529],[13.45995,56.30723],[13.45537,56.30527],[13.45575,56.30265],[13.45405,56.30115],[13.45346,56.2998],[13.4447,56.29205],[13.43249,56.29147],[13.43163,56.29105],[13.43206,56.2777],[13.42262,56.26639],[13.41724,56.266],[13.38474,56.2677],[13.35209,56.26911],[13.35284,56.26756],[13.35056,56.26888],[13.34749,56.2693],[13.33305,56.25585],[13.32411,56.25474],[13.32418,56.25424],[13.32906,56.25215],[13.3214,56.24596],[13.31634,56.24627],[13.30773,56.23981],[13.30014,56.23639],[13.29492,56.23332],[13.29469,56.23283],[13.29251,56.23127],[13.28836,56.23016],[13.28511,56.22867],[13.27946,56.22553],[13.27628,56.22181],[13.27687,56.22049],[13.27836,56.21945],[13.27797,56.218],[13.27624,56.21777],[13.27628,56.21763],[13.27386,56.2163],[13.2727,56.21623],[13.27258,56.21565],[13.27001,56.21514],[13.26809,56.21519],[13.26554,56.21558],[13.25911,56.21543],[13.25752,56.21494],[13.24871,56.21574],[13.23315,56.21787],[13.2261,56.21407],[13.22207,56.21215],[13.22033,56.21097],[13.221,56.20746],[13.2227,56.20612],[13.22284,56.20576],[13.22187,56.20234],[13.22259,56.20195],[13.22274,56.20157],[13.22163,56.20059],[13.21936,56.19948],[13.21815,56.19913],[13.21686,56.19899],[13.21681,56.19882],[13.2161,56.19864],[13.21403,56.19865],[13.21244,56.19924],[13.21038,56.19867],[13.20848,56.19779],[13.20784,56.19721],[13.20819,56.19658],[13.20707,56.19497],[13.20535,56.19465],[13.20438,56.19423],[13.20311,56.19303],[13.2014,56.19287],[13.20068,56.19245],[13.20002,56.19234],[13.19876,56.19405],[13.19828,56.19423],[13.1935,56.19477],[13.19052,56.1954],[13.1829,56.19779],[13.18091,56.19792],[13.17845,56.19757],[13.17831,56.19916],[13.1787,56.20036],[13.17813,56.20108],[13.17811,56.20169],[13.17874,56.20431],[13.17864,56.20553],[13.18186,56.2066],[13.18208,56.20717],[13.18154,56.20791],[13.18177,56.20806],[13.18396,56.20822],[13.18352,56.20873],[13.18103,56.21011],[13.18053,56.21079],[13.17834,56.21097],[13.17751,56.21084],[13.17634,56.2104],[13.17507,56.20955],[13.17366,56.20915],[13.17344,56.20873],[13.16891,56.20831],[13.16784,56.208],[13.16493,56.20854],[13.16443,56.20899],[13.16308,56.20906],[13.16182,56.20892],[13.16119,56.20845],[13.16005,56.20844],[13.15869,56.20904],[13.15979,56.20968],[13.16085,56.20978],[13.16062,56.21065],[13.16189,56.21298],[13.15967,56.21392],[13.15916,56.21502],[13.15849,56.21505],[13.15081,56.21957],[13.1501,56.22073],[13.14619,56.22228],[13.1311,56.22691],[13.12113,56.23084],[13.12059,56.23153],[13.1223,56.23284],[13.12235,56.23324],[13.11925,56.23544],[13.11935,56.23555],[13.12199,56.23562],[13.12347,56.23448],[13.12313,56.23542],[13.12855,56.23936],[13.12732,56.23933],[13.12609,56.23953],[13.12604,56.23989],[13.12509,56.23992],[13.12556,56.24071],[13.12289,56.24036],[13.12301,56.24138],[13.12347,56.24139],[13.12482,56.24194],[13.12337,56.24273],[13.12333,56.2435],[13.12242,56.24388],[13.12735,56.24509],[13.14274,56.25044],[13.14876,56.25153],[13.14866,56.25172],[13.14724,56.25272],[13.14408,56.25396],[13.14221,56.25419],[13.13973,56.25496],[13.13885,56.25547],[13.13795,56.25563],[13.13712,56.25608],[13.13684,56.25649],[13.13604,56.25648],[13.1328,56.25728],[13.13192,56.25727],[13.13117,56.25692],[13.12911,56.25763],[13.12889,56.25786],[13.12699,56.25793],[13.12543,56.25834],[13.12481,56.25822],[13.12125,56.25832],[13.1209,56.25845],[13.11812,56.25782],[13.11754,56.25793],[13.11717,56.25848],[13.11765,56.25861],[13.1217,56.26164],[13.12209,56.26224],[13.12483,56.26405],[13.13487,56.26248],[13.14647,56.26668],[13.16501,56.27859],[13.17203,56.28268],[13.17913,56.29063],[13.18935,56.30002],[13.19579,56.30822],[13.19611,56.30916],[13.1993,56.31048],[13.19936,56.31103],[13.19904,56.31138],[13.19739,56.31227],[13.19642,56.31307],[13.19831,56.3165],[13.19599,56.32414],[13.21638,56.32716],[13.22493,56.33048],[13.2288,56.33248],[13.24819,56.34636],[13.24813,56.34718],[13.24963,56.34875],[13.25257,56.34936],[13.25424,56.35096],[13.25525,56.3529],[13.2515,56.35767],[13.26918,56.36727],[13.29286,56.38057],[13.2969,56.38105],[13.29871,56.3818],[13.29941,56.38256],[13.30189,56.38404],[13.30481,56.38525],[13.31184,56.38693],[13.31527,56.38678],[13.31679,56.38758],[13.325,56.38787],[13.3284,56.38782],[13.33108,56.38806],[13.33581,56.38882],[13.33896,56.38873],[13.34263,56.3898],[13.34667,56.39051],[13.36143,56.40054],[13.3708,56.40597],[13.37281,56.40778],[13.37511,56.40922],[13.38559,56.41451],[13.38876,56.41495],[13.39168,56.41494],[13.39599,56.41448],[13.40429,56.41496],[13.40465,56.41567],[13.43932,56.41911],[13.44715,56.4221],[13.4552,56.4244],[13.45999,56.42691],[13.4612,56.42778],[13.46573,56.42748],[13.46751,56.42692]],[[13.26137,56.30435],[13.25981,56.30327],[13.25898,56.30231],[13.25632,56.30329],[13.25381,56.30374],[13.249,56.3041],[13.24563,56.3038],[13.24378,56.30334],[13.24166,56.30247],[13.2399,56.30124],[13.23896,56.30016],[13.23836,56.29873],[13.23839,56.29744],[13.23729,56.29625],[13.23666,56.29472],[13.23674,56.29321],[13.23747,56.2918],[13.23937,56.29014],[13.24188,56.28899],[13.24533,56.2882],[13.24929,56.28792],[13.2498,56.28677],[13.2506,56.28581],[13.24767,56.28449],[13.24497,56.28357],[13.24265,56.28202],[13.23969,56.28113],[13.23439,56.27842],[13.23152,56.27636],[13.22808,56.27322],[13.22716,56.27104],[13.22726,56.26963],[13.22776,56.26854],[13.22869,56.26746],[13.22988,56.26654],[13.23136,56.26577],[13.23363,56.26503],[13.23633,56.26461],[13.23896,56.26459],[13.2446,56.26552],[13.2462,56.26602],[13.24826,56.26697],[13.2499,56.2682],[13.25076,56.26929],[13.25183,56.26967],[13.25464,56.2694],[13.26183,56.26956],[13.2663,56.26918],[13.26913,56.26871],[13.27228,56.26873],[13.27417,56.26804],[13.27654,56.26755],[13.27891,56.26588],[13.28175,56.26488],[13.28284,56.2634],[13.28455,56.26216],[13.28664,56.26127],[13.28922,56.26067],[13.29245,56.26046],[13.296,56.26087],[13.29882,56.26176],[13.30131,56.26334],[13.30387,56.26266],[13.3061,56.26234],[13.30808,56.26228],[13.3106,56.26252],[13.31496,56.26378],[13.31765,56.26532],[13.31891,56.26676],[13.31963,56.26839],[13.32078,56.26957],[13.32231,56.27221],[13.32402,56.27292],[13.32649,56.27344],[13.32819,56.27406],[13.32964,56.27484],[13.33183,56.27647],[13.33511,56.2776],[13.33759,56.27767],[13.34158,56.2782],[13.3451,56.27908],[13.34664,56.2798],[13.35024,56.2821],[13.35201,56.28373],[13.35338,56.28741],[13.35322,56.28887],[13.35266,56.28995],[13.35051,56.29184],[13.34897,56.29258],[13.34626,56.29352],[13.34603,56.29559],[13.34491,56.29754],[13.34357,56.29888],[13.34128,56.30015],[13.33881,56.3009],[13.33625,56.30125],[13.33423,56.30128],[13.33165,56.30099],[13.32776,56.30019],[13.32689,56.30053],[13.32669,56.29985],[13.32423,56.2988],[13.32248,56.29775],[13.31869,56.29719],[13.31439,56.29555],[13.31228,56.29548],[13.31,56.29593],[13.30804,56.29609],[13.30402,56.29611],[13.30209,56.29593],[13.29919,56.29703],[13.29642,56.29751],[13.29717,56.29933],[13.29689,56.30113],[13.29585,56.30259],[13.29416,56.30385],[13.2942,56.30467],[13.29351,56.30444],[13.29335,56.30565],[13.29386,56.30587],[13.29223,56.30781],[13.2903,56.30895],[13.28828,56.3097],[13.28642,56.31014],[13.28367,56.31043],[13.28016,56.31024],[13.276,56.30936],[13.27379,56.30856],[13.27169,56.30726],[13.26682,56.30622],[13.26284,56.305],[13.26137,56.30435]]]}},{"type":"Feature","id":"1257R003","properties":{"code":"1257R003","name":"Örkelljunga västra"},"geometry":{"type":"Polygon","coordinates":[[[13.29335,56.30565],[13.29351,56.30444],[13.2942,56.30467],[13.29416,56.30385],[13.29585,56.30259],[13.29689,56.30113],[13.2972,56.29968],[13.2968,56.29812],[13.29587,56.29822],[13.29477,56.29722],[13.29076,56.29764],[13.28814,56.2971],[13.28678,56.29598],[13.28591,56.29591],[13.28246,56.29637],[13.28238,56.29435],[13.28173,56.29251],[13.28052,56.29077],[13.27875,56.28919],[13.2782,56.28773],[13.2788,56.2864],[13.27789,56.28404],[13.27731,56.28039],[13.27771,56.2798],[13.27749,56.27883],[13.27857,56.27708],[13.27779,56.27677],[13.27583,56.27778],[13.27351,56.27781],[13.27349,56.27688],[13.27302,56.27701],[13.27272,56.2756],[13.27362,56.27542],[13.27378,56.27319],[13.27105,56.26866],[13.26913,56.26871],[13.2663,56.26918],[13.26183,56.26956],[13.25464,56.2694],[13.25183,56.26967],[13.25076,56.26929],[13.24916,56.26756],[13.24685,56.26629],[13.2446,56.26552],[13.24094,56.26481],[13.23835,56.26456],[13.23555,56.26469],[13.23307,56.26518],[13.23088,56.26599],[13.22869,56.26746],[13.22738,56.2693],[13.2272,56.27139],[13.22834,56.27353],[13.23024,56.275],[13.23152,56.27636],[13.23443,56.27844],[13.23969,56.28113],[13.24265,56.28202],[13.24497,56.28357],[13.24767,56.28449],[13.2506,56.28581],[13.2498,56.28677],[13.24929,56.28792],[13.24533,56.2882],[13.24188,56.28899],[13.23898,56.2904],[13.23724,56.29212],[13.23665,56.29366],[13.23688,56.2955],[13.23839,56.29744],[13.23836,56.29873],[13.23896,56.30016],[13.2399,56.30124],[13.24111,56.30215],[13.24432,56.3035],[13.24622,56.3039],[13.24883,56.3041],[13.255,56.30357],[13.25687,56.30314],[13.25898,56.30231],[13.26052,56.30383],[13.26284,56.305],[13.26682,56.30622],[13.27169,56.30726],[13.27379,56.30856],[13.276,56.30936],[13.27957,56.31014],[13.28217,56.31043],[13.28429,56.3104],[13.287,56.31003],[13.28918,56.3094],[13.2909,56.30866],[13.29258,56.30753],[13.29349,56.30652],[13.29386,56.30587],[13.29335,56.30565]]]}},{"type":"Feature","id":"1257R004","properties":{"code":"1257R004","name":"Örkelljunga östra"},"geometry":{"type":"Polygon","coordinates":[[[13.33502,56.30129],[13.33764,56.30111],[13.33954,56.30073],[13.34176,56.29994],[13.34319,56.29915],[13.34466,56.29785],[13.34585,56.29595],[13.34627,56.29487],[13.34626,56.29352],[13.34897,56.29258],[13.35051,56.29184],[13.35206,56.29065],[13.35292,56.28953],[13.35338,56.28741],[13.35201,56.28373],[13.35062,56.28237],[13.3462,56.27956],[13.34458,56.27889],[13.34218,56.27829],[13.33759,56.27767],[13.33511,56.2776],[13.33183,56.27647],[13.32964,56.27484],[13.32819,56.27406],[13.32649,56.27344],[13.32402,56.27292],[13.32231,56.27221],[13.32078,56.26957],[13.31963,56.26839],[13.31891,56.26676],[13.3173,56.26504],[13.31445,56.26359],[13.31179,56.26277],[13.30996,56.26243],[13.30803,56.26228],[13.30549,56.2624],[13.30131,56.26334],[13.29882,56.26176],[13.296,56.26087],[13.29245,56.26046],[13.28906,56.26069],[13.28664,56.26127],[13.28455,56.26216],[13.28284,56.2634],[13.28175,56.26488],[13.27891,56.26588],[13.27654,56.26755],[13.27417,56.26804],[13.27228,56.26873],[13.27105,56.26866],[13.27378,56.27319],[13.27362,56.27542],[13.27272,56.2756],[13.27302,56.27701],[13.27349,56.27688],[13.27351,56.27781],[13.27583,56.27778],[13.27779,56.27677],[13.27857,56.27708],[13.27784,56.27858],[13.2806,56.27868],[13.28181,56.27836],[13.28303,56.2786],[13.28242,56.27966],[13.28169,56.28017],[13.28342,56.2819],[13.28412,56.28226],[13.2853,56.28229],[13.28606,56.28194],[13.28671,56.28197],[13.28689,56.28161],[13.28742,56.28166],[13.2879,56.28176],[13.28837,56.28236],[13.289,56.28262],[13.29178,56.28308],[13.29185,56.28354],[13.29235,56.28396],[13.29389,56.28459],[13.29405,56.28487],[13.29507,56.28479],[13.2954,56.28491],[13.2956,56.28532],[13.30047,56.28568],[13.30115,56.28538],[13.30211,56.2853],[13.3045,56.28566],[13.30458,56.28635],[13.30753,56.28686],[13.3071,56.28761],[13.30616,56.28773],[13.30626,56.29046],[13.30749,56.29045],[13.30834,56.29322],[13.30844,56.29576],[13.30894,56.29604],[13.31228,56.29548],[13.31439,56.29555],[13.31869,56.29719],[13.32248,56.29775],[13.32423,56.2988],[13.32669,56.29985],[13.32689,56.30053],[13.32776,56.30019],[13.33224,56.30109],[13.33502,56.30129]]]}}]}