{"type":"FeatureCollection","features":[{"type":"Feature","id":"1261R005","properties":{"code":"1261R005","name":"Kävlinge centrum"},"geometry":{"type":"Polygon","coordinates":[[[13.11123,55.79141],[13.10945,55.78697],[13.10851,55.78731],[13.10742,55.78731],[13.10849,55.78521],[13.10805,55.78475],[13.10778,55.78289],[13.10737,55.78305],[13.10743,55.78283],[13.10664,55.78198],[13.10156,55.77857],[13.09792,55.77563],[13.09436,55.77339],[13.09096,55.77178],[13.07997,55.77859],[13.07838,55.77925],[13.07757,55.77991],[13.07277,55.77888],[13.07257,55.77847],[13.07278,55.77776],[13.07088,55.77572],[13.06516,55.77353],[13.06415,55.77276],[13.06433,55.7723],[13.06317,55.77238],[13.06333,55.7727],[13.06268,55.77502],[13.06322,55.77686],[13.06424,55.77827],[13.06575,55.7796],[13.06599,55.78082],[13.06686,55.78216],[13.06834,55.78335],[13.07018,55.78424],[13.07395,55.78515],[13.07778,55.78551],[13.078,55.78534],[13.0931,55.79026],[13.09533,55.79056],[13.10049,55.79072],[13.10299,55.79122],[13.10056,55.79367],[13.10519,55.79482],[13.10507,55.79535],[13.10605,55.79565],[13.10589,55.79602],[13.10724,55.79638],[13.10801,55.79757],[13.1107,55.79758],[13.1113,55.79338],[13.11123,55.79141]]]}},{"type":"Feature","id":"1261R001","properties":{"code":"1261R001","name":"Arvidsborg-Korsbacka"},"geometry":{"type":"Polygon","coordinates":[[[13.0956,55.79978],[13.09825,55.79888],[13.10221,55.79805],[13.10801,55.79757],[13.10767,55.79678],[13.10724,55.79638],[13.10589,55.79602],[13.10605,55.79565],[13.10507,55.79535],[13.10519,55.79482],[13.10056,55.79367],[13.09831,55.79624],[13.09635,55.79577],[13.09527,55.79497],[13.09606,55.79409],[13.09099,55.7931],[13.087,55.79479],[13.08975,55.79671],[13.09218,55.79806],[13.0956,55.79978]]]}},{"type":"Feature","id":"1261R002","properties":{"code":"1261R002","name":"Dösjebro"},"geometry":{"type":"Polygon","coordinates":[[[13.03406,55.83207],[13.03409,55.83162],[13.03515,55.83158],[13.03472,55.83059],[13.03374,55.8294],[13.03754,55.82902],[13.04079,55.82789],[13.04274,55.82648],[13.04383,55.82479],[13.0454,55.82347],[13.04705,55.82285],[13.04858,55.82197],[13.05132,55.82156],[13.05311,55.82106],[13.05469,55.82038],[13.0561,55.81947],[13.0599,55.81963],[13.06415,55.81894],[13.06633,55.81817],[13.06807,55.81714],[13.06954,55.81553],[13.07,55.8134],[13.06951,55.812],[13.06668,55.80831],[13.06459,55.80664],[13.06121,55.80513],[13.05894,55.80445],[13.05645,55.80412],[13.05424,55.80295],[13.05211,55.80229],[13.04994,55.80115],[13.04816,55.79949],[13.04482,55.79769],[13.04321,55.79717],[13.04086,55.79676],[13.03886,55.79667],[13.03584,55.79684],[13.03302,55.79737],[13.03053,55.79837],[13.0287,55.79977],[13.02786,55.80108],[13.02754,55.80288],[13.02791,55.80421],[13.02686,55.80575],[13.02667,55.80753],[13.02747,55.80976],[13.0283,55.81074],[13.02971,55.81175],[13.02668,55.81163],[13.0196,55.81213],[13.01487,55.81305],[13.01047,55.8135],[13.00878,55.81394],[13.00703,55.81466],[13.0066,55.81401],[13.00678,55.81241],[13.00813,55.81148],[13.00899,55.81054],[13.00991,55.80888],[13.01005,55.8075],[13.00958,55.80614],[13.00815,55.804],[13.0062,55.80227],[13.00722,55.80063],[13.00739,55.79917],[13.00685,55.79764],[13.00542,55.79563],[13.00684,55.79465],[13.00775,55.79365],[13.00841,55.79224],[13.00848,55.79098],[12.9987,55.79093],[12.99323,55.79538],[12.99293,55.79529],[12.99265,55.79542],[12.99288,55.79566],[12.99136,55.79677],[12.98916,55.79916],[12.99186,55.79994],[12.99228,55.80023],[12.99185,55.80094],[12.99104,55.80084],[12.98887,55.80264],[12.98633,55.80216],[12.98408,55.80459],[12.98123,55.8083],[12.98558,55.80945],[12.98467,55.81116],[12.98171,55.81486],[12.98255,55.8149],[12.97842,55.81957],[12.97426,55.81987],[12.97466,55.81938],[12.97198,55.81925],[12.96969,55.82197],[12.96806,55.82429],[12.96757,55.82541],[12.97774,55.82459],[12.98045,55.82717],[12.98074,55.82661],[12.98208,55.82613],[12.98267,55.82567],[12.98581,55.82598],[12.9883,55.82576],[12.98914,55.82523],[12.99238,55.825],[12.9928,55.82538],[12.99336,55.82403],[12.99465,55.82353],[12.99503,55.82355],[12.9956,55.82418],[12.99652,55.82413],[12.99638,55.82572],[13.00046,55.82569],[13.00167,55.82559],[13.00212,55.82376],[13.00274,55.82379],[13.00371,55.82414],[13.00547,55.82378],[13.0066,55.82418],[13.0069,55.82406],[13.0068,55.82365],[13.00749,55.82366],[13.00805,55.82375],[13.00878,55.82431],[13.01161,55.82489],[13.01293,55.82416],[13.01315,55.82368],[13.01372,55.82337],[13.01523,55.82339],[13.01625,55.82297],[13.01894,55.82233],[13.02064,55.82249],[13.0215,55.82295],[13.02293,55.82315],[13.02355,55.82306],[13.02422,55.82251],[13.02586,55.82243],[13.02556,55.82221],[13.02577,55.8221],[13.02825,55.8219],[13.02861,55.822],[13.02878,55.8229],[13.02841,55.82298],[13.02799,55.82277],[13.02778,55.82291],[13.02801,55.82324],[13.02898,55.82336],[13.02907,55.82363],[13.02881,55.82425],[13.02819,55.82432],[13.02858,55.8247],[13.0278,55.82608],[13.02838,55.82613],[13.02869,55.82594],[13.0291,55.82604],[13.02903,55.82631],[13.02834,55.82636],[13.0288,55.82677],[13.03022,55.82646],[13.03079,55.82659],[13.03105,55.82684],[13.03043,55.82705],[13.03048,55.8276],[13.03177,55.82805],[13.0315,55.82834],[13.03006,55.82817],[13.03009,55.82916],[13.02968,55.82908],[13.02967,55.82849],[13.02862,55.8282],[13.02816,55.82914],[13.03026,55.82985],[13.02978,55.83054],[13.03042,55.83079],[13.03059,55.83139],[13.03126,55.83172],[13.03163,55.83136],[13.03255,55.83115],[13.03301,55.83137],[13.03305,55.83186],[13.03406,55.83207]]]}},{"type":"Feature","id":"1261R003","properties":{"code":"1261R003","name":"Furulund-Lackalänga"},"geometry":{"type":"Polygon","coordinates":[[[13.13051,55.79164],[13.13529,55.79156],[13.13706,55.79134],[13.1369,55.78934],[13.13917,55.78608],[13.13524,55.78623],[13.13226,55.78684],[13.13056,55.78575],[13.12828,55.78488],[13.12754,55.78365],[13.12652,55.78269],[13.12506,55.78178],[13.12319,55.78103],[13.12321,55.77791],[13.12432,55.777],[13.12551,55.77545],[13.12598,55.77332],[13.12566,55.77223],[13.12421,55.76995],[13.12284,55.76876],[13.12144,55.76799],[13.11929,55.76724],[13.1142,55.76619],[13.11039,55.76612],[13.10403,55.76716],[13.10051,55.76662],[13.09824,55.76647],[13.09506,55.76572],[13.09426,55.76468],[13.09282,55.76346],[13.08902,55.76109],[13.08506,55.75983],[13.08384,55.75832],[13.08158,55.75675],[13.07908,55.75569],[13.07522,55.7548],[13.07141,55.75471],[13.06606,55.75569],[13.06117,55.75722],[13.05832,55.75869],[13.05674,55.76014],[13.05589,55.76198],[13.0559,55.7631],[13.05648,55.76454],[13.0559,55.76574],[13.05579,55.76679],[13.05639,55.76849],[13.05752,55.76972],[13.05917,55.77075],[13.06184,55.77167],[13.06317,55.77238],[13.06433,55.7723],[13.06415,55.77276],[13.06516,55.77353],[13.07088,55.77572],[13.07278,55.77776],[13.07257,55.77847],[13.07277,55.77888],[13.07757,55.77991],[13.07838,55.77925],[13.07997,55.77859],[13.09096,55.77178],[13.09436,55.77339],[13.09792,55.77563],[13.10156,55.77857],[13.10664,55.78198],[13.10743,55.78283],[13.10737,55.78305],[13.10778,55.78289],[13.10805,55.78475],[13.10849,55.78521],[13.10742,55.78731],[13.10896,55.78716],[13.11095,55.78611],[13.11304,55.7854],[13.11367,55.78528],[13.1143,55.78538],[13.11433,55.78551],[13.11534,55.78552],[13.11712,55.78635],[13.11783,55.78688],[13.11779,55.7881],[13.11938,55.78931],[13.1228,55.78944],[13.12442,55.7897],[13.12596,55.79149],[13.1269,55.79201],[13.1282,55.79203],[13.13051,55.79164]]]}},{"type":"Feature","id":"1261R004","properties":{"code":"1261R004","name":"Hofterup-Ålstorp"},"geometry":{"type":"Polygon","coordinates":[[[12.96002,55.82602],[12.96757,55.82541],[12.96806,55.82429],[12.96969,55.82197],[12.97198,55.81925],[12.97466,55.81938],[12.97426,55.81987],[12.97842,55.81957],[12.98255,55.8149],[12.98171,55.81486],[12.98467,55.81116],[12.98558,55.80945],[12.98123,55.8083],[12.98408,55.80459],[12.98633,55.80216],[12.98887,55.80264],[12.99104,55.80084],[12.99185,55.80094],[12.99228,55.80023],[12.99186,55.79994],[12.98916,55.79916],[12.99136,55.79677],[12.99288,55.79566],[12.99265,55.79542],[12.99293,55.79529],[12.99323,55.79538],[12.9987,55.79093],[13.00848,55.79098],[13.00776,55.78921],[13.0064,55.78785],[13.0041,55.7866],[13.00112,55.78563],[12.99871,55.78531],[12.99607,55.78533],[12.99312,55.78585],[12.9903,55.78705],[12.98802,55.78683],[12.98887,55.78577],[12.98938,55.78423],[12.98919,55.78277],[12.9886,55.78165],[12.98733,55.78037],[12.98554,55.77931],[12.98372,55.77864],[12.98129,55.77813],[12.97749,55.77803],[12.9718,55.77877],[12.96823,55.77995],[12.96651,55.78105],[12.96477,55.78279],[12.96081,55.78427],[12.95882,55.7843],[12.95333,55.78291],[12.95033,55.78243],[12.94622,55.78216],[12.94299,55.78248],[12.94071,55.78313],[12.93878,55.78407],[12.93727,55.78531],[12.93641,55.78666],[12.936,55.78945],[12.93639,55.7913],[12.93632,55.79278],[12.937,55.79531],[12.93834,55.79712],[12.9401,55.79836],[12.94166,55.79906],[12.94848,55.8008],[12.95155,55.80112],[12.95346,55.8011],[12.95642,55.80072],[12.95824,55.80028],[12.95787,55.80161],[12.95812,55.80302],[12.9596,55.80491],[12.96178,55.80619],[12.96153,55.80857],[12.95969,55.81037],[12.95896,55.81141],[12.95386,55.81337],[12.95158,55.815],[12.9509,55.81597],[12.95051,55.81734],[12.95064,55.81842],[12.95123,55.8196],[12.94772,55.81865],[12.94398,55.81791],[12.93947,55.81772],[12.93692,55.81793],[12.93404,55.81867],[12.93011,55.82078],[12.92612,55.82218],[12.92474,55.82299],[12.92339,55.82426],[12.92994,55.82532],[12.93266,55.82519],[12.9509,55.82721],[12.95969,55.82673],[12.96002,55.82602]]]}},{"type":"Feature","id":"1261R006","properties":{"code":"1261R006","name":"Kävlinge nordväst"},"geometry":{"type":"Polygon","coordinates":[[[13.12207,55.81168],[13.1242,55.80988],[13.11579,55.80982],[13.11484,55.80787],[13.11578,55.80695],[13.11653,55.80572],[13.11326,55.80363],[13.11197,55.80319],[13.11071,55.80246],[13.11094,55.79759],[13.10764,55.79757],[13.10221,55.79805],[13.09825,55.79888],[13.0956,55.79978],[13.08975,55.79671],[13.087,55.79479],[13.09099,55.7931],[13.09606,55.79409],[13.09527,55.79497],[13.09635,55.79577],[13.09831,55.79624],[13.09995,55.79417],[13.10299,55.79122],[13.10049,55.79072],[13.09533,55.79056],[13.0931,55.79026],[13.078,55.78534],[13.07778,55.78551],[13.07902,55.7859],[13.07491,55.78834],[13.0731,55.79033],[13.07266,55.7923],[13.07328,55.79407],[13.07494,55.79573],[13.08114,55.79963],[13.08746,55.80222],[13.09052,55.80324],[13.0904,55.8051],[13.09086,55.80663],[13.09193,55.80798],[13.09372,55.80927],[13.0966,55.81053],[13.1004,55.81151],[13.10244,55.81185],[13.10582,55.81274],[13.11245,55.81364],[13.11592,55.81348],[13.11955,55.81277],[13.12207,55.81168]]]}},{"type":"Feature","id":"1261R007","properties":{"code":"1261R007","name":"Kävlinge norra-Stationsstaden-Rinnebäck"},"geometry":{"type":"Polygon","coordinates":[[[13.12666,55.80581],[13.12861,55.8055],[13.13069,55.80587],[13.13325,55.80598],[13.13666,55.80568],[13.13847,55.80532],[13.14157,55.80406],[13.14274,55.80321],[13.14372,55.80208],[13.146,55.80079],[13.149,55.80042],[13.15174,55.79953],[13.15388,55.79817],[13.15513,55.79653],[13.15553,55.79448],[13.15482,55.79274],[13.15205,55.78947],[13.14704,55.79136],[13.14484,55.79185],[13.14209,55.79147],[13.14087,55.79093],[13.13961,55.79076],[13.1357,55.79152],[13.13078,55.7916],[13.1282,55.79203],[13.1269,55.79201],[13.12596,55.79149],[13.12466,55.78981],[13.1231,55.78946],[13.11938,55.78931],[13.11779,55.7881],[13.11799,55.78708],[13.11712,55.78635],[13.11534,55.78552],[13.11433,55.78551],[13.1143,55.78538],[13.11367,55.78528],[13.11304,55.7854],[13.11095,55.78611],[13.10945,55.78697],[13.11077,55.78996],[13.11133,55.79231],[13.1107,55.79758],[13.11094,55.79759],[13.11071,55.80246],[13.11197,55.80319],[13.11326,55.80363],[13.11653,55.80572],[13.11578,55.80695],[13.11484,55.80787],[13.11579,55.80982],[13.1242,55.80988],[13.12618,55.80731],[13.12666,55.80581]]]}},{"type":"Feature","id":"1261R008","properties":{"code":"1261R008","name":"Kävlinge omland"},"geometry":{"type":"Polygon","coordinates":[[[13.07006,55.84502],[13.07289,55.84593],[13.07397,55.84418],[13.07304,55.84297],[13.0808,55.84115],[13.08024,55.84074],[13.08071,55.84058],[13.08138,55.8396],[13.07978,55.83761],[13.10908,55.83131],[13.10903,55.83214],[13.10961,55.83121],[13.1133,55.8283],[13.11889,55.83091],[13.14787,55.82971],[13.14744,55.82908],[13.15405,55.82893],[13.15221,55.83048],[13.16236,55.83075],[13.16239,55.83223],[13.16292,55.83432],[13.16755,55.83416],[13.17151,55.83526],[13.17136,55.83597],[13.17502,55.83882],[13.20094,55.84285],[13.20262,55.84336],[13.21123,55.84494],[13.21275,55.84212],[13.21506,55.84143],[13.2105,55.83278],[13.20956,55.82885],[13.20956,55.82774],[13.21253,55.82783],[13.21219,55.82489],[13.21898,55.8232],[13.21945,55.82248],[13.2197,55.81989],[13.21885,55.81998],[13.21869,55.81675],[13.21722,55.8169],[13.21809,55.81458],[13.21548,55.81361],[13.21303,55.81031],[13.21495,55.7951],[13.21677,55.79154],[13.21875,55.78931],[13.21456,55.78608],[13.20598,55.78678],[13.20651,55.78628],[13.20636,55.78604],[13.20379,55.78649],[13.20355,55.78617],[13.20238,55.78669],[13.20254,55.78687],[13.20001,55.78837],[13.1943,55.79111],[13.19249,55.79139],[13.18916,55.79124],[13.18674,55.79284],[13.1838,55.79401],[13.18279,55.79392],[13.18003,55.79304],[13.17631,55.7916],[13.17514,55.7916],[13.17345,55.79219],[13.17193,55.79232],[13.17096,55.79191],[13.16911,55.79038],[13.1675,55.78988],[13.16505,55.78982],[13.16219,55.79053],[13.16111,55.79058],[13.15607,55.78912],[13.15502,55.78898],[13.15325,55.78909],[13.15205,55.78947],[13.15503,55.79306],[13.15555,55.79485],[13.1549,55.79697],[13.15311,55.79877],[13.15015,55.80013],[13.14838,55.80055],[13.146,55.80079],[13.14372,55.80208],[13.14274,55.80321],[13.14157,55.80406],[13.13847,55.80532],[13.13666,55.80568],[13.13325,55.80598],[13.13069,55.80587],[13.12861,55.8055],[13.12666,55.80581],[13.12592,55.80772],[13.12359,55.81051],[13.12207,55.81168],[13.12012,55.81258],[13.1184,55.81306],[13.11532,55.81355],[13.11306,55.81365],[13.11108,55.81353],[13.10854,55.81303],[13.10582,55.81274],[13.10244,55.81185],[13.1004,55.81151],[13.0966,55.81053],[13.09372,55.80927],[13.09193,55.80798],[13.09086,55.80663],[13.0904,55.8051],[13.09052,55.80324],[13.08746,55.80222],[13.08114,55.79963],[13.07494,55.79573],[13.07351,55.79438],[13.07266,55.7923],[13.07277,55.79118],[13.07329,55.79],[13.07491,55.78834],[13.07902,55.7859],[13.07806,55.78553],[13.07395,55.78515],[13.07078,55.78445],[13.06876,55.78359],[13.06686,55.78216],[13.06599,55.78082],[13.06575,55.7796],[13.06424,55.77827],[13.06305,55.77649],[13.06268,55.77468],[13.06333,55.7727],[13.06314,55.77232],[13.05828,55.77026],[13.05688,55.76912],[13.05603,55.76782],[13.05582,55.76608],[13.05648,55.76454],[13.05598,55.76344],[13.05586,55.76232],[13.05674,55.76014],[13.05796,55.75897],[13.0596,55.75793],[13.06453,55.75608],[13.07077,55.75478],[13.07272,55.75465],[13.07522,55.7548],[13.07908,55.75569],[13.08158,55.75675],[13.08384,55.75832],[13.08506,55.75983],[13.08902,55.76109],[13.09282,55.76346],[13.09426,55.76468],[13.09506,55.76572],[13.09824,55.76647],[13.10051,55.76662],[13.10403,55.76716],[13.10975,55.76618],[13.11297,55.76609],[13.11606,55.76647],[13.1204,55.76758],[13.1224,55.76849],[13.12391,55.76963],[13.12592,55.77295],[13.12593,55.77437],[13.12551,55.77545],[13.12432,55.777],[13.12321,55.77791],[13.12319,55.78103],[13.12506,55.78178],[13.12652,55.78269],[13.12754,55.78365],[13.12828,55.78488],[13.13056,55.78575],[13.13226,55.78684],[13.13524,55.78623],[13.13917,55.78608],[13.14281,55.78056],[13.13519,55.76978],[13.13652,55.76929],[13.14173,55.76827],[13.1425,55.76825],[13.14501,55.76917],[13.14225,55.76544],[13.13451,55.75818],[13.14157,55.75183],[13.13663,55.75022],[13.13862,55.74894],[13.12599,55.74843],[13.12676,55.74742],[13.11845,55.74727],[13.11662,55.74762],[13.11054,55.74826],[13.10913,55.7482],[13.10023,55.74692],[13.0907,55.74513],[13.08705,55.7444],[13.08746,55.74363],[13.08358,55.74302],[13.07727,55.73946],[13.07414,55.74247],[13.07288,55.74204],[13.07309,55.74352],[13.0727,55.74198],[13.06892,55.74068],[13.06527,55.74184],[13.06451,55.74268],[13.06891,55.7442],[13.06702,55.74439],[13.06263,55.74779],[13.06062,55.75003],[13.05705,55.75135],[13.05296,55.75464],[13.04848,55.75697],[13.04773,55.75623],[13.04719,55.75601],[13.04361,55.75586],[13.03818,55.75357],[13.03648,55.75245],[13.03337,55.75268],[13.03103,55.75335],[13.02783,55.75289],[13.03028,55.75445],[13.03362,55.7556],[13.03824,55.75843],[13.03989,55.76036],[13.04053,55.76312],[13.04171,55.76384],[13.03931,55.76955],[13.03875,55.76959],[13.03712,55.77085],[13.0351,55.77177],[13.03139,55.77257],[13.02754,55.77295],[13.02383,55.77297],[13.02243,55.77376],[13.02026,55.77453],[13.01785,55.77495],[13.01541,55.77503],[13.01271,55.77642],[13.00928,55.77718],[13.00751,55.77841],[13.00542,55.77925],[13.00073,55.78011],[12.99816,55.78018],[12.99573,55.77994],[12.99302,55.77933],[12.9907,55.77843],[12.98706,55.77863],[12.98338,55.77811],[12.97885,55.77658],[12.97543,55.77441],[12.97504,55.77582],[12.97439,55.77683],[12.97328,55.77787],[12.9718,55.77877],[12.9773,55.77804],[12.98009,55.77801],[12.98318,55.77849],[12.986,55.77953],[12.98835,55.78133],[12.98929,55.7831],[12.98921,55.78501],[12.98802,55.78683],[12.9903,55.78705],[12.99207,55.78619],[12.99427,55.78558],[12.99668,55.78529],[12.99931,55.78536],[13.00171,55.78577],[13.0041,55.7866],[13.00561,55.78733],[13.00716,55.78851],[13.00832,55.79029],[13.00849,55.79179],[13.00751,55.79397],[13.00542,55.79563],[13.00685,55.79764],[13.00739,55.79917],[13.00722,55.80063],[13.0062,55.80227],[13.00761,55.80336],[13.00905,55.80529],[13.00989,55.8068],[13.01008,55.80784],[13.00977,55.80921],[13.00899,55.81054],[13.00813,55.81148],[13.00678,55.81241],[13.0066,55.81401],[13.00703,55.81466],[13.00878,55.81394],[13.01047,55.8135],[13.01487,55.81305],[13.0196,55.81213],[13.02668,55.81163],[13.02971,55.81175],[13.0283,55.81074],[13.02747,55.80976],[13.02667,55.80753],[13.02686,55.80575],[13.02791,55.80421],[13.02754,55.80288],[13.02786,55.80108],[13.0287,55.79977],[13.03053,55.79837],[13.03302,55.79737],[13.03584,55.79684],[13.04021,55.79671],[13.04204,55.79692],[13.04428,55.79749],[13.04775,55.79924],[13.04899,55.80012],[13.04994,55.80115],[13.05211,55.80229],[13.05424,55.80295],[13.05645,55.80412],[13.05837,55.80434],[13.06066,55.80493],[13.06369,55.80617],[13.06512,55.80697],[13.06668,55.80831],[13.06928,55.81165],[13.06994,55.81306],[13.06995,55.81448],[13.06954,55.81553],[13.0677,55.81741],[13.06527,55.8186],[13.06179,55.8194],[13.05925,55.81966],[13.0561,55.81947],[13.05469,55.82038],[13.05311,55.82106],[13.05132,55.82156],[13.04858,55.82197],[13.04705,55.82285],[13.0454,55.82347],[13.04383,55.82479],[13.04274,55.82648],[13.04079,55.82789],[13.03754,55.82902],[13.03374,55.8294],[13.03472,55.83059],[13.03515,55.83158],[13.03773,55.83257],[13.03755,55.83335],[13.03831,55.83407],[13.04037,55.83439],[13.04203,55.83441],[13.04348,55.83481],[13.04314,55.83522],[13.04562,55.83615],[13.04561,55.83584],[13.04617,55.83559],[13.04701,55.83536],[13.04748,55.83544],[13.04765,55.83568],[13.04674,55.83593],[13.04697,55.8363],[13.04755,55.83646],[13.0482,55.83615],[13.04899,55.83669],[13.04822,55.83673],[13.04785,55.83737],[13.04883,55.83726],[13.04986,55.83782],[13.05086,55.83767],[13.05056,55.83793],[13.05003,55.83796],[13.0501,55.83815],[13.05045,55.83823],[13.05117,55.83803],[13.05192,55.83849],[13.05476,55.83901],[13.05523,55.83945],[13.05582,55.83938],[13.05776,55.8384],[13.05909,55.83943],[13.05903,55.84006],[13.05782,55.84055],[13.05773,55.84086],[13.05843,55.84124],[13.05904,55.84116],[13.05912,55.8407],[13.05938,55.84068],[13.05971,55.84108],[13.06075,55.84112],[13.06125,55.84156],[13.06292,55.84181],[13.06338,55.84275],[13.06431,55.84272],[13.06643,55.84321],[13.06584,55.84408],[13.06587,55.84451],[13.06777,55.84594],[13.06918,55.84582],[13.07006,55.84502]]]}},{"type":"Feature","id":"1261R009","properties":{"code":"1261R009","name":"Löddeköpinge"},"geometry":{"type":"Polygon","coordinates":[[[13.01271,55.77642],[13.01541,55.77503],[13.01785,55.77495],[13.02026,55.77453],[13.02243,55.77376],[13.02383,55.77297],[13.02754,55.77295],[13.03199,55.7725],[13.03387,55.77214],[13.03574,55.77152],[13.03763,55.77052],[13.03875,55.76959],[13.03931,55.76955],[13.04171,55.76384],[13.04053,55.76312],[13.03989,55.76036],[13.03824,55.75843],[13.03362,55.7556],[13.03028,55.75445],[13.02783,55.75289],[13.02709,55.75344],[13.02648,55.75455],[13.02647,55.75511],[13.02551,55.75652],[13.02511,55.75678],[13.02323,55.75694],[13.0193,55.75668],[13.01755,55.75623],[13.01645,55.75523],[13.01705,55.75408],[13.01169,55.75575],[13.00953,55.75402],[13.00759,55.75205],[13.00716,55.75209],[13.00119,55.75424],[12.99691,55.75656],[12.99434,55.75871],[12.98878,55.7648],[12.9847,55.76786],[12.98842,55.77039],[12.99793,55.77473],[13.00147,55.77767],[13.00044,55.78013],[13.0037,55.77966],[13.00599,55.77907],[13.00794,55.77817],[13.00928,55.77718],[13.01271,55.77642]]]}},{"type":"Feature","id":"1261R010","properties":{"code":"1261R010","name":"Löddeköpinge väster-Barsebäck"},"geometry":{"type":"Polygon","coordinates":[[[12.93947,55.81772],[12.94273,55.81779],[12.94461,55.81801],[12.95123,55.8196],[12.95064,55.81842],[12.95051,55.81734],[12.95132,55.81531],[12.95259,55.81412],[12.95386,55.81337],[12.95896,55.81141],[12.95969,55.81037],[12.96153,55.80857],[12.96178,55.80619],[12.95998,55.8052],[12.95847,55.80368],[12.95787,55.80197],[12.95824,55.80028],[12.95642,55.80072],[12.95346,55.8011],[12.95155,55.80112],[12.94848,55.8008],[12.94166,55.79906],[12.9401,55.79836],[12.93834,55.79712],[12.9374,55.79605],[12.93667,55.79434],[12.936,55.78979],[12.93641,55.78666],[12.93795,55.78466],[12.93965,55.78359],[12.94134,55.78291],[12.94369,55.78236],[12.94622,55.78216],[12.95098,55.7825],[12.95665,55.78365],[12.95882,55.7843],[12.96081,55.78427],[12.96477,55.78279],[12.96651,55.78105],[12.96823,55.77995],[12.9718,55.77877],[12.9729,55.77814],[12.97465,55.77649],[12.97543,55.77441],[12.97885,55.77658],[12.98338,55.77811],[12.98706,55.77863],[12.9907,55.77843],[12.99248,55.77917],[12.99515,55.77984],[12.99816,55.78018],[13.00044,55.78013],[13.00147,55.77767],[12.99793,55.77473],[12.98842,55.77039],[12.9847,55.76786],[12.98878,55.7648],[12.99488,55.75817],[12.99789,55.75589],[12.99933,55.75512],[13.00365,55.75326],[13.00759,55.75205],[13.00953,55.75402],[13.01169,55.75575],[13.01705,55.75408],[13.01724,55.75368],[13.01699,55.75128],[13.01565,55.74995],[13.014,55.74893],[13.01338,55.74828],[13.01331,55.74756],[13.01387,55.74562],[13.01344,55.74504],[13.01144,55.74406],[13.01134,55.74371],[13.01224,55.74283],[13.01237,55.74235],[13.01199,55.7419],[13.01067,55.74156],[13.00784,55.74173],[13.00627,55.74123],[13.00585,55.7405],[13.00583,55.73886],[13.00417,55.73466],[13.00369,55.73429],[13.00145,55.73398],[13.00097,55.73377],[12.99921,55.73243],[12.99792,55.73175],[12.99628,55.72925],[12.99254,55.72852],[12.99081,55.72574],[12.98506,55.70594],[12.97233,55.67977],[12.87616,55.66397],[12.84575,55.69858],[12.758,55.77991],[12.85385,55.81463],[12.92339,55.82426],[12.92438,55.82326],[12.92568,55.82241],[12.93011,55.82078],[12.9335,55.81889],[12.9363,55.81804],[12.93947,55.81772]]]}}]}