{"type":"FeatureCollection","features":[{"type":"Feature","id":"1262R001","properties":{"code":"1262R001","name":"Bjärred norra"},"geometry":{"type":"Polygon","coordinates":[[[13.02785,55.75288],[13.03103,55.75335],[13.03337,55.75268],[13.03648,55.75245],[13.03818,55.75357],[13.04361,55.75586],[13.04719,55.75601],[13.04773,55.75623],[13.04848,55.75697],[13.05296,55.75464],[13.05705,55.75135],[13.06062,55.75003],[13.06263,55.74779],[13.06702,55.74439],[13.06891,55.7442],[13.06451,55.74268],[13.06566,55.74163],[13.06892,55.74068],[13.0727,55.74198],[13.07309,55.74352],[13.07288,55.74204],[13.07414,55.74247],[13.07727,55.73946],[13.08072,55.74142],[13.08145,55.73994],[13.07782,55.73812],[13.07677,55.73727],[13.07717,55.73649],[13.07724,55.73467],[13.07608,55.73413],[13.07303,55.73624],[13.07113,55.73538],[13.06841,55.73555],[13.06819,55.73534],[13.06545,55.73535],[13.06276,55.73494],[13.0609,55.73438],[13.05893,55.73343],[13.05745,55.73223],[13.05642,55.73058],[13.05357,55.72954],[13.05345,55.73148],[13.05259,55.73294],[13.04904,55.73152],[13.04968,55.73001],[13.04576,55.72787],[13.04157,55.72805],[13.03959,55.7293],[13.03357,55.72709],[13.03336,55.72754],[13.02968,55.72914],[13.02933,55.72909],[13.02825,55.72885],[13.02775,55.72793],[13.02518,55.72773],[13.02486,55.72736],[13.01886,55.72543],[13.00592,55.72062],[12.99008,55.71625],[12.98781,55.71542],[12.99081,55.72574],[12.99254,55.72852],[12.99628,55.72925],[12.99792,55.73175],[12.99921,55.73243],[13.00097,55.73377],[13.00145,55.73398],[13.00369,55.73429],[13.00417,55.73466],[13.00583,55.73886],[13.00585,55.7405],[13.00627,55.74123],[13.00784,55.74173],[13.01141,55.74164],[13.01237,55.74235],[13.01224,55.74283],[13.01134,55.74371],[13.01144,55.74406],[13.01205,55.74448],[13.01379,55.74529],[13.01338,55.74828],[13.014,55.74893],[13.01565,55.74995],[13.01699,55.75128],[13.01724,55.75368],[13.01642,55.75493],[13.01704,55.75592],[13.01789,55.75637],[13.0193,55.75668],[13.02323,55.75694],[13.02511,55.75678],[13.02647,55.75511],[13.02648,55.75455],[13.02709,55.75344],[13.02785,55.75288]]]}},{"type":"Feature","id":"1262R002","properties":{"code":"1262R002","name":"Bjärred södra"},"geometry":{"type":"Polygon","coordinates":[[[13.02682,55.72561],[13.02744,55.72413],[13.02744,55.72297],[13.02787,55.72247],[13.0276,55.72221],[13.02897,55.71734],[13.0396,55.72021],[13.04076,55.7191],[13.03963,55.71828],[13.03938,55.71754],[13.03993,55.71709],[13.04201,55.71663],[13.0422,55.7164],[13.03945,55.71586],[13.0388,55.71588],[13.0388,55.71519],[13.0396,55.71519],[13.04259,55.71594],[13.04532,55.71321],[13.04534,55.71284],[13.04061,55.71241],[13.03792,55.71173],[13.03505,55.71251],[13.03231,55.71219],[13.03126,55.71166],[13.03107,55.71125],[13.02934,55.71108],[13.02903,55.7108],[13.02797,55.71067],[13.02695,55.70939],[13.02297,55.70709],[13.02656,55.69181],[12.97233,55.67977],[12.98506,55.70594],[12.98781,55.71542],[12.99008,55.71625],[13.00592,55.72062],[13.01886,55.72543],[13.02486,55.72736],[13.02518,55.72773],[13.02775,55.72793],[13.02885,55.72669],[13.027,55.72605],[13.02682,55.72561]]]}},{"type":"Feature","id":"1262R003","properties":{"code":"1262R003","name":"Flädie-Fjelie"},"geometry":{"type":"Polygon","coordinates":[[[13.11054,55.74826],[13.11662,55.74762],[13.11845,55.74727],[13.12318,55.74171],[13.1281,55.74419],[13.12937,55.74327],[13.12877,55.74229],[13.13151,55.74251],[13.13314,55.74296],[13.13589,55.74308],[13.13511,55.74103],[13.13615,55.74088],[13.13507,55.73949],[13.1345,55.73768],[13.13697,55.73435],[13.1272,55.73259],[13.13011,55.71947],[13.12156,55.71683],[13.11533,55.71431],[13.11247,55.71042],[13.11207,55.70946],[13.11127,55.70937],[13.11232,55.69996],[13.1117,55.69881],[13.10928,55.69861],[13.10633,55.69799],[13.10644,55.69539],[13.10469,55.69538],[13.0996,55.69848],[13.09741,55.69926],[13.09477,55.69973],[13.09197,55.69981],[13.08967,55.69958],[13.08764,55.69984],[13.0851,55.6999],[13.08255,55.6997],[13.08076,55.69932],[13.0772,55.69816],[13.07409,55.69751],[13.07197,55.69677],[13.07064,55.69609],[13.06973,55.69805],[13.06322,55.69706],[13.06154,55.69944],[13.05838,55.69842],[13.0557,55.69801],[13.05312,55.69779],[13.05144,55.69791],[13.05077,55.6975],[13.05283,55.69547],[13.04311,55.69398],[13.04097,55.69501],[13.02656,55.69181],[13.02297,55.70709],[13.02695,55.70939],[13.02797,55.71067],[13.02903,55.7108],[13.02934,55.71108],[13.03107,55.71125],[13.03126,55.71166],[13.03231,55.71219],[13.03505,55.71251],[13.03792,55.71173],[13.04061,55.71241],[13.04534,55.71284],[13.04532,55.71321],[13.04259,55.71594],[13.0396,55.71519],[13.0388,55.71519],[13.0388,55.71588],[13.03945,55.71586],[13.0422,55.7164],[13.04201,55.71663],[13.03993,55.71709],[13.03938,55.71754],[13.03963,55.71828],[13.04076,55.7191],[13.0396,55.72021],[13.02897,55.71734],[13.0276,55.72221],[13.02787,55.72247],[13.02744,55.72297],[13.02744,55.72413],[13.02682,55.72556],[13.027,55.72605],[13.02885,55.72669],[13.02775,55.72793],[13.02825,55.72885],[13.02968,55.72914],[13.03336,55.72754],[13.03357,55.72709],[13.03959,55.7293],[13.04157,55.72805],[13.04576,55.72787],[13.04968,55.73001],[13.04904,55.73152],[13.05259,55.73294],[13.05345,55.73148],[13.05357,55.72954],[13.05642,55.73058],[13.05745,55.73223],[13.05935,55.73367],[13.0609,55.73438],[13.06333,55.73506],[13.06605,55.73538],[13.06819,55.73534],[13.06841,55.73555],[13.07113,55.73538],[13.07303,55.73624],[13.07608,55.73413],[13.07724,55.73467],[13.07717,55.73649],[13.07677,55.73727],[13.07782,55.73812],[13.08145,55.73994],[13.08072,55.74142],[13.08358,55.74302],[13.08746,55.74363],[13.08705,55.7444],[13.0907,55.74513],[13.10023,55.74692],[13.10832,55.74811],[13.11054,55.74826]]]}},{"type":"Feature","id":"1262R004","properties":{"code":"1262R004","name":"Lomma centrala"},"geometry":{"type":"Polygon","coordinates":[[[13.02656,55.69181],[13.04365,55.68007],[13.05805,55.6806],[13.05922,55.68022],[13.06282,55.68023],[13.06248,55.68167],[13.06705,55.68208],[13.06843,55.68082],[13.07317,55.68027],[13.07277,55.67926],[13.07297,55.67771],[13.07136,55.67526],[13.07167,55.67519],[13.07133,55.67478],[13.073,55.67405],[13.07329,55.67497],[13.07793,55.67448],[13.079,55.6775],[13.08217,55.67713],[13.08619,55.6771],[13.08621,55.67481],[13.08736,55.67479],[13.08644,55.67114],[13.08782,55.66905],[13.08682,55.66743],[13.08636,55.66719],[13.07858,55.66857],[13.06804,55.66993],[13.06641,55.66771],[13.06112,55.66162],[13.05777,55.65995],[13.04431,55.66334],[12.97233,55.67977],[13.02656,55.69181]]]}},{"type":"Feature","id":"1262R005","properties":{"code":"1262R005","name":"Lomma norra"},"geometry":{"type":"Polygon","coordinates":[[[13.08951,55.69961],[13.09258,55.69982],[13.09477,55.69973],[13.09725,55.6993],[13.09912,55.69869],[13.10469,55.69538],[13.10372,55.69529],[13.10369,55.6928],[13.10427,55.6928],[13.10526,55.69249],[13.10556,55.69192],[13.10642,55.6914],[13.10627,55.69071],[13.11277,55.69078],[13.11352,55.68992],[13.11452,55.68936],[13.11187,55.68889],[13.11156,55.68578],[13.10905,55.67852],[13.10989,55.6781],[13.10912,55.67635],[13.11431,55.67564],[13.11273,55.67143],[13.10935,55.67156],[13.10585,55.67117],[13.10601,55.67132],[13.10549,55.67137],[13.1024,55.67304],[13.09841,55.67329],[13.09824,55.67398],[13.08621,55.67481],[13.08619,55.6771],[13.08217,55.67713],[13.079,55.6775],[13.07793,55.67448],[13.07329,55.67497],[13.073,55.67405],[13.07133,55.67478],[13.07167,55.67519],[13.07136,55.67526],[13.07297,55.67771],[13.07277,55.67926],[13.07317,55.68027],[13.06843,55.68082],[13.06705,55.68208],[13.06248,55.68167],[13.06282,55.68023],[13.05922,55.68022],[13.05805,55.6806],[13.04365,55.68007],[13.02656,55.69181],[13.04097,55.69501],[13.04311,55.69398],[13.05283,55.69547],[13.05077,55.6975],[13.05144,55.69791],[13.05312,55.69779],[13.0557,55.69801],[13.05838,55.69842],[13.06154,55.69944],[13.06322,55.69706],[13.06973,55.69805],[13.07064,55.69609],[13.07197,55.69677],[13.07409,55.69751],[13.0772,55.69816],[13.08192,55.69959],[13.0851,55.6999],[13.08951,55.69961]]]}},{"type":"Feature","id":"1262R006","properties":{"code":"1262R006","name":"Lomma södra-Alnarp"},"geometry":{"type":"Polygon","coordinates":[[[13.04431,55.66334],[13.05777,55.65995],[13.06112,55.66162],[13.06641,55.66771],[13.06804,55.66993],[13.07858,55.66857],[13.08636,55.66719],[13.08658,55.66729],[13.08782,55.66905],[13.08644,55.67114],[13.08736,55.67479],[13.09824,55.67398],[13.09841,55.67329],[13.1024,55.67304],[13.10549,55.67137],[13.10601,55.67132],[13.10585,55.67117],[13.10935,55.67156],[13.11273,55.67143],[13.1122,55.67004],[13.11049,55.66745],[13.11203,55.66612],[13.10948,55.66605],[13.10284,55.66428],[13.10282,55.66443],[13.09984,55.6643],[13.09955,55.66164],[13.09877,55.66164],[13.09849,55.65918],[13.09896,55.65779],[13.0988,55.6548],[13.09954,55.65303],[13.09925,55.65283],[13.09676,55.65232],[13.09547,55.65144],[13.09307,55.65081],[13.09279,55.65037],[13.08133,55.64789],[13.08024,55.649],[13.07927,55.64914],[13.07861,55.64886],[13.07789,55.64788],[13.07724,55.64753],[13.07219,55.64625],[13.07188,55.64586],[13.06597,55.64441],[13.064,55.64357],[13.06196,55.64222],[13.05256,55.64074],[13.0169,55.64089],[12.97233,55.67977],[13.04431,55.66334]]]}}]}