{"type":"FeatureCollection","features":[{"type":"Feature","id":"1265R001","properties":{"code":"1265R001","name":"Björka-Öved-Bjärsjölagård"},"geometry":{"type":"Polygon","coordinates":[[[13.71856,55.74371],[13.71866,55.74321],[13.71998,55.74307],[13.72004,55.74252],[13.72115,55.74221],[13.72181,55.74225],[13.72199,55.74284],[13.72452,55.74289],[13.7249,55.74277],[13.72753,55.74288],[13.72794,55.74273],[13.73054,55.74294],[13.73365,55.74294],[13.75729,55.74267],[13.7565,55.74105],[13.75663,55.74074],[13.76018,55.73958],[13.75336,55.73136],[13.75426,55.73121],[13.75271,55.72817],[13.7576,55.72746],[13.75484,55.72473],[13.75968,55.72396],[13.7657,55.72987],[13.77451,55.72883],[13.77322,55.72632],[13.7717,55.72487],[13.76953,55.7247],[13.7663,55.72481],[13.76677,55.72254],[13.76714,55.72199],[13.76655,55.72145],[13.7661,55.72156],[13.76517,55.72139],[13.76432,55.72112],[13.76359,55.72059],[13.76332,55.71839],[13.76377,55.71762],[13.76404,55.71587],[13.7636,55.71573],[13.76317,55.71454],[13.76,55.71476],[13.75987,55.71662],[13.75595,55.71633],[13.75593,55.71499],[13.7565,55.71494],[13.75592,55.71472],[13.75599,55.71256],[13.74978,55.71191],[13.75303,55.70881],[13.74814,55.70793],[13.74772,55.70758],[13.74498,55.70698],[13.74445,55.70579],[13.74524,55.70488],[13.745,55.70452],[13.74397,55.7041],[13.7347,55.70848],[13.73287,55.70479],[13.72826,55.70529],[13.72877,55.70614],[13.72669,55.70656],[13.72606,55.70555],[13.72609,55.70432],[13.72403,55.70466],[13.7249,55.70601],[13.72217,55.706],[13.71798,55.70838],[13.71713,55.70826],[13.71917,55.70419],[13.71957,55.70414],[13.71611,55.69863],[13.70583,55.70134],[13.70352,55.70236],[13.70184,55.70049],[13.70231,55.7004],[13.70242,55.69921],[13.70145,55.69807],[13.70055,55.69777],[13.69594,55.69459],[13.69516,55.69353],[13.6929,55.69037],[13.6925,55.68827],[13.69267,55.68718],[13.69184,55.68644],[13.69044,55.68611],[13.68973,55.68566],[13.68819,55.68562],[13.68763,55.68543],[13.68635,55.68412],[13.68524,55.68357],[13.68325,55.68209],[13.6799,55.6819],[13.6793,55.68156],[13.67747,55.68193],[13.67584,55.68172],[13.67524,55.68138],[13.67346,55.68137],[13.67254,55.68091],[13.67278,55.6807],[13.67492,55.68044],[13.67625,55.68],[13.67695,55.68035],[13.67982,55.6794],[13.68085,55.67872],[13.68098,55.6783],[13.67969,55.67656],[13.6796,55.67559],[13.67802,55.67539],[13.67522,55.67292],[13.67461,55.66965],[13.6747,55.66892],[13.67241,55.66783],[13.67268,55.6635],[13.67674,55.65711],[13.6785,55.65583],[13.68427,55.65514],[13.68716,55.65122],[13.688,55.65115],[13.68619,55.65032],[13.68391,55.65013],[13.6815,55.64959],[13.67885,55.64842],[13.67677,55.64652],[13.67574,55.64338],[13.67527,55.64314],[13.67349,55.64329],[13.67135,55.64385],[13.66948,55.64408],[13.66706,55.6441],[13.66454,55.64382],[13.66228,55.64321],[13.66032,55.64228],[13.65885,55.6411],[13.65802,55.63991],[13.64826,55.6404],[13.64509,55.64083],[13.64053,55.6411],[13.63619,55.64117],[13.63365,55.64098],[13.63022,55.64004],[13.62867,55.63926],[13.62723,55.6381],[13.62437,55.63341],[13.624,55.6317],[13.6242,55.63034],[13.61416,55.6322],[13.60282,55.63142],[13.60552,55.63553],[13.60835,55.64063],[13.60885,55.64285],[13.60806,55.64712],[13.60884,55.65044],[13.61688,55.66062],[13.61749,55.66292],[13.61711,55.66296],[13.61388,55.66766],[13.60186,55.67387],[13.59934,55.67831],[13.5962,55.68039],[13.59125,55.68319],[13.58723,55.68504],[13.57262,55.68707],[13.57118,55.68881],[13.58166,55.69779],[13.58309,55.69808],[13.58306,55.69907],[13.58398,55.70044],[13.58303,55.70159],[13.58314,55.70251],[13.5867,55.70641],[13.58832,55.70711],[13.59006,55.70832],[13.59378,55.71216],[13.59495,55.71286],[13.59808,55.71377],[13.59961,55.71444],[13.59784,55.71534],[13.59913,55.71629],[13.60003,55.71659],[13.59864,55.71723],[13.59643,55.71887],[13.59491,55.71935],[13.59177,55.72076],[13.59006,55.72781],[13.59601,55.72922],[13.59574,55.72998],[13.60384,55.73085],[13.60654,55.73057],[13.60951,55.72959],[13.61217,55.73],[13.61366,55.73006],[13.61367,55.72979],[13.61392,55.72977],[13.61279,55.72901],[13.6124,55.72837],[13.613,55.72786],[13.61442,55.72328],[13.61492,55.72299],[13.61618,55.72276],[13.61742,55.72211],[13.61743,55.72285],[13.61686,55.72317],[13.61705,55.72345],[13.61687,55.72384],[13.61713,55.72424],[13.61797,55.72451],[13.62842,55.72417],[13.62895,55.72457],[13.63041,55.72494],[13.63658,55.72498],[13.64249,55.72588],[13.64491,55.7266],[13.64852,55.72711],[13.65227,55.72803],[13.65297,55.72717],[13.65028,55.72651],[13.65121,55.72549],[13.65285,55.72225],[13.65478,55.72181],[13.65482,55.72214],[13.65637,55.72176],[13.65808,55.72239],[13.65751,55.72294],[13.65821,55.72448],[13.6577,55.72464],[13.65825,55.72453],[13.65933,55.72618],[13.65979,55.72605],[13.6641,55.72765],[13.66576,55.73163],[13.66612,55.73804],[13.68118,55.73953],[13.68226,55.74009],[13.68392,55.73991],[13.68443,55.73965],[13.68523,55.73955],[13.68713,55.73993],[13.68961,55.74085],[13.69073,55.74092],[13.69116,55.74078],[13.69219,55.73913],[13.69169,55.73811],[13.69281,55.73802],[13.69421,55.73762],[13.69542,55.73763],[13.69681,55.73795],[13.69742,55.73862],[13.69933,55.73913],[13.70134,55.73906],[13.70991,55.74181],[13.71182,55.74229],[13.71339,55.7424],[13.71428,55.74297],[13.71577,55.74321],[13.71644,55.74362],[13.71856,55.74371]]]}},{"type":"Feature","id":"1265R002","properties":{"code":"1265R002","name":"Blentarp-Dalvik"},"geometry":{"type":"Polygon","coordinates":[[[13.59062,55.60011],[13.5963,55.59933],[13.59893,55.5986],[13.6013,55.59851],[13.60313,55.59821],[13.60789,55.59661],[13.60974,55.59561],[13.61152,55.59375],[13.61199,55.59197],[13.61355,55.59088],[13.61443,55.58987],[13.61496,55.58879],[13.61511,55.5875],[13.61767,55.58623],[13.61954,55.58426],[13.61995,55.58316],[13.6201,55.58116],[13.61935,55.57909],[13.61768,55.57754],[13.61528,55.57639],[13.60946,55.57507],[13.60668,55.57473],[13.60442,55.57402],[13.60304,55.57217],[13.60091,55.57084],[13.59748,55.56977],[13.59587,55.56872],[13.59427,55.56805],[13.59027,55.56676],[13.58824,55.56632],[13.58895,55.56449],[13.58859,55.56259],[13.58712,55.56076],[13.58447,55.55923],[13.57984,55.55803],[13.5748,55.55759],[13.57202,55.55619],[13.56862,55.55541],[13.56467,55.55534],[13.56051,55.55602],[13.55726,55.557],[13.55522,55.5579],[13.55354,55.55914],[13.55239,55.56082],[13.55164,55.56342],[13.55191,55.56532],[13.55346,55.56727],[13.55607,55.56874],[13.55458,55.56999],[13.55371,55.57137],[13.55345,55.57312],[13.55409,55.57488],[13.55604,55.57679],[13.55878,55.57828],[13.56054,55.58002],[13.56357,55.58145],[13.56597,55.582],[13.56914,55.58218],[13.57186,55.5819],[13.57443,55.58119],[13.57489,55.58309],[13.57732,55.58685],[13.57642,55.58826],[13.57626,55.59004],[13.5774,55.59316],[13.57925,55.59633],[13.58099,55.59783],[13.58346,55.59894],[13.58747,55.59993],[13.59062,55.60011]]]}},{"type":"Feature","id":"1265R003","properties":{"code":"1265R003","name":"Fränninge-Vallarum"},"geometry":{"type":"Polygon","coordinates":[[[13.80343,55.77634],[13.80486,55.77498],[13.80535,55.77332],[13.80645,55.77213],[13.80725,55.76828],[13.81758,55.7659],[13.84446,55.76515],[13.84585,55.76162],[13.84633,55.75784],[13.85753,55.75566],[13.8594,55.75552],[13.87205,55.75364],[13.87939,55.75302],[13.88558,55.75341],[13.89896,55.7585],[13.90079,55.75896],[13.90065,55.75855],[13.90386,55.75804],[13.90525,55.75719],[13.90827,55.75863],[13.90993,55.75903],[13.91284,55.75906],[13.91327,55.75706],[13.91365,55.75665],[13.9135,55.75559],[13.91394,55.75487],[13.91354,55.75443],[13.91568,55.75269],[13.91507,55.75211],[13.91544,55.75079],[13.91855,55.74986],[13.9193,55.74981],[13.92071,55.74928],[13.92123,55.74804],[13.92189,55.7479],[13.92184,55.74712],[13.92316,55.74641],[13.92541,55.74622],[13.92564,55.74448],[13.9236,55.74406],[13.9233,55.74428],[13.9219,55.7442],[13.92167,55.74396],[13.92,55.74387],[13.91874,55.74359],[13.91128,55.73888],[13.91048,55.73688],[13.91042,55.73595],[13.90966,55.73504],[13.90877,55.73254],[13.90182,55.73145],[13.8993,55.73066],[13.89673,55.73061],[13.89557,55.72697],[13.89677,55.72551],[13.89655,55.72432],[13.89533,55.72327],[13.89311,55.71948],[13.88965,55.71789],[13.8916,55.71538],[13.89248,55.71347],[13.89255,55.71323],[13.89173,55.71244],[13.88063,55.70793],[13.86771,55.70468],[13.86308,55.70318],[13.85593,55.7004],[13.85317,55.703],[13.85305,55.70349],[13.85058,55.70355],[13.84946,55.70446],[13.84834,55.70458],[13.84816,55.70484],[13.84684,55.70495],[13.846,55.70481],[13.84449,55.70384],[13.84241,55.70351],[13.84124,55.70368],[13.83984,55.70361],[13.83813,55.70328],[13.83603,55.70328],[13.83459,55.70296],[13.83255,55.70351],[13.82914,55.70333],[13.82759,55.70347],[13.82648,55.70323],[13.81572,55.70446],[13.81185,55.70534],[13.80693,55.70584],[13.80414,55.70641],[13.80356,55.70686],[13.80079,55.70731],[13.79474,55.70776],[13.79337,55.7073],[13.78951,55.70818],[13.78901,55.70769],[13.78702,55.70767],[13.7854,55.70688],[13.78345,55.7072],[13.78382,55.70787],[13.78357,55.7083],[13.78197,55.7088],[13.78048,55.70829],[13.77697,55.70487],[13.77749,55.70967],[13.77607,55.70977],[13.77312,55.70939],[13.77236,55.70967],[13.7713,55.71083],[13.77005,55.71148],[13.7682,55.71099],[13.76569,55.70863],[13.76088,55.71033],[13.75979,55.70952],[13.75303,55.70881],[13.74978,55.71191],[13.75599,55.71256],[13.75592,55.71472],[13.7565,55.71494],[13.75593,55.71499],[13.75595,55.71633],[13.75987,55.71662],[13.76,55.71476],[13.76317,55.71454],[13.7636,55.71573],[13.76404,55.71587],[13.76377,55.71762],[13.76332,55.71839],[13.76359,55.72059],[13.76432,55.72112],[13.76517,55.72139],[13.7661,55.72156],[13.76655,55.72145],[13.76714,55.72199],[13.76677,55.72254],[13.7663,55.72481],[13.76953,55.7247],[13.7717,55.72487],[13.77322,55.72632],[13.77451,55.72883],[13.7657,55.72987],[13.75968,55.72396],[13.75484,55.72473],[13.7576,55.72746],[13.75271,55.72817],[13.75426,55.73121],[13.75336,55.73136],[13.76018,55.73958],[13.75647,55.74092],[13.75879,55.74664],[13.75738,55.74863],[13.75816,55.75122],[13.75619,55.75299],[13.76006,55.75739],[13.75965,55.75882],[13.75895,55.7588],[13.75852,55.75906],[13.76118,55.763],[13.77275,55.76681],[13.7716,55.76832],[13.7713,55.76923],[13.77769,55.77226],[13.78045,55.77386],[13.78168,55.77388],[13.7867,55.77535],[13.79133,55.7752],[13.79137,55.77538],[13.79234,55.77506],[13.79562,55.77513],[13.80343,55.77634]]]}},{"type":"Feature","id":"1265R007","properties":{"code":"1265R007","name":"Sjöbo centrum-Sjöbo östra"},"geometry":{"type":"Polygon","coordinates":[[[13.71027,55.64027],[13.7116,55.63877],[13.71239,55.63879],[13.71361,55.63822],[13.71368,55.63761],[13.71799,55.63763],[13.71879,55.6374],[13.71913,55.63676],[13.7186,55.63624],[13.71949,55.63082],[13.71898,55.62935],[13.71868,55.62923],[13.71845,55.62832],[13.71808,55.62835],[13.71789,55.62736],[13.7167,55.62749],[13.71594,55.62676],[13.7148,55.6273],[13.71315,55.62604],[13.71313,55.62466],[13.71106,55.62489],[13.70494,55.62507],[13.70504,55.63167],[13.70003,55.63196],[13.70023,55.6333],[13.70332,55.6336],[13.70329,55.63318],[13.70632,55.63301],[13.70672,55.63645],[13.70559,55.6397],[13.70978,55.63962],[13.70987,55.64023],[13.71027,55.64027]]]}},{"type":"Feature","id":"1265R004","properties":{"code":"1265R004","name":"Grimstofta-Åsum"},"geometry":{"type":"Polygon","coordinates":[[[13.70332,55.65414],[13.70682,55.65362],[13.70942,55.65275],[13.7117,55.65117],[13.7131,55.64859],[13.71555,55.64782],[13.71788,55.6465],[13.72218,55.64521],[13.72731,55.6487],[13.72946,55.64949],[13.73185,55.64993],[13.73516,55.64999],[13.73825,55.6496],[13.74049,55.64891],[13.74271,55.64764],[13.74412,55.64604],[13.74457,55.64462],[13.74484,55.63936],[13.74451,55.6383],[13.74365,55.63709],[13.74511,55.63604],[13.74594,55.63511],[13.74644,55.6341],[13.74661,55.63284],[13.74641,55.63179],[13.74554,55.63023],[13.74599,55.62741],[13.74563,55.62597],[13.74397,55.62407],[13.74166,55.62281],[13.73944,55.62216],[13.73754,55.62188],[13.73563,55.62181],[13.73241,55.62198],[13.73077,55.62184],[13.72932,55.62075],[13.72774,55.62475],[13.72531,55.62489],[13.72352,55.62714],[13.72225,55.62694],[13.72122,55.62866],[13.71845,55.62832],[13.71949,55.63082],[13.71873,55.63458],[13.71861,55.63633],[13.71913,55.63676],[13.71879,55.6374],[13.71791,55.63764],[13.71368,55.63761],[13.71361,55.63822],[13.71239,55.63879],[13.7116,55.63877],[13.71005,55.64034],[13.70978,55.63962],[13.70559,55.6397],[13.70462,55.64287],[13.70245,55.64539],[13.70091,55.64925],[13.70085,55.65018],[13.70156,55.65201],[13.70204,55.65219],[13.70332,55.65414]]]}},{"type":"Feature","id":"1265R005","properties":{"code":"1265R005","name":"Hemmestorp-Everlöv-Ilstorp"},"geometry":{"type":"Polygon","coordinates":[[[13.54662,55.63646],[13.548,55.63609],[13.54808,55.63581],[13.54886,55.63575],[13.5524,55.6343],[13.55275,55.63442],[13.55255,55.63469],[13.55307,55.63461],[13.55349,55.63414],[13.55397,55.63465],[13.5545,55.63465],[13.55599,55.6364],[13.55731,55.63578],[13.55856,55.63438],[13.55939,55.63432],[13.56059,55.63386],[13.56034,55.63352],[13.56082,55.63344],[13.5609,55.63314],[13.57133,55.63308],[13.5801,55.63384],[13.58023,55.63401],[13.58754,55.63283],[13.58784,55.63294],[13.58828,55.63254],[13.58868,55.63309],[13.5896,55.63254],[13.59009,55.63252],[13.58956,55.63241],[13.58957,55.63215],[13.59048,55.63206],[13.59018,55.63169],[13.59036,55.63158],[13.59127,55.63205],[13.59121,55.6317],[13.59162,55.63168],[13.59213,55.63175],[13.59239,55.63203],[13.59359,55.63207],[13.59327,55.6317],[13.59369,55.63162],[13.59371,55.63116],[13.59401,55.63147],[13.59451,55.63135],[13.5951,55.632],[13.59527,55.63164],[13.59586,55.63189],[13.59573,55.63159],[13.59644,55.63166],[13.59675,55.63207],[13.59699,55.63173],[13.59752,55.63175],[13.59747,55.63198],[13.59806,55.63209],[13.59825,55.63162],[13.59888,55.63182],[13.59941,55.63152],[13.60013,55.63155],[13.60008,55.63107],[13.60091,55.63112],[13.60154,55.63146],[13.60169,55.63135],[13.61416,55.6322],[13.6242,55.63034],[13.62506,55.62892],[13.62646,55.62775],[13.62837,55.62679],[13.63061,55.62614],[13.63251,55.62587],[13.63999,55.62556],[13.65028,55.62476],[13.65224,55.62361],[13.65445,55.62287],[13.65627,55.62254],[13.66104,55.62211],[13.66421,55.62211],[13.66724,55.62268],[13.66977,55.62375],[13.6717,55.62533],[13.6733,55.62618],[13.67442,55.62708],[13.67609,55.62675],[13.67847,55.62551],[13.67953,55.62339],[13.68215,55.62083],[13.67624,55.62061],[13.6741,55.62107],[13.66763,55.62058],[13.6644,55.61017],[13.6715,55.60893],[13.67306,55.61381],[13.68184,55.61253],[13.68117,55.61089],[13.68148,55.61011],[13.68104,55.60934],[13.68146,55.6068],[13.67104,55.60531],[13.66811,55.60613],[13.66664,55.6057],[13.66082,55.60622],[13.65765,55.60613],[13.65514,55.60545],[13.65484,55.60559],[13.65479,55.60602],[13.65372,55.6067],[13.65344,55.60658],[13.65303,55.6068],[13.65127,55.60682],[13.65111,55.607],[13.65033,55.60699],[13.64964,55.60674],[13.64767,55.60672],[13.64739,55.60737],[13.64672,55.60739],[13.6472,55.60759],[13.64606,55.60817],[13.6458,55.60806],[13.64605,55.60774],[13.64588,55.60764],[13.64499,55.60793],[13.64535,55.60839],[13.64495,55.60864],[13.64472,55.60852],[13.64432,55.60884],[13.64455,55.60945],[13.64369,55.60927],[13.64348,55.60984],[13.64263,55.61028],[13.64211,55.61033],[13.64228,55.61059],[13.64176,55.61037],[13.64129,55.61046],[13.64078,55.61088],[13.64092,55.61122],[13.63923,55.6113],[13.63879,55.61148],[13.63891,55.61183],[13.63838,55.61194],[13.63814,55.61229],[13.63762,55.61198],[13.63727,55.61297],[13.6358,55.609],[13.62951,55.60586],[13.62229,55.60342],[13.60902,55.60357],[13.60867,55.602],[13.60763,55.6008],[13.59772,55.60013],[13.59617,55.59936],[13.59191,55.60002],[13.58871,55.60007],[13.58628,55.5997],[13.5824,55.59855],[13.5802,55.59727],[13.57881,55.59566],[13.5774,55.59316],[13.57635,55.59041],[13.57638,55.58839],[13.57266,55.58612],[13.5702,55.58563],[13.5673,55.58704],[13.56396,55.58741],[13.55816,55.58432],[13.54906,55.5803],[13.54662,55.57973],[13.53594,55.57878],[13.53378,55.57827],[13.53187,55.57809],[13.53112,55.58318],[13.53059,55.58315],[13.52947,55.58229],[13.52814,55.58194],[13.52692,55.58216],[13.52343,55.58366],[13.52372,55.58518],[13.52461,55.58623],[13.52297,55.58666],[13.52108,55.5875],[13.52044,55.58918],[13.52277,55.59141],[13.52583,55.59334],[13.52935,55.5933],[13.53231,55.59348],[13.53292,55.59587],[13.52939,55.59619],[13.53296,55.60833],[13.53002,55.62024],[13.53446,55.62594],[13.54173,55.62987],[13.54662,55.63646]]]}},{"type":"Feature","id":"1265R006","properties":{"code":"1265R006","name":"Lövestad-Heinge"},"geometry":{"type":"Polygon","coordinates":[[[13.90486,55.7127],[13.90541,55.71101],[13.90633,55.71032],[13.90633,55.70969],[13.90843,55.70842],[13.90863,55.70589],[13.9093,55.70527],[13.90951,55.70449],[13.9103,55.70387],[13.91044,55.7033],[13.91148,55.70294],[13.91139,55.70222],[13.91194,55.70161],[13.91241,55.7014],[13.91346,55.70149],[13.91408,55.70123],[13.91511,55.70055],[13.91565,55.69931],[13.91638,55.69896],[13.92011,55.70021],[13.92036,55.69955],[13.91923,55.69867],[13.91839,55.69849],[13.91852,55.6984],[13.91933,55.69827],[13.9205,55.69858],[13.92254,55.69871],[13.92674,55.69692],[13.92749,55.69688],[13.9282,55.69611],[13.92817,55.69569],[13.9259,55.69287],[13.92544,55.69181],[13.92234,55.69239],[13.92128,55.6922],[13.91944,55.69158],[13.91876,55.69103],[13.91874,55.69056],[13.91893,55.69043],[13.91954,55.69088],[13.92079,55.6912],[13.92208,55.69128],[13.92289,55.69107],[13.92326,55.69127],[13.92605,55.69014],[13.92626,55.68905],[13.92741,55.68844],[13.93032,55.68828],[13.93181,55.68853],[13.93232,55.68829],[13.93329,55.68824],[13.93199,55.68737],[13.93301,55.68706],[13.93478,55.68581],[13.93639,55.68518],[13.93733,55.68504],[13.93762,55.68572],[13.93799,55.68555],[13.93769,55.68496],[13.93877,55.68471],[13.93996,55.68409],[13.93951,55.6856],[13.93978,55.68564],[13.94031,55.6838],[13.94094,55.6837],[13.94391,55.68221],[13.94438,55.68228],[13.94865,55.68105],[13.94913,55.6807],[13.94733,55.67548],[13.95049,55.6719],[13.95306,55.67003],[13.95312,55.66913],[13.95659,55.66657],[13.95821,55.66643],[13.96497,55.66335],[13.96694,55.66299],[13.96818,55.66205],[13.96982,55.66172],[13.97178,55.66161],[13.97484,55.65946],[13.97542,55.65752],[13.97615,55.65708],[13.97638,55.65641],[13.97727,55.65542],[13.97934,55.65538],[13.9802,55.65495],[13.98102,55.65499],[13.98152,55.65478],[13.98212,55.65487],[13.98456,55.65218],[13.98634,55.64928],[13.98552,55.64741],[13.98312,55.64463],[13.98165,55.64238],[13.98166,55.64097],[13.98224,55.63955],[13.98203,55.63915],[13.98146,55.63887],[13.9806,55.63695],[13.97974,55.63703],[13.97704,55.63616],[13.97666,55.63565],[13.97552,55.63556],[13.97473,55.63525],[13.97266,55.63541],[13.97162,55.63505],[13.9696,55.63542],[13.96863,55.63586],[13.96784,55.63585],[13.96704,55.6361],[13.9646,55.63597],[13.96275,55.63608],[13.96108,55.63638],[13.95685,55.63826],[13.95414,55.63896],[13.95362,55.63881],[13.95287,55.63811],[13.95079,55.63699],[13.94807,55.6368],[13.94837,55.63574],[13.95353,55.63436],[13.9548,55.63192],[13.95745,55.63123],[13.94827,55.62713],[13.9443,55.62574],[13.94801,55.62047],[13.93703,55.61962],[13.9354,55.62186],[13.93336,55.62146],[13.92003,55.62566],[13.91958,55.62362],[13.92065,55.62231],[13.91645,55.62097],[13.91636,55.6195],[13.91511,55.61693],[13.91363,55.61771],[13.91308,55.61733],[13.91234,55.61779],[13.91267,55.61825],[13.91195,55.61864],[13.91212,55.61877],[13.91175,55.6191],[13.91127,55.61913],[13.91108,55.61897],[13.90754,55.61967],[13.90667,55.62001],[13.90645,55.62041],[13.90511,55.62072],[13.90452,55.62125],[13.90317,55.6215],[13.90263,55.6222],[13.90174,55.62224],[13.90037,55.62264],[13.89615,55.62444],[13.89405,55.62586],[13.89313,55.62591],[13.89007,55.62687],[13.88941,55.62688],[13.8897,55.62817],[13.88558,55.62892],[13.88743,55.63037],[13.88221,55.63058],[13.88182,55.62957],[13.88154,55.6296],[13.88081,55.62914],[13.87628,55.6288],[13.87512,55.62888],[13.87384,55.62951],[13.86971,55.63059],[13.86837,55.63161],[13.86799,55.63248],[13.86686,55.63212],[13.86595,55.63252],[13.86251,55.63217],[13.86218,55.63221],[13.86199,55.63251],[13.86114,55.63251],[13.86106,55.63283],[13.86033,55.63328],[13.85928,55.63348],[13.85854,55.63385],[13.858,55.63391],[13.85775,55.63366],[13.85696,55.63402],[13.85531,55.63375],[13.8562,55.6344],[13.85572,55.63499],[13.85579,55.63708],[13.85553,55.63847],[13.855,55.63909],[13.85501,55.64033],[13.85337,55.64018],[13.85476,55.64238],[13.8557,55.64284],[13.8562,55.64348],[13.85725,55.6485],[13.85849,55.64854],[13.85848,55.64978],[13.85713,55.64939],[13.857,55.65253],[13.85583,55.65397],[13.85606,55.65433],[13.85573,55.65497],[13.85499,55.65508],[13.85426,55.65555],[13.85343,55.65556],[13.85281,55.65578],[13.85281,55.6564],[13.85396,55.65709],[13.8565,55.65772],[13.8543,55.66202],[13.85587,55.66469],[13.85633,55.66643],[13.85635,55.66784],[13.85577,55.66783],[13.85406,55.6708],[13.85229,55.67173],[13.85158,55.67244],[13.85137,55.67378],[13.8505,55.674],[13.85156,55.67614],[13.85159,55.6769],[13.85119,55.67805],[13.84978,55.67881],[13.84985,55.67979],[13.85183,55.68159],[13.85266,55.682],[13.85284,55.68256],[13.85346,55.68317],[13.85439,55.68346],[13.85491,55.68439],[13.85534,55.68458],[13.85515,55.68541],[13.85556,55.6862],[13.85666,55.68646],[13.85837,55.68642],[13.85976,55.68689],[13.86569,55.69185],[13.86494,55.69255],[13.8649,55.69302],[13.86563,55.69364],[13.8667,55.69415],[13.868,55.69656],[13.87112,55.69863],[13.87207,55.70046],[13.87407,55.70279],[13.88032,55.70784],[13.89173,55.71244],[13.89451,55.71516],[13.90486,55.7127]]]}},{"type":"Feature","id":"1265R008","properties":{"code":"1265R008","name":"Sommarbyarna Norra-Omma"},"geometry":{"type":"Polygon","coordinates":[[[13.70154,55.65429],[13.70327,55.65415],[13.70204,55.65219],[13.70156,55.65201],[13.70085,55.65018],[13.70091,55.64925],[13.70245,55.64539],[13.7043,55.6434],[13.70497,55.64201],[13.70672,55.63645],[13.70632,55.63301],[13.70329,55.63318],[13.70332,55.6336],[13.70023,55.6333],[13.69364,55.63385],[13.68626,55.63422],[13.68183,55.63479],[13.68134,55.6338],[13.67937,55.63397],[13.67939,55.63318],[13.62613,55.63635],[13.62723,55.6381],[13.62867,55.63926],[13.63076,55.64026],[13.63365,55.64098],[13.63619,55.64117],[13.64053,55.6411],[13.64509,55.64083],[13.64826,55.6404],[13.65802,55.63991],[13.65885,55.6411],[13.66032,55.64228],[13.66228,55.64321],[13.66454,55.64382],[13.66706,55.6441],[13.66948,55.64408],[13.67135,55.64385],[13.67349,55.64329],[13.67527,55.64314],[13.67574,55.64338],[13.67637,55.64577],[13.677,55.64684],[13.67846,55.64816],[13.68034,55.64917],[13.68317,55.65001],[13.68619,55.65032],[13.68851,55.65133],[13.69162,55.65195],[13.6935,55.65299],[13.69573,55.65369],[13.69836,55.65414],[13.70154,55.65429]]]}},{"type":"Feature","id":"1265R009","properties":{"code":"1265R009","name":"Sommarbyarna Södra-Ryggorna-Spjälla"},"geometry":{"type":"Polygon","coordinates":[[[13.62613,55.63635],[13.63614,55.6357],[13.63623,55.63585],[13.67939,55.63318],[13.67937,55.63397],[13.68134,55.6338],[13.68183,55.63479],[13.68626,55.63422],[13.69364,55.63385],[13.70023,55.6333],[13.70003,55.63196],[13.70504,55.63167],[13.70494,55.62507],[13.71106,55.62489],[13.71313,55.62466],[13.71315,55.62604],[13.7148,55.6273],[13.71594,55.62676],[13.7167,55.62749],[13.71789,55.62736],[13.71808,55.62835],[13.72122,55.62866],[13.72225,55.62694],[13.72352,55.62714],[13.72531,55.62489],[13.72774,55.62475],[13.72932,55.62075],[13.72662,55.6196],[13.72343,55.61899],[13.72024,55.61899],[13.71723,55.61951],[13.7183,55.61757],[13.71801,55.61529],[13.71625,55.61204],[13.71487,55.61086],[13.71297,55.60989],[13.7107,55.60923],[13.70825,55.60891],[13.70202,55.6087],[13.69949,55.60892],[13.6966,55.6097],[13.69431,55.61093],[13.69284,55.61246],[13.6906,55.614],[13.68938,55.61593],[13.68691,55.61684],[13.68443,55.61847],[13.6816,55.62158],[13.67979,55.62308],[13.67847,55.62551],[13.67609,55.62675],[13.67442,55.62708],[13.6733,55.62618],[13.6717,55.62533],[13.67018,55.624],[13.66777,55.62285],[13.66485,55.62218],[13.6623,55.62204],[13.65687,55.62247],[13.65445,55.62287],[13.65224,55.62361],[13.65028,55.62476],[13.63999,55.62556],[13.63246,55.62587],[13.63005,55.62627],[13.62837,55.62679],[13.62646,55.62775],[13.62506,55.62892],[13.62436,55.62995],[13.62399,55.63136],[13.62437,55.63341],[13.62613,55.63635]]]}},{"type":"Feature","id":"1265R010","properties":{"code":"1265R010","name":"Sövde-Knickarp"},"geometry":{"type":"Polygon","coordinates":[[[13.67624,55.62061],[13.68215,55.62083],[13.68522,55.61789],[13.68695,55.61682],[13.68938,55.61593],[13.69068,55.61392],[13.69284,55.61246],[13.69393,55.61123],[13.69514,55.61039],[13.69831,55.60916],[13.70072,55.60877],[13.70263,55.6087],[13.70825,55.60891],[13.7107,55.60923],[13.71297,55.60989],[13.71525,55.61113],[13.71674,55.6127],[13.71826,55.61596],[13.71821,55.61791],[13.71723,55.61951],[13.72084,55.61894],[13.72402,55.61906],[13.72765,55.61995],[13.7303,55.62143],[13.73158,55.62123],[13.73759,55.61978],[13.74056,55.61869],[13.74472,55.6167],[13.75127,55.61466],[13.75319,55.61358],[13.75641,55.61272],[13.76378,55.60982],[13.77131,55.60575],[13.78041,55.6034],[13.78202,55.60168],[13.78393,55.6003],[13.78576,55.59917],[13.78819,55.59818],[13.78945,55.59739],[13.78283,55.58846],[13.77682,55.59012],[13.7744,55.59098],[13.7732,55.588],[13.7634,55.5905],[13.76113,55.58805],[13.76069,55.58699],[13.75877,55.58447],[13.75895,55.58345],[13.75942,55.58328],[13.76044,55.58096],[13.75994,55.58061],[13.76128,55.58063],[13.76242,55.58092],[13.76537,55.58093],[13.76638,55.57953],[13.76679,55.57952],[13.7674,55.57906],[13.76698,55.57863],[13.76802,55.57811],[13.76879,55.57735],[13.77309,55.57448],[13.7728,55.57182],[13.77487,55.57089],[13.77644,55.57079],[13.77889,55.57166],[13.7836,55.56891],[13.78627,55.56853],[13.78622,55.56882],[13.78763,55.5691],[13.78843,55.56862],[13.78089,55.56442],[13.78228,55.56296],[13.79528,55.56145],[13.79089,55.55956],[13.78087,55.55762],[13.77562,55.55058],[13.7796,55.54838],[13.7802,55.54821],[13.78004,55.54451],[13.78103,55.54197],[13.7778,55.54104],[13.76901,55.53736],[13.76575,55.53634],[13.76068,55.53424],[13.76034,55.53606],[13.75857,55.53777],[13.75615,55.54103],[13.753,55.54042],[13.75378,55.53813],[13.75296,55.53675],[13.7519,55.53674],[13.75237,55.53765],[13.75115,55.53915],[13.75123,55.53877],[13.75088,55.53847],[13.74642,55.53958],[13.74672,55.53828],[13.74715,55.53812],[13.74747,55.53752],[13.74547,55.53695],[13.74342,55.53507],[13.74292,55.53422],[13.73719,55.53152],[13.71417,55.53158],[13.71347,55.53125],[13.71232,55.53165],[13.71101,55.53151],[13.71093,55.53104],[13.71042,55.53089],[13.70938,55.53122],[13.70961,55.53059],[13.70926,55.52853],[13.71027,55.52794],[13.71129,55.52823],[13.71231,55.52799],[13.71562,55.52223],[13.71333,55.52086],[13.71316,55.51932],[13.71268,55.51825],[13.71315,55.51757],[13.71279,55.51741],[13.7119,55.51741],[13.71026,55.51668],[13.70976,55.51595],[13.70993,55.51569],[13.70845,55.51503],[13.70704,55.51391],[13.70546,55.51314],[13.70574,55.51224],[13.69192,55.50969],[13.68633,55.5112],[13.68776,55.51289],[13.68881,55.51365],[13.68911,55.51428],[13.69027,55.51478],[13.69178,55.51491],[13.69066,55.51638],[13.68856,55.51661],[13.68861,55.51585],[13.68715,55.51515],[13.68385,55.51496],[13.68536,55.52094],[13.688,55.52308],[13.68409,55.52341],[13.67956,55.52317],[13.67668,55.52148],[13.67654,55.52004],[13.67782,55.51655],[13.67995,55.51499],[13.67956,55.51405],[13.68033,55.51314],[13.68033,55.51262],[13.6811,55.51184],[13.68085,55.51117],[13.67879,55.51098],[13.67854,55.5095],[13.67575,55.51036],[13.67089,55.51137],[13.67201,55.51194],[13.67187,55.51293],[13.66974,55.51567],[13.67074,55.51662],[13.67099,55.52091],[13.67156,55.52198],[13.67165,55.52302],[13.67108,55.5235],[13.66996,55.5238],[13.67022,55.52463],[13.66968,55.52529],[13.66864,55.52586],[13.66857,55.52662],[13.67116,55.52671],[13.67583,55.52726],[13.67744,55.52726],[13.6782,55.52787],[13.67922,55.52937],[13.67736,55.53024],[13.67525,55.53061],[13.67355,55.53133],[13.66674,55.53333],[13.66465,55.5334],[13.66382,55.53325],[13.66346,55.53307],[13.66328,55.53227],[13.66628,55.53191],[13.66527,55.52977],[13.66581,55.52828],[13.66548,55.52679],[13.65966,55.52358],[13.65827,55.52424],[13.65738,55.52398],[13.65644,55.52438],[13.65485,55.52467],[13.65178,55.52425],[13.65053,55.52433],[13.64976,55.52461],[13.64935,55.52526],[13.64848,55.52576],[13.64817,55.52646],[13.64643,55.52681],[13.64522,55.52636],[13.64364,55.52477],[13.64296,55.52495],[13.64157,55.52577],[13.63785,55.52545],[13.63676,55.52559],[13.6376,55.52763],[13.63793,55.52778],[13.63929,55.52763],[13.64097,55.53017],[13.64091,55.53112],[13.63987,55.53263],[13.6403,55.5342],[13.63908,55.53454],[13.63604,55.53477],[13.63495,55.53533],[13.63366,55.53559],[13.6334,55.537],[13.6304,55.53755],[13.62556,55.53591],[13.62262,55.53736],[13.6211,55.53781],[13.62037,55.53865],[13.61878,55.53913],[13.61615,55.53924],[13.61503,55.53826],[13.61409,55.53591],[13.61315,55.53524],[13.61306,55.53405],[13.61363,55.53229],[13.6056,55.53542],[13.59827,55.53622],[13.59509,55.53504],[13.59235,55.53579],[13.59152,55.53584],[13.59025,55.5363],[13.58709,55.53633],[13.58405,55.53687],[13.57931,55.53822],[13.57873,55.53674],[13.57875,55.53494],[13.57806,55.53465],[13.57816,55.53263],[13.57668,55.53236],[13.57662,55.53322],[13.57481,55.53572],[13.57542,55.53668],[13.57262,55.5368],[13.57197,55.53552],[13.56742,55.53605],[13.5673,55.53656],[13.56803,55.53783],[13.56881,55.53879],[13.56934,55.53893],[13.56808,55.54003],[13.56533,55.54165],[13.56528,55.54222],[13.56593,55.54311],[13.56598,55.5439],[13.56457,55.54524],[13.55969,55.54554],[13.55999,55.54391],[13.55981,55.5432],[13.55894,55.54234],[13.55876,55.54101],[13.55693,55.53924],[13.55464,55.54012],[13.55603,55.54038],[13.55581,55.54063],[13.55677,55.54114],[13.55667,55.54165],[13.55626,55.54229],[13.55396,55.54274],[13.55275,55.54327],[13.55312,55.54405],[13.55263,55.54521],[13.55211,55.5457],[13.55069,55.54576],[13.5486,55.54443],[13.54723,55.54416],[13.54447,55.54411],[13.54206,55.5446],[13.54195,55.54543],[13.54118,55.54698],[13.53918,55.54761],[13.53922,55.54793],[13.54026,55.54838],[13.54118,55.54829],[13.5424,55.54899],[13.54343,55.54916],[13.5444,55.54908],[13.54534,55.55005],[13.54413,55.55113],[13.54415,55.55158],[13.54181,55.55223],[13.54071,55.55162],[13.53957,55.55147],[13.5389,55.55166],[13.53815,55.55229],[13.53756,55.55375],[13.53747,55.55765],[13.536,55.5579],[13.53496,55.55751],[13.53396,55.55753],[13.53456,55.55977],[13.53554,55.56046],[13.53554,55.56073],[13.5354,55.56092],[13.53376,55.56129],[13.53202,55.56149],[13.53076,55.56211],[13.53088,55.56287],[13.53194,55.5642],[13.53331,55.5653],[13.53232,55.56535],[13.53034,55.56587],[13.5283,55.56529],[13.52627,55.56416],[13.52502,55.56379],[13.52325,55.56341],[13.52101,55.56328],[13.52056,55.56306],[13.51923,55.56315],[13.51704,55.56838],[13.51698,55.56969],[13.51899,55.57023],[13.52568,55.57047],[13.52739,55.57173],[13.52936,55.5722],[13.52887,55.57343],[13.52932,55.5764],[13.52998,55.57726],[13.53187,55.57809],[13.53378,55.57827],[13.53594,55.57878],[13.54662,55.57973],[13.54906,55.5803],[13.55816,55.58432],[13.56396,55.58741],[13.5673,55.58704],[13.5702,55.58563],[13.57052,55.58564],[13.57266,55.58612],[13.57638,55.58839],[13.57732,55.58685],[13.57489,55.58309],[13.57443,55.58119],[13.57186,55.5819],[13.56932,55.58218],[13.56656,55.58207],[13.56411,55.58161],[13.56094,55.58028],[13.55974,55.57937],[13.55878,55.57828],[13.55683,55.57734],[13.55466,55.5756],[13.55358,55.5738],[13.55357,55.57181],[13.55432,55.5703],[13.55607,55.56874],[13.55393,55.56762],[13.55249,55.56629],[13.55166,55.56455],[13.55171,55.56304],[13.55272,55.56016],[13.55469,55.55822],[13.55675,55.55719],[13.5594,55.55629],[13.56408,55.55541],[13.56665,55.55527],[13.56939,55.55553],[13.57253,55.55637],[13.5748,55.55759],[13.57984,55.55803],[13.58382,55.55899],[13.58639,55.56021],[13.58835,55.56216],[13.58896,55.56415],[13.58824,55.56632],[13.59027,55.56676],[13.59427,55.56805],[13.59587,55.56872],[13.59748,55.56977],[13.60091,55.57084],[13.60304,55.57217],[13.60442,55.57402],[13.60668,55.57473],[13.60888,55.57496],[13.61411,55.57605],[13.61631,55.5768],[13.61878,55.57842],[13.61991,55.58012],[13.62,55.58282],[13.61934,55.58458],[13.61767,55.58623],[13.61511,55.5875],[13.61496,55.58879],[13.61443,55.58987],[13.61355,55.59088],[13.61199,55.59197],[13.61152,55.59375],[13.61011,55.59534],[13.60789,55.59661],[13.60373,55.59807],[13.6013,55.59851],[13.59893,55.5986],[13.59617,55.59936],[13.59772,55.60013],[13.60763,55.6008],[13.60867,55.602],[13.60902,55.60357],[13.62229,55.60342],[13.62951,55.60586],[13.6358,55.609],[13.63727,55.61297],[13.63762,55.61198],[13.63814,55.61229],[13.63838,55.61194],[13.63891,55.61183],[13.63879,55.61148],[13.63923,55.6113],[13.64092,55.61122],[13.64078,55.61088],[13.64129,55.61046],[13.64176,55.61037],[13.64228,55.61059],[13.64211,55.61033],[13.64263,55.61028],[13.64348,55.60984],[13.64369,55.60927],[13.64455,55.60945],[13.64432,55.60884],[13.64472,55.60852],[13.64495,55.60864],[13.64535,55.60839],[13.64499,55.60793],[13.64588,55.60764],[13.64605,55.60774],[13.6458,55.60806],[13.64606,55.60817],[13.6472,55.60759],[13.64672,55.60739],[13.64739,55.60737],[13.64767,55.60672],[13.64964,55.60674],[13.65033,55.60699],[13.65111,55.607],[13.65127,55.60682],[13.65303,55.6068],[13.65344,55.60658],[13.65372,55.6067],[13.65479,55.60602],[13.65484,55.60559],[13.65514,55.60545],[13.65765,55.60613],[13.66082,55.60622],[13.66664,55.6057],[13.66811,55.60613],[13.67104,55.60531],[13.68146,55.6068],[13.68104,55.60934],[13.68148,55.61011],[13.68117,55.61089],[13.68184,55.61253],[13.67306,55.61381],[13.6715,55.60893],[13.6644,55.61017],[13.66763,55.62058],[13.6741,55.62107],[13.67624,55.62061]]]}},{"type":"Feature","id":"1265R011","properties":{"code":"1265R011","name":"Vollsjö-Brandstad"},"geometry":{"type":"Polygon","coordinates":[[[13.77029,55.71143],[13.7713,55.71083],[13.77236,55.70967],[13.77312,55.70939],[13.77607,55.70977],[13.77749,55.70967],[13.77697,55.70487],[13.78048,55.70829],[13.78197,55.7088],[13.78357,55.7083],[13.78382,55.70787],[13.78345,55.7072],[13.7854,55.70688],[13.78702,55.70767],[13.78901,55.70769],[13.78951,55.70818],[13.79337,55.7073],[13.79474,55.70776],[13.80079,55.70731],[13.80356,55.70686],[13.80414,55.70641],[13.80693,55.70584],[13.81185,55.70534],[13.81572,55.70446],[13.82648,55.70323],[13.82759,55.70347],[13.82914,55.70333],[13.83255,55.70351],[13.83459,55.70296],[13.83603,55.70328],[13.83813,55.70328],[13.83984,55.70361],[13.84124,55.70368],[13.84241,55.70351],[13.84449,55.70384],[13.846,55.70481],[13.84684,55.70495],[13.84816,55.70484],[13.84834,55.70458],[13.84946,55.70446],[13.85058,55.70355],[13.85305,55.70349],[13.85317,55.703],[13.85593,55.7004],[13.85371,55.69761],[13.85297,55.69715],[13.85261,55.69648],[13.85097,55.69623],[13.85055,55.69563],[13.84987,55.69567],[13.84582,55.69318],[13.83847,55.6903],[13.82721,55.68789],[13.83081,55.68668],[13.82592,55.6845],[13.82513,55.68468],[13.82504,55.68434],[13.8199,55.68504],[13.81558,55.68406],[13.8091,55.67956],[13.80891,55.67971],[13.80243,55.67177],[13.79755,55.67261],[13.79992,55.66608],[13.79686,55.6633],[13.79428,55.66355],[13.79291,55.66328],[13.79597,55.6608],[13.78847,55.65997],[13.78326,55.66078],[13.77717,55.65765],[13.77503,55.65696],[13.77495,55.6565],[13.77339,55.65633],[13.7725,55.65577],[13.77053,55.65578],[13.76815,55.65618],[13.7665,55.65623],[13.76513,55.65608],[13.75509,55.65395],[13.75631,55.65336],[13.75595,55.6533],[13.75618,55.65289],[13.75679,55.65263],[13.75718,55.652],[13.75676,55.65133],[13.75708,55.65097],[13.75553,55.65078],[13.75413,55.65191],[13.75363,55.65046],[13.75259,55.65047],[13.75258,55.65023],[13.75364,55.64794],[13.75545,55.6477],[13.75785,55.64618],[13.75548,55.64441],[13.75537,55.64405],[13.75448,55.64364],[13.75252,55.642],[13.75129,55.64069],[13.75089,55.63977],[13.75014,55.63945],[13.74846,55.63963],[13.74744,55.63996],[13.74484,55.63938],[13.74457,55.64462],[13.74392,55.64637],[13.74305,55.64735],[13.74146,55.64845],[13.73943,55.64929],[13.73764,55.64973],[13.73577,55.64996],[13.73315,55.65003],[13.72942,55.64948],[13.7264,55.64821],[13.72218,55.64521],[13.71788,55.6465],[13.71555,55.64782],[13.7131,55.64859],[13.71221,55.65054],[13.71106,55.65175],[13.70894,55.65296],[13.70625,55.65373],[13.70154,55.65429],[13.69777,55.65406],[13.69403,55.6532],[13.69162,55.65195],[13.68965,55.65163],[13.688,55.65115],[13.68716,55.65122],[13.68427,55.65514],[13.6785,55.65583],[13.67674,55.65711],[13.67258,55.66368],[13.67241,55.66783],[13.6747,55.66892],[13.67461,55.66965],[13.67522,55.67292],[13.67802,55.67539],[13.6796,55.67559],[13.67969,55.67656],[13.68098,55.6783],[13.68085,55.67872],[13.67982,55.6794],[13.67695,55.68035],[13.67625,55.68],[13.67492,55.68044],[13.67278,55.6807],[13.67254,55.68091],[13.67346,55.68137],[13.67524,55.68138],[13.67584,55.68172],[13.67747,55.68193],[13.6793,55.68156],[13.6799,55.6819],[13.68325,55.68209],[13.68524,55.68357],[13.68635,55.68412],[13.68763,55.68543],[13.68819,55.68562],[13.68973,55.68566],[13.69044,55.68611],[13.69184,55.68644],[13.69267,55.68718],[13.6925,55.68827],[13.6929,55.69037],[13.69516,55.69353],[13.69594,55.69459],[13.70055,55.69777],[13.70145,55.69807],[13.70242,55.69921],[13.70231,55.7004],[13.70184,55.70049],[13.70352,55.70236],[13.70583,55.70134],[13.71611,55.69863],[13.71957,55.70414],[13.71917,55.70419],[13.71713,55.70826],[13.71798,55.70838],[13.72217,55.706],[13.7249,55.70601],[13.72403,55.70466],[13.72609,55.70432],[13.72606,55.70555],[13.72669,55.70656],[13.72877,55.70614],[13.72826,55.70529],[13.73287,55.70479],[13.7347,55.70848],[13.74397,55.7041],[13.745,55.70452],[13.74524,55.70488],[13.74445,55.70579],[13.74498,55.70698],[13.74772,55.70758],[13.74794,55.70788],[13.75347,55.70889],[13.75979,55.70952],[13.76088,55.71033],[13.76569,55.70863],[13.7682,55.71099],[13.76965,55.71143],[13.77029,55.71143]]]}},{"type":"Feature","id":"1265R012","properties":{"code":"1265R012","name":"Äsperöd-Vanstad-Röddinge"},"geometry":{"type":"Polygon","coordinates":[[[13.87407,55.70279],[13.87207,55.70046],[13.87112,55.69863],[13.868,55.69656],[13.8667,55.69415],[13.86499,55.69314],[13.86494,55.69255],[13.86569,55.69185],[13.85976,55.68689],[13.85837,55.68642],[13.85666,55.68646],[13.85556,55.6862],[13.85515,55.68541],[13.85534,55.68458],[13.85491,55.68439],[13.85439,55.68346],[13.85346,55.68317],[13.85284,55.68256],[13.85266,55.682],[13.85183,55.68159],[13.8498,55.67966],[13.84978,55.67881],[13.85119,55.67805],[13.85159,55.6769],[13.85156,55.67614],[13.8505,55.674],[13.85137,55.67378],[13.85158,55.67244],[13.85229,55.67173],[13.85406,55.6708],[13.85577,55.66783],[13.85635,55.66784],[13.85633,55.66643],[13.85587,55.66469],[13.8543,55.66202],[13.8565,55.65772],[13.85396,55.65709],[13.85281,55.6564],[13.85276,55.6561],[13.85299,55.65564],[13.85426,55.65555],[13.85499,55.65508],[13.85573,55.65497],[13.85606,55.65433],[13.85583,55.65397],[13.857,55.65253],[13.85713,55.64939],[13.85848,55.64978],[13.85849,55.64854],[13.85725,55.6485],[13.8562,55.64348],[13.8557,55.64284],[13.85476,55.64238],[13.85337,55.64018],[13.85501,55.64033],[13.855,55.63909],[13.85553,55.63847],[13.85579,55.63708],[13.85572,55.63499],[13.8562,55.6344],[13.85531,55.63375],[13.85696,55.63402],[13.85775,55.63366],[13.858,55.63391],[13.85854,55.63385],[13.85928,55.63348],[13.86033,55.63328],[13.86106,55.63283],[13.86114,55.63251],[13.86199,55.63251],[13.86218,55.63221],[13.86251,55.63217],[13.86595,55.63252],[13.86686,55.63212],[13.86799,55.63248],[13.86837,55.63161],[13.86971,55.63059],[13.87384,55.62951],[13.87512,55.62888],[13.87628,55.6288],[13.88081,55.62914],[13.88154,55.6296],[13.88182,55.62957],[13.88221,55.63058],[13.88743,55.63037],[13.88558,55.62892],[13.8897,55.62817],[13.88941,55.62688],[13.89007,55.62687],[13.89313,55.62591],[13.89405,55.62586],[13.89615,55.62444],[13.90037,55.62264],[13.90174,55.62224],[13.90263,55.6222],[13.90317,55.6215],[13.90452,55.62125],[13.90511,55.62072],[13.90645,55.62041],[13.90667,55.62001],[13.90754,55.61967],[13.91108,55.61897],[13.91127,55.61913],[13.91175,55.6191],[13.91212,55.61877],[13.91195,55.61864],[13.91267,55.61825],[13.91234,55.61779],[13.91308,55.61733],[13.91363,55.61771],[13.91511,55.61693],[13.91532,55.61724],[13.91726,55.61635],[13.91773,55.61535],[13.92038,55.61616],[13.92385,55.61599],[13.92685,55.61414],[13.92822,55.61101],[13.92971,55.61046],[13.93246,55.60901],[13.93344,55.60951],[13.93696,55.60791],[13.93729,55.6069],[13.93703,55.60568],[13.93398,55.6043],[13.93402,55.60381],[13.93352,55.60386],[13.93301,55.60329],[13.93243,55.60148],[13.932,55.60108],[13.93208,55.59978],[13.93161,55.59798],[13.92628,55.59695],[13.92134,55.59754],[13.91843,55.59603],[13.91669,55.59546],[13.91428,55.59405],[13.91208,55.59255],[13.91112,55.591],[13.90372,55.59019],[13.90413,55.58999],[13.90331,55.58997],[13.90073,55.59081],[13.90007,55.59005],[13.89889,55.58998],[13.89814,55.59014],[13.89745,55.58999],[13.89557,55.58894],[13.8948,55.58898],[13.89355,55.58942],[13.88733,55.59044],[13.88649,55.59006],[13.88593,55.5902],[13.88723,55.59169],[13.88574,55.5917],[13.88483,55.592],[13.88576,55.59361],[13.88374,55.59369],[13.88334,55.59263],[13.88243,55.59294],[13.87872,55.59324],[13.87766,55.59355],[13.87688,55.59334],[13.87639,55.59268],[13.87636,55.59176],[13.87546,55.59169],[13.87474,55.59143],[13.87438,55.59038],[13.8726,55.58949],[13.86793,55.58964],[13.86732,55.58979],[13.8596,55.58254],[13.85916,55.57477],[13.85343,55.57246],[13.85261,55.57129],[13.85015,55.57017],[13.84936,55.56938],[13.84943,55.56871],[13.85089,55.56733],[13.85121,55.56672],[13.85036,55.56608],[13.84331,55.56962],[13.83946,55.5701],[13.8325,55.57204],[13.82625,55.57521],[13.82528,55.57528],[13.8239,55.57316],[13.82348,55.57182],[13.82248,55.57098],[13.82315,55.56966],[13.82238,55.5685],[13.82085,55.56749],[13.81835,55.56649],[13.81769,55.56412],[13.81548,55.56272],[13.81225,55.56128],[13.79528,55.56145],[13.78228,55.56296],[13.78089,55.56442],[13.78843,55.56862],[13.78763,55.5691],[13.78622,55.56882],[13.78627,55.56853],[13.7836,55.56891],[13.77889,55.57166],[13.77644,55.57079],[13.77487,55.57089],[13.7728,55.57182],[13.77309,55.57448],[13.76879,55.57735],[13.76802,55.57811],[13.76698,55.57863],[13.7674,55.57906],[13.76679,55.57952],[13.76638,55.57953],[13.76537,55.58093],[13.76242,55.58092],[13.76128,55.58063],[13.75994,55.58061],[13.76044,55.58096],[13.75942,55.58328],[13.75895,55.58345],[13.75877,55.58447],[13.76069,55.58699],[13.76113,55.58805],[13.7634,55.5905],[13.7732,55.588],[13.7744,55.59098],[13.77682,55.59012],[13.78283,55.58846],[13.78945,55.59739],[13.78819,55.59818],[13.78576,55.59917],[13.78393,55.6003],[13.78202,55.60168],[13.78041,55.6034],[13.77131,55.60575],[13.76378,55.60982],[13.75547,55.61308],[13.75319,55.61358],[13.75127,55.61466],[13.74472,55.6167],[13.74056,55.61869],[13.73759,55.61978],[13.73305,55.62094],[13.7303,55.62143],[13.73077,55.62184],[13.73241,55.62198],[13.73694,55.62183],[13.74,55.62229],[13.74312,55.62351],[13.74522,55.6253],[13.74599,55.62738],[13.74554,55.63023],[13.74641,55.63179],[13.74658,55.6334],[13.74571,55.63542],[13.74365,55.63709],[13.74451,55.6383],[13.74484,55.63938],[13.74744,55.63996],[13.74982,55.63942],[13.75075,55.63967],[13.75131,55.64035],[13.75129,55.64069],[13.75252,55.642],[13.75448,55.64364],[13.75537,55.64405],[13.75548,55.64441],[13.75785,55.64618],[13.75545,55.6477],[13.75364,55.64794],[13.75258,55.65023],[13.75259,55.65047],[13.75363,55.65046],[13.75413,55.65191],[13.75553,55.65078],[13.75708,55.65097],[13.75676,55.65133],[13.75718,55.652],[13.75679,55.65263],[13.75618,55.65289],[13.75595,55.6533],[13.75631,55.65336],[13.75509,55.65395],[13.76513,55.65608],[13.7665,55.65623],[13.76815,55.65618],[13.77053,55.65578],[13.7725,55.65577],[13.77339,55.65633],[13.77495,55.6565],[13.77503,55.65696],[13.77717,55.65765],[13.78326,55.66078],[13.78847,55.65997],[13.79597,55.6608],[13.79291,55.66328],[13.79428,55.66355],[13.79686,55.6633],[13.79992,55.66608],[13.79755,55.67261],[13.80243,55.67177],[13.80891,55.67971],[13.8091,55.67956],[13.81558,55.68406],[13.8199,55.68504],[13.82504,55.68434],[13.82513,55.68468],[13.82592,55.6845],[13.83081,55.68668],[13.82721,55.68789],[13.83847,55.6903],[13.84582,55.69318],[13.84987,55.69567],[13.85055,55.69563],[13.85097,55.69623],[13.85261,55.69648],[13.85297,55.69715],[13.85371,55.69761],[13.85593,55.7004],[13.86308,55.70318],[13.86771,55.70468],[13.88032,55.70784],[13.87407,55.70279]]]}}]}