{"type":"FeatureCollection","features":[{"type":"Feature","id":"1267R001","properties":{"code":"1267R001","name":"Höör väster-Centrala Höör-Grönalund"},"geometry":{"type":"Polygon","coordinates":[[[13.54395,55.95182],[13.54378,55.94914],[13.54625,55.94744],[13.54736,55.94702],[13.54968,55.94634],[13.55462,55.94532],[13.55604,55.94731],[13.55698,55.94695],[13.55974,55.94752],[13.56031,55.94633],[13.56042,55.94258],[13.56016,55.94161],[13.55612,55.93687],[13.55283,55.93386],[13.55125,55.93046],[13.54918,55.93085],[13.54804,55.93037],[13.54777,55.93044],[13.5465,55.93118],[13.54374,55.93188],[13.5428,55.93263],[13.54154,55.93266],[13.54137,55.93298],[13.54091,55.93296],[13.53866,55.93355],[13.5371,55.93406],[13.53635,55.93468],[13.5259,55.92998],[13.52024,55.92778],[13.51172,55.92494],[13.50954,55.92398],[13.50894,55.92811],[13.51109,55.9285],[13.51089,55.92888],[13.51055,55.92891],[13.51004,55.92933],[13.50999,55.92961],[13.50874,55.92932],[13.50864,55.93004],[13.51137,55.93093],[13.51477,55.93134],[13.51481,55.93351],[13.51612,55.93547],[13.51584,55.93672],[13.51614,55.93828],[13.5168,55.93934],[13.51793,55.9404],[13.51793,55.94155],[13.51876,55.9439],[13.52023,55.94555],[13.52101,55.94711],[13.52193,55.94801],[13.52362,55.94905],[13.52602,55.94989],[13.5276,55.95069],[13.53065,55.95157],[13.53233,55.95179],[13.53283,55.95165],[13.54349,55.95288],[13.54395,55.95182]]]}},{"type":"Feature","id":"1267R002","properties":{"code":"1267R002","name":"Snogeröd-Munkarp-Norra Rörum"},"geometry":{"type":"Polygon","coordinates":[[[13.52251,56.08868],[13.53569,56.08784],[13.54163,56.0885],[13.55942,56.0859],[13.56417,56.07879],[13.56866,56.07098],[13.56214,56.06163],[13.58537,56.05419],[13.58341,56.05044],[13.58386,56.04759],[13.58524,56.04692],[13.58757,56.04622],[13.59456,56.04656],[13.59801,56.04562],[13.60076,56.04446],[13.60184,56.04423],[13.60142,56.04394],[13.60262,56.04381],[13.60272,56.04414],[13.60463,56.04395],[13.60884,56.04291],[13.61397,56.04232],[13.61409,56.04194],[13.61649,56.04147],[13.61717,56.04195],[13.63351,56.0389],[13.63776,56.04226],[13.63867,56.0427],[13.63929,56.04436],[13.64083,56.04469],[13.64852,56.03909],[13.64948,56.03761],[13.64862,56.03704],[13.64731,56.03684],[13.64654,56.03651],[13.6465,56.0362],[13.64563,56.03564],[13.64569,56.03529],[13.64513,56.03481],[13.6442,56.03466],[13.64424,56.03434],[13.64008,56.0321],[13.63891,56.03194],[13.6382,56.03138],[13.64151,56.0308],[13.65768,56.03426],[13.66418,56.03425],[13.65886,56.02787],[13.65746,56.02846],[13.65618,56.02735],[13.65579,56.02681],[13.65598,56.02593],[13.65632,56.02588],[13.65553,56.02502],[13.65472,56.025],[13.655,56.02431],[13.65383,56.02394],[13.65312,56.02338],[13.65234,56.02371],[13.64862,56.02053],[13.64896,56.02022],[13.64919,56.01924],[13.65046,56.01999],[13.65847,56.01691],[13.66063,56.01178],[13.67044,56.00365],[13.66395,56.00163],[13.65172,55.99599],[13.65355,55.99174],[13.65822,55.98685],[13.65973,55.9835],[13.65969,55.98333],[13.65931,55.9833],[13.65924,55.98297],[13.65847,55.98291],[13.65821,55.98268],[13.64956,55.98151],[13.64738,55.98087],[13.6445,55.9804],[13.64433,55.97845],[13.64387,55.97738],[13.64346,55.97715],[13.63664,55.97683],[13.62863,55.97776],[13.62705,55.97715],[13.62614,55.97735],[13.62213,55.97259],[13.62066,55.96192],[13.62059,55.9595],[13.6195,55.95738],[13.61989,55.95624],[13.62027,55.95594],[13.61827,55.95471],[13.61794,55.95397],[13.61853,55.95336],[13.61759,55.94984],[13.61668,55.94971],[13.61748,55.94504],[13.61748,55.94225],[13.61103,55.93425],[13.61146,55.93099],[13.61303,55.92913],[13.6149,55.92775],[13.61342,55.92708],[13.60993,55.92755],[13.60613,55.92727],[13.60283,55.92639],[13.5978,55.92435],[13.59572,55.92621],[13.59333,55.92751],[13.59104,55.92821],[13.58811,55.9286],[13.58545,55.92929],[13.58648,55.93087],[13.58665,55.93251],[13.58911,55.93257],[13.59093,55.93284],[13.59455,55.93402],[13.59634,55.93506],[13.59899,55.93751],[13.60142,55.93862],[13.60317,55.93976],[13.60516,55.94173],[13.60597,55.94307],[13.60622,55.94502],[13.60574,55.94675],[13.60444,55.94853],[13.60292,55.94972],[13.60005,55.95094],[13.59743,55.95233],[13.59455,55.95315],[13.59146,55.95342],[13.58859,55.95321],[13.58501,55.9524],[13.58295,55.95168],[13.57939,55.95114],[13.57816,55.95277],[13.57651,55.95391],[13.57622,55.95554],[13.57467,55.95816],[13.57369,55.9591],[13.57149,55.96034],[13.57143,55.96058],[13.57447,55.96111],[13.57742,55.96194],[13.57972,55.96317],[13.581,55.96443],[13.58166,55.9658],[13.58184,55.96724],[13.58152,55.96843],[13.58055,55.96981],[13.58235,55.97299],[13.58244,55.9742],[13.5821,55.97538],[13.58435,55.97538],[13.5869,55.97571],[13.58922,55.97638],[13.59255,55.97777],[13.59859,55.97838],[13.60046,55.9788],[13.60227,55.97947],[13.60587,55.97931],[13.60915,55.97978],[13.61204,55.98084],[13.61583,55.98342],[13.61841,55.98438],[13.62017,55.98397],[13.62196,55.98297],[13.62414,55.98225],[13.62658,55.98185],[13.62917,55.98181],[13.63421,55.98251],[13.63667,55.98305],[13.63887,55.9832],[13.64088,55.98357],[13.64359,55.98455],[13.64541,55.98572],[13.64657,55.98704],[13.6471,55.98847],[13.64696,55.99003],[13.64612,55.99157],[13.64657,55.99262],[13.64662,55.99407],[13.64949,55.99524],[13.6517,55.9971],[13.65249,55.99895],[13.65244,56.00007],[13.65196,56.00127],[13.65222,56.00236],[13.65417,56.00333],[13.65557,56.00452],[13.6564,56.00589],[13.6566,56.00733],[13.65568,56.00939],[13.65361,56.01114],[13.65216,56.01185],[13.64997,56.01253],[13.64701,56.01456],[13.64564,56.01524],[13.64319,56.01601],[13.64086,56.01643],[13.63704,56.01641],[13.63386,56.01574],[13.63177,56.01486],[13.63028,56.01385],[13.62581,56.01237],[13.62291,56.01069],[13.62158,56.00948],[13.62093,56.00843],[13.62054,56.007],[13.62084,56.0054],[13.61832,56.00429],[13.61598,56.00255],[13.61476,56.0009],[13.61452,55.99915],[13.61428,55.99905],[13.61124,55.99901],[13.60777,55.9995],[13.60474,55.99933],[13.6016,55.99855],[13.59831,55.99677],[13.59585,55.99618],[13.59354,55.99517],[13.59056,55.99529],[13.58767,55.99495],[13.58405,55.99545],[13.58144,55.99545],[13.57874,55.99504],[13.57599,55.99411],[13.57411,55.99295],[13.57267,55.9913],[13.57222,55.98942],[13.57267,55.98782],[13.56976,55.98657],[13.56767,55.98466],[13.56701,55.98279],[13.5674,55.98092],[13.56495,55.98059],[13.56318,55.98015],[13.56001,55.97873],[13.55849,55.97754],[13.55729,55.9758],[13.55474,55.975],[13.55249,55.97371],[13.54998,55.97081],[13.54707,55.97013],[13.54649,55.97033],[13.54527,55.9719],[13.54328,55.97332],[13.54102,55.97423],[13.53797,55.97484],[13.53575,55.97496],[13.53311,55.97476],[13.53051,55.97417],[13.52841,55.9733],[13.52639,55.97177],[13.52523,55.9699],[13.52497,55.96849],[13.52532,55.96712],[13.52416,55.96573],[13.52373,55.96407],[13.52294,55.96277],[13.52271,55.96019],[13.52339,55.95885],[13.52502,55.95739],[13.5269,55.95646],[13.52929,55.95579],[13.53062,55.95487],[13.53212,55.95416],[13.53285,55.95243],[13.53263,55.95181],[13.53065,55.95157],[13.52878,55.95112],[13.52362,55.94905],[13.52232,55.9483],[13.52102,55.94712],[13.52023,55.94555],[13.51921,55.94456],[13.51859,55.94354],[13.51793,55.94155],[13.51793,55.9404],[13.5168,55.93934],[13.5161,55.93818],[13.51584,55.93672],[13.51612,55.93547],[13.51481,55.93351],[13.51477,55.93134],[13.51253,55.93115],[13.51011,55.9306],[13.50801,55.92973],[13.50561,55.92825],[13.50422,55.92718],[13.50314,55.92584],[13.50241,55.9238],[13.50246,55.92239],[13.50019,55.92389],[13.49745,55.9248],[13.49433,55.92518],[13.49116,55.92501],[13.48936,55.92463],[13.48696,55.92384],[13.48553,55.92311],[13.48417,55.92204],[13.47759,55.92202],[13.47113,55.92074],[13.46788,55.91936],[13.46578,55.91746],[13.46513,55.91594],[13.4653,55.91408],[13.46653,55.91231],[13.46841,55.91099],[13.46671,55.90982],[13.46543,55.90806],[13.46516,55.90661],[13.46559,55.90507],[13.46695,55.90344],[13.46899,55.90212],[13.47577,55.8998],[13.47911,55.89925],[13.48255,55.8993],[13.48522,55.89873],[13.48844,55.89863],[13.49162,55.89806],[13.49451,55.89801],[13.49987,55.89846],[13.50201,55.89815],[13.50502,55.89805],[13.50689,55.89755],[13.50884,55.89727],[13.51148,55.89725],[13.51317,55.89573],[13.51525,55.89469],[13.51815,55.89392],[13.52091,55.89368],[13.52304,55.89377],[13.52553,55.89419],[13.52815,55.89502],[13.5301,55.89602],[13.53196,55.89589],[13.53684,55.89602],[13.54028,55.8966],[13.54684,55.89682],[13.55171,55.89741],[13.55475,55.89826],[13.55515,55.89736],[13.54783,55.89263],[13.55999,55.8785],[13.54523,55.86753],[13.55631,55.84449],[13.55802,55.83923],[13.55693,55.83308],[13.55711,55.83255],[13.55621,55.83196],[13.55606,55.83061],[13.55642,55.82957],[13.55342,55.82903],[13.55268,55.82865],[13.55341,55.82825],[13.55361,55.82766],[13.55307,55.82654],[13.55285,55.82279],[13.55546,55.8208],[13.54523,55.82038],[13.54554,55.81934],[13.5401,55.81745],[13.53944,55.81831],[13.52006,55.81141],[13.52504,55.80812],[13.52617,55.80597],[13.52262,55.80683],[13.52121,55.805],[13.51679,55.8055],[13.51283,55.80634],[13.51208,55.80466],[13.51583,55.80292],[13.51029,55.79442],[13.50949,55.79386],[13.50964,55.79358],[13.51101,55.79329],[13.51255,55.79214],[13.5139,55.79206],[13.51385,55.78981],[13.52671,55.79127],[13.52018,55.78672],[13.52106,55.78493],[13.52262,55.78397],[13.51293,55.7788],[13.51087,55.77789],[13.50581,55.77788],[13.49736,55.78222],[13.4969,55.78218],[13.48893,55.78616],[13.48921,55.78406],[13.48591,55.78333],[13.48595,55.78283],[13.4774,55.78334],[13.47768,55.78977],[13.47818,55.78978],[13.4783,55.79354],[13.46896,55.79429],[13.46175,55.7945],[13.46075,55.79816],[13.46225,55.79919],[13.4607,55.80171],[13.45859,55.80358],[13.45958,55.80599],[13.45595,55.80632],[13.45266,55.80613],[13.4524,55.80806],[13.44873,55.80741],[13.44826,55.80998],[13.4482,55.81012],[13.44778,55.81011],[13.44771,55.81068],[13.4481,55.81069],[13.44798,55.81144],[13.44765,55.81151],[13.44813,55.81154],[13.44773,55.81387],[13.44481,55.81676],[13.44775,55.81744],[13.45298,55.81909],[13.45558,55.81944],[13.45294,55.81914],[13.4477,55.81749],[13.44478,55.81681],[13.44495,55.8183],[13.44832,55.82411],[13.44596,55.82028],[13.44569,55.82024],[13.44361,55.8229],[13.4277,55.81938],[13.42245,55.82599],[13.42489,55.82784],[13.43741,55.8248],[13.43948,55.82744],[13.43681,55.82811],[13.44002,55.83177],[13.44088,55.83387],[13.43902,55.83536],[13.43714,55.83482],[13.437,55.84578],[13.43621,55.8577],[13.44318,55.86757],[13.44206,55.86867],[13.44139,55.86891],[13.4386,55.86895],[13.42576,55.87276],[13.42573,55.87405],[13.42535,55.87469],[13.43128,55.87622],[13.43176,55.87604],[13.43255,55.87485],[13.43307,55.87468],[13.43363,55.87463],[13.43679,55.87494],[13.44066,55.87425],[13.44028,55.87445],[13.4368,55.87499],[13.4331,55.87473],[13.43262,55.87489],[13.43184,55.87607],[13.43143,55.87629],[13.42533,55.87475],[13.42388,55.87786],[13.42336,55.87781],[13.42213,55.88111],[13.42957,55.88292],[13.43008,55.88422],[13.42989,55.88465],[13.4295,55.88479],[13.42976,55.88492],[13.42816,55.88896],[13.4329,55.89006],[13.43496,55.89141],[13.45969,55.89713],[13.44827,55.90634],[13.44228,55.91165],[13.44212,55.91235],[13.44332,55.9131],[13.44323,55.91333],[13.44273,55.91357],[13.44178,55.91337],[13.44082,55.91468],[13.44129,55.91744],[13.44149,55.918],[13.44197,55.91813],[13.44164,55.91819],[13.44223,55.91912],[13.44101,55.9205],[13.44081,55.92154],[13.44003,55.92277],[13.43926,55.92328],[13.43424,55.92427],[13.43075,55.92473],[13.43033,55.92504],[13.4299,55.92629],[13.42839,55.92753],[13.42525,55.92862],[13.42289,55.92884],[13.42211,55.92963],[13.42154,55.92988],[13.42082,55.92986],[13.41906,55.92924],[13.41705,55.92976],[13.41435,55.93017],[13.41083,55.93116],[13.41016,55.93115],[13.40816,55.93038],[13.40518,55.93115],[13.40368,55.93079],[13.40284,55.93086],[13.40271,55.93123],[13.40338,55.93183],[13.40264,55.93312],[13.40018,55.93421],[13.39847,55.93443],[13.3986,55.93526],[13.3998,55.93666],[13.39917,55.93748],[13.40083,55.93801],[13.40045,55.93883],[13.40027,55.9426],[13.39942,55.94233],[13.39529,55.94198],[13.39262,55.94204],[13.391,55.94162],[13.38881,55.94073],[13.38588,55.93763],[13.3833,55.93732],[13.38253,55.93706],[13.38194,55.9365],[13.37748,55.93623],[13.37616,55.93645],[13.37729,55.93857],[13.37823,55.93844],[13.3782,55.94051],[13.38034,55.94127],[13.38084,55.94118],[13.38127,55.94135],[13.38291,55.93841],[13.38383,55.93859],[13.38356,55.93964],[13.38399,55.94107],[13.38369,55.94148],[13.37881,55.94344],[13.37782,55.94444],[13.37668,55.94622],[13.37566,55.94636],[13.37492,55.9472],[13.37423,55.94918],[13.3739,55.94931],[13.37496,55.94938],[13.37648,55.95029],[13.37753,55.95207],[13.3826,55.9584],[13.38502,55.96268],[13.38879,55.96498],[13.38652,55.9687],[13.37617,55.97503],[13.37809,55.97683],[13.38895,55.99138],[13.38349,55.99895],[13.38232,55.99974],[13.38055,56.00017],[13.38049,56.00032],[13.38151,56.00233],[13.38107,56.00332],[13.38168,56.00358],[13.38316,56.00349],[13.38425,56.00384],[13.38567,56.005],[13.38593,56.00688],[13.38633,56.00721],[13.38804,56.0075],[13.38828,56.00816],[13.38714,56.00845],[13.38683,56.00881],[13.38715,56.00903],[13.38821,56.0092],[13.38955,56.00868],[13.38991,56.00884],[13.39016,56.00932],[13.38973,56.01025],[13.39092,56.01093],[13.39177,56.01074],[13.3924,56.01085],[13.39551,56.00992],[13.3982,56.00996],[13.39926,56.00968],[13.39934,56.0095],[13.40104,56.00931],[13.40255,56.00851],[13.40363,56.00842],[13.41214,56.00803],[13.41799,56.00848],[13.42039,56.00847],[13.42368,56.009],[13.42576,56.00914],[13.43341,56.00823],[13.43284,56.00952],[13.43428,56.01079],[13.4344,56.01269],[13.43586,56.01345],[13.43867,56.01581],[13.43955,56.01619],[13.44276,56.01957],[13.44383,56.02008],[13.44459,56.02088],[13.44358,56.02841],[13.44023,56.0287],[13.43882,56.03045],[13.43973,56.03056],[13.43986,56.03014],[13.44175,56.03045],[13.44558,56.03273],[13.44848,56.03347],[13.45574,56.03635],[13.4552,56.03747],[13.45549,56.03795],[13.46134,56.04277],[13.465,56.04786],[13.46567,56.0505],[13.46435,56.05572],[13.46586,56.05687],[13.46709,56.05723],[13.46863,56.05737],[13.46947,56.05723],[13.47145,56.05773],[13.47504,56.05974],[13.48005,56.05856],[13.48496,56.05702],[13.49558,56.05517],[13.49875,56.05802],[13.4993,56.05963],[13.50049,56.06115],[13.50909,56.06411],[13.51307,56.06861],[13.52251,56.08868]]]}},{"type":"Feature","id":"1267R003","properties":{"code":"1267R003","name":"Stanstorp-Sätofta-Sjunnerup"},"geometry":{"type":"Polygon","coordinates":[[[13.58913,55.98131],[13.59229,55.97859],[13.59186,55.97848],[13.59244,55.97771],[13.5887,55.97619],[13.5869,55.97571],[13.58435,55.97538],[13.5821,55.97538],[13.58244,55.9742],[13.58235,55.97299],[13.58055,55.96981],[13.58152,55.96843],[13.58184,55.96724],[13.58166,55.9658],[13.581,55.96443],[13.57972,55.96317],[13.57791,55.96214],[13.57574,55.96141],[13.57143,55.96058],[13.57149,55.96034],[13.57332,55.95937],[13.57467,55.95816],[13.57622,55.95554],[13.57651,55.95391],[13.57816,55.95277],[13.57939,55.95114],[13.58295,55.95168],[13.58501,55.9524],[13.58859,55.95321],[13.59146,55.95342],[13.59455,55.95315],[13.59743,55.95233],[13.60005,55.95094],[13.60292,55.94972],[13.60444,55.94853],[13.60574,55.94675],[13.60622,55.94502],[13.60597,55.94307],[13.60516,55.94173],[13.60317,55.93976],[13.60142,55.93862],[13.59899,55.93751],[13.59634,55.93506],[13.59455,55.93402],[13.59093,55.93284],[13.58911,55.93257],[13.58665,55.93251],[13.58648,55.93087],[13.58545,55.92929],[13.58811,55.9286],[13.59104,55.92821],[13.59333,55.92751],[13.59572,55.92621],[13.5978,55.92435],[13.60283,55.92639],[13.60613,55.92727],[13.60993,55.92755],[13.61342,55.92708],[13.59307,55.91784],[13.58815,55.91467],[13.58536,55.91389],[13.58323,55.91292],[13.58082,55.9109],[13.5789,55.91018],[13.57883,55.90868],[13.57946,55.90757],[13.57896,55.90719],[13.57941,55.90707],[13.57907,55.90592],[13.57636,55.90517],[13.5753,55.90406],[13.57509,55.902],[13.57538,55.90161],[13.57594,55.90144],[13.57556,55.90086],[13.57336,55.90092],[13.57165,55.90141],[13.56836,55.90088],[13.56647,55.90101],[13.56502,55.90137],[13.56435,55.90224],[13.56286,55.90236],[13.55515,55.89736],[13.55475,55.89826],[13.55171,55.89741],[13.54684,55.89682],[13.54028,55.8966],[13.53684,55.89602],[13.53196,55.89589],[13.5301,55.89602],[13.52815,55.89502],[13.52553,55.89419],[13.52304,55.89377],[13.52091,55.89368],[13.51815,55.89392],[13.51525,55.89469],[13.51317,55.89573],[13.51148,55.89725],[13.50884,55.89727],[13.50689,55.89755],[13.50502,55.89805],[13.50201,55.89815],[13.49987,55.89846],[13.49451,55.89801],[13.49233,55.89801],[13.48844,55.89863],[13.48522,55.89873],[13.48255,55.8993],[13.48033,55.89919],[13.47842,55.89932],[13.47486,55.90005],[13.46899,55.90212],[13.46663,55.90373],[13.46528,55.90583],[13.46522,55.90739],[13.46583,55.90881],[13.46705,55.9101],[13.46841,55.91099],[13.46685,55.91202],[13.46568,55.91332],[13.46512,55.91475],[13.46513,55.91594],[13.46578,55.91746],[13.46737,55.91903],[13.46937,55.92011],[13.47238,55.92108],[13.4782,55.92207],[13.48417,55.92204],[13.48553,55.92311],[13.48751,55.92405],[13.49053,55.9249],[13.49302,55.92518],[13.49559,55.9251],[13.49859,55.9245],[13.50068,55.92365],[13.50246,55.92239],[13.50251,55.92423],[13.50357,55.92648],[13.50561,55.92825],[13.50864,55.93004],[13.50874,55.92932],[13.50999,55.92961],[13.51004,55.92933],[13.51055,55.92891],[13.51089,55.92888],[13.51109,55.9285],[13.50894,55.92811],[13.50954,55.92398],[13.51172,55.92494],[13.5174,55.92683],[13.52188,55.9244],[13.522,55.92276],[13.52036,55.92224],[13.5194,55.92145],[13.51926,55.921],[13.51723,55.91969],[13.51728,55.91851],[13.5178,55.91711],[13.5215,55.91798],[13.52492,55.91769],[13.52493,55.91782],[13.53221,55.91803],[13.53931,55.91996],[13.53964,55.92028],[13.54161,55.91989],[13.54154,55.92016],[13.54227,55.92127],[13.54359,55.92148],[13.54448,55.92133],[13.54553,55.91995],[13.54583,55.91986],[13.54826,55.92022],[13.55308,55.91999],[13.55709,55.92033],[13.55689,55.92149],[13.55592,55.92268],[13.55598,55.92323],[13.56201,55.9254],[13.56234,55.92526],[13.56439,55.92638],[13.56531,55.9263],[13.56634,55.92667],[13.56789,55.92671],[13.56396,55.93043],[13.56361,55.93107],[13.56462,55.9319],[13.56687,55.93259],[13.56466,55.93504],[13.56411,55.93522],[13.56298,55.93518],[13.5621,55.93472],[13.56134,55.93463],[13.56057,55.93395],[13.55787,55.93663],[13.56619,55.9387],[13.56539,55.94074],[13.56445,55.94116],[13.56232,55.94059],[13.56246,55.94384],[13.56034,55.94409],[13.56041,55.94595],[13.55974,55.94752],[13.55698,55.94695],[13.55604,55.94731],[13.55462,55.94532],[13.54968,55.94634],[13.54736,55.94702],[13.54625,55.94744],[13.54378,55.94914],[13.54396,55.95201],[13.54349,55.95288],[13.53283,55.95165],[13.53237,55.95172],[13.53285,55.95243],[13.53212,55.95416],[13.53062,55.95487],[13.52929,55.95579],[13.52741,55.95627],[13.52591,55.95689],[13.52394,55.95823],[13.52282,55.95984],[13.52261,55.96122],[13.52282,55.96244],[13.52373,55.96407],[13.524,55.9654],[13.52532,55.96712],[13.52497,55.96849],[13.52523,55.9699],[13.52639,55.97177],[13.52841,55.9733],[13.53176,55.97452],[13.53513,55.97495],[13.53857,55.97476],[13.54221,55.97382],[13.5446,55.97247],[13.54588,55.97128],[13.54649,55.97033],[13.54707,55.97013],[13.54998,55.97081],[13.55239,55.97363],[13.55474,55.975],[13.55729,55.9758],[13.55884,55.97787],[13.56025,55.97793],[13.56175,55.97743],[13.56347,55.9763],[13.56521,55.97553],[13.56806,55.9752],[13.56866,55.97527],[13.56925,55.97487],[13.57088,55.97498],[13.57279,55.97447],[13.57293,55.97558],[13.57533,55.97675],[13.57621,55.97736],[13.57667,55.97803],[13.57821,55.97838],[13.58046,55.97809],[13.58536,55.98017],[13.58913,55.98131]]]}},{"type":"Feature","id":"1267R004","properties":{"code":"1267R004","name":"Stenskogen-Veterinärgården"},"geometry":{"type":"Polygon","coordinates":[[[13.56246,55.94384],[13.56232,55.94059],[13.56445,55.94116],[13.56539,55.94074],[13.56619,55.9387],[13.55787,55.93663],[13.56057,55.93395],[13.56134,55.93463],[13.5621,55.93472],[13.56298,55.93518],[13.56411,55.93522],[13.56466,55.93504],[13.56687,55.93259],[13.56462,55.9319],[13.56361,55.93107],[13.56396,55.93043],[13.56789,55.92671],[13.56634,55.92667],[13.56531,55.9263],[13.56439,55.92638],[13.56234,55.92526],[13.56201,55.9254],[13.55598,55.92323],[13.55592,55.92268],[13.55689,55.92149],[13.55709,55.92033],[13.55308,55.91999],[13.54826,55.92022],[13.54583,55.91986],[13.54553,55.91995],[13.54448,55.92133],[13.54359,55.92148],[13.54227,55.92127],[13.54154,55.92016],[13.54161,55.91989],[13.53964,55.92028],[13.53931,55.91996],[13.53221,55.91803],[13.52493,55.91782],[13.52492,55.91769],[13.5215,55.91798],[13.5178,55.91711],[13.51728,55.91851],[13.51723,55.91969],[13.51926,55.921],[13.5194,55.92145],[13.52036,55.92224],[13.522,55.92276],[13.52188,55.9244],[13.5174,55.92683],[13.5259,55.92998],[13.53635,55.93468],[13.5371,55.93406],[13.53866,55.93355],[13.54091,55.93296],[13.54137,55.93298],[13.54154,55.93266],[13.5428,55.93263],[13.54374,55.93188],[13.5465,55.93118],[13.54777,55.93044],[13.54804,55.93037],[13.54918,55.93085],[13.55125,55.93046],[13.55283,55.93386],[13.55612,55.93687],[13.56002,55.94138],[13.56038,55.94218],[13.56034,55.94409],[13.56246,55.94384]]]}},{"type":"Feature","id":"1267R005","properties":{"code":"1267R005","name":"Tjörnarps stationssamhälle"},"geometry":{"type":"Polygon","coordinates":[[[13.63965,56.01651],[13.64205,56.01626],[13.64514,56.01544],[13.64701,56.01456],[13.64997,56.01253],[13.65318,56.01138],[13.65454,56.0105],[13.65568,56.00939],[13.6566,56.00733],[13.6564,56.00589],[13.65557,56.00452],[13.65417,56.00333],[13.65222,56.00236],[13.65196,56.00127],[13.65244,56.00007],[13.65249,55.99895],[13.6517,55.9971],[13.64949,55.99524],[13.64662,55.99407],[13.64657,55.99262],[13.64612,55.99157],[13.64708,55.98959],[13.64693,55.98779],[13.64573,55.98601],[13.64359,55.98455],[13.64143,55.98372],[13.63955,55.9833],[13.63667,55.98305],[13.63421,55.98251],[13.62851,55.98179],[13.62598,55.98192],[13.62414,55.98225],[13.62196,55.98297],[13.62017,55.98397],[13.61841,55.98438],[13.61583,55.98342],[13.61204,55.98084],[13.60915,55.97978],[13.60587,55.97931],[13.60227,55.97947],[13.60046,55.9788],[13.59859,55.97838],[13.59244,55.97771],[13.59186,55.97848],[13.59229,55.97859],[13.58913,55.98131],[13.58536,55.98017],[13.58046,55.97809],[13.57821,55.97838],[13.57667,55.97803],[13.57621,55.97736],[13.57533,55.97675],[13.57293,55.97558],[13.57279,55.97447],[13.57088,55.97498],[13.56925,55.97487],[13.56866,55.97527],[13.56806,55.9752],[13.56521,55.97553],[13.56347,55.9763],[13.56175,55.97743],[13.56025,55.97793],[13.55884,55.97787],[13.56043,55.97898],[13.56262,55.97996],[13.56495,55.98059],[13.5674,55.98092],[13.56701,55.98279],[13.56767,55.98466],[13.56976,55.98657],[13.57267,55.98782],[13.57222,55.98942],[13.57267,55.9913],[13.57411,55.99295],[13.57599,55.99411],[13.57874,55.99504],[13.58144,55.99545],[13.58405,55.99545],[13.58767,55.99495],[13.59056,55.99529],[13.59354,55.99517],[13.59585,55.99618],[13.59831,55.99677],[13.6016,55.99855],[13.60474,55.99933],[13.60777,55.9995],[13.61124,55.99901],[13.61428,55.99905],[13.61452,55.99915],[13.61476,56.0009],[13.61598,56.00255],[13.61832,56.00429],[13.62084,56.0054],[13.62054,56.007],[13.62093,56.00843],[13.62158,56.00948],[13.62291,56.01069],[13.62581,56.01237],[13.63028,56.01385],[13.63177,56.01486],[13.63333,56.01556],[13.63644,56.01633],[13.63965,56.01651]]]}}]}