{"type":"FeatureCollection","features":[{"type":"Feature","id":"1272R004","properties":{"code":"1272R004","name":"Gualöv-Bromölla skogen-västra centrum Bromölla"},"geometry":{"type":"Polygon","coordinates":[[[14.44728,56.08313],[14.46952,56.07975],[14.46925,56.07837],[14.46873,56.07761],[14.46902,56.07724],[14.46808,56.07674],[14.46844,56.07659],[14.47585,56.0767],[14.47742,56.06923],[14.47738,56.06837],[14.47669,56.06708],[14.47728,56.06592],[14.47744,56.05907],[14.47866,56.05743],[14.47804,56.05762],[14.47456,56.0575],[14.47208,56.05782],[14.46996,56.05769],[14.46448,56.05676],[14.45939,56.05643],[14.45492,56.05463],[14.4525,56.05405],[14.44933,56.05384],[14.44619,56.0542],[14.44696,56.05252],[14.44691,56.05106],[14.44614,56.04956],[14.4448,56.04829],[14.44325,56.04736],[14.44155,56.04668],[14.44028,56.04583],[14.43775,56.04347],[14.43372,56.04101],[14.43102,56.04005],[14.42741,56.0396],[14.42441,56.03866],[14.42127,56.03833],[14.41811,56.03857],[14.41256,56.04006],[14.40999,56.04131],[14.40898,56.04156],[14.40665,56.04137],[14.40444,56.04145],[14.40194,56.04188],[14.40019,56.04243],[14.39787,56.04368],[14.39644,56.04507],[14.39569,56.04686],[14.39584,56.04842],[14.39667,56.04985],[14.39871,56.05181],[14.40045,56.05285],[14.40272,56.05364],[14.40498,56.05541],[14.40767,56.05642],[14.41282,56.05746],[14.42002,56.05794],[14.42461,56.05743],[14.43833,56.06287],[14.43957,56.06414],[14.44166,56.06538],[14.4417,56.06574],[14.44095,56.06628],[14.41461,56.07056],[14.44458,56.07493],[14.44728,56.08313]]]}},{"type":"Feature","id":"1272R001","properties":{"code":"1272R001","name":"Bromölla omland"},"geometry":{"type":"Polygon","coordinates":[[[14.46751,56.23925],[14.47745,56.23273],[14.49246,56.22614],[14.5072,56.22173],[14.50816,56.22104],[14.50991,56.22039],[14.51146,56.21939],[14.51114,56.21849],[14.51558,56.21669],[14.51681,56.21498],[14.51732,56.21512],[14.51818,56.21499],[14.5185,56.21417],[14.51934,56.21437],[14.51963,56.21472],[14.51909,56.21663],[14.51947,56.21725],[14.52051,56.21773],[14.52169,56.21799],[14.52271,56.21903],[14.52433,56.21898],[14.52497,56.22028],[14.52487,56.22076],[14.52548,56.22077],[14.52548,56.22022],[14.52427,56.21835],[14.52469,56.21828],[14.52657,56.21888],[14.52688,56.21925],[14.52713,56.2208],[14.52933,56.22091],[14.52997,56.22225],[14.53103,56.2224],[14.53116,56.22344],[14.53299,56.22363],[14.53337,56.22333],[14.53467,56.22347],[14.53659,56.2234],[14.53798,56.22176],[14.53806,56.22109],[14.5406,56.22117],[14.55401,56.22253],[14.56664,56.22412],[14.56627,56.22327],[14.56606,56.22091],[14.56629,56.22077],[14.56591,56.21897],[14.56508,56.21819],[14.56539,56.21544],[14.56511,56.21478],[14.56459,56.21448],[14.56465,56.21297],[14.56816,56.20858],[14.56837,56.20724],[14.56994,56.20494],[14.56967,56.20474],[14.56978,56.20396],[14.57034,56.20371],[14.57115,56.20252],[14.57133,56.20141],[14.57168,56.20109],[14.57144,56.20024],[14.5718,56.19992],[14.57452,56.19327],[14.57455,56.19053],[14.57605,56.18607],[14.57797,56.18102],[14.58175,56.17305],[14.57747,56.1627],[14.57859,56.15814],[14.57849,56.15705],[14.58159,56.15116],[14.58225,56.14934],[14.58225,56.14879],[14.57927,56.14483],[14.57953,56.14132],[14.57982,56.14008],[14.58051,56.13924],[14.58134,56.13704],[14.58608,56.13058],[14.58625,56.12917],[14.58111,56.1215],[14.58166,56.11677],[14.57835,56.11156],[14.57847,56.1018],[14.57765,56.09875],[14.57832,56.09749],[14.56058,56.08415],[14.55861,56.0841],[14.55586,56.08294],[14.55534,56.07864],[14.55247,56.07593],[14.55353,56.07112],[14.55183,56.0719],[14.54935,56.07255],[14.54633,56.07362],[14.54262,56.07418],[14.54064,56.07416],[14.53818,56.07381],[14.53482,56.07285],[14.53285,56.07198],[14.52984,56.06995],[14.52908,56.06896],[14.5283,56.06719],[14.52495,56.06585],[14.52269,56.06411],[14.52192,56.06276],[14.52141,56.06011],[14.51935,56.05829],[14.51873,56.05691],[14.51878,56.05538],[14.51677,56.0536],[14.516,56.05163],[14.51364,56.05121],[14.51174,56.05056],[14.50847,56.05029],[14.50514,56.0493],[14.50131,56.04877],[14.49916,56.04928],[14.49594,56.04971],[14.49376,56.04977],[14.49101,56.04948],[14.48349,56.0513],[14.48159,56.05148],[14.47921,56.05141],[14.47657,56.05202],[14.47398,56.05222],[14.47062,56.05192],[14.46766,56.05108],[14.46472,56.05061],[14.46314,56.05009],[14.46077,56.04871],[14.4584,56.0481],[14.45644,56.04719],[14.45526,56.04634],[14.45418,56.04505],[14.45161,56.04405],[14.44988,56.04301],[14.44825,56.04106],[14.44795,56.03967],[14.44686,56.03766],[14.44691,56.03613],[14.44636,56.0342],[14.44654,56.03279],[14.44801,56.03078],[14.44966,56.0297],[14.45228,56.0287],[14.45218,56.02804],[14.44536,56.0298],[14.43904,56.02862],[14.43953,56.02607],[14.43772,56.02325],[14.43098,56.02434],[14.42418,56.02502],[14.41623,56.03003],[14.41695,56.03058],[14.40605,56.03328],[14.40385,56.03334],[14.40336,56.03533],[14.40118,56.03459],[14.396,56.03574],[14.39502,56.03574],[14.38954,56.03481],[14.38588,56.03466],[14.38557,56.03543],[14.38063,56.03699],[14.38138,56.04077],[14.38305,56.04106],[14.38332,56.04176],[14.38503,56.04889],[14.38565,56.05326],[14.40333,56.06953],[14.41461,56.07056],[14.44095,56.06628],[14.4417,56.06574],[14.44166,56.06538],[14.43957,56.06414],[14.43833,56.06287],[14.42461,56.05743],[14.42002,56.05794],[14.41343,56.05751],[14.41089,56.05715],[14.40651,56.05607],[14.40411,56.05489],[14.40272,56.05364],[14.40097,56.05307],[14.39909,56.05208],[14.39643,56.04954],[14.39567,56.04765],[14.39605,56.04572],[14.39741,56.04403],[14.3997,56.04264],[14.40194,56.04188],[14.40384,56.04152],[14.40645,56.04136],[14.40898,56.04156],[14.40999,56.04131],[14.41256,56.04006],[14.41687,56.03883],[14.41935,56.03841],[14.42188,56.03835],[14.42503,56.03879],[14.42741,56.0396],[14.42977,56.03981],[14.43161,56.04021],[14.43372,56.04101],[14.43679,56.0428],[14.43869,56.04419],[14.44028,56.04583],[14.44155,56.04668],[14.44425,56.04792],[14.44614,56.04956],[14.44702,56.05174],[14.44688,56.05286],[14.44619,56.0542],[14.44933,56.05384],[14.4525,56.05405],[14.45492,56.05463],[14.45939,56.05643],[14.46448,56.05676],[14.46996,56.05769],[14.47208,56.05782],[14.47517,56.05747],[14.47804,56.05762],[14.48167,56.05688],[14.48449,56.05669],[14.48927,56.05668],[14.49284,56.05692],[14.49623,56.05788],[14.49764,56.05861],[14.49897,56.05967],[14.50195,56.06097],[14.50366,56.06248],[14.50436,56.06384],[14.50447,56.06494],[14.50421,56.06602],[14.50297,56.0683],[14.50333,56.06883],[14.50576,56.0706],[14.50685,56.07276],[14.50673,56.07501],[14.50633,56.07611],[14.50525,56.07744],[14.50326,56.07877],[14.50201,56.08217],[14.50093,56.08377],[14.50007,56.0861],[14.49918,56.08743],[14.49777,56.08863],[14.49643,56.0894],[14.49426,56.09019],[14.49145,56.09068],[14.48986,56.092],[14.48789,56.09294],[14.48556,56.09357],[14.48209,56.09396],[14.48252,56.09546],[14.48224,56.09788],[14.48136,56.09919],[14.47951,56.10057],[14.47805,56.10123],[14.47572,56.10192],[14.47153,56.10264],[14.4683,56.10271],[14.46469,56.1021],[14.46281,56.10203],[14.4459,56.10454],[14.46197,56.11021],[14.46201,56.11772],[14.46257,56.12028],[14.47027,56.131],[14.46879,56.13717],[14.47552,56.14617],[14.47531,56.14659],[14.47572,56.14947],[14.47479,56.14997],[14.46364,56.14902],[14.43761,56.12366],[14.42057,56.13995],[14.4218,56.14994],[14.42155,56.15058],[14.42222,56.1513],[14.42153,56.15193],[14.42182,56.15239],[14.42145,56.15293],[14.42167,56.15322],[14.42091,56.15485],[14.42129,56.15559],[14.42105,56.15615],[14.42158,56.15707],[14.42135,56.1582],[14.42067,56.15884],[14.42063,56.1593],[14.42119,56.16194],[14.42249,56.16335],[14.42173,56.16435],[14.42157,56.16646],[14.42208,56.1672],[14.42188,56.16769],[14.421,56.16823],[14.42118,56.1687],[14.42093,56.16907],[14.42132,56.16983],[14.4221,56.17054],[14.42354,56.17127],[14.42456,56.17287],[14.42726,56.17355],[14.42854,56.17545],[14.42835,56.1759],[14.42609,56.17687],[14.42469,56.1785],[14.4243,56.17954],[14.4245,56.18075],[14.42382,56.18175],[14.42309,56.18214],[14.42317,56.18426],[14.42276,56.18565],[14.42219,56.18641],[14.42056,56.18744],[14.42011,56.18868],[14.41942,56.18936],[14.41592,56.19114],[14.41416,56.19249],[14.41249,56.1934],[14.41233,56.19431],[14.41153,56.19523],[14.41186,56.19617],[14.41181,56.19761],[14.41382,56.1989],[14.41616,56.19934],[14.42091,56.20095],[14.42243,56.20124],[14.42471,56.20312],[14.42417,56.20376],[14.42271,56.20374],[14.4233,56.2043],[14.42349,56.20512],[14.42497,56.20504],[14.42493,56.20586],[14.42536,56.20625],[14.42814,56.2052],[14.43241,56.20716],[14.43432,56.20774],[14.43501,56.20879],[14.43497,56.21181],[14.43411,56.21448],[14.4357,56.21623],[14.43926,56.21719],[14.43875,56.21797],[14.4388,56.21885],[14.44036,56.22266],[14.44087,56.22905],[14.46615,56.22469],[14.46545,56.22644],[14.4666,56.22936],[14.46472,56.23418],[14.46312,56.23593],[14.46328,56.23668],[14.46575,56.23849],[14.46751,56.23925]],[[14.50279,56.19679],[14.50038,56.19655],[14.49815,56.19597],[14.4966,56.1953],[14.49504,56.19425],[14.49285,56.19114],[14.49259,56.18941],[14.49181,56.18731],[14.48873,56.18796],[14.48531,56.18804],[14.48194,56.1875],[14.47804,56.18605],[14.47539,56.18646],[14.47064,56.1867],[14.46803,56.18652],[14.46556,56.18602],[14.46337,56.18531],[14.46042,56.18401],[14.45621,56.18177],[14.45361,56.1797],[14.45245,56.17768],[14.45248,56.17623],[14.45322,56.1746],[14.45486,56.17309],[14.45678,56.17212],[14.4597,56.17133],[14.4636,56.17112],[14.46552,56.17059],[14.46734,56.17032],[14.47192,56.17013],[14.47435,56.17032],[14.47747,56.16932],[14.48114,56.16896],[14.48273,56.16859],[14.48404,56.16726],[14.4862,56.16583],[14.48712,56.16401],[14.48891,56.16258],[14.49196,56.16139],[14.49625,56.16082],[14.50241,56.16102],[14.50483,56.1614],[14.50792,56.16257],[14.5098,56.16403],[14.51327,56.16436],[14.51513,56.16484],[14.51677,56.16549],[14.51862,56.16667],[14.52214,56.1699],[14.52483,56.17073],[14.52706,56.17205],[14.52841,56.17367],[14.52919,56.176],[14.52897,56.17782],[14.52801,56.17929],[14.52554,56.1815],[14.52331,56.18268],[14.52472,56.1835],[14.52602,56.18472],[14.52781,56.18823],[14.52744,56.19036],[14.52518,56.19299],[14.52294,56.19427],[14.5201,56.1951],[14.5177,56.19538],[14.51514,56.19539],[14.51325,56.19517],[14.51121,56.19466],[14.50982,56.19546],[14.50769,56.19624],[14.50524,56.1967],[14.50279,56.19679]]]}},{"type":"Feature","id":"1272R005","properties":{"code":"1272R005","name":"Ivetofta-Rökebacken"},"geometry":{"type":"Polygon","coordinates":[[[14.46281,56.10203],[14.46469,56.1021],[14.46752,56.10265],[14.47031,56.10273],[14.47459,56.10218],[14.47805,56.10123],[14.48036,56.10005],[14.48207,56.09823],[14.48244,56.09721],[14.48252,56.09546],[14.48209,56.09396],[14.4856,56.09356],[14.48856,56.09267],[14.48178,56.08739],[14.47842,56.08517],[14.477,56.08388],[14.47494,56.08272],[14.47473,56.08198],[14.47585,56.0767],[14.46844,56.07659],[14.46808,56.07674],[14.46902,56.07724],[14.46873,56.07761],[14.46925,56.07837],[14.46952,56.07975],[14.44728,56.08313],[14.45069,56.09348],[14.4459,56.10454],[14.46281,56.10203]]]}},{"type":"Feature","id":"1272R006","properties":{"code":"1272R006","name":"Nymölla-Edenryd-Valje"},"geometry":{"type":"Polygon","coordinates":[[[14.54257,56.07419],[14.54633,56.07362],[14.55289,56.07146],[14.55353,56.07112],[14.55411,56.06852],[14.55363,56.06611],[14.55305,56.06557],[14.55178,56.06553],[14.54944,56.06301],[14.54838,56.06302],[14.54723,56.06279],[14.54641,56.0615],[14.54684,56.06116],[14.54157,56.05611],[14.5415,56.04353],[14.5321,56.03688],[14.53275,56.01201],[14.53967,55.98274],[14.50971,56.01536],[14.47183,56.02125],[14.46601,56.02262],[14.46428,56.02488],[14.45218,56.02804],[14.45228,56.0287],[14.44966,56.0297],[14.44766,56.03109],[14.44668,56.03243],[14.44634,56.03386],[14.44691,56.03613],[14.44695,56.03802],[14.44795,56.03967],[14.44844,56.04142],[14.44951,56.04271],[14.45115,56.04382],[14.45418,56.04505],[14.45526,56.04634],[14.45688,56.04744],[14.45897,56.04829],[14.46077,56.04871],[14.46265,56.04988],[14.46472,56.05061],[14.46766,56.05108],[14.46948,56.05167],[14.47138,56.05205],[14.47476,56.0522],[14.47732,56.0519],[14.47921,56.05141],[14.48159,56.05148],[14.48349,56.0513],[14.49101,56.04948],[14.49376,56.04977],[14.49594,56.04971],[14.49916,56.04928],[14.50135,56.04877],[14.50514,56.0493],[14.50847,56.05029],[14.51174,56.05056],[14.51364,56.05121],[14.516,56.05163],[14.51677,56.0536],[14.51878,56.05538],[14.51868,56.05654],[14.51897,56.05761],[14.51991,56.05895],[14.52141,56.06011],[14.52205,56.06309],[14.52333,56.06476],[14.52544,56.06609],[14.5283,56.06719],[14.52908,56.06896],[14.52984,56.06995],[14.53092,56.07084],[14.53331,56.07221],[14.53482,56.07285],[14.53818,56.07381],[14.54004,56.07411],[14.54257,56.07419]]]}},{"type":"Feature","id":"1272R007","properties":{"code":"1272R007","name":"Näsum-Västanå"},"geometry":{"type":"Polygon","coordinates":[[[14.50402,56.19679],[14.50646,56.19651],[14.50823,56.19608],[14.51121,56.19466],[14.51325,56.19517],[14.5158,56.19542],[14.51887,56.19529],[14.52133,56.19482],[14.52346,56.19404],[14.52518,56.19299],[14.5276,56.19003],[14.52774,56.18789],[14.52626,56.18507],[14.52508,56.18378],[14.52331,56.18268],[14.52591,56.18123],[14.52858,56.17858],[14.52909,56.17748],[14.52923,56.17634],[14.52856,56.174],[14.52771,56.17266],[14.52667,56.17175],[14.52483,56.17073],[14.52214,56.1699],[14.51862,56.16667],[14.51677,56.16549],[14.51513,56.16484],[14.51327,56.16436],[14.5098,56.16403],[14.50745,56.16232],[14.50423,56.16127],[14.50241,56.16102],[14.49748,56.16079],[14.49387,56.16103],[14.49085,56.16171],[14.48849,56.16283],[14.48687,56.16432],[14.4862,56.16583],[14.48404,56.16726],[14.48273,56.16859],[14.48114,56.16896],[14.47747,56.16932],[14.47435,56.17032],[14.47192,56.17013],[14.46795,56.17027],[14.46552,56.17059],[14.4636,56.17112],[14.4597,56.17133],[14.45733,56.17192],[14.45489,56.17307],[14.45347,56.17428],[14.45265,56.17563],[14.45238,56.17697],[14.45269,56.17838],[14.45363,56.17973],[14.45565,56.18137],[14.46039,56.18399],[14.46485,56.18582],[14.4688,56.18661],[14.47142,56.18669],[14.47539,56.18646],[14.47804,56.18605],[14.48194,56.1875],[14.48383,56.18788],[14.48592,56.18807],[14.48873,56.18796],[14.49181,56.18731],[14.49259,56.18941],[14.49285,56.19114],[14.49417,56.19329],[14.49538,56.19453],[14.49715,56.19557],[14.49923,56.1963],[14.50157,56.19671],[14.50402,56.19679]]]}},{"type":"Feature","id":"1272R002","properties":{"code":"1272R002","name":"Bromölla öster-Dalafuret"},"geometry":{"type":"Polygon","coordinates":[[[14.48856,56.09267],[14.49026,56.09174],[14.49145,56.09068],[14.4937,56.09033],[14.49591,56.08963],[14.49734,56.08891],[14.49888,56.08773],[14.49991,56.08643],[14.50093,56.08377],[14.50185,56.0825],[14.50326,56.07877],[14.50525,56.07744],[14.50653,56.07568],[14.50689,56.07313],[14.50649,56.07164],[14.50538,56.07021],[14.50333,56.06883],[14.50297,56.0683],[14.50443,56.06531],[14.50417,56.06333],[14.4997,56.06266],[14.4991,56.06617],[14.48668,56.06686],[14.4874,56.06864],[14.48578,56.07152],[14.48549,56.07739],[14.48131,56.08531],[14.48362,56.08575],[14.48393,56.08596],[14.48178,56.08739],[14.48187,56.08752],[14.48856,56.09267]]]}},{"type":"Feature","id":"1272R003","properties":{"code":"1272R003","name":"Bromölla östra centrum-Åbylyckorna"},"geometry":{"type":"Polygon","coordinates":[[[14.48178,56.08739],[14.48393,56.08596],[14.48362,56.08575],[14.48131,56.08531],[14.48549,56.07739],[14.48578,56.07152],[14.4874,56.06864],[14.48668,56.06686],[14.4991,56.06617],[14.4997,56.06266],[14.50417,56.06333],[14.5034,56.06217],[14.50234,56.06123],[14.50101,56.06045],[14.49897,56.05967],[14.49674,56.05811],[14.49404,56.05716],[14.49155,56.05676],[14.48449,56.05669],[14.48029,56.05706],[14.47866,56.05743],[14.47744,56.05907],[14.47728,56.06592],[14.47669,56.06708],[14.47738,56.06837],[14.47742,56.06923],[14.47471,56.08226],[14.47519,56.08296],[14.477,56.08388],[14.47842,56.08517],[14.48138,56.08727],[14.48178,56.08739]]]}}]}