{"type":"FeatureCollection","features":[{"type":"Feature","id":"1275R001","properties":{"code":"1275R001","name":"Perstorp nordvästra tätorten"},"geometry":{"type":"Polygon","coordinates":[[[13.38414,56.15296],[13.38469,56.14874],[13.38442,56.14733],[13.38514,56.14724],[13.38597,56.14661],[13.38651,56.14646],[13.39114,56.14592],[13.39541,56.14478],[13.39276,56.14195],[13.38785,56.14331],[13.38604,56.14358],[13.3847,56.14355],[13.3837,56.14312],[13.38305,56.14237],[13.37905,56.14476],[13.37757,56.14501],[13.37128,56.14383],[13.36894,56.14369],[13.36475,56.14389],[13.35968,56.14341],[13.3572,56.14488],[13.35228,56.14524],[13.35362,56.14707],[13.35584,56.14852],[13.35804,56.14931],[13.36052,56.14978],[13.36248,56.15086],[13.36433,56.15147],[13.3662,56.15265],[13.36894,56.15357],[13.37918,56.15479],[13.3817,56.1561],[13.38414,56.15296]]]}},{"type":"Feature","id":"1275R002","properties":{"code":"1275R002","name":"Perstorp sydöstra tätorten"},"geometry":{"type":"Polygon","coordinates":[[[13.39276,56.14195],[13.39699,56.14085],[13.3968,56.13973],[13.40622,56.13898],[13.40605,56.13826],[13.4093,56.13795],[13.41125,56.1381],[13.41349,56.13761],[13.41477,56.13775],[13.41641,56.13717],[13.43241,56.13767],[13.43567,56.13792],[13.43853,56.13839],[13.44083,56.13903],[13.4416,56.13715],[13.44132,56.13504],[13.43963,56.1331],[13.43677,56.13166],[13.43085,56.13042],[13.4275,56.13018],[13.42567,56.12959],[13.42384,56.12925],[13.41999,56.12916],[13.41666,56.12956],[13.41428,56.13013],[13.41214,56.12976],[13.40885,56.12868],[13.40464,56.12862],[13.39983,56.12928],[13.39883,56.13364],[13.39706,56.13526],[13.39688,56.13583],[13.39611,56.13587],[13.39543,56.13629],[13.3906,56.13571],[13.39068,56.13642],[13.39203,56.13908],[13.39096,56.14011],[13.39276,56.14195]]]}},{"type":"Feature","id":"1275R003","properties":{"code":"1275R003","name":"Perstorp omland"},"geometry":{"type":"Polygon","coordinates":[[[13.34749,56.2693],[13.35056,56.26888],[13.35284,56.26756],[13.35209,56.26911],[13.38474,56.2677],[13.41796,56.26601],[13.42502,56.25394],[13.42762,56.25017],[13.43956,56.23949],[13.4432,56.23895],[13.44343,56.23604],[13.46034,56.21723],[13.46059,56.21459],[13.46643,56.21051],[13.45132,56.19212],[13.4531,56.18455],[13.45411,56.17446],[13.46296,56.1679],[13.46854,56.16411],[13.46832,56.16345],[13.46863,56.163],[13.46655,56.16217],[13.46605,56.16252],[13.46549,56.16216],[13.46518,56.16218],[13.4654,56.16186],[13.46488,56.16073],[13.46377,56.16041],[13.46317,56.1605],[13.46252,56.16014],[13.46178,56.1603],[13.46139,56.15999],[13.46292,56.14213],[13.46318,56.14237],[13.46475,56.14219],[13.46665,56.1425],[13.46797,56.14243],[13.46797,56.14206],[13.46731,56.14184],[13.46342,56.1415],[13.46261,56.1409],[13.46151,56.14063],[13.46165,56.13764],[13.46146,56.13741],[13.45758,56.13671],[13.45678,56.13634],[13.45645,56.13478],[13.45723,56.13384],[13.45691,56.13323],[13.45445,56.13264],[13.44951,56.1326],[13.44886,56.13244],[13.44818,56.132],[13.44828,56.13145],[13.44858,56.13095],[13.44946,56.13066],[13.44942,56.13052],[13.44875,56.13035],[13.44775,56.13042],[13.44718,56.12962],[13.44671,56.13172],[13.44652,56.13168],[13.44622,56.13246],[13.44343,56.13177],[13.44565,56.12942],[13.44616,56.1294],[13.44632,56.12918],[13.44566,56.1285],[13.44575,56.12805],[13.44665,56.12772],[13.44638,56.12529],[13.44502,56.12372],[13.44349,56.12282],[13.44305,56.12119],[13.44062,56.12054],[13.44018,56.1201],[13.43996,56.11925],[13.43906,56.11931],[13.43806,56.11296],[13.43544,56.11024],[13.42931,56.10475],[13.42685,56.103],[13.42682,56.10159],[13.42782,56.10044],[13.42096,56.1026],[13.41189,56.10038],[13.40888,56.1005],[13.40056,56.09488],[13.39262,56.10708],[13.38619,56.10957],[13.37303,56.11217],[13.37269,56.11348],[13.37364,56.11574],[13.37564,56.11583],[13.37795,56.11506],[13.38106,56.11462],[13.38577,56.11451],[13.38953,56.11503],[13.39196,56.11585],[13.39344,56.11667],[13.39611,56.1172],[13.40226,56.11913],[13.40751,56.12208],[13.40901,56.12366],[13.40964,56.1256],[13.40966,56.12705],[13.40884,56.12874],[13.41214,56.12976],[13.41428,56.13013],[13.41666,56.12956],[13.41935,56.12923],[13.42319,56.12917],[13.42567,56.12959],[13.4275,56.13018],[13.43026,56.13033],[13.43503,56.13119],[13.43733,56.13186],[13.43922,56.13282],[13.44033,56.1337],[13.44157,56.13573],[13.44131,56.13823],[13.44039,56.13955],[13.43931,56.14045],[13.43741,56.14144],[13.43518,56.14212],[13.43266,56.14247],[13.42953,56.14247],[13.42966,56.14427],[13.42877,56.1461],[13.42719,56.14761],[13.42484,56.14876],[13.42258,56.14934],[13.42069,56.14957],[13.41681,56.14943],[13.41444,56.15016],[13.41145,56.15055],[13.41087,56.15178],[13.40891,56.15387],[13.407,56.15514],[13.40444,56.15616],[13.4012,56.15678],[13.39692,56.1568],[13.39411,56.15722],[13.38682,56.15712],[13.38405,56.15673],[13.38227,56.15629],[13.38068,56.15568],[13.37918,56.15479],[13.3702,56.15381],[13.36779,56.15326],[13.36571,56.1524],[13.36433,56.15147],[13.36196,56.15063],[13.36052,56.14978],[13.35804,56.14931],[13.35584,56.14852],[13.35396,56.14736],[13.35268,56.14599],[13.35208,56.14457],[13.35206,56.14339],[13.35289,56.14154],[13.35473,56.13994],[13.35418,56.13879],[13.35405,56.13766],[13.35548,56.13239],[13.35665,56.13108],[13.35933,56.12918],[13.36192,56.12813],[13.36436,56.12765],[13.36562,56.12701],[13.36568,56.12587],[13.36431,56.12499],[13.36336,56.12406],[13.36248,56.12197],[13.36287,56.12017],[13.36453,56.11826],[13.36362,56.1176],[13.36235,56.11735],[13.36188,56.11668],[13.36077,56.11612],[13.35913,56.11794],[13.35882,56.12004],[13.35801,56.11999],[13.35686,56.12079],[13.34746,56.1228],[13.34342,56.12345],[13.33166,56.1219],[13.32991,56.12205],[13.32941,56.12214],[13.32684,56.12435],[13.3231,56.12477],[13.31048,56.12912],[13.31035,56.12885],[13.29756,56.12738],[13.29827,56.13235],[13.29794,56.13242],[13.298,56.13259],[13.30016,56.13276],[13.30116,56.13328],[13.30377,56.13389],[13.30494,56.13444],[13.30632,56.13552],[13.30699,56.13718],[13.30788,56.13764],[13.30691,56.13843],[13.30055,56.14059],[13.28999,56.14702],[13.29569,56.15043],[13.30556,56.15776],[13.30641,56.15815],[13.30934,56.15889],[13.31045,56.16147],[13.30883,56.16243],[13.30682,56.16904],[13.30597,56.1695],[13.30492,56.17084],[13.30422,56.17114],[13.30253,56.17141],[13.30066,56.17114],[13.29772,56.17109],[13.29591,56.17165],[13.29527,56.17229],[13.28,56.17513],[13.26511,56.18357],[13.27836,56.19549],[13.27554,56.2037],[13.27344,56.2116],[13.27253,56.21267],[13.27185,56.21545],[13.27258,56.21565],[13.2727,56.21623],[13.27386,56.2163],[13.27628,56.21763],[13.27624,56.21777],[13.27797,56.218],[13.27836,56.21945],[13.27687,56.22049],[13.27628,56.22181],[13.27946,56.22553],[13.28511,56.22867],[13.28836,56.23016],[13.29251,56.23127],[13.29469,56.23283],[13.29492,56.23332],[13.30014,56.23639],[13.30773,56.23981],[13.31634,56.24627],[13.3214,56.24596],[13.32906,56.25215],[13.32418,56.25424],[13.32411,56.25474],[13.33305,56.25585],[13.34749,56.2693]]]}},{"type":"Feature","id":"1275R004","properties":{"code":"1275R004","name":"Perstorp sydvästra tätorten"},"geometry":{"type":"Polygon","coordinates":[[[13.3572,56.14488],[13.35968,56.14341],[13.36475,56.14389],[13.36894,56.14369],[13.37128,56.14383],[13.37757,56.14501],[13.37905,56.14476],[13.38305,56.14237],[13.3837,56.14312],[13.3847,56.14355],[13.38604,56.14358],[13.38785,56.14331],[13.39276,56.14195],[13.39096,56.14011],[13.39203,56.13908],[13.39068,56.13642],[13.3906,56.13571],[13.39543,56.13629],[13.39611,56.13587],[13.39688,56.13583],[13.39706,56.13526],[13.39883,56.13364],[13.39983,56.12928],[13.40464,56.12862],[13.40885,56.12868],[13.40904,56.12843],[13.40972,56.12668],[13.40945,56.12471],[13.40877,56.12331],[13.40713,56.12181],[13.4033,56.1196],[13.40174,56.11895],[13.39611,56.1172],[13.39344,56.11667],[13.39196,56.11585],[13.39008,56.11518],[13.38683,56.11458],[13.38435,56.11449],[13.3804,56.11467],[13.37795,56.11506],[13.37564,56.11583],[13.37364,56.11574],[13.37429,56.11726],[13.37529,56.11751],[13.37578,56.11812],[13.37491,56.11853],[13.37559,56.11893],[13.37515,56.11909],[13.37399,56.1185],[13.37355,56.11878],[13.37247,56.11865],[13.37299,56.1195],[13.37251,56.1214],[13.36757,56.1198],[13.36656,56.11978],[13.36647,56.11941],[13.36553,56.11905],[13.36453,56.11826],[13.36287,56.12017],[13.36248,56.12197],[13.36336,56.12406],[13.36431,56.12499],[13.36568,56.12587],[13.36562,56.12701],[13.36436,56.12765],[13.36192,56.12813],[13.35982,56.12893],[13.35603,56.13167],[13.3551,56.13314],[13.35495,56.13504],[13.3541,56.13719],[13.3541,56.13845],[13.35473,56.13994],[13.35315,56.14123],[13.35216,56.14294],[13.35203,56.14412],[13.35228,56.14524],[13.3572,56.14488]]]}},{"type":"Feature","id":"1275R005","properties":{"code":"1275R005","name":"Perstorp nordöstra tätorten"},"geometry":{"type":"Polygon","coordinates":[[[13.39312,56.15726],[13.39692,56.1568],[13.4012,56.15678],[13.40389,56.15631],[13.40654,56.15537],[13.40891,56.15387],[13.41087,56.15178],[13.41145,56.15055],[13.41444,56.15016],[13.41681,56.14943],[13.41946,56.14961],[13.42194,56.14944],[13.42538,56.14855],[13.42756,56.14733],[13.42888,56.14594],[13.42966,56.14427],[13.42953,56.14247],[13.43332,56.14242],[13.43633,56.14182],[13.43887,56.14072],[13.44083,56.13903],[13.43853,56.13839],[13.43567,56.13792],[13.43241,56.13767],[13.41723,56.13729],[13.41698,56.13716],[13.41603,56.13725],[13.41477,56.13775],[13.41349,56.13761],[13.41125,56.1381],[13.4093,56.13795],[13.40605,56.13826],[13.40622,56.13898],[13.3968,56.13973],[13.39699,56.14085],[13.39276,56.14195],[13.39541,56.14478],[13.39114,56.14592],[13.38651,56.14646],[13.38597,56.14661],[13.38514,56.14724],[13.38442,56.14733],[13.38469,56.14874],[13.38414,56.15296],[13.3817,56.1561],[13.38342,56.1566],[13.38622,56.15706],[13.39312,56.15726]]]}}]}