{"type":"FeatureCollection","features":[{"type":"Feature","id":"1276R001","properties":{"code":"1276R001","name":"Krika omland"},"geometry":{"type":"Polygon","coordinates":[[[13.20158,56.12971],[13.232,56.12989],[13.22944,56.12603],[13.22827,56.12482],[13.22623,56.12049],[13.2252,56.12022],[13.22378,56.1182],[13.22317,56.11833],[13.22284,56.11718],[13.2222,56.11719],[13.2221,56.11612],[13.22007,56.11147],[13.22104,56.10916],[13.21318,56.09222],[13.21399,56.09151],[13.21426,56.08997],[13.21407,56.08951],[13.21581,56.08276],[13.21458,56.08183],[13.21349,56.08058],[13.21228,56.07766],[13.2087,56.0772],[13.2055,56.07602],[13.20342,56.07447],[13.20227,56.07232],[13.20248,56.07042],[13.20367,56.06875],[13.20602,56.06711],[13.21085,56.0646],[13.21153,56.06288],[13.21227,56.06183],[13.21375,56.06063],[13.21598,56.05936],[13.21032,56.05679],[13.20946,56.05619],[13.20912,56.0557],[13.20856,56.05201],[13.20809,56.05094],[13.20269,56.04656],[13.20134,56.04499],[13.19857,56.0438],[13.19732,56.04289],[13.1948,56.0419],[13.19278,56.0415],[13.19018,56.04162],[13.18958,56.04145],[13.1792,56.04926],[13.17827,56.0514],[13.1723,56.05284],[13.16915,56.05298],[13.16621,56.05343],[13.1673,56.05413],[13.16945,56.05458],[13.17267,56.05624],[13.17242,56.0583],[13.17106,56.05824],[13.17024,56.06053],[13.1689,56.06219],[13.16423,56.06637],[13.16187,56.06745],[13.15848,56.06816],[13.15562,56.06899],[13.15482,56.06982],[13.15688,56.07001],[13.15733,56.07024],[13.15613,56.07073],[13.15525,56.07084],[13.15432,56.07138],[13.14843,56.072],[13.14655,56.07203],[13.14507,56.07184],[13.14211,56.07221],[13.13589,56.07446],[13.13346,56.07514],[13.13237,56.07572],[13.13195,56.07576],[13.13156,56.07615],[13.1295,56.07648],[13.12902,56.07692],[13.12732,56.07722],[13.12675,56.07758],[13.1271,56.07846],[13.1266,56.07894],[13.12536,56.07913],[13.1233,56.07916],[13.12059,56.07975],[13.11935,56.07972],[13.1173,56.08008],[13.11527,56.08018],[13.1135,56.08096],[13.11317,56.0821],[13.11171,56.08352],[13.11019,56.08396],[13.10697,56.08428],[13.10476,56.08527],[13.10318,56.08645],[13.10216,56.08674],[13.0991,56.08708],[13.09789,56.08768],[13.09785,56.08844],[13.10162,56.08957],[13.1023,56.08998],[13.10207,56.09094],[13.1034,56.09181],[13.10375,56.0923],[13.10307,56.09276],[13.10289,56.09366],[13.10368,56.09408],[13.10463,56.09398],[13.10481,56.0938],[13.10614,56.09434],[13.10522,56.09637],[13.10429,56.09705],[13.10475,56.09731],[13.10407,56.09762],[13.10303,56.09748],[13.09913,56.0981],[13.09733,56.09914],[13.0961,56.09927],[13.09398,56.1002],[13.09359,56.10113],[13.08965,56.10279],[13.08831,56.10289],[13.08818,56.10313],[13.0849,56.10362],[13.08367,56.10366],[13.0823,56.10337],[13.08213,56.10388],[13.08218,56.10404],[13.08334,56.10379],[13.08603,56.10371],[13.09185,56.11301],[13.09346,56.11626],[13.09377,56.11636],[13.0934,56.11689],[13.09307,56.11687],[13.09316,56.11738],[13.09508,56.11759],[13.09526,56.11643],[13.09708,56.11601],[13.09844,56.11878],[13.10232,56.11838],[13.10279,56.11868],[13.10195,56.11904],[13.10291,56.12107],[13.10358,56.12095],[13.10446,56.12256],[13.10521,56.12243],[13.10574,56.12308],[13.10531,56.1232],[13.10516,56.12462],[13.10568,56.12507],[13.1038,56.12581],[13.10335,56.12663],[13.10394,56.12651],[13.10584,56.12545],[13.1076,56.12485],[13.10915,56.12285],[13.11084,56.12179],[13.11241,56.12116],[13.11651,56.12017],[13.11841,56.11998],[13.12054,56.12001],[13.12376,56.11871],[13.12864,56.11789],[13.12926,56.11611],[13.13043,56.11482],[13.1332,56.11319],[13.13522,56.11232],[13.1377,56.11174],[13.14088,56.11153],[13.14383,56.11181],[13.14663,56.11252],[13.14995,56.11159],[13.15313,56.11139],[13.15559,56.11162],[13.15785,56.11211],[13.16224,56.11364],[13.16416,56.11461],[13.16626,56.11646],[13.16698,56.1182],[13.16693,56.11928],[13.16643,56.12056],[13.1648,56.12228],[13.1682,56.12329],[13.16996,56.12431],[13.17184,56.12589],[13.17439,56.12661],[13.1772,56.12789],[13.18196,56.12814],[13.18769,56.12911],[13.1922,56.12816],[13.1954,56.12807],[13.19849,56.12853],[13.20158,56.12971]]]}},{"type":"Feature","id":"1276R002","properties":{"code":"1276R002","name":"Ljungbyhed"},"geometry":{"type":"Polygon","coordinates":[[[13.22927,56.09186],[13.23467,56.0914],[13.23689,56.09083],[13.23895,56.08986],[13.24152,56.08977],[13.24423,56.08932],[13.24632,56.08873],[13.24875,56.08763],[13.25138,56.08719],[13.25343,56.08648],[13.25605,56.08722],[13.25893,56.08757],[13.26165,56.08748],[13.26507,56.0877],[13.26881,56.08718],[13.27211,56.08604],[13.27781,56.083],[13.27925,56.08141],[13.28038,56.07853],[13.2803,56.07745],[13.27965,56.07608],[13.27831,56.07446],[13.27688,56.07337],[13.27726,56.07143],[13.27672,56.06944],[13.27564,56.06819],[13.27403,56.06714],[13.27198,56.06633],[13.2679,56.06536],[13.26596,56.06381],[13.26267,56.06254],[13.26284,56.06242],[13.26252,56.06196],[13.26173,56.06207],[13.26138,56.06176],[13.26015,56.06211],[13.25802,56.06202],[13.25543,56.06224],[13.25235,56.06304],[13.24952,56.06462],[13.24803,56.0665],[13.2475,56.06508],[13.24642,56.06384],[13.24482,56.06278],[13.24275,56.06193],[13.24335,56.06061],[13.24333,56.05916],[13.24268,56.05779],[13.24177,56.05681],[13.23978,56.05552],[13.2378,56.05464],[13.23544,56.05404],[13.23289,56.0538],[13.23036,56.05392],[13.22792,56.0544],[13.22258,56.05641],[13.21988,56.05712],[13.21835,56.05783],[13.21257,56.06153],[13.21153,56.06288],[13.21085,56.0646],[13.20602,56.06711],[13.204,56.06846],[13.20263,56.07009],[13.20222,56.07154],[13.20285,56.07374],[13.20375,56.0748],[13.20496,56.07571],[13.20814,56.07706],[13.21002,56.07746],[13.21228,56.07766],[13.21325,56.08015],[13.21427,56.08153],[13.21577,56.08274],[13.218,56.08379],[13.21763,56.08515],[13.21776,56.08619],[13.21837,56.08748],[13.21965,56.08884],[13.22199,56.09033],[13.22397,56.09116],[13.22623,56.09168],[13.22927,56.09186]]]}},{"type":"Feature","id":"1276R003","properties":{"code":"1276R003","name":"Ljungbyhed omland"},"geometry":{"type":"Polygon","coordinates":[[[13.28447,56.1325],[13.29819,56.13166],[13.29756,56.12738],[13.31035,56.12885],[13.31048,56.12912],[13.3231,56.12477],[13.32684,56.12435],[13.32941,56.12214],[13.32991,56.12205],[13.33166,56.1219],[13.34342,56.12345],[13.34746,56.1228],[13.35686,56.12079],[13.35801,56.11999],[13.35882,56.12004],[13.35913,56.11794],[13.36077,56.11612],[13.36188,56.11668],[13.36235,56.11735],[13.36362,56.1176],[13.36531,56.11892],[13.36647,56.11941],[13.36656,56.11978],[13.36757,56.1198],[13.37251,56.1214],[13.37299,56.1195],[13.37247,56.11865],[13.37355,56.11878],[13.37399,56.1185],[13.37515,56.11909],[13.37559,56.11893],[13.37491,56.11853],[13.37578,56.11812],[13.37529,56.11751],[13.37426,56.1172],[13.37269,56.11348],[13.37303,56.11217],[13.38619,56.10957],[13.39262,56.10708],[13.40056,56.09488],[13.40888,56.1005],[13.41189,56.10038],[13.42096,56.1026],[13.43621,56.09764],[13.43519,56.09573],[13.44689,56.09286],[13.44898,56.08944],[13.45905,56.09218],[13.46932,56.08598],[13.47125,56.08522],[13.47508,56.08389],[13.47708,56.08401],[13.48897,56.08087],[13.4969,56.08319],[13.50543,56.08862],[13.50636,56.08829],[13.51154,56.09129],[13.51094,56.09176],[13.51175,56.09209],[13.5183,56.09321],[13.52251,56.08868],[13.51307,56.06861],[13.50909,56.06411],[13.50049,56.06115],[13.4993,56.05963],[13.49875,56.05802],[13.49558,56.05517],[13.48496,56.05702],[13.48005,56.05856],[13.47504,56.05974],[13.47145,56.05773],[13.46987,56.05729],[13.468,56.05737],[13.46586,56.05687],[13.46435,56.05572],[13.46567,56.0505],[13.465,56.04786],[13.46134,56.04277],[13.45549,56.03795],[13.4552,56.03747],[13.45574,56.03635],[13.44848,56.03347],[13.44558,56.03273],[13.44175,56.03045],[13.43986,56.03014],[13.43973,56.03056],[13.43882,56.03045],[13.44023,56.0287],[13.44358,56.02841],[13.44459,56.02088],[13.44383,56.02008],[13.44276,56.01957],[13.43955,56.01619],[13.43867,56.01581],[13.43586,56.01345],[13.4344,56.01269],[13.43428,56.01079],[13.43284,56.00952],[13.43341,56.00823],[13.42576,56.00914],[13.42368,56.009],[13.42039,56.00847],[13.41799,56.00848],[13.41214,56.00803],[13.40363,56.00842],[13.40255,56.00851],[13.40104,56.00931],[13.39934,56.0095],[13.39926,56.00968],[13.3982,56.00996],[13.39551,56.00992],[13.3924,56.01085],[13.39177,56.01074],[13.39092,56.01093],[13.38973,56.01025],[13.39016,56.00932],[13.38991,56.00884],[13.38955,56.00868],[13.38821,56.0092],[13.38715,56.00903],[13.38683,56.00881],[13.38714,56.00845],[13.38828,56.00816],[13.38825,56.00779],[13.38776,56.00736],[13.38633,56.00721],[13.38593,56.00688],[13.38567,56.005],[13.38425,56.00384],[13.38316,56.00349],[13.38168,56.00358],[13.38107,56.00332],[13.38151,56.00233],[13.3808,56.00099],[13.37919,56.00135],[13.36587,56.00319],[13.33604,56.00672],[13.33474,56.01008],[13.34019,56.01447],[13.33106,56.01826],[13.32415,56.02192],[13.31788,56.02621],[13.31614,56.02664],[13.31505,56.02717],[13.3155,56.02836],[13.3136,56.02903],[13.31354,56.02982],[13.31295,56.02995],[13.31197,56.02994],[13.31146,56.02968],[13.31133,56.02933],[13.31035,56.02918],[13.30949,56.02874],[13.30932,56.0283],[13.30871,56.02818],[13.30849,56.02785],[13.30794,56.02784],[13.30724,56.02708],[13.30619,56.02687],[13.30502,56.0269],[13.29937,56.02444],[13.294,56.02391],[13.29233,56.02401],[13.28286,56.02586],[13.27867,56.02591],[13.27249,56.02509],[13.2678,56.02736],[13.26485,56.02739],[13.2455,56.02552],[13.23928,56.0156],[13.23999,56.01448],[13.23776,56.01367],[13.23595,56.01421],[13.23335,56.01552],[13.23176,56.01592],[13.2297,56.0169],[13.22974,56.0183],[13.23026,56.0187],[13.22949,56.01925],[13.2299,56.02048],[13.22894,56.02126],[13.22854,56.02197],[13.22866,56.02228],[13.22736,56.02313],[13.22777,56.02362],[13.22744,56.02399],[13.22691,56.02406],[13.22638,56.0239],[13.22382,56.02452],[13.22036,56.02492],[13.22034,56.02602],[13.21871,56.02548],[13.2173,56.02572],[13.2138,56.02578],[13.21272,56.02594],[13.21068,56.02664],[13.20943,56.02668],[13.20661,56.02741],[13.20543,56.0275],[13.20451,56.02735],[13.2042,56.02757],[13.20142,56.02825],[13.19926,56.02943],[13.19917,56.02988],[13.19123,56.03113],[13.19012,56.03146],[13.18922,56.03215],[13.18719,56.03258],[13.18679,56.03284],[13.18574,56.03295],[13.18489,56.03332],[13.18163,56.03367],[13.18299,56.03491],[13.186,56.03674],[13.1884,56.03863],[13.18859,56.04041],[13.18957,56.04144],[13.18845,56.0423],[13.18958,56.04145],[13.19018,56.04162],[13.19278,56.0415],[13.19436,56.04177],[13.19732,56.04289],[13.19857,56.0438],[13.20134,56.04499],[13.20269,56.04656],[13.20809,56.05094],[13.20856,56.05201],[13.20912,56.0557],[13.20946,56.05619],[13.21032,56.05679],[13.21598,56.05936],[13.21935,56.05734],[13.22351,56.0561],[13.22792,56.0544],[13.23162,56.05382],[13.23544,56.05404],[13.23884,56.05504],[13.241,56.05624],[13.24211,56.05713],[13.24307,56.05844],[13.2434,56.05953],[13.24335,56.06061],[13.24275,56.06193],[13.24482,56.06278],[13.24642,56.06384],[13.2475,56.06508],[13.24803,56.0665],[13.24952,56.06462],[13.25235,56.06304],[13.25543,56.06224],[13.25802,56.06202],[13.26015,56.06211],[13.26138,56.06176],[13.26173,56.06207],[13.26252,56.06196],[13.26284,56.06242],[13.26267,56.06254],[13.26596,56.06381],[13.2679,56.06536],[13.26972,56.0657],[13.27305,56.0667],[13.27489,56.06763],[13.27596,56.06848],[13.27715,56.07048],[13.27725,56.07179],[13.27688,56.07337],[13.27831,56.07446],[13.27986,56.0764],[13.28036,56.07779],[13.28031,56.0789],[13.27925,56.08141],[13.27815,56.08272],[13.27653,56.08381],[13.27159,56.08627],[13.2682,56.08733],[13.26446,56.08771],[13.26165,56.08748],[13.25955,56.08758],[13.25755,56.08746],[13.25547,56.0871],[13.25343,56.08648],[13.25138,56.08719],[13.24875,56.08763],[13.24632,56.08873],[13.24423,56.08932],[13.24152,56.08977],[13.23895,56.08986],[13.2374,56.09064],[13.23524,56.09129],[13.22988,56.09183],[13.22743,56.09182],[13.22564,56.09158],[13.22344,56.09098],[13.22196,56.09031],[13.21965,56.08884],[13.21837,56.08748],[13.21776,56.08619],[13.21763,56.08515],[13.218,56.08379],[13.21581,56.08276],[13.21407,56.08951],[13.21426,56.08997],[13.21399,56.09151],[13.21318,56.09222],[13.22104,56.10916],[13.22007,56.11147],[13.2221,56.11612],[13.2222,56.11719],[13.22284,56.11718],[13.22317,56.11833],[13.22378,56.1182],[13.2252,56.12022],[13.22623,56.12049],[13.22827,56.12482],[13.22944,56.12603],[13.232,56.12989],[13.25353,56.13008],[13.28017,56.13229],[13.28447,56.1325]]]}},{"type":"Feature","id":"1276R004","properties":{"code":"1276R004","name":"Solslätt-Pappersbruket"},"geometry":{"type":"Polygon","coordinates":[[[13.14649,56.14058],[13.14782,56.14088],[13.14937,56.14089],[13.15135,56.14064],[13.15272,56.14004],[13.1537,56.14],[13.15409,56.13942],[13.15411,56.13828],[13.15449,56.13821],[13.15638,56.13841],[13.15688,56.13862],[13.15736,56.13978],[13.15799,56.14017],[13.15994,56.14015],[13.16048,56.13941],[13.16034,56.13785],[13.16148,56.13752],[13.16191,56.13636],[13.16355,56.13651],[13.16624,56.13522],[13.16645,56.1342],[13.16725,56.13418],[13.16595,56.13226],[13.17928,56.13272],[13.17944,56.12845],[13.17815,56.12793],[13.1772,56.12789],[13.17439,56.12661],[13.17184,56.12589],[13.16866,56.12351],[13.16712,56.12286],[13.1648,56.12228],[13.16622,56.12088],[13.16699,56.11891],[13.16666,56.11713],[13.16536,56.1155],[13.16371,56.11434],[13.16224,56.11364],[13.15785,56.11211],[13.15439,56.11146],[13.15057,56.1115],[13.14823,56.11196],[13.14663,56.11252],[13.14383,56.11181],[13.14088,56.11153],[13.1377,56.11174],[13.13522,56.11232],[13.13365,56.11295],[13.13082,56.11452],[13.12928,56.11608],[13.12864,56.11789],[13.12727,56.11803],[13.12965,56.12051],[13.12596,56.12102],[13.12851,56.13111],[13.1286,56.1334],[13.13072,56.13391],[13.13187,56.13527],[13.14095,56.13266],[13.14154,56.13464],[13.14142,56.13603],[13.14323,56.14206],[13.14509,56.14142],[13.14584,56.14076],[13.14649,56.14058]]]}},{"type":"Feature","id":"1276R005","properties":{"code":"1276R005","name":"Stidsvig-Östra Ljungby"},"geometry":{"type":"Polygon","coordinates":[[[13.12113,56.23084],[13.1311,56.22691],[13.14619,56.22228],[13.1501,56.22073],[13.15081,56.21957],[13.15849,56.21505],[13.15916,56.21502],[13.15967,56.21392],[13.16189,56.21298],[13.16062,56.21065],[13.16085,56.20978],[13.15979,56.20968],[13.15869,56.20904],[13.16005,56.20844],[13.16119,56.20845],[13.16182,56.20892],[13.16308,56.20906],[13.16443,56.20899],[13.16493,56.20854],[13.16784,56.208],[13.16891,56.20831],[13.17344,56.20873],[13.17366,56.20915],[13.17507,56.20955],[13.17634,56.2104],[13.17751,56.21084],[13.17834,56.21097],[13.18053,56.21079],[13.18103,56.21011],[13.18352,56.20873],[13.18396,56.20822],[13.18177,56.20806],[13.18154,56.20791],[13.18208,56.20717],[13.18186,56.2066],[13.17864,56.20553],[13.17874,56.20431],[13.17811,56.20169],[13.17813,56.20108],[13.1787,56.20036],[13.17831,56.19916],[13.17845,56.19757],[13.18091,56.19792],[13.1829,56.19779],[13.19052,56.1954],[13.1935,56.19477],[13.19828,56.19423],[13.19876,56.19405],[13.20002,56.19234],[13.20068,56.19245],[13.2014,56.19287],[13.20311,56.19303],[13.20438,56.19423],[13.20535,56.19465],[13.20707,56.19497],[13.20819,56.19658],[13.20784,56.19721],[13.20848,56.19779],[13.21038,56.19867],[13.21244,56.19924],[13.21403,56.19865],[13.2161,56.19864],[13.21681,56.19882],[13.21686,56.19899],[13.21815,56.19913],[13.21936,56.19948],[13.22163,56.20059],[13.22274,56.20157],[13.22259,56.20195],[13.22187,56.20234],[13.22284,56.20576],[13.2227,56.20612],[13.221,56.20746],[13.22033,56.21097],[13.22207,56.21215],[13.2261,56.21407],[13.23315,56.21787],[13.24871,56.21574],[13.25752,56.21494],[13.25911,56.21543],[13.26554,56.21558],[13.26809,56.21519],[13.27001,56.21514],[13.27185,56.21545],[13.27253,56.21267],[13.27344,56.2116],[13.27554,56.2037],[13.27836,56.19549],[13.26511,56.18357],[13.28,56.17513],[13.29527,56.17229],[13.29591,56.17165],[13.29772,56.17109],[13.30066,56.17114],[13.30253,56.17141],[13.30422,56.17114],[13.30492,56.17084],[13.30597,56.1695],[13.30682,56.16904],[13.30883,56.16243],[13.31045,56.16147],[13.30934,56.15889],[13.30641,56.15815],[13.30556,56.15776],[13.29569,56.15043],[13.28999,56.14702],[13.30055,56.14059],[13.30691,56.13843],[13.30788,56.13764],[13.30699,56.13718],[13.30632,56.13552],[13.30494,56.13444],[13.30377,56.13389],[13.30116,56.13328],[13.30016,56.13276],[13.298,56.13259],[13.29794,56.13242],[13.29827,56.13235],[13.29819,56.13166],[13.28873,56.13234],[13.28374,56.1325],[13.25353,56.13008],[13.20158,56.12971],[13.20598,56.13175],[13.20727,56.13255],[13.20853,56.13379],[13.2092,56.13519],[13.20911,56.13699],[13.20755,56.1394],[13.20556,56.14083],[13.20306,56.14178],[13.20494,56.14315],[13.20593,56.14451],[13.20632,56.14607],[13.20593,56.14773],[13.20436,56.14961],[13.20084,56.15154],[13.19555,56.15299],[13.19176,56.15338],[13.18923,56.15318],[13.18594,56.15254],[13.18377,56.15175],[13.18216,56.15082],[13.18038,56.14891],[13.18001,56.14785],[13.18004,56.14656],[13.17849,56.1446],[13.17628,56.14524],[13.17296,56.14579],[13.16728,56.14583],[13.16438,56.14549],[13.16203,56.14495],[13.15995,56.14408],[13.15837,56.14297],[13.15396,56.14476],[13.15089,56.14537],[13.14632,56.14559],[13.14258,56.14502],[13.13956,56.14558],[13.13764,56.14574],[13.13571,56.14569],[13.13361,56.1454],[13.13086,56.14683],[13.12873,56.14743],[13.12693,56.14771],[13.12445,56.14778],[13.12097,56.14746],[13.11854,56.14705],[13.11538,56.14619],[13.11331,56.14631],[13.1116,56.1469],[13.11065,56.14682],[13.1101,56.14735],[13.10704,56.14524],[13.10416,56.14426],[13.10198,56.1428],[13.10058,56.14121],[13.09977,56.13932],[13.09963,56.13821],[13.1,56.13687],[13.09736,56.1357],[13.09452,56.1333],[13.0928,56.13393],[13.09163,56.13472],[13.09155,56.13506],[13.08717,56.13558],[13.08353,56.13657],[13.08308,56.13688],[13.08017,56.13721],[13.0801,56.13759],[13.08317,56.13723],[13.08015,56.13872],[13.07977,56.14063],[13.07751,56.14279],[13.07779,56.14489],[13.07662,56.14864],[13.07611,56.14924],[13.07402,56.15044],[13.07365,56.15119],[13.0738,56.15173],[13.07532,56.1522],[13.07596,56.15278],[13.07503,56.1532],[13.07292,56.15358],[13.07257,56.15485],[13.06978,56.15677],[13.06527,56.15783],[13.06338,56.15853],[13.06348,56.16044],[13.06633,56.16314],[13.06606,56.16523],[13.06454,56.16625],[13.06379,56.16664],[13.06279,56.1668],[13.06119,56.16604],[13.05791,56.16585],[13.05612,56.16507],[13.05534,56.16409],[13.05368,56.16348],[13.05315,56.16356],[13.0522,56.16425],[13.0511,56.16466],[13.04979,56.16507],[13.04919,56.16506],[13.0477,56.16479],[13.04668,56.16399],[13.04439,56.16288],[13.04404,56.16285],[13.04293,56.16328],[13.04098,56.1633],[13.03865,56.16279],[13.03607,56.16191],[13.03461,56.16183],[13.03288,56.16215],[13.03236,56.16255],[13.03233,56.16287],[13.03372,56.16501],[13.03396,56.16601],[13.03284,56.16809],[13.03287,56.17185],[13.02912,56.1745],[13.02605,56.1757],[13.02409,56.17742],[13.01966,56.17947],[13.01785,56.18092],[13.0176,56.18131],[13.01787,56.18477],[13.0176,56.18581],[13.0168,56.1862],[13.01576,56.18612],[13.01486,56.1863],[13.01258,56.18733],[13.01226,56.18781],[13.01257,56.18821],[13.01449,56.18888],[13.01537,56.18967],[13.01533,56.19071],[13.01474,56.19137],[13.01401,56.19163],[13.01301,56.19145],[13.01195,56.19052],[13.01142,56.19042],[13.00813,56.1927],[13.00659,56.19267],[13.00604,56.19284],[13.00569,56.19464],[13.00606,56.19658],[13.0057,56.19688],[13.00347,56.19724],[13.00018,56.19748],[12.99783,56.19799],[12.99682,56.19786],[12.99464,56.19674],[12.98763,56.19679],[12.98438,56.19734],[12.98335,56.19767],[12.9813,56.19956],[12.98158,56.2005],[12.98414,56.20267],[12.98438,56.20311],[12.98399,56.20406],[12.98424,56.20485],[12.987,56.20775],[12.98868,56.20743],[12.98932,56.20756],[12.99171,56.20875],[12.99313,56.21074],[12.99523,56.21049],[12.99572,56.21092],[12.99753,56.21117],[13.00046,56.20934],[13.00195,56.20879],[13.00275,56.20808],[13.0049,56.20774],[13.00524,56.2078],[13.00572,56.20856],[13.00696,56.20898],[13.00718,56.20937],[13.00695,56.21011],[13.00783,56.2101],[13.00858,56.2097],[13.00939,56.21],[13.01032,56.20934],[13.01018,56.20875],[13.01043,56.20822],[13.01163,56.20838],[13.01226,56.20755],[13.01366,56.20752],[13.01419,56.20696],[13.01407,56.20645],[13.0145,56.20624],[13.0153,56.20687],[13.01618,56.20572],[13.01748,56.20617],[13.01834,56.20599],[13.01869,56.20607],[13.01771,56.20731],[13.01699,56.20767],[13.01752,56.20799],[13.01853,56.20737],[13.01885,56.20737],[13.01783,56.20915],[13.01826,56.20969],[13.02199,56.2102],[13.02517,56.21004],[13.02664,56.20978],[13.02733,56.21022],[13.03043,56.2106],[13.03112,56.21144],[13.032,56.21188],[13.03452,56.21192],[13.03607,56.21116],[13.03653,56.21114],[13.03679,56.21128],[13.03674,56.21172],[13.03823,56.21236],[13.03858,56.2123],[13.03909,56.21172],[13.04005,56.21229],[13.04259,56.21228],[13.04348,56.21172],[13.04471,56.21148],[13.04567,56.21093],[13.04661,56.21082],[13.04815,56.21007],[13.04843,56.20991],[13.04852,56.20924],[13.05271,56.20847],[13.05431,56.20761],[13.05557,56.20725],[13.05693,56.20782],[13.05656,56.20899],[13.05866,56.20977],[13.05995,56.20932],[13.06119,56.20931],[13.06556,56.20817],[13.06655,56.21294],[13.06821,56.21357],[13.06941,56.21121],[13.07204,56.21339],[13.0756,56.21326],[13.07953,56.21273],[13.08018,56.21346],[13.08163,56.21389],[13.08261,56.21461],[13.08358,56.21475],[13.0843,56.21511],[13.08507,56.21613],[13.08586,56.21632],[13.08694,56.21793],[13.08811,56.21844],[13.08811,56.21883],[13.09017,56.21876],[13.0915,56.21912],[13.09436,56.22046],[13.09529,56.22065],[13.09555,56.22102],[13.09941,56.22195],[13.09989,56.22345],[13.10124,56.2243],[13.10292,56.22455],[13.10349,56.22512],[13.10406,56.22527],[13.10562,56.2245],[13.11048,56.22637],[13.11009,56.22672],[13.11075,56.22674],[13.11083,56.22795],[13.119,56.2305],[13.12059,56.23153],[13.12113,56.23084]]]}},{"type":"Feature","id":"1276R006","properties":{"code":"1276R006","name":"Storäng-Söndraby"},"geometry":{"type":"Polygon","coordinates":[[[13.19237,56.15337],[13.19555,56.15299],[13.20033,56.15173],[13.20355,56.15015],[13.20531,56.14871],[13.20624,56.14684],[13.20611,56.14494],[13.20494,56.14315],[13.20306,56.14178],[13.20603,56.14057],[13.20809,56.13875],[13.20897,56.13733],[13.20927,56.13626],[13.20876,56.13413],[13.20765,56.13286],[13.20598,56.13175],[13.20018,56.12907],[13.19788,56.12839],[13.1954,56.12807],[13.19285,56.1281],[13.18769,56.12911],[13.18196,56.12814],[13.17815,56.12793],[13.17944,56.12845],[13.17928,56.13272],[13.16595,56.13226],[13.16725,56.13418],[13.16645,56.1342],[13.16624,56.13522],[13.16355,56.13651],[13.16375,56.13675],[13.16477,56.13692],[13.16524,56.13798],[13.16587,56.13796],[13.16641,56.13835],[13.1663,56.13878],[13.16537,56.13939],[13.16486,56.14044],[13.16501,56.14137],[13.16584,56.14258],[13.1696,56.14587],[13.17356,56.14572],[13.17628,56.14524],[13.17849,56.1446],[13.18004,56.14656],[13.18001,56.14785],[13.18059,56.14926],[13.1826,56.1511],[13.18429,56.15198],[13.1865,56.15268],[13.18983,56.15326],[13.19237,56.15337]]]}},{"type":"Feature","id":"1276R007","properties":{"code":"1276R007","name":"Tegelbruket-Klippan väster"},"geometry":{"type":"Polygon","coordinates":[[[13.13137,56.14664],[13.13361,56.1454],[13.13703,56.14575],[13.13956,56.14558],[13.14258,56.14502],[13.14632,56.14559],[13.15154,56.14529],[13.1545,56.14459],[13.15837,56.14297],[13.16044,56.14433],[13.16261,56.14512],[13.16662,56.14576],[13.1696,56.14587],[13.16584,56.14258],[13.16501,56.14137],[13.16486,56.14044],[13.16537,56.13939],[13.1663,56.13878],[13.16641,56.13835],[13.16587,56.13796],[13.16541,56.13802],[13.16507,56.13783],[13.16477,56.13692],[13.16375,56.13675],[13.16333,56.13642],[13.16191,56.13636],[13.16148,56.13752],[13.16034,56.13785],[13.16048,56.13941],[13.15994,56.14015],[13.15799,56.14017],[13.15736,56.13978],[13.15688,56.13862],[13.15541,56.13826],[13.15416,56.13824],[13.15409,56.13942],[13.1537,56.14],[13.15272,56.14004],[13.15135,56.14064],[13.14937,56.14089],[13.14782,56.14088],[13.14649,56.14058],[13.14584,56.14076],[13.14509,56.14142],[13.14323,56.14206],[13.14142,56.13603],[13.14154,56.13464],[13.14095,56.13266],[13.13187,56.13527],[13.13072,56.13391],[13.1286,56.1334],[13.12851,56.13111],[13.12596,56.12102],[13.12965,56.12051],[13.12727,56.11803],[13.12376,56.11871],[13.12054,56.12001],[13.11841,56.11998],[13.11651,56.12017],[13.11185,56.12136],[13.10912,56.12287],[13.1076,56.12485],[13.10536,56.12567],[13.10151,56.12768],[13.0984,56.12798],[13.09451,56.12712],[13.09298,56.12709],[13.09217,56.12727],[13.09159,56.12829],[13.09055,56.12933],[13.0906,56.1297],[13.09187,56.13001],[13.09515,56.12991],[13.09611,56.13021],[13.09609,56.13165],[13.09452,56.1333],[13.09736,56.1357],[13.1,56.13687],[13.09968,56.13894],[13.10037,56.14086],[13.1011,56.14186],[13.10325,56.14376],[13.10519,56.14469],[13.10704,56.14524],[13.1101,56.14735],[13.11065,56.14682],[13.1116,56.1469],[13.11331,56.14631],[13.11486,56.1462],[13.11649,56.1464],[13.11975,56.14728],[13.12445,56.14778],[13.12812,56.14754],[13.13137,56.14664]]]}}]}