{"type":"FeatureCollection","features":[{"type":"Feature","id":"1281R021","properties":{"code":"1281R021","name":"Nöbbelöv-Oscarshem"},"geometry":{"type":"Polygon","coordinates":[[[13.17591,55.73362],[13.17677,55.73141],[13.17839,55.72899],[13.17423,55.7282],[13.17455,55.72658],[13.17497,55.72665],[13.17572,55.72532],[13.17529,55.72516],[13.1761,55.72371],[13.17655,55.72353],[13.1825,55.72477],[13.18289,55.72413],[13.18327,55.72027],[13.18018,55.71977],[13.17624,55.71963],[13.17044,55.72388],[13.16696,55.72767],[13.17224,55.72883],[13.17104,55.73099],[13.1699,55.73096],[13.16868,55.73137],[13.16821,55.73207],[13.16856,55.73289],[13.17071,55.73317],[13.17125,55.73299],[13.17245,55.73306],[13.17282,55.73331],[13.17591,55.73362]]]}},{"type":"Feature","id":"1281R022","properties":{"code":"1281R022","name":"Nöbbelövs torg"},"geometry":{"type":"Polygon","coordinates":[[[13.18672,55.73427],[13.18332,55.73001],[13.18341,55.72434],[13.18289,55.72413],[13.1825,55.72477],[13.17655,55.72353],[13.1761,55.72371],[13.17529,55.72516],[13.17572,55.72532],[13.17497,55.72665],[13.17455,55.72658],[13.17423,55.7282],[13.17839,55.72899],[13.17677,55.73141],[13.17591,55.73362],[13.18363,55.73458],[13.18672,55.73427]]]}},{"type":"Feature","id":"1281R023","properties":{"code":"1281R023","name":"Parentesen-Ulrikedal"},"geometry":{"type":"Polygon","coordinates":[[[13.20618,55.70006],[13.20608,55.69677],[13.20209,55.69622],[13.2017,55.69754],[13.19968,55.69773],[13.1984,55.69764],[13.19795,55.69884],[13.19836,55.69898],[13.19996,55.69936],[13.20437,55.69915],[13.20618,55.70006]]]}},{"type":"Feature","id":"1281R024","properties":{"code":"1281R024","name":"Råbyholm"},"geometry":{"type":"Polygon","coordinates":[[[13.19264,55.69488],[13.19358,55.69276],[13.19575,55.69221],[13.19504,55.69144],[13.1946,55.69],[13.20272,55.68884],[13.19898,55.68698],[13.20123,55.68568],[13.1995,55.68203],[13.19672,55.68187],[13.19145,55.68298],[13.1851,55.67978],[13.1825,55.67809],[13.18132,55.67857],[13.18086,55.67922],[13.18086,55.67973],[13.18317,55.68039],[13.18433,55.68108],[13.18705,55.68651],[13.18734,55.69081],[13.18874,55.69513],[13.19264,55.69488]]]}},{"type":"Feature","id":"1281R025","properties":{"code":"1281R025","name":"Sankt Hans"},"geometry":{"type":"Polygon","coordinates":[[[13.19669,55.72829],[13.20214,55.72832],[13.20212,55.72435],[13.1996,55.7244],[13.1996,55.72491],[13.19693,55.72491],[13.19693,55.72519],[13.19459,55.72517],[13.19453,55.72778],[13.19551,55.72852],[13.19669,55.72829]]]}},{"type":"Feature","id":"1281R026","properties":{"code":"1281R026","name":"Skarpskyttevägen-Sankt Hans Backar"},"geometry":{"type":"Polygon","coordinates":[[[13.19453,55.72778],[13.19459,55.72517],[13.19693,55.72519],[13.19693,55.72491],[13.1996,55.72491],[13.1996,55.7244],[13.20212,55.72435],[13.20212,55.71991],[13.19542,55.72063],[13.1908,55.72085],[13.18327,55.72027],[13.18289,55.72413],[13.18709,55.72479],[13.19551,55.72852],[13.19453,55.72778]]]}},{"type":"Feature","id":"1281R027","properties":{"code":"1281R027","name":"Sparta-Ideon"},"geometry":{"type":"Polygon","coordinates":[[[13.22282,55.71941],[13.22119,55.7113],[13.22,55.70742],[13.21828,55.70721],[13.2123,55.70567],[13.21309,55.70746],[13.21216,55.70769],[13.20983,55.70782],[13.20815,55.71014],[13.20649,55.70975],[13.20486,55.71359],[13.2053,55.71371],[13.20733,55.71581],[13.20663,55.71596],[13.20615,55.71654],[13.21305,55.71867],[13.21368,55.71935],[13.22282,55.71941]]]}},{"type":"Feature","id":"1281R018","properties":{"code":"1281R018","name":"Möllevången"},"geometry":{"type":"Polygon","coordinates":[[[13.20212,55.71991],[13.21017,55.7193],[13.21368,55.71935],[13.21305,55.71867],[13.20615,55.71654],[13.20663,55.71596],[13.20733,55.71581],[13.2053,55.71371],[13.20486,55.71359],[13.20313,55.71511],[13.20031,55.71436],[13.19946,55.71484],[13.19569,55.71262],[13.19374,55.71275],[13.19017,55.71547],[13.18789,55.71492],[13.18641,55.71692],[13.18446,55.7165],[13.18411,55.71825],[13.18327,55.72027],[13.1908,55.72085],[13.19542,55.72063],[13.20212,55.71991]]]}},{"type":"Feature","id":"1281R019","properties":{"code":"1281R019","name":"Nilstorp-Stampelyckan"},"geometry":{"type":"Polygon","coordinates":[[[13.21304,55.69413],[13.20272,55.68884],[13.1946,55.69],[13.19504,55.69144],[13.19575,55.69221],[13.19358,55.69276],[13.19264,55.69488],[13.19539,55.69504],[13.20608,55.69677],[13.20617,55.70007],[13.20662,55.7003],[13.21704,55.69855],[13.21547,55.69619],[13.21304,55.69413]]]}},{"type":"Feature","id":"1281R020","properties":{"code":"1281R020","name":"Nöbbelöv-Gunnesbo"},"geometry":{"type":"Polygon","coordinates":[[[13.17282,55.73331],[13.17245,55.73306],[13.17125,55.73299],[13.17071,55.73317],[13.1688,55.73298],[13.16821,55.73207],[13.16868,55.73137],[13.1699,55.73096],[13.17104,55.73099],[13.17224,55.72883],[13.16696,55.72767],[13.17044,55.72388],[13.17624,55.71963],[13.17117,55.71904],[13.16711,55.71744],[13.16384,55.71555],[13.16236,55.7155],[13.15128,55.71823],[13.14097,55.72112],[13.14099,55.72457],[13.14149,55.72684],[13.14126,55.72871],[13.14239,55.73087],[13.14422,55.73225],[13.14566,55.73291],[13.14783,55.73351],[13.15045,55.73514],[13.15386,55.73622],[13.15759,55.73687],[13.16028,55.73797],[13.15877,55.73885],[13.15775,55.73975],[13.16874,55.74077],[13.17388,55.73879],[13.17591,55.73363],[13.17282,55.73331]]]}},{"type":"Feature","id":"1281R012","properties":{"code":"1281R012","name":"Linero centrum"},"geometry":{"type":"Polygon","coordinates":[[[13.23393,55.69808],[13.23452,55.69651],[13.23562,55.69701],[13.23768,55.69704],[13.23984,55.69632],[13.24294,55.69613],[13.24338,55.69415],[13.24157,55.69412],[13.24142,55.69297],[13.24082,55.69224],[13.23405,55.69423],[13.22851,55.69553],[13.23198,55.69976],[13.23393,55.69808]]]}},{"type":"Feature","id":"1281R013","properties":{"code":"1281R013","name":"Lund centrala staden"},"geometry":{"type":"Polygon","coordinates":[[[13.18641,55.71692],[13.18789,55.71492],[13.19017,55.71547],[13.19374,55.71275],[13.19569,55.71262],[13.19329,55.71098],[13.19287,55.7104],[13.193,55.70917],[13.19404,55.70908],[13.19634,55.70799],[13.19662,55.70761],[13.20121,55.70507],[13.20124,55.703],[13.20045,55.70136],[13.20662,55.7003],[13.20437,55.69915],[13.19996,55.69936],[13.19795,55.69884],[13.1984,55.69764],[13.19968,55.69773],[13.2017,55.69754],[13.20209,55.69622],[13.20172,55.69613],[13.19539,55.69504],[13.19264,55.69488],[13.18874,55.69513],[13.18747,55.69529],[13.1795,55.69903],[13.18471,55.70154],[13.18609,55.70244],[13.18659,55.70306],[13.18691,55.70389],[13.18446,55.7165],[13.18641,55.71692]]]}},{"type":"Feature","id":"1281R014","properties":{"code":"1281R014","name":"Lund väster"},"geometry":{"type":"Polygon","coordinates":[[[13.17545,55.71195],[13.17985,55.71083],[13.18018,55.71123],[13.18548,55.71146],[13.18691,55.70389],[13.18659,55.70306],[13.18609,55.70244],[13.18471,55.70154],[13.1795,55.69903],[13.16881,55.69317],[13.16862,55.69323],[13.16402,55.69089],[13.16135,55.6919],[13.15709,55.69496],[13.15725,55.69516],[13.15673,55.69584],[13.16265,55.69671],[13.16123,55.70321],[13.16092,55.70713],[13.1657,55.70707],[13.17215,55.70985],[13.17287,55.70947],[13.17385,55.70997],[13.17545,55.71195]]]}},{"type":"Feature","id":"1281R015","properties":{"code":"1281R015","name":"Lunds centrala omnejd"},"geometry":{"type":"Polygon","coordinates":[[[13.1838,55.79401],[13.18674,55.79284],[13.18916,55.79124],[13.19249,55.79139],[13.19395,55.79124],[13.19899,55.78891],[13.20254,55.78687],[13.20238,55.78669],[13.20355,55.78617],[13.20379,55.78649],[13.20711,55.78589],[13.20916,55.78514],[13.21124,55.78389],[13.21311,55.78344],[13.21429,55.78286],[13.21567,55.78248],[13.21641,55.78237],[13.21762,55.78259],[13.22,55.7836],[13.22259,55.78437],[13.22365,55.78434],[13.22494,55.78398],[13.2265,55.78224],[13.23067,55.78093],[13.23085,55.78049],[13.23063,55.77938],[13.23205,55.77759],[13.23371,55.77692],[13.23496,55.77702],[13.23531,55.778],[13.23658,55.77833],[13.23787,55.77829],[13.24078,55.77701],[13.24257,55.77568],[13.2441,55.77543],[13.24544,55.77592],[13.24724,55.77777],[13.24925,55.77773],[13.25189,55.77834],[13.25522,55.77775],[13.25696,55.77793],[13.25914,55.7775],[13.26126,55.77823],[13.26255,55.77903],[13.2651,55.77908],[13.26638,55.77817],[13.26895,55.77789],[13.27293,55.77901],[13.27333,55.77875],[13.27335,55.77766],[13.27387,55.77753],[13.27753,55.77855],[13.27821,55.77843],[13.27901,55.7777],[13.27949,55.77757],[13.28015,55.77849],[13.2809,55.77844],[13.28157,55.77805],[13.2812,55.77712],[13.28164,55.77687],[13.28249,55.77677],[13.2829,55.77689],[13.28292,55.77764],[13.28328,55.77821],[13.28427,55.77845],[13.2854,55.77846],[13.28625,55.77806],[13.28631,55.77701],[13.28758,55.77672],[13.28903,55.77587],[13.29042,55.77574],[13.29162,55.77598],[13.29238,55.77582],[13.29273,55.77548],[13.29256,55.77465],[13.29281,55.77424],[13.29445,55.77444],[13.29518,55.77429],[13.29445,55.77339],[13.29227,55.7737],[13.29134,55.77342],[13.29132,55.77297],[13.29274,55.77264],[13.29442,55.77161],[13.29494,55.7717],[13.29486,55.77242],[13.29523,55.77257],[13.29556,55.7725],[13.29876,55.77031],[13.30155,55.76902],[13.30204,55.76951],[13.30255,55.76959],[13.30453,55.76926],[13.30516,55.76892],[13.30601,55.76814],[13.30133,55.76622],[13.30141,55.76598],[13.28728,55.75063],[13.28833,55.75051],[13.29299,55.74913],[13.29509,55.75072],[13.30228,55.74777],[13.29845,55.74544],[13.29823,55.74328],[13.30014,55.74079],[13.30075,55.73942],[13.29655,55.73143],[13.28845,55.72107],[13.279,55.72633],[13.27614,55.72643],[13.26751,55.72273],[13.26537,55.72169],[13.26484,55.72115],[13.26272,55.72248],[13.25937,55.72192],[13.25627,55.72107],[13.25561,55.7226],[13.25431,55.72396],[13.25241,55.7251],[13.25014,55.72589],[13.25061,55.72725],[13.25065,55.72885],[13.25018,55.73029],[13.24935,55.73138],[13.24727,55.73289],[13.24462,55.7339],[13.24139,55.73443],[13.23939,55.73445],[13.23726,55.73424],[13.23528,55.73456],[13.23269,55.73464],[13.22998,55.73434],[13.22712,55.73348],[13.22534,55.73417],[13.22292,55.7347],[13.21739,55.73499],[13.2103,55.73584],[13.20764,55.73719],[13.20454,55.73793],[13.20119,55.73808],[13.19775,55.73761],[13.19272,55.73852],[13.19104,55.73867],[13.19084,55.73988],[13.19554,55.73982],[13.19749,55.73997],[13.19985,55.74047],[13.20202,55.74134],[13.20464,55.74042],[13.20711,55.74003],[13.21057,55.73998],[13.21307,55.74031],[13.21534,55.74099],[13.2172,55.74195],[13.21858,55.74313],[13.21926,55.74417],[13.21956,55.7461],[13.22069,55.74758],[13.22104,55.74902],[13.22087,55.75077],[13.21981,55.75245],[13.21829,55.75362],[13.21553,55.75477],[13.21441,55.75557],[13.21312,55.75849],[13.21202,55.75954],[13.21068,55.76038],[13.20866,55.7612],[13.20615,55.76175],[13.20409,55.76192],[13.20149,55.76181],[13.19887,55.76131],[13.19632,55.76031],[13.19429,55.76013],[13.19242,55.75974],[13.19028,55.75896],[13.18717,55.75929],[13.18268,55.75927],[13.18008,55.75897],[13.17787,55.75836],[13.17522,55.75691],[13.17372,55.75502],[13.1736,55.75282],[13.17401,55.75163],[13.17479,55.75055],[13.17468,55.75023],[13.17064,55.75047],[13.16875,55.75028],[13.16637,55.74977],[13.16426,55.74898],[13.16249,55.74787],[13.16022,55.74704],[13.15837,55.74588],[13.15683,55.74392],[13.15656,55.74281],[13.15667,55.74161],[13.158,55.7395],[13.16028,55.73797],[13.15759,55.73687],[13.15386,55.73622],[13.15045,55.73514],[13.14783,55.73351],[13.14566,55.73291],[13.1438,55.732],[13.14269,55.73117],[13.1417,55.7299],[13.14122,55.72837],[13.14149,55.72684],[13.14103,55.72491],[13.14113,55.72329],[13.14087,55.7222],[13.14149,55.71863],[13.14078,55.71722],[13.13976,55.71299],[13.13999,55.71155],[13.14097,55.71007],[13.13823,55.70913],[13.13619,55.70777],[13.13496,55.70605],[13.13471,55.70457],[13.13337,55.70458],[13.13225,55.70485],[13.13172,55.70453],[13.13073,55.70477],[13.13035,55.70464],[13.1293,55.70481],[13.12898,55.70526],[13.12833,55.70502],[13.12824,55.70467],[13.12791,55.7047],[13.1273,55.70521],[13.1256,55.70491],[13.12388,55.70511],[13.12346,55.70477],[13.12302,55.7047],[13.12381,55.70432],[13.12291,55.70391],[13.12325,55.70351],[13.12281,55.70342],[13.12224,55.70357],[13.12098,55.70322],[13.12049,55.70345],[13.11904,55.70319],[13.11884,55.7031],[13.11897,55.70222],[13.11819,55.70199],[13.1177,55.70209],[13.11728,55.70262],[13.1161,55.70226],[13.1153,55.70233],[13.11488,55.70177],[13.11187,55.70232],[13.11127,55.70937],[13.11207,55.70946],[13.11247,55.71042],[13.11533,55.71431],[13.12156,55.71683],[13.13011,55.71947],[13.1272,55.73259],[13.13697,55.73435],[13.1345,55.73768],[13.13507,55.73949],[13.13615,55.74088],[13.13511,55.74103],[13.13589,55.74308],[13.13314,55.74296],[13.13151,55.74251],[13.12877,55.74229],[13.12937,55.74327],[13.1281,55.74419],[13.12318,55.74171],[13.11845,55.74727],[13.12694,55.74743],[13.12599,55.74843],[13.13862,55.74894],[13.13663,55.75022],[13.14157,55.75183],[13.13451,55.75818],[13.14225,55.76544],[13.14501,55.76917],[13.1425,55.76825],[13.14173,55.76827],[13.13652,55.76929],[13.13519,55.76978],[13.14281,55.78056],[13.1369,55.78934],[13.13706,55.79134],[13.14017,55.79075],[13.14209,55.79147],[13.14513,55.79182],[13.14704,55.79136],[13.15094,55.7898],[13.15325,55.78909],[13.15502,55.78898],[13.15784,55.78955],[13.16016,55.79042],[13.16111,55.79058],[13.16219,55.79053],[13.16505,55.78982],[13.1675,55.78988],[13.16911,55.79038],[13.17096,55.79191],[13.17193,55.79232],[13.17345,55.79219],[13.17514,55.7916],[13.17631,55.7916],[13.18003,55.79304],[13.18279,55.79392],[13.1838,55.79401]]]}},{"type":"Feature","id":"1281R016","properties":{"code":"1281R016","name":"Magistratsvägen-Fäladstorget"},"geometry":{"type":"Polygon","coordinates":[[[13.20498,55.7283],[13.20494,55.72417],[13.21038,55.7241],[13.21017,55.7193],[13.20212,55.71991],[13.20214,55.72832],[13.20498,55.7283]]]}},{"type":"Feature","id":"1281R017","properties":{"code":"1281R017","name":"Mårtens Fälad"},"geometry":{"type":"Polygon","coordinates":[[[13.23198,55.69976],[13.22851,55.69553],[13.21704,55.69855],[13.21847,55.7004],[13.21939,55.70374],[13.23924,55.70892],[13.24532,55.70939],[13.24682,55.70768],[13.24816,55.70444],[13.24061,55.70342],[13.23718,55.70226],[13.23198,55.69976]]]}},{"type":"Feature","id":"1281R001","properties":{"code":"1281R001","name":"Annehem"},"geometry":{"type":"Polygon","coordinates":[[[13.19064,55.73201],[13.19401,55.73249],[13.1942,55.73183],[13.20061,55.73199],[13.20205,55.7292],[13.20214,55.72832],[13.19669,55.72829],[13.19551,55.72852],[13.18709,55.72479],[13.18289,55.72413],[13.18341,55.72434],[13.18332,55.73001],[13.18439,55.73135],[13.18516,55.73124],[13.18782,55.73161],[13.18717,55.73308],[13.1902,55.73338],[13.19064,55.73201]]]}},{"type":"Feature","id":"1281R002","properties":{"code":"1281R002","name":"Arenan-Klostergården"},"geometry":{"type":"Polygon","coordinates":[[[13.18874,55.69513],[13.18734,55.69081],[13.18705,55.68651],[13.18433,55.68108],[13.18317,55.68039],[13.18086,55.67973],[13.18086,55.67922],[13.18134,55.67856],[13.17953,55.67782],[13.17138,55.68025],[13.17139,55.6805],[13.17041,55.68056],[13.16767,55.68145],[13.17069,55.68734],[13.17032,55.68805],[13.16932,55.68866],[13.16784,55.68917],[13.16736,55.68918],[13.16707,55.68954],[13.16657,55.68965],[13.1663,55.68997],[13.1667,55.69026],[13.16639,55.6905],[13.16418,55.69087],[13.16862,55.69323],[13.16881,55.69317],[13.1795,55.69903],[13.18747,55.69529],[13.18874,55.69513]]]}},{"type":"Feature","id":"1281R003","properties":{"code":"1281R003","name":"Brunnshög-Östra Torn"},"geometry":{"type":"Polygon","coordinates":[[[13.26067,55.70967],[13.26256,55.70866],[13.26408,55.70725],[13.26038,55.70668],[13.25501,55.70546],[13.25139,55.70484],[13.24816,55.70444],[13.24682,55.70768],[13.24532,55.70939],[13.23924,55.70892],[13.21939,55.70374],[13.22041,55.70748],[13.22,55.70742],[13.22119,55.7113],[13.22282,55.71941],[13.22493,55.72304],[13.22663,55.72537],[13.22926,55.72796],[13.23539,55.73202],[13.23949,55.73446],[13.24275,55.73428],[13.24569,55.73357],[13.24822,55.73232],[13.24967,55.73102],[13.25065,55.72885],[13.25061,55.72725],[13.25014,55.72589],[13.25193,55.72531],[13.25343,55.72457],[13.25465,55.72368],[13.25561,55.7226],[13.25625,55.72117],[13.25664,55.71854],[13.2563,55.71709],[13.25559,55.71601],[13.25809,55.71275],[13.25848,55.71173],[13.25847,55.71037],[13.26067,55.70967]]]}},{"type":"Feature","id":"1281R004","properties":{"code":"1281R004","name":"Dalby centrum"},"geometry":{"type":"Polygon","coordinates":[[[13.34998,55.68461],[13.35568,55.68463],[13.35887,55.68435],[13.36119,55.68374],[13.36357,55.68256],[13.36494,55.68134],[13.3658,55.67962],[13.36573,55.67773],[13.36509,55.67601],[13.3682,55.67522],[13.37101,55.67426],[13.37277,55.67334],[13.37408,55.67303],[13.37798,55.67308],[13.38107,55.67258],[13.38369,55.67158],[13.38562,55.67016],[13.38678,55.66811],[13.38675,55.66575],[13.38565,55.66408],[13.38323,55.66247],[13.38466,55.66144],[13.38741,55.66028],[13.39174,55.65739],[13.39282,55.65608],[13.3933,55.65431],[13.39509,55.65265],[13.39598,55.65082],[13.39585,55.64903],[13.39475,55.64736],[13.39276,55.64595],[13.39028,55.64497],[13.38627,55.64426],[13.38203,55.64433],[13.37884,55.64498],[13.37548,55.64607],[13.3701,55.64647],[13.367,55.64647],[13.36451,55.64678],[13.36111,55.64791],[13.35898,55.64941],[13.3568,55.64896],[13.35496,55.64882],[13.35297,55.64888],[13.35022,55.64927],[13.34754,55.65009],[13.34537,55.65141],[13.33916,55.65201],[13.33576,55.65299],[13.33329,55.65443],[13.33238,55.65538],[13.33175,55.65654],[13.3303,55.6574],[13.32931,55.65829],[13.32785,55.66011],[13.32733,55.66147],[13.32742,55.66287],[13.32816,55.66422],[13.32667,55.66693],[13.32541,55.66699],[13.32409,55.67219],[13.32579,55.67228],[13.32661,55.67336],[13.32704,55.67503],[13.32809,55.67634],[13.32997,55.67766],[13.33399,55.6794],[13.33528,55.68129],[13.33784,55.68288],[13.34002,55.68358],[13.34191,55.6839],[13.34587,55.68396],[13.348,55.68443],[13.34998,55.68461]]]}},{"type":"Feature","id":"1281R005","properties":{"code":"1281R005","name":"Dalby-Veberöd omnejd"},"geometry":{"type":"Polygon","coordinates":[[[13.40628,55.7152],[13.43884,55.70382],[13.4405,55.70086],[13.4581,55.7012],[13.49892,55.70084],[13.50863,55.70555],[13.50573,55.715],[13.5069,55.71473],[13.51028,55.71298],[13.51163,55.71203],[13.51233,55.71183],[13.51392,55.71207],[13.51531,55.71161],[13.5172,55.71059],[13.51833,55.71056],[13.52018,55.71006],[13.5214,55.71016],[13.52187,55.70985],[13.52201,55.70865],[13.52416,55.70744],[13.52554,55.70599],[13.52956,55.70459],[13.54056,55.69995],[13.54447,55.69908],[13.55003,55.6987],[13.55016,55.69838],[13.55468,55.69733],[13.55555,55.69761],[13.56061,55.69642],[13.56514,55.69598],[13.57262,55.68707],[13.58723,55.68504],[13.59125,55.68319],[13.5962,55.68039],[13.59934,55.67831],[13.60186,55.67387],[13.61388,55.66766],[13.61711,55.66296],[13.61749,55.66292],[13.61688,55.66062],[13.60884,55.65044],[13.60806,55.64712],[13.60885,55.64285],[13.60835,55.64063],[13.60552,55.63553],[13.60282,55.63142],[13.60169,55.63135],[13.60154,55.63146],[13.60091,55.63112],[13.60008,55.63107],[13.60013,55.63155],[13.59941,55.63152],[13.59888,55.63182],[13.59825,55.63162],[13.59806,55.63209],[13.59747,55.63198],[13.59752,55.63175],[13.59699,55.63173],[13.59675,55.63207],[13.59644,55.63166],[13.59573,55.63159],[13.59579,55.63193],[13.59527,55.63164],[13.59499,55.63198],[13.59451,55.63135],[13.59401,55.63147],[13.59371,55.63116],[13.59369,55.63162],[13.59327,55.6317],[13.59359,55.63207],[13.59239,55.63203],[13.59213,55.63175],[13.59162,55.63168],[13.59121,55.6317],[13.59127,55.63205],[13.59036,55.63158],[13.59018,55.63169],[13.59048,55.63206],[13.58957,55.63215],[13.58956,55.63241],[13.59009,55.63252],[13.5896,55.63254],[13.58868,55.63309],[13.58828,55.63254],[13.58784,55.63294],[13.58754,55.63283],[13.58023,55.63401],[13.5801,55.63384],[13.57133,55.63308],[13.5609,55.63314],[13.56082,55.63344],[13.56034,55.63352],[13.56059,55.63386],[13.55939,55.63432],[13.55856,55.63438],[13.55731,55.63578],[13.55599,55.6364],[13.5545,55.63465],[13.55397,55.63465],[13.55349,55.63414],[13.55307,55.63461],[13.55255,55.63469],[13.55275,55.63442],[13.5524,55.6343],[13.54886,55.63575],[13.54808,55.63581],[13.548,55.63609],[13.54662,55.63646],[13.54173,55.62987],[13.53446,55.62594],[13.53002,55.62024],[13.53296,55.60833],[13.52939,55.59619],[13.53292,55.59587],[13.53231,55.59348],[13.52935,55.5933],[13.52583,55.59334],[13.52263,55.5913],[13.52044,55.58918],[13.52108,55.5875],[13.52297,55.58666],[13.52461,55.58623],[13.52372,55.58518],[13.52321,55.58273],[13.52257,55.58176],[13.52006,55.58053],[13.51711,55.58013],[13.51678,55.57895],[13.5183,55.57684],[13.5183,55.57629],[13.51737,55.5754],[13.51621,55.57488],[13.51453,55.57467],[13.51243,55.57509],[13.50946,55.57375],[13.50661,55.57291],[13.50724,55.57163],[13.50603,55.57139],[13.50565,55.57274],[13.50381,55.57417],[13.50469,55.57428],[13.50164,55.57801],[13.5007,55.57778],[13.50055,55.57915],[13.50103,55.57986],[13.50419,55.57992],[13.50689,55.57959],[13.50784,55.57986],[13.5085,55.57985],[13.51062,55.57946],[13.50829,55.5829],[13.50574,55.58312],[13.50348,55.58242],[13.50229,55.58236],[13.50176,55.58123],[13.49792,55.58023],[13.49759,55.57938],[13.49641,55.57877],[13.49125,55.57879],[13.49047,55.57914],[13.48964,55.57915],[13.48903,55.57957],[13.4868,55.57963],[13.48443,55.57894],[13.48416,55.57974],[13.48455,55.58019],[13.48488,55.58157],[13.48472,55.58191],[13.48341,55.58335],[13.48307,55.58419],[13.48192,55.58484],[13.4811,55.58503],[13.48109,55.58576],[13.47786,55.58703],[13.47604,55.58724],[13.47445,55.58708],[13.47209,55.58727],[13.47166,55.58779],[13.47176,55.58871],[13.47118,55.58897],[13.46999,55.58891],[13.46854,55.58958],[13.46811,55.58986],[13.46826,55.59031],[13.46803,55.59064],[13.46487,55.5899],[13.46336,55.59023],[13.46257,55.59019],[13.46213,55.5936],[13.45479,55.60196],[13.45009,55.59956],[13.45164,55.61368],[13.46101,55.6123],[13.45384,55.62228],[13.45346,55.62551],[13.44965,55.62662],[13.44495,55.62743],[13.44405,55.62713],[13.43946,55.62663],[13.4389,55.62539],[13.43697,55.62498],[13.43671,55.62505],[13.4352,55.6264],[13.43429,55.62638],[13.43446,55.62684],[13.43524,55.62754],[13.43636,55.62792],[13.43638,55.62817],[13.43707,55.62855],[13.43708,55.62938],[13.43645,55.62939],[13.43642,55.63037],[13.43572,55.63036],[13.43558,55.63068],[13.43427,55.63078],[13.4339,55.6316],[13.433,55.63205],[13.43096,55.63156],[13.42804,55.63129],[13.42487,55.63171],[13.41624,55.63177],[13.41528,55.63192],[13.41559,55.63226],[13.4146,55.6327],[13.4113,55.63303],[13.40705,55.63246],[13.40529,55.63247],[13.40424,55.63703],[13.40391,55.63702],[13.4034,55.63768],[13.40312,55.63878],[13.40057,55.63888],[13.40047,55.63507],[13.39241,55.63347],[13.39249,55.63311],[13.38637,55.6329],[13.37869,55.63331],[13.36726,55.63226],[13.36703,55.63262],[13.35655,55.63173],[13.35153,55.62973],[13.34713,55.63139],[13.34661,55.63133],[13.34412,55.63201],[13.34336,55.63254],[13.34282,55.63058],[13.33452,55.63608],[13.33465,55.63669],[13.3332,55.63707],[13.33341,55.63769],[13.33286,55.63799],[13.3325,55.63867],[13.33212,55.63721],[13.31488,55.6394],[13.31864,55.64765],[13.31901,55.6475],[13.31862,55.64871],[13.31724,55.64834],[13.31731,55.64807],[13.31359,55.64844],[13.29789,55.65833],[13.29443,55.65685],[13.28965,55.66048],[13.28965,55.66392],[13.29039,55.66412],[13.29207,55.66524],[13.29348,55.66653],[13.2938,55.66897],[13.2927,55.67205],[13.28981,55.67212],[13.29009,55.67683],[13.29002,55.68318],[13.30094,55.68554],[13.30275,55.68693],[13.31195,55.68748],[13.31337,55.68817],[13.36319,55.69177],[13.37529,55.68904],[13.38455,55.688],[13.38587,55.6903],[13.38183,55.69025],[13.38084,55.69054],[13.37989,55.69212],[13.37706,55.69377],[13.37691,55.69436],[13.37229,55.69722],[13.38704,55.69899],[13.38935,55.69952],[13.38884,55.70206],[13.38831,55.70205],[13.3897,55.70466],[13.38996,55.70637],[13.39194,55.70764],[13.39433,55.71075],[13.39599,55.71367],[13.39846,55.71321],[13.39822,55.71274],[13.40019,55.71269],[13.40024,55.71013],[13.40242,55.70993],[13.40323,55.71042],[13.40628,55.7152]],[[13.49439,55.64967],[13.49112,55.64925],[13.48809,55.6495],[13.48486,55.64919],[13.48246,55.64926],[13.48024,55.64903],[13.47686,55.64898],[13.4737,55.64832],[13.47169,55.64753],[13.4704,55.64678],[13.46889,55.64528],[13.46826,55.64354],[13.46843,55.6421],[13.46911,55.64053],[13.46978,55.63956],[13.47089,55.63859],[13.46926,55.63708],[13.46844,55.63535],[13.4685,55.63391],[13.46947,55.63221],[13.46946,55.63168],[13.4701,55.6316],[13.47132,55.63076],[13.47315,55.62995],[13.47416,55.62806],[13.47524,55.62709],[13.4766,55.62626],[13.4795,55.62524],[13.48251,55.6248],[13.48367,55.62387],[13.48506,55.62313],[13.48783,55.62208],[13.49026,55.62159],[13.49247,55.61386],[13.49379,55.61224],[13.49594,55.61094],[13.5006,55.60954],[13.50369,55.6091],[13.50705,55.60922],[13.51008,55.6099],[13.51319,55.60958],[13.51652,55.60984],[13.51979,55.61072],[13.522,55.61192],[13.52297,55.61281],[13.52383,55.61436],[13.52494,55.61551],[13.52562,55.61692],[13.52553,55.61883],[13.52434,55.62067],[13.52449,55.62247],[13.52405,55.62481],[13.52582,55.62585],[13.52711,55.62712],[13.5278,55.62853],[13.52789,55.62975],[13.52739,55.63126],[13.52596,55.63287],[13.52408,55.63401],[13.52185,55.6348],[13.52247,55.63591],[13.52326,55.6387],[13.52282,55.64084],[13.52207,55.64183],[13.5206,55.64298],[13.51723,55.64441],[13.50829,55.64607],[13.50574,55.64733],[13.49959,55.64912],[13.49698,55.64959],[13.49439,55.64967]],[[13.34998,55.68461],[13.348,55.68443],[13.34587,55.68396],[13.34349,55.68403],[13.34126,55.68382],[13.33893,55.68328],[13.33733,55.68265],[13.33528,55.68129],[13.33399,55.6794],[13.32997,55.67766],[13.32806,55.67632],[13.32704,55.67503],[13.32661,55.67336],[13.32579,55.67228],[13.32409,55.67219],[13.32541,55.66699],[13.32667,55.66693],[13.32816,55.66422],[13.32734,55.66251],[13.32767,55.66043],[13.3296,55.65799],[13.33175,55.65654],[13.33297,55.65472],[13.33499,55.65334],[13.33797,55.65225],[13.33979,55.65192],[13.34537,55.65141],[13.34661,55.65056],[13.34855,55.64971],[13.35237,55.64894],[13.35561,55.64884],[13.35898,55.64941],[13.36019,55.64843],[13.36158,55.64769],[13.36513,55.64667],[13.37548,55.64607],[13.37976,55.64474],[13.38329,55.64422],[13.38732,55.64437],[13.39084,55.64515],[13.39322,55.64621],[13.39504,55.64767],[13.39596,55.64937],[13.39598,55.65082],[13.39509,55.65265],[13.3933,55.65431],[13.39282,55.65608],[13.39174,55.65739],[13.38741,55.66028],[13.38466,55.66144],[13.38323,55.66247],[13.38565,55.66408],[13.38675,55.66575],[13.38678,55.66811],[13.38562,55.67016],[13.38369,55.67158],[13.38107,55.67258],[13.37798,55.67308],[13.37408,55.67303],[13.37277,55.67334],[13.37101,55.67426],[13.3682,55.67522],[13.36509,55.67601],[13.36585,55.67854],[13.36558,55.68032],[13.36431,55.68199],[13.36173,55.68353],[13.36004,55.68409],[13.35764,55.68452],[13.34998,55.68461]]]}},{"type":"Feature","id":"1281R006","properties":{"code":"1281R006","name":"Delphinen-Kämnärsvägen"},"geometry":{"type":"Polygon","coordinates":[[[13.22493,55.72304],[13.22282,55.71941],[13.21017,55.7193],[13.21038,55.7241],[13.21311,55.72407],[13.21378,55.72319],[13.22334,55.72324],[13.22493,55.72304]]]}},{"type":"Feature","id":"1281R010","properties":{"code":"1281R010","name":"Ladugårdsmarken"},"geometry":{"type":"Polygon","coordinates":[[[13.20194,55.7381],[13.20394,55.738],[13.20642,55.73756],[13.20863,55.73679],[13.2103,55.73584],[13.21739,55.73499],[13.22292,55.7347],[13.22534,55.73417],[13.22712,55.73348],[13.22941,55.73422],[13.23191,55.7346],[13.23468,55.73461],[13.23726,55.73424],[13.23949,55.73446],[13.22966,55.72825],[13.22663,55.72537],[13.22414,55.72539],[13.22357,55.72676],[13.22202,55.72792],[13.21866,55.72721],[13.21567,55.72711],[13.20676,55.72828],[13.20214,55.72832],[13.20205,55.7292],[13.19837,55.7366],[13.1983,55.73773],[13.20194,55.7381]]]}},{"type":"Feature","id":"1281R011","properties":{"code":"1281R011","name":"Linero"},"geometry":{"type":"Polygon","coordinates":[[[13.26472,55.69948],[13.26401,55.69802],[13.26301,55.69695],[13.2607,55.69503],[13.25884,55.69407],[13.25749,55.69917],[13.25302,55.69861],[13.24706,55.69838],[13.24865,55.69627],[13.24952,55.69422],[13.24877,55.69413],[13.24619,55.69433],[13.24338,55.69415],[13.24294,55.69613],[13.23984,55.69632],[13.23768,55.69704],[13.23562,55.69701],[13.23452,55.69651],[13.23393,55.69808],[13.23198,55.69976],[13.23718,55.70226],[13.24061,55.70342],[13.25192,55.70492],[13.26038,55.70668],[13.26408,55.70725],[13.26501,55.70508],[13.26455,55.70308],[13.26472,55.69948]]]}},{"type":"Feature","id":"1281R007","properties":{"code":"1281R007","name":"Genarp centrum"},"geometry":{"type":"Polygon","coordinates":[[[13.40979,55.61104],[13.41182,55.61021],[13.41312,55.60938],[13.41452,55.60781],[13.41427,55.6075],[13.41586,55.60652],[13.41695,55.60517],[13.41977,55.60368],[13.42135,55.60176],[13.42166,55.60033],[13.42112,55.59616],[13.42056,55.59491],[13.42042,55.59321],[13.41931,55.59154],[13.41731,55.59013],[13.41467,55.58916],[13.41151,55.58867],[13.40758,55.58881],[13.4063,55.58751],[13.40451,55.58633],[13.40238,55.5855],[13.39996,55.58499],[13.39715,55.58482],[13.39441,55.58505],[13.39203,55.58563],[13.39034,55.58633],[13.38792,55.58661],[13.38561,55.58717],[13.38038,55.58953],[13.37834,55.59124],[13.37685,55.59512],[13.37645,55.59769],[13.37681,55.59935],[13.37173,55.60086],[13.36995,55.60186],[13.36866,55.60311],[13.36796,55.6045],[13.3679,55.60592],[13.36846,55.60761],[13.36949,55.6089],[13.37156,55.61028],[13.37487,55.61134],[13.37674,55.61159],[13.37925,55.6116],[13.38447,55.61124],[13.38728,55.61071],[13.38894,55.61188],[13.3905,55.61258],[13.39283,55.61322],[13.39537,55.61351],[13.39735,55.61349],[13.39938,55.61325],[13.40123,55.61281],[13.40304,55.6121],[13.40632,55.61175],[13.40979,55.61104]]]}},{"type":"Feature","id":"1281R008","properties":{"code":"1281R008","name":"Genarps omnejd"},"geometry":{"type":"Polygon","coordinates":[[[13.40312,55.63878],[13.4034,55.63768],[13.40391,55.63702],[13.40424,55.63703],[13.40529,55.63247],[13.40705,55.63246],[13.4113,55.63303],[13.4146,55.6327],[13.41559,55.63226],[13.41528,55.63192],[13.41624,55.63177],[13.42487,55.63171],[13.42804,55.63129],[13.43096,55.63156],[13.433,55.63205],[13.4339,55.6316],[13.43427,55.63078],[13.43558,55.63068],[13.43572,55.63036],[13.43642,55.63037],[13.43645,55.62939],[13.43708,55.62938],[13.43707,55.62855],[13.43638,55.62817],[13.43636,55.62792],[13.43524,55.62754],[13.43446,55.62684],[13.43429,55.62638],[13.4352,55.6264],[13.43671,55.62505],[13.43697,55.62498],[13.4389,55.62539],[13.43946,55.62663],[13.44405,55.62713],[13.44495,55.62743],[13.44965,55.62662],[13.45346,55.62551],[13.45384,55.62228],[13.46101,55.6123],[13.45164,55.61368],[13.45009,55.59956],[13.45479,55.60196],[13.46213,55.5936],[13.46257,55.59019],[13.46336,55.59023],[13.46487,55.5899],[13.46803,55.59064],[13.46826,55.59031],[13.46811,55.58986],[13.46854,55.58958],[13.46999,55.58891],[13.47118,55.58897],[13.47176,55.58871],[13.47166,55.58779],[13.47209,55.58727],[13.47445,55.58708],[13.47604,55.58724],[13.47786,55.58703],[13.48109,55.58576],[13.4811,55.58503],[13.48192,55.58484],[13.48307,55.58419],[13.48341,55.58335],[13.48472,55.58191],[13.48488,55.58157],[13.48455,55.58019],[13.48416,55.57974],[13.48443,55.57894],[13.4868,55.57963],[13.48903,55.57957],[13.48964,55.57915],[13.49047,55.57914],[13.49125,55.57879],[13.49641,55.57877],[13.49759,55.57938],[13.49792,55.58023],[13.50176,55.58123],[13.50229,55.58236],[13.50348,55.58242],[13.50574,55.58312],[13.50829,55.5829],[13.51062,55.57946],[13.5085,55.57985],[13.50784,55.57986],[13.50689,55.57959],[13.50419,55.57992],[13.50103,55.57986],[13.50055,55.57915],[13.5007,55.57778],[13.50164,55.57801],[13.50469,55.57428],[13.50381,55.57417],[13.50558,55.57273],[13.5037,55.57415],[13.49926,55.57372],[13.49916,55.56877],[13.5001,55.56864],[13.50234,55.56886],[13.50372,55.56882],[13.50679,55.56839],[13.50695,55.56738],[13.50645,55.56564],[13.50532,55.56443],[13.50427,55.56413],[13.50393,55.56218],[13.50669,55.56015],[13.50715,55.55806],[13.50825,55.55785],[13.50779,55.55644],[13.50521,55.5536],[13.50468,55.55085],[13.50415,55.55057],[13.5016,55.55061],[13.50093,55.54935],[13.49766,55.5452],[13.4962,55.54405],[13.49404,55.54309],[13.49057,55.54396],[13.48518,55.54341],[13.48529,55.54188],[13.48266,55.53959],[13.48321,55.53891],[13.48342,55.53719],[13.48166,55.53694],[13.48106,55.53613],[13.48134,55.53554],[13.47928,55.53408],[13.48696,55.52886],[13.48169,55.52742],[13.47851,55.53015],[13.4677,55.52872],[13.46648,55.52825],[13.46488,55.52715],[13.46527,55.52649],[13.46373,55.52676],[13.46328,55.52645],[13.46306,55.52586],[13.46251,55.52557],[13.46028,55.52542],[13.46006,55.52564],[13.45956,55.52564],[13.4594,55.52638],[13.45906,55.52652],[13.45828,55.52656],[13.457,55.52624],[13.4559,55.52623],[13.45599,55.52689],[13.45658,55.5274],[13.45568,55.52909],[13.44897,55.53129],[13.44301,55.52901],[13.4363,55.52948],[13.43049,55.52497],[13.42646,55.52708],[13.4163,55.52856],[13.40189,55.52522],[13.3967,55.53301],[13.3933,55.53474],[13.39247,55.5361],[13.39268,55.53661],[13.39244,55.53703],[13.39083,55.53877],[13.38975,55.53916],[13.38808,55.53903],[13.38713,55.54037],[13.38147,55.54091],[13.38036,55.54563],[13.38195,55.54618],[13.38207,55.54658],[13.37976,55.54855],[13.37773,55.5585],[13.37738,55.55784],[13.375,55.55651],[13.37308,55.55795],[13.36722,55.55964],[13.3667,55.55903],[13.36637,55.55912],[13.36573,55.55854],[13.36601,55.55832],[13.36569,55.55783],[13.36545,55.55786],[13.36588,55.55589],[13.36533,55.55787],[13.36163,55.55532],[13.3613,55.55484],[13.34917,55.55765],[13.34527,55.55078],[13.34086,55.54983],[13.34128,55.55234],[13.34266,55.55447],[13.34256,55.55677],[13.34141,55.55688],[13.33955,55.55665],[13.33778,55.5568],[13.33742,55.55912],[13.34304,55.55932],[13.34854,55.5602],[13.34828,55.56124],[13.34722,55.5612],[13.34609,55.56142],[13.34413,55.56074],[13.34406,55.56031],[13.34376,55.56026],[13.34312,55.56133],[13.34067,55.56289],[13.33612,55.56435],[13.33565,55.56555],[13.33531,55.56579],[13.33473,55.56584],[13.33444,55.56626],[13.33508,55.56678],[13.33476,55.5675],[13.33516,55.56852],[13.33488,55.5696],[13.33405,55.57086],[13.33134,55.56983],[13.33048,55.57027],[13.32969,55.56986],[13.33061,55.56875],[13.33145,55.56844],[13.33307,55.56654],[13.33233,55.56653],[13.33272,55.56616],[13.33182,55.56574],[13.33216,55.56501],[13.33331,55.56463],[13.33311,55.56362],[13.33251,55.56364],[13.3321,55.563],[13.3311,55.5625],[13.31599,55.56184],[13.31361,55.56451],[13.32197,55.57118],[13.32285,55.57221],[13.31973,55.57348],[13.31883,55.57518],[13.31877,55.57673],[13.31829,55.57803],[13.3192,55.5785],[13.31886,55.57935],[13.3167,55.58009],[13.31636,55.58074],[13.3168,55.58137],[13.31669,55.5816],[13.31629,55.58196],[13.31511,55.58243],[13.3139,55.58441],[13.31442,55.58454],[13.31428,55.58532],[13.31494,55.58683],[13.31279,55.58772],[13.30947,55.58841],[13.3058,55.59024],[13.3049,55.59096],[13.30223,55.59246],[13.30045,55.59308],[13.29656,55.59849],[13.29561,55.60242],[13.29575,55.60279],[13.29909,55.60259],[13.30023,55.60447],[13.30236,55.60567],[13.30381,55.6058],[13.30788,55.614],[13.31112,55.6134],[13.31334,55.61618],[13.31833,55.61289],[13.31808,55.61257],[13.32161,55.61159],[13.33145,55.61008],[13.34201,55.60989],[13.34429,55.61449],[13.34368,55.61468],[13.34385,55.61503],[13.3445,55.61492],[13.34563,55.61727],[13.3465,55.61692],[13.34721,55.61569],[13.34754,55.61557],[13.348,55.61602],[13.35012,55.61605],[13.35133,55.61556],[13.35149,55.61529],[13.35402,55.61527],[13.35468,55.61831],[13.35462,55.61976],[13.35244,55.62265],[13.35153,55.62973],[13.35655,55.63173],[13.36703,55.63262],[13.36726,55.63226],[13.37869,55.63331],[13.38637,55.6329],[13.39249,55.63311],[13.39241,55.63347],[13.40047,55.63507],[13.40057,55.63888],[13.40312,55.63878]],[[13.39554,55.61352],[13.39341,55.61332],[13.39102,55.61276],[13.38894,55.61188],[13.38728,55.61071],[13.38447,55.61124],[13.37799,55.61164],[13.37545,55.61144],[13.37313,55.6109],[13.37066,55.60979],[13.36919,55.6086],[13.36831,55.60727],[13.36785,55.60521],[13.36843,55.60343],[13.37034,55.6016],[13.37277,55.60046],[13.37562,55.59982],[13.37681,55.59935],[13.37649,55.59724],[13.37759,55.59271],[13.37834,55.59124],[13.37995,55.5898],[13.38452,55.58758],[13.38614,55.587],[13.39034,55.58633],[13.39203,55.58563],[13.39383,55.58516],[13.39776,55.58482],[13.40054,55.58507],[13.40356,55.5859],[13.40586,55.58715],[13.40758,55.58881],[13.41084,55.58865],[13.41339,55.58889],[13.41582,55.5895],[13.41822,55.59066],[13.4196,55.59185],[13.42042,55.59321],[13.42056,55.59491],[13.42119,55.5965],[13.42164,55.60067],[13.42119,55.60209],[13.42011,55.6034],[13.41852,55.60449],[13.41695,55.60517],[13.41586,55.60652],[13.41427,55.6075],[13.41454,55.60778],[13.41346,55.60909],[13.41137,55.61043],[13.40802,55.61147],[13.40304,55.6121],[13.40123,55.61281],[13.39938,55.61325],[13.39554,55.61352]]]}},{"type":"Feature","id":"1281R009","properties":{"code":"1281R009","name":"Kobjer-Öresundsvägen"},"geometry":{"type":"Polygon","coordinates":[[[13.18411,55.71825],[13.18548,55.71146],[13.18018,55.71123],[13.17985,55.71083],[13.17545,55.71195],[13.17667,55.71346],[13.16952,55.71477],[13.16557,55.71491],[13.16384,55.71555],[13.16711,55.71744],[13.17117,55.71904],[13.17624,55.71963],[13.18018,55.71977],[13.18327,55.72027],[13.18411,55.71825]]]}},{"type":"Feature","id":"1281R028","properties":{"code":"1281R028","name":"Stora Råby-Norränga"},"geometry":{"type":"Polygon","coordinates":[[[13.25749,55.69917],[13.25884,55.69407],[13.25829,55.69387],[13.25819,55.69251],[13.25771,55.69133],[13.25536,55.68836],[13.25322,55.68702],[13.25015,55.68604],[13.24881,55.68519],[13.24698,55.68441],[13.24385,55.68369],[13.24083,55.68353],[13.23915,55.68195],[13.23618,55.68061],[13.23401,55.68013],[13.23124,55.67987],[13.2294,55.67944],[13.22751,55.67922],[13.22332,55.67916],[13.21927,55.67968],[13.21725,55.67888],[13.21527,55.6784],[13.213,55.67814],[13.21094,55.67812],[13.2088,55.67832],[13.20715,55.67869],[13.2101,55.68187],[13.20712,55.68265],[13.20505,55.68176],[13.20301,55.68224],[13.1995,55.68203],[13.20123,55.68568],[13.19898,55.68698],[13.21304,55.69413],[13.21547,55.69619],[13.21704,55.69855],[13.23405,55.69423],[13.24082,55.69224],[13.24142,55.69297],[13.24157,55.69412],[13.24619,55.69433],[13.24877,55.69413],[13.24952,55.69422],[13.24865,55.69627],[13.24706,55.69838],[13.25302,55.69861],[13.25749,55.69917]]]}},{"type":"Feature","id":"1281R029","properties":{"code":"1281R029","name":"Svenshögskolan-Utsättaregränden"},"geometry":{"type":"Polygon","coordinates":[[[13.20676,55.72828],[13.21567,55.72711],[13.21866,55.72721],[13.22202,55.72792],[13.22357,55.72676],[13.22414,55.72539],[13.22663,55.72537],[13.22493,55.72304],[13.22334,55.72324],[13.21378,55.72319],[13.21311,55.72407],[13.20494,55.72417],[13.20498,55.7283],[13.20676,55.72828]]]}},{"type":"Feature","id":"1281R030","properties":{"code":"1281R030","name":"Södra Sanby omnejd"},"geometry":{"type":"Polygon","coordinates":[[[13.33122,55.75422],[13.33427,55.75239],[13.33599,55.75189],[13.33794,55.75059],[13.34458,55.75003],[13.34633,55.75041],[13.34898,55.74991],[13.34983,55.74993],[13.35189,55.75064],[13.35381,55.75067],[13.35922,55.74873],[13.36005,55.74649],[13.3612,55.74551],[13.36237,55.74484],[13.36406,55.74514],[13.36617,55.74334],[13.36673,55.74312],[13.36701,55.74315],[13.36734,55.74374],[13.36804,55.7442],[13.36889,55.74391],[13.37008,55.74395],[13.3719,55.74352],[13.37285,55.7435],[13.37299,55.74278],[13.37335,55.74269],[13.37394,55.74287],[13.3748,55.74222],[13.37602,55.74226],[13.37805,55.74285],[13.37986,55.74269],[13.38329,55.7427],[13.38559,55.74231],[13.38649,55.74248],[13.38811,55.74325],[13.38975,55.74282],[13.39091,55.74362],[13.39314,55.74428],[13.39501,55.74446],[13.39933,55.74425],[13.40002,55.74407],[13.40151,55.74296],[13.40231,55.74267],[13.40387,55.74255],[13.40494,55.74219],[13.40846,55.74234],[13.40981,55.74215],[13.41296,55.74008],[13.41587,55.73956],[13.41508,55.73873],[13.4154,55.73846],[13.41632,55.73846],[13.41624,55.73906],[13.4169,55.73952],[13.4173,55.73945],[13.41742,55.73899],[13.41837,55.73919],[13.41906,55.73909],[13.41938,55.73894],[13.41947,55.73825],[13.41899,55.73698],[13.41965,55.73639],[13.4207,55.73593],[13.42246,55.73571],[13.42416,55.73458],[13.42487,55.73438],[13.42596,55.73432],[13.42689,55.73497],[13.42744,55.7351],[13.42767,55.73496],[13.42755,55.73349],[13.42821,55.73322],[13.42873,55.73355],[13.42901,55.7344],[13.42934,55.73448],[13.43064,55.73409],[13.43134,55.73431],[13.43198,55.7342],[13.43401,55.73303],[13.4382,55.73223],[13.43956,55.73169],[13.4404,55.7306],[13.44203,55.73006],[13.443,55.72929],[13.4452,55.72949],[13.4467,55.72934],[13.45044,55.7304],[13.45325,55.73],[13.45454,55.73028],[13.45707,55.73042],[13.45793,55.73012],[13.45891,55.72946],[13.46215,55.72921],[13.46278,55.72938],[13.46336,55.73004],[13.4647,55.73061],[13.46667,55.73044],[13.46751,55.72958],[13.46911,55.729],[13.47038,55.72803],[13.47431,55.72676],[13.4746,55.72558],[13.47502,55.72517],[13.47614,55.72476],[13.47818,55.72453],[13.47905,55.7236],[13.48046,55.72368],[13.48137,55.72275],[13.48551,55.72256],[13.48637,55.72175],[13.48697,55.7216],[13.48959,55.72214],[13.48983,55.72292],[13.49013,55.72308],[13.49248,55.72317],[13.49301,55.72294],[13.49371,55.72222],[13.49539,55.72186],[13.49872,55.7217],[13.49871,55.72051],[13.49908,55.72019],[13.50526,55.71873],[13.506,55.71817],[13.50645,55.71665],[13.50536,55.71549],[13.50591,55.71493],[13.50863,55.70555],[13.49919,55.70086],[13.4581,55.7012],[13.4405,55.70086],[13.43884,55.70382],[13.40628,55.7152],[13.40323,55.71042],[13.40242,55.70993],[13.40024,55.71013],[13.40019,55.71269],[13.39822,55.71274],[13.39846,55.71321],[13.39599,55.71367],[13.39433,55.71075],[13.39194,55.70764],[13.38996,55.70637],[13.3897,55.70466],[13.38831,55.70205],[13.38884,55.70206],[13.38935,55.69952],[13.38704,55.69899],[13.37229,55.69722],[13.37691,55.69436],[13.37706,55.69377],[13.37989,55.69212],[13.38084,55.69054],[13.38183,55.69025],[13.38587,55.6903],[13.38455,55.688],[13.37529,55.68904],[13.36319,55.69177],[13.31337,55.68817],[13.31195,55.68748],[13.30275,55.68693],[13.30094,55.68554],[13.29002,55.68318],[13.29009,55.67683],[13.28993,55.67696],[13.28992,55.67684],[13.28876,55.67688],[13.28861,55.67749],[13.28702,55.67837],[13.27749,55.67871],[13.27866,55.68111],[13.26808,55.68467],[13.2671,55.68422],[13.26694,55.68393],[13.25913,55.68197],[13.25795,55.68012],[13.25683,55.68024],[13.25495,55.67986],[13.25055,55.67969],[13.23729,55.67771],[13.23489,55.6772],[13.23483,55.67654],[13.22335,55.67734],[13.21837,55.67617],[13.21728,55.67619],[13.20821,55.67842],[13.21076,55.67813],[13.213,55.67814],[13.2164,55.67865],[13.21927,55.67968],[13.22266,55.6792],[13.22613,55.67916],[13.22876,55.67934],[13.23124,55.67987],[13.23497,55.6803],[13.23674,55.68079],[13.23871,55.68168],[13.2399,55.68252],[13.24083,55.68353],[13.24385,55.68369],[13.2463,55.6842],[13.24835,55.68497],[13.25015,55.68604],[13.25209,55.68657],[13.25412,55.68748],[13.25567,55.68865],[13.25771,55.69133],[13.25819,55.69251],[13.25829,55.69387],[13.2607,55.69503],[13.26342,55.69733],[13.26448,55.69881],[13.26483,55.70026],[13.26455,55.70308],[13.26501,55.70508],[13.2645,55.70663],[13.26367,55.70772],[13.26204,55.70899],[13.26053,55.70973],[13.25847,55.71037],[13.25848,55.71173],[13.25809,55.71275],[13.25559,55.71601],[13.2563,55.71709],[13.25662,55.7182],[13.25627,55.72107],[13.25937,55.72192],[13.26272,55.72248],[13.26484,55.72115],[13.26537,55.72169],[13.26751,55.72273],[13.27614,55.72643],[13.279,55.72633],[13.28845,55.72107],[13.29655,55.73143],[13.30075,55.73942],[13.30014,55.74079],[13.29823,55.74328],[13.29845,55.74544],[13.30532,55.7494],[13.31248,55.75165],[13.31632,55.75257],[13.32224,55.75315],[13.32801,55.75334],[13.33122,55.75422]],[[13.33062,55.74366],[13.32724,55.7432],[13.32451,55.74226],[13.32232,55.74082],[13.32106,55.73906],[13.32081,55.73761],[13.32133,55.73528],[13.32129,55.73408],[13.3225,55.73174],[13.32259,55.73015],[13.32206,55.72819],[13.32275,55.72616],[13.32208,55.72487],[13.32195,55.72348],[13.31993,55.72214],[13.31881,55.72072],[13.31838,55.71919],[13.3187,55.71751],[13.31697,55.71684],[13.31525,55.71577],[13.31375,55.71433],[13.31294,55.7126],[13.31299,55.71049],[13.31334,55.70943],[13.31435,55.7081],[13.31565,55.70711],[13.31527,55.70575],[13.3155,55.70432],[13.31653,55.70267],[13.31796,55.70147],[13.31985,55.70054],[13.32208,55.69987],[13.3245,55.69948],[13.32706,55.69945],[13.33353,55.70057],[13.33671,55.69833],[13.3386,55.69746],[13.34035,55.69692],[13.34284,55.69651],[13.34674,55.6963],[13.35099,55.6964],[13.35342,55.69691],[13.35532,55.69761],[13.35712,55.69867],[13.35831,55.69979],[13.36075,55.70012],[13.36319,55.70085],[13.36511,55.70184],[13.36624,55.70277],[13.36743,55.70461],[13.36758,55.70651],[13.36636,55.70864],[13.36431,55.71012],[13.36527,55.71069],[13.37035,55.71243],[13.37766,55.7154],[13.38011,55.71701],[13.38091,55.71802],[13.3814,55.71942],[13.38127,55.72083],[13.38066,55.72199],[13.38141,55.72409],[13.38114,55.72587],[13.3799,55.72751],[13.37824,55.72864],[13.3762,55.72948],[13.37106,55.73091],[13.36895,55.73117],[13.36676,55.73118],[13.36468,55.73162],[13.36193,55.7318],[13.3587,55.73149],[13.35598,55.7307],[13.35518,55.73099],[13.35473,55.73239],[13.35395,55.73341],[13.35155,55.73505],[13.3482,55.73608],[13.34346,55.7364],[13.34307,55.73676],[13.34274,55.73801],[13.3421,55.73902],[13.34017,55.74097],[13.3385,55.74209],[13.3364,55.74295],[13.33457,55.74339],[13.33062,55.74366]]]}},{"type":"Feature","id":"1281R031","properties":{"code":"1281R031","name":"Södra Sandby centrum"},"geometry":{"type":"Polygon","coordinates":[[[13.34377,55.73632],[13.34632,55.73631],[13.3482,55.73608],[13.35155,55.73505],[13.35395,55.73341],[13.35473,55.73239],[13.35518,55.73099],[13.35598,55.7307],[13.35934,55.73159],[13.36332,55.73176],[13.36676,55.73118],[13.36895,55.73117],[13.3709,55.73094],[13.3762,55.72948],[13.37828,55.72863],[13.37988,55.72753],[13.38096,55.72622],[13.38142,55.72483],[13.38123,55.72324],[13.38066,55.72199],[13.38136,55.7205],[13.38134,55.71908],[13.38089,55.718],[13.37979,55.71672],[13.37762,55.71538],[13.37035,55.71243],[13.36527,55.71069],[13.36431,55.71012],[13.36636,55.70864],[13.36758,55.70651],[13.36729,55.70427],[13.36583,55.70239],[13.36414,55.70128],[13.36255,55.70061],[13.36075,55.70012],[13.35831,55.69979],[13.35674,55.6984],[13.35467,55.69733],[13.35231,55.69663],[13.34962,55.69628],[13.34284,55.69651],[13.3398,55.69706],[13.33671,55.69833],[13.33353,55.70057],[13.32831,55.69957],[13.3258,55.69942],[13.32265,55.69975],[13.31985,55.70054],[13.31755,55.70176],[13.31603,55.70333],[13.31527,55.70538],[13.31565,55.70711],[13.31378,55.70873],[13.31299,55.71049],[13.31294,55.7126],[13.31352,55.71401],[13.31564,55.71607],[13.31697,55.71684],[13.3187,55.71751],[13.31838,55.71919],[13.31881,55.72072],[13.31993,55.72214],[13.32195,55.72348],[13.32208,55.72487],[13.32275,55.72616],[13.32206,55.72819],[13.32259,55.73015],[13.3225,55.73174],[13.32136,55.73374],[13.32082,55.73795],[13.32126,55.73949],[13.32265,55.74111],[13.32498,55.74248],[13.32799,55.74336],[13.33123,55.74367],[13.33514,55.74328],[13.33757,55.74253],[13.33983,55.74125],[13.3421,55.73902],[13.34274,55.73801],[13.34307,55.73676],[13.34377,55.73632]]]}},{"type":"Feature","id":"1281R032","properties":{"code":"1281R032","name":"Tuna-Galjevången"},"geometry":{"type":"Polygon","coordinates":[[[13.20313,55.71511],[13.20486,55.71359],[13.20649,55.70975],[13.20815,55.71014],[13.20983,55.70782],[13.21216,55.70769],[13.21309,55.70746],[13.2123,55.70567],[13.21828,55.70721],[13.22041,55.70748],[13.21847,55.7004],[13.21704,55.69855],[13.20045,55.70136],[13.20124,55.703],[13.20121,55.70507],[13.19662,55.70761],[13.19634,55.70799],[13.19404,55.70908],[13.193,55.70917],[13.19287,55.7104],[13.19329,55.71098],[13.19946,55.71484],[13.20031,55.71436],[13.20313,55.71511]]]}},{"type":"Feature","id":"1281R033","properties":{"code":"1281R033","name":"Vallkärra-Stångby"},"geometry":{"type":"Polygon","coordinates":[[[13.21212,55.75946],[13.21357,55.75785],[13.21441,55.75557],[13.21553,55.75477],[13.21737,55.7541],[13.21873,55.75334],[13.21981,55.75245],[13.22073,55.75113],[13.22103,55.75003],[13.22095,55.7483],[13.22052,55.74725],[13.21956,55.7461],[13.21926,55.74417],[13.2183,55.74283],[13.21676,55.74167],[13.21426,55.74062],[13.21186,55.7401],[13.2093,55.73995],[13.20647,55.74009],[13.20409,55.74057],[13.20202,55.74134],[13.19985,55.74047],[13.19749,55.73997],[13.19554,55.73982],[13.19084,55.73988],[13.19104,55.73867],[13.19272,55.73852],[13.19775,55.73761],[13.1983,55.73773],[13.19837,55.7366],[13.20061,55.73199],[13.1942,55.73183],[13.19401,55.73249],[13.19064,55.73201],[13.1902,55.73338],[13.18717,55.73308],[13.18782,55.73161],[13.18516,55.73124],[13.18439,55.73135],[13.18672,55.73427],[13.18363,55.73458],[13.17591,55.73362],[13.17388,55.73879],[13.16874,55.74077],[13.15775,55.73975],[13.15682,55.74117],[13.15656,55.74281],[13.15699,55.74425],[13.15804,55.74559],[13.16022,55.74704],[13.16249,55.74787],[13.16426,55.74898],[13.16637,55.74977],[13.16875,55.75028],[13.17064,55.75047],[13.17468,55.75023],[13.17479,55.75055],[13.17401,55.75163],[13.1736,55.75282],[13.17372,55.75502],[13.17522,55.75691],[13.17787,55.75836],[13.18008,55.75897],[13.18268,55.75927],[13.18717,55.75929],[13.19028,55.75896],[13.19297,55.75988],[13.19632,55.76031],[13.19958,55.76149],[13.20269,55.76191],[13.20555,55.76182],[13.20803,55.76138],[13.21022,55.7606],[13.21212,55.75946]]]}},{"type":"Feature","id":"1281R034","properties":{"code":"1281R034","name":"Veberöd centrum"},"geometry":{"type":"Polygon","coordinates":[[[13.49833,55.64939],[13.50574,55.64733],[13.50829,55.64607],[13.51666,55.64457],[13.51914,55.64371],[13.5206,55.64298],[13.52237,55.6415],[13.52322,55.63978],[13.52319,55.63834],[13.52247,55.63591],[13.52185,55.6348],[13.5236,55.63422],[13.52549,55.63322],[13.52688,55.63198],[13.5276,55.63082],[13.52791,55.62931],[13.52738,55.62753],[13.52617,55.62613],[13.52405,55.62481],[13.52449,55.62247],[13.52434,55.62067],[13.52522,55.61953],[13.5257,55.61805],[13.52516,55.61583],[13.52383,55.61436],[13.52297,55.61281],[13.5216,55.61164],[13.51928,55.61053],[13.51577,55.60973],[13.51319,55.60958],[13.51008,55.6099],[13.50645,55.60915],[13.50309,55.60914],[13.5006,55.60954],[13.49702,55.61052],[13.49548,55.61115],[13.49347,55.61253],[13.49247,55.61386],[13.49026,55.62159],[13.48783,55.62208],[13.48506,55.62313],[13.48367,55.62387],[13.48251,55.6248],[13.47889,55.62539],[13.47616,55.6265],[13.47416,55.62806],[13.47315,55.62995],[13.47132,55.63076],[13.4701,55.6316],[13.46946,55.63168],[13.46947,55.63221],[13.46861,55.63357],[13.4684,55.63499],[13.46866,55.63608],[13.46955,55.63741],[13.47089,55.63859],[13.46978,55.63956],[13.46911,55.64053],[13.46843,55.6421],[13.46831,55.64388],[13.46912,55.6456],[13.47124,55.6473],[13.47424,55.64848],[13.47745,55.64904],[13.48024,55.64903],[13.48306,55.64928],[13.48486,55.64919],[13.48809,55.6495],[13.49112,55.64925],[13.49499,55.64969],[13.49833,55.64939]]]}},{"type":"Feature","id":"1281R035","properties":{"code":"1281R035","name":"Vildanden"},"geometry":{"type":"Polygon","coordinates":[[[13.17215,55.70985],[13.1657,55.70707],[13.16382,55.70838],[13.16927,55.71135],[13.17215,55.70985]]]}},{"type":"Feature","id":"1281R036","properties":{"code":"1281R036","name":"Värpinge-Klosters Fälad"},"geometry":{"type":"Polygon","coordinates":[[[13.15128,55.71823],[13.16236,55.7155],[13.16384,55.71555],[13.16557,55.71491],[13.16952,55.71477],[13.17667,55.71346],[13.17385,55.70997],[13.17287,55.70947],[13.16927,55.71135],[13.16382,55.70838],[13.1657,55.70707],[13.16092,55.70713],[13.16123,55.70321],[13.16265,55.69671],[13.15673,55.69584],[13.15626,55.69654],[13.15653,55.6966],[13.15566,55.69756],[13.15609,55.69771],[13.15589,55.6978],[13.15352,55.69872],[13.14948,55.69964],[13.1472,55.7009],[13.1471,55.70125],[13.14539,55.70167],[13.14426,55.70223],[13.14403,55.70211],[13.14266,55.70239],[13.14147,55.70287],[13.1411,55.70317],[13.14127,55.70339],[13.14008,55.70402],[13.13881,55.70401],[13.13817,55.70443],[13.13695,55.70474],[13.13471,55.70457],[13.13496,55.70605],[13.13619,55.70777],[13.13823,55.70913],[13.14097,55.71007],[13.14014,55.71122],[13.13975,55.71262],[13.14078,55.71722],[13.14149,55.71863],[13.14097,55.72112],[13.15128,55.71823]]]}}]}