{"type":"FeatureCollection","features":[{"type":"Feature","id":"1285R001","properties":{"code":"1285R001","name":"Backarna-Väster-Elvkullen"},"geometry":{"type":"Polygon","coordinates":[[[13.27615,55.85773],[13.27798,55.85764],[13.27737,55.85678],[13.27422,55.85543],[13.27429,55.85382],[13.27566,55.85237],[13.28266,55.85053],[13.28161,55.8496],[13.28204,55.84872],[13.28048,55.84757],[13.28497,55.8444],[13.286,55.84259],[13.28654,55.84212],[13.28757,55.84189],[13.2896,55.84183],[13.29207,55.84132],[13.29119,55.83935],[13.29452,55.83908],[13.29426,55.83463],[13.29389,55.83466],[13.29365,55.83353],[13.29728,55.83338],[13.29711,55.83256],[13.29941,55.82932],[13.29751,55.82896],[13.29072,55.82902],[13.29064,55.82986],[13.28698,55.83257],[13.28201,55.8338],[13.28147,55.83255],[13.28175,55.83137],[13.27916,55.83204],[13.27232,55.83189],[13.27228,55.83616],[13.27285,55.83883],[13.27263,55.84008],[13.26451,55.83899],[13.26414,55.83934],[13.26313,55.8451],[13.26176,55.84545],[13.26144,55.8453],[13.26109,55.84561],[13.26052,55.84718],[13.26044,55.84874],[13.26103,55.85017],[13.2631,55.85208],[13.26581,55.85328],[13.26703,55.85497],[13.26909,55.85633],[13.27259,55.85743],[13.27615,55.85773]]]}},{"type":"Feature","id":"1285R002","properties":{"code":"1285R002","name":"Berga-Öster"},"geometry":{"type":"Polygon","coordinates":[[[13.32019,55.8533],[13.32335,55.8533],[13.32245,55.85124],[13.32383,55.85023],[13.32482,55.84908],[13.32677,55.8482],[13.33,55.8479],[13.33302,55.84704],[13.33526,55.84579],[13.33656,55.84446],[13.33976,55.83821],[13.34042,55.83367],[13.34339,55.82801],[13.34347,55.82623],[13.3428,55.82483],[13.34115,55.82331],[13.3387,55.82213],[13.33508,55.82106],[13.33154,55.82038],[13.32938,55.82023],[13.32642,55.81956],[13.32383,55.81941],[13.32109,55.81965],[13.3187,55.82023],[13.31632,55.82131],[13.31422,55.8207],[13.31237,55.82042],[13.31046,55.82034],[13.30812,55.82053],[13.30607,55.81972],[13.30422,55.81929],[13.30157,55.81904],[13.29925,55.81914],[13.29796,55.81871],[13.30058,55.82238],[13.30252,55.82661],[13.30354,55.83226],[13.30209,55.83249],[13.30244,55.83392],[13.29968,55.8341],[13.30062,55.83909],[13.30362,55.83882],[13.30384,55.83958],[13.30635,55.83935],[13.31212,55.85107],[13.31367,55.85091],[13.31536,55.85189],[13.31745,55.85264],[13.3197,55.85301],[13.32019,55.8533]]]}},{"type":"Feature","id":"1285R003","properties":{"code":"1285R003","name":"Billinge-Stockamöllan-Stehag"},"geometry":{"type":"Polygon","coordinates":[[[13.37809,55.97683],[13.37617,55.97503],[13.38652,55.9687],[13.38879,55.96498],[13.38502,55.96268],[13.3826,55.9584],[13.37753,55.95207],[13.37648,55.95029],[13.37496,55.94938],[13.3739,55.94931],[13.37423,55.94918],[13.37492,55.9472],[13.37566,55.94636],[13.37668,55.94622],[13.37782,55.94444],[13.37881,55.94344],[13.38369,55.94148],[13.38399,55.94107],[13.38356,55.93964],[13.38383,55.93859],[13.38291,55.93841],[13.38127,55.94135],[13.38084,55.94118],[13.38034,55.94127],[13.3782,55.94051],[13.37823,55.93844],[13.37729,55.93857],[13.37616,55.93645],[13.37748,55.93623],[13.38194,55.9365],[13.38253,55.93706],[13.3833,55.93732],[13.38588,55.93763],[13.38881,55.94073],[13.391,55.94162],[13.39262,55.94204],[13.39529,55.94198],[13.39942,55.94233],[13.40027,55.9426],[13.40045,55.93883],[13.40083,55.93801],[13.39917,55.93748],[13.3998,55.93666],[13.3986,55.93526],[13.39847,55.93443],[13.40018,55.93421],[13.40264,55.93312],[13.40338,55.93183],[13.40271,55.93123],[13.40284,55.93086],[13.40368,55.93079],[13.40518,55.93115],[13.40816,55.93038],[13.41016,55.93115],[13.41083,55.93116],[13.41435,55.93017],[13.41705,55.92976],[13.41906,55.92924],[13.42082,55.92986],[13.42154,55.92988],[13.42211,55.92963],[13.42289,55.92884],[13.42525,55.92862],[13.42839,55.92753],[13.4299,55.92629],[13.43033,55.92504],[13.43075,55.92473],[13.43824,55.92357],[13.43926,55.92328],[13.44003,55.92277],[13.44081,55.92154],[13.44101,55.9205],[13.44223,55.91912],[13.44164,55.91819],[13.44197,55.91813],[13.44149,55.918],[13.44129,55.91744],[13.44082,55.91468],[13.44178,55.91337],[13.44273,55.91357],[13.44323,55.91333],[13.44332,55.9131],[13.44212,55.91235],[13.44228,55.91165],[13.44827,55.90634],[13.45969,55.89713],[13.43496,55.89141],[13.4329,55.89006],[13.42816,55.88896],[13.42976,55.88492],[13.4295,55.88479],[13.42989,55.88465],[13.43008,55.88422],[13.42957,55.88292],[13.42213,55.88111],[13.42336,55.87781],[13.42388,55.87786],[13.42533,55.87475],[13.43143,55.87629],[13.43184,55.87607],[13.43262,55.87489],[13.4331,55.87473],[13.4368,55.87499],[13.44028,55.87445],[13.44066,55.87425],[13.43679,55.87494],[13.43307,55.87468],[13.43255,55.87485],[13.43143,55.87624],[13.42535,55.87469],[13.42573,55.87405],[13.42576,55.87276],[13.4386,55.86895],[13.44139,55.86891],[13.44206,55.86867],[13.44318,55.86757],[13.43622,55.85772],[13.42921,55.85808],[13.42083,55.85893],[13.41716,55.865],[13.41268,55.86523],[13.4069,55.86112],[13.40024,55.85929],[13.40172,55.85823],[13.40194,55.85668],[13.4025,55.85689],[13.40395,55.85586],[13.40575,55.85348],[13.40322,55.85301],[13.40062,55.85179],[13.39926,55.85062],[13.39498,55.84879],[13.393,55.8449],[13.39386,55.84193],[13.39132,55.83899],[13.38987,55.83821],[13.38826,55.83807],[13.3878,55.83764],[13.38391,55.83576],[13.38113,55.83388],[13.37995,55.83256],[13.37276,55.83108],[13.36627,55.82913],[13.36414,55.82904],[13.363,55.83458],[13.36179,55.83663],[13.36049,55.83994],[13.36392,55.84224],[13.36418,55.84331],[13.36479,55.84337],[13.36382,55.84588],[13.36398,55.8475],[13.34413,55.84146],[13.33863,55.84026],[13.33656,55.84446],[13.33486,55.84607],[13.33302,55.84704],[13.3312,55.84764],[13.32937,55.848],[13.32677,55.8482],[13.32482,55.84908],[13.32383,55.85023],[13.32245,55.85124],[13.32335,55.8533],[13.32774,55.85382],[13.32752,55.85907],[13.34314,55.87197],[13.33735,55.87405],[13.3334,55.87494],[13.33202,55.8742],[13.33249,55.87384],[13.33112,55.87255],[13.32958,55.87234],[13.32944,55.87125],[13.32795,55.86959],[13.3273,55.86956],[13.3253,55.87086],[13.319,55.86889],[13.31649,55.8724],[13.31925,55.87274],[13.319,55.8733],[13.31997,55.87347],[13.31996,55.87435],[13.32057,55.87478],[13.31943,55.87515],[13.31926,55.87612],[13.31948,55.87632],[13.31954,55.87896],[13.32102,55.88001],[13.323,55.88052],[13.32451,55.88062],[13.32711,55.88045],[13.33659,55.88192],[13.33572,55.88548],[13.34038,55.88663],[13.34095,55.88657],[13.34094,55.88691],[13.3402,55.88744],[13.34028,55.88821],[13.33799,55.88844],[13.3355,55.89029],[13.33677,55.89087],[13.33202,55.89343],[13.33167,55.89343],[13.33141,55.89516],[13.32956,55.89503],[13.32916,55.89429],[13.3275,55.89408],[13.32641,55.89828],[13.3255,55.8983],[13.32542,55.89844],[13.32639,55.89862],[13.31954,55.90643],[13.32716,55.90751],[13.32859,55.90849],[13.33151,55.91242],[13.33069,55.91291],[13.33017,55.91413],[13.3272,55.91792],[13.32574,55.91709],[13.32383,55.91778],[13.32073,55.91566],[13.31925,55.91555],[13.31808,55.91691],[13.3173,55.91623],[13.31682,55.9167],[13.31403,55.91433],[13.31134,55.91685],[13.3131,55.9177],[13.30815,55.92007],[13.30782,55.92113],[13.30977,55.92165],[13.30641,55.92383],[13.30434,55.92259],[13.30241,55.92365],[13.29937,55.92108],[13.28391,55.91605],[13.27988,55.9181],[13.27684,55.92036],[13.27595,55.92288],[13.29583,55.93792],[13.29851,55.94212],[13.29203,55.94322],[13.29206,55.94311],[13.26943,55.94647],[13.26751,55.95281],[13.27438,55.9564],[13.27701,55.95867],[13.2743,55.96265],[13.27606,55.96527],[13.28296,55.96287],[13.29083,55.96461],[13.29385,55.97171],[13.30388,55.97563],[13.31028,55.97483],[13.31067,55.97625],[13.31093,55.97626],[13.31092,55.97753],[13.31425,55.98023],[13.31765,55.98482],[13.32034,55.98662],[13.32292,55.99027],[13.32914,55.99663],[13.33604,56.00672],[13.36587,56.00319],[13.37919,56.00135],[13.3808,56.00099],[13.38055,56.00017],[13.38232,55.99974],[13.38349,55.99895],[13.38895,55.99138],[13.37809,55.97683]]]}},{"type":"Feature","id":"1285R004","properties":{"code":"1285R004","name":"Eslöv centrum"},"geometry":{"type":"Polygon","coordinates":[[[13.29207,55.84132],[13.30384,55.83958],[13.30362,55.83882],[13.30062,55.83909],[13.29968,55.8341],[13.30244,55.83392],[13.30209,55.83249],[13.30354,55.83226],[13.3032,55.83025],[13.3016,55.83048],[13.29941,55.82932],[13.29711,55.83256],[13.29728,55.83338],[13.29365,55.83353],[13.29389,55.83466],[13.29426,55.83463],[13.29452,55.83908],[13.29119,55.83935],[13.29207,55.84132]]]}},{"type":"Feature","id":"1285R005","properties":{"code":"1285R005","name":"Eslöv norr"},"geometry":{"type":"Polygon","coordinates":[[[13.32353,55.85474],[13.32335,55.8533],[13.32019,55.8533],[13.3197,55.85301],[13.31745,55.85264],[13.31536,55.85189],[13.31367,55.85091],[13.31212,55.85107],[13.30635,55.83935],[13.30384,55.83958],[13.30077,55.84011],[13.30421,55.84926],[13.30449,55.8531],[13.30627,55.8571],[13.30667,55.86101],[13.30634,55.86261],[13.30997,55.86261],[13.31316,55.86199],[13.31527,55.86113],[13.31723,55.85975],[13.32036,55.85854],[13.32197,55.85745],[13.32306,55.85613],[13.32353,55.85474]]]}},{"type":"Feature","id":"1285R006","properties":{"code":"1285R006","name":"Flyinge-Örtofta-Hurva"},"geometry":{"type":"Polygon","coordinates":[[[13.43621,55.8577],[13.437,55.84578],[13.43714,55.83482],[13.43902,55.83536],[13.44088,55.83387],[13.44002,55.83177],[13.43681,55.82811],[13.43948,55.82744],[13.43741,55.8248],[13.42489,55.82784],[13.42245,55.82599],[13.4277,55.81938],[13.44361,55.8229],[13.44569,55.82024],[13.44596,55.82028],[13.44823,55.82412],[13.44495,55.8183],[13.44478,55.81681],[13.4477,55.81749],[13.45294,55.81914],[13.45555,55.81949],[13.45298,55.81909],[13.44775,55.81744],[13.44481,55.81676],[13.44773,55.81387],[13.44813,55.81154],[13.44765,55.81151],[13.44798,55.81144],[13.4481,55.81069],[13.44771,55.81068],[13.44778,55.81011],[13.4482,55.81012],[13.44826,55.80998],[13.44873,55.80741],[13.4524,55.80806],[13.45266,55.80613],[13.45595,55.80632],[13.45958,55.80599],[13.45859,55.80358],[13.4607,55.80171],[13.46225,55.79919],[13.46075,55.79816],[13.46175,55.7945],[13.46896,55.79429],[13.4783,55.79354],[13.47818,55.78978],[13.47768,55.78977],[13.4774,55.78336],[13.46626,55.78395],[13.45742,55.78273],[13.45834,55.77269],[13.45886,55.76989],[13.45865,55.76986],[13.45887,55.76859],[13.45908,55.7686],[13.45553,55.76512],[13.45616,55.76521],[13.45777,55.76104],[13.4578,55.76025],[13.4573,55.76013],[13.45736,55.75926],[13.45636,55.75915],[13.45578,55.75982],[13.45295,55.75945],[13.45409,55.75757],[13.4494,55.7569],[13.43813,55.75423],[13.43806,55.75353],[13.43623,55.75357],[13.43646,55.75168],[13.42807,55.75206],[13.42384,55.74885],[13.41936,55.73895],[13.41837,55.73919],[13.41742,55.73899],[13.4173,55.73945],[13.4169,55.73952],[13.41624,55.73906],[13.41632,55.73846],[13.4154,55.73846],[13.41508,55.73873],[13.41587,55.73956],[13.41296,55.74008],[13.40981,55.74215],[13.40846,55.74234],[13.40494,55.74219],[13.40387,55.74255],[13.40231,55.74267],[13.40151,55.74296],[13.40002,55.74407],[13.39788,55.74439],[13.39501,55.74446],[13.39283,55.74423],[13.39091,55.74362],[13.38975,55.74282],[13.38811,55.74325],[13.38649,55.74248],[13.38559,55.74231],[13.38329,55.7427],[13.37986,55.74269],[13.37805,55.74285],[13.37602,55.74226],[13.3748,55.74222],[13.37394,55.74287],[13.37335,55.74269],[13.37299,55.74278],[13.37285,55.7435],[13.3719,55.74352],[13.37008,55.74395],[13.36889,55.74391],[13.36804,55.7442],[13.36734,55.74374],[13.36701,55.74315],[13.36673,55.74312],[13.36617,55.74334],[13.36406,55.74514],[13.36237,55.74484],[13.3612,55.74551],[13.36005,55.74649],[13.35922,55.74873],[13.35381,55.75067],[13.35189,55.75064],[13.34983,55.74993],[13.34898,55.74991],[13.34633,55.75041],[13.34458,55.75003],[13.33794,55.75059],[13.33599,55.75189],[13.33427,55.75239],[13.33122,55.75422],[13.32801,55.75334],[13.32224,55.75315],[13.31558,55.75244],[13.31248,55.75165],[13.30532,55.7494],[13.30244,55.74771],[13.29509,55.75072],[13.29299,55.74913],[13.28833,55.75051],[13.28728,55.75063],[13.30141,55.76598],[13.30133,55.76622],[13.30601,55.76814],[13.30453,55.76926],[13.30255,55.76959],[13.30204,55.76951],[13.30155,55.76902],[13.29876,55.77031],[13.29541,55.77255],[13.29474,55.77229],[13.29488,55.77164],[13.29442,55.77161],[13.29274,55.77264],[13.29132,55.77297],[13.29134,55.77342],[13.29227,55.7737],[13.29445,55.77339],[13.29522,55.77423],[13.29445,55.77444],[13.29281,55.77424],[13.29256,55.77465],[13.29273,55.77548],[13.29238,55.77582],[13.29162,55.77598],[13.29042,55.77574],[13.28903,55.77587],[13.28758,55.77672],[13.28631,55.77701],[13.28625,55.77806],[13.2854,55.77846],[13.28427,55.77845],[13.28328,55.77821],[13.28292,55.77764],[13.2829,55.77689],[13.28249,55.77677],[13.2813,55.77701],[13.28115,55.77738],[13.28153,55.77812],[13.28034,55.77854],[13.27949,55.77757],[13.27901,55.7777],[13.27821,55.77843],[13.27753,55.77855],[13.27387,55.77753],[13.27335,55.77766],[13.2731,55.779],[13.27258,55.779],[13.27073,55.77828],[13.26895,55.77789],[13.26638,55.77817],[13.26542,55.77896],[13.26481,55.7791],[13.26255,55.77903],[13.26126,55.77823],[13.25914,55.7775],[13.25696,55.77793],[13.25522,55.77775],[13.25214,55.77834],[13.24925,55.77773],[13.24746,55.77783],[13.24682,55.77753],[13.24526,55.77579],[13.24429,55.77544],[13.24336,55.77545],[13.24257,55.77568],[13.24078,55.77701],[13.23813,55.77824],[13.23682,55.77835],[13.23531,55.778],[13.23508,55.77713],[13.2344,55.77688],[13.23371,55.77692],[13.23238,55.7774],[13.23056,55.77952],[13.23085,55.78049],[13.23067,55.78093],[13.23005,55.78124],[13.2268,55.78208],[13.22597,55.78269],[13.22525,55.78377],[13.2241,55.78423],[13.22311,55.7844],[13.22207,55.78426],[13.21762,55.78259],[13.21641,55.78237],[13.21447,55.78281],[13.21311,55.78344],[13.21124,55.78389],[13.20874,55.78533],[13.20636,55.78604],[13.20651,55.78628],[13.20598,55.78678],[13.21456,55.78608],[13.21875,55.78931],[13.21677,55.79154],[13.21495,55.7951],[13.21303,55.81031],[13.21548,55.81361],[13.21809,55.81458],[13.21722,55.8169],[13.21869,55.81675],[13.21885,55.81998],[13.2197,55.81989],[13.21945,55.82248],[13.21898,55.8232],[13.21219,55.82489],[13.21253,55.82783],[13.20956,55.82774],[13.20956,55.82885],[13.2105,55.83278],[13.21504,55.84146],[13.2162,55.84152],[13.23466,55.84975],[13.24051,55.85194],[13.24566,55.85309],[13.24999,55.85117],[13.25768,55.84861],[13.26109,55.84561],[13.26088,55.84388],[13.26153,55.8421],[13.25842,55.84078],[13.25656,55.83919],[13.25548,55.83691],[13.25551,55.83484],[13.25622,55.83345],[13.25792,55.83194],[13.26019,55.83083],[13.26305,55.83008],[13.26371,55.828],[13.26465,55.82668],[13.2661,55.82549],[13.26855,55.82435],[13.27206,55.82351],[13.27396,55.82228],[13.27664,55.82131],[13.27915,55.82081],[13.28454,55.82042],[13.28647,55.81941],[13.28909,55.81855],[13.29099,55.8182],[13.29358,55.81807],[13.29632,55.81833],[13.29925,55.81914],[13.30157,55.81904],[13.30422,55.81929],[13.30607,55.81972],[13.30812,55.82053],[13.31046,55.82034],[13.31237,55.82042],[13.31422,55.8207],[13.31632,55.82131],[13.31819,55.82041],[13.32051,55.81975],[13.32305,55.81943],[13.32582,55.81949],[13.32938,55.82023],[13.33154,55.82038],[13.33508,55.82106],[13.33925,55.82234],[13.34112,55.82329],[13.34225,55.82419],[13.34321,55.8255],[13.34356,55.82694],[13.34312,55.82877],[13.34178,55.83079],[13.34125,55.83244],[13.34042,55.83367],[13.33976,55.83821],[13.33863,55.84026],[13.34413,55.84146],[13.36398,55.8475],[13.36382,55.84588],[13.36479,55.84337],[13.36418,55.84331],[13.36392,55.84224],[13.36049,55.83994],[13.36179,55.83663],[13.363,55.83458],[13.36414,55.82904],[13.36627,55.82913],[13.37276,55.83108],[13.37995,55.83256],[13.38113,55.83388],[13.38391,55.83576],[13.3878,55.83764],[13.38826,55.83807],[13.38987,55.83821],[13.39132,55.83899],[13.39386,55.84193],[13.393,55.8449],[13.39498,55.84879],[13.39926,55.85062],[13.40062,55.85179],[13.40322,55.85301],[13.40575,55.85348],[13.40395,55.85586],[13.4025,55.85689],[13.40194,55.85668],[13.40172,55.85823],[13.40024,55.85929],[13.4069,55.86112],[13.41268,55.86523],[13.41716,55.865],[13.42083,55.85893],[13.42921,55.85808],[13.43621,55.8577]]]}},{"type":"Feature","id":"1285R007","properties":{"code":"1285R007","name":"Karlsro-Solkullen"},"geometry":{"type":"Polygon","coordinates":[[[13.28266,55.85053],[13.30083,55.84565],[13.30263,55.84494],[13.30169,55.84305],[13.30077,55.84011],[13.29124,55.84145],[13.2896,55.84183],[13.28757,55.84189],[13.28654,55.84212],[13.286,55.84259],[13.28497,55.8444],[13.28048,55.84757],[13.28204,55.84872],[13.28161,55.8496],[13.28266,55.85053]]]}},{"type":"Feature","id":"1285R008","properties":{"code":"1285R008","name":"Löberöd-Harlösa"},"geometry":{"type":"Polygon","coordinates":[[[13.55828,55.81874],[13.55965,55.81756],[13.56142,55.81471],[13.56152,55.81175],[13.55981,55.81113],[13.56127,55.80775],[13.5747,55.80641],[13.57907,55.80553],[13.59162,55.80275],[13.59263,55.801],[13.6004,55.80159],[13.61349,55.80417],[13.61405,55.80375],[13.6191,55.80416],[13.62154,55.80371],[13.62276,55.80306],[13.62468,55.80012],[13.63117,55.79982],[13.63626,55.80009],[13.63803,55.79988],[13.64044,55.80022],[13.63956,55.7984],[13.6413,55.79872],[13.64063,55.79687],[13.6401,55.79694],[13.63789,55.7936],[13.63723,55.79369],[13.63172,55.79319],[13.63085,55.79209],[13.62853,55.79241],[13.62554,55.79253],[13.61842,55.79349],[13.61722,55.79336],[13.61446,55.7923],[13.61152,55.79144],[13.59778,55.78304],[13.58344,55.78125],[13.58122,55.77143],[13.57737,55.75992],[13.57503,55.75966],[13.5736,55.75739],[13.56998,55.75599],[13.56786,55.75244],[13.56944,55.74868],[13.57034,55.74844],[13.57235,55.74738],[13.57391,55.74692],[13.57595,55.74477],[13.56702,55.74303],[13.56583,55.74265],[13.56511,55.74106],[13.56416,55.74121],[13.5643,55.741],[13.56381,55.74009],[13.56408,55.7395],[13.5645,55.73945],[13.56545,55.73826],[13.57452,55.73785],[13.5869,55.73685],[13.58702,55.73672],[13.59039,55.73715],[13.59119,55.7385],[13.59306,55.73837],[13.59407,55.73854],[13.59519,55.73793],[13.59587,55.73784],[13.59667,55.73858],[13.59783,55.73817],[13.60302,55.73717],[13.60336,55.73692],[13.60661,55.7361],[13.60788,55.73591],[13.60805,55.73639],[13.60844,55.73636],[13.60856,55.73571],[13.60972,55.73523],[13.61144,55.73504],[13.61302,55.73417],[13.61404,55.7317],[13.61477,55.73123],[13.6145,55.73062],[13.61366,55.73006],[13.61217,55.73],[13.60951,55.72959],[13.60654,55.73057],[13.60384,55.73085],[13.59574,55.72998],[13.59601,55.72922],[13.59006,55.72781],[13.59177,55.72076],[13.59491,55.71935],[13.59643,55.71887],[13.59864,55.71723],[13.60003,55.71659],[13.59913,55.71629],[13.59784,55.71534],[13.59961,55.71444],[13.59808,55.71377],[13.59495,55.71286],[13.59378,55.71216],[13.59006,55.70832],[13.58832,55.70711],[13.5867,55.70641],[13.58314,55.70251],[13.58303,55.70159],[13.58398,55.70044],[13.58306,55.69907],[13.58309,55.69808],[13.58166,55.69779],[13.57118,55.68881],[13.56514,55.69598],[13.56061,55.69642],[13.55555,55.69761],[13.55468,55.69733],[13.55016,55.69838],[13.55003,55.6987],[13.54447,55.69908],[13.54056,55.69995],[13.52956,55.70459],[13.52554,55.70599],[13.52416,55.70744],[13.52201,55.70865],[13.52187,55.70985],[13.5214,55.71016],[13.52018,55.71006],[13.51833,55.71056],[13.5172,55.71059],[13.51531,55.71161],[13.51392,55.71207],[13.51233,55.71183],[13.51163,55.71203],[13.51028,55.71298],[13.5069,55.71473],[13.50572,55.715],[13.50538,55.71571],[13.50634,55.7164],[13.50648,55.71695],[13.50567,55.71855],[13.49908,55.72019],[13.49871,55.72051],[13.49872,55.7217],[13.49539,55.72186],[13.49371,55.72222],[13.49301,55.72294],[13.49248,55.72317],[13.49013,55.72308],[13.48983,55.72292],[13.48959,55.72214],[13.48697,55.7216],[13.48637,55.72175],[13.48551,55.72256],[13.48137,55.72275],[13.48046,55.72368],[13.47905,55.7236],[13.47818,55.72453],[13.47614,55.72476],[13.47502,55.72517],[13.4746,55.72558],[13.47431,55.72676],[13.47038,55.72803],[13.46911,55.729],[13.46751,55.72958],[13.46667,55.73044],[13.4647,55.73061],[13.46336,55.73004],[13.46278,55.72938],[13.46215,55.72921],[13.45891,55.72946],[13.45793,55.73012],[13.45707,55.73042],[13.45454,55.73028],[13.45325,55.73],[13.45044,55.7304],[13.4467,55.72934],[13.4452,55.72949],[13.443,55.72929],[13.44203,55.73006],[13.4404,55.7306],[13.43956,55.73169],[13.4382,55.73223],[13.43401,55.73303],[13.43161,55.73431],[13.43064,55.73409],[13.42934,55.73448],[13.42901,55.7344],[13.42859,55.73338],[13.428,55.73326],[13.42755,55.73349],[13.42762,55.73503],[13.42689,55.73497],[13.42596,55.73432],[13.42487,55.73438],[13.42416,55.73458],[13.42246,55.73571],[13.4207,55.73593],[13.41965,55.73639],[13.41899,55.73698],[13.41947,55.73825],[13.41936,55.73895],[13.42384,55.74885],[13.42807,55.75206],[13.43646,55.75168],[13.43623,55.75357],[13.43806,55.75353],[13.43813,55.75423],[13.4494,55.7569],[13.45409,55.75757],[13.45295,55.75945],[13.45578,55.75982],[13.45636,55.75915],[13.45736,55.75926],[13.4573,55.76013],[13.4578,55.76025],[13.45777,55.76104],[13.45616,55.76521],[13.45553,55.76512],[13.45908,55.7686],[13.45887,55.76859],[13.45865,55.76986],[13.45886,55.76989],[13.45834,55.77269],[13.45742,55.78273],[13.46626,55.78395],[13.48595,55.78283],[13.48591,55.78333],[13.48921,55.78406],[13.48893,55.78616],[13.4969,55.78218],[13.49736,55.78222],[13.50581,55.77788],[13.51087,55.77789],[13.51293,55.7788],[13.52262,55.78397],[13.52106,55.78493],[13.52018,55.78672],[13.52671,55.79127],[13.51385,55.78981],[13.5139,55.79206],[13.51255,55.79214],[13.51101,55.79329],[13.50964,55.79358],[13.50949,55.79386],[13.51029,55.79442],[13.51583,55.80292],[13.51208,55.80466],[13.51283,55.80634],[13.51679,55.8055],[13.52121,55.805],[13.52262,55.80683],[13.52617,55.80597],[13.52504,55.80812],[13.52006,55.81141],[13.53944,55.81831],[13.5401,55.81745],[13.54554,55.81934],[13.54523,55.82038],[13.55546,55.8208],[13.55591,55.81978],[13.55828,55.81874]]]}},{"type":"Feature","id":"1285R009","properties":{"code":"1285R009","name":"Marieholm"},"geometry":{"type":"Polygon","coordinates":[[[13.30641,55.92383],[13.30977,55.92165],[13.30782,55.92113],[13.30815,55.92007],[13.3131,55.9177],[13.31134,55.91685],[13.31403,55.91433],[13.31682,55.9167],[13.3173,55.91623],[13.31808,55.91691],[13.31925,55.91555],[13.32073,55.91566],[13.32383,55.91778],[13.32574,55.91709],[13.3272,55.91792],[13.33017,55.91413],[13.33069,55.91291],[13.33151,55.91242],[13.32859,55.90849],[13.32716,55.90751],[13.31954,55.90643],[13.32639,55.89862],[13.32542,55.89844],[13.3255,55.8983],[13.32641,55.89828],[13.3275,55.89408],[13.32916,55.89429],[13.32956,55.89503],[13.33141,55.89516],[13.33167,55.89343],[13.33202,55.89343],[13.33677,55.89087],[13.3355,55.89029],[13.33799,55.88844],[13.34028,55.88821],[13.3402,55.88744],[13.34094,55.88691],[13.34095,55.88657],[13.34038,55.88663],[13.33572,55.88548],[13.33659,55.88192],[13.32711,55.88045],[13.32451,55.88062],[13.323,55.88052],[13.32102,55.88001],[13.31954,55.87896],[13.31948,55.87632],[13.31926,55.87612],[13.31943,55.87515],[13.32057,55.87478],[13.31996,55.87435],[13.31997,55.87347],[13.319,55.8733],[13.31925,55.87274],[13.31649,55.8724],[13.319,55.86889],[13.3253,55.87086],[13.3273,55.86956],[13.32795,55.86959],[13.32944,55.87125],[13.32958,55.87234],[13.33112,55.87255],[13.33249,55.87384],[13.33202,55.8742],[13.3334,55.87494],[13.33735,55.87405],[13.34314,55.87197],[13.32752,55.85907],[13.32774,55.85382],[13.32335,55.8533],[13.32337,55.85544],[13.32284,55.85648],[13.32163,55.85773],[13.31986,55.85878],[13.31723,55.85975],[13.31481,55.86136],[13.31261,55.86214],[13.30876,55.86269],[13.30597,55.86258],[13.3032,55.86205],[13.3012,55.86247],[13.29923,55.86264],[13.29554,55.86242],[13.29197,55.86143],[13.28951,55.85995],[13.2863,55.85877],[13.2847,55.85764],[13.28354,55.85608],[13.28054,55.85719],[13.27676,55.85772],[13.2744,55.85767],[13.27259,55.85743],[13.26909,55.85633],[13.26703,55.85497],[13.26581,55.85328],[13.2631,55.85208],[13.26126,55.85049],[13.26039,55.8483],[13.26109,55.84561],[13.25768,55.84861],[13.24999,55.85117],[13.24566,55.85309],[13.24051,55.85194],[13.23466,55.84975],[13.2162,55.84152],[13.21503,55.84144],[13.21275,55.84212],[13.21123,55.84494],[13.20262,55.84336],[13.20094,55.84285],[13.17502,55.83882],[13.17136,55.83597],[13.17151,55.83526],[13.16755,55.83416],[13.16292,55.83432],[13.16239,55.83223],[13.16236,55.83075],[13.15221,55.83048],[13.15405,55.82893],[13.14744,55.82908],[13.14787,55.82971],[13.14617,55.82975],[13.1466,55.83289],[13.14689,55.83939],[13.14774,55.84103],[13.15094,55.84335],[13.15194,55.84433],[13.15339,55.84462],[13.15449,55.84519],[13.1583,55.84606],[13.15853,55.84956],[13.1559,55.85941],[13.14771,55.85931],[13.14643,55.85959],[13.14683,55.8583],[13.14523,55.85833],[13.14369,55.85858],[13.14544,55.86112],[13.14317,55.86143],[13.14269,55.86183],[13.14272,55.86226],[13.14222,55.8629],[13.14173,55.86267],[13.14087,55.86281],[13.13853,55.86254],[13.13761,55.86204],[13.13622,55.8623],[13.13516,55.86158],[13.13444,55.86199],[13.1342,55.86323],[13.13252,55.86301],[13.13198,55.86351],[13.1311,55.86376],[13.13249,55.866],[13.1332,55.86618],[13.13383,55.86813],[13.13232,55.86861],[13.13242,55.87146],[13.12709,55.87091],[13.12193,55.87102],[13.12056,55.87115],[13.12038,55.87176],[13.12123,55.87263],[13.11771,55.87264],[13.11744,55.8747],[13.13212,55.87491],[13.12824,55.8807],[13.12839,55.88257],[13.12673,55.88662],[13.12736,55.89004],[13.12971,55.88965],[13.13552,55.89239],[13.13954,55.8936],[13.14359,55.8938],[13.15041,55.89526],[13.14857,55.89917],[13.15153,55.90056],[13.15758,55.8984],[13.15913,55.89808],[13.16262,55.89681],[13.17234,55.89385],[13.17514,55.89254],[13.18246,55.88965],[13.18741,55.89051],[13.19342,55.89389],[13.20002,55.89545],[13.20134,55.90313],[13.20837,55.902],[13.21502,55.90794],[13.22548,55.91167],[13.22598,55.91278],[13.24035,55.91695],[13.24548,55.91398],[13.2471,55.91247],[13.24852,55.91231],[13.24971,55.91167],[13.24927,55.91115],[13.24979,55.90976],[13.24982,55.90858],[13.25047,55.90794],[13.25137,55.90764],[13.25163,55.90714],[13.25018,55.90573],[13.2493,55.9055],[13.24778,55.90198],[13.2508,55.89837],[13.25307,55.89893],[13.26831,55.8945],[13.28604,55.89205],[13.28977,55.90338],[13.29766,55.90035],[13.29792,55.90029],[13.29879,55.90094],[13.29795,55.90355],[13.29231,55.90516],[13.29102,55.90834],[13.28964,55.90925],[13.2894,55.91101],[13.28802,55.91327],[13.28605,55.91483],[13.28391,55.91605],[13.29937,55.92108],[13.30241,55.92365],[13.30434,55.92259],[13.30641,55.92383]]]}},{"type":"Feature","id":"1285R010","properties":{"code":"1285R010","name":"Rönneberga-Norrevång"},"geometry":{"type":"Polygon","coordinates":[[[13.29862,55.86264],[13.3012,55.86247],[13.3032,55.86205],[13.30634,55.86261],[13.30663,55.86168],[13.30627,55.8571],[13.30449,55.8531],[13.30421,55.84926],[13.30263,55.84494],[13.30083,55.84565],[13.27566,55.85237],[13.27429,55.85382],[13.27422,55.85543],[13.27737,55.85678],[13.27798,55.85764],[13.28083,55.85712],[13.28354,55.85608],[13.2844,55.85735],[13.28584,55.85851],[13.28776,55.85943],[13.28951,55.85995],[13.29197,55.86143],[13.29495,55.86232],[13.29862,55.86264]]]}},{"type":"Feature","id":"1285R011","properties":{"code":"1285R011","name":"Sallerup-Hällan-Bäckdala"},"geometry":{"type":"Polygon","coordinates":[[[13.26144,55.8453],[13.26176,55.84545],[13.26313,55.8451],[13.26414,55.83934],[13.26451,55.83899],[13.27263,55.84008],[13.27285,55.83883],[13.27228,55.83616],[13.27232,55.83189],[13.27916,55.83204],[13.28175,55.83137],[13.28147,55.83255],[13.28201,55.8338],[13.28698,55.83257],[13.29064,55.82986],[13.29072,55.82902],[13.29751,55.82896],[13.29999,55.82948],[13.3016,55.83048],[13.3032,55.83025],[13.30252,55.82661],[13.30117,55.82345],[13.29796,55.81871],[13.29556,55.81822],[13.29358,55.81807],[13.28965,55.81842],[13.28696,55.81921],[13.28454,55.82042],[13.27915,55.82081],[13.27559,55.82163],[13.27339,55.82258],[13.27206,55.82351],[13.26803,55.82454],[13.26568,55.82577],[13.26465,55.82668],[13.26371,55.828],[13.26305,55.83008],[13.26019,55.83083],[13.25792,55.83194],[13.25622,55.83345],[13.25551,55.83484],[13.25548,55.83691],[13.25656,55.83919],[13.25842,55.84078],[13.26153,55.8421],[13.26088,55.84388],[13.26109,55.84561],[13.26144,55.8453]]]}}]}