{"type":"FeatureCollection","features":[{"type":"Feature","id":"1286R001","properties":{"code":"1286R001","name":"Bellevue"},"geometry":{"type":"Polygon","coordinates":[[[13.80687,55.44324],[13.80784,55.43981],[13.81083,55.43653],[13.81326,55.43458],[13.81191,55.43406],[13.81504,55.43141],[13.81405,55.43101],[13.81243,55.42983],[13.80306,55.42584],[13.80302,55.42464],[13.79915,55.42473],[13.79881,55.42621],[13.79658,55.4262],[13.79647,55.42712],[13.79749,55.42741],[13.79936,55.42866],[13.80347,55.4289],[13.80324,55.4295],[13.80514,55.42985],[13.80229,55.43233],[13.79529,55.43687],[13.79317,55.43792],[13.79381,55.43856],[13.7971,55.44008],[13.79881,55.44161],[13.79981,55.44138],[13.80687,55.44324]]]}},{"type":"Feature","id":"1286R002","properties":{"code":"1286R002","name":"Edvinshem-Västra Sjöstaden-Åkesholm"},"geometry":{"type":"Polygon","coordinates":[[[13.79242,55.43795],[13.79317,55.43792],[13.79529,55.43687],[13.80081,55.43333],[13.80288,55.4319],[13.80514,55.42985],[13.80324,55.4295],[13.80347,55.4289],[13.79936,55.42866],[13.79749,55.42741],[13.79647,55.42712],[13.79658,55.4262],[13.79881,55.42621],[13.79915,55.42473],[13.79893,55.42473],[13.79965,55.4225],[13.78498,55.4222],[13.7759,55.4226],[13.76642,55.42324],[13.76674,55.42436],[13.76439,55.42777],[13.76404,55.42954],[13.76473,55.43195],[13.76544,55.43323],[13.7663,55.43422],[13.76788,55.43533],[13.76989,55.43617],[13.77167,55.43662],[13.77352,55.43685],[13.77592,55.43686],[13.77806,55.43729],[13.77763,55.43394],[13.78011,55.4349],[13.78156,55.43523],[13.78675,55.4358],[13.78906,55.43625],[13.79077,55.43694],[13.79242,55.43795]]]}},{"type":"Feature","id":"1286R003","properties":{"code":"1286R003","name":"Egna hem-Solbacken"},"geometry":{"type":"Polygon","coordinates":[[[13.81561,55.4388],[13.81827,55.4383],[13.82342,55.43836],[13.82577,55.43778],[13.82446,55.43696],[13.82447,55.43668],[13.82706,55.43452],[13.82831,55.4313],[13.82692,55.43112],[13.82002,55.43268],[13.81833,55.4325],[13.81774,55.4326],[13.81504,55.43141],[13.81191,55.43406],[13.81326,55.43459],[13.81083,55.43653],[13.80784,55.43981],[13.80687,55.44324],[13.80805,55.44353],[13.80715,55.44506],[13.81367,55.44593],[13.81431,55.44561],[13.81541,55.44255],[13.81585,55.43953],[13.81561,55.4388]]]}},{"type":"Feature","id":"1286R004","properties":{"code":"1286R004","name":"Gamla staden-Gjuteriet"},"geometry":{"type":"Polygon","coordinates":[[[13.82002,55.43268],[13.82409,55.43176],[13.82435,55.4311],[13.82442,55.42922],[13.82509,55.42765],[13.82373,55.42755],[13.82388,55.42617],[13.82427,55.42555],[13.82373,55.42182],[13.81844,55.41616],[13.81544,55.41475],[13.81215,55.41781],[13.8116,55.41934],[13.81048,55.42032],[13.80892,55.423],[13.79965,55.4225],[13.79893,55.42473],[13.80302,55.42464],[13.80306,55.42584],[13.81243,55.42983],[13.81405,55.43101],[13.81774,55.4326],[13.81833,55.4325],[13.82002,55.43268]]]}},{"type":"Feature","id":"1286R005","properties":{"code":"1286R005","name":"Glemmingebro-Löderup"},"geometry":{"type":"Polygon","coordinates":[[[14.12232,55.48031],[14.128,55.47744],[14.13898,55.47797],[14.14034,55.47573],[14.1389,55.47535],[14.13948,55.47443],[14.13887,55.47405],[14.13915,55.47326],[14.13991,55.47256],[14.14058,55.47242],[14.14186,55.47143],[14.14392,55.47091],[14.14563,55.46894],[14.14227,55.46767],[14.13886,55.46689],[14.13374,55.46589],[14.12907,55.46529],[14.13471,55.45499],[14.13439,55.45493],[14.13302,55.45108],[14.13425,55.45103],[14.13487,55.45077],[14.13622,55.44877],[14.13943,55.44939],[14.1403,55.44781],[14.14101,55.44487],[14.14685,55.43695],[14.16446,55.42951],[14.16537,55.42806],[14.16958,55.42634],[14.173,55.42619],[14.1732,55.42586],[14.17489,55.4255],[14.17769,55.42393],[14.18205,55.4225],[14.18551,55.41956],[14.18732,55.41754],[14.18922,55.4165],[14.18951,55.41655],[14.19337,55.41547],[14.19626,55.41504],[14.19917,55.41508],[14.20337,55.41479],[14.20492,55.41359],[14.20566,55.4126],[14.20748,55.40867],[14.21248,55.39994],[14.21637,55.39829],[14.38388,55.35222],[14.1685,55.1777],[14.15015,55.17743],[14.13797,55.17755],[14.12581,55.17791],[14.11368,55.17851],[14.1016,55.17936],[14.08071,55.1814],[14.06236,55.18094],[14.05019,55.18094],[14.03802,55.18118],[14.02587,55.18167],[14.01376,55.18239],[14.0017,55.18335],[13.9897,55.18456],[13.97779,55.186],[13.96597,55.18768],[13.95426,55.18959],[13.94267,55.19173],[13.93121,55.1941],[13.91991,55.1967],[13.90877,55.19952],[13.89781,55.20256],[13.88704,55.20582],[13.87647,55.20929],[13.85466,55.21724],[13.99743,55.40686],[14.00265,55.41059],[14.00396,55.41276],[14.00313,55.41292],[14.00428,55.41477],[14.00475,55.41471],[14.00518,55.41501],[14.00528,55.41664],[14.00424,55.41867],[14.00281,55.42419],[13.99781,55.43247],[14.00163,55.43398],[14.00116,55.43449],[13.99985,55.43403],[13.99948,55.43448],[13.99729,55.43338],[13.99648,55.43566],[13.99304,55.43992],[13.98752,55.43875],[13.98949,55.44105],[13.99031,55.44114],[13.99087,55.44158],[13.9879,55.44544],[13.98455,55.44885],[13.98442,55.44962],[13.98595,55.45499],[13.98746,55.45521],[13.98751,55.45896],[13.9883,55.46096],[13.98805,55.4623],[13.98883,55.46704],[13.98976,55.46684],[13.99277,55.46747],[14.00497,55.47272],[14.00368,55.47408],[14.00434,55.47473],[14.00454,55.47543],[14.00919,55.47646],[14.00949,55.47604],[14.01167,55.47644],[14.01096,55.47664],[14.01126,55.47667],[14.017,55.47709],[14.01879,55.47681],[14.02023,55.47736],[14.02298,55.47761],[14.02364,55.47726],[14.02508,55.4773],[14.02722,55.47661],[14.0285,55.47577],[14.02885,55.47475],[14.02941,55.4741],[14.03108,55.4733],[14.03252,55.47346],[14.03326,55.47297],[14.03535,55.47266],[14.03652,55.47317],[14.03776,55.47413],[14.03862,55.47437],[14.04817,55.47607],[14.04981,55.47658],[14.05114,55.4766],[14.05413,55.47714],[14.05748,55.47672],[14.06194,55.47741],[14.0647,55.47833],[14.06795,55.47854],[14.06892,55.47911],[14.07421,55.47999],[14.07561,55.47836],[14.07779,55.47655],[14.07722,55.4762],[14.07916,55.47277],[14.08133,55.47253],[14.08269,55.4729],[14.08307,55.47227],[14.08681,55.46923],[14.0888,55.46961],[14.09055,55.47112],[14.09227,55.47089],[14.09281,55.47096],[14.0929,55.47121],[14.09468,55.472],[14.0944,55.47216],[14.09453,55.47242],[14.09523,55.47252],[14.09558,55.47308],[14.09883,55.47375],[14.10216,55.47482],[14.10232,55.47512],[14.10266,55.4752],[14.10262,55.47506],[14.10366,55.47577],[14.10476,55.47549],[14.10474,55.47575],[14.10602,55.47617],[14.10666,55.47687],[14.10612,55.47718],[14.10618,55.47742],[14.10718,55.4774],[14.10767,55.47758],[14.10852,55.47747],[14.10857,55.47769],[14.10808,55.47802],[14.11181,55.47951],[14.12017,55.48019],[14.12025,55.48041],[14.12232,55.48031]]]}},{"type":"Feature","id":"1286R006","properties":{"code":"1286R006","name":"Köpingebro-Nybrostrand"},"geometry":{"type":"Polygon","coordinates":[[[13.94763,55.46975],[13.95117,55.4688],[13.95391,55.46732],[13.95532,55.4657],[13.95595,55.46317],[13.95555,55.46113],[13.95441,55.45953],[13.95334,55.45857],[13.95312,55.45718],[13.95253,55.45611],[13.95124,55.45484],[13.94962,55.45388],[13.95075,55.45291],[13.9515,55.45187],[13.95191,55.44965],[13.9509,55.44759],[13.94815,55.44507],[13.94993,55.4441],[13.95148,55.44259],[13.9535,55.4427],[13.95602,55.44252],[13.95868,55.44195],[13.96078,55.44118],[13.96251,55.44012],[13.96353,55.43908],[13.96653,55.43835],[13.96887,55.43715],[13.97045,55.43561],[13.97105,55.4342],[13.97074,55.43206],[13.96952,55.43036],[13.96831,55.4293],[13.9679,55.42707],[13.96662,55.42548],[13.96539,55.42462],[13.96347,55.42376],[13.95988,55.42283],[13.95736,55.42251],[13.95623,55.42248],[13.94673,55.42603],[13.92837,55.43007],[13.91724,55.43124],[13.91474,55.43357],[13.91394,55.43535],[13.9139,55.43676],[13.91429,55.43782],[13.91608,55.43971],[13.91846,55.44091],[13.92113,55.44165],[13.92372,55.442],[13.92444,55.44261],[13.92433,55.44305],[13.9224,55.44414],[13.92089,55.44574],[13.92027,55.4481],[13.92065,55.45073],[13.91917,55.45184],[13.91798,55.4534],[13.91762,55.4548],[13.91805,55.45652],[13.91561,55.45812],[13.91449,55.45979],[13.91439,55.46192],[13.9155,55.46394],[13.91695,55.4651],[13.91841,55.46584],[13.92004,55.46639],[13.92285,55.46701],[13.93016,55.46806],[13.93703,55.46946],[13.94159,55.46964],[13.9443,55.46994],[13.94763,55.46975]]]}},{"type":"Feature","id":"1286R007","properties":{"code":"1286R007","name":"Sövestad-Stora Köpinge"},"geometry":{"type":"Polygon","coordinates":[[[13.85654,55.56177],[13.85652,55.56083],[13.85805,55.55872],[13.85964,55.55477],[13.86086,55.55497],[13.86414,55.5488],[13.87024,55.54616],[13.87452,55.53956],[13.87715,55.53738],[13.88038,55.5334],[13.88278,55.5318],[13.8844,55.53118],[13.88536,55.53118],[13.88608,55.53028],[13.88651,55.53025],[13.88724,55.53065],[13.8879,55.53056],[13.88801,55.52959],[13.8902,55.52854],[13.89262,55.52807],[13.89369,55.52834],[13.89471,55.52771],[13.89651,55.52767],[13.89582,55.5271],[13.89612,55.52697],[13.8971,55.52705],[13.89766,55.52677],[13.89741,55.52598],[13.89652,55.52553],[13.89529,55.52533],[13.89502,55.52489],[13.89566,55.52347],[13.89653,55.52338],[13.89662,55.52275],[13.89611,55.5223],[13.89761,55.52163],[13.89714,55.52098],[13.89814,55.5207],[13.89739,55.51992],[13.89728,55.51941],[13.89604,55.51867],[13.89572,55.51798],[13.89654,55.51791],[13.89758,55.51713],[13.89883,55.51517],[13.89951,55.51352],[13.90056,55.50883],[13.90114,55.50815],[13.90275,55.51026],[13.90275,55.50868],[13.90367,55.50667],[13.9048,55.50537],[13.9045,55.50477],[13.90699,55.50313],[13.91493,55.49682],[13.92216,55.49527],[13.92779,55.49625],[13.92884,55.49578],[13.92959,55.49631],[13.9303,55.49572],[13.93264,55.49482],[13.93353,55.49512],[13.93291,55.49581],[13.93301,55.49605],[13.93536,55.49597],[13.9353,55.4952],[13.93579,55.49461],[13.93862,55.49292],[13.93864,55.4923],[13.93925,55.49175],[13.93828,55.49124],[13.93823,55.49042],[13.93765,55.48999],[13.93793,55.48955],[13.93858,55.48906],[13.93923,55.48897],[13.93936,55.48869],[13.93798,55.48796],[13.93732,55.48717],[13.93705,55.48632],[13.935,55.48491],[13.93708,55.48462],[13.94307,55.48503],[13.94465,55.48495],[13.94927,55.48395],[13.95043,55.48333],[13.9541,55.48227],[13.9582,55.48072],[13.96127,55.47993],[13.96074,55.47953],[13.9642,55.47751],[13.96615,55.47611],[13.96961,55.47407],[13.97591,55.47083],[13.98287,55.46872],[13.98342,55.46808],[13.98479,55.46818],[13.98883,55.46704],[13.98805,55.4623],[13.9883,55.46096],[13.98751,55.45896],[13.98746,55.45521],[13.98595,55.45499],[13.98442,55.44962],[13.98455,55.44885],[13.9879,55.44544],[13.99087,55.44158],[13.99031,55.44114],[13.98949,55.44105],[13.98752,55.43875],[13.99304,55.43992],[13.99648,55.43566],[13.99729,55.43338],[13.99948,55.43448],[13.99985,55.43403],[14.00116,55.43449],[14.00163,55.43398],[13.99781,55.43247],[14.00281,55.42419],[14.00424,55.41867],[14.00528,55.41664],[14.00518,55.41501],[14.00475,55.41471],[14.00428,55.41477],[14.00313,55.41292],[14.00396,55.41276],[14.00265,55.41059],[13.99743,55.40686],[13.85466,55.21724],[13.85254,55.21806],[13.84076,55.21753],[13.76642,55.42324],[13.7759,55.4226],[13.78498,55.4222],[13.79803,55.42242],[13.80892,55.423],[13.81048,55.42032],[13.8116,55.41934],[13.81215,55.41781],[13.81544,55.41475],[13.81576,55.41419],[13.81664,55.41371],[13.81783,55.41354],[13.83285,55.41436],[13.85966,55.42449],[13.8695,55.42721],[13.87678,55.42881],[13.88668,55.43032],[13.89678,55.43126],[13.89822,55.43177],[13.90052,55.43301],[13.90214,55.43472],[13.90267,55.43615],[13.90278,55.43929],[13.90235,55.44069],[13.90099,55.44224],[13.89886,55.44347],[13.8967,55.44415],[13.89309,55.44454],[13.88844,55.44415],[13.88559,55.44356],[13.88344,55.44264],[13.87888,55.44188],[13.8758,55.44239],[13.87023,55.44236],[13.86779,55.4419],[13.86206,55.44015],[13.86391,55.44179],[13.86465,55.44352],[13.86409,55.44746],[13.86306,55.44914],[13.86393,55.45076],[13.86388,55.4525],[13.86289,55.45413],[13.86146,55.45527],[13.85828,55.45664],[13.85577,55.45728],[13.85553,55.45976],[13.8577,55.46142],[13.85872,55.46256],[13.86174,55.4614],[13.86512,55.46091],[13.86836,55.46103],[13.87172,55.46144],[13.87344,55.46184],[13.87602,55.46291],[13.87903,55.46544],[13.88127,55.4663],[13.88316,55.46759],[13.88854,55.46828],[13.89136,55.4693],[13.89329,55.47063],[13.89601,55.47099],[13.89831,55.47165],[13.90074,55.47296],[13.9023,55.47464],[13.90308,55.47701],[13.90264,55.47878],[13.90085,55.48067],[13.89826,55.48199],[13.89653,55.48249],[13.8941,55.48285],[13.89039,55.48272],[13.8883,55.48288],[13.88697,55.48442],[13.88582,55.48528],[13.88386,55.48621],[13.8816,55.48682],[13.8791,55.48709],[13.87655,55.487],[13.87131,55.486],[13.86962,55.48551],[13.86753,55.48453],[13.86608,55.48337],[13.86516,55.48202],[13.86488,55.48074],[13.86256,55.47981],[13.8607,55.47843],[13.85971,55.4768],[13.8597,55.47494],[13.85486,55.47414],[13.85264,55.47344],[13.85043,55.47216],[13.84913,55.47072],[13.8458,55.47051],[13.84316,55.46988],[13.84062,55.4696],[13.83726,55.46884],[13.83511,55.46806],[13.83305,55.46671],[13.83183,55.46506],[13.83155,55.46362],[13.83202,55.46178],[13.8331,55.46036],[13.83204,55.45905],[13.8316,55.45762],[13.83196,55.45585],[13.83309,55.45438],[13.8328,55.45337],[13.82939,55.45309],[13.82602,55.45215],[13.82345,55.45057],[13.82219,55.44879],[13.81945,55.44922],[13.81671,55.44922],[13.81479,55.45],[13.81203,55.4506],[13.81237,55.45201],[13.81221,55.45313],[13.81167,55.45421],[13.81078,55.45522],[13.80623,55.45847],[13.80421,55.45931],[13.80243,55.45975],[13.79866,55.46002],[13.79627,55.45986],[13.79386,55.45941],[13.78749,55.45679],[13.78526,55.455],[13.779,55.46514],[13.77646,55.46981],[13.78005,55.47111],[13.77888,55.47341],[13.78212,55.47323],[13.78187,55.47543],[13.7826,55.47701],[13.7838,55.47814],[13.7842,55.47904],[13.77749,55.4802],[13.77681,55.4812],[13.77478,55.48111],[13.77244,55.48087],[13.76886,55.48],[13.76481,55.47868],[13.76235,55.47873],[13.76091,55.47642],[13.75878,55.47559],[13.75807,55.47555],[13.7566,55.47583],[13.75544,55.47662],[13.75176,55.47705],[13.74728,55.47546],[13.74614,55.47475],[13.74351,55.47503],[13.74166,55.47566],[13.73961,55.47598],[13.73893,55.47626],[13.73616,55.47955],[13.7342,55.48094],[13.73332,55.48087],[13.73365,55.48189],[13.73283,55.48336],[13.73329,55.48476],[13.7319,55.48726],[13.73279,55.4884],[13.73277,55.48884],[13.73141,55.49056],[13.72987,55.49153],[13.73012,55.49339],[13.72798,55.49656],[13.72716,55.4973],[13.7262,55.50019],[13.72489,55.50079],[13.72382,55.50376],[13.72395,55.50414],[13.72327,55.50479],[13.72228,55.50684],[13.72011,55.50851],[13.71364,55.50528],[13.71275,55.50427],[13.7117,55.50415],[13.7111,55.50432],[13.71073,55.50492],[13.71107,55.50625],[13.71084,55.50651],[13.7099,55.50637],[13.70878,55.50847],[13.71268,55.51316],[13.71311,55.51726],[13.71279,55.51741],[13.7132,55.51765],[13.71268,55.51825],[13.71316,55.51932],[13.71333,55.52086],[13.71562,55.52223],[13.71231,55.52799],[13.71129,55.52823],[13.71027,55.52794],[13.70926,55.52853],[13.70961,55.53059],[13.70938,55.53122],[13.71042,55.53089],[13.71093,55.53104],[13.71101,55.53151],[13.71232,55.53165],[13.71347,55.53125],[13.71417,55.53158],[13.73719,55.53152],[13.74292,55.53422],[13.74342,55.53507],[13.74547,55.53695],[13.74747,55.53752],[13.74715,55.53812],[13.74672,55.53828],[13.74642,55.53958],[13.75088,55.53847],[13.75123,55.53877],[13.75115,55.53915],[13.75237,55.53765],[13.7519,55.53674],[13.75296,55.53675],[13.75378,55.53813],[13.753,55.54042],[13.75615,55.54103],[13.75857,55.53777],[13.76034,55.53606],[13.76068,55.53424],[13.76575,55.53634],[13.76901,55.53736],[13.7778,55.54104],[13.78103,55.54197],[13.78004,55.54451],[13.7802,55.54821],[13.7796,55.54838],[13.77562,55.55058],[13.78087,55.55762],[13.79089,55.55956],[13.79528,55.56145],[13.81225,55.56128],[13.81548,55.56272],[13.81769,55.56412],[13.81835,55.56649],[13.82085,55.56749],[13.82238,55.5685],[13.82315,55.56966],[13.82248,55.57098],[13.82348,55.57182],[13.8239,55.57316],[13.82528,55.57528],[13.82625,55.57521],[13.8325,55.57204],[13.83946,55.5701],[13.84298,55.56971],[13.84381,55.56942],[13.85403,55.56401],[13.85654,55.56177]],[[13.9443,55.46994],[13.93613,55.46935],[13.93016,55.46806],[13.92378,55.46717],[13.92059,55.46653],[13.91741,55.46537],[13.91523,55.46364],[13.91438,55.46189],[13.91431,55.46051],[13.91463,55.45945],[13.91595,55.45781],[13.91805,55.45652],[13.91762,55.4548],[13.91798,55.4534],[13.91917,55.45184],[13.92065,55.45073],[13.92027,55.4481],[13.92089,55.44574],[13.9224,55.44414],[13.92433,55.44305],[13.92444,55.44261],[13.92372,55.442],[13.92056,55.44154],[13.91842,55.4409],[13.91571,55.43944],[13.91474,55.43848],[13.914,55.43713],[13.91384,55.43605],[13.91418,55.4346],[13.91501,55.43323],[13.91724,55.43124],[13.92837,55.43007],[13.94673,55.42603],[13.95623,55.42248],[13.95855,55.42261],[13.96044,55.42296],[13.96398,55.42395],[13.9658,55.42487],[13.96694,55.42577],[13.96805,55.4274],[13.96831,55.4293],[13.96952,55.43036],[13.97075,55.43208],[13.9711,55.43349],[13.97095,55.43457],[13.97019,55.43595],[13.96848,55.43741],[13.96601,55.43852],[13.96353,55.43908],[13.96251,55.44012],[13.96078,55.44118],[13.95868,55.44195],[13.95602,55.44252],[13.9535,55.4427],[13.95148,55.44259],[13.94993,55.4441],[13.94815,55.44507],[13.9509,55.44759],[13.95191,55.44965],[13.9515,55.45187],[13.95075,55.45291],[13.94962,55.45388],[13.95159,55.45512],[13.95274,55.45643],[13.95334,55.45857],[13.95441,55.45953],[13.95569,55.46147],[13.95589,55.46385],[13.95548,55.46537],[13.95459,55.46669],[13.95352,55.46761],[13.95171,55.46859],[13.94933,55.4694],[13.94687,55.46985],[13.9443,55.46994]]]}},{"type":"Feature","id":"1286R008","properties":{"code":"1286R008","name":"Vallösa-Skårby-Svarte"},"geometry":{"type":"Polygon","coordinates":[[[13.66465,55.5334],[13.66674,55.53333],[13.67355,55.53133],[13.67525,55.53061],[13.67736,55.53024],[13.67922,55.52937],[13.6782,55.52787],[13.67744,55.52726],[13.67583,55.52726],[13.67116,55.52671],[13.66857,55.52662],[13.66864,55.52586],[13.66968,55.52529],[13.67022,55.52463],[13.66996,55.5238],[13.67108,55.5235],[13.67165,55.52302],[13.67156,55.52198],[13.67099,55.52091],[13.67074,55.51662],[13.66974,55.51567],[13.67187,55.51293],[13.67201,55.51194],[13.67089,55.51137],[13.67575,55.51036],[13.67854,55.5095],[13.67879,55.51098],[13.68085,55.51117],[13.6811,55.51184],[13.68033,55.51262],[13.68033,55.51314],[13.67956,55.51405],[13.67995,55.51499],[13.67782,55.51655],[13.67654,55.52004],[13.67668,55.52148],[13.67956,55.52317],[13.68409,55.52341],[13.688,55.52308],[13.68536,55.52094],[13.68385,55.51496],[13.68715,55.51515],[13.68861,55.51585],[13.68856,55.51661],[13.69066,55.51638],[13.69178,55.51491],[13.69027,55.51478],[13.68911,55.51428],[13.68881,55.51365],[13.68776,55.51289],[13.68633,55.5112],[13.69192,55.50969],[13.70574,55.51224],[13.70546,55.51314],[13.70704,55.51391],[13.70845,55.51503],[13.70993,55.51569],[13.70976,55.51595],[13.71026,55.51668],[13.71205,55.51745],[13.71311,55.51726],[13.71268,55.51316],[13.70878,55.50847],[13.7099,55.50637],[13.71084,55.50651],[13.71107,55.50625],[13.71073,55.50492],[13.7111,55.50432],[13.7117,55.50415],[13.71261,55.5042],[13.71364,55.50528],[13.72011,55.50851],[13.72228,55.50684],[13.72327,55.50479],[13.72395,55.50414],[13.72382,55.50376],[13.72489,55.50079],[13.7262,55.50019],[13.72716,55.4973],[13.72798,55.49656],[13.73012,55.49339],[13.72987,55.49153],[13.73141,55.49056],[13.73277,55.48884],[13.73279,55.4884],[13.7319,55.48726],[13.73329,55.48476],[13.73283,55.48336],[13.73365,55.48189],[13.73332,55.48087],[13.7342,55.48094],[13.73616,55.47955],[13.7387,55.47646],[13.73925,55.4761],[13.74166,55.47566],[13.74351,55.47503],[13.74614,55.47475],[13.74728,55.47546],[13.75176,55.47705],[13.75544,55.47662],[13.7566,55.47583],[13.75807,55.47555],[13.75878,55.47559],[13.76091,55.47642],[13.76235,55.47873],[13.76481,55.47868],[13.76886,55.48],[13.77244,55.48087],[13.77478,55.48111],[13.77681,55.4812],[13.77749,55.4802],[13.7842,55.47904],[13.7838,55.47814],[13.7826,55.47701],[13.78187,55.47543],[13.78212,55.47323],[13.77888,55.47341],[13.78005,55.47111],[13.77646,55.46981],[13.779,55.46514],[13.78526,55.455],[13.78453,55.45366],[13.78442,55.45222],[13.78493,55.45083],[13.78579,55.44977],[13.78596,55.44897],[13.78449,55.44683],[13.78026,55.44407],[13.77875,55.44237],[13.77831,55.44121],[13.77828,55.44008],[13.77862,55.43898],[13.77935,55.43792],[13.77919,55.43771],[13.77814,55.4373],[13.77592,55.43686],[13.77352,55.43685],[13.77105,55.43649],[13.76887,55.4358],[13.76742,55.43506],[13.76598,55.43391],[13.7649,55.43231],[13.76409,55.42991],[13.76413,55.42846],[13.76579,55.42548],[13.76674,55.42436],[13.76639,55.42332],[13.84076,55.21753],[13.72002,55.32713],[13.65893,55.38438],[13.65665,55.4147],[13.65604,55.41838],[13.65545,55.41968],[13.65561,55.42014],[13.65683,55.42101],[13.65653,55.4218],[13.6572,55.4233],[13.65605,55.42419],[13.65568,55.42476],[13.65424,55.42495],[13.65376,55.42518],[13.65329,55.4252],[13.65323,55.42464],[13.64537,55.42399],[13.64449,55.42705],[13.64289,55.42667],[13.63822,55.42752],[13.63813,55.43028],[13.6266,55.43323],[13.62589,55.43617],[13.62486,55.43783],[13.62677,55.43906],[13.62304,55.4437],[13.61946,55.44591],[13.62218,55.44714],[13.62307,55.44731],[13.62298,55.44752],[13.63391,55.45258],[13.63508,55.46158],[13.63754,55.46399],[13.64013,55.46353],[13.64261,55.4655],[13.63957,55.46591],[13.64127,55.46756],[13.64092,55.4704],[13.63944,55.47126],[13.64005,55.47139],[13.6401,55.47192],[13.64299,55.47216],[13.64309,55.47281],[13.64012,55.47289],[13.64007,55.47393],[13.64578,55.47393],[13.64616,55.48119],[13.64236,55.48129],[13.64255,55.48341],[13.64376,55.48386],[13.64423,55.48437],[13.64621,55.48446],[13.65192,55.48291],[13.65719,55.48237],[13.66004,55.48713],[13.65909,55.48781],[13.66082,55.49147],[13.66181,55.49576],[13.66418,55.50028],[13.65389,55.50255],[13.6515,55.4992],[13.65078,55.49772],[13.64739,55.49954],[13.64558,55.49962],[13.64769,55.50362],[13.65179,55.50207],[13.65497,55.50549],[13.65452,55.50546],[13.64634,55.50767],[13.64331,55.51032],[13.64793,55.50962],[13.65017,55.50971],[13.65074,55.50953],[13.65109,55.50908],[13.65199,55.50909],[13.65266,55.50946],[13.65322,55.5107],[13.65494,55.51193],[13.65102,55.51352],[13.65069,55.51425],[13.65188,55.51467],[13.65276,55.51467],[13.65363,55.51494],[13.65457,55.51484],[13.65862,55.51585],[13.66028,55.51655],[13.66109,55.51662],[13.66137,55.51803],[13.66076,55.51905],[13.66052,55.52135],[13.65847,55.52337],[13.65738,55.52398],[13.65827,55.52424],[13.65966,55.52358],[13.66548,55.52679],[13.66581,55.52828],[13.66527,55.52977],[13.66628,55.53191],[13.66328,55.53227],[13.66346,55.53307],[13.66382,55.53325],[13.66465,55.5334]]]}},{"type":"Feature","id":"1286R009","properties":{"code":"1286R009","name":"Ystad norra-Hedeskoga-Stora Herrestad"},"geometry":{"type":"Polygon","coordinates":[[[13.8883,55.48288],[13.89346,55.48288],[13.89657,55.48248],[13.89928,55.48156],[13.90158,55.48009],[13.9028,55.47845],[13.90305,55.47665],[13.9023,55.47464],[13.90074,55.47296],[13.89939,55.47213],[13.89727,55.4713],[13.89544,55.47088],[13.89329,55.47063],[13.89136,55.4693],[13.88924,55.46847],[13.88682,55.46796],[13.88316,55.46759],[13.88127,55.4663],[13.87903,55.46544],[13.87602,55.46291],[13.8729,55.46169],[13.86777,55.46097],[13.86512,55.46091],[13.86174,55.4614],[13.85872,55.46256],[13.8577,55.46142],[13.85553,55.45976],[13.85553,55.45952],[13.8525,55.45746],[13.84815,55.45217],[13.84357,55.44875],[13.84378,55.44868],[13.84053,55.44644],[13.8366,55.44443],[13.83356,55.44248],[13.8296,55.44046],[13.82577,55.43778],[13.82342,55.43836],[13.81827,55.4383],[13.81561,55.4388],[13.81585,55.43953],[13.81534,55.44285],[13.81431,55.44561],[13.81367,55.44593],[13.80715,55.44506],[13.80805,55.44353],[13.79981,55.44138],[13.79881,55.44161],[13.7971,55.44008],[13.79381,55.43856],[13.79324,55.43795],[13.79242,55.43795],[13.79077,55.43694],[13.78906,55.43625],[13.78675,55.4358],[13.78156,55.43523],[13.78011,55.4349],[13.77763,55.43394],[13.77806,55.43729],[13.77935,55.43792],[13.77862,55.43898],[13.77828,55.44008],[13.77856,55.44198],[13.77982,55.44371],[13.78449,55.44683],[13.78553,55.44824],[13.78596,55.44897],[13.78579,55.44977],[13.78449,55.45186],[13.78453,55.45366],[13.78588,55.45567],[13.78841,55.45723],[13.79046,55.45789],[13.79277,55.45906],[13.79564,55.45978],[13.79997,55.46002],[13.80359,55.45949],[13.80665,55.45823],[13.81117,55.45483],[13.8123,55.45279],[13.81203,55.4506],[13.81479,55.45],[13.81671,55.44922],[13.81945,55.44922],[13.82219,55.44879],[13.82345,55.45057],[13.82602,55.45215],[13.82939,55.45309],[13.8328,55.45337],[13.83309,55.45438],[13.83196,55.45585],[13.8316,55.45762],[13.83204,55.45905],[13.8331,55.46036],[13.83188,55.46211],[13.83156,55.46399],[13.83221,55.46574],[13.83341,55.46701],[13.83559,55.46827],[13.83781,55.46898],[13.84062,55.4696],[13.84316,55.46988],[13.8458,55.47051],[13.84913,55.47072],[13.85043,55.47216],[13.85264,55.47344],[13.85486,55.47414],[13.8597,55.47494],[13.85962,55.47646],[13.86043,55.47812],[13.86213,55.47957],[13.86488,55.48074],[13.86516,55.48202],[13.86579,55.48304],[13.86674,55.48397],[13.86844,55.48502],[13.87072,55.48586],[13.87534,55.48682],[13.87784,55.48709],[13.88034,55.487],[13.88221,55.48669],[13.8844,55.486],[13.88661,55.48473],[13.8883,55.48288]]]}},{"type":"Feature","id":"1286R010","properties":{"code":"1286R010","name":"Ystad östra"},"geometry":{"type":"Polygon","coordinates":[[[13.86391,55.44179],[13.86206,55.44015],[13.86779,55.4419],[13.87023,55.44236],[13.8758,55.44239],[13.87888,55.44188],[13.88344,55.44264],[13.88559,55.44356],[13.88785,55.44408],[13.89249,55.44453],[13.89497,55.44444],[13.89728,55.44401],[13.89933,55.44326],[13.90062,55.44252],[13.90191,55.44134],[13.90278,55.43929],[13.9025,55.43547],[13.90185,55.4343],[13.90052,55.43301],[13.89871,55.43197],[13.89678,55.43126],[13.88668,55.43032],[13.87678,55.42881],[13.8695,55.42721],[13.85966,55.42449],[13.83325,55.41443],[13.81783,55.41354],[13.81702,55.41361],[13.816,55.414],[13.81544,55.41475],[13.81844,55.41616],[13.82373,55.42182],[13.82427,55.42555],[13.82388,55.42617],[13.82373,55.42755],[13.82509,55.42765],[13.82442,55.42922],[13.82409,55.43176],[13.82692,55.43112],[13.82831,55.4313],[13.82706,55.43452],[13.82468,55.4364],[13.82446,55.43696],[13.8296,55.44046],[13.83356,55.44248],[13.8366,55.44443],[13.84053,55.44644],[13.84378,55.44868],[13.84357,55.44875],[13.84815,55.45217],[13.8525,55.45746],[13.85553,55.45952],[13.85577,55.45728],[13.85828,55.45664],[13.86146,55.45527],[13.86289,55.45413],[13.86388,55.4525],[13.86393,55.45076],[13.86306,55.44914],[13.86409,55.44746],[13.86465,55.44352],[13.86391,55.44179]]]}}]}