{"type":"FeatureCollection","features":[{"type":"Feature","id":"1380R010","properties":{"code":"1380R010","name":"Furet-Gamletull"},"geometry":{"type":"Polygon","coordinates":[[[12.88277,56.68637],[12.88153,56.68595],[12.87897,56.68466],[12.88218,56.68247],[12.87767,56.68077],[12.87389,56.67907],[12.86954,56.67686],[12.86838,56.67596],[12.868,56.67616],[12.86848,56.67648],[12.86762,56.67682],[12.86698,56.6775],[12.86717,56.67821],[12.86623,56.67865],[12.8648,56.67705],[12.86435,56.6767],[12.8639,56.67681],[12.86192,56.67445],[12.86025,56.67466],[12.86175,56.67833],[12.86278,56.67958],[12.8657,56.68173],[12.87006,56.68418],[12.87239,56.68701],[12.87564,56.68654],[12.87536,56.68578],[12.87693,56.6857],[12.87701,56.68598],[12.88043,56.68733],[12.88277,56.68637]]]}},{"type":"Feature","id":"1380R014","properties":{"code":"1380R014","name":"Linehed norra-Gustavsfält"},"geometry":{"type":"Polygon","coordinates":[[[12.89831,56.67384],[12.90396,56.66709],[12.9022,56.66599],[12.9025,56.66574],[12.90089,56.66481],[12.89932,56.66567],[12.89488,56.66468],[12.89346,56.66463],[12.89168,56.66612],[12.88759,56.66404],[12.88516,56.6631],[12.8794,56.66572],[12.88298,56.66813],[12.88401,56.66846],[12.88219,56.6734],[12.88658,56.67324],[12.89257,56.67331],[12.89831,56.67384]]]}},{"type":"Feature","id":"1380R022","properties":{"code":"1380R022","name":"Nyhem södra"},"geometry":{"type":"Polygon","coordinates":[[[12.87812,56.67054],[12.88323,56.66827],[12.8794,56.66572],[12.87252,56.66882],[12.87571,56.67111],[12.87704,56.67128],[12.87812,56.67054]]]}},{"type":"Feature","id":"1380R023","properties":{"code":"1380R023","name":"Nyhem norra-Nyatorp östra"},"geometry":{"type":"Polygon","coordinates":[[[12.88294,56.67161],[12.88401,56.66846],[12.88323,56.66827],[12.87812,56.67054],[12.87704,56.67128],[12.87571,56.67111],[12.87252,56.66882],[12.86737,56.67095],[12.86922,56.67125],[12.87618,56.67309],[12.87712,56.67401],[12.87615,56.67434],[12.87741,56.67554],[12.87279,56.67709],[12.87417,56.678],[12.87269,56.67847],[12.87389,56.67907],[12.88015,56.67679],[12.88072,56.67625],[12.88294,56.67161]]]}},{"type":"Feature","id":"1380R024","properties":{"code":"1380R024","name":"Oskarström tätort"},"geometry":{"type":"Polygon","coordinates":[[[12.98085,56.81611],[12.97983,56.8141],[12.98362,56.81398],[12.98663,56.81328],[12.98819,56.81263],[12.99068,56.81117],[12.99222,56.80982],[12.99917,56.8096],[13.00158,56.80909],[13.00326,56.80848],[13.00542,56.80714],[13.00657,56.80582],[13.00727,56.80339],[13.00709,56.80195],[13.00594,56.79954],[13.00309,56.79689],[13.0029,56.7957],[13.00208,56.79436],[13.00033,56.79289],[12.99715,56.79116],[12.99546,56.79055],[12.99304,56.79005],[12.99109,56.7899],[12.98852,56.79001],[12.98775,56.78937],[12.97653,56.78486],[12.97606,56.78449],[12.97584,56.78465],[12.96852,56.78434],[12.96721,56.78541],[12.96651,56.78636],[12.96606,56.78864],[12.96407,56.79],[12.96246,56.79189],[12.95921,56.79172],[12.95247,56.79214],[12.94945,56.79289],[12.94675,56.79435],[12.94438,56.79655],[12.94348,56.79791],[12.9433,56.80102],[12.94398,56.80336],[12.94258,56.80497],[12.94216,56.8064],[12.94228,56.8078],[12.94301,56.80916],[12.94477,56.81066],[12.94684,56.81163],[12.94726,56.81333],[12.94867,56.81494],[12.95147,56.81644],[12.95652,56.81771],[12.95645,56.81864],[12.95261,56.82126],[12.95121,56.82287],[12.95084,56.82393],[12.95079,56.82558],[12.95165,56.82765],[12.95391,56.82943],[12.95544,56.83011],[12.95762,56.8307],[12.95835,56.83208],[12.96008,56.83354],[12.962,56.83444],[12.96368,56.83493],[12.96741,56.83535],[12.97029,56.83523],[12.97219,56.83494],[12.97448,56.83426],[12.97597,56.83356],[12.97808,56.83174],[12.98014,56.82682],[12.9798,56.82461],[12.9785,56.82299],[12.9804,56.82041],[12.98089,56.81901],[12.98085,56.81611]]]}},{"type":"Feature","id":"1380R025","properties":{"code":"1380R025","name":"Åled-Sennan-Oskarström glesbygd"},"geometry":{"type":"Polygon","coordinates":[[[12.93535,56.9436],[12.93658,56.93806],[12.93571,56.93519],[12.9402,56.93317],[12.93864,56.93352],[12.9399,56.93087],[12.94212,56.92896],[12.94286,56.92686],[12.94212,56.92231],[12.94405,56.92127],[12.94548,56.92075],[12.94661,56.92062],[12.94866,56.91975],[12.9498,56.92129],[12.95197,56.92285],[12.95545,56.9229],[12.95709,56.9232],[12.96087,56.92309],[12.96126,56.92374],[12.96654,56.92343],[12.96855,56.92373],[12.9727,56.92385],[12.9734,56.92333],[12.97517,56.92101],[12.97582,56.91826],[12.97637,56.91787],[12.98201,56.91602],[12.98452,56.91609],[12.98596,56.9155],[12.99001,56.91618],[12.99084,56.91606],[12.99162,56.91555],[12.99212,56.91547],[12.9934,56.9166],[12.99456,56.91696],[12.99527,56.91773],[12.9964,56.91777],[12.99838,56.91737],[12.99855,56.91672],[12.99967,56.91653],[12.99957,56.91618],[13.00027,56.91581],[13.00123,56.91586],[13.00159,56.91549],[13.0029,56.9155],[13.00264,56.91515],[13.00292,56.91462],[13.00381,56.91398],[13.00371,56.91349],[13.00447,56.91289],[13.00514,56.91295],[13.00511,56.91244],[13.00553,56.91189],[13.0051,56.91141],[13.00541,56.91132],[13.00529,56.91107],[13.00513,56.91086],[13.00479,56.91085],[13.00493,56.91069],[13.00345,56.90911],[13.00369,56.90841],[13.00332,56.90644],[13.00276,56.90519],[13.00177,56.90474],[13.00081,56.89948],[12.99992,56.89847],[13.00318,56.89827],[13.00447,56.89847],[13.00667,56.89839],[13.00612,56.89717],[13.00619,56.8962],[13.00551,56.89599],[13.00739,56.89538],[13.00409,56.88791],[12.9997,56.88784],[12.9998,56.8867],[13.00033,56.88554],[13.00008,56.88],[13.00138,56.87507],[13.00071,56.87485],[12.99879,56.8727],[13.00108,56.86533],[13.01544,56.86127],[13.02481,56.85679],[13.03252,56.85375],[13.03084,56.85161],[13.03296,56.85083],[13.03536,56.85068],[13.03595,56.84976],[13.03575,56.84885],[13.03502,56.84816],[13.03491,56.84654],[13.03357,56.84586],[13.03453,56.84351],[13.0395,56.84286],[13.04223,56.84188],[13.04314,56.84109],[13.04386,56.84104],[13.04485,56.84158],[13.0465,56.8416],[13.04758,56.8423],[13.0485,56.84248],[13.05143,56.84251],[13.05373,56.84168],[13.05576,56.8424],[13.06326,56.8438],[13.06743,56.84419],[13.06893,56.84582],[13.07178,56.84777],[13.07436,56.85098],[13.07613,56.85813],[13.08338,56.86354],[13.08765,56.86588],[13.09607,56.86797],[13.09782,56.86765],[13.10364,56.86484],[13.10635,56.86537],[13.1127,56.86769],[13.11634,56.86792],[13.1167,56.86854],[13.11597,56.86906],[13.1163,56.86934],[13.115,56.86977],[13.11474,56.87012],[13.11553,56.87019],[13.11499,56.87087],[13.11607,56.87092],[13.11618,56.87153],[13.11688,56.87207],[13.117,56.87281],[13.11747,56.87301],[13.11805,56.87378],[13.11809,56.87402],[13.11773,56.87405],[13.11705,56.87458],[13.11827,56.87539],[13.11686,56.87735],[13.11694,56.87773],[13.11736,56.87893],[13.11927,56.87997],[13.12046,56.88009],[13.12064,56.88031],[13.11814,56.88439],[13.12134,56.88765],[13.12575,56.88989],[13.13084,56.89138],[13.13716,56.89213],[13.1464,56.88885],[13.15089,56.88842],[13.15036,56.88647],[13.15409,56.88277],[13.15587,56.8835],[13.16391,56.88307],[13.17198,56.88083],[13.17681,56.87778],[13.17523,56.87598],[13.17873,56.87439],[13.16619,56.8556],[13.16173,56.8499],[13.16309,56.84922],[13.16269,56.84853],[13.16078,56.84729],[13.15608,56.83982],[13.15816,56.83627],[13.16034,56.8309],[13.16306,56.8272],[13.18073,56.82605],[13.18156,56.82534],[13.18317,56.82518],[13.18509,56.82449],[13.18435,56.82291],[13.18205,56.8209],[13.18142,56.81888],[13.17751,56.81855],[13.17394,56.81742],[13.17089,56.81749],[13.16806,56.81618],[13.1606,56.81395],[13.15681,56.81431],[13.14797,56.8103],[13.15233,56.80615],[13.15856,56.7988],[13.15562,56.79642],[13.15075,56.79139],[13.14751,56.78995],[13.14575,56.78862],[13.14511,56.78746],[13.1439,56.78685],[13.14318,56.78671],[13.1408,56.78543],[13.13955,56.7841],[13.13691,56.78443],[13.13613,56.78514],[13.13617,56.78567],[13.13198,56.78901],[13.12097,56.79282],[13.11551,56.79362],[13.11265,56.79283],[13.09418,56.78134],[13.06869,56.7862],[13.04322,56.78209],[13.04181,56.78415],[13.04021,56.78562],[13.0375,56.78552],[13.03478,56.78656],[13.03317,56.78947],[13.03387,56.79194],[13.03387,56.79486],[13.03102,56.79801],[13.02672,56.79988],[13.02242,56.79938],[13.01801,56.79806],[13.01437,56.7977],[13.0137,56.79609],[13.01391,56.79426],[13.01261,56.79277],[13.01013,56.79192],[13.00949,56.79048],[13.0061,56.78875],[13.00773,56.78643],[13.00547,56.78448],[13.00164,56.78351],[12.99998,56.78237],[13.00012,56.78099],[12.99934,56.77912],[12.99895,56.77542],[12.99805,56.77395],[12.99636,56.77258],[12.9961,56.76973],[12.99498,56.76805],[12.99246,56.76641],[12.98936,56.76546],[12.98875,56.76372],[12.98807,56.76271],[12.98667,56.76152],[12.98468,56.76053],[12.98366,56.759],[12.98177,56.75742],[12.97983,56.75644],[12.97755,56.75577],[12.97499,56.75543],[12.97269,56.75544],[12.97168,56.75335],[12.96948,56.75167],[12.97201,56.75071],[12.97383,56.74951],[12.97514,56.74786],[12.97549,56.74613],[12.97765,56.74492],[12.97894,56.74364],[12.97955,56.74252],[12.97972,56.74106],[12.97918,56.73953],[12.97833,56.73849],[12.97709,56.73752],[12.97561,56.73674],[12.97217,56.73573],[12.96936,56.73546],[12.96558,56.73565],[12.96269,56.73512],[12.95972,56.73507],[12.95699,56.73448],[12.95546,56.73236],[12.95332,56.73087],[12.94985,56.7297],[12.94646,56.72932],[12.94199,56.72961],[12.93676,56.73073],[12.93456,56.73153],[12.93247,56.7329],[12.93024,56.73599],[12.92972,56.73788],[12.92821,56.73894],[12.92734,56.73996],[12.92503,56.74104],[12.92237,56.74294],[12.92088,56.74465],[12.92049,56.74575],[12.92057,56.74721],[12.92108,56.7483],[12.92264,56.75027],[12.92365,56.75125],[12.92499,56.75211],[12.92792,56.75325],[12.92837,56.75488],[12.92946,56.75623],[12.93122,56.75747],[12.93349,56.75841],[12.93718,56.75911],[12.94064,56.75908],[12.94392,56.75845],[12.94714,56.75711],[12.9478,56.75746],[12.94883,56.7587],[12.95005,56.7596],[12.95393,56.76122],[12.95768,56.76193],[12.96195,56.76182],[12.96252,56.76329],[12.96424,56.76491],[12.96484,56.76621],[12.96601,56.76774],[12.96561,56.76879],[12.96446,56.77038],[12.96421,56.77228],[12.96536,56.77469],[12.96809,56.77696],[12.96806,56.77892],[12.96743,56.78031],[12.96726,56.78184],[12.96768,56.78324],[12.96852,56.78434],[12.97584,56.78465],[12.97606,56.78449],[12.97653,56.78486],[12.98775,56.78937],[12.98852,56.79001],[12.99109,56.7899],[12.99304,56.79005],[12.99546,56.79055],[12.99715,56.79116],[13.00033,56.79289],[13.00208,56.79436],[13.0029,56.7957],[13.00309,56.79689],[13.00594,56.79954],[13.0071,56.80198],[13.00727,56.80339],[13.00657,56.80582],[13.00542,56.80714],[13.00326,56.80848],[13.00158,56.80909],[12.99917,56.8096],[12.99222,56.80982],[12.99068,56.81117],[12.98819,56.81263],[12.98663,56.81328],[12.98358,56.81399],[12.97983,56.8141],[12.98085,56.81611],[12.98089,56.81901],[12.9804,56.82041],[12.9785,56.82299],[12.9798,56.82461],[12.98014,56.82682],[12.97849,56.83106],[12.97718,56.83271],[12.97501,56.83404],[12.97214,56.83495],[12.96811,56.83535],[12.96486,56.83516],[12.96253,56.83462],[12.96051,56.83379],[12.95862,56.83239],[12.95762,56.8307],[12.95489,56.8299],[12.953,56.82889],[12.95167,56.82767],[12.95103,56.82662],[12.95078,56.82555],[12.95093,56.82356],[12.95225,56.82157],[12.95503,56.81945],[12.95645,56.81864],[12.95652,56.81771],[12.952,56.81662],[12.94907,56.81523],[12.94746,56.81365],[12.94684,56.81163],[12.94437,56.8104],[12.94265,56.80862],[12.9393,56.81026],[12.93527,56.81139],[12.93267,56.81367],[12.93052,56.81448],[12.928,56.81432],[12.92676,56.81473],[12.92554,56.8146],[12.92339,56.815],[12.92238,56.81427],[12.92118,56.81259],[12.91644,56.81862],[12.91285,56.81658],[12.9112,56.81071],[12.90971,56.80858],[12.90548,56.80564],[12.89839,56.802],[12.89301,56.79825],[12.89716,56.79562],[12.89109,56.79283],[12.88731,56.79064],[12.87533,56.79665],[12.85468,56.79703],[12.85277,56.79948],[12.85335,56.80075],[12.85273,56.802],[12.8539,56.80252],[12.85483,56.8043],[12.85475,56.80551],[12.85608,56.80621],[12.85608,56.80737],[12.8582,56.80926],[12.85787,56.81053],[12.85631,56.8114],[12.85843,56.81372],[12.85126,56.81603],[12.84473,56.81726],[12.83717,56.81951],[12.84015,56.8211],[12.82515,56.8227],[12.82672,56.82321],[12.83018,56.82678],[12.83481,56.83057],[12.83563,56.83259],[12.83565,56.83359],[12.83695,56.83495],[12.83604,56.83547],[12.83542,56.83629],[12.83336,56.8375],[12.83433,56.83955],[12.83514,56.84048],[12.83592,56.84252],[12.83569,56.8441],[12.83587,56.84661],[12.84165,56.85579],[12.84443,56.85819],[12.84944,56.86099],[12.85056,56.8622],[12.84523,56.8633],[12.84742,56.86502],[12.84074,56.86734],[12.82341,56.86568],[12.81074,56.86168],[12.78495,56.85841],[12.78417,56.85878],[12.78322,56.85855],[12.78338,56.85822],[12.78233,56.85809],[12.78213,56.86037],[12.80188,56.86374],[12.82751,56.87252],[12.84215,56.87027],[12.85095,56.86945],[12.85066,56.87174],[12.84746,56.87148],[12.84814,56.87165],[12.84826,56.87187],[12.84908,56.87197],[12.84922,56.87249],[12.84246,56.87152],[12.83769,56.87245],[12.8489,56.87595],[12.85219,56.87244],[12.85314,56.87257],[12.8529,56.87301],[12.85948,56.87408],[12.86013,56.87395],[12.86225,56.87639],[12.86503,56.87713],[12.87189,56.87394],[12.87221,56.87444],[12.87173,56.87636],[12.87335,56.87737],[12.87341,56.87776],[12.87278,56.87837],[12.87336,56.87915],[12.87324,56.87986],[12.87356,56.88063],[12.87139,56.88334],[12.86819,56.88462],[12.86632,56.88852],[12.86718,56.89212],[12.87082,56.89482],[12.87324,56.89465],[12.87102,56.90386],[12.87822,56.91048],[12.87885,56.91062],[12.87878,56.91155],[12.87909,56.91193],[12.87971,56.91214],[12.88014,56.91295],[12.87944,56.91427],[12.88491,56.9159],[12.88512,56.91625],[12.88588,56.91641],[12.88614,56.91694],[12.88578,56.91738],[12.88635,56.91819],[12.88864,56.91871],[12.88862,56.91903],[12.88935,56.91975],[12.89062,56.9205],[12.89008,56.92097],[12.89009,56.92133],[12.89134,56.92255],[12.89252,56.92427],[12.89341,56.9245],[12.89379,56.92508],[12.89256,56.92694],[12.89267,56.92743],[12.89402,56.92799],[12.89431,56.92847],[12.89347,56.92919],[12.89223,56.92925],[12.89218,56.93034],[12.89184,56.93077],[12.89207,56.93105],[12.89192,56.93205],[12.89218,56.93226],[12.8929,56.93185],[12.89343,56.9319],[12.89348,56.93241],[12.89526,56.93365],[12.89495,56.9352],[12.89512,56.93579],[12.8958,56.93586],[12.89648,56.93488],[12.89736,56.93431],[12.89775,56.93425],[12.89862,56.93452],[12.89826,56.93498],[12.89901,56.93536],[12.89938,56.93534],[12.89987,56.9348],[12.90035,56.93481],[12.9003,56.93599],[12.89991,56.93643],[12.90024,56.93634],[12.9017,56.93658],[12.90151,56.93676],[12.90338,56.93782],[12.90395,56.93872],[12.90492,56.9388],[12.90522,56.93926],[12.90637,56.94002],[12.9074,56.93988],[12.90797,56.94055],[12.90823,56.9417],[12.90881,56.94173],[12.90911,56.94211],[12.90991,56.94208],[12.91061,56.94232],[12.91173,56.9433],[12.91276,56.94337],[12.91298,56.943],[12.91454,56.94266],[12.91506,56.94235],[12.91621,56.94229],[12.918,56.94145],[12.91901,56.94142],[12.9196,56.94104],[12.92107,56.9413],[12.92301,56.94073],[12.92444,56.94117],[12.92467,56.94186],[12.92549,56.94187],[12.92582,56.94211],[12.92717,56.94202],[12.92773,56.94228],[12.93007,56.94251],[12.9304,56.94285],[12.93136,56.94315],[12.93276,56.94429],[12.93353,56.94441],[12.93535,56.9436]]]}},{"type":"Feature","id":"1380R001","properties":{"code":"1380R001","name":"Alet-Mickedala-Rotorp"},"geometry":{"type":"Polygon","coordinates":[[[12.84252,56.70168],[12.8432,56.69948],[12.8458,56.69692],[12.8457,56.69485],[12.845,56.69318],[12.84697,56.69186],[12.8453,56.69032],[12.84457,56.68997],[12.84349,56.69032],[12.84305,56.68994],[12.84256,56.68843],[12.8421,56.68348],[12.84114,56.68203],[12.84197,56.68179],[12.84177,56.68069],[12.84242,56.68066],[12.84457,56.67956],[12.8487,56.67575],[12.84554,56.67397],[12.84841,56.67362],[12.8502,56.67409],[12.85135,56.67278],[12.8524,56.67271],[12.85304,56.67238],[12.84905,56.67227],[12.84917,56.67162],[12.84615,56.67147],[12.84486,56.67161],[12.84422,56.67087],[12.84372,56.67017],[12.84541,56.66988],[12.84664,56.66998],[12.84693,56.66913],[12.84963,56.66948],[12.85031,56.6661],[12.85022,56.66515],[12.84997,56.66471],[12.84941,56.66482],[12.84828,56.66392],[12.84902,56.66353],[12.84865,56.66326],[12.84768,56.66342],[12.84603,56.66252],[12.83748,56.65876],[12.83582,56.65196],[12.83589,56.6478],[12.82621,56.63825],[12.82366,56.65519],[12.81604,56.66438],[12.8198,56.66617],[12.81945,56.66652],[12.82093,56.6686],[12.82099,56.67159],[12.82135,56.67223],[12.8122,56.67494],[12.8113,56.67733],[12.81159,56.67837],[12.80602,56.68124],[12.8073,56.6823],[12.80055,56.68373],[12.80125,56.68518],[12.79595,56.6891],[12.79932,56.68971],[12.80278,56.68968],[12.80476,56.68938],[12.80682,56.68881],[12.80943,56.68879],[12.81131,56.68857],[12.8157,56.6874],[12.81381,56.69051],[12.81357,56.69192],[12.81427,56.69411],[12.81594,56.69577],[12.81903,56.69723],[12.82202,56.69788],[12.82391,56.69865],[12.82636,56.69922],[12.83059,56.69951],[12.83261,56.69935],[12.83487,56.6989],[12.8351,56.7007],[12.83628,56.70232],[12.83784,56.7034],[12.83931,56.70406],[12.84484,56.70535],[12.84586,56.70815],[12.84774,56.70992],[12.84252,56.70168]]]}},{"type":"Feature","id":"1380R002","properties":{"code":"1380R002","name":"Andersberg"},"geometry":{"type":"Polygon","coordinates":[[[12.90396,56.66709],[12.90557,56.66428],[12.90638,56.66046],[12.90489,56.65412],[12.89952,56.6566],[12.90025,56.65708],[12.89685,56.65864],[12.896,56.6593],[12.89621,56.66119],[12.89682,56.66173],[12.89486,56.66202],[12.89377,56.66253],[12.89488,56.66468],[12.89932,56.66567],[12.90089,56.66481],[12.9025,56.66574],[12.9022,56.66599],[12.90396,56.66709]]]}},{"type":"Feature","id":"1380R003","properties":{"code":"1380R003","name":"Snöstorp-Brogård"},"geometry":{"type":"Polygon","coordinates":[[[12.95161,56.69153],[12.95369,56.69071],[12.95541,56.68959],[12.95815,56.68678],[12.95894,56.68558],[12.95931,56.68432],[12.95933,56.68227],[12.95883,56.68039],[12.95783,56.67904],[12.95625,56.67786],[12.95462,56.67709],[12.9534,56.6761],[12.95138,56.67507],[12.9496,56.6745],[12.94604,56.67384],[12.94138,56.672],[12.93708,56.67055],[12.93334,56.66985],[12.9316,56.66889],[12.9325,56.66667],[12.93218,56.66472],[12.93057,56.66288],[12.92895,56.6619],[12.92739,56.66051],[12.92533,56.65946],[12.92685,56.65843],[12.92343,56.65836],[12.92294,56.65787],[12.91154,56.65861],[12.9119,56.65795],[12.91437,56.65709],[12.91561,56.65562],[12.91596,56.65437],[12.91509,56.65378],[12.91285,56.65304],[12.91073,56.65283],[12.91,56.65228],[12.9092,56.65204],[12.90489,56.65412],[12.90638,56.66046],[12.90557,56.66428],[12.90396,56.66709],[12.89831,56.67384],[12.91896,56.6766],[12.92355,56.67765],[12.9271,56.67867],[12.93424,56.68106],[12.93291,56.68209],[12.9293,56.68343],[12.93115,56.68424],[12.93359,56.68629],[12.92757,56.69001],[12.93018,56.69107],[12.93229,56.69151],[12.93493,56.6918],[12.93692,56.69261],[12.93878,56.69308],[12.94218,56.6934],[12.94618,56.693],[12.95161,56.69153]]]}},{"type":"Feature","id":"1380R004","properties":{"code":"1380R004","name":"Bäckagård centrum"},"geometry":{"type":"Polygon","coordinates":[[[12.77647,56.66259],[12.78228,56.6616],[12.78563,56.66173],[12.7883,56.6614],[12.79265,56.66183],[12.79103,56.65843],[12.78261,56.65806],[12.77633,56.65842],[12.77392,56.65518],[12.76707,56.65577],[12.76883,56.65738],[12.7685,56.66006],[12.77279,56.66086],[12.77485,56.66248],[12.77647,56.66259]]]}},{"type":"Feature","id":"1380R005","properties":{"code":"1380R005","name":"Söndrum-Eketånga"},"geometry":{"type":"Polygon","coordinates":[[[12.8113,56.67733],[12.8122,56.67494],[12.82135,56.67223],[12.82099,56.67159],[12.82093,56.6686],[12.81945,56.66652],[12.8198,56.66617],[12.81604,56.66438],[12.82366,56.65519],[12.82621,56.63825],[12.8021,56.63742],[12.79835,56.64338],[12.7904,56.64931],[12.79097,56.64963],[12.78931,56.65064],[12.78866,56.65192],[12.78894,56.65404],[12.78849,56.6551],[12.79264,56.65541],[12.79636,56.65589],[12.7955,56.65758],[12.79669,56.65886],[12.79933,56.66092],[12.80108,56.66337],[12.8005,56.6635],[12.80286,56.66464],[12.80541,56.66477],[12.80568,56.66683],[12.79774,56.66709],[12.79654,56.66692],[12.79492,56.6664],[12.79376,56.66955],[12.79395,56.67639],[12.78405,56.67497],[12.78383,56.67682],[12.78465,56.67854],[12.78681,56.68029],[12.78756,56.6817],[12.78927,56.68318],[12.79142,56.68663],[12.79337,56.68808],[12.79595,56.6891],[12.80125,56.68518],[12.80055,56.68373],[12.8073,56.6823],[12.80602,56.68124],[12.81159,56.67837],[12.8113,56.67733]]]}},{"type":"Feature","id":"1380R006","properties":{"code":"1380R006","name":"Eldsberga-Simlångsdalen-Skedala"},"geometry":{"type":"Polygon","coordinates":[[[13.2745,56.84667],[13.28064,56.84301],[13.28641,56.8373],[13.28893,56.83637],[13.28974,56.83546],[13.28932,56.83508],[13.29229,56.83398],[13.2971,56.83091],[13.29816,56.82365],[13.30154,56.81414],[13.30087,56.81384],[13.29971,56.81418],[13.30149,56.8092],[13.3031,56.8095],[13.30493,56.80404],[13.31502,56.79392],[13.31887,56.78224],[13.3198,56.75865],[13.31825,56.74],[13.3165,56.73029],[13.31712,56.71952],[13.32497,56.70922],[13.32511,56.70757],[13.3238,56.70656],[13.32239,56.7061],[13.32177,56.70514],[13.32007,56.70437],[13.31717,56.70356],[13.31513,56.70231],[13.31532,56.70191],[13.31665,56.70128],[13.31588,56.69227],[13.30779,56.68547],[13.30654,56.68577],[13.30563,56.68562],[13.30294,56.68571],[13.30111,56.6866],[13.2985,56.68727],[13.29836,56.68762],[13.29571,56.68537],[13.29391,56.68483],[13.29377,56.68442],[13.29128,56.68358],[13.28847,56.6791],[13.28384,56.67889],[13.27802,56.68006],[13.25967,56.67644],[13.24926,56.67533],[13.24149,56.67513],[13.2304,56.67542],[13.22517,56.67623],[13.22437,56.67543],[13.22483,56.6748],[13.22341,56.67441],[13.2227,56.67383],[13.21962,56.67617],[13.2135,56.67599],[13.20943,56.6762],[13.20853,56.67605],[13.2075,56.67619],[13.20544,56.67615],[13.20288,56.67581],[13.20216,56.67539],[13.19644,56.67602],[13.19597,56.67656],[13.18981,56.67694],[13.18849,56.67556],[13.17881,56.67443],[13.17775,56.67453],[13.17607,56.6742],[13.17472,56.67436],[13.17427,56.67425],[13.1739,56.67366],[13.17408,56.67344],[13.17381,56.67308],[13.17324,56.67287],[13.17389,56.67123],[13.17445,56.67062],[13.17431,56.67019],[13.1751,56.66676],[13.17629,56.66668],[13.17748,56.66635],[13.17781,56.6657],[13.18087,56.66367],[13.18288,56.66325],[13.18731,56.66293],[13.18941,56.66235],[13.19107,56.66116],[13.1907,56.6607],[13.19081,56.65968],[13.19211,56.65877],[13.1925,56.65798],[13.19378,56.65716],[13.19644,56.65408],[13.18875,56.65084],[13.18777,56.65066],[13.18797,56.65035],[13.18619,56.65065],[13.18412,56.65075],[13.16409,56.65026],[13.16593,56.64613],[13.16415,56.63433],[13.16164,56.63238],[13.1601,56.63147],[13.15844,56.63102],[13.15802,56.63029],[13.15618,56.63],[13.15545,56.62972],[13.15223,56.62946],[13.15161,56.62891],[13.15077,56.62861],[13.14833,56.6289],[13.14751,56.62874],[13.14628,56.62814],[13.14633,56.62789],[13.14526,56.62769],[13.14426,56.62711],[13.14411,56.62624],[13.14371,56.62613],[13.14332,56.62558],[13.14266,56.62536],[13.14183,56.62451],[13.14082,56.6243],[13.14057,56.62458],[13.13938,56.62446],[13.13761,56.62412],[13.13667,56.6235],[13.13636,56.62359],[13.13612,56.62398],[13.13548,56.62406],[13.13515,56.62477],[13.13437,56.62499],[13.13419,56.62583],[13.13313,56.62625],[13.13369,56.62676],[13.13334,56.62761],[13.13197,56.62819],[13.13224,56.62853],[13.13188,56.62866],[13.13185,56.62913],[13.13086,56.62934],[13.12988,56.63055],[13.12217,56.6261],[13.11281,56.62158],[13.10136,56.61453],[13.09283,56.61304],[13.07491,56.60754],[13.06361,56.60336],[13.06355,56.60388],[13.06102,56.60379],[13.06206,56.60279],[13.05739,56.6011],[13.05599,56.60211],[13.05414,56.60159],[13.05351,56.6009],[13.05325,56.60099],[13.0506,56.60039],[13.0486,56.6004],[13.04737,56.60066],[13.04709,56.60032],[13.04587,56.59999],[13.04571,56.59897],[13.04116,56.59724],[13.04042,56.59678],[13.03569,56.59609],[13.03297,56.59636],[13.02769,56.59566],[13.02845,56.59527],[13.02841,56.59479],[13.02776,56.59455],[13.02717,56.5946],[13.02763,56.59386],[13.02683,56.59367],[13.02688,56.59272],[13.02619,56.5924],[13.02599,56.59196],[13.02561,56.5919],[13.02497,56.59137],[13.02517,56.59091],[13.02496,56.59056],[13.02435,56.59041],[13.02424,56.59076],[13.02387,56.5908],[13.02284,56.59052],[13.02238,56.59099],[13.02185,56.59089],[13.02206,56.59025],[13.02317,56.59022],[13.0231,56.58982],[13.02234,56.5893],[13.02145,56.5894],[13.02047,56.58855],[13.01912,56.58785],[13.01779,56.588],[13.01681,56.58782],[13.01668,56.58767],[13.01738,56.58691],[13.01663,56.58671],[13.0174,56.5865],[13.01764,56.58611],[13.01703,56.58575],[13.01732,56.58536],[13.01698,56.58516],[13.01659,56.58524],[13.01609,56.58501],[13.01549,56.58515],[13.01513,56.58496],[13.01551,56.58465],[13.01628,56.58456],[13.01735,56.58384],[13.01591,56.5836],[13.01657,56.58283],[13.01605,56.58229],[13.01627,56.58218],[13.01667,56.58229],[13.01744,56.58187],[13.01675,56.58152],[13.01728,56.58117],[13.01696,56.58079],[13.01808,56.5806],[13.01895,56.58014],[13.01905,56.57931],[13.01962,56.57932],[13.01963,56.57898],[13.01912,56.57881],[13.01947,56.57867],[13.01932,56.57823],[13.0188,56.57799],[13.01896,56.57735],[13.02021,56.57633],[13.02004,56.5759],[13.02113,56.5757],[13.02147,56.57522],[13.02041,56.57494],[13.01995,56.57459],[13.02017,56.57392],[13.01928,56.57368],[13.01762,56.57391],[13.01707,56.57376],[13.01687,56.57324],[13.01556,56.57316],[13.0138,56.57382],[13.01255,56.57355],[13.00969,56.57352],[13.00926,56.57305],[13.01019,56.57246],[13.00947,56.57089],[13.00666,56.56851],[13.00661,56.56768],[12.99639,56.5592],[12.9876,56.55679],[12.97401,56.54239],[12.97344,56.54237],[12.97344,56.5429],[12.97196,56.54302],[12.97205,56.5439],[12.96875,56.54581],[12.96806,56.54693],[12.96822,56.54824],[12.94484,56.55364],[12.91781,56.55229],[12.79711,56.55217],[12.24085,56.55722],[12.29265,56.62979],[12.29875,56.637],[12.2947,56.64136],[12.28605,56.65178],[12.27631,56.66106],[12.26146,56.67835],[12.5632,56.77702],[12.61178,56.77726],[12.62196,56.72622],[12.6296,56.70338],[12.67088,56.66945],[12.71255,56.6343],[12.82621,56.63825],[12.865,56.60752],[12.89423,56.58373],[12.92177,56.58924],[12.92702,56.58816],[12.92923,56.58801],[12.93158,56.58813],[12.93561,56.58385],[12.93714,56.58276],[12.93767,56.58155],[12.93858,56.5805],[12.94097,56.57897],[12.9425,56.57739],[12.94425,56.57631],[12.94699,56.57536],[12.95013,56.57494],[12.95338,56.575],[12.95645,56.57558],[12.95903,56.57666],[12.96109,56.57802],[12.96423,56.5797],[12.96562,56.58089],[12.96644,56.58224],[12.96663,56.58334],[12.96631,56.58475],[12.96565,56.58576],[12.96365,56.58756],[12.96211,56.5886],[12.95656,56.59464],[12.95545,56.59553],[12.95353,56.59652],[12.94926,56.59788],[12.94687,56.5983],[12.94467,56.59838],[12.94435,56.59976],[12.94369,56.60077],[12.94049,56.60322],[12.93853,56.60421],[12.93677,56.60477],[12.93484,56.60513],[12.93242,56.60529],[12.93159,56.60666],[12.93055,56.60762],[12.93328,56.60738],[12.93649,56.60756],[12.93893,56.60807],[12.94109,56.60892],[12.94247,56.60884],[12.94468,56.60776],[12.94706,56.60711],[12.94966,56.6068],[12.95251,56.60687],[12.95517,56.60732],[12.95923,56.60857],[12.96124,56.60946],[12.96277,56.61061],[12.96393,56.61239],[12.9653,56.61384],[12.96597,56.61524],[12.96646,56.61808],[12.96528,56.62078],[12.96319,56.62346],[12.95774,56.62697],[12.9543,56.62816],[12.9508,56.62855],[12.95346,56.63008],[12.95441,56.63108],[12.95502,56.6322],[12.95899,56.63328],[12.96166,56.63481],[12.96314,56.63684],[12.96315,56.63899],[12.9616,56.64149],[12.96035,56.64273],[12.95673,56.64466],[12.95454,56.6462],[12.95146,56.64728],[12.95206,56.64821],[12.95263,56.65001],[12.95263,56.65143],[12.9517,56.65317],[12.94941,56.65489],[12.94665,56.65606],[12.94296,56.65669],[12.93967,56.65661],[12.93696,56.65607],[12.93391,56.65638],[12.93095,56.65622],[12.92741,56.65786],[12.92533,56.65946],[12.92778,56.66078],[12.92895,56.6619],[12.93093,56.66316],[12.932,56.66439],[12.93244,56.66547],[12.9325,56.66667],[12.9316,56.66889],[12.93334,56.66985],[12.93708,56.67055],[12.94138,56.672],[12.94604,56.67384],[12.9496,56.6745],[12.95138,56.67507],[12.95298,56.67584],[12.95462,56.67709],[12.95706,56.67838],[12.95837,56.67965],[12.95901,56.68083],[12.95935,56.68262],[12.95913,56.68512],[12.95815,56.68678],[12.95505,56.68987],[12.95322,56.69093],[12.9498,56.69212],[12.94483,56.69323],[12.94138,56.69338],[12.93819,56.69296],[12.93493,56.6918],[12.93212,56.69149],[12.93018,56.69107],[12.92848,56.69318],[12.92727,56.69403],[12.92534,56.69497],[12.92179,56.69587],[12.91799,56.69598],[12.91709,56.69614],[12.91614,56.69683],[12.91835,56.69729],[12.92183,56.69679],[12.92299,56.69687],[12.92488,56.69857],[12.92695,56.69877],[12.9293,56.69957],[12.93063,56.70105],[12.93329,56.70324],[12.93337,56.70479],[12.93283,56.70582],[12.93284,56.70651],[12.935,56.70931],[12.93757,56.71091],[12.94061,56.71743],[12.93722,56.72137],[12.93709,56.72624],[12.93832,56.72792],[12.94162,56.72875],[12.94178,56.72964],[12.94521,56.72934],[12.94726,56.72935],[12.94985,56.7297],[12.95169,56.73019],[12.95332,56.73087],[12.95504,56.73199],[12.95699,56.73448],[12.95972,56.73507],[12.96269,56.73512],[12.96558,56.73565],[12.96936,56.73546],[12.97217,56.73573],[12.97561,56.73674],[12.97709,56.73752],[12.97833,56.73849],[12.97918,56.73953],[12.97972,56.74106],[12.97955,56.74252],[12.97894,56.74364],[12.97765,56.74492],[12.97549,56.74613],[12.97514,56.74786],[12.97383,56.74951],[12.97201,56.75071],[12.96948,56.75167],[12.97168,56.75335],[12.97269,56.75544],[12.97499,56.75543],[12.97755,56.75577],[12.97983,56.75644],[12.98177,56.75742],[12.98366,56.759],[12.98468,56.76053],[12.98667,56.76152],[12.98807,56.76271],[12.98875,56.76372],[12.98936,56.76546],[12.99246,56.76641],[12.99498,56.76805],[12.9961,56.76973],[12.99636,56.77258],[12.99805,56.77395],[12.99895,56.77542],[12.99934,56.77912],[13.00012,56.78099],[12.99998,56.78237],[13.00164,56.78351],[13.00547,56.78448],[13.00773,56.78643],[13.0061,56.78875],[13.00949,56.79048],[13.01013,56.79192],[13.01261,56.79277],[13.01391,56.79426],[13.0137,56.79609],[13.01437,56.7977],[13.01801,56.79806],[13.02242,56.79938],[13.02672,56.79988],[13.03102,56.79801],[13.03387,56.79486],[13.03387,56.79194],[13.03317,56.78947],[13.03478,56.78656],[13.0375,56.78552],[13.04021,56.78562],[13.04181,56.78415],[13.04322,56.78209],[13.06869,56.7862],[13.09418,56.78134],[13.11265,56.79283],[13.11551,56.79362],[13.12097,56.79282],[13.13198,56.78901],[13.13617,56.78567],[13.13613,56.78514],[13.13691,56.78443],[13.13955,56.7841],[13.1408,56.78543],[13.14318,56.78671],[13.1439,56.78685],[13.14511,56.78746],[13.14575,56.78862],[13.14751,56.78995],[13.15075,56.79139],[13.15562,56.79642],[13.15856,56.7988],[13.15233,56.80615],[13.14797,56.8103],[13.15681,56.81431],[13.1606,56.81395],[13.16806,56.81618],[13.17089,56.81749],[13.17394,56.81742],[13.17751,56.81855],[13.18142,56.81888],[13.18205,56.8209],[13.18435,56.82291],[13.18509,56.82449],[13.18317,56.82518],[13.18191,56.82524],[13.18132,56.82547],[13.17968,56.82727],[13.18043,56.82803],[13.185,56.82987],[13.18869,56.82933],[13.19268,56.83003],[13.20202,56.83567],[13.20683,56.83502],[13.20942,56.83192],[13.2131,56.83229],[13.23999,56.84105],[13.24179,56.8445],[13.24092,56.84745],[13.24328,56.84802],[13.24831,56.84699],[13.24866,56.84669],[13.24987,56.84684],[13.25065,56.84623],[13.25542,56.84695],[13.26185,56.85301],[13.26672,56.85284],[13.27205,56.84842],[13.2745,56.84667]]]}},{"type":"Feature","id":"1380R007","properties":{"code":"1380R007","name":"Engelbrekt-Östra Förstaden"},"geometry":{"type":"Polygon","coordinates":[[[12.87268,56.65497],[12.87685,56.65124],[12.8752,56.65106],[12.87382,56.65044],[12.86992,56.64983],[12.85361,56.64548],[12.83712,56.64901],[12.84176,56.6536],[12.84708,56.65308],[12.85639,56.66233],[12.8576,56.66377],[12.85956,56.67242],[12.86275,56.6723],[12.86553,56.67171],[12.87417,56.66814],[12.8794,56.66572],[12.86935,56.66271],[12.87751,56.65822],[12.87442,56.6559],[12.87296,56.65542],[12.87268,56.65497]]]}},{"type":"Feature","id":"1380R008","properties":{"code":"1380R008","name":"Frennarp-Kärleken-Galgberget östra"},"geometry":{"type":"Polygon","coordinates":[[[12.88538,56.70135],[12.88442,56.6998],[12.88811,56.69973],[12.89349,56.69898],[12.89651,56.69822],[12.89874,56.6972],[12.90459,56.69891],[12.90833,56.6992],[12.91081,56.69896],[12.91259,56.69855],[12.91464,56.69775],[12.91614,56.69683],[12.91359,56.69582],[12.90978,56.69603],[12.90847,56.69578],[12.90665,56.69415],[12.90552,56.69392],[12.90318,56.69403],[12.90177,56.69365],[12.90037,56.69303],[12.89826,56.6912],[12.89691,56.69049],[12.89549,56.69006],[12.89407,56.68995],[12.89473,56.67988],[12.89612,56.67671],[12.89831,56.67384],[12.89257,56.67331],[12.88658,56.67324],[12.88219,56.6734],[12.88072,56.67625],[12.88015,56.67679],[12.87389,56.67907],[12.87767,56.68077],[12.88218,56.68247],[12.87897,56.68466],[12.88153,56.68595],[12.88277,56.68637],[12.88043,56.68733],[12.87701,56.68598],[12.87693,56.6857],[12.87536,56.68578],[12.87564,56.68654],[12.87239,56.68701],[12.87006,56.68418],[12.8657,56.68173],[12.86278,56.67958],[12.86002,56.6796],[12.85955,56.68037],[12.85787,56.68002],[12.85721,56.68113],[12.85972,56.68369],[12.86319,56.68612],[12.86426,56.68805],[12.86341,56.68913],[12.86146,56.6879],[12.84962,56.68694],[12.84262,56.68843],[12.84329,56.69018],[12.84349,56.69032],[12.84457,56.68997],[12.8453,56.69032],[12.84697,56.69186],[12.845,56.69318],[12.8457,56.69485],[12.8458,56.69692],[12.8432,56.69948],[12.84252,56.70168],[12.84774,56.70992],[12.85039,56.71112],[12.85353,56.71185],[12.85233,56.7133],[12.85184,56.71434],[12.85171,56.71542],[12.85207,56.71704],[12.85366,56.71903],[12.85538,56.72008],[12.85698,56.72071],[12.85941,56.72126],[12.8627,56.72155],[12.86826,56.72126],[12.87152,56.72062],[12.87454,56.71927],[12.87655,56.71741],[12.87764,56.71544],[12.87753,56.71354],[12.87661,56.71206],[12.87719,56.71079],[12.87734,56.70918],[12.87958,56.70874],[12.88132,56.70819],[12.88312,56.70734],[12.88465,56.70619],[12.88544,56.70521],[12.88593,56.70381],[12.88538,56.70135]]]}},{"type":"Feature","id":"1380R009","properties":{"code":"1380R009","name":"Frösakull-Tylösand-Villshärad"},"geometry":{"type":"Polygon","coordinates":[[[12.71623,56.70746],[12.72697,56.70083],[12.72758,56.69902],[12.73956,56.69932],[12.74116,56.70303],[12.74603,56.70217],[12.74636,56.703],[12.7457,56.70516],[12.74301,56.70697],[12.74315,56.70722],[12.75563,56.7057],[12.75546,56.70431],[12.75466,56.70296],[12.75279,56.70091],[12.75118,56.69968],[12.74958,56.69885],[12.74876,56.69724],[12.74786,56.69628],[12.74517,56.69472],[12.74185,56.69387],[12.74067,56.69203],[12.73854,56.69057],[12.7405,56.68969],[12.74172,56.68885],[12.74264,56.68786],[12.7433,56.68656],[12.74612,56.68565],[12.74829,56.68432],[12.74994,56.68223],[12.75019,56.6801],[12.75081,56.67932],[12.75334,56.67871],[12.75583,56.67752],[12.75833,56.6755],[12.75996,56.67305],[12.76028,56.67125],[12.7594,56.66882],[12.75842,56.66748],[12.75661,56.66615],[12.75738,56.66607],[12.75757,56.66558],[12.75563,56.66531],[12.75563,56.66503],[12.75264,56.6636],[12.75667,56.66175],[12.7607,56.6605],[12.76189,56.66024],[12.76628,56.65982],[12.7685,56.66006],[12.76883,56.65738],[12.76707,56.65577],[12.77392,56.65518],[12.7788,56.6505],[12.77373,56.64699],[12.77122,56.64801],[12.77055,56.64755],[12.77079,56.64723],[12.768,56.64526],[12.76535,56.63615],[12.71255,56.6343],[12.67088,56.66945],[12.63621,56.69798],[12.64385,56.70083],[12.66552,56.70591],[12.66964,56.70632],[12.67774,56.70084],[12.68156,56.70204],[12.68424,56.70255],[12.69446,56.703],[12.69709,56.70461],[12.69866,56.70531],[12.70091,56.70599],[12.70369,56.70645],[12.70802,56.70774],[12.7119,56.70805],[12.71623,56.70746]]]}},{"type":"Feature","id":"1380R011","properties":{"code":"1380R011","name":"Fyllinge"},"geometry":{"type":"Polygon","coordinates":[[[12.91154,56.65861],[12.92294,56.65787],[12.92343,56.65836],[12.92685,56.65843],[12.92741,56.65786],[12.93095,56.65622],[12.93391,56.65638],[12.93696,56.65607],[12.94033,56.65667],[12.94424,56.65656],[12.94779,56.65566],[12.94985,56.65465],[12.9511,56.65377],[12.9522,56.65249],[12.95269,56.65106],[12.9522,56.64854],[12.95146,56.64728],[12.95454,56.6462],[12.95673,56.64466],[12.96035,56.64273],[12.96135,56.6418],[12.9626,56.64003],[12.96331,56.63828],[12.96298,56.63645],[12.96166,56.63481],[12.95899,56.63328],[12.95502,56.6322],[12.95441,56.63108],[12.95349,56.63011],[12.93584,56.62682],[12.93325,56.62827],[12.93354,56.62844],[12.93188,56.62933],[12.93162,56.62932],[12.93165,56.62917],[12.92041,56.6352],[12.92081,56.63529],[12.90581,56.63656],[12.90569,56.6363],[12.90486,56.63738],[12.90446,56.63848],[12.90475,56.64056],[12.90315,56.64031],[12.90278,56.64222],[12.90269,56.64464],[12.90489,56.65412],[12.9092,56.65204],[12.91,56.65228],[12.91073,56.65283],[12.91285,56.65304],[12.91524,56.65384],[12.91599,56.65462],[12.91533,56.65601],[12.91437,56.65709],[12.9119,56.65795],[12.91154,56.65861]]]}},{"type":"Feature","id":"1380R012","properties":{"code":"1380R012","name":"Getinge tätort"},"geometry":{"type":"Polygon","coordinates":[[[12.7414,56.83614],[12.7444,56.83585],[12.75043,56.83447],[12.7534,56.8332],[12.75695,56.83216],[12.75917,56.83081],[12.76047,56.82918],[12.76114,56.82699],[12.76114,56.82557],[12.76043,56.82412],[12.76117,56.82304],[12.76166,56.82141],[12.76142,56.8183],[12.76051,56.81659],[12.75848,56.81497],[12.75585,56.81388],[12.7529,56.81331],[12.75241,56.81192],[12.75163,56.81093],[12.75009,56.80978],[12.74847,56.80902],[12.74815,56.80779],[12.7472,56.80647],[12.74404,56.80432],[12.74203,56.80343],[12.73963,56.80283],[12.73509,56.80231],[12.73242,56.80233],[12.72911,56.80284],[12.72679,56.80357],[12.72475,56.80465],[12.72334,56.80595],[12.72158,56.80703],[12.71856,56.80778],[12.71616,56.80899],[12.71429,56.81096],[12.7139,56.81297],[12.71202,56.81351],[12.70903,56.81477],[12.70743,56.81589],[12.70656,56.81689],[12.70488,56.81772],[12.70367,56.81862],[12.70232,56.82054],[12.7022,56.82261],[12.70291,56.82395],[12.70391,56.82495],[12.70641,56.82637],[12.70738,56.82781],[12.70845,56.82872],[12.71084,56.82993],[12.71315,56.83057],[12.71511,56.83083],[12.72005,56.83084],[12.72303,56.83041],[12.72663,56.83108],[12.72996,56.8314],[12.73151,56.83337],[12.73446,56.83496],[12.73796,56.83592],[12.7414,56.83614]]]}},{"type":"Feature","id":"1380R013","properties":{"code":"1380R013","name":"Gullbrandstorp-Haverdal-Steninge"},"geometry":{"type":"Polygon","coordinates":[[[12.64332,56.78493],[12.64313,56.78265],[12.64374,56.78134],[12.64386,56.7793],[12.64335,56.77752],[12.64383,56.77597],[12.64699,56.77514],[12.64931,56.77389],[12.65033,56.77297],[12.65104,56.77187],[12.6533,56.77018],[12.6543,56.76811],[12.65423,56.76677],[12.65381,56.76572],[12.65303,56.76473],[12.65183,56.76379],[12.6524,56.7613],[12.65235,56.76021],[12.65169,56.75882],[12.65062,56.75772],[12.65064,56.75676],[12.65259,56.75541],[12.65354,56.75411],[12.65395,56.75271],[12.65379,56.75124],[12.65298,56.74985],[12.65184,56.7488],[12.65,56.74775],[12.64819,56.74709],[12.64666,56.74611],[12.65049,56.74407],[12.65195,56.74308],[12.65506,56.74404],[12.65883,56.74434],[12.66301,56.74389],[12.6667,56.74378],[12.66911,56.74328],[12.67075,56.74268],[12.67257,56.74164],[12.67638,56.73852],[12.6772,56.73715],[12.67721,56.73503],[12.67768,56.73457],[12.68094,56.73154],[12.68365,56.73055],[12.68839,56.7318],[12.69103,56.73201],[12.69326,56.73192],[12.69638,56.73154],[12.69885,56.73092],[12.70165,56.73046],[12.70331,56.72994],[12.70756,56.72811],[12.70892,56.72727],[12.71022,56.72599],[12.71081,56.72492],[12.71102,56.72368],[12.71026,56.72148],[12.70898,56.72019],[12.70757,56.71932],[12.70675,56.71788],[12.7079,56.71614],[12.70825,56.71354],[12.70882,56.71519],[12.70952,56.71616],[12.71054,56.71704],[12.71219,56.71797],[12.7144,56.71879],[12.71789,56.71964],[12.72197,56.72011],[12.72471,56.71995],[12.72943,56.71906],[12.73163,56.71831],[12.73331,56.71742],[12.7364,56.71678],[12.73913,56.71561],[12.74177,56.716],[12.74505,56.71598],[12.74777,56.71551],[12.75055,56.7145],[12.75237,56.7133],[12.75351,56.71198],[12.75404,56.7102],[12.7537,56.7087],[12.75512,56.70717],[12.75563,56.7057],[12.74315,56.70722],[12.74301,56.70697],[12.7457,56.70516],[12.74636,56.703],[12.74603,56.70217],[12.74116,56.70303],[12.73956,56.69932],[12.72758,56.69902],[12.72697,56.70083],[12.71646,56.70745],[12.7119,56.70805],[12.70802,56.70774],[12.70369,56.70645],[12.7003,56.70584],[12.69758,56.70486],[12.69446,56.703],[12.68424,56.70255],[12.68156,56.70204],[12.67774,56.70084],[12.66964,56.70632],[12.66552,56.70591],[12.64385,56.70083],[12.63621,56.69798],[12.6296,56.70338],[12.62196,56.72622],[12.61178,56.77726],[12.61469,56.77805],[12.61707,56.7799],[12.61855,56.78055],[12.62051,56.78224],[12.62114,56.78224],[12.62133,56.78291],[12.62202,56.78332],[12.6237,56.7838],[12.62386,56.78433],[12.62483,56.78478],[12.62655,56.78539],[12.63163,56.78468],[12.6412,56.79275],[12.64093,56.7907],[12.63952,56.78865],[12.64209,56.78694],[12.64332,56.78493]]]}},{"type":"Feature","id":"1380R015","properties":{"code":"1380R015","name":"Halmstad centrum västra-Galgberget västra"},"geometry":{"type":"Polygon","coordinates":[[[12.86341,56.68913],[12.86426,56.68805],[12.86319,56.68612],[12.85972,56.68369],[12.85827,56.68232],[12.85721,56.68113],[12.8577,56.68029],[12.8561,56.67999],[12.85664,56.67895],[12.85429,56.67851],[12.85509,56.67702],[12.85372,56.67567],[12.85265,56.67392],[12.85391,56.67241],[12.85304,56.67238],[12.8524,56.67271],[12.85135,56.67278],[12.8502,56.67409],[12.84841,56.67362],[12.84554,56.67397],[12.8487,56.67575],[12.84457,56.67956],[12.84242,56.68066],[12.84177,56.68069],[12.84197,56.68179],[12.84114,56.68203],[12.8421,56.68348],[12.84256,56.68843],[12.84962,56.68694],[12.86146,56.6879],[12.86341,56.68913]]]}},{"type":"Feature","id":"1380R016","properties":{"code":"1380R016","name":"Halmstad centrum östra-Nyatorp västra"},"geometry":{"type":"Polygon","coordinates":[[[12.86698,56.6775],[12.86848,56.67648],[12.868,56.67616],[12.86838,56.67596],[12.86954,56.67686],[12.87269,56.67847],[12.87417,56.678],[12.87279,56.67709],[12.87741,56.67554],[12.87615,56.67434],[12.87712,56.67401],[12.87618,56.67309],[12.86922,56.67125],[12.86737,56.67095],[12.86553,56.67171],[12.86275,56.6723],[12.85956,56.67242],[12.86025,56.67466],[12.86192,56.67445],[12.8639,56.67681],[12.86435,56.6767],[12.8648,56.67705],[12.86623,56.67865],[12.86717,56.67821],[12.86698,56.6775]]]}},{"type":"Feature","id":"1380R017","properties":{"code":"1380R017","name":"Halmstad centrum-Slottsjord-Kattegatt"},"geometry":{"type":"Polygon","coordinates":[[[12.85955,56.68037],[12.86002,56.6796],[12.86278,56.67958],[12.86175,56.67833],[12.86014,56.67443],[12.85887,56.67004],[12.8576,56.66377],[12.84708,56.65308],[12.84176,56.6536],[12.83589,56.6478],[12.83582,56.65196],[12.83748,56.65876],[12.84603,56.66252],[12.84768,56.66342],[12.84865,56.66326],[12.84902,56.66353],[12.84828,56.66392],[12.84941,56.66482],[12.84997,56.66471],[12.85022,56.66515],[12.85031,56.6661],[12.84963,56.66948],[12.84693,56.66913],[12.84664,56.66998],[12.84541,56.66988],[12.84372,56.67017],[12.84422,56.67087],[12.84486,56.67161],[12.84615,56.67147],[12.84917,56.67162],[12.84905,56.67227],[12.85391,56.67241],[12.85265,56.67392],[12.85372,56.67567],[12.85509,56.67702],[12.85429,56.67851],[12.85664,56.67895],[12.85611,56.67999],[12.8577,56.68029],[12.85787,56.68002],[12.85955,56.68037]]]}},{"type":"Feature","id":"1380R018","properties":{"code":"1380R018","name":"Harplinge-Getinge glesbygd"},"geometry":{"type":"Polygon","coordinates":[[[12.75813,56.86025],[12.77095,56.85569],[12.77189,56.85654],[12.77452,56.85531],[12.77656,56.85589],[12.7869,56.856],[12.79448,56.85565],[12.80128,56.85568],[12.80515,56.85534],[12.80693,56.85543],[12.80849,56.85496],[12.81319,56.85287],[12.81723,56.85308],[12.81848,56.85301],[12.81894,56.8528],[12.81951,56.85316],[12.82449,56.85348],[12.82734,56.85389],[12.83035,56.85406],[12.83178,56.85389],[12.84165,56.85579],[12.83587,56.84661],[12.83569,56.8441],[12.83592,56.84252],[12.83514,56.84048],[12.83433,56.83955],[12.83336,56.8375],[12.83542,56.83629],[12.83604,56.83547],[12.83695,56.83495],[12.83565,56.83359],[12.83563,56.83259],[12.83481,56.83057],[12.83018,56.82678],[12.82672,56.82321],[12.82448,56.82248],[12.82023,56.81944],[12.81961,56.81867],[12.81584,56.81831],[12.81331,56.81756],[12.81227,56.81642],[12.812,56.8145],[12.81086,56.81308],[12.81013,56.81224],[12.80759,56.81058],[12.8051,56.80459],[12.80268,56.80483],[12.79115,56.79349],[12.78591,56.79205],[12.78879,56.78987],[12.78159,56.78187],[12.78384,56.78152],[12.78674,56.78245],[12.78844,56.78247],[12.78936,56.78136],[12.78404,56.77603],[12.78067,56.77704],[12.77551,56.77687],[12.76925,56.77542],[12.76718,56.7759],[12.76114,56.77589],[12.76013,56.77446],[12.75775,56.77428],[12.75381,56.77459],[12.74303,56.77135],[12.73806,56.77508],[12.73174,56.7773],[12.72888,56.77706],[12.72583,56.77602],[12.72451,56.77401],[12.73978,56.77134],[12.74152,56.76973],[12.75469,56.77096],[12.75731,56.77281],[12.75964,56.77248],[12.76819,56.76648],[12.76748,56.76536],[12.76907,56.76427],[12.77157,56.76297],[12.77774,56.75841],[12.7784,56.7561],[12.78105,56.75487],[12.78412,56.75156],[12.78839,56.74848],[12.7898,56.74603],[12.79004,56.74612],[12.79122,56.74357],[12.78847,56.73477],[12.78194,56.73317],[12.7692,56.7233],[12.75083,56.71435],[12.74833,56.71536],[12.74505,56.71598],[12.74177,56.716],[12.73913,56.71561],[12.7364,56.71678],[12.73331,56.71742],[12.73163,56.71831],[12.72943,56.71906],[12.72471,56.71995],[12.72197,56.72011],[12.71789,56.71964],[12.7144,56.71879],[12.71219,56.71797],[12.71054,56.71704],[12.70952,56.71616],[12.70882,56.71519],[12.70825,56.71354],[12.7079,56.71614],[12.70675,56.71788],[12.70757,56.71932],[12.70898,56.72019],[12.71026,56.72148],[12.71102,56.72368],[12.71081,56.72492],[12.71022,56.72599],[12.70892,56.72727],[12.70756,56.72811],[12.70331,56.72994],[12.70165,56.73046],[12.69885,56.73092],[12.69638,56.73154],[12.69326,56.73192],[12.69103,56.73201],[12.68839,56.7318],[12.68365,56.73055],[12.68094,56.73154],[12.67768,56.73457],[12.67721,56.73503],[12.6772,56.73715],[12.67638,56.73852],[12.67257,56.74164],[12.67075,56.74268],[12.66911,56.74328],[12.6667,56.74378],[12.66301,56.74389],[12.65883,56.74434],[12.65506,56.74404],[12.65195,56.74308],[12.65049,56.74407],[12.64666,56.74611],[12.64819,56.74709],[12.65,56.74775],[12.65184,56.7488],[12.65298,56.74985],[12.65379,56.75124],[12.65395,56.75271],[12.65354,56.75411],[12.65259,56.75541],[12.65064,56.75676],[12.65062,56.75772],[12.65169,56.75882],[12.65224,56.75985],[12.6524,56.7613],[12.65183,56.76379],[12.65303,56.76473],[12.65398,56.76604],[12.6543,56.76714],[12.65423,56.76847],[12.6533,56.77018],[12.65104,56.77187],[12.65033,56.77297],[12.64931,56.77389],[12.64699,56.77514],[12.64383,56.77597],[12.64335,56.77752],[12.64386,56.7793],[12.64374,56.78134],[12.64313,56.78265],[12.64341,56.78397],[12.64321,56.78526],[12.64209,56.78694],[12.63952,56.78865],[12.64093,56.7907],[12.6412,56.79275],[12.64311,56.79447],[12.63694,56.79467],[12.63608,56.7985],[12.63176,56.79782],[12.62986,56.80311],[12.63174,56.80332],[12.63672,56.80325],[12.64204,56.80243],[12.64542,56.80557],[12.64584,56.8056],[12.6462,56.80593],[12.64865,56.80639],[12.64993,56.80538],[12.65197,56.80461],[12.64985,56.80301],[12.65242,56.80081],[12.65978,56.81102],[12.66321,56.81332],[12.66592,56.81471],[12.67142,56.81497],[12.67249,56.81528],[12.67525,56.8153],[12.6775,56.81491],[12.68005,56.81392],[12.68009,56.8137],[12.68044,56.81364],[12.68002,56.81306],[12.6825,56.81349],[12.68098,56.81563],[12.68256,56.81684],[12.68335,56.81785],[12.68412,56.81778],[12.68445,56.81834],[12.68607,56.81949],[12.68427,56.82066],[12.68798,56.82151],[12.6912,56.82367],[12.69197,56.82358],[12.69439,56.82447],[12.69482,56.82504],[12.69441,56.8262],[12.69504,56.82699],[12.69649,56.82759],[12.6971,56.82753],[12.70334,56.82938],[12.71187,56.83385],[12.71518,56.8321],[12.71874,56.8318],[12.7187,56.83219],[12.71994,56.83325],[12.71932,56.83355],[12.72025,56.83401],[12.71811,56.83665],[12.7182,56.8369],[12.71693,56.83742],[12.71685,56.83761],[12.71722,56.8377],[12.7198,56.83745],[12.72051,56.83756],[12.72258,56.83979],[12.7254,56.84104],[12.72687,56.84129],[12.72706,56.84197],[12.72621,56.84314],[12.7273,56.84361],[12.72875,56.84461],[12.72925,56.84464],[12.72982,56.84436],[12.7305,56.84456],[12.73077,56.84499],[12.73041,56.84559],[12.73095,56.84669],[12.73165,56.84662],[12.73179,56.84595],[12.73223,56.84556],[12.73492,56.84531],[12.73603,56.84459],[12.73833,56.84457],[12.73835,56.84513],[12.73916,56.84538],[12.7402,56.84353],[12.74094,56.84349],[12.74118,56.84365],[12.74024,56.84455],[12.74042,56.84513],[12.74078,56.84513],[12.74088,56.84452],[12.74374,56.84513],[12.74437,56.84643],[12.74318,56.84746],[12.74399,56.84762],[12.74421,56.84787],[12.74322,56.84817],[12.74329,56.84905],[12.74234,56.84965],[12.74213,56.85023],[12.74233,56.85083],[12.74323,56.85155],[12.74447,56.85094],[12.74653,56.85152],[12.74676,56.85176],[12.74649,56.85272],[12.74717,56.85306],[12.74808,56.85302],[12.74942,56.85356],[12.74929,56.85372],[12.74769,56.85368],[12.74757,56.85395],[12.74873,56.85419],[12.74944,56.85455],[12.75041,56.85459],[12.75049,56.85486],[12.74972,56.85556],[12.75103,56.85579],[12.7515,56.85654],[12.7533,56.85766],[12.75338,56.85803],[12.75305,56.85814],[12.75813,56.86025]],[[12.73033,56.8321],[12.72996,56.8314],[12.72663,56.83108],[12.72303,56.83041],[12.7201,56.83083],[12.71573,56.83087],[12.7132,56.83057],[12.71084,56.82993],[12.70845,56.82872],[12.70738,56.82781],[12.70641,56.82637],[12.7047,56.8255],[12.70324,56.82434],[12.70231,56.82295],[12.70212,56.82121],[12.7026,56.81996],[12.70367,56.81862],[12.70488,56.81772],[12.70656,56.81689],[12.70817,56.8153],[12.71006,56.81429],[12.7139,56.81297],[12.714,56.81168],[12.71449,56.81064],[12.71659,56.80871],[12.71909,56.8076],[12.72158,56.80703],[12.72334,56.80595],[12.72515,56.80439],[12.7273,56.80337],[12.73119,56.80247],[12.73509,56.80231],[12.74027,56.80295],[12.74255,56.80362],[12.74404,56.80432],[12.7472,56.80647],[12.74815,56.80779],[12.74847,56.80902],[12.75009,56.80978],[12.75163,56.81093],[12.75241,56.81192],[12.7529,56.81331],[12.75525,56.81371],[12.757,56.81427],[12.7589,56.81523],[12.7602,56.81626],[12.76118,56.81761],[12.76167,56.8194],[12.76159,56.82178],[12.76117,56.82304],[12.76043,56.82412],[12.76104,56.82523],[12.7612,56.82665],[12.76028,56.82953],[12.75917,56.83081],[12.75795,56.83166],[12.7558,56.83261],[12.7534,56.8332],[12.75043,56.83447],[12.7444,56.83585],[12.74222,56.83611],[12.74015,56.83613],[12.73621,56.83555],[12.73446,56.83496],[12.73235,56.83395],[12.73033,56.8321]]]}},{"type":"Feature","id":"1380R019","properties":{"code":"1380R019","name":"Kvibille-Holm-Vapnö"},"geometry":{"type":"Polygon","coordinates":[[[12.82517,56.8227],[12.84015,56.8211],[12.83717,56.81951],[12.84473,56.81726],[12.85126,56.81603],[12.85843,56.81372],[12.85631,56.8114],[12.85787,56.81053],[12.8582,56.80926],[12.85608,56.80737],[12.85608,56.80621],[12.85475,56.80551],[12.85483,56.8043],[12.8539,56.80252],[12.85273,56.802],[12.85335,56.80075],[12.85277,56.79948],[12.85468,56.79703],[12.87533,56.79665],[12.88731,56.79064],[12.89109,56.79283],[12.89716,56.79562],[12.89301,56.79825],[12.89839,56.802],[12.90548,56.80564],[12.90971,56.80858],[12.9112,56.81071],[12.91285,56.81658],[12.91644,56.81862],[12.92118,56.81259],[12.92238,56.81427],[12.92339,56.815],[12.92554,56.8146],[12.92676,56.81473],[12.928,56.81432],[12.93052,56.81448],[12.93228,56.81384],[12.93527,56.81139],[12.9393,56.81026],[12.94265,56.80862],[12.9422,56.80743],[12.94228,56.80569],[12.94279,56.80462],[12.94398,56.80336],[12.94334,56.80136],[12.94336,56.79825],[12.94438,56.79655],[12.94712,56.79407],[12.94945,56.79289],[12.95247,56.79214],[12.95921,56.79172],[12.96246,56.79189],[12.96407,56.79],[12.96606,56.78864],[12.96651,56.78636],[12.96721,56.78541],[12.96852,56.78434],[12.96768,56.78324],[12.96726,56.78184],[12.96743,56.78031],[12.96806,56.77892],[12.96809,56.77696],[12.96536,56.77469],[12.96421,56.77228],[12.96446,56.77038],[12.96561,56.76879],[12.96601,56.76774],[12.96484,56.76621],[12.96424,56.76491],[12.96252,56.76329],[12.96195,56.76182],[12.95768,56.76193],[12.95393,56.76122],[12.95005,56.7596],[12.94883,56.7587],[12.9478,56.75746],[12.94714,56.75711],[12.94392,56.75845],[12.94002,56.75913],[12.93595,56.75897],[12.93229,56.75798],[12.93038,56.75696],[12.92916,56.75593],[12.92817,56.75446],[12.92792,56.75325],[12.9256,56.75241],[12.92365,56.75125],[12.92088,56.74797],[12.92049,56.74575],[12.92137,56.74391],[12.92463,56.7413],[12.92734,56.73996],[12.92821,56.73894],[12.92972,56.73788],[12.93024,56.73599],[12.93247,56.7329],[12.93407,56.73178],[12.9356,56.7311],[12.93926,56.7301],[12.94178,56.72964],[12.94162,56.72875],[12.93832,56.72792],[12.93709,56.72624],[12.93722,56.72137],[12.94061,56.71743],[12.93757,56.71091],[12.935,56.70931],[12.93284,56.70651],[12.93283,56.70582],[12.93337,56.70479],[12.93329,56.70324],[12.93063,56.70105],[12.9293,56.69957],[12.92695,56.69877],[12.92488,56.69857],[12.92413,56.69807],[12.92339,56.69708],[12.92299,56.69687],[12.92204,56.69678],[12.91835,56.69729],[12.91614,56.69683],[12.91464,56.69775],[12.91259,56.69855],[12.91081,56.69896],[12.90833,56.6992],[12.90459,56.69891],[12.89874,56.6972],[12.89651,56.69822],[12.89349,56.69898],[12.88811,56.69973],[12.88442,56.6998],[12.88525,56.70101],[12.88586,56.70271],[12.88563,56.70485],[12.88465,56.70619],[12.88265,56.7076],[12.88018,56.70858],[12.87734,56.70918],[12.87719,56.71079],[12.87661,56.71206],[12.87753,56.71354],[12.87764,56.71544],[12.8768,56.7171],[12.87539,56.71864],[12.87258,56.72026],[12.86887,56.72119],[12.86338,56.72157],[12.85877,56.72115],[12.85645,56.72053],[12.85489,56.71983],[12.85329,56.71872],[12.85224,56.7174],[12.85176,56.71579],[12.85183,56.71437],[12.85233,56.7133],[12.85353,56.71185],[12.84986,56.71094],[12.84707,56.70944],[12.84566,56.70783],[12.84484,56.70535],[12.83984,56.70424],[12.83699,56.70288],[12.83527,56.70105],[12.83487,56.6989],[12.83261,56.69935],[12.83059,56.69951],[12.82853,56.69946],[12.82577,56.69912],[12.82391,56.69865],[12.82202,56.69788],[12.8185,56.69705],[12.81557,56.69549],[12.81407,56.69378],[12.81357,56.69155],[12.81397,56.69018],[12.8157,56.6874],[12.81131,56.68857],[12.80943,56.68879],[12.80682,56.68881],[12.80476,56.68938],[12.80216,56.68973],[12.79871,56.68965],[12.79496,56.68879],[12.79294,56.68783],[12.79142,56.68663],[12.78927,56.68318],[12.78756,56.6817],[12.78681,56.68029],[12.78526,56.6792],[12.78442,56.67823],[12.78379,56.67611],[12.78442,56.67391],[12.78238,56.674],[12.77974,56.6738],[12.7771,56.67319],[12.77348,56.67272],[12.77077,56.6718],[12.76725,56.67136],[12.76545,56.67083],[12.76213,56.66948],[12.76156,56.66869],[12.7616,56.66806],[12.75909,56.66784],[12.75884,56.66795],[12.76011,56.67054],[12.76028,56.67199],[12.75979,56.67338],[12.75833,56.6755],[12.7549,56.67805],[12.7528,56.67888],[12.75081,56.67932],[12.75019,56.6801],[12.74994,56.68223],[12.74861,56.68403],[12.74659,56.68543],[12.7433,56.68656],[12.74264,56.68786],[12.74172,56.68885],[12.7405,56.68969],[12.73854,56.69057],[12.74067,56.69203],[12.74185,56.69387],[12.74517,56.69472],[12.74748,56.69598],[12.74876,56.69724],[12.74958,56.69885],[12.75118,56.69968],[12.75282,56.70094],[12.75531,56.70395],[12.75557,56.70609],[12.75491,56.7075],[12.7537,56.7087],[12.75404,56.7102],[12.75369,56.71165],[12.7527,56.71301],[12.75083,56.71435],[12.7692,56.7233],[12.78194,56.73317],[12.78847,56.73477],[12.79122,56.74357],[12.79004,56.74612],[12.7898,56.74603],[12.78839,56.74848],[12.78412,56.75156],[12.78105,56.75487],[12.7784,56.7561],[12.77774,56.75841],[12.77157,56.76297],[12.76907,56.76427],[12.76748,56.76536],[12.76819,56.76648],[12.75964,56.77248],[12.75731,56.77281],[12.75469,56.77096],[12.74152,56.76973],[12.73978,56.77134],[12.72451,56.77401],[12.72583,56.77602],[12.72888,56.77706],[12.73174,56.7773],[12.73806,56.77508],[12.74303,56.77135],[12.75381,56.77459],[12.75775,56.77428],[12.76013,56.77446],[12.76114,56.77589],[12.76718,56.7759],[12.76925,56.77542],[12.77551,56.77687],[12.78067,56.77704],[12.78404,56.77603],[12.78936,56.78136],[12.78844,56.78247],[12.78674,56.78245],[12.78384,56.78152],[12.78159,56.78187],[12.78879,56.78987],[12.78591,56.79205],[12.79115,56.79349],[12.80268,56.80483],[12.8051,56.80459],[12.80759,56.81058],[12.81013,56.81224],[12.81086,56.81308],[12.812,56.8145],[12.81227,56.81642],[12.81331,56.81756],[12.81584,56.81831],[12.81961,56.81867],[12.82023,56.81944],[12.82448,56.82248],[12.82517,56.8227]]]}},{"type":"Feature","id":"1380R020","properties":{"code":"1380R020","name":"Linehed södra-Östra Stranden"},"geometry":{"type":"Polygon","coordinates":[[[12.89346,56.66463],[12.89488,56.66468],[12.89377,56.66253],[12.89486,56.66202],[12.89682,56.66173],[12.89621,56.66119],[12.896,56.6593],[12.89685,56.65864],[12.90025,56.65708],[12.89952,56.6566],[12.90489,56.65412],[12.90269,56.64464],[12.90315,56.64031],[12.90475,56.64056],[12.90446,56.63848],[12.90486,56.63738],[12.90569,56.6363],[12.90484,56.63454],[12.90525,56.63348],[12.91023,56.63025],[12.91191,56.62954],[12.91247,56.62873],[12.91168,56.625],[12.91171,56.62356],[12.91037,56.62252],[12.90819,56.61995],[12.90724,56.62015],[12.90654,56.62066],[12.90548,56.621],[12.89799,56.62175],[12.8818,56.61436],[12.865,56.60752],[12.82621,56.63825],[12.83712,56.64901],[12.85361,56.64548],[12.86992,56.64983],[12.87382,56.65044],[12.8752,56.65106],[12.87685,56.65124],[12.87268,56.65497],[12.87296,56.65542],[12.87442,56.6559],[12.87751,56.65822],[12.86935,56.66271],[12.8794,56.66572],[12.88516,56.6631],[12.88759,56.66404],[12.89168,56.66612],[12.89346,56.66463]]]}},{"type":"Feature","id":"1380R021","properties":{"code":"1380R021","name":"Trönninge-Gullbranna-Laxvik"},"geometry":{"type":"Polygon","coordinates":[[[12.92041,56.6352],[12.93165,56.62917],[12.93162,56.62932],[12.93188,56.62933],[12.93354,56.62844],[12.93325,56.62827],[12.93584,56.62682],[12.95349,56.63011],[12.9508,56.62855],[12.95294,56.62839],[12.95487,56.62803],[12.95818,56.62673],[12.96322,56.62344],[12.96598,56.61956],[12.96646,56.61737],[12.96553,56.61419],[12.96245,56.61031],[12.96079,56.60922],[12.95919,56.60856],[12.9546,56.60719],[12.95108,56.60678],[12.94904,56.60684],[12.94648,56.60723],[12.94418,56.60796],[12.94247,56.60884],[12.94109,56.60892],[12.93893,56.60807],[12.93649,56.60756],[12.93328,56.60738],[12.93055,56.60762],[12.93159,56.60666],[12.93242,56.60529],[12.93484,56.60513],[12.93677,56.60477],[12.93853,56.60421],[12.94049,56.60322],[12.94369,56.60077],[12.94435,56.59976],[12.94467,56.59838],[12.94687,56.5983],[12.94926,56.59788],[12.95353,56.59652],[12.95545,56.59553],[12.95656,56.59464],[12.96211,56.5886],[12.96425,56.58708],[12.96591,56.58542],[12.96655,56.58405],[12.96655,56.58263],[12.96611,56.58155],[12.96499,56.58027],[12.95808,56.57618],[12.9564,56.57557],[12.95399,56.57506],[12.95143,56.57491],[12.94826,56.57512],[12.94584,56.57568],[12.94333,56.57681],[12.94097,56.57897],[12.93855,56.58053],[12.93767,56.58155],[12.93714,56.58276],[12.93561,56.58385],[12.93158,56.58813],[12.92923,56.58801],[12.92702,56.58816],[12.92177,56.58924],[12.89423,56.58373],[12.865,56.60752],[12.8818,56.61436],[12.89799,56.62175],[12.90548,56.621],[12.90654,56.62066],[12.90724,56.62015],[12.90819,56.61995],[12.91037,56.62252],[12.91171,56.62356],[12.91168,56.625],[12.9125,56.62862],[12.91191,56.62954],[12.91023,56.63025],[12.90525,56.63348],[12.90484,56.63454],[12.90581,56.63656],[12.92081,56.63529],[12.92041,56.6352]]]}},{"type":"Feature","id":"1380R026","properties":{"code":"1380R026","name":"Bäckagård norra-Bäckagård södra"},"geometry":{"type":"Polygon","coordinates":[[[12.79395,56.67632],[12.79376,56.66955],[12.79492,56.6664],[12.79654,56.66692],[12.79774,56.66709],[12.80568,56.66683],[12.80541,56.66477],[12.80286,56.66464],[12.8005,56.6635],[12.80108,56.66337],[12.79933,56.66092],[12.79669,56.65886],[12.7955,56.65758],[12.79636,56.65589],[12.79264,56.65541],[12.78849,56.6551],[12.78894,56.65404],[12.78866,56.65192],[12.78931,56.65064],[12.79097,56.64963],[12.7904,56.64931],[12.79835,56.64338],[12.8021,56.63742],[12.76535,56.63615],[12.768,56.64526],[12.77079,56.64723],[12.77055,56.64755],[12.77122,56.64801],[12.77373,56.64699],[12.7788,56.6505],[12.77392,56.65518],[12.77633,56.65842],[12.78261,56.65806],[12.79103,56.65843],[12.79265,56.66183],[12.7883,56.6614],[12.78563,56.66173],[12.78228,56.6616],[12.77593,56.66265],[12.77447,56.66229],[12.77279,56.66086],[12.76779,56.65991],[12.76628,56.65982],[12.76189,56.66024],[12.7607,56.6605],[12.75667,56.66175],[12.75264,56.6636],[12.75563,56.66503],[12.75563,56.66531],[12.75757,56.66558],[12.75738,56.66607],[12.75661,56.66615],[12.75884,56.66795],[12.75909,56.66784],[12.7616,56.66806],[12.76156,56.66869],[12.76213,56.66948],[12.76598,56.67101],[12.76843,56.67158],[12.77077,56.6718],[12.77411,56.67285],[12.7771,56.67319],[12.77974,56.6738],[12.78238,56.674],[12.78442,56.67391],[12.78405,56.67497],[12.79395,56.67632]]]}},{"type":"Feature","id":"1380R027","properties":{"code":"1380R027","name":"Vallås östra"},"geometry":{"type":"Polygon","coordinates":[[[12.91791,56.69599],[12.92113,56.69594],[12.92364,56.69551],[12.92635,56.69453],[12.92848,56.69318],[12.93018,56.69107],[12.92757,56.69001],[12.93359,56.68629],[12.93115,56.68424],[12.9293,56.68343],[12.93291,56.68209],[12.93424,56.68106],[12.9271,56.67867],[12.92355,56.67765],[12.91896,56.6766],[12.89831,56.67384],[12.89725,56.67507],[12.91356,56.67685],[12.91476,56.67741],[12.91594,56.67883],[12.91107,56.67829],[12.91041,56.67916],[12.90832,56.67965],[12.90595,56.6794],[12.90534,56.68073],[12.9056,56.68139],[12.9075,56.68291],[12.90238,56.68676],[12.8998,56.68596],[12.89441,56.68585],[12.89407,56.68995],[12.89549,56.69006],[12.89691,56.69049],[12.89826,56.6912],[12.90037,56.69303],[12.90177,56.69365],[12.90318,56.69403],[12.90552,56.69392],[12.90665,56.69415],[12.90809,56.69559],[12.90887,56.6959],[12.90978,56.69603],[12.91359,56.69582],[12.91614,56.69683],[12.91709,56.69614],[12.91791,56.69599]]]}},{"type":"Feature","id":"1380R028","properties":{"code":"1380R028","name":"Vallås västra"},"geometry":{"type":"Polygon","coordinates":[[[12.9075,56.68291],[12.9056,56.68139],[12.90534,56.68073],[12.90595,56.6794],[12.90832,56.67965],[12.91041,56.67916],[12.91107,56.67829],[12.91594,56.67883],[12.91476,56.67741],[12.91356,56.67685],[12.89725,56.67507],[12.89612,56.67671],[12.89473,56.67988],[12.89441,56.68585],[12.8998,56.68596],[12.90238,56.68676],[12.9075,56.68291]]]}}]}