{"type":"FeatureCollection","features":[{"type":"Feature","id":"1381R001","properties":{"code":"1381R001","name":"Genevad-Veinge"},"geometry":{"type":"Polygon","coordinates":[[[13.03414,56.58055],[13.04323,56.57816],[13.04526,56.57725],[13.04678,56.5761],[13.05009,56.57242],[13.05063,56.57055],[13.05019,56.56893],[13.05052,56.5675],[13.05032,56.56643],[13.04942,56.56488],[13.04698,56.56276],[13.04932,56.56094],[13.05134,56.56117],[13.05264,56.56217],[13.05408,56.5629],[13.05632,56.5636],[13.05824,56.56393],[13.06171,56.56417],[13.0667,56.56399],[13.06921,56.56365],[13.07143,56.56299],[13.07532,56.56361],[13.0757,56.56451],[13.07558,56.56607],[13.07616,56.56745],[13.0738,56.56864],[13.07145,56.56939],[13.06956,56.57042],[13.06788,56.57207],[13.06726,56.57394],[13.06772,56.57581],[13.06887,56.57724],[13.07143,56.57916],[13.07423,56.58027],[13.07674,56.58075],[13.07971,56.58088],[13.08303,56.58048],[13.08576,56.58051],[13.09312,56.57988],[13.09728,56.57933],[13.09904,56.57892],[13.10308,56.57755],[13.10503,56.57656],[13.10635,56.57548],[13.10731,56.57412],[13.10763,56.57267],[13.10729,56.57121],[13.10631,56.56986],[13.10439,56.56817],[13.10254,56.56724],[13.10045,56.56662],[13.09966,56.56483],[13.10031,56.56339],[13.10038,56.56226],[13.09956,56.56033],[13.09922,56.55842],[13.09744,56.55641],[13.09607,56.55558],[13.09405,56.55479],[13.09519,56.55279],[13.09528,56.55152],[13.09497,56.55046],[13.09213,56.54697],[13.09091,56.54599],[13.08945,56.54519],[13.08579,56.54383],[13.0823,56.5432],[13.07975,56.54242],[13.07692,56.54207],[13.07538,56.54134],[13.07311,56.54067],[13.06989,56.54031],[13.06635,56.54056],[13.06447,56.54096],[13.06262,56.54162],[13.05965,56.54214],[13.0568,56.54327],[13.05452,56.54511],[13.05368,56.54708],[13.0451,56.54625],[13.04251,56.54646],[13.04009,56.54703],[13.03805,56.54789],[13.03644,56.54903],[13.03541,56.55033],[13.03465,56.55228],[13.03235,56.55232],[13.02982,56.55271],[13.0276,56.55342],[13.02576,56.55442],[13.02354,56.55666],[13.0228,56.55916],[13.02161,56.56029],[13.02096,56.56143],[13.01897,56.56369],[13.01708,56.56483],[13.01565,56.56637],[13.01436,56.56935],[13.01343,56.57017],[13.01257,56.57141],[13.01222,56.57356],[13.0138,56.57382],[13.01556,56.57316],[13.01687,56.57324],[13.01707,56.57376],[13.01762,56.57391],[13.0192,56.57368],[13.02012,56.57387],[13.01995,56.57459],[13.02041,56.57494],[13.02147,56.57522],[13.02113,56.5757],[13.02004,56.5759],[13.02021,56.57633],[13.01896,56.57735],[13.0188,56.57799],[13.01932,56.57823],[13.01947,56.57867],[13.01912,56.57881],[13.01963,56.57898],[13.01961,56.57921],[13.02261,56.57958],[13.02518,56.57953],[13.02806,56.58038],[13.03083,56.5807],[13.03414,56.58055]]]}},{"type":"Feature","id":"1381R002","properties":{"code":"1381R002","name":"Hasslöv-Ränneslöv-Våxtorp"},"geometry":{"type":"Polygon","coordinates":[[[13.21391,56.5051],[13.21552,56.50502],[13.21572,56.50471],[13.21608,56.50477],[13.21622,56.50455],[13.21724,56.50418],[13.21755,56.50447],[13.2181,56.50417],[13.21909,56.50451],[13.22216,56.50383],[13.223,56.50403],[13.22385,56.50379],[13.22651,56.50411],[13.2271,56.5038],[13.22704,56.50351],[13.23137,56.50269],[13.23546,56.50314],[13.23682,56.50209],[13.2379,56.502],[13.23988,56.50126],[13.24235,56.50076],[13.24312,56.49919],[13.24291,56.49882],[13.24189,56.49821],[13.2434,56.49592],[13.24391,56.49414],[13.24236,56.49088],[13.24018,56.48797],[13.23917,56.48764],[13.23741,56.48656],[13.23728,56.48605],[13.23655,56.48537],[13.23423,56.48395],[13.23146,56.48286],[13.23096,56.48234],[13.22761,56.48094],[13.22717,56.48003],[13.22306,56.4774],[13.2227,56.47662],[13.22279,56.47611],[13.22163,56.4739],[13.21883,56.47145],[13.22043,56.47191],[13.22292,56.47349],[13.22439,56.47389],[13.22575,56.47216],[13.22637,56.47053],[13.22912,56.46846],[13.22673,56.46741],[13.22641,56.46703],[13.22641,56.466],[13.22725,56.45899],[13.22874,56.45198],[13.2308,56.45114],[13.22545,56.44676],[13.22409,56.44524],[13.22071,56.44457],[13.21772,56.44358],[13.21349,56.44032],[13.21422,56.43993],[13.21513,56.43975],[13.21552,56.43902],[13.21665,56.43824],[13.21758,56.43796],[13.21853,56.43849],[13.21904,56.43845],[13.21936,56.43821],[13.21985,56.43824],[13.22027,56.43746],[13.22422,56.436],[13.22669,56.43465],[13.22953,56.43365],[13.23086,56.42914],[13.23012,56.42852],[13.23025,56.42819],[13.23171,56.4282],[13.23331,56.42797],[13.23523,56.42737],[13.23756,56.42622],[13.23793,56.42549],[13.23893,56.42535],[13.23997,56.42457],[13.24347,56.42457],[13.26171,56.43094],[13.26454,56.43049],[13.2654,56.42801],[13.26119,56.42347],[13.25714,56.42038],[13.25839,56.4176],[13.25768,56.41625],[13.25448,56.41497],[13.25466,56.41342],[13.25414,56.41319],[13.2533,56.41314],[13.24292,56.4042],[13.29266,56.38041],[13.26918,56.36727],[13.2515,56.35767],[13.25525,56.3529],[13.25401,56.3507],[13.25257,56.34936],[13.24963,56.34875],[13.24813,56.34718],[13.24819,56.34636],[13.2288,56.33248],[13.22493,56.33048],[13.21638,56.32716],[13.19599,56.32414],[13.18786,56.32563],[13.18594,56.33289],[13.18117,56.34013],[13.17242,56.34279],[13.15863,56.34923],[13.15257,56.35178],[13.14864,56.35287],[13.13091,56.35578],[13.12918,56.35543],[13.126,56.35536],[13.1186,56.3546],[13.11475,56.35325],[13.11395,56.35268],[13.11247,56.35232],[13.11117,56.35234],[13.10932,56.35379],[13.10137,56.35312],[13.09966,56.35263],[13.09876,56.35293],[13.07402,56.35177],[13.06651,56.35308],[13.06351,56.35399],[13.06059,56.35423],[13.05991,56.35395],[13.04885,56.35538],[13.03701,56.35492],[13.02499,56.35534],[12.99205,56.35723],[12.98103,56.3583],[12.97843,56.36291],[12.97437,56.3668],[12.96749,56.36837],[12.94981,56.36932],[12.95242,56.37426],[12.95866,56.37988],[12.9605,56.38229],[12.96217,56.38265],[12.96348,56.38389],[12.96432,56.38551],[12.96799,56.38904],[12.96794,56.3895],[12.96621,56.39037],[12.96483,56.39198],[12.96324,56.39343],[12.96268,56.39358],[12.96067,56.39368],[12.95893,56.39413],[12.95619,56.39302],[12.95297,56.39203],[12.95285,56.39212],[12.96047,56.40084],[12.96469,56.40275],[12.9605,56.40526],[12.96403,56.40777],[12.96722,56.40946],[12.96858,56.41139],[12.96834,56.41181],[12.96773,56.412],[12.96715,56.41259],[12.96543,56.41222],[12.9634,56.41266],[12.95776,56.4134],[12.95831,56.4146],[12.95922,56.41492],[12.96011,56.41579],[12.96025,56.41625],[12.96251,56.41783],[12.96255,56.42167],[12.96388,56.42303],[12.96471,56.42436],[12.96576,56.4277],[12.9524,56.43115],[12.95318,56.43555],[12.95427,56.43718],[12.95625,56.43698],[12.95881,56.43705],[12.96239,56.4376],[12.9647,56.43828],[12.96618,56.43899],[12.9706,56.44179],[12.97347,56.44317],[12.975,56.44448],[12.97583,56.44587],[12.976,56.44733],[12.97539,56.44898],[12.97667,56.45041],[12.97721,56.45228],[12.97643,56.45448],[12.97507,56.45583],[12.97312,56.45695],[12.97277,56.45832],[12.97178,56.45968],[12.97021,56.46086],[12.96816,56.46179],[12.96255,56.46308],[12.95998,56.46334],[12.95692,56.46322],[12.95221,56.46242],[12.94849,56.46202],[12.94602,56.46291],[12.9424,56.46356],[12.94435,56.46458],[12.94588,56.46595],[12.94841,56.46731],[12.95009,56.46886],[12.95068,56.46993],[12.952,56.47534],[12.95151,56.47707],[12.95011,56.47858],[12.95292,56.47973],[12.95493,56.48136],[12.95631,56.48189],[12.95945,56.48145],[12.95823,56.47782],[12.96291,56.47769],[12.96351,56.48098],[12.97985,56.48015],[12.97886,56.47918],[12.97913,56.47815],[12.98097,56.47793],[12.9811,56.47837],[12.98238,56.47873],[12.98262,56.47914],[12.9837,56.47917],[12.98484,56.4788],[12.98546,56.47897],[12.98584,56.47838],[12.98707,56.47848],[12.98774,56.47831],[12.98723,56.47796],[12.98762,56.47773],[12.98821,56.47798],[12.98848,56.47772],[12.99082,56.47764],[12.99075,56.4774],[12.99125,56.47723],[12.99172,56.47671],[12.99275,56.47679],[12.99292,56.47718],[12.99253,56.47753],[12.9934,56.47748],[12.9945,56.47684],[12.99401,56.47652],[12.99473,56.47622],[12.9945,56.47566],[12.99545,56.47595],[12.9957,56.47577],[12.99546,56.47522],[12.99583,56.47506],[12.99683,56.47527],[12.99729,56.47502],[12.99811,56.47509],[12.99858,56.47465],[12.99946,56.47483],[12.99915,56.47442],[12.99931,56.47423],[13.00041,56.47405],[13.00048,56.47364],[13.0013,56.47361],[13.00164,56.47321],[13.00225,56.47304],[13.00327,56.47332],[13.00332,56.47283],[13.00603,56.47304],[13.00645,56.47296],[13.00683,56.47255],[13.00834,56.47261],[13.00908,56.47236],[13.0097,56.4724],[13.0101,56.47191],[13.01167,56.47192],[13.01196,56.47152],[13.01275,56.47133],[13.01287,56.47089],[13.01356,56.47131],[13.0143,56.471],[13.01532,56.47108],[13.01617,56.47087],[13.01699,56.47096],[13.01779,56.4707],[13.01865,56.47103],[13.02081,56.47028],[13.0226,56.47024],[13.02334,56.46987],[13.02403,56.47005],[13.02522,56.46979],[13.02589,56.47011],[13.02619,56.46976],[13.02712,56.46974],[13.02734,56.46915],[13.02817,56.4691],[13.02876,56.46887],[13.0296,56.46929],[13.02986,56.46996],[13.03119,56.46959],[13.03252,56.47001],[13.03259,56.4694],[13.03382,56.46996],[13.03409,56.46977],[13.03361,56.46939],[13.03501,56.46913],[13.03688,56.46961],[13.03717,56.46951],[13.0367,56.46903],[13.03685,56.46889],[13.03742,56.46901],[13.03825,56.46956],[13.03858,56.46955],[13.03885,56.46908],[13.0397,56.46907],[13.04052,56.46857],[13.04112,56.46887],[13.04151,56.46878],[13.04123,56.46943],[13.04161,56.46963],[13.04168,56.47016],[13.04128,56.47034],[13.04154,56.47047],[13.04131,56.47082],[13.04195,56.47093],[13.04194,56.47116],[13.04314,56.47122],[13.04296,56.47145],[13.04338,56.47169],[13.04389,56.47159],[13.04429,56.47173],[13.04428,56.47146],[13.04517,56.47162],[13.04595,56.47149],[13.04623,56.471],[13.04666,56.47119],[13.0466,56.47101],[13.04716,56.47099],[13.04728,56.4708],[13.04787,56.47097],[13.04812,56.47084],[13.04858,56.47112],[13.04925,56.47106],[13.0498,56.47133],[13.05015,56.47114],[13.05042,56.47128],[13.05096,56.47113],[13.05128,56.47134],[13.05179,56.47114],[13.05267,56.47138],[13.05293,56.4711],[13.05293,56.47135],[13.05352,56.47132],[13.05373,56.47159],[13.05421,56.4714],[13.05417,56.4748],[13.06335,56.47476],[13.06337,56.47331],[13.06826,56.47384],[13.06931,56.4759],[13.07417,56.47709],[13.08031,56.47729],[13.08079,56.47584],[13.08138,56.47547],[13.08425,56.4761],[13.08976,56.47581],[13.09245,56.47656],[13.09371,56.47722],[13.09422,56.47794],[13.09974,56.4805],[13.10293,56.48111],[13.1048,56.48167],[13.10502,56.48095],[13.10442,56.48022],[13.10302,56.47952],[13.10518,56.47708],[13.11311,56.47922],[13.114,56.4789],[13.11703,56.4784],[13.12082,56.47665],[13.12749,56.47722],[13.12543,56.47473],[13.12654,56.47427],[13.12691,56.47457],[13.12808,56.47405],[13.13158,56.47756],[13.13306,56.47769],[13.13353,56.47658],[13.13568,56.4771],[13.13574,56.47731],[13.13276,56.47853],[13.13533,56.47991],[13.13688,56.4805],[13.13736,56.48017],[13.13821,56.48051],[13.13933,56.48055],[13.13937,56.48111],[13.14024,56.48123],[13.14062,56.48111],[13.14071,56.47873],[13.14233,56.47951],[13.14268,56.47875],[13.182,56.48779],[13.18059,56.49056],[13.18447,56.48926],[13.18971,56.49103],[13.19027,56.49146],[13.19159,56.49163],[13.19479,56.49388],[13.19557,56.49385],[13.19622,56.49454],[13.19677,56.4946],[13.1969,56.49527],[13.19745,56.49528],[13.19841,56.4958],[13.19883,56.49643],[13.20061,56.49757],[13.20072,56.4979],[13.20194,56.49801],[13.20164,56.49815],[13.20195,56.49833],[13.20156,56.49841],[13.20206,56.49937],[13.20152,56.49943],[13.2017,56.49978],[13.20202,56.49986],[13.20209,56.50076],[13.20183,56.50078],[13.20136,56.50204],[13.20661,56.5037],[13.20798,56.50441],[13.20862,56.50409],[13.20834,56.50342],[13.20896,56.50314],[13.2098,56.50364],[13.21223,56.50431],[13.21278,56.50424],[13.21374,56.50449],[13.21391,56.5051]]]}},{"type":"Feature","id":"1381R003","properties":{"code":"1381R003","name":"Hishult-Knäreds omland"},"geometry":{"type":"Polygon","coordinates":[[[13.3753,56.64366],[13.3761,56.64354],[13.37672,56.64371],[13.37895,56.63652],[13.38055,56.63561],[13.39306,56.6207],[13.39273,56.62017],[13.39299,56.61952],[13.39566,56.61761],[13.39727,56.61574],[13.39758,56.60885],[13.40426,56.59489],[13.40267,56.59417],[13.40253,56.59249],[13.40412,56.59207],[13.40517,56.59058],[13.40711,56.58944],[13.40743,56.58896],[13.40868,56.58849],[13.41124,56.58562],[13.41113,56.58423],[13.41311,56.58347],[13.41781,56.57764],[13.42706,56.57368],[13.4291,56.57433],[13.4309,56.57401],[13.43462,56.57267],[13.43725,56.57217],[13.43989,56.57126],[13.43846,56.57046],[13.4382,56.56976],[13.43841,56.56918],[13.43945,56.56817],[13.43926,56.56756],[13.43998,56.56605],[13.43938,56.56437],[13.43998,56.563],[13.43918,56.5617],[13.43971,56.56108],[13.44019,56.55929],[13.43961,56.55788],[13.44043,56.55647],[13.43991,56.55552],[13.43999,56.55445],[13.4523,56.54089],[13.45958,56.52797],[13.46291,56.51481],[13.46479,56.51396],[13.46381,56.51273],[13.46299,56.51067],[13.45549,56.49877],[13.4542,56.49751],[13.45461,56.49709],[13.45427,56.48842],[13.44977,56.47218],[13.44988,56.46787],[13.45957,56.4546],[13.45978,56.45467],[13.46286,56.45144],[13.46268,56.45014],[13.46295,56.44944],[13.46458,56.44762],[13.46292,56.44588],[13.46315,56.44463],[13.46735,56.43179],[13.46473,56.43098],[13.45999,56.42691],[13.4552,56.4244],[13.44715,56.4221],[13.43932,56.41911],[13.40465,56.41567],[13.40429,56.41496],[13.39599,56.41448],[13.39168,56.41494],[13.38876,56.41495],[13.38559,56.41451],[13.37511,56.40922],[13.37281,56.40778],[13.3708,56.40597],[13.36143,56.40054],[13.34667,56.39051],[13.34263,56.3898],[13.33896,56.38873],[13.33581,56.38882],[13.33108,56.38806],[13.3284,56.38782],[13.31748,56.38765],[13.31679,56.38758],[13.31527,56.38678],[13.31184,56.38693],[13.30481,56.38525],[13.30189,56.38404],[13.29941,56.38256],[13.29871,56.3818],[13.2969,56.38105],[13.29286,56.38057],[13.29266,56.38041],[13.24292,56.4042],[13.2533,56.41314],[13.25414,56.41319],[13.25466,56.41342],[13.25448,56.41497],[13.25768,56.41625],[13.25839,56.4176],[13.25714,56.42038],[13.26119,56.42347],[13.2654,56.42801],[13.26454,56.43049],[13.26171,56.43094],[13.24347,56.42457],[13.23997,56.42457],[13.23893,56.42535],[13.23793,56.42549],[13.23756,56.42622],[13.23523,56.42737],[13.23331,56.42797],[13.23171,56.4282],[13.23025,56.42819],[13.23012,56.42852],[13.23086,56.42914],[13.22953,56.43365],[13.22669,56.43465],[13.22422,56.436],[13.22027,56.43746],[13.21985,56.43824],[13.21936,56.43821],[13.21904,56.43845],[13.21853,56.43849],[13.21758,56.43796],[13.21665,56.43824],[13.21552,56.43902],[13.21513,56.43975],[13.21422,56.43993],[13.21349,56.44032],[13.21772,56.44358],[13.22071,56.44457],[13.22409,56.44524],[13.22545,56.44676],[13.2308,56.45114],[13.22874,56.45198],[13.22725,56.45899],[13.22641,56.466],[13.22641,56.46703],[13.22673,56.46741],[13.22912,56.46846],[13.22637,56.47053],[13.22575,56.47216],[13.22439,56.47389],[13.22292,56.47349],[13.22043,56.47191],[13.21883,56.47145],[13.22163,56.4739],[13.22279,56.47611],[13.2227,56.47662],[13.22306,56.4774],[13.22717,56.48003],[13.22761,56.48094],[13.23096,56.48234],[13.23146,56.48286],[13.23423,56.48395],[13.23655,56.48537],[13.23728,56.48605],[13.23741,56.48656],[13.23917,56.48764],[13.24018,56.48797],[13.24236,56.49088],[13.24389,56.49395],[13.2434,56.49592],[13.24189,56.49821],[13.24291,56.49882],[13.24312,56.49919],[13.24235,56.50076],[13.24274,56.50105],[13.24553,56.50084],[13.24877,56.50009],[13.24878,56.49962],[13.25004,56.49779],[13.25107,56.49731],[13.25336,56.49721],[13.25385,56.49752],[13.2541,56.49735],[13.2549,56.49729],[13.25581,56.49762],[13.25642,56.49816],[13.25616,56.50063],[13.25584,56.50095],[13.25646,56.50639],[13.25926,56.50694],[13.25982,56.50727],[13.26048,56.50785],[13.26048,56.50949],[13.26109,56.51006],[13.26055,56.51016],[13.26421,56.51197],[13.25945,56.52131],[13.25788,56.52125],[13.25412,56.52199],[13.24842,56.52269],[13.24892,56.52413],[13.24506,56.5249],[13.244,56.52547],[13.2432,56.52652],[13.24238,56.52713],[13.23707,56.52845],[13.23336,56.5296],[13.23179,56.52983],[13.22665,56.52938],[13.22508,56.52872],[13.22265,56.52838],[13.22236,56.52875],[13.22065,56.52901],[13.22069,56.5295],[13.22692,56.52966],[13.228,56.5307],[13.22532,56.53067],[13.2258,56.53127],[13.23892,56.53855],[13.24091,56.53908],[13.24234,56.54006],[13.24299,56.54021],[13.24374,56.54014],[13.24402,56.54028],[13.24372,56.54047],[13.24391,56.54062],[13.24497,56.54051],[13.24587,56.54091],[13.24652,56.54146],[13.24639,56.54216],[13.24669,56.54224],[13.24633,56.5425],[13.24782,56.5429],[13.24792,56.54352],[13.24954,56.54573],[13.24827,56.54964],[13.25749,56.55586],[13.2585,56.55616],[13.26036,56.55721],[13.26094,56.55814],[13.26359,56.55941],[13.26561,56.56121],[13.26603,56.56235],[13.26758,56.5646],[13.26676,56.56727],[13.26302,56.56656],[13.26107,56.57053],[13.25952,56.57226],[13.26687,56.57906],[13.26819,56.57937],[13.26884,56.57993],[13.27038,56.58017],[13.27404,56.58015],[13.27606,56.58203],[13.27789,56.58289],[13.27841,56.58449],[13.29317,56.58671],[13.29318,56.58752],[13.29364,56.58814],[13.29511,56.58886],[13.29817,56.59147],[13.29828,56.59254],[13.29754,56.59344],[13.29748,56.59429],[13.2978,56.59533],[13.29897,56.59591],[13.29907,56.59638],[13.2974,56.59716],[13.2955,56.59737],[13.29531,56.59769],[13.29751,56.60154],[13.29761,56.60258],[13.29793,56.60287],[13.29885,56.60298],[13.29917,56.60354],[13.29822,56.60436],[13.2968,56.60461],[13.29547,56.60525],[13.29542,56.60558],[13.29611,56.6062],[13.29529,56.60721],[13.29531,56.60762],[13.29998,56.60852],[13.3029,56.6128],[13.30023,56.6181],[13.30567,56.62274],[13.3056,56.62798],[13.31233,56.62931],[13.32155,56.62998],[13.33435,56.6302],[13.34117,56.63284],[13.34892,56.62771],[13.35601,56.62491],[13.3572,56.62573],[13.35708,56.62752],[13.35792,56.62892],[13.35873,56.62935],[13.36131,56.62971],[13.36266,56.63073],[13.36229,56.63121],[13.36243,56.63144],[13.363,56.63154],[13.36368,56.63244],[13.36466,56.63278],[13.36339,56.63392],[13.36222,56.6355],[13.36037,56.63591],[13.3588,56.63559],[13.35832,56.63607],[13.35866,56.63679],[13.36017,56.63753],[13.3621,56.63918],[13.36287,56.64106],[13.36253,56.64199],[13.36272,56.64218],[13.36416,56.64288],[13.36575,56.64316],[13.36968,56.64246],[13.37043,56.64218],[13.37367,56.64275],[13.3753,56.64366]],[[13.33432,56.53521],[13.33175,56.53493],[13.32845,56.53406],[13.3265,56.53314],[13.32369,56.53131],[13.32208,56.53253],[13.32019,56.53346],[13.31836,56.53405],[13.31616,56.53446],[13.3136,56.53467],[13.31174,56.53463],[13.3071,56.53415],[13.3052,56.53375],[13.30209,56.53247],[13.30019,56.53088],[13.29931,56.52905],[13.29958,56.52701],[13.29725,56.52731],[13.2946,56.52729],[13.2919,56.52688],[13.28951,56.52622],[13.2876,56.52532],[13.28616,56.52419],[13.28528,56.52286],[13.28501,56.52143],[13.28539,56.52007],[13.28673,56.51839],[13.28881,56.51701],[13.28956,56.51593],[13.2906,56.51502],[13.29332,56.51367],[13.2935,56.51166],[13.2945,56.50996],[13.29594,56.50879],[13.29788,56.50783],[13.30015,56.5071],[13.30329,56.50666],[13.30743,56.50658],[13.31091,56.50712],[13.3126,56.5059],[13.31522,56.50485],[13.31764,56.50438],[13.32028,56.50425],[13.32304,56.50355],[13.3261,56.50331],[13.32812,56.50196],[13.33029,56.50115],[13.33276,56.50067],[13.33533,56.50055],[13.33875,56.5008],[13.34162,56.50157],[13.34398,56.50197],[13.34572,56.50252],[13.34762,56.50347],[13.34968,56.50546],[13.35064,56.5077],[13.35349,56.50871],[13.35553,56.51012],[13.35651,56.51144],[13.35693,56.51315],[13.35889,56.5136],[13.36058,56.51422],[13.3631,56.51584],[13.36418,56.51729],[13.36458,56.51883],[13.36422,56.52038],[13.36301,56.522],[13.36135,56.52326],[13.35931,56.52423],[13.35739,56.52486],[13.35547,56.52523],[13.35115,56.52566],[13.34799,56.52562],[13.34725,56.52768],[13.34756,56.529],[13.34724,56.53046],[13.34601,56.53204],[13.34396,56.53346],[13.34181,56.53432],[13.33994,56.53476],[13.33627,56.53518],[13.33432,56.53521]]]}},{"type":"Feature","id":"1381R004","properties":{"code":"1381R004","name":"Knäred"},"geometry":{"type":"Polygon","coordinates":[[[13.33556,56.53522],[13.34052,56.53465],[13.34234,56.53414],[13.3444,56.53322],[13.34633,56.53174],[13.34724,56.53046],[13.34756,56.529],[13.34725,56.52768],[13.34799,56.52562],[13.35115,56.52566],[13.35547,56.52523],[13.35739,56.52486],[13.35931,56.52423],[13.36135,56.52326],[13.36301,56.522],[13.36422,56.52038],[13.36458,56.51883],[13.36401,56.51697],[13.36278,56.51555],[13.35995,56.51395],[13.35693,56.51315],[13.35651,56.51144],[13.35553,56.51012],[13.35349,56.50871],[13.35064,56.5077],[13.34968,56.50546],[13.34759,56.50345],[13.34458,56.50213],[13.34162,56.50157],[13.33938,56.50092],[13.33745,56.50063],[13.33471,56.50054],[13.33211,56.50076],[13.32971,56.50133],[13.32767,56.50219],[13.3261,56.50331],[13.32304,56.50355],[13.32028,56.50425],[13.31764,56.50438],[13.31522,56.50485],[13.3126,56.5059],[13.31091,56.50712],[13.30743,56.50658],[13.30329,56.50666],[13.30015,56.5071],[13.29788,56.50783],[13.29555,56.50905],[13.29421,56.5103],[13.29349,56.51169],[13.29332,56.51367],[13.2906,56.51502],[13.28956,56.51593],[13.28881,56.51701],[13.28636,56.51878],[13.28523,56.5204],[13.28501,56.52178],[13.28528,56.52286],[13.28616,56.52419],[13.2876,56.52532],[13.28951,56.52622],[13.2919,56.52688],[13.2946,56.52729],[13.29725,56.52731],[13.29958,56.52701],[13.29931,56.52905],[13.30019,56.53088],[13.30209,56.53247],[13.3052,56.53375],[13.3071,56.53415],[13.31174,56.53463],[13.3136,56.53467],[13.31616,56.53446],[13.31836,56.53405],[13.32019,56.53346],[13.32208,56.53253],[13.32369,56.53131],[13.32693,56.53339],[13.32903,56.53426],[13.33239,56.53503],[13.33556,56.53522]]]}},{"type":"Feature","id":"1381R005","properties":{"code":"1381R005","name":"Laholm västra"},"geometry":{"type":"Polygon","coordinates":[[[13.04701,56.51547],[13.04877,56.51552],[13.04897,56.51506],[13.04519,56.51474],[13.04024,56.51467],[13.03917,56.51444],[13.03834,56.51396],[13.03795,56.51335],[13.0377,56.51075],[13.03643,56.50756],[13.03404,56.50459],[13.03343,56.50323],[13.03334,56.50117],[13.03555,56.49451],[13.03859,56.4888],[13.02877,56.48757],[13.02675,56.4889],[13.02424,56.48938],[13.01954,56.49081],[13.01732,56.49072],[13.01469,56.49094],[13.01204,56.49155],[13.00952,56.49269],[13.00522,56.493],[13.00137,56.49382],[12.99849,56.49381],[12.996,56.49419],[12.99287,56.49535],[12.99074,56.49693],[12.98961,56.49835],[12.98904,56.49978],[12.98768,56.5009],[12.98692,56.50195],[12.98654,56.50306],[12.98654,56.50425],[12.98712,56.50567],[12.98843,56.50705],[12.99021,56.50814],[12.99262,56.5091],[12.99554,56.50971],[12.99869,56.5098],[13.00212,56.50926],[13.00469,56.50832],[13.00626,56.50833],[13.00746,56.50855],[13.00846,56.50826],[13.00943,56.50826],[13.01137,56.50874],[13.01347,56.50973],[13.01649,56.51008],[13.02013,56.51147],[13.02324,56.51215],[13.02492,56.51228],[13.02687,56.51197],[13.03203,56.51002],[13.03422,56.50977],[13.03565,56.51016],[13.03652,56.51073],[13.03701,56.51176],[13.03724,56.51395],[13.03798,56.51457],[13.04058,56.51512],[13.04511,56.51522],[13.04534,56.51501],[13.04701,56.51547]]]}},{"type":"Feature","id":"1381R006","properties":{"code":"1381R006","name":"Laholm östra"},"geometry":{"type":"Polygon","coordinates":[[[13.05468,56.51508],[13.05782,56.51451],[13.05898,56.51299],[13.06183,56.51199],[13.0658,56.50923],[13.06642,56.50956],[13.06887,56.50882],[13.07199,56.50689],[13.07291,56.50604],[13.07324,56.50503],[13.072,56.50369],[13.07102,56.50098],[13.06873,56.49907],[13.06976,56.49779],[13.06899,56.49642],[13.06899,56.49582],[13.07112,56.49392],[13.0723,56.49335],[13.07315,56.49318],[13.07252,56.49226],[13.06829,56.48868],[13.06569,56.48759],[13.06305,56.48703],[13.05966,56.4869],[13.05688,56.48722],[13.05389,56.48812],[13.0516,56.48943],[13.05047,56.48827],[13.04883,56.4872],[13.04601,56.48612],[13.04353,56.4856],[13.04132,56.48543],[13.03927,56.48549],[13.03561,56.48618],[13.03338,56.4863],[13.03095,56.48677],[13.02877,56.48757],[13.03859,56.4888],[13.03578,56.49387],[13.03334,56.50117],[13.03326,56.50211],[13.03394,56.50443],[13.03651,56.50775],[13.0377,56.51075],[13.03816,56.51378],[13.03917,56.51444],[13.0406,56.51471],[13.04519,56.51474],[13.04897,56.51506],[13.0492,56.51453],[13.05214,56.51531],[13.05327,56.51587],[13.05468,56.51508]]]}},{"type":"Feature","id":"1381R007","properties":{"code":"1381R007","name":"Laholms omland-Ysby"},"geometry":{"type":"Polygon","coordinates":[[[13.00969,56.57352],[13.01222,56.57356],[13.01257,56.57141],[13.01343,56.57017],[13.01436,56.56935],[13.01565,56.56637],[13.01708,56.56483],[13.01897,56.56369],[13.02096,56.56143],[13.02161,56.56029],[13.0228,56.55916],[13.02354,56.55666],[13.025,56.55503],[13.02616,56.55416],[13.0281,56.55322],[13.02987,56.5527],[13.03235,56.55232],[13.03465,56.55228],[13.03541,56.55033],[13.03644,56.54903],[13.03805,56.54789],[13.04009,56.54703],[13.04251,56.54646],[13.0451,56.54625],[13.05368,56.54708],[13.05405,56.54585],[13.05479,56.5448],[13.05725,56.54303],[13.05965,56.54214],[13.06262,56.54162],[13.06452,56.54095],[13.06695,56.54048],[13.06989,56.54031],[13.07247,56.54056],[13.07486,56.54115],[13.07692,56.54207],[13.07975,56.54242],[13.08223,56.54317],[13.08823,56.54283],[13.09995,56.54289],[13.10698,56.54261],[13.11398,56.53845],[13.11855,56.5394],[13.11802,56.53996],[13.11886,56.54005],[13.11895,56.53947],[13.12145,56.54],[13.12832,56.53827],[13.13506,56.53803],[13.14054,56.53472],[13.14781,56.53108],[13.15725,56.5316],[13.16377,56.53391],[13.16369,56.53435],[13.16462,56.53524],[13.16797,56.5351],[13.17265,56.53408],[13.17383,56.53464],[13.18465,56.53664],[13.18953,56.53787],[13.19057,56.53772],[13.21639,56.54199],[13.22751,56.54251],[13.23501,56.54223],[13.2381,56.54229],[13.24174,56.54317],[13.24792,56.54352],[13.24782,56.5429],[13.24633,56.5425],[13.24669,56.54224],[13.24639,56.54216],[13.24652,56.54146],[13.24587,56.54091],[13.24497,56.54051],[13.24391,56.54062],[13.24372,56.54047],[13.24402,56.54028],[13.24374,56.54014],[13.24299,56.54021],[13.24234,56.54006],[13.24091,56.53908],[13.23892,56.53855],[13.2258,56.53127],[13.22532,56.53067],[13.228,56.5307],[13.22692,56.52966],[13.22069,56.5295],[13.22063,56.52906],[13.22236,56.52875],[13.22265,56.52838],[13.22508,56.52872],[13.22665,56.52938],[13.23179,56.52983],[13.23336,56.5296],[13.23707,56.52845],[13.24238,56.52713],[13.2432,56.52652],[13.244,56.52547],[13.24506,56.5249],[13.24892,56.52413],[13.24842,56.52269],[13.25412,56.52199],[13.25788,56.52125],[13.25945,56.52131],[13.26421,56.51197],[13.26055,56.51016],[13.26109,56.51006],[13.26048,56.50949],[13.26048,56.50785],[13.25982,56.50727],[13.25926,56.50694],[13.25646,56.50639],[13.25584,56.50095],[13.25616,56.50063],[13.25636,56.49808],[13.25581,56.49762],[13.2549,56.49729],[13.2541,56.49735],[13.25385,56.49752],[13.25336,56.49721],[13.25107,56.49731],[13.25004,56.49779],[13.24878,56.49962],[13.24877,56.50009],[13.24553,56.50084],[13.24274,56.50105],[13.24235,56.50076],[13.24137,56.50089],[13.2379,56.502],[13.23682,56.50209],[13.23546,56.50314],[13.23137,56.50269],[13.22704,56.50351],[13.2271,56.5038],[13.22651,56.50411],[13.22385,56.50379],[13.223,56.50403],[13.22216,56.50383],[13.21909,56.50451],[13.2181,56.50417],[13.21755,56.50447],[13.21724,56.50418],[13.21622,56.50455],[13.21608,56.50477],[13.21572,56.50471],[13.21552,56.50502],[13.2147,56.50516],[13.21377,56.50502],[13.21374,56.50449],[13.21278,56.50424],[13.21223,56.50431],[13.2098,56.50364],[13.20896,56.50314],[13.20834,56.50342],[13.20862,56.50409],[13.20798,56.50441],[13.20661,56.5037],[13.20136,56.50204],[13.20183,56.50078],[13.20209,56.50076],[13.20202,56.49986],[13.2017,56.49978],[13.20152,56.49943],[13.20206,56.49937],[13.20156,56.49841],[13.20195,56.49833],[13.20164,56.49815],[13.20194,56.49801],[13.20072,56.4979],[13.20061,56.49757],[13.19883,56.49643],[13.19841,56.4958],[13.19745,56.49528],[13.1969,56.49527],[13.19677,56.4946],[13.19622,56.49454],[13.19557,56.49385],[13.19479,56.49388],[13.19159,56.49163],[13.19027,56.49146],[13.18971,56.49103],[13.18447,56.48926],[13.18059,56.49056],[13.182,56.48779],[13.14268,56.47875],[13.14233,56.47951],[13.14071,56.47873],[13.14062,56.48111],[13.14024,56.48123],[13.13937,56.48111],[13.13933,56.48055],[13.13821,56.48051],[13.13736,56.48017],[13.13688,56.4805],[13.13533,56.47991],[13.13276,56.47853],[13.13574,56.47731],[13.13568,56.4771],[13.13353,56.47658],[13.13306,56.47769],[13.13158,56.47756],[13.12808,56.47405],[13.12691,56.47457],[13.12654,56.47427],[13.12543,56.47473],[13.12749,56.47722],[13.12082,56.47665],[13.11703,56.4784],[13.114,56.4789],[13.11311,56.47922],[13.10518,56.47708],[13.10302,56.47952],[13.10442,56.48022],[13.10502,56.48095],[13.1048,56.48167],[13.10293,56.48111],[13.09974,56.4805],[13.09422,56.47794],[13.09371,56.47722],[13.09245,56.47656],[13.08976,56.47581],[13.08425,56.4761],[13.08138,56.47547],[13.08079,56.47584],[13.08031,56.47729],[13.07417,56.47709],[13.06931,56.4759],[13.06826,56.47384],[13.06337,56.47331],[13.06335,56.47476],[13.05417,56.4748],[13.05421,56.4714],[13.05373,56.47159],[13.05352,56.47132],[13.05293,56.47135],[13.05293,56.4711],[13.05267,56.47138],[13.05179,56.47114],[13.05128,56.47134],[13.05096,56.47113],[13.05042,56.47128],[13.05015,56.47114],[13.0498,56.47133],[13.04925,56.47106],[13.04858,56.47112],[13.04812,56.47084],[13.04787,56.47097],[13.04728,56.4708],[13.04716,56.47099],[13.0466,56.47101],[13.04666,56.47119],[13.04623,56.471],[13.04595,56.47149],[13.04517,56.47162],[13.04428,56.47146],[13.04429,56.47173],[13.04389,56.47159],[13.04338,56.47169],[13.04296,56.47145],[13.04314,56.47122],[13.04194,56.47116],[13.04195,56.47093],[13.04131,56.47082],[13.04154,56.47047],[13.04128,56.47034],[13.04168,56.47016],[13.04161,56.46963],[13.04123,56.46943],[13.04151,56.46878],[13.04112,56.46887],[13.04052,56.46857],[13.0397,56.46907],[13.03885,56.46908],[13.03858,56.46955],[13.03825,56.46956],[13.03742,56.46901],[13.03685,56.46889],[13.0367,56.46903],[13.03717,56.46951],[13.03688,56.46961],[13.03501,56.46913],[13.03361,56.46939],[13.03409,56.46977],[13.03382,56.46996],[13.03259,56.4694],[13.03252,56.47001],[13.03119,56.46959],[13.02986,56.46996],[13.0296,56.46929],[13.02876,56.46887],[13.02817,56.4691],[13.02734,56.46915],[13.02712,56.46974],[13.02619,56.46976],[13.02589,56.47011],[13.02522,56.46979],[13.02403,56.47005],[13.02334,56.46987],[13.0226,56.47024],[13.02081,56.47028],[13.01865,56.47103],[13.01779,56.4707],[13.01699,56.47096],[13.01617,56.47087],[13.01532,56.47108],[13.0143,56.471],[13.01356,56.47131],[13.01287,56.47089],[13.01275,56.47133],[13.01196,56.47152],[13.01167,56.47192],[13.0101,56.47191],[13.0097,56.4724],[13.00908,56.47236],[13.00834,56.47261],[13.00683,56.47255],[13.00645,56.47296],[13.00603,56.47304],[13.00332,56.47283],[13.00327,56.47332],[13.00225,56.47304],[13.00164,56.47321],[13.0013,56.47361],[13.00048,56.47364],[13.00041,56.47405],[12.99931,56.47423],[12.99915,56.47442],[12.99946,56.47483],[12.99858,56.47465],[12.99811,56.47509],[12.99729,56.47502],[12.99683,56.47527],[12.99583,56.47506],[12.99546,56.47522],[12.9957,56.47577],[12.99545,56.47595],[12.9945,56.47566],[12.99473,56.47622],[12.99401,56.47652],[12.9945,56.47684],[12.9934,56.47748],[12.99253,56.47753],[12.99292,56.47718],[12.99275,56.47679],[12.99172,56.47671],[12.99125,56.47723],[12.99075,56.4774],[12.99082,56.47764],[12.98848,56.47772],[12.98821,56.47798],[12.98762,56.47773],[12.98723,56.47796],[12.98774,56.47831],[12.98707,56.47848],[12.98584,56.47838],[12.98546,56.47897],[12.98484,56.4788],[12.9837,56.47917],[12.98262,56.47914],[12.98238,56.47873],[12.9811,56.47837],[12.98097,56.47793],[12.97913,56.47815],[12.97886,56.47918],[12.97985,56.48015],[12.96351,56.48098],[12.96291,56.47769],[12.95823,56.47782],[12.95945,56.48145],[12.95631,56.48189],[12.95813,56.48296],[12.95942,56.48424],[12.96011,56.48574],[12.96013,56.48723],[12.96237,56.49027],[12.96363,56.49296],[12.96514,56.49409],[12.96596,56.49512],[12.96653,56.4971],[12.96615,56.499],[12.96724,56.50042],[12.96801,56.50273],[12.97048,56.50299],[12.97296,56.50361],[12.97695,56.50514],[12.97874,56.50616],[12.98025,56.50777],[12.98069,56.50882],[12.98073,56.51007],[12.98187,56.51139],[12.98237,56.51278],[12.98201,56.51492],[12.98036,56.51684],[12.97752,56.5183],[12.97441,56.51902],[12.97435,56.52123],[12.97283,56.52331],[12.97002,56.52492],[12.9665,56.52581],[12.95046,56.52715],[12.94603,56.52727],[12.94344,56.52697],[12.94106,56.52632],[12.93892,56.5253],[12.93727,56.52405],[12.93557,56.52233],[12.93483,56.52097],[12.93444,56.51851],[12.93359,56.51671],[12.93381,56.51443],[12.9332,56.51294],[12.93311,56.51126],[12.93209,56.50853],[12.93084,56.5066],[12.93089,56.50447],[12.93045,56.50277],[12.92959,56.50147],[12.92932,56.50006],[12.92837,56.4988],[12.92692,56.49511],[12.92531,56.49329],[12.92426,56.48941],[12.92334,56.48835],[12.92274,56.48689],[12.8507,56.49592],[12.79711,56.55217],[12.91781,56.55229],[12.94484,56.55364],[12.96822,56.54824],[12.96806,56.54693],[12.96875,56.54581],[12.97205,56.5439],[12.97196,56.54302],[12.97344,56.5429],[12.97344,56.54237],[12.97401,56.54239],[12.9876,56.55679],[12.99639,56.5592],[13.00661,56.56768],[13.00666,56.56851],[13.00947,56.57089],[13.01019,56.57246],[13.00926,56.57305],[13.00969,56.57352]],[[13.04672,56.53891],[13.04337,56.53847],[13.04059,56.53752],[13.0379,56.53587],[13.03639,56.53398],[13.03581,56.53148],[13.03621,56.52971],[13.03693,56.5287],[13.03827,56.52761],[13.0387,56.52638],[13.03946,56.52534],[13.04057,56.5244],[13.04214,56.52352],[13.04184,56.52243],[13.03996,56.52123],[13.03876,56.52007],[13.03535,56.51955],[13.03304,56.51882],[13.03052,56.51749],[13.02898,56.51609],[13.02583,56.5162],[13.02145,56.51574],[13.01892,56.51517],[13.01623,56.5142],[13.01322,56.51295],[13.01137,56.51181],[13.01032,56.51077],[13.00947,56.50903],[13.00906,56.50876],[13.00626,56.50833],[13.00469,56.50832],[13.00151,56.5094],[12.99807,56.50982],[12.99554,56.50971],[12.99262,56.5091],[12.99021,56.50814],[12.98843,56.50705],[12.98712,56.50567],[12.98654,56.50425],[12.98654,56.50306],[12.98692,56.50195],[12.98768,56.5009],[12.98904,56.49978],[12.99018,56.49754],[12.99205,56.49586],[12.99434,56.49469],[12.99783,56.49388],[13.00137,56.49382],[13.00522,56.493],[13.00952,56.49269],[13.01204,56.49155],[13.01469,56.49094],[13.01732,56.49072],[13.01954,56.49081],[13.02424,56.48938],[13.02675,56.4889],[13.02877,56.48757],[13.03095,56.48677],[13.03278,56.48638],[13.03561,56.48618],[13.03789,56.48565],[13.03989,56.48545],[13.04353,56.4856],[13.04701,56.48643],[13.04971,56.4877],[13.0516,56.48943],[13.05328,56.48839],[13.05492,56.48773],[13.05688,56.48722],[13.05885,56.48695],[13.06102,56.48688],[13.06305,56.48703],[13.06498,56.48739],[13.06724,56.48815],[13.06956,56.48955],[13.07277,56.49257],[13.07355,56.49444],[13.07306,56.49678],[13.07603,56.49901],[13.07703,56.50108],[13.07736,56.50474],[13.07653,56.50788],[13.07574,56.50923],[13.07396,56.51066],[13.07158,56.51168],[13.06772,56.51468],[13.06504,56.51631],[13.06864,56.5172],[13.07118,56.51856],[13.07281,56.52032],[13.07334,56.52221],[13.0745,56.52314],[13.07544,56.52434],[13.07595,56.52646],[13.07506,56.52852],[13.07563,56.5298],[13.0757,56.53088],[13.07473,56.53296],[13.07243,56.53469],[13.06825,56.53611],[13.06475,56.53673],[13.06281,56.53688],[13.05884,56.53682],[13.05622,56.53653],[13.05443,56.53757],[13.05203,56.53839],[13.04948,56.53883],[13.04672,56.53891]]]}},{"type":"Feature","id":"1381R008","properties":{"code":"1381R008","name":"Lilla Tjärby"},"geometry":{"type":"Polygon","coordinates":[[[13.04796,56.53892],[13.05027,56.53873],[13.05274,56.5382],[13.05443,56.53757],[13.05622,56.53653],[13.05884,56.53682],[13.06281,56.53688],[13.06475,56.53673],[13.06888,56.53596],[13.07143,56.53514],[13.07291,56.53443],[13.07442,56.53328],[13.07522,56.53227],[13.07571,56.53051],[13.07506,56.52852],[13.07578,56.52724],[13.07597,56.52612],[13.07538,56.52424],[13.07334,56.52221],[13.07281,56.52032],[13.07118,56.51856],[13.06864,56.5172],[13.06504,56.51631],[13.06772,56.51468],[13.07158,56.51168],[13.07352,56.5109],[13.07477,56.51012],[13.07598,56.50891],[13.07653,56.50788],[13.07736,56.50474],[13.07697,56.50074],[13.07574,56.4987],[13.07306,56.49678],[13.07357,56.49478],[13.07315,56.49318],[13.0723,56.49335],[13.07112,56.49392],[13.06916,56.49557],[13.06899,56.49642],[13.06975,56.49794],[13.06873,56.49907],[13.07102,56.50098],[13.072,56.50369],[13.07324,56.50503],[13.07291,56.50604],[13.07199,56.50689],[13.06887,56.50882],[13.06642,56.50956],[13.0658,56.50923],[13.06183,56.51199],[13.05898,56.51299],[13.05782,56.51451],[13.05552,56.51482],[13.05327,56.51587],[13.05214,56.51531],[13.0492,56.51453],[13.04877,56.51552],[13.04836,56.51557],[13.04701,56.51547],[13.04534,56.51501],[13.04511,56.51522],[13.04152,56.51519],[13.03823,56.51466],[13.03724,56.51395],[13.03701,56.51176],[13.03652,56.51073],[13.03565,56.51016],[13.03422,56.50977],[13.03203,56.51002],[13.0266,56.51206],[13.02451,56.51226],[13.02324,56.51215],[13.02013,56.51147],[13.01649,56.51008],[13.01347,56.50973],[13.01137,56.50874],[13.01,56.50836],[13.00861,56.50824],[13.00746,56.50855],[13.00929,56.50884],[13.01008,56.51045],[13.01137,56.51181],[13.01322,56.51295],[13.01631,56.51423],[13.01892,56.51517],[13.02145,56.51574],[13.02583,56.5162],[13.02898,56.51609],[13.03052,56.51749],[13.03304,56.51882],[13.03535,56.51955],[13.03876,56.52007],[13.03996,56.52123],[13.04184,56.52243],[13.04214,56.52352],[13.04057,56.5244],[13.03946,56.52534],[13.0387,56.52638],[13.03827,56.52761],[13.03693,56.5287],[13.03621,56.52971],[13.03581,56.53148],[13.03655,56.53431],[13.03792,56.53588],[13.04107,56.53774],[13.04412,56.53862],[13.04796,56.53892]]]}},{"type":"Feature","id":"1381R009","properties":{"code":"1381R009","name":"Mellbystrand"},"geometry":{"type":"Polygon","coordinates":[[[12.94745,56.52728],[12.96513,56.52599],[12.96768,56.5256],[12.97002,56.52492],[12.97209,56.52386],[12.97377,56.52231],[12.97447,56.5208],[12.97441,56.51902],[12.97695,56.51849],[12.97951,56.5174],[12.98134,56.51594],[12.98226,56.5142],[12.9822,56.51208],[12.98073,56.51007],[12.98069,56.50882],[12.98025,56.50777],[12.97912,56.50647],[12.97695,56.50514],[12.97296,56.50361],[12.97048,56.50299],[12.96801,56.50273],[12.96724,56.50042],[12.96615,56.499],[12.96653,56.4971],[12.96596,56.49512],[12.96514,56.49409],[12.96363,56.49296],[12.96237,56.49027],[12.96013,56.48723],[12.96011,56.48574],[12.95942,56.48424],[12.95813,56.48296],[12.95631,56.48189],[12.93711,56.48456],[12.93084,56.48574],[12.92274,56.48689],[12.92334,56.48835],[12.92426,56.48941],[12.92531,56.49329],[12.92692,56.49511],[12.92837,56.4988],[12.92932,56.50006],[12.92959,56.50147],[12.93045,56.50277],[12.93089,56.50447],[12.93082,56.5065],[12.93209,56.50853],[12.93311,56.51126],[12.9332,56.51294],[12.93381,56.51443],[12.93359,56.51671],[12.93444,56.51851],[12.93483,56.52097],[12.93531,56.52198],[12.93761,56.52434],[12.94041,56.52607],[12.94344,56.52697],[12.94745,56.52728]]]}},{"type":"Feature","id":"1381R010","properties":{"code":"1381R010","name":"Skummeslövsstrand-Skottorp"},"geometry":{"type":"Polygon","coordinates":[[[12.92274,56.48689],[12.93084,56.48574],[12.93711,56.48456],[12.95631,56.48189],[12.95493,56.48136],[12.95383,56.48033],[12.95248,56.47949],[12.95011,56.47858],[12.95151,56.47707],[12.952,56.47534],[12.95182,56.47384],[12.95054,56.4696],[12.94879,56.46758],[12.94588,56.46595],[12.94424,56.4645],[12.9424,56.46356],[12.94602,56.46291],[12.94849,56.46202],[12.95221,56.46242],[12.95687,56.46321],[12.95931,56.46334],[12.96251,56.46309],[12.96692,56.46216],[12.96917,56.46139],[12.97111,56.46026],[12.97259,56.45865],[12.97312,56.45695],[12.97469,56.4561],[12.97618,56.4548],[12.97701,56.4534],[12.97718,56.45184],[12.97667,56.45041],[12.97539,56.44898],[12.97602,56.44699],[12.97525,56.44479],[12.97306,56.44292],[12.9706,56.44179],[12.9657,56.43873],[12.96301,56.43774],[12.95815,56.437],[12.95427,56.43718],[12.95508,56.43855],[12.95622,56.43835],[12.95774,56.43996],[12.95609,56.44095],[12.95396,56.44152],[12.95131,56.4418],[12.94971,56.44168],[12.94774,56.44113],[12.94487,56.43953],[12.94462,56.44025],[12.94168,56.44019],[12.94095,56.43951],[12.90616,56.44703],[12.89555,56.4495],[12.89211,56.45231],[12.8507,56.49592],[12.92274,56.48689]]]}},{"type":"Feature","id":"1381R011","properties":{"code":"1381R011","name":"Veinge omland"},"geometry":{"type":"Polygon","coordinates":[[[13.31482,56.68796],[13.31609,56.68792],[13.31887,56.6873],[13.31905,56.68712],[13.31968,56.68712],[13.32376,56.68625],[13.32481,56.68636],[13.32498,56.68662],[13.32669,56.68734],[13.32827,56.68769],[13.36414,56.6651],[13.37122,56.65182],[13.37597,56.64611],[13.37672,56.64371],[13.3761,56.64354],[13.3753,56.64366],[13.37367,56.64275],[13.37043,56.64218],[13.36968,56.64246],[13.36575,56.64316],[13.36416,56.64288],[13.36272,56.64218],[13.36253,56.64199],[13.36287,56.64106],[13.3621,56.63918],[13.36017,56.63753],[13.35866,56.63679],[13.35832,56.63607],[13.3588,56.63559],[13.36037,56.63591],[13.36222,56.6355],[13.36339,56.63392],[13.36466,56.63278],[13.36368,56.63244],[13.363,56.63154],[13.36243,56.63144],[13.36229,56.63121],[13.36266,56.63073],[13.36131,56.62971],[13.35873,56.62935],[13.35792,56.62892],[13.35708,56.62752],[13.3572,56.62573],[13.35601,56.62491],[13.34892,56.62771],[13.34117,56.63284],[13.33435,56.6302],[13.32155,56.62998],[13.31233,56.62931],[13.3056,56.62798],[13.30567,56.62274],[13.30023,56.6181],[13.3029,56.6128],[13.29998,56.60852],[13.29531,56.60762],[13.29529,56.60721],[13.29611,56.6062],[13.29542,56.60558],[13.29547,56.60525],[13.2968,56.60461],[13.29822,56.60436],[13.29917,56.60354],[13.29885,56.60298],[13.29793,56.60287],[13.29761,56.60258],[13.29751,56.60154],[13.29531,56.59769],[13.2955,56.59737],[13.2974,56.59716],[13.29907,56.59638],[13.29897,56.59591],[13.2978,56.59533],[13.29748,56.59429],[13.29754,56.59344],[13.29828,56.59254],[13.29817,56.59147],[13.29511,56.58886],[13.29364,56.58814],[13.29318,56.58752],[13.29317,56.58671],[13.27841,56.58449],[13.27789,56.58289],[13.27606,56.58203],[13.27404,56.58015],[13.27038,56.58017],[13.26884,56.57993],[13.26819,56.57937],[13.26687,56.57906],[13.25952,56.57226],[13.26107,56.57053],[13.26302,56.56656],[13.26676,56.56727],[13.26758,56.5646],[13.26603,56.56235],[13.26561,56.56121],[13.26359,56.55941],[13.26121,56.55833],[13.26036,56.55721],[13.2585,56.55616],[13.25749,56.55586],[13.24827,56.54964],[13.24954,56.54573],[13.24792,56.54352],[13.24174,56.54317],[13.2381,56.54229],[13.23501,56.54223],[13.22751,56.54251],[13.21639,56.54199],[13.19057,56.53772],[13.18953,56.53787],[13.18465,56.53664],[13.17383,56.53464],[13.17265,56.53408],[13.16797,56.5351],[13.16462,56.53524],[13.16369,56.53435],[13.16377,56.53391],[13.15725,56.5316],[13.14781,56.53108],[13.14054,56.53472],[13.13506,56.53803],[13.12832,56.53827],[13.12145,56.54],[13.11895,56.53947],[13.11886,56.54005],[13.11802,56.53996],[13.11855,56.5394],[13.11398,56.53845],[13.10698,56.54261],[13.09995,56.54289],[13.08823,56.54283],[13.08223,56.54317],[13.08579,56.54383],[13.09036,56.54565],[13.09213,56.54697],[13.09478,56.5501],[13.09522,56.55115],[13.09525,56.55245],[13.09494,56.55352],[13.09405,56.55479],[13.09706,56.55614],[13.09904,56.55809],[13.09949,56.55918],[13.09956,56.56033],[13.10038,56.56226],[13.10031,56.56339],[13.09966,56.56483],[13.10045,56.56662],[13.10303,56.56744],[13.10477,56.56844],[13.10659,56.57016],[13.10743,56.57155],[13.1076,56.5731],[13.10688,56.57486],[13.10553,56.57621],[13.10308,56.57755],[13.09908,56.5789],[13.09728,56.57933],[13.08884,56.58029],[13.08514,56.58054],[13.08303,56.58048],[13.08095,56.5808],[13.0789,56.58088],[13.07614,56.58067],[13.07368,56.58011],[13.071,56.57891],[13.06878,56.57716],[13.06756,56.57548],[13.06726,56.57394],[13.06788,56.57207],[13.06956,56.57042],[13.07145,56.56939],[13.0738,56.56864],[13.07616,56.56745],[13.07558,56.56607],[13.0757,56.56451],[13.07532,56.56361],[13.07143,56.56299],[13.06921,56.56365],[13.0667,56.56399],[13.06171,56.56417],[13.05824,56.56393],[13.05632,56.5636],[13.05408,56.5629],[13.05264,56.56217],[13.05134,56.56117],[13.04932,56.56094],[13.04698,56.56276],[13.04942,56.56488],[13.05026,56.56626],[13.05052,56.5675],[13.05019,56.56893],[13.0506,56.57021],[13.05054,56.57133],[13.04963,56.57306],[13.04768,56.57487],[13.04678,56.5761],[13.04526,56.57725],[13.04265,56.57834],[13.03608,56.58018],[13.03414,56.58055],[13.03207,56.58071],[13.03004,56.58065],[13.02748,56.58026],[13.02518,56.57953],[13.02261,56.57958],[13.01961,56.57921],[13.01948,56.57936],[13.01905,56.57931],[13.01895,56.58014],[13.01808,56.5806],[13.01696,56.58079],[13.01728,56.58117],[13.01675,56.58152],[13.01744,56.58187],[13.01667,56.58229],[13.01627,56.58218],[13.01605,56.58229],[13.01657,56.58283],[13.01591,56.5836],[13.01735,56.58384],[13.01628,56.58456],[13.01551,56.58465],[13.01513,56.58496],[13.01549,56.58515],[13.01609,56.58501],[13.01659,56.58524],[13.01698,56.58516],[13.01732,56.58536],[13.01703,56.58575],[13.01764,56.58611],[13.0174,56.5865],[13.01669,56.58661],[13.01676,56.58681],[13.01738,56.58691],[13.01668,56.58767],[13.01736,56.58799],[13.01912,56.58785],[13.02047,56.58855],[13.02145,56.5894],[13.02249,56.58939],[13.02274,56.58974],[13.0231,56.58982],[13.02317,56.59022],[13.02206,56.59025],[13.02195,56.59094],[13.02238,56.59099],[13.02284,56.59052],[13.02387,56.5908],[13.02424,56.59076],[13.02435,56.59041],[13.02496,56.59056],[13.02517,56.59091],[13.02497,56.59137],[13.02561,56.5919],[13.02599,56.59196],[13.02619,56.5924],[13.02688,56.59272],[13.02683,56.59367],[13.02763,56.59386],[13.02717,56.5946],[13.02776,56.59455],[13.02841,56.59479],[13.02845,56.59527],[13.02769,56.59566],[13.03297,56.59636],[13.03569,56.59609],[13.04042,56.59678],[13.04116,56.59724],[13.04571,56.59897],[13.04587,56.59999],[13.04709,56.60032],[13.04737,56.60066],[13.0486,56.6004],[13.0506,56.60039],[13.05325,56.60099],[13.05351,56.6009],[13.05414,56.60159],[13.05599,56.60211],[13.05739,56.6011],[13.06206,56.60279],[13.06102,56.60379],[13.06355,56.60388],[13.06361,56.60336],[13.07491,56.60754],[13.09283,56.61304],[13.10136,56.61453],[13.11281,56.62158],[13.12217,56.6261],[13.12988,56.63055],[13.13086,56.62934],[13.13185,56.62913],[13.13188,56.62866],[13.13224,56.62853],[13.13197,56.62819],[13.13334,56.62761],[13.13369,56.62676],[13.13313,56.62625],[13.13419,56.62583],[13.13437,56.62499],[13.13515,56.62477],[13.13548,56.62406],[13.13605,56.62402],[13.13667,56.6235],[13.13761,56.62412],[13.14004,56.62453],[13.14057,56.62458],[13.14082,56.6243],[13.14183,56.62451],[13.14266,56.62536],[13.14332,56.62558],[13.14371,56.62613],[13.14411,56.62624],[13.14426,56.62711],[13.14526,56.62769],[13.14633,56.62789],[13.14636,56.6282],[13.14767,56.6288],[13.14833,56.6289],[13.15077,56.62861],[13.15161,56.62891],[13.15223,56.62946],[13.15545,56.62972],[13.15618,56.63],[13.15802,56.63029],[13.15844,56.63102],[13.1601,56.63147],[13.16164,56.63238],[13.16415,56.63433],[13.16593,56.64613],[13.16409,56.65026],[13.18412,56.65075],[13.18619,56.65065],[13.18797,56.65035],[13.18777,56.65066],[13.18875,56.65084],[13.19644,56.65408],[13.19378,56.65716],[13.1925,56.65798],[13.19211,56.65877],[13.19081,56.65968],[13.1907,56.6607],[13.19107,56.66116],[13.18941,56.66235],[13.18731,56.66293],[13.18288,56.66325],[13.18087,56.66367],[13.17781,56.6657],[13.17748,56.66635],[13.17629,56.66668],[13.1751,56.66676],[13.17431,56.67019],[13.17445,56.67062],[13.17389,56.67123],[13.17324,56.67287],[13.17381,56.67308],[13.17408,56.67344],[13.1739,56.67366],[13.17427,56.67425],[13.17472,56.67436],[13.17607,56.6742],[13.17775,56.67453],[13.17881,56.67443],[13.18849,56.67556],[13.18981,56.67694],[13.19597,56.67656],[13.19644,56.67602],[13.20216,56.67539],[13.20288,56.67581],[13.20544,56.67615],[13.2075,56.67619],[13.20853,56.67605],[13.20943,56.6762],[13.2135,56.67599],[13.21962,56.67617],[13.2227,56.67383],[13.22341,56.67441],[13.22483,56.6748],[13.22437,56.67543],[13.22517,56.67623],[13.2304,56.67542],[13.24149,56.67513],[13.24926,56.67533],[13.25967,56.67644],[13.27802,56.68006],[13.28384,56.67889],[13.28847,56.6791],[13.29128,56.68358],[13.29377,56.68442],[13.29391,56.68483],[13.29571,56.68537],[13.29836,56.68762],[13.2985,56.68727],[13.30111,56.6866],[13.30294,56.68571],[13.30563,56.68562],[13.30654,56.68577],[13.30805,56.68543],[13.30998,56.68618],[13.3108,56.68718],[13.31143,56.68722],[13.31208,56.6877],[13.31482,56.68796]]]}}]}