{"type":"FeatureCollection","features":[{"type":"Feature","id":"1382R004","properties":{"code":"1382R004","name":"Falkenbergs södra kustområde"},"geometry":{"type":"Polygon","coordinates":[[[12.59101,56.95147],[12.60316,56.95119],[12.61073,56.94824],[12.61146,56.94913],[12.61378,56.94629],[12.62545,56.94347],[12.62483,56.94273],[12.62246,56.93678],[12.62122,56.93469],[12.62126,56.93402],[12.623,56.93187],[12.62319,56.93001],[12.62296,56.92881],[12.62149,56.92589],[12.62128,56.92447],[12.6203,56.92332],[12.6187,56.92208],[12.61738,56.92151],[12.61522,56.92094],[12.61814,56.91697],[12.61773,56.91688],[12.61832,56.91623],[12.61866,56.9163],[12.62491,56.9091],[12.62421,56.90858],[12.62331,56.90843],[12.62123,56.90852],[12.6194,56.90838],[12.61796,56.90857],[12.61655,56.90765],[12.61151,56.90605],[12.61129,56.90565],[12.61156,56.90546],[12.61128,56.9046],[12.61146,56.90433],[12.6089,56.90063],[12.60833,56.90024],[12.60543,56.89934],[12.60454,56.89883],[12.60285,56.89672],[12.60278,56.89587],[12.60359,56.89463],[12.60243,56.8938],[12.60174,56.89286],[12.60158,56.89143],[12.60218,56.89133],[12.60086,56.88924],[12.61365,56.88301],[12.62058,56.88247],[12.62825,56.87733],[12.62929,56.87781],[12.63118,56.87785],[12.63324,56.87694],[12.63356,56.87718],[12.63689,56.87603],[12.63729,56.87649],[12.63456,56.87724],[12.63139,56.87869],[12.63252,56.8799],[12.63202,56.88001],[12.63215,56.8802],[12.63261,56.88002],[12.63285,56.88027],[12.63248,56.88046],[12.63581,56.88297],[12.63516,56.88458],[12.63662,56.88469],[12.63818,56.88218],[12.64529,56.87902],[12.64628,56.87987],[12.64842,56.88104],[12.64915,56.8821],[12.64917,56.8829],[12.64961,56.88325],[12.64957,56.8823],[12.64908,56.8814],[12.65324,56.88374],[12.66628,56.88784],[12.66654,56.8886],[12.66766,56.88974],[12.66808,56.89107],[12.66997,56.89292],[12.67266,56.89373],[12.68191,56.89263],[12.68557,56.8907],[12.69271,56.88323],[12.69326,56.88051],[12.6997,56.87881],[12.70407,56.877],[12.70251,56.87403],[12.70668,56.8715],[12.70973,56.86373],[12.71253,56.8623],[12.72015,56.86011],[12.72574,56.85569],[12.72104,56.85429],[12.72359,56.85077],[12.73023,56.85213],[12.73087,56.85165],[12.73072,56.84903],[12.73293,56.84934],[12.73751,56.84454],[12.73591,56.84461],[12.73526,56.84519],[12.73472,56.84535],[12.73245,56.84548],[12.73179,56.84595],[12.73165,56.84662],[12.73105,56.84674],[12.73041,56.84559],[12.73077,56.84499],[12.7305,56.84456],[12.72982,56.84436],[12.72925,56.84464],[12.72875,56.84461],[12.7273,56.84361],[12.72621,56.84314],[12.72706,56.84197],[12.72687,56.84129],[12.7254,56.84104],[12.72258,56.83979],[12.72051,56.83756],[12.7198,56.83745],[12.71722,56.8377],[12.71685,56.83761],[12.71693,56.83742],[12.7182,56.8369],[12.71811,56.83665],[12.72025,56.83401],[12.71932,56.83355],[12.71994,56.83325],[12.7187,56.83219],[12.71874,56.8318],[12.71518,56.8321],[12.71187,56.83385],[12.70334,56.82938],[12.6971,56.82753],[12.69649,56.82759],[12.69504,56.82699],[12.69441,56.8262],[12.69482,56.82504],[12.69439,56.82447],[12.69197,56.82358],[12.6912,56.82367],[12.68798,56.82151],[12.68427,56.82066],[12.68607,56.81949],[12.68445,56.81834],[12.68412,56.81778],[12.68335,56.81785],[12.68256,56.81684],[12.68098,56.81563],[12.6825,56.81349],[12.68002,56.81306],[12.68044,56.81364],[12.67764,56.81487],[12.67587,56.81525],[12.67363,56.81533],[12.67219,56.81525],[12.67142,56.81497],[12.66592,56.81471],[12.66321,56.81332],[12.65978,56.81102],[12.65242,56.80081],[12.64985,56.80301],[12.65197,56.80461],[12.64993,56.80538],[12.64865,56.80639],[12.6462,56.80593],[12.64584,56.8056],[12.64542,56.80557],[12.64204,56.80243],[12.63672,56.80325],[12.63174,56.80332],[12.62986,56.80311],[12.63176,56.79782],[12.63608,56.7985],[12.63694,56.79467],[12.64311,56.79447],[12.63163,56.78468],[12.62655,56.78539],[12.62483,56.78478],[12.62386,56.78433],[12.6237,56.7838],[12.62202,56.78332],[12.62133,56.78291],[12.62114,56.78224],[12.62051,56.78224],[12.61855,56.78055],[12.61707,56.7799],[12.61469,56.77805],[12.61178,56.77726],[12.5632,56.77702],[12.26146,56.67835],[12.22231,56.72381],[12.43094,56.87105],[12.44338,56.88167],[12.51213,56.86974],[12.51513,56.8671],[12.51579,56.86699],[12.52168,56.86675],[12.52428,56.86701],[12.52822,56.86786],[12.53048,56.86764],[12.53236,56.86766],[12.53532,56.86643],[12.53834,56.86396],[12.54232,56.86211],[12.54418,56.85978],[12.54626,56.85812],[12.54823,56.85719],[12.5506,56.85655],[12.55382,56.85625],[12.55752,56.85647],[12.55994,56.85699],[12.56253,56.85807],[12.56409,56.85924],[12.56575,56.86148],[12.56624,56.86292],[12.56615,56.86412],[12.56762,56.86535],[12.56953,56.86594],[12.57146,56.86693],[12.57336,56.86866],[12.57409,56.87075],[12.5739,56.87257],[12.57311,56.87412],[12.57584,56.87437],[12.57814,56.87495],[12.58013,56.87584],[12.58194,56.87707],[12.58302,56.87832],[12.58351,56.87989],[12.58502,56.88119],[12.58584,56.8825],[12.58792,56.88367],[12.58918,56.88491],[12.59053,56.88781],[12.5907,56.88946],[12.58996,56.89122],[12.58856,56.89257],[12.58567,56.89402],[12.58431,56.89547],[12.58308,56.89632],[12.57987,56.89755],[12.57658,56.8981],[12.57332,56.89812],[12.56958,56.89739],[12.56648,56.89707],[12.56344,56.89616],[12.56278,56.89637],[12.56536,56.89835],[12.56632,56.90043],[12.56587,56.90323],[12.56518,56.90425],[12.56374,56.90546],[12.56182,56.90641],[12.55949,56.90709],[12.55758,56.90737],[12.55496,56.90743],[12.55313,56.90834],[12.54803,56.90997],[12.54483,56.91033],[12.54181,56.91016],[12.54388,56.91219],[12.54591,56.91345],[12.54716,56.91504],[12.54748,56.91643],[12.54727,56.91764],[12.54594,56.91989],[12.54834,56.9199],[12.55216,56.92038],[12.55439,56.92104],[12.55738,56.92233],[12.5603,56.92259],[12.56282,56.92322],[12.56477,56.924],[12.56639,56.92507],[12.56727,56.92601],[12.5679,56.92735],[12.56784,56.92899],[12.56659,56.93199],[12.56582,56.93319],[12.56484,56.93409],[12.56356,56.93486],[12.56149,56.93566],[12.55912,56.93619],[12.55698,56.93643],[12.55286,56.93775],[12.55141,56.93926],[12.54954,56.94032],[12.55291,56.94106],[12.55538,56.94223],[12.55681,56.94345],[12.55833,56.94588],[12.57946,56.94863],[12.58531,56.95007],[12.58735,56.95017],[12.59101,56.95147]],[[12.68086,56.86504],[12.67713,56.86454],[12.67388,56.86434],[12.66942,56.86325],[12.66741,56.86229],[12.6662,56.86139],[12.66481,56.8593],[12.66483,56.85741],[12.66565,56.8559],[12.66806,56.85402],[12.67187,56.85265],[12.67227,56.85141],[12.67355,56.84975],[12.67437,56.84784],[12.67598,56.84626],[12.67735,56.84548],[12.67951,56.8447],[12.68369,56.84407],[12.68693,56.84421],[12.69106,56.84499],[12.69335,56.84517],[12.69672,56.84514],[12.69808,56.84391],[12.69925,56.84172],[12.70093,56.84037],[12.70348,56.83924],[12.70894,56.83783],[12.71169,56.83751],[12.71436,56.83758],[12.71708,56.83805],[12.71935,56.83882],[12.72119,56.83988],[12.72257,56.84125],[12.72329,56.84278],[12.72319,56.84459],[12.7215,56.84704],[12.71931,56.84851],[12.71836,56.84978],[12.7168,56.85094],[12.7157,56.85274],[12.71642,56.8545],[12.71606,56.85712],[12.71395,56.85983],[12.71257,56.861],[12.71113,56.86178],[12.70679,56.86346],[12.70378,56.86415],[12.70115,56.8643],[12.69862,56.86411],[12.69596,56.86468],[12.69333,56.86484],[12.69041,56.86458],[12.68785,56.86398],[12.68465,56.86482],[12.68086,56.86504]]]}},{"type":"Feature","id":"1382R005","properties":{"code":"1382R005","name":"Glommen"},"geometry":{"type":"Polygon","coordinates":[[[12.35595,56.9654],[12.35788,56.96532],[12.35997,56.965],[12.36487,56.96535],[12.36871,56.965],[12.37159,56.96411],[12.37606,56.96159],[12.37785,56.95997],[12.37862,56.95785],[12.37827,56.95611],[12.37664,56.95304],[12.37863,56.95226],[12.38034,56.95116],[12.38243,56.9488],[12.38305,56.94768],[12.38328,56.94656],[12.38311,56.94544],[12.38171,56.94344],[12.3842,56.94373],[12.38618,56.94372],[12.38995,56.94309],[12.39208,56.94228],[12.39341,56.94148],[12.39519,56.9395],[12.39592,56.93755],[12.39593,56.93613],[12.39529,56.93473],[12.39327,56.93245],[12.3938,56.93031],[12.39284,56.92823],[12.391,56.92675],[12.38598,56.92412],[12.38391,56.92321],[12.38159,56.92262],[12.37845,56.92237],[12.3759,56.92256],[12.37302,56.92326],[12.37088,56.92426],[12.36406,56.92343],[12.36079,56.92325],[12.35818,56.92335],[12.35504,56.92297],[12.34976,56.92332],[12.34502,56.92396],[12.34261,56.92462],[12.33863,56.92759],[12.33827,56.92857],[12.33834,56.92995],[12.33791,56.93108],[12.3379,56.93222],[12.33843,56.93355],[12.33959,56.9348],[12.3414,56.93594],[12.34421,56.93691],[12.34649,56.93728],[12.35071,56.93761],[12.35019,56.9384],[12.3487,56.93923],[12.34761,56.94013],[12.34655,56.94185],[12.34638,56.94357],[12.34694,56.94497],[12.34616,56.94616],[12.34582,56.94768],[12.3446,56.94931],[12.3441,56.95126],[12.34462,56.95415],[12.3457,56.95576],[12.34566,56.95621],[12.34465,56.9573],[12.34414,56.95835],[12.34424,56.96049],[12.34577,56.96245],[12.34804,56.96377],[12.35269,56.96507],[12.35595,56.9654]]]}},{"type":"Feature","id":"1382R001","properties":{"code":"1382R001","name":"Falkenberg centrum"},"geometry":{"type":"Polygon","coordinates":[[[12.49657,56.91147],[12.49495,56.9088],[12.48995,56.90946],[12.48709,56.90741],[12.48775,56.90693],[12.49347,56.90679],[12.49357,56.90653],[12.49552,56.90604],[12.49838,56.90638],[12.49888,56.9059],[12.49702,56.90542],[12.49634,56.90506],[12.49506,56.90412],[12.49416,56.903],[12.49472,56.90269],[12.49659,56.90238],[12.49759,56.90188],[12.49788,56.90078],[12.49774,56.9],[12.49188,56.90057],[12.48364,56.90271],[12.4811,56.90374],[12.47374,56.90797],[12.47607,56.90832],[12.4778,56.90881],[12.48317,56.9113],[12.49109,56.9137],[12.49199,56.91293],[12.49335,56.91222],[12.49657,56.91147]]]}},{"type":"Feature","id":"1382R002","properties":{"code":"1382R002","name":"Falkenberg södra"},"geometry":{"type":"Polygon","coordinates":[[[12.51676,56.9004],[12.51863,56.90068],[12.51993,56.9018],[12.52039,56.90195],[12.52138,56.90182],[12.52258,56.90115],[12.52343,56.90092],[12.52583,56.90106],[12.52919,56.89865],[12.5333,56.89648],[12.54374,56.89221],[12.53444,56.88693],[12.5368,56.88638],[12.53918,56.88613],[12.54719,56.88652],[12.51657,56.87142],[12.51213,56.86974],[12.46214,56.87841],[12.46577,56.88137],[12.47394,56.88723],[12.486,56.891],[12.48927,56.89255],[12.49277,56.89509],[12.49478,56.89757],[12.49778,56.90006],[12.49759,56.90188],[12.49659,56.90238],[12.49472,56.90269],[12.49416,56.903],[12.49506,56.90412],[12.49702,56.90542],[12.4989,56.90591],[12.50056,56.90679],[12.50167,56.90685],[12.50366,56.90662],[12.50455,56.90626],[12.5058,56.90532],[12.50938,56.90404],[12.51111,56.90289],[12.51267,56.90217],[12.5145,56.90072],[12.51536,56.90048],[12.51676,56.9004]]]}},{"type":"Feature","id":"1382R003","properties":{"code":"1382R003","name":"Falkenbergs norra kustområde"},"geometry":{"type":"Polygon","coordinates":[[[12.42727,57.01215],[12.43497,57.01168],[12.43656,57.01092],[12.43759,57.00988],[12.43961,57.00938],[12.44169,57.00965],[12.44402,57.00907],[12.45128,57.00787],[12.45431,57.00706],[12.45544,57.0065],[12.45814,57.00418],[12.4604,57.00316],[12.45969,57.0031],[12.45845,57.00261],[12.4628,57.00203],[12.47457,56.99588],[12.47606,56.99585],[12.47795,56.99252],[12.48082,56.99324],[12.48466,56.98781],[12.48642,56.98723],[12.48667,56.98686],[12.4858,56.9865],[12.48656,56.98614],[12.4863,56.98609],[12.48354,56.98725],[12.48305,56.98662],[12.49374,56.98398],[12.50872,56.97981],[12.50705,56.96633],[12.50319,56.96686],[12.50348,56.96542],[12.5062,56.96483],[12.50564,56.96216],[12.48799,56.95614],[12.48742,56.95541],[12.48434,56.94733],[12.48528,56.94731],[12.49167,56.9443],[12.49685,56.94524],[12.50357,56.94201],[12.50598,56.94009],[12.50386,56.93911],[12.50217,56.93765],[12.50145,56.93629],[12.50119,56.93364],[12.5018,56.93221],[12.50304,56.93091],[12.50496,56.92976],[12.50756,56.92888],[12.50913,56.92771],[12.50845,56.92539],[12.5057,56.92563],[12.5037,56.92535],[12.5013,56.92469],[12.49919,56.92366],[12.49625,56.92369],[12.49376,56.9234],[12.49146,56.92277],[12.48962,56.9219],[12.48854,56.92185],[12.48673,56.92242],[12.48486,56.92277],[12.4816,56.9229],[12.47798,56.9224],[12.47524,56.92146],[12.4677,56.92092],[12.46531,56.92036],[12.4637,56.91973],[12.46234,56.91895],[12.4611,56.91783],[12.45784,56.9186],[12.45594,56.91874],[12.45371,56.91865],[12.45204,56.92015],[12.44879,56.92178],[12.44449,56.92292],[12.44237,56.9233],[12.4397,56.9258],[12.43736,56.92705],[12.43439,56.92784],[12.43047,56.92807],[12.42668,56.9276],[12.42391,56.92665],[12.42149,56.92496],[12.4202,56.92251],[12.41659,56.9216],[12.41426,56.92041],[12.41297,56.91922],[12.41226,56.91788],[12.41233,56.91591],[12.41154,56.91389],[12.4118,56.91248],[12.4126,56.91123],[12.41373,56.91017],[12.41386,56.90886],[12.41463,56.90705],[12.41623,56.9055],[12.41809,56.90451],[12.41981,56.90393],[12.42227,56.90347],[12.4246,56.90336],[12.42529,56.90312],[12.42416,56.90204],[12.42333,56.90075],[12.42294,56.89898],[12.42337,56.89755],[12.42479,56.8953],[12.42573,56.89439],[12.42849,56.89293],[12.43201,56.89214],[12.43709,56.89199],[12.43902,56.89222],[12.44113,56.89274],[12.44626,56.89156],[12.44875,56.89146],[12.45108,56.89169],[12.45263,56.89134],[12.44338,56.88167],[12.43094,56.87105],[12.22231,56.72381],[12.01433,56.96333],[12.26047,56.98644],[12.35623,56.99053],[12.37249,56.99532],[12.38146,56.99581],[12.39018,56.9948],[12.38961,56.99589],[12.38965,56.99673],[12.39622,56.99792],[12.40527,57.00166],[12.40861,57.00084],[12.41007,57.00177],[12.41015,57.00232],[12.41183,57.00419],[12.42648,57.00982],[12.42727,57.01215]],[[12.35528,56.96538],[12.3521,56.96495],[12.34804,56.96377],[12.34577,56.96245],[12.34424,56.96049],[12.34414,56.95835],[12.34465,56.9573],[12.34566,56.95621],[12.3457,56.95576],[12.34462,56.95415],[12.3441,56.95126],[12.3446,56.94931],[12.34582,56.94768],[12.34616,56.94616],[12.34694,56.94497],[12.34638,56.94357],[12.34655,56.94185],[12.34761,56.94013],[12.3487,56.93923],[12.35019,56.9384],[12.35071,56.93761],[12.34649,56.93728],[12.34421,56.93691],[12.3414,56.93594],[12.33959,56.9348],[12.33843,56.93355],[12.3379,56.93222],[12.33791,56.93108],[12.33834,56.92995],[12.33827,56.92857],[12.33863,56.92759],[12.34261,56.92462],[12.34502,56.92396],[12.34976,56.92332],[12.35504,56.92297],[12.35818,56.92335],[12.36079,56.92325],[12.36406,56.92343],[12.37088,56.92426],[12.37302,56.92326],[12.3759,56.92256],[12.37908,56.92237],[12.38162,56.92263],[12.38391,56.92321],[12.38598,56.92412],[12.391,56.92675],[12.39284,56.92823],[12.3938,56.93031],[12.39327,56.93245],[12.39529,56.93473],[12.39593,56.93613],[12.39592,56.93755],[12.39519,56.9395],[12.39341,56.94148],[12.39208,56.94228],[12.38995,56.94309],[12.38618,56.94372],[12.3842,56.94373],[12.38171,56.94344],[12.38311,56.94544],[12.38328,56.94656],[12.38305,56.94768],[12.38243,56.9488],[12.38034,56.95116],[12.37863,56.95226],[12.37664,56.95304],[12.37827,56.95611],[12.37862,56.95785],[12.37785,56.95997],[12.37606,56.96159],[12.37159,56.96411],[12.36811,56.96511],[12.36487,56.96535],[12.35997,56.965],[12.35788,56.96532],[12.35528,56.96538]]]}},{"type":"Feature","id":"1382R006","properties":{"code":"1382R006","name":"Skogstorp"},"geometry":{"type":"Polygon","coordinates":[[[12.45204,56.92015],[12.45371,56.91865],[12.45594,56.91874],[12.45784,56.9186],[12.4611,56.91783],[12.4632,56.91948],[12.46609,56.92058],[12.46871,56.91476],[12.46398,56.9153],[12.46203,56.91522],[12.4614,56.91437],[12.46,56.91401],[12.45457,56.90971],[12.45401,56.90959],[12.45308,56.90852],[12.46691,56.90541],[12.45263,56.89134],[12.45108,56.89169],[12.44875,56.89146],[12.44626,56.89156],[12.44113,56.89274],[12.43897,56.89222],[12.43642,56.89196],[12.43263,56.89208],[12.42961,56.89258],[12.42745,56.89335],[12.42573,56.89439],[12.42456,56.89562],[12.4232,56.89791],[12.42293,56.89932],[12.42317,56.90042],[12.42416,56.90204],[12.42529,56.90312],[12.4246,56.90336],[12.42102,56.90366],[12.41813,56.90449],[12.41583,56.90579],[12.41441,56.9074],[12.41373,56.91017],[12.41219,56.91177],[12.41155,56.91352],[12.41166,56.91462],[12.41233,56.91591],[12.41226,56.91788],[12.41323,56.91953],[12.41426,56.92041],[12.41605,56.92139],[12.4202,56.92251],[12.42149,56.92496],[12.42391,56.92665],[12.42731,56.92773],[12.43178,56.92808],[12.43502,56.92772],[12.43786,56.92684],[12.44006,56.92552],[12.44237,56.9233],[12.44449,56.92292],[12.44879,56.92178],[12.45204,56.92015]]]}},{"type":"Feature","id":"1382R007","properties":{"code":"1382R007","name":"Skrea"},"geometry":{"type":"Polygon","coordinates":[[[12.55259,56.90853],[12.55496,56.90743],[12.55885,56.90721],[12.56126,56.90662],[12.56374,56.90546],[12.56544,56.90393],[12.56619,56.90217],[12.56617,56.89972],[12.56505,56.89802],[12.56266,56.89643],[12.56344,56.89616],[12.56648,56.89707],[12.56958,56.89739],[12.57332,56.89812],[12.57658,56.8981],[12.57987,56.89755],[12.58308,56.89632],[12.58431,56.89547],[12.58567,56.89402],[12.58775,56.8931],[12.58902,56.89221],[12.59036,56.89057],[12.59073,56.88901],[12.59053,56.88781],[12.58918,56.88491],[12.58792,56.88367],[12.58584,56.8825],[12.58502,56.88119],[12.58351,56.87989],[12.58302,56.87832],[12.58194,56.87707],[12.58013,56.87584],[12.57814,56.87495],[12.57584,56.87437],[12.57311,56.87412],[12.57398,56.87213],[12.57407,56.8704],[12.57359,56.86901],[12.57281,56.86802],[12.57146,56.86693],[12.56953,56.86594],[12.56762,56.86535],[12.56615,56.86412],[12.56624,56.86292],[12.56593,56.86181],[12.56374,56.85892],[12.56158,56.85759],[12.55938,56.85683],[12.55686,56.8564],[12.55382,56.85625],[12.54997,56.85668],[12.54673,56.85785],[12.54451,56.85946],[12.54232,56.86211],[12.53834,56.86396],[12.53532,56.86643],[12.53236,56.86766],[12.53048,56.86764],[12.52822,56.86786],[12.52428,56.86701],[12.52235,56.86678],[12.51643,56.86691],[12.51513,56.8671],[12.51213,56.86974],[12.51657,56.87142],[12.54719,56.88652],[12.53918,56.88613],[12.5368,56.88638],[12.53444,56.88693],[12.54374,56.89221],[12.5333,56.89648],[12.52919,56.89865],[12.52583,56.90106],[12.53392,56.90134],[12.53527,56.90166],[12.53927,56.90319],[12.54597,56.90624],[12.54908,56.90793],[12.55051,56.90838],[12.55259,56.90853]]]}},{"type":"Feature","id":"1382R008","properties":{"code":"1382R008","name":"Slöinge"},"geometry":{"type":"Polygon","coordinates":[[[12.68154,56.86506],[12.68465,56.86482],[12.68785,56.86398],[12.69041,56.86458],[12.69333,56.86484],[12.69596,56.86468],[12.69862,56.86411],[12.70115,56.8643],[12.70378,56.86415],[12.70735,56.86326],[12.71113,56.86178],[12.71295,56.86074],[12.71538,56.85814],[12.7162,56.85679],[12.71642,56.8545],[12.7157,56.85274],[12.7168,56.85094],[12.71836,56.84978],[12.71931,56.84851],[12.72152,56.84701],[12.72284,56.84534],[12.72329,56.84425],[12.72329,56.84278],[12.72257,56.84125],[12.72119,56.83988],[12.71935,56.83882],[12.71708,56.83805],[12.71436,56.83758],[12.71169,56.83751],[12.70894,56.83783],[12.70348,56.83924],[12.70093,56.84037],[12.69925,56.84172],[12.69808,56.84391],[12.69672,56.84514],[12.69335,56.84517],[12.69106,56.84499],[12.68693,56.84421],[12.68369,56.84407],[12.67951,56.8447],[12.67735,56.84548],[12.67598,56.84626],[12.67437,56.84784],[12.67355,56.84975],[12.67227,56.85141],[12.67187,56.85265],[12.66806,56.85402],[12.66565,56.8559],[12.66483,56.85741],[12.66481,56.8593],[12.6662,56.86139],[12.66741,56.86229],[12.66942,56.86325],[12.67388,56.86434],[12.67713,56.86454],[12.67909,56.86488],[12.68154,56.86506]]]}},{"type":"Feature","id":"1382R009","properties":{"code":"1382R009","name":"Stafsinge-Gruebäcken"},"geometry":{"type":"Polygon","coordinates":[[[12.50845,56.92539],[12.50747,56.92274],[12.50554,56.92126],[12.5048,56.92028],[12.50385,56.91727],[12.50452,56.91671],[12.50636,56.91628],[12.50808,56.91551],[12.51282,56.9117],[12.51224,56.91157],[12.51147,56.91213],[12.50786,56.9111],[12.50724,56.91165],[12.507,56.91159],[12.50689,56.91172],[12.50627,56.91154],[12.5066,56.91118],[12.50597,56.91097],[12.50534,56.91042],[12.50453,56.91019],[12.50406,56.90945],[12.50429,56.90885],[12.5031,56.90799],[12.50286,56.90675],[12.50056,56.90679],[12.49888,56.9059],[12.49838,56.90638],[12.49552,56.90604],[12.49357,56.90653],[12.49347,56.90679],[12.48775,56.90693],[12.48709,56.90741],[12.48995,56.90946],[12.49495,56.9088],[12.49657,56.91147],[12.49335,56.91222],[12.49199,56.91293],[12.49109,56.9137],[12.48317,56.9113],[12.4778,56.90881],[12.47607,56.90832],[12.47374,56.90797],[12.47151,56.90998],[12.46997,56.91189],[12.46609,56.92058],[12.46897,56.92107],[12.47524,56.92146],[12.47798,56.9224],[12.4816,56.9229],[12.48486,56.92277],[12.48673,56.92242],[12.48854,56.92185],[12.48962,56.9219],[12.49146,56.92277],[12.49376,56.9234],[12.49625,56.92369],[12.49919,56.92366],[12.5013,56.92469],[12.50387,56.92538],[12.5057,56.92563],[12.50845,56.92539]]]}},{"type":"Feature","id":"1382R010","properties":{"code":"1382R010","name":"Tröingeberg-Fajans"},"geometry":{"type":"Polygon","coordinates":[[[12.54388,56.91219],[12.54181,56.91016],[12.54483,56.91033],[12.54739,56.91009],[12.54951,56.9096],[12.55259,56.90853],[12.54957,56.90816],[12.54597,56.90624],[12.53927,56.90319],[12.5366,56.9021],[12.53392,56.90134],[12.52351,56.90091],[12.52258,56.90115],[12.52138,56.90182],[12.52039,56.90195],[12.51845,56.90062],[12.51691,56.9004],[12.51507,56.90052],[12.51429,56.90085],[12.51267,56.90217],[12.51111,56.90289],[12.5092,56.90413],[12.5058,56.90532],[12.50429,56.90639],[12.50286,56.90675],[12.5031,56.90799],[12.50429,56.90885],[12.50406,56.90945],[12.50453,56.91019],[12.50534,56.91042],[12.50597,56.91097],[12.5066,56.91118],[12.50627,56.91154],[12.50689,56.91172],[12.507,56.91159],[12.50724,56.91165],[12.50786,56.9111],[12.51147,56.91213],[12.51224,56.91157],[12.51282,56.9117],[12.50808,56.91551],[12.50636,56.91628],[12.50452,56.91671],[12.50385,56.91727],[12.50501,56.92063],[12.50747,56.92274],[12.50788,56.92344],[12.50913,56.92771],[12.50756,56.92888],[12.50545,56.92955],[12.50393,56.9303],[12.50231,56.93159],[12.50119,56.93364],[12.50142,56.93615],[12.52464,56.92837],[12.53627,56.92398],[12.54594,56.91989],[12.54717,56.91798],[12.5474,56.91573],[12.54623,56.91375],[12.54388,56.91219]]]}},{"type":"Feature","id":"1382R011","properties":{"code":"1382R011","name":"Ullared-Inland"},"geometry":{"type":"Polygon","coordinates":[[[12.82691,57.2777],[12.8344,57.27146],[12.83615,57.26972],[12.85079,57.26801],[12.86077,57.26562],[12.8621,57.26731],[12.86248,57.26863],[12.87004,57.2678],[12.87398,57.26858],[12.87807,57.26902],[12.87874,57.26934],[12.88029,57.26965],[12.88115,57.27068],[12.88142,57.27149],[12.89384,57.27028],[12.90162,57.2678],[12.9025,57.26911],[12.90275,57.26923],[12.90342,57.26905],[12.90395,57.26917],[12.9056,57.26984],[12.90612,57.27035],[12.92125,57.26456],[12.9232,57.26459],[12.92952,57.26385],[12.93186,57.26285],[12.93284,57.26158],[12.93355,57.26122],[12.93024,57.25878],[12.92905,57.25842],[12.92773,57.25757],[12.92793,57.25686],[12.92737,57.25641],[12.93038,57.25446],[12.93138,57.25412],[12.9306,57.25205],[12.93064,57.25151],[12.93124,57.25072],[12.93215,57.25011],[12.93383,57.2507],[12.94467,57.24739],[12.94599,57.2483],[12.94916,57.24806],[12.95026,57.24783],[12.95204,57.24631],[12.95296,57.24522],[12.95369,57.24346],[12.95296,57.24263],[12.95416,57.2412],[12.95238,57.23914],[12.94978,57.23744],[12.94589,57.23597],[12.93906,57.23141],[12.935,57.2275],[12.92539,57.22826],[12.92118,57.22402],[12.91756,57.22342],[12.9183,57.22207],[12.91599,57.22025],[12.91538,57.21996],[12.91465,57.21999],[12.91443,57.21983],[12.91734,57.21271],[12.92026,57.20229],[12.92042,57.20115],[12.92011,57.19931],[12.92033,57.19884],[12.91981,57.19695],[12.91602,57.19351],[12.91553,57.18903],[12.91488,57.18707],[12.91083,57.18397],[12.91216,57.18062],[12.92085,57.1756],[12.92795,57.17553],[12.92817,57.1753],[12.93092,57.17481],[12.93222,57.17487],[12.93475,57.17423],[12.93814,57.17482],[12.93866,57.17434],[12.93836,57.17379],[12.9388,57.17321],[12.93934,57.17405],[12.93954,57.17534],[12.93917,57.17639],[12.93962,57.17669],[12.94188,57.17699],[12.94495,57.17813],[12.94614,57.17834],[12.94774,57.17825],[12.95089,57.17719],[12.95441,57.17705],[12.95499,57.17723],[12.95547,57.17801],[12.95686,57.17816],[12.95805,57.17859],[12.96034,57.177],[12.96295,57.17737],[12.96369,57.17751],[12.96559,57.17846],[12.9673,57.1789],[12.96726,57.17838],[12.96805,57.17854],[12.96881,57.17919],[12.96983,57.1809],[12.97211,57.18201],[12.97396,57.18325],[12.97779,57.18157],[12.98023,57.18105],[12.98559,57.17884],[12.98865,57.18129],[12.99298,57.17909],[12.99424,57.17871],[12.99411,57.1785],[12.99592,57.17811],[12.99606,57.1782],[12.99955,57.17734],[13.00207,57.17791],[13.00351,57.17856],[13.00538,57.17896],[13.00768,57.18101],[13.01146,57.18229],[13.01307,57.1824],[13.01302,57.18193],[13.01339,57.18153],[13.01595,57.18157],[13.01896,57.18127],[13.02136,57.18135],[13.02263,57.18026],[13.02466,57.18061],[13.02551,57.18059],[13.02692,57.17993],[13.03026,57.17941],[13.03084,57.17908],[13.03072,57.1787],[13.031,57.17845],[13.0342,57.17861],[13.03901,57.18029],[13.03905,57.17789],[13.036,57.1759],[13.03172,57.17506],[13.02913,57.17275],[13.0277,57.16986],[13.02472,57.1685],[13.02446,57.16821],[13.02453,57.16753],[13.02252,57.16662],[13.02403,57.16545],[13.02354,57.16431],[13.02211,57.16339],[13.02281,57.16241],[13.023,57.1609],[13.02208,57.16058],[13.02143,57.15963],[13.02099,57.15943],[13.02091,57.15749],[13.02251,57.15676],[13.02386,57.15654],[13.02482,57.15581],[13.02665,57.15501],[13.02766,57.1552],[13.02879,57.15504],[13.02893,57.15522],[13.03229,57.15512],[13.03527,57.15439],[13.03752,57.15413],[13.03929,57.15436],[13.04181,57.15434],[13.04535,57.15548],[13.04711,57.15332],[13.0475,57.15236],[13.04945,57.1508],[13.04985,57.14957],[13.05126,57.14885],[13.0501,57.14774],[13.05023,57.14722],[13.05239,57.14644],[13.05561,57.14776],[13.05736,57.14769],[13.05891,57.1469],[13.05946,57.14681],[13.05999,57.14724],[13.06193,57.14744],[13.06511,57.14812],[13.0664,57.14881],[13.06689,57.14948],[13.06791,57.14974],[13.06817,57.15002],[13.06886,57.15016],[13.06937,57.14993],[13.07017,57.15007],[13.07103,57.15109],[13.07147,57.15104],[13.0718,57.15124],[13.07529,57.15633],[13.07824,57.1573],[13.08522,57.15628],[13.0898,57.15843],[13.09223,57.15845],[13.09432,57.15878],[13.09507,57.15914],[13.09625,57.15905],[13.09743,57.15786],[13.09676,57.1571],[13.09728,57.1568],[13.09403,57.1515],[13.10028,57.14556],[13.08071,57.13235],[13.08035,57.12859],[13.07707,57.12759],[13.0784,57.12622],[13.08127,57.12477],[13.08166,57.12479],[13.09111,57.1291],[13.09295,57.12883],[13.0961,57.12906],[13.09908,57.12848],[13.09878,57.12717],[13.09789,57.12678],[13.09694,57.12596],[13.09622,57.12604],[13.09547,57.12567],[13.09352,57.12542],[13.09425,57.12426],[13.09326,57.12412],[13.09197,57.12435],[13.09075,57.12378],[13.09066,57.12274],[13.09131,57.12177],[13.09211,57.12176],[13.09264,57.12081],[13.09351,57.12055],[13.09334,57.11973],[13.09202,57.11868],[13.09201,57.11841],[13.09132,57.11834],[13.09066,57.11781],[13.08454,57.11261],[13.08474,57.11213],[13.08577,57.11188],[13.08785,57.11065],[13.08828,57.10683],[13.08987,57.10563],[13.07907,57.0989],[13.0628,57.09447],[13.06407,57.09398],[13.06644,57.09092],[13.06577,57.09038],[13.06487,57.09004],[13.06292,57.08993],[13.06249,57.08957],[13.06219,57.08966],[13.06182,57.08927],[13.06152,57.08928],[13.06053,57.08869],[13.05894,57.08688],[13.05801,57.08642],[13.05612,57.08629],[13.05399,57.08739],[13.05096,57.08721],[13.05008,57.08643],[13.04863,57.08646],[13.04853,57.08605],[13.04736,57.08556],[13.04713,57.08524],[13.04584,57.08478],[13.04572,57.08454],[13.04465,57.08471],[13.04435,57.08513],[13.04326,57.08516],[13.04262,57.08553],[13.04116,57.0857],[13.03999,57.08641],[13.04006,57.08666],[13.03923,57.08727],[13.03927,57.08759],[13.03531,57.08661],[13.02912,57.08372],[13.02855,57.08359],[13.02676,57.08373],[13.02571,57.08347],[13.02543,57.08303],[13.02457,57.08276],[13.0245,57.08236],[13.02375,57.08186],[13.02522,57.08033],[13.02278,57.07481],[13.02342,57.0728],[13.02059,57.07118],[13.01827,57.06521],[13.01405,57.05645],[13.00983,57.05055],[13.01681,57.04707],[13.0027,57.04105],[13.00406,57.03719],[13.00061,57.03615],[12.99769,57.0423],[12.99074,57.04427],[12.98081,57.04769],[12.97448,57.04746],[12.97207,57.047],[12.97223,57.04979],[12.97179,57.05036],[12.97225,57.05064],[12.97192,57.05103],[12.95469,57.04471],[12.9538,57.04519],[12.95238,57.04546],[12.94956,57.04553],[12.94602,57.04725],[12.94262,57.04707],[12.94028,57.04655],[12.94006,57.04767],[12.94055,57.04789],[12.94057,57.04826],[12.94123,57.04825],[12.94129,57.04908],[12.93987,57.04981],[12.93799,57.05131],[12.94201,57.05423],[12.94376,57.05504],[12.94326,57.05542],[12.94387,57.05737],[12.9367,57.05829],[12.92625,57.05556],[12.91865,57.05416],[12.92026,57.0504],[12.90814,57.04285],[12.90968,57.04255],[12.91106,57.04171],[12.9127,57.04152],[12.9134,57.04102],[12.91378,57.04018],[12.91287,57.03916],[12.91342,57.03883],[12.91328,57.03843],[12.9138,57.03773],[12.91442,57.03753],[12.91425,57.03665],[12.91346,57.03602],[12.91209,57.0356],[12.91182,57.03519],[12.91122,57.03504],[12.91131,57.03463],[12.91073,57.03446],[12.91014,57.03389],[12.90948,57.03374],[12.90943,57.03337],[12.9079,57.03274],[12.90742,57.03271],[12.90691,57.03214],[12.90728,57.03138],[12.90659,57.03092],[12.90577,57.02981],[12.90514,57.02949],[12.90386,57.0293],[12.90359,57.029],[12.90281,57.02927],[12.90174,57.02898],[12.90154,57.02779],[12.90071,57.02749],[12.90029,57.02701],[12.90142,57.02572],[12.9019,57.02575],[12.90238,57.02544],[12.90247,57.02441],[12.90225,57.02428],[12.90261,57.02409],[12.90245,57.0236],[12.9018,57.02308],[12.89979,57.02223],[12.89983,57.02137],[12.8995,57.02081],[12.89862,57.02111],[12.89633,57.02111],[12.89396,57.02049],[12.89235,57.02065],[12.88291,57.01835],[12.87668,57.02012],[12.87049,57.02336],[12.85958,57.02264],[12.85767,57.02186],[12.85345,57.0208],[12.85295,57.02017],[12.8535,57.02017],[12.85369,57.01995],[12.84544,57.0151],[12.84307,57.01732],[12.83007,57.0193],[12.82929,57.01872],[12.82868,57.01881],[12.82849,57.01974],[12.82879,57.02],[12.82832,57.02085],[12.82509,57.02133],[12.82289,57.02215],[12.82324,57.0231],[12.82174,57.02513],[12.819,57.0253],[12.82076,57.02694],[12.82222,57.02887],[12.82159,57.0321],[12.81789,57.03422],[12.81525,57.03537],[12.81512,57.03561],[12.8312,57.04708],[12.83302,57.04678],[12.8331,57.04745],[12.83196,57.04814],[12.8263,57.0594],[12.81806,57.06168],[12.81151,57.06185],[12.79655,57.06113],[12.79588,57.06026],[12.79469,57.05943],[12.79191,57.05907],[12.79034,57.05869],[12.7899,57.0584],[12.78897,57.05851],[12.78753,57.05778],[12.78704,57.05688],[12.78527,57.05542],[12.78498,57.05487],[12.78422,57.05477],[12.78395,57.05419],[12.78321,57.05358],[12.77898,57.05206],[12.77771,57.05079],[12.77487,57.04985],[12.77215,57.04731],[12.77118,57.04676],[12.76814,57.04361],[12.76785,57.04202],[12.76663,57.04107],[12.76642,57.03967],[12.7656,57.03843],[12.76437,57.03743],[12.76237,57.0365],[12.76177,57.03556],[12.76202,57.03462],[12.7611,57.0331],[12.75881,57.0315],[12.75803,57.03024],[12.7545,57.02671],[12.75254,57.02569],[12.75149,57.02459],[12.74861,57.02272],[12.74521,57.02176],[12.74391,57.02189],[12.74121,57.02178],[12.73782,57.02227],[12.73686,57.02308],[12.73695,57.02448],[12.73669,57.02494],[12.73489,57.02561],[12.73318,57.02554],[12.73072,57.02612],[12.72759,57.02553],[12.72501,57.02576],[12.72442,57.02603],[12.72032,57.02689],[12.71883,57.02764],[12.7129,57.02982],[12.71167,57.02995],[12.70986,57.02947],[12.70876,57.02951],[12.70447,57.03108],[12.70278,57.0315],[12.70183,57.03151],[12.70138,57.03134],[12.70061,57.03009],[12.7001,57.02977],[12.69935,57.02966],[12.69577,57.03038],[12.69431,57.03045],[12.6917,57.02965],[12.69006,57.02831],[12.68872,57.02777],[12.68652,57.02724],[12.68379,57.02718],[12.68218,57.02792],[12.68107,57.02988],[12.67834,57.03073],[12.67737,57.03135],[12.67673,57.03196],[12.67617,57.0331],[12.67529,57.0334],[12.67281,57.03357],[12.67144,57.03386],[12.66797,57.03498],[12.66837,57.03562],[12.66674,57.03647],[12.66553,57.03648],[12.66389,57.03528],[12.6613,57.03412],[12.65733,57.03354],[12.65609,57.03112],[12.65561,57.03171],[12.65457,57.03226],[12.65443,57.03213],[12.64413,57.03132],[12.64353,57.03268],[12.64278,57.03261],[12.64246,57.03314],[12.63564,57.03361],[12.63026,57.03467],[12.62813,57.03281],[12.61779,57.03726],[12.60328,57.04128],[12.59694,57.04248],[12.59404,57.04418],[12.59007,57.04494],[12.58916,57.04605],[12.58771,57.04535],[12.57741,57.04937],[12.57068,57.05322],[12.57169,57.05327],[12.57331,57.05374],[12.59099,57.06303],[12.5995,57.06643],[12.58826,57.07336],[12.5827,57.07645],[12.58204,57.07728],[12.58057,57.07813],[12.57986,57.0792],[12.57992,57.07956],[12.57872,57.08063],[12.57713,57.08487],[12.57458,57.08661],[12.57618,57.0886],[12.57667,57.09194],[12.57634,57.09562],[12.57718,57.10356],[12.57533,57.10552],[12.57657,57.1077],[12.57602,57.10915],[12.57643,57.11002],[12.57944,57.11324],[12.59853,57.12308],[12.60149,57.12493],[12.60436,57.12612],[12.6049,57.12617],[12.60594,57.12757],[12.60868,57.12794],[12.61313,57.13011],[12.61645,57.13318],[12.61726,57.13381],[12.61881,57.13455],[12.61816,57.13596],[12.61955,57.13734],[12.61906,57.13802],[12.61889,57.1396],[12.6179,57.14085],[12.61771,57.1418],[12.6171,57.14197],[12.61695,57.14229],[12.61723,57.14269],[12.61643,57.14525],[12.61676,57.1458],[12.61506,57.1476],[12.61386,57.14828],[12.61409,57.14832],[12.61387,57.14894],[12.61496,57.14942],[12.61431,57.15361],[12.61716,57.15578],[12.61789,57.15579],[12.62341,57.15701],[12.6243,57.15775],[12.62666,57.1586],[12.62957,57.15864],[12.62875,57.16048],[12.6301,57.16124],[12.63086,57.1612],[12.63203,57.16075],[12.63268,57.16025],[12.63391,57.15983],[12.63487,57.15896],[12.63569,57.15891],[12.63651,57.15926],[12.63752,57.1593],[12.63856,57.16003],[12.64038,57.16066],[12.64151,57.16128],[12.64276,57.16243],[12.64341,57.16372],[12.64541,57.16444],[12.64698,57.16549],[12.64911,57.16593],[12.64696,57.16779],[12.64589,57.16839],[12.64573,57.16915],[12.64509,57.16994],[12.64511,57.17033],[12.64591,57.17059],[12.6466,57.17136],[12.64639,57.17165],[12.64675,57.17184],[12.64643,57.17219],[12.64439,57.17175],[12.64265,57.17298],[12.64174,57.17258],[12.64083,57.1728],[12.64062,57.17409],[12.63924,57.17485],[12.63899,57.17587],[12.63805,57.17686],[12.6373,57.17723],[12.63625,57.17732],[12.63497,57.17717],[12.63374,57.17639],[12.63184,57.17737],[12.62982,57.17891],[12.63014,57.18078],[12.6297,57.18254],[12.63882,57.18324],[12.63722,57.18576],[12.62792,57.18551],[12.62841,57.18625],[12.62785,57.18675],[12.6281,57.18728],[12.63028,57.18746],[12.6327,57.18828],[12.63404,57.18906],[12.6342,57.18957],[12.63367,57.19027],[12.63229,57.19055],[12.63104,57.19138],[12.62785,57.19235],[12.62531,57.19288],[12.62496,57.19325],[12.625,57.19388],[12.62409,57.19469],[12.62412,57.19514],[12.62348,57.19609],[12.62376,57.19792],[12.62271,57.19926],[12.62367,57.20008],[12.62392,57.20065],[12.62362,57.20133],[12.62471,57.20273],[12.62377,57.20475],[12.62347,57.20954],[12.62766,57.21247],[12.63379,57.21427],[12.63347,57.21756],[12.63806,57.22007],[12.63859,57.22086],[12.63957,57.22156],[12.63985,57.2223],[12.64148,57.22346],[12.64124,57.22562],[12.64658,57.22567],[12.65111,57.22601],[12.65151,57.22597],[12.65136,57.22536],[12.65179,57.22511],[12.65329,57.22523],[12.65435,57.22482],[12.65499,57.22512],[12.65621,57.22513],[12.65727,57.22621],[12.65637,57.22666],[12.65619,57.22754],[12.65755,57.22787],[12.65825,57.2275],[12.65857,57.22757],[12.65898,57.22798],[12.66057,57.22879],[12.66241,57.23065],[12.6642,57.23088],[12.66441,57.23172],[12.66704,57.23344],[12.66727,57.23193],[12.66778,57.23183],[12.66838,57.23083],[12.66914,57.23085],[12.66961,57.23062],[12.66893,57.23044],[12.66951,57.23017],[12.66933,57.22976],[12.66997,57.22951],[12.67047,57.22964],[12.67121,57.22956],[12.67313,57.22859],[12.67435,57.2289],[12.67895,57.23165],[12.6824,57.23314],[12.6874,57.23686],[12.68922,57.2374],[12.69213,57.23914],[12.69361,57.23972],[12.69381,57.24019],[12.6951,57.24041],[12.69626,57.24133],[12.6985,57.24222],[12.69954,57.24291],[12.70059,57.24309],[12.70193,57.24391],[12.70781,57.24661],[12.71277,57.24957],[12.71457,57.25012],[12.71504,57.25056],[12.71525,57.25155],[12.71849,57.25296],[12.7195,57.25425],[12.72156,57.25529],[12.72327,57.25574],[12.72576,57.2577],[12.72842,57.25886],[12.73008,57.26037],[12.73234,57.26118],[12.734,57.26266],[12.73615,57.26333],[12.73668,57.26502],[12.7385,57.26673],[12.74047,57.26738],[12.75419,57.26804],[12.76099,57.26987],[12.7636,57.27006],[12.76297,57.27209],[12.76341,57.27242],[12.7628,57.27341],[12.76939,57.27531],[12.77079,57.27594],[12.77119,57.27648],[12.77261,57.27678],[12.77551,57.2758],[12.77794,57.27798],[12.77954,57.28051],[12.77908,57.28431],[12.78224,57.28584],[12.8011,57.29719],[12.80749,57.30034],[12.80754,57.30111],[12.80879,57.30079],[12.81696,57.29344],[12.82134,57.28613],[12.82691,57.2777]]]}},{"type":"Feature","id":"1382R012","properties":{"code":"1382R012","name":"Vessigebro-Årstad"},"geometry":{"type":"Polygon","coordinates":[[[12.81806,57.06168],[12.8263,57.0594],[12.83196,57.04814],[12.8331,57.04745],[12.83302,57.04678],[12.8312,57.04708],[12.81512,57.03561],[12.81525,57.03537],[12.81789,57.03422],[12.82159,57.0321],[12.82222,57.02887],[12.82076,57.02694],[12.819,57.0253],[12.82174,57.02513],[12.82324,57.0231],[12.82289,57.02215],[12.82509,57.02133],[12.82832,57.02085],[12.82879,57.02],[12.82849,57.01974],[12.82868,57.01881],[12.82929,57.01872],[12.83007,57.0193],[12.84307,57.01732],[12.84668,57.01383],[12.84846,57.00899],[12.85133,57.00413],[12.84822,57.00311],[12.84714,57.00227],[12.84561,57.00167],[12.84534,57.00127],[12.84456,57.00087],[12.84383,57.00157],[12.84129,57.00242],[12.84076,57.0025],[12.83881,57.00227],[12.83639,57.00274],[12.83483,57.00267],[12.83263,57.00115],[12.83236,56.99666],[12.83276,56.9955],[12.83204,56.995],[12.83028,56.99429],[12.82629,56.99183],[12.82467,56.99145],[12.82487,56.99042],[12.82557,56.98917],[12.82502,56.9882],[12.82601,56.98748],[12.82626,56.98645],[12.82583,56.98589],[12.82411,56.98476],[12.82311,56.98437],[12.82176,56.98296],[12.82103,56.9826],[12.82274,56.97492],[12.82435,56.9741],[12.82604,56.97278],[12.83858,56.96555],[12.83988,56.96563],[12.84502,56.96731],[12.84608,56.96811],[12.84796,56.96887],[12.85173,56.96868],[12.85259,56.96879],[12.85297,56.96838],[12.85485,56.96746],[12.85497,56.96677],[12.8556,56.96615],[12.85759,56.96675],[12.85881,56.96924],[12.86417,56.97119],[12.86993,56.96905],[12.87075,56.96852],[12.87057,56.96789],[12.87227,56.96667],[12.87311,56.96542],[12.87347,56.96424],[12.8731,56.96387],[12.87202,56.96343],[12.87119,56.96142],[12.87007,56.96062],[12.86881,56.96007],[12.86835,56.95961],[12.86884,56.95847],[12.86878,56.95635],[12.86909,56.95586],[12.87085,56.95596],[12.87175,56.95575],[12.8717,56.95591],[12.87254,56.95604],[12.87405,56.9558],[12.87418,56.95609],[12.87535,56.95652],[12.87622,56.95647],[12.87687,56.95682],[12.8779,56.95662],[12.87878,56.95703],[12.87938,56.95788],[12.87981,56.9579],[12.88071,56.95842],[12.88149,56.95805],[12.88305,56.95793],[12.88392,56.95735],[12.88488,56.95705],[12.88538,56.95657],[12.88602,56.95636],[12.88695,56.95519],[12.88806,56.95501],[12.88859,56.95519],[12.88964,56.95477],[12.89133,56.9546],[12.89534,56.95534],[12.89602,56.9557],[12.89607,56.95617],[12.90001,56.95757],[12.90112,56.95752],[12.90142,56.95709],[12.90204,56.95693],[12.90333,56.95686],[12.90395,56.95691],[12.90422,56.95713],[12.90746,56.95724],[12.91063,56.95762],[12.9116,56.95782],[12.91212,56.95927],[12.91325,56.95923],[12.9145,56.9553],[12.91375,56.95458],[12.91459,56.95371],[12.91415,56.95231],[12.91428,56.9515],[12.91557,56.95019],[12.91542,56.94968],[12.9162,56.94916],[12.91619,56.94831],[12.91543,56.94712],[12.91397,56.94682],[12.91303,56.94617],[12.91323,56.94565],[12.91285,56.94558],[12.91191,56.94334],[12.91061,56.94232],[12.90991,56.94208],[12.90911,56.94211],[12.90881,56.94173],[12.90823,56.9417],[12.90797,56.94055],[12.9074,56.93988],[12.90637,56.94002],[12.90522,56.93926],[12.90492,56.9388],[12.90395,56.93872],[12.90338,56.93782],[12.90151,56.93676],[12.9017,56.93658],[12.90024,56.93634],[12.89991,56.93643],[12.9003,56.93599],[12.90035,56.93481],[12.89987,56.9348],[12.89938,56.93534],[12.89901,56.93536],[12.89826,56.93498],[12.89862,56.93452],[12.89775,56.93425],[12.89736,56.93431],[12.89648,56.93488],[12.8958,56.93586],[12.89512,56.93579],[12.89495,56.9352],[12.89526,56.93365],[12.89348,56.93241],[12.89343,56.9319],[12.8929,56.93185],[12.89218,56.93226],[12.89192,56.93205],[12.89207,56.93105],[12.89184,56.93077],[12.89218,56.93034],[12.89223,56.92925],[12.89347,56.92919],[12.89431,56.92847],[12.89402,56.92799],[12.89267,56.92743],[12.89256,56.92694],[12.89379,56.92508],[12.89341,56.9245],[12.89252,56.92427],[12.89134,56.92255],[12.89009,56.92133],[12.89008,56.92097],[12.89062,56.9205],[12.88935,56.91975],[12.88862,56.91903],[12.88864,56.91871],[12.88635,56.91819],[12.88578,56.91738],[12.88614,56.91694],[12.88588,56.91641],[12.88512,56.91625],[12.88491,56.9159],[12.87944,56.91427],[12.88014,56.91295],[12.87971,56.91214],[12.87909,56.91193],[12.87878,56.91155],[12.87885,56.91062],[12.87822,56.91048],[12.87102,56.90386],[12.87324,56.89465],[12.87082,56.89482],[12.86718,56.89212],[12.86632,56.88852],[12.86819,56.88462],[12.87139,56.88334],[12.87356,56.88063],[12.87324,56.87986],[12.87336,56.87915],[12.87278,56.87837],[12.87341,56.87776],[12.87335,56.87737],[12.87173,56.87636],[12.87221,56.87444],[12.87189,56.87394],[12.86503,56.87713],[12.86225,56.87639],[12.86013,56.87395],[12.85948,56.87408],[12.8529,56.87301],[12.85314,56.87257],[12.85219,56.87244],[12.8489,56.87595],[12.83769,56.87245],[12.84246,56.87152],[12.84922,56.87249],[12.84908,56.87197],[12.84826,56.87187],[12.84814,56.87165],[12.84746,56.87148],[12.85066,56.87174],[12.85095,56.86945],[12.84215,56.87027],[12.82751,56.87252],[12.80188,56.86374],[12.78213,56.86037],[12.78233,56.85809],[12.78338,56.85822],[12.78322,56.85855],[12.78417,56.85878],[12.78495,56.85841],[12.81074,56.86168],[12.82341,56.86568],[12.84074,56.86734],[12.84742,56.86502],[12.84523,56.8633],[12.85056,56.8622],[12.84944,56.86099],[12.84443,56.85819],[12.84165,56.85579],[12.83178,56.85389],[12.83035,56.85406],[12.82734,56.85389],[12.82449,56.85348],[12.81951,56.85316],[12.81894,56.8528],[12.81848,56.85301],[12.81723,56.85308],[12.81319,56.85287],[12.80849,56.85496],[12.80693,56.85543],[12.80515,56.85534],[12.80128,56.85568],[12.79448,56.85565],[12.7869,56.856],[12.77656,56.85589],[12.77452,56.85531],[12.77189,56.85654],[12.77095,56.85569],[12.75813,56.86025],[12.75305,56.85814],[12.75338,56.85803],[12.7533,56.85766],[12.7515,56.85654],[12.75103,56.85579],[12.74972,56.85556],[12.75049,56.85486],[12.75041,56.85459],[12.74944,56.85455],[12.74873,56.85419],[12.74757,56.85395],[12.74769,56.85368],[12.74929,56.85372],[12.74942,56.85356],[12.74808,56.85302],[12.74717,56.85306],[12.74649,56.85272],[12.74676,56.85176],[12.74653,56.85152],[12.74471,56.85094],[12.74411,56.85102],[12.74341,56.85154],[12.74288,56.85134],[12.74213,56.85023],[12.74234,56.84965],[12.74329,56.84905],[12.74322,56.84817],[12.74421,56.84787],[12.74399,56.84762],[12.74318,56.84746],[12.74431,56.84652],[12.74427,56.84588],[12.7439,56.84527],[12.74324,56.84496],[12.74088,56.84452],[12.74078,56.84513],[12.74029,56.84505],[12.74034,56.84436],[12.74118,56.84365],[12.74094,56.84349],[12.7402,56.84353],[12.73916,56.84538],[12.73835,56.84513],[12.73833,56.84457],[12.73751,56.84454],[12.73293,56.84934],[12.73072,56.84903],[12.73087,56.85165],[12.73023,56.85213],[12.72359,56.85077],[12.72104,56.85429],[12.72574,56.85569],[12.72015,56.86011],[12.71253,56.8623],[12.70973,56.86373],[12.70668,56.8715],[12.70251,56.87403],[12.70407,56.877],[12.6997,56.87881],[12.69326,56.88051],[12.69271,56.88323],[12.68557,56.8907],[12.68191,56.89263],[12.67266,56.89373],[12.66997,56.89292],[12.66808,56.89107],[12.66766,56.88974],[12.66654,56.8886],[12.66628,56.88784],[12.65324,56.88374],[12.64908,56.8814],[12.64957,56.8823],[12.64961,56.88325],[12.64917,56.8829],[12.64915,56.8821],[12.64842,56.88104],[12.64628,56.87987],[12.64529,56.87902],[12.63818,56.88218],[12.63662,56.88469],[12.63516,56.88458],[12.63581,56.88297],[12.63248,56.88046],[12.63285,56.88027],[12.63261,56.88002],[12.63215,56.8802],[12.63202,56.88001],[12.63252,56.8799],[12.63139,56.87869],[12.63456,56.87724],[12.63729,56.87649],[12.63689,56.87603],[12.63356,56.87718],[12.63324,56.87694],[12.63118,56.87785],[12.62929,56.87781],[12.62825,56.87733],[12.62058,56.88247],[12.61365,56.88301],[12.60086,56.88924],[12.60218,56.89133],[12.60158,56.89143],[12.60174,56.89286],[12.60243,56.8938],[12.60359,56.89463],[12.60278,56.89587],[12.60285,56.89672],[12.60454,56.89883],[12.60543,56.89934],[12.60833,56.90024],[12.6089,56.90063],[12.61146,56.90433],[12.61128,56.9046],[12.61156,56.90546],[12.61129,56.90565],[12.61151,56.90605],[12.61655,56.90765],[12.61796,56.90857],[12.6194,56.90838],[12.62123,56.90852],[12.62331,56.90843],[12.62421,56.90858],[12.62491,56.9091],[12.61866,56.9163],[12.61832,56.91623],[12.61773,56.91688],[12.61814,56.91697],[12.61522,56.92094],[12.61738,56.92151],[12.6187,56.92208],[12.6203,56.92332],[12.62128,56.92447],[12.62149,56.92589],[12.62296,56.92881],[12.62319,56.93001],[12.623,56.93187],[12.62126,56.93402],[12.62122,56.93469],[12.62246,56.93678],[12.62483,56.94273],[12.62545,56.94347],[12.61378,56.94629],[12.61146,56.94913],[12.61073,56.94824],[12.60316,56.95119],[12.59393,56.95141],[12.59381,56.95245],[12.59334,56.95257],[12.59432,56.95377],[12.59403,56.9541],[12.59456,56.95728],[12.59346,56.95739],[12.59324,56.95884],[12.59709,56.96053],[12.59661,56.96491],[12.59769,56.96667],[12.60325,56.96676],[12.60478,56.96902],[12.60341,56.96982],[12.60539,56.97371],[12.60776,56.97703],[12.60763,56.97827],[12.60834,56.979],[12.60862,56.98001],[12.60926,56.98075],[12.61168,56.98245],[12.61879,56.98646],[12.6145,56.99717],[12.63707,56.99909],[12.64465,57.00189],[12.64827,57.00178],[12.64811,57.00356],[12.64687,57.00471],[12.64544,57.00562],[12.64535,57.0063],[12.64592,57.00684],[12.64994,57.00671],[12.65111,57.00712],[12.6518,57.00782],[12.65199,57.00846],[12.65177,57.00924],[12.64981,57.01174],[12.64922,57.01558],[12.65016,57.01639],[12.65132,57.01633],[12.65334,57.01592],[12.65418,57.01602],[12.65479,57.01642],[12.65476,57.0172],[12.65352,57.01963],[12.65359,57.02224],[12.65487,57.02405],[12.6592,57.02659],[12.65798,57.02821],[12.65753,57.02977],[12.65609,57.03112],[12.65733,57.03354],[12.6613,57.03412],[12.66389,57.03528],[12.66553,57.03648],[12.66674,57.03647],[12.66837,57.03562],[12.66797,57.03498],[12.67144,57.03386],[12.67281,57.03357],[12.67529,57.0334],[12.67617,57.0331],[12.67673,57.03196],[12.67737,57.03135],[12.67834,57.03073],[12.68107,57.02988],[12.68218,57.02792],[12.68379,57.02718],[12.68652,57.02724],[12.68872,57.02777],[12.69006,57.02831],[12.6917,57.02965],[12.69431,57.03045],[12.69577,57.03038],[12.69935,57.02966],[12.7001,57.02977],[12.70061,57.03009],[12.70138,57.03134],[12.70183,57.03151],[12.70278,57.0315],[12.70447,57.03108],[12.70876,57.02951],[12.70986,57.02947],[12.71167,57.02995],[12.7129,57.02982],[12.71883,57.02764],[12.72032,57.02689],[12.72442,57.02603],[12.72501,57.02576],[12.72759,57.02553],[12.73072,57.02612],[12.73318,57.02554],[12.73489,57.02561],[12.73669,57.02494],[12.73695,57.02448],[12.73686,57.02308],[12.73782,57.02227],[12.74121,57.02178],[12.74391,57.02189],[12.74521,57.02176],[12.74861,57.02272],[12.75149,57.02459],[12.75254,57.02569],[12.7545,57.02671],[12.75803,57.03024],[12.75881,57.0315],[12.7611,57.0331],[12.76202,57.03462],[12.76177,57.03556],[12.76237,57.0365],[12.76437,57.03743],[12.7656,57.03843],[12.76642,57.03967],[12.76663,57.04107],[12.76785,57.04202],[12.76814,57.04361],[12.77118,57.04676],[12.77215,57.04731],[12.77487,57.04985],[12.77771,57.05079],[12.77898,57.05206],[12.78321,57.05358],[12.78395,57.05419],[12.78422,57.05477],[12.78498,57.05487],[12.78527,57.05542],[12.78704,57.05688],[12.78753,57.05778],[12.78897,57.05851],[12.7899,57.0584],[12.79034,57.05869],[12.79191,57.05907],[12.79469,57.05943],[12.79588,57.06026],[12.79655,57.06113],[12.81151,57.06185],[12.81806,57.06168]]]}},{"type":"Feature","id":"1382R013","properties":{"code":"1382R013","name":"Vinberg-Ljungby"},"geometry":{"type":"Polygon","coordinates":[[[12.61779,57.03726],[12.62813,57.03281],[12.63026,57.03467],[12.63564,57.03361],[12.64246,57.03314],[12.64278,57.03261],[12.64353,57.03268],[12.64413,57.03132],[12.65443,57.03213],[12.65457,57.03226],[12.65561,57.03171],[12.65753,57.02977],[12.65798,57.02821],[12.6592,57.02659],[12.65487,57.02405],[12.65359,57.02224],[12.65352,57.01963],[12.65476,57.0172],[12.65479,57.01642],[12.65418,57.01602],[12.65334,57.01592],[12.65132,57.01633],[12.65016,57.01639],[12.64922,57.01558],[12.64981,57.01174],[12.65177,57.00924],[12.65199,57.00846],[12.6518,57.00782],[12.65111,57.00712],[12.64994,57.00671],[12.64592,57.00684],[12.64535,57.0063],[12.64544,57.00562],[12.64687,57.00471],[12.64811,57.00356],[12.64827,57.00178],[12.64465,57.00189],[12.63707,56.99909],[12.6145,56.99717],[12.61879,56.98646],[12.61168,56.98245],[12.60926,56.98075],[12.60862,56.98001],[12.60834,56.979],[12.60763,56.97827],[12.60776,56.97703],[12.60539,56.97371],[12.60341,56.96982],[12.60478,56.96902],[12.60325,56.96676],[12.59769,56.96667],[12.59661,56.96491],[12.59709,56.96053],[12.59324,56.95884],[12.59346,56.95739],[12.59456,56.95728],[12.59403,56.9541],[12.59432,56.95377],[12.59334,56.95257],[12.59381,56.95245],[12.59393,56.95141],[12.59101,56.95147],[12.58735,56.95017],[12.58531,56.95007],[12.57946,56.94863],[12.55833,56.94588],[12.55681,56.94345],[12.55538,56.94223],[12.55291,56.94106],[12.54954,56.94032],[12.55141,56.93926],[12.55286,56.93775],[12.55698,56.93643],[12.55912,56.93619],[12.56149,56.93566],[12.56356,56.93486],[12.56484,56.93409],[12.56582,56.93319],[12.56659,56.93199],[12.56784,56.92899],[12.5679,56.92735],[12.56727,56.92601],[12.56639,56.92507],[12.56477,56.924],[12.56282,56.92322],[12.5603,56.92259],[12.55738,56.92233],[12.55439,56.92104],[12.55216,56.92038],[12.54834,56.9199],[12.54594,56.91989],[12.53627,56.92398],[12.52464,56.92837],[12.50142,56.93615],[12.50192,56.93731],[12.50275,56.93828],[12.50431,56.93937],[12.50598,56.94009],[12.50357,56.94201],[12.49685,56.94524],[12.49167,56.9443],[12.48528,56.94731],[12.48434,56.94733],[12.48742,56.95541],[12.48799,56.95614],[12.50564,56.96216],[12.5062,56.96483],[12.50348,56.96542],[12.50319,56.96686],[12.50705,56.96633],[12.50872,56.97981],[12.49374,56.98398],[12.48305,56.98662],[12.48354,56.98725],[12.4863,56.98609],[12.48656,56.98614],[12.4858,56.9865],[12.48667,56.98686],[12.48642,56.98723],[12.48466,56.98781],[12.48082,56.99324],[12.47795,56.99252],[12.47606,56.99585],[12.47457,56.99588],[12.4628,57.00203],[12.45845,57.00261],[12.45969,57.0031],[12.4604,57.00316],[12.45814,57.00418],[12.45544,57.0065],[12.45336,57.00737],[12.45562,57.00897],[12.45615,57.0088],[12.45687,57.01133],[12.45646,57.01266],[12.45667,57.013],[12.45823,57.01291],[12.46079,57.0139],[12.46304,57.01408],[12.4654,57.014],[12.46683,57.01431],[12.47275,57.0145],[12.48299,57.01614],[12.48855,57.01515],[12.48864,57.01427],[12.48729,57.01348],[12.48468,57.01133],[12.48422,57.01014],[12.48415,57.00967],[12.48532,57.00809],[12.48541,57.00682],[12.48584,57.00625],[12.48717,57.00559],[12.51096,57.00218],[12.51696,57.00101],[12.51038,56.99709],[12.52697,56.9934],[12.53403,56.99886],[12.54292,57.00132],[12.54982,57.01255],[12.54967,57.01442],[12.55047,57.01804],[12.5508,57.01811],[12.5512,57.01792],[12.55194,57.01811],[12.55228,57.01845],[12.55889,57.01804],[12.56844,57.01577],[12.57388,57.01514],[12.57672,57.0156],[12.57798,57.01641],[12.57776,57.01733],[12.57724,57.01781],[12.57813,57.01898],[12.58216,57.01978],[12.58606,57.01986],[12.58704,57.02042],[12.58728,57.02086],[12.58767,57.02095],[12.58934,57.02115],[12.59033,57.02091],[12.59021,57.0207],[12.59122,57.02086],[12.59188,57.0207],[12.59288,57.02154],[12.5936,57.02175],[12.59405,57.02175],[12.59453,57.02139],[12.5959,57.02147],[12.59702,57.02189],[12.59918,57.02227],[12.60194,57.02225],[12.60336,57.02261],[12.60398,57.0226],[12.60681,57.02109],[12.60735,57.02138],[12.60737,57.0223],[12.60789,57.02237],[12.60798,57.02217],[12.60824,57.0222],[12.60795,57.02295],[12.60873,57.02335],[12.60909,57.02397],[12.60893,57.02462],[12.60843,57.02474],[12.60847,57.02502],[12.60808,57.02512],[12.60774,57.02558],[12.60817,57.02571],[12.60761,57.02638],[12.60884,57.02695],[12.60831,57.02756],[12.60884,57.02822],[12.60934,57.02839],[12.60941,57.02912],[12.60844,57.02983],[12.60844,57.0301],[12.60878,57.0302],[12.60826,57.03044],[12.60839,57.03081],[12.60687,57.03071],[12.60661,57.03115],[12.60581,57.03149],[12.60513,57.03144],[12.60491,57.03189],[12.60463,57.03185],[12.60449,57.03204],[12.60383,57.03214],[12.60358,57.03246],[12.60296,57.03256],[12.60333,57.03436],[12.60313,57.03553],[12.60355,57.03583],[12.60295,57.03648],[12.60248,57.03647],[12.60154,57.03965],[12.60202,57.04147],[12.60328,57.04128],[12.61779,57.03726]]]}},{"type":"Feature","id":"1382R014","properties":{"code":"1382R014","name":"Västra gärdet"},"geometry":{"type":"Polygon","coordinates":[[[12.48202,56.90329],[12.48364,56.90271],[12.49129,56.90069],[12.49774,56.9],[12.49478,56.89757],[12.49277,56.89509],[12.48927,56.89255],[12.486,56.891],[12.47394,56.88723],[12.46577,56.88137],[12.46214,56.87841],[12.44338,56.88167],[12.45263,56.89134],[12.46691,56.90541],[12.45308,56.90852],[12.45401,56.90959],[12.45457,56.90971],[12.46,56.91401],[12.4614,56.91437],[12.46194,56.91518],[12.46258,56.91535],[12.46398,56.9153],[12.46871,56.91476],[12.47024,56.9115],[12.47306,56.90854],[12.47497,56.90717],[12.48202,56.90329]]]}}]}