{"type":"FeatureCollection","features":[{"type":"Feature","id":"1401R001","properties":{"code":"1401R001","name":"Djupedalsäng-Högadal-Orrekullen"},"geometry":{"type":"Polygon","coordinates":[[[12.15083,57.66529],[12.15201,57.66441],[12.15407,57.66505],[12.15659,57.66544],[12.15919,57.66547],[12.162,57.66518],[12.16508,57.66451],[12.16727,57.66356],[12.16882,57.66321],[12.17202,57.66283],[12.17438,57.66222],[12.17371,57.66145],[12.17108,57.66065],[12.16817,57.65863],[12.1667,57.65795],[12.15966,57.65995],[12.15705,57.66015],[12.1571,57.65794],[12.15923,57.65675],[12.1566,57.65567],[12.15476,57.65422],[12.15353,57.65414],[12.15304,57.65563],[12.15035,57.65373],[12.15174,57.65338],[12.15155,57.65311],[12.14909,57.65181],[12.14909,57.65135],[12.14858,57.65124],[12.1529,57.65035],[12.15191,57.65019],[12.15108,57.65052],[12.15031,57.65047],[12.1492,57.64993],[12.14816,57.65003],[12.1478,57.64957],[12.14724,57.64972],[12.145,57.6491],[12.14387,57.64945],[12.14143,57.64845],[12.13935,57.64814],[12.13885,57.64759],[12.1383,57.64753],[12.1383,57.64665],[12.1376,57.64677],[12.13791,57.64713],[12.13754,57.64738],[12.13289,57.64688],[12.13203,57.64773],[12.13101,57.64747],[12.12909,57.64624],[12.12789,57.64606],[12.12657,57.64624],[12.126,57.64654],[12.12566,57.64645],[12.12527,57.64685],[12.12477,57.64667],[12.12406,57.64677],[12.12339,57.64784],[12.12091,57.64775],[12.11836,57.64884],[12.11749,57.64882],[12.11473,57.64809],[12.11389,57.64836],[12.11282,57.64915],[12.11118,57.64864],[12.11036,57.64897],[12.11101,57.64972],[12.10907,57.65095],[12.10783,57.65032],[12.10675,57.65089],[12.10761,57.65133],[12.107,57.65168],[12.10721,57.65181],[12.10659,57.65204],[12.10807,57.65365],[12.10866,57.65521],[12.10844,57.65649],[12.10956,57.65618],[12.11085,57.65681],[12.11125,57.65667],[12.11142,57.65631],[12.11193,57.65629],[12.1143,57.65733],[12.11614,57.65748],[12.11907,57.65804],[12.11914,57.65889],[12.1212,57.65903],[12.12346,57.65983],[12.12601,57.66274],[12.12732,57.66271],[12.12945,57.66339],[12.12946,57.66354],[12.13037,57.66362],[12.13061,57.66314],[12.13118,57.66309],[12.13376,57.66548],[12.13476,57.66588],[12.13623,57.66537],[12.13852,57.66535],[12.13906,57.66513],[12.14033,57.665],[12.14395,57.66621],[12.14691,57.66778],[12.14766,57.66668],[12.15083,57.66529]]]}},{"type":"Feature","id":"1401R002","properties":{"code":"1401R002","name":"Hindås"},"geometry":{"type":"Polygon","coordinates":[[[12.43692,57.72716],[12.44301,57.72447],[12.4444,57.72497],[12.4469,57.72387],[12.45164,57.72309],[12.45222,57.72102],[12.45797,57.7185],[12.46256,57.72211],[12.47165,57.72207],[12.47489,57.72296],[12.4792,57.72207],[12.4802,57.72258],[12.48081,57.72218],[12.48132,57.72246],[12.48095,57.72299],[12.48495,57.72496],[12.48657,57.72421],[12.48642,57.72331],[12.48322,57.72156],[12.48453,57.72004],[12.48503,57.71824],[12.47987,57.71521],[12.47984,57.71403],[12.48115,57.71277],[12.48179,57.71163],[12.48284,57.71053],[12.4859,57.70851],[12.48683,57.70716],[12.48763,57.70685],[12.48872,57.70678],[12.49132,57.70742],[12.49718,57.70477],[12.49085,57.70308],[12.48785,57.70271],[12.48677,57.70174],[12.48489,57.70068],[12.48315,57.70005],[12.48097,57.69957],[12.47842,57.69862],[12.47726,57.69601],[12.47539,57.69408],[12.47521,57.69253],[12.47437,57.69114],[12.47236,57.68957],[12.46969,57.68847],[12.46715,57.68793],[12.46488,57.68775],[12.46138,57.68795],[12.45846,57.68862],[12.45511,57.68796],[12.45178,57.68792],[12.44754,57.68855],[12.44582,57.68912],[12.44421,57.68992],[12.44313,57.68882],[12.44144,57.68773],[12.43925,57.68689],[12.43699,57.6864],[12.43548,57.68547],[12.43334,57.68464],[12.42938,57.68389],[12.42381,57.68385],[12.42125,57.68422],[12.41848,57.68512],[12.41645,57.68634],[12.41522,57.68759],[12.41464,57.68894],[12.4147,57.69032],[12.41561,57.6928],[12.41703,57.69443],[12.41374,57.69406],[12.41101,57.69416],[12.40712,57.69488],[12.40366,57.69592],[12.40169,57.69694],[12.40014,57.69833],[12.39928,57.70007],[12.39934,57.70153],[12.40072,57.70364],[12.40358,57.70565],[12.40645,57.70676],[12.41207,57.70798],[12.41332,57.70907],[12.41475,57.7099],[12.41905,57.71142],[12.41844,57.71283],[12.41854,57.71436],[12.41781,57.71593],[12.41787,57.71735],[12.42058,57.72233],[12.4224,57.72408],[12.42541,57.72549],[12.42872,57.72619],[12.43227,57.72629],[12.43659,57.72569],[12.43692,57.72716]]]}},{"type":"Feature","id":"1401R003","properties":{"code":"1401R003","name":"Härryda centrum-Skårtorp"},"geometry":{"type":"Polygon","coordinates":[[[12.29194,57.73089],[12.29052,57.7294],[12.29087,57.72889],[12.29174,57.72877],[12.29205,57.72776],[12.2919,57.72632],[12.29089,57.72468],[12.28849,57.72292],[12.28763,57.72182],[12.28604,57.72063],[12.28379,57.71963],[12.28152,57.71906],[12.28296,57.71774],[12.28427,57.71525],[12.28558,57.71367],[12.28598,57.71234],[12.28589,57.71113],[12.28629,57.71096],[12.28911,57.71132],[12.29167,57.71127],[12.29417,57.71086],[12.2965,57.7101],[12.29841,57.70905],[12.29983,57.70769],[12.30053,57.70628],[12.30049,57.7045],[12.30387,57.70379],[12.30645,57.70261],[12.31047,57.70313],[12.31442,57.70315],[12.317,57.70273],[12.31964,57.70182],[12.32333,57.7016],[12.32651,57.70083],[12.32874,57.69987],[12.33038,57.6987],[12.33289,57.69493],[12.33325,57.69312],[12.33228,57.69106],[12.33038,57.68956],[12.32717,57.68827],[12.32773,57.68707],[12.32781,57.68595],[12.32749,57.68477],[12.32679,57.68371],[12.32573,57.68274],[12.32386,57.68167],[12.32203,57.68101],[12.32009,57.68056],[12.3174,57.68029],[12.31332,57.68031],[12.30919,57.68074],[12.30572,57.68175],[12.30116,57.68078],[12.29762,57.68062],[12.29429,57.68104],[12.29132,57.68199],[12.28848,57.68094],[12.28655,57.6805],[12.28386,57.68023],[12.28096,57.68034],[12.27877,57.68071],[12.27674,57.6813],[12.27597,57.68427],[12.27387,57.68287],[12.27307,57.68276],[12.27196,57.68293],[12.26984,57.68443],[12.26863,57.68622],[12.26819,57.68734],[12.26855,57.68747],[12.26972,57.68729],[12.27147,57.68777],[12.27259,57.68761],[12.27377,57.68796],[12.27344,57.68869],[12.27195,57.68852],[12.27179,57.68926],[12.27288,57.6896],[12.27193,57.691],[12.26999,57.69235],[12.26974,57.69303],[12.2718,57.69405],[12.27317,57.69377],[12.27397,57.69538],[12.27268,57.69645],[12.27186,57.69674],[12.27152,57.69789],[12.26575,57.7072],[12.26603,57.70739],[12.26554,57.70751],[12.26451,57.70906],[12.2631,57.70994],[12.26273,57.71169],[12.26079,57.71596],[12.2566,57.7218],[12.25585,57.72921],[12.25722,57.72928],[12.25827,57.72698],[12.26414,57.72872],[12.26631,57.72907],[12.26644,57.72831],[12.26741,57.7269],[12.27043,57.7271],[12.27338,57.72679],[12.27503,57.72737],[12.27555,57.72468],[12.28278,57.72358],[12.28139,57.73043],[12.29194,57.73089]]]}},{"type":"Feature","id":"1401R004","properties":{"code":"1401R004","name":"Härryda-Eskilsby-Backa"},"geometry":{"type":"Polygon","coordinates":[[[12.36789,57.73385],[12.37062,57.72308],[12.37204,57.72178],[12.3722,57.72124],[12.37224,57.72044],[12.3707,57.72019],[12.37092,57.71907],[12.37059,57.71717],[12.37102,57.71562],[12.37121,57.71528],[12.37742,57.71472],[12.37807,57.7144],[12.37403,57.71187],[12.37409,57.71148],[12.37038,57.70613],[12.37035,57.7045],[12.37184,57.70401],[12.37191,57.7038],[12.37425,57.7039],[12.37529,57.70414],[12.37515,57.70515],[12.37398,57.70538],[12.37497,57.70562],[12.37571,57.7054],[12.37675,57.70557],[12.37693,57.70531],[12.37578,57.70491],[12.37592,57.70418],[12.3772,57.70391],[12.37763,57.70348],[12.37768,57.70281],[12.37705,57.70231],[12.37695,57.70186],[12.3779,57.70088],[12.3773,57.7007],[12.37603,57.70074],[12.37655,57.6999],[12.37845,57.6993],[12.37869,57.69901],[12.37758,57.69828],[12.37509,57.69816],[12.37496,57.69783],[12.37557,57.69728],[12.37528,57.69535],[12.37415,57.69446],[12.37224,57.69441],[12.37142,57.69372],[12.37046,57.69372],[12.37014,57.69376],[12.37076,57.69586],[12.3701,57.69599],[12.36396,57.6956],[12.36275,57.69286],[12.36179,57.69274],[12.35947,57.69196],[12.35803,57.69179],[12.35738,57.69093],[12.35809,57.69014],[12.35769,57.68941],[12.36069,57.68903],[12.35289,57.67463],[12.37079,57.67105],[12.38777,57.66814],[12.39601,57.6673],[12.40375,57.66695],[12.40072,57.6655],[12.39913,57.66429],[12.39831,57.66393],[12.39751,57.6629],[12.39623,57.66195],[12.39282,57.65994],[12.39267,57.65868],[12.39197,57.65773],[12.39125,57.65736],[12.38934,57.65696],[12.38559,57.65405],[12.38348,57.65306],[12.38324,57.65234],[12.38182,57.65089],[12.38261,57.64931],[12.38199,57.64873],[12.37862,57.64746],[12.37582,57.6452],[12.36672,57.64077],[12.36828,57.64027],[12.36552,57.63912],[12.36463,57.63974],[12.35925,57.63708],[12.36574,57.63269],[12.36406,57.63195],[12.3622,57.63338],[12.35891,57.63199],[12.36328,57.62833],[12.3644,57.62839],[12.36499,57.62831],[12.36328,57.62833],[12.35785,57.63288],[12.35539,57.63501],[12.35298,57.63554],[12.35048,57.63268],[12.34983,57.63225],[12.34798,57.63161],[12.34695,57.63091],[12.34562,57.63055],[12.34383,57.63025],[12.34258,57.63051],[12.32135,57.61993],[12.31774,57.61779],[12.31512,57.61788],[12.31511,57.61811],[12.31418,57.61815],[12.31397,57.61654],[12.31269,57.61587],[12.31062,57.61633],[12.31004,57.61671],[12.30906,57.61693],[12.30851,57.61625],[12.3077,57.61584],[12.30893,57.6146],[12.30773,57.61427],[12.30796,57.61385],[12.30744,57.61344],[12.30836,57.613],[12.30914,57.61193],[12.30908,57.61139],[12.30642,57.61125],[12.30601,57.61158],[12.27336,57.60583],[12.27087,57.60972],[12.26357,57.61217],[12.23122,57.62415],[12.23079,57.62412],[12.23067,57.62435],[12.22475,57.62663],[12.19923,57.628],[12.20184,57.62934],[12.20328,57.63088],[12.20429,57.63333],[12.20377,57.63535],[12.20135,57.63791],[12.19694,57.64053],[12.19674,57.64192],[12.19613,57.64299],[12.19515,57.64399],[12.19338,57.6451],[12.191,57.64599],[12.1878,57.64656],[12.18414,57.64658],[12.18112,57.64608],[12.18043,57.64643],[12.17951,57.64786],[12.17816,57.64902],[12.1798,57.64997],[12.18108,57.65124],[12.18173,57.65262],[12.1817,57.65407],[12.18125,57.6555],[12.18027,57.65679],[12.17945,57.65863],[12.17728,57.6608],[12.17592,57.6616],[12.17374,57.66241],[12.17123,57.66297],[12.16882,57.66321],[12.16727,57.66356],[12.16508,57.66451],[12.16262,57.66509],[12.15993,57.66542],[12.15722,57.66548],[12.1547,57.66518],[12.15201,57.66441],[12.1504,57.66555],[12.14766,57.66668],[12.14624,57.66842],[12.14395,57.66975],[12.16926,57.67707],[12.17181,57.67718],[12.17383,57.67748],[12.1786,57.67908],[12.1816,57.67795],[12.18566,57.67736],[12.18936,57.67751],[12.19153,57.67785],[12.19336,57.67835],[12.19523,57.67722],[12.19718,57.67653],[12.19844,57.67548],[12.20042,57.67446],[12.20314,57.67361],[12.20611,57.6732],[12.20784,57.67182],[12.20925,57.67104],[12.2109,57.67043],[12.2134,57.66988],[12.21672,57.6697],[12.22025,57.66999],[12.22377,57.67102],[12.22612,57.6725],[12.22831,57.67263],[12.22836,57.67096],[12.22948,57.66922],[12.22911,57.66786],[12.22938,57.66645],[12.23032,57.6651],[12.2319,57.66387],[12.23206,57.66326],[12.23154,57.66164],[12.232,57.65974],[12.23123,57.65749],[12.23146,57.65564],[12.23231,57.65414],[12.23442,57.65183],[12.23553,57.65093],[12.23763,57.64976],[12.23992,57.64897],[12.24191,57.64858],[12.24409,57.64838],[12.24682,57.64847],[12.24884,57.64877],[12.25172,57.6495],[12.2545,57.65067],[12.25663,57.65248],[12.25742,57.65457],[12.25854,57.65586],[12.25905,57.6573],[12.25885,57.65885],[12.25761,57.66061],[12.25936,57.66238],[12.26132,57.66316],[12.263,57.66426],[12.26442,57.6661],[12.2651,57.66918],[12.26503,57.67026],[12.26432,57.67166],[12.26258,57.67318],[12.2627,57.67509],[12.26149,57.67716],[12.26306,57.67832],[12.26399,57.67948],[12.26667,57.68017],[12.26861,57.6802],[12.27275,57.68064],[12.27646,57.68141],[12.27819,57.68085],[12.28033,57.68042],[12.2824,57.68023],[12.28514,57.68031],[12.28848,57.68094],[12.29132,57.68199],[12.29429,57.68104],[12.29762,57.68062],[12.30116,57.68078],[12.30572,57.68175],[12.30919,57.68074],[12.31332,57.68031],[12.3174,57.68029],[12.32009,57.68056],[12.32335,57.68146],[12.32608,57.68302],[12.32726,57.68435],[12.32775,57.68553],[12.32773,57.68707],[12.32717,57.68827],[12.3294,57.68907],[12.33083,57.68983],[12.33197,57.69073],[12.33294,57.69205],[12.33317,57.6942],[12.33124,57.69768],[12.32968,57.69928],[12.32759,57.70043],[12.32415,57.70145],[12.32204,57.70176],[12.31964,57.70182],[12.317,57.70273],[12.31442,57.70315],[12.31047,57.70313],[12.30645,57.70261],[12.30387,57.70379],[12.30049,57.7045],[12.30053,57.70628],[12.29983,57.70769],[12.29841,57.70905],[12.2965,57.7101],[12.29417,57.71086],[12.29167,57.71127],[12.28911,57.71132],[12.28629,57.71096],[12.28589,57.71113],[12.28598,57.71234],[12.28558,57.71367],[12.28427,57.71525],[12.28296,57.71774],[12.28152,57.71906],[12.28379,57.71963],[12.28604,57.72063],[12.28763,57.72182],[12.28849,57.72292],[12.29058,57.72435],[12.292,57.72668],[12.29174,57.72877],[12.29307,57.72842],[12.29447,57.72715],[12.29611,57.72669],[12.29777,57.72578],[12.30313,57.72414],[12.30297,57.72973],[12.30483,57.72996],[12.30479,57.73162],[12.33516,57.73301],[12.36789,57.73385]]]}},{"type":"Feature","id":"1401R005","properties":{"code":"1401R005","name":"Landvetter centrum-Önneröd-Tahult"},"geometry":{"type":"Polygon","coordinates":[[[12.26079,57.71596],[12.26273,57.71168],[12.2604,57.71089],[12.25637,57.71216],[12.25317,57.71253],[12.25094,57.71345],[12.24946,57.71323],[12.2486,57.70688],[12.21945,57.69927],[12.22025,57.69839],[12.21839,57.69769],[12.21973,57.69557],[12.22235,57.69382],[12.21698,57.6932],[12.21586,57.69325],[12.21364,57.69142],[12.21409,57.69025],[12.21688,57.69056],[12.2172,57.68881],[12.21556,57.68869],[12.21541,57.68805],[12.21568,57.68734],[12.21784,57.68745],[12.21812,57.6862],[12.21622,57.68621],[12.21643,57.68549],[12.22414,57.68516],[12.22465,57.68259],[12.22251,57.6825],[12.22253,57.68235],[12.21884,57.68201],[12.21788,57.68208],[12.2129,57.68171],[12.21173,57.68051],[12.21086,57.68062],[12.21013,57.67984],[12.20912,57.6798],[12.20885,57.68013],[12.20836,57.68007],[12.20773,57.67933],[12.20769,57.67875],[12.20529,57.67844],[12.20403,57.67765],[12.20451,57.6773],[12.20428,57.67609],[12.2046,57.67554],[12.20314,57.67499],[12.20158,57.67563],[12.19953,57.6772],[12.20001,57.6782],[12.19543,57.67977],[12.19526,57.68052],[12.19438,57.68099],[12.19106,57.68048],[12.18347,57.67803],[12.18144,57.67799],[12.1786,57.67908],[12.17383,57.67748],[12.17181,57.67718],[12.16926,57.67707],[12.14634,57.67044],[12.1454,57.67322],[12.1375,57.68762],[12.14517,57.6933],[12.15071,57.69721],[12.15409,57.69928],[12.16159,57.70483],[12.17064,57.71397],[12.18641,57.72081],[12.19927,57.72525],[12.20884,57.72552],[12.22491,57.7276],[12.25585,57.72921],[12.2566,57.7218],[12.26079,57.71596]]]}},{"type":"Feature","id":"1401R006","properties":{"code":"1401R006","name":"Landvetter östra-Snåkered-Björröd"},"geometry":{"type":"Polygon","coordinates":[[[12.25637,57.71216],[12.2604,57.71089],[12.26272,57.71168],[12.2631,57.70994],[12.26451,57.70906],[12.26554,57.70751],[12.26603,57.70739],[12.26575,57.7072],[12.27152,57.69789],[12.27186,57.69674],[12.27268,57.69645],[12.27397,57.69538],[12.27317,57.69377],[12.2718,57.69405],[12.26974,57.69303],[12.26999,57.69235],[12.27193,57.691],[12.27288,57.6896],[12.27179,57.68926],[12.27195,57.68852],[12.27344,57.68869],[12.27377,57.68796],[12.27259,57.68761],[12.27147,57.68777],[12.27036,57.68736],[12.26964,57.68729],[12.26869,57.68752],[12.26819,57.68734],[12.26984,57.68443],[12.27221,57.68282],[12.27387,57.68287],[12.27597,57.68427],[12.27674,57.6813],[12.27646,57.68141],[12.27213,57.68057],[12.26861,57.6802],[12.26667,57.68017],[12.26399,57.67948],[12.26306,57.67832],[12.26149,57.67716],[12.2627,57.67509],[12.26258,57.67318],[12.26406,57.67197],[12.26491,57.67063],[12.26505,57.66884],[12.26455,57.66643],[12.26364,57.66488],[12.26177,57.66341],[12.25936,57.66238],[12.25761,57.66061],[12.2587,57.65919],[12.25906,57.65739],[12.25854,57.65586],[12.25742,57.65457],[12.25691,57.65289],[12.25532,57.6512],[12.25227,57.64967],[12.24744,57.64854],[12.24345,57.64842],[12.23992,57.64897],[12.23657,57.6503],[12.23442,57.65183],[12.23179,57.65487],[12.23119,57.65712],[12.232,57.65974],[12.23154,57.66164],[12.23206,57.66326],[12.2319,57.66387],[12.23032,57.6651],[12.22938,57.66645],[12.22911,57.66786],[12.22948,57.66922],[12.22836,57.67096],[12.22831,57.67263],[12.22612,57.6725],[12.22377,57.67102],[12.22085,57.6701],[12.21759,57.66972],[12.21402,57.6698],[12.21151,57.67025],[12.20928,57.67103],[12.20784,57.67182],[12.20611,57.6732],[12.20314,57.67361],[12.20042,57.67446],[12.19844,57.67548],[12.19718,57.67653],[12.19523,57.67722],[12.19336,57.67835],[12.19092,57.67773],[12.18744,57.67735],[12.18421,57.67747],[12.18144,57.67799],[12.18347,57.67803],[12.19106,57.68048],[12.19438,57.68099],[12.19526,57.68052],[12.19543,57.67977],[12.20001,57.6782],[12.19953,57.6772],[12.20158,57.67563],[12.20314,57.67499],[12.2046,57.67554],[12.20428,57.67609],[12.20451,57.6773],[12.20403,57.67765],[12.20529,57.67844],[12.20769,57.67875],[12.20773,57.67933],[12.20836,57.68007],[12.20885,57.68013],[12.20912,57.6798],[12.21013,57.67984],[12.21086,57.68062],[12.21173,57.68051],[12.2129,57.68171],[12.21788,57.68208],[12.21884,57.68201],[12.22253,57.68235],[12.22251,57.6825],[12.22465,57.68259],[12.22414,57.68516],[12.21643,57.68549],[12.21622,57.68621],[12.21812,57.6862],[12.21784,57.68745],[12.21568,57.68734],[12.21541,57.68805],[12.21556,57.68869],[12.2172,57.68881],[12.21688,57.69056],[12.21409,57.69025],[12.21364,57.69142],[12.21586,57.69325],[12.21698,57.6932],[12.22235,57.69382],[12.21973,57.69557],[12.21839,57.69769],[12.22025,57.69839],[12.21945,57.69927],[12.2486,57.70688],[12.24946,57.71323],[12.25094,57.71345],[12.25317,57.71253],[12.25637,57.71216]]]}},{"type":"Feature","id":"1401R007","properties":{"code":"1401R007","name":"Mölnlycke centrum-Solsten-Bråta"},"geometry":{"type":"Polygon","coordinates":[[[12.1375,57.68762],[12.1454,57.67322],[12.14634,57.67044],[12.14395,57.66975],[12.14544,57.66899],[12.14691,57.66778],[12.14395,57.66621],[12.14033,57.665],[12.13906,57.66513],[12.13852,57.66535],[12.13623,57.66537],[12.13476,57.66588],[12.13376,57.66548],[12.13118,57.66309],[12.13061,57.66314],[12.13037,57.66362],[12.12946,57.66354],[12.12945,57.66339],[12.12732,57.66271],[12.12601,57.66274],[12.12346,57.65983],[12.1212,57.65903],[12.11914,57.65889],[12.11895,57.65852],[12.11927,57.65823],[12.1189,57.65798],[12.11614,57.65748],[12.1143,57.65733],[12.11193,57.65629],[12.11142,57.65631],[12.11125,57.65667],[12.11085,57.65681],[12.10956,57.65618],[12.10844,57.65649],[12.10866,57.65521],[12.10779,57.65514],[12.10719,57.65562],[12.10597,57.6557],[12.1045,57.65634],[12.10264,57.65634],[12.09044,57.6586],[12.08606,57.65897],[12.08214,57.65899],[12.07723,57.65966],[12.07252,57.66331],[12.07016,57.66609],[12.07277,57.66708],[12.07017,57.6716],[12.05674,57.67824],[12.07582,57.68389],[12.08867,57.68217],[12.09264,57.68224],[12.10448,57.68306],[12.12862,57.69125],[12.13623,57.68827],[12.1375,57.68762]]]}},{"type":"Feature","id":"1401R008","properties":{"code":"1401R008","name":"Pixbo-Båtmanstorpet-Benareby"},"geometry":{"type":"Polygon","coordinates":[[[12.17895,57.65928],[12.18027,57.65679],[12.18141,57.65515],[12.18173,57.65265],[12.18053,57.6506],[12.17816,57.64902],[12.17951,57.64786],[12.18043,57.64643],[12.18112,57.64608],[12.18414,57.64658],[12.1878,57.64656],[12.191,57.64599],[12.19338,57.6451],[12.19515,57.64399],[12.19613,57.64299],[12.19674,57.64192],[12.19694,57.64053],[12.20135,57.63791],[12.20377,57.63535],[12.20429,57.63333],[12.20328,57.63088],[12.20184,57.62934],[12.19923,57.628],[12.17318,57.62949],[12.17164,57.63023],[12.16981,57.63266],[12.16832,57.63224],[12.16679,57.6343],[12.1645,57.63393],[12.16243,57.63399],[12.16003,57.63319],[12.15747,57.63323],[12.15638,57.63294],[12.15201,57.63288],[12.14911,57.63291],[12.14798,57.63359],[12.14185,57.63414],[12.13552,57.6332],[12.13449,57.63058],[12.13189,57.62909],[12.13023,57.62876],[12.1267,57.6286],[12.12487,57.62829],[12.12361,57.62893],[12.12228,57.62833],[12.12109,57.62794],[12.1207,57.62809],[12.11854,57.62715],[12.11737,57.62685],[12.11654,57.62668],[12.11587,57.62709],[12.11456,57.62677],[12.11383,57.62634],[12.11429,57.62561],[12.11417,57.62532],[12.11269,57.62386],[12.11332,57.62343],[12.1121,57.62263],[12.11076,57.62243],[12.10994,57.62258],[12.10944,57.62245],[12.10899,57.6225],[12.1085,57.62294],[12.10709,57.62313],[12.1064,57.62282],[12.10594,57.6229],[12.10508,57.62271],[12.10416,57.62305],[12.10305,57.6228],[12.10212,57.62326],[12.10151,57.62296],[12.10045,57.62314],[12.09976,57.62392],[12.09685,57.62597],[12.09885,57.62878],[12.09928,57.63177],[12.08639,57.63395],[12.07503,57.63613],[12.07976,57.64534],[12.07817,57.64567],[12.07507,57.64686],[12.07359,57.64771],[12.07346,57.64806],[12.07271,57.64794],[12.07206,57.64811],[12.0712,57.64864],[12.07127,57.6491],[12.06715,57.65118],[12.06738,57.65132],[12.07052,57.65099],[12.07216,57.65099],[12.07239,57.65132],[12.07429,57.65129],[12.07586,57.65263],[12.07564,57.6527],[12.0777,57.65415],[12.0783,57.65482],[12.07904,57.65463],[12.08232,57.6577],[12.08214,57.65899],[12.08606,57.65897],[12.09044,57.6586],[12.10264,57.65634],[12.1045,57.65634],[12.10597,57.6557],[12.10719,57.65562],[12.10779,57.65514],[12.10866,57.65521],[12.10769,57.65304],[12.10659,57.65204],[12.10721,57.65181],[12.107,57.65168],[12.10761,57.65133],[12.10675,57.65089],[12.10783,57.65032],[12.10907,57.65095],[12.11101,57.64972],[12.11036,57.64897],[12.11118,57.64864],[12.11282,57.64915],[12.11389,57.64836],[12.11473,57.64809],[12.11749,57.64882],[12.11836,57.64884],[12.12091,57.64775],[12.12339,57.64784],[12.12406,57.64677],[12.12477,57.64667],[12.12527,57.64685],[12.12566,57.64645],[12.126,57.64654],[12.12729,57.6461],[12.12909,57.64624],[12.13101,57.64747],[12.13203,57.64773],[12.13289,57.64688],[12.13754,57.64738],[12.13791,57.64713],[12.1376,57.64677],[12.1383,57.64665],[12.1383,57.64753],[12.13885,57.64759],[12.13935,57.64814],[12.14143,57.64845],[12.14387,57.64945],[12.145,57.6491],[12.14724,57.64972],[12.1478,57.64957],[12.14816,57.65003],[12.1492,57.64993],[12.15031,57.65047],[12.15108,57.65052],[12.15191,57.65019],[12.1529,57.65035],[12.14858,57.65124],[12.14909,57.65135],[12.14909,57.65181],[12.15155,57.65311],[12.15174,57.65338],[12.15035,57.65373],[12.15304,57.65563],[12.15353,57.65414],[12.15476,57.65422],[12.1566,57.65567],[12.15923,57.65675],[12.1571,57.65794],[12.15705,57.66015],[12.15966,57.65995],[12.1667,57.65795],[12.16817,57.65863],[12.17108,57.66065],[12.17371,57.66145],[12.17438,57.66222],[12.17728,57.6608],[12.17895,57.65928]]]}},{"type":"Feature","id":"1401R009","properties":{"code":"1401R009","name":"Rävlanda-Hällingsjö-Hindås omland"},"geometry":{"type":"Polygon","coordinates":[[[12.39439,57.73258],[12.3985,57.73251],[12.39927,57.73292],[12.40055,57.73293],[12.40122,57.73219],[12.40829,57.73065],[12.41629,57.72978],[12.42045,57.73176],[12.42087,57.73152],[12.42228,57.73149],[12.42363,57.73057],[12.42697,57.73156],[12.43692,57.72716],[12.43659,57.72569],[12.43227,57.72629],[12.42872,57.72619],[12.42541,57.72549],[12.4224,57.72408],[12.42058,57.72233],[12.41787,57.71735],[12.41781,57.71593],[12.41854,57.71436],[12.41844,57.71283],[12.41905,57.71142],[12.41475,57.7099],[12.41332,57.70907],[12.41207,57.70798],[12.40645,57.70676],[12.40404,57.70589],[12.40072,57.70364],[12.39949,57.70196],[12.39924,57.70041],[12.3999,57.69865],[12.40131,57.69722],[12.40316,57.69614],[12.40654,57.69502],[12.41101,57.69416],[12.41374,57.69406],[12.41703,57.69443],[12.41541,57.69237],[12.41463,57.68998],[12.41472,57.6886],[12.41547,57.68728],[12.41645,57.68634],[12.41798,57.68537],[12.4201,57.68452],[12.42255,57.68398],[12.42512,57.68379],[12.42874,57.68384],[12.43213,57.68434],[12.435,57.68524],[12.43699,57.6864],[12.43925,57.68689],[12.44092,57.68749],[12.44277,57.68854],[12.44421,57.68992],[12.44582,57.68912],[12.44754,57.68855],[12.45178,57.68792],[12.45511,57.68796],[12.45846,57.68862],[12.46076,57.68805],[12.46346,57.68776],[12.46635,57.68784],[12.46896,57.68827],[12.47191,57.68933],[12.47437,57.69114],[12.47521,57.69253],[12.47539,57.69408],[12.47726,57.69601],[12.47842,57.69862],[12.48097,57.69957],[12.48315,57.70005],[12.48489,57.70068],[12.48677,57.70174],[12.48785,57.70271],[12.49085,57.70308],[12.49718,57.70477],[12.51073,57.69856],[12.50055,57.68881],[12.52607,57.66174],[12.53122,57.65928],[12.53136,57.65863],[12.53114,57.65831],[12.53034,57.65808],[12.52883,57.65878],[12.52831,57.65882],[12.52154,57.65662],[12.52051,57.65567],[12.52013,57.65565],[12.51841,57.65631],[12.51746,57.65641],[12.51712,57.65631],[12.51684,57.65529],[12.51786,57.65572],[12.51955,57.65504],[12.52057,57.65518],[12.52098,57.65496],[12.52029,57.65477],[12.52074,57.65446],[12.52161,57.65436],[12.52244,57.65462],[12.52315,57.65463],[12.52349,57.65406],[12.5244,57.6539],[12.52466,57.65368],[12.52574,57.65198],[12.52462,57.64497],[12.53097,57.64468],[12.53498,57.64673],[12.53567,57.6473],[12.54452,57.63638],[12.54449,57.63482],[12.54517,57.63445],[12.54751,57.63416],[12.54983,57.63506],[12.55089,57.63507],[12.55168,57.63532],[12.55553,57.63573],[12.55916,57.63358],[12.56205,57.61982],[12.55065,57.61754],[12.52211,57.62073],[12.51051,57.61536],[12.50027,57.61482],[12.5004,57.61444],[12.4989,57.61388],[12.49729,57.61494],[12.49645,57.61509],[12.4959,57.61544],[12.49515,57.61507],[12.49412,57.61511],[12.49356,57.61492],[12.49263,57.6156],[12.49167,57.61575],[12.49007,57.61538],[12.48803,57.61538],[12.48627,57.61487],[12.48537,57.61505],[12.4846,57.61489],[12.48336,57.61419],[12.48185,57.61237],[12.4812,57.61221],[12.47981,57.61228],[12.47925,57.61208],[12.47968,57.61113],[12.47953,57.61079],[12.47451,57.60994],[12.47389,57.60959],[12.47278,57.60839],[12.47155,57.60813],[12.46958,57.60821],[12.46674,57.60678],[12.46535,57.60686],[12.46285,57.60655],[12.46138,57.60529],[12.46014,57.60497],[12.46019,57.60316],[12.46089,57.60243],[12.46083,57.60194],[12.46016,57.60169],[12.46015,57.60132],[12.46097,57.60082],[12.46045,57.6004],[12.46109,57.60015],[12.45983,57.59959],[12.45584,57.59956],[12.45559,57.60007],[12.45601,57.60122],[12.45551,57.6016],[12.45494,57.60161],[12.45522,57.60188],[12.45473,57.60216],[12.45497,57.60244],[12.45417,57.6026],[12.45385,57.60286],[12.45124,57.60263],[12.45112,57.6036],[12.44956,57.60477],[12.44793,57.60557],[12.44775,57.60576],[12.44801,57.60614],[12.44674,57.60669],[12.4466,57.60713],[12.44554,57.60754],[12.44488,57.60719],[12.44368,57.60747],[12.44317,57.60809],[12.44332,57.6083],[12.44097,57.60897],[12.44119,57.60926],[12.44009,57.60964],[12.43859,57.61041],[12.43746,57.61128],[12.4357,57.61205],[12.43534,57.61315],[12.43229,57.61397],[12.42058,57.61814],[12.41799,57.61832],[12.41678,57.61823],[12.40689,57.61905],[12.40344,57.61703],[12.40143,57.61623],[12.39588,57.61518],[12.38696,57.61487],[12.38075,57.6131],[12.37451,57.61302],[12.36986,57.61181],[12.37617,57.61743],[12.3718,57.621],[12.36904,57.62655],[12.36701,57.62734],[12.36622,57.62799],[12.36547,57.62825],[12.36328,57.62833],[12.35891,57.63199],[12.3622,57.63338],[12.36406,57.63195],[12.36574,57.63269],[12.35925,57.63708],[12.36463,57.63974],[12.36552,57.63912],[12.36828,57.64027],[12.36672,57.64077],[12.37582,57.6452],[12.37862,57.64746],[12.38199,57.64873],[12.38261,57.64931],[12.38182,57.65089],[12.38324,57.65234],[12.38348,57.65306],[12.38559,57.65405],[12.38934,57.65696],[12.39125,57.65736],[12.39197,57.65773],[12.39267,57.65868],[12.39282,57.65994],[12.39623,57.66195],[12.39751,57.6629],[12.39831,57.66393],[12.39913,57.66429],[12.40072,57.6655],[12.40375,57.66695],[12.39601,57.6673],[12.38777,57.66814],[12.37079,57.67105],[12.35289,57.67463],[12.36069,57.68903],[12.35769,57.68941],[12.35809,57.69014],[12.35738,57.69093],[12.35803,57.69179],[12.35947,57.69196],[12.36179,57.69274],[12.36275,57.69286],[12.36396,57.6956],[12.3701,57.69599],[12.37076,57.69586],[12.37014,57.69376],[12.37046,57.69372],[12.37142,57.69372],[12.37224,57.69441],[12.37415,57.69446],[12.37528,57.69535],[12.37557,57.69728],[12.37496,57.69783],[12.37509,57.69816],[12.37758,57.69828],[12.37869,57.69901],[12.37845,57.6993],[12.37655,57.6999],[12.37603,57.70074],[12.3773,57.7007],[12.3779,57.70088],[12.37695,57.70186],[12.37705,57.70231],[12.37768,57.70281],[12.37763,57.70348],[12.3772,57.70391],[12.37592,57.70418],[12.37578,57.70491],[12.37693,57.70531],[12.37675,57.70557],[12.37571,57.7054],[12.37497,57.70562],[12.37398,57.70538],[12.37515,57.70515],[12.37529,57.70414],[12.37425,57.7039],[12.37191,57.7038],[12.37184,57.70401],[12.37035,57.7045],[12.37038,57.70613],[12.37409,57.71148],[12.37403,57.71187],[12.37807,57.7144],[12.37742,57.71472],[12.37121,57.71528],[12.37102,57.71562],[12.37059,57.71717],[12.37092,57.71907],[12.3707,57.72019],[12.37224,57.72044],[12.3722,57.72124],[12.37204,57.72178],[12.37062,57.72308],[12.36789,57.73385],[12.38235,57.73418],[12.39439,57.73258]]]}}]}