{"type":"FeatureCollection","features":[{"type":"Feature","id":"1415R001","properties":{"code":"1415R001","name":"Hallerna-Strandnorum"},"geometry":{"type":"Polygon","coordinates":[[[11.83781,58.05702],[11.84145,58.05697],[11.8452,58.05612],[11.85186,58.05498],[11.85609,58.0534],[11.86005,58.05092],[11.86124,58.05061],[11.86237,58.05058],[11.86368,58.05011],[11.86373,58.04932],[11.86173,58.04753],[11.8618,58.04663],[11.86078,58.04669],[11.85937,58.0453],[11.85965,58.04502],[11.8607,58.04476],[11.85894,58.0439],[11.85807,58.0428],[11.85653,58.04165],[11.85995,58.04081],[11.86267,58.04111],[11.8537,58.03889],[11.85281,58.03764],[11.84786,58.03442],[11.84577,58.03355],[11.84583,58.03333],[11.8466,58.03323],[11.84599,58.03268],[11.84625,58.02843],[11.84701,58.02793],[11.84892,58.02755],[11.85123,58.02776],[11.85129,58.02528],[11.85098,58.02474],[11.84952,58.02397],[11.84591,58.02409],[11.84261,58.02444],[11.83878,58.0251],[11.83843,58.02551],[11.83762,58.02491],[11.83679,58.02507],[11.83646,58.02519],[11.83654,58.02559],[11.83525,58.02604],[11.83516,58.02674],[11.83448,58.02673],[11.83436,58.0262],[11.83358,58.02602],[11.82499,58.02683],[11.81528,58.02418],[11.80893,58.02413],[11.80889,58.02816],[11.79518,58.0345],[11.78553,58.03871],[11.78733,58.0434],[11.79216,58.0487],[11.7995,58.04659],[11.80093,58.04691],[11.80173,58.0481],[11.80275,58.04897],[11.80639,58.05083],[11.80762,58.05213],[11.81051,58.05397],[11.81077,58.05463],[11.80981,58.05528],[11.81085,58.05641],[11.82737,58.05657],[11.82801,58.05792],[11.83781,58.05702]]]}},{"type":"Feature","id":"1415R002","properties":{"code":"1415R002","name":"Hasselbacken"},"geometry":{"type":"Polygon","coordinates":[[[11.84315,58.06584],[11.84565,58.06558],[11.84819,58.06492],[11.84648,58.0631],[11.84583,58.06321],[11.84475,58.06199],[11.84509,58.06187],[11.84288,58.06064],[11.84398,58.05969],[11.8432,58.05936],[11.84055,58.05902],[11.83939,58.05954],[11.83868,58.05931],[11.8379,58.05943],[11.83662,58.0601],[11.8353,58.06215],[11.83897,58.06267],[11.83863,58.06369],[11.83938,58.06366],[11.83922,58.06378],[11.84026,58.06422],[11.83998,58.06417],[11.83967,58.06472],[11.84039,58.06483],[11.84009,58.06529],[11.84158,58.06569],[11.84315,58.06584]]]}},{"type":"Feature","id":"1415R003","properties":{"code":"1415R003","name":"Jörlanda"},"geometry":{"type":"Polygon","coordinates":[[[11.84551,58.00283],[11.84724,58.00189],[11.84871,58.00042],[11.84885,57.99599],[11.84752,57.99435],[11.85331,57.99363],[11.86043,57.9953],[11.86314,57.99544],[11.86645,57.9951],[11.86942,57.99422],[11.8717,57.99291],[11.87315,57.99136],[11.87418,57.98911],[11.87424,57.98694],[11.87344,57.98558],[11.87242,57.98465],[11.87006,57.98338],[11.86645,57.98233],[11.86549,57.98031],[11.86421,57.97915],[11.86283,57.9783],[11.86117,57.9776],[11.85642,57.97615],[11.85439,57.97583],[11.85212,57.97571],[11.84999,57.97581],[11.8476,57.97621],[11.84607,57.97549],[11.844,57.97484],[11.84199,57.97445],[11.83926,57.97426],[11.83634,57.97446],[11.83154,57.97528],[11.82964,57.97581],[11.82819,57.97587],[11.82449,57.97522],[11.82446,57.9741],[11.8238,57.97268],[11.82251,57.97139],[11.82095,57.97044],[11.82146,57.96881],[11.81815,57.96815],[11.81222,57.96865],[11.80171,57.9674],[11.78994,57.96649],[11.78951,57.97152],[11.74955,57.97275],[11.73702,57.97881],[11.75185,57.98546],[11.75845,57.99147],[11.79147,57.99301],[11.79952,57.99825],[11.81151,57.9973],[11.8126,57.99786],[11.8137,57.99757],[11.81504,57.99761],[11.82337,57.99939],[11.82795,57.99972],[11.82919,57.99966],[11.83027,57.99991],[11.83136,57.99984],[11.83216,58.00004],[11.83415,58.00012],[11.83921,57.99941],[11.84019,58.00079],[11.84081,58.00086],[11.84117,58.00122],[11.84184,58.00126],[11.84219,58.00164],[11.84466,58.00265],[11.84551,58.00283]]]}},{"type":"Feature","id":"1415R004","properties":{"code":"1415R004","name":"Kristinedal"},"geometry":{"type":"Polygon","coordinates":[[[11.84274,58.07214],[11.84183,58.07183],[11.84271,58.07146],[11.84231,58.07135],[11.8422,58.07089],[11.84376,58.07102],[11.84383,58.06998],[11.84384,58.07055],[11.84477,58.07059],[11.84533,58.07017],[11.84805,58.07032],[11.84878,58.06943],[11.85119,58.07031],[11.85058,58.07076],[11.85115,58.0711],[11.85332,58.07021],[11.85286,58.07001],[11.85345,58.06989],[11.85324,58.06975],[11.85364,58.06943],[11.85334,58.0694],[11.85345,58.0692],[11.85279,58.06872],[11.85122,58.06907],[11.85,58.06908],[11.84956,58.06823],[11.8486,58.06773],[11.84738,58.06745],[11.84668,58.06669],[11.84513,58.066],[11.84489,58.0657],[11.84248,58.06581],[11.84009,58.06529],[11.84039,58.06483],[11.83967,58.06472],[11.83998,58.06417],[11.84026,58.06422],[11.83922,58.06378],[11.83938,58.06366],[11.83863,58.06369],[11.83897,58.06267],[11.8353,58.06215],[11.83662,58.0601],[11.8379,58.05943],[11.83518,58.05836],[11.83619,58.05785],[11.83441,58.05728],[11.82801,58.05792],[11.82842,58.05874],[11.82804,58.05889],[11.82868,58.05926],[11.82913,58.06022],[11.83075,58.06085],[11.83123,58.06124],[11.83125,58.06169],[11.82994,58.06187],[11.83101,58.06403],[11.83208,58.06414],[11.83252,58.06438],[11.83293,58.06536],[11.83106,58.06552],[11.83155,58.06635],[11.83232,58.06637],[11.83233,58.06676],[11.8334,58.06704],[11.83267,58.06745],[11.83307,58.06749],[11.8331,58.06792],[11.83235,58.06849],[11.83294,58.06869],[11.83308,58.069],[11.83397,58.06883],[11.83375,58.07037],[11.83456,58.07143],[11.83578,58.07181],[11.83701,58.07174],[11.83722,58.07159],[11.83931,58.07165],[11.83941,58.07187],[11.84161,58.07261],[11.84274,58.07214]]]}},{"type":"Feature","id":"1415R005","properties":{"code":"1415R005","name":"Kyrkenorum-Högenorum-Ekbacken"},"geometry":{"type":"Polygon","coordinates":[[[11.86539,58.07675],[11.86612,58.07263],[11.86866,58.07259],[11.8712,58.07219],[11.87366,58.07141],[11.87624,58.07008],[11.88391,58.07043],[11.88679,58.07009],[11.88924,58.06941],[11.89184,58.06809],[11.89329,58.06676],[11.89402,58.06535],[11.89408,58.06371],[11.89344,58.06229],[11.89223,58.06105],[11.89148,58.05983],[11.88869,58.05773],[11.88546,58.05648],[11.87991,58.05541],[11.87744,58.05336],[11.87431,58.05193],[11.8726,58.05069],[11.86956,58.04896],[11.86524,58.0472],[11.86369,58.04621],[11.8607,58.04476],[11.85965,58.04502],[11.85937,58.0453],[11.86078,58.04669],[11.8618,58.04663],[11.86173,58.04753],[11.86373,58.04932],[11.86368,58.05011],[11.86237,58.05058],[11.86124,58.05061],[11.86005,58.05092],[11.85609,58.0534],[11.85186,58.05498],[11.8452,58.05612],[11.84145,58.05697],[11.8369,58.05704],[11.83441,58.05728],[11.83619,58.05785],[11.83518,58.05836],[11.83804,58.0595],[11.83868,58.05931],[11.83939,58.05954],[11.84055,58.05902],[11.8432,58.05936],[11.84398,58.05969],[11.84288,58.06064],[11.84509,58.06187],[11.84475,58.06199],[11.84583,58.06321],[11.84648,58.0631],[11.84819,58.06492],[11.84489,58.0657],[11.84513,58.066],[11.84668,58.06669],[11.84738,58.06745],[11.8486,58.06773],[11.84956,58.06823],[11.85,58.06908],[11.85122,58.06907],[11.85279,58.06872],[11.85346,58.06921],[11.85336,58.06941],[11.85364,58.06942],[11.85324,58.06975],[11.85345,58.06989],[11.85286,58.07001],[11.85332,58.07021],[11.851,58.0711],[11.85109,58.0714],[11.85054,58.07167],[11.85061,58.072],[11.85209,58.07288],[11.85212,58.07309],[11.85388,58.074],[11.85479,58.07413],[11.8556,58.07467],[11.85619,58.07456],[11.85644,58.0743],[11.85754,58.07431],[11.85867,58.07493],[11.86165,58.07595],[11.86216,58.07636],[11.86368,58.07673],[11.86539,58.07675]]]}},{"type":"Feature","id":"1415R006","properties":{"code":"1415R006","name":"Stenungsund centrum-Stenungsön-Stora Askerön"},"geometry":{"type":"Polygon","coordinates":[[[11.80545,58.11703],[11.80926,58.11105],[11.80739,58.10945],[11.8033,58.10776],[11.79736,58.10121],[11.80442,58.09659],[11.8062,58.09269],[11.81941,58.089],[11.82317,58.08659],[11.82491,58.08637],[11.8268,58.0852],[11.83073,58.08431],[11.82993,58.07935],[11.82924,58.07767],[11.82775,58.07589],[11.82284,58.07123],[11.82082,58.06808],[11.81875,58.06548],[11.81821,58.06355],[11.81869,58.06211],[11.8199,58.06075],[11.82037,58.06034],[11.82158,58.0606],[11.82209,58.06005],[11.82291,58.06032],[11.82268,58.0607],[11.82361,58.06092],[11.82347,58.06108],[11.82191,58.06084],[11.82128,58.06192],[11.82278,58.06221],[11.82418,58.06221],[11.8242,58.06254],[11.82568,58.06262],[11.82561,58.06276],[11.82624,58.06286],[11.8268,58.06136],[11.82958,58.06192],[11.83125,58.06169],[11.83134,58.06147],[11.83085,58.0609],[11.82913,58.06022],[11.82868,58.05926],[11.82817,58.05911],[11.82804,58.05887],[11.82842,58.05874],[11.82737,58.05657],[11.81085,58.05641],[11.80981,58.05528],[11.81077,58.05463],[11.81051,58.05397],[11.80762,58.05213],[11.80639,58.05083],[11.80275,58.04897],[11.80173,58.0481],[11.80093,58.04691],[11.7995,58.04659],[11.79216,58.0487],[11.78969,58.05153],[11.78184,58.05339],[11.78045,58.05403],[11.77965,58.05661],[11.78419,58.0635],[11.78396,58.0652],[11.77788,58.07106],[11.76834,58.07183],[11.75766,58.07849],[11.76008,58.0827],[11.75868,58.08961],[11.75912,58.09193],[11.758,58.09507],[11.75363,58.09984],[11.75444,58.10284],[11.74825,58.10568],[11.7571,58.10935],[11.76323,58.1107],[11.76939,58.1104],[11.78658,58.12048],[11.80545,58.11703]]]}},{"type":"Feature","id":"1415R007","properties":{"code":"1415R007","name":"Stenungsund omland"},"geometry":{"type":"Polygon","coordinates":[[[11.85997,58.15946],[11.86424,58.15868],[11.87393,58.15903],[11.87733,58.15872],[11.8793,58.15872],[11.88086,58.15849],[11.88465,58.15864],[11.88915,58.15845],[11.88907,58.15823],[11.89232,58.15798],[11.89486,58.15821],[11.89552,58.15804],[11.90288,58.15822],[11.90265,58.15765],[11.91011,58.15726],[11.91392,58.15721],[11.91997,58.15741],[11.9212,58.15763],[11.92408,58.15772],[11.92473,58.15797],[11.92538,58.15662],[11.92532,58.15227],[11.92603,58.15173],[11.92972,58.15257],[11.93295,58.15283],[11.93514,58.15226],[11.9368,58.1522],[11.93907,58.15182],[11.93952,58.15204],[11.94248,58.15186],[11.9447,58.152],[11.94538,58.15179],[11.9494,58.15206],[11.95652,58.15155],[11.97373,58.15103],[11.97615,58.15096],[11.97784,58.15126],[11.97849,58.15034],[11.9786,58.14968],[11.98076,58.14934],[11.98124,58.14991],[11.98242,58.15005],[11.98252,58.14992],[11.98318,58.14994],[11.98383,58.14937],[11.98413,58.14784],[11.98414,58.14681],[11.98392,58.1468],[11.9845,58.14546],[11.98523,58.14549],[11.98656,58.14256],[11.99153,58.13923],[11.99167,58.13501],[11.99479,58.13339],[11.99953,58.13132],[12.0063,58.12747],[12.01957,58.12102],[12.03351,58.1219],[12.03605,58.12116],[12.03719,58.10822],[12.03832,58.10665],[12.03852,58.10535],[12.03969,58.10384],[12.04205,58.0964],[12.04274,58.09555],[12.04448,58.0946],[12.04457,58.09376],[12.04444,58.0932],[12.04235,58.09043],[12.04133,58.08853],[12.03889,58.08847],[12.03772,58.08806],[12.03711,58.08805],[12.03503,58.08687],[12.034,58.0857],[12.03465,58.08537],[12.03518,58.08459],[12.03589,58.08441],[12.04155,58.07853],[12.04161,58.07497],[12.04028,58.07154],[12.04154,58.06611],[12.0412,58.06435],[12.04199,58.06251],[12.04481,58.06047],[12.04664,58.0588],[12.04732,58.05574],[12.04648,58.05501],[12.04524,58.05439],[12.0445,58.05046],[12.04247,58.04619],[12.03902,58.04002],[12.04158,58.03099],[12.03088,58.01097],[12.02549,58.00614],[12.01118,58.00379],[11.99237,57.98825],[11.99527,57.96652],[11.99323,57.96107],[11.98969,57.96166],[11.98291,57.96211],[11.98298,57.96007],[11.98001,57.95989],[11.97734,57.95929],[11.97559,57.95932],[11.97221,57.95986],[11.97134,57.95612],[11.96867,57.95636],[11.96561,57.95579],[11.96462,57.95586],[11.96315,57.95649],[11.9598,57.95685],[11.95821,57.95573],[11.95745,57.95579],[11.95784,57.95683],[11.95735,57.95692],[11.95742,57.95766],[11.95772,57.9576],[11.95798,57.95916],[11.95658,57.95953],[11.95471,57.96046],[11.95345,57.96073],[11.95288,57.9612],[11.95037,57.96073],[11.94962,57.96089],[11.9484,57.96072],[11.9465,57.95936],[11.94509,57.95986],[11.94377,57.95984],[11.94292,57.96018],[11.94169,57.96001],[11.93859,57.96048],[11.93805,57.96133],[11.93705,57.96088],[11.93651,57.96138],[11.93761,57.96171],[11.93698,57.96208],[11.93556,57.96251],[11.93443,57.96259],[11.93415,57.96279],[11.93222,57.96292],[11.92633,57.96189],[11.92511,57.96187],[11.92462,57.96214],[11.92334,57.96231],[11.92314,57.9625],[11.91483,57.95761],[11.91209,57.95807],[11.91086,57.95762],[11.90998,57.95766],[11.90951,57.9575],[11.90663,57.95794],[11.90633,57.95816],[11.90615,57.95786],[11.90589,57.9587],[11.90479,57.95931],[11.90336,57.95966],[11.90156,57.95951],[11.90062,57.95997],[11.89795,57.95952],[11.89728,57.95921],[11.89286,57.96574],[11.88666,57.96438],[11.85922,57.95974],[11.85252,57.95991],[11.84637,57.96154],[11.83829,57.96018],[11.83026,57.9638],[11.83058,57.96464],[11.83055,57.96544],[11.83029,57.96551],[11.83082,57.96669],[11.82962,57.96691],[11.82676,57.96688],[11.8236,57.96721],[11.82273,57.96802],[11.82543,57.96964],[11.82146,57.96881],[11.82095,57.97044],[11.82251,57.97139],[11.8238,57.97268],[11.82446,57.9741],[11.82449,57.97522],[11.82819,57.97587],[11.82964,57.97581],[11.83154,57.97528],[11.83634,57.97446],[11.8399,57.97427],[11.844,57.97484],[11.84607,57.97549],[11.8476,57.97621],[11.84999,57.97581],[11.85212,57.97571],[11.85439,57.97583],[11.85642,57.97615],[11.86117,57.9776],[11.86329,57.97854],[11.86549,57.98031],[11.86645,57.98233],[11.87056,57.98359],[11.87313,57.98525],[11.87434,57.9873],[11.87418,57.98911],[11.87263,57.99202],[11.8713,57.99321],[11.86942,57.99422],[11.86583,57.99521],[11.8618,57.99542],[11.85915,57.9951],[11.85331,57.99363],[11.84752,57.99435],[11.84885,57.99599],[11.85192,57.9954],[11.85567,57.99536],[11.85847,57.99573],[11.86132,57.99663],[11.86521,57.99837],[11.86707,57.99985],[11.86803,58.00194],[11.86762,58.00386],[11.87162,58.0044],[11.87337,58.00365],[11.8775,58.00243],[11.88073,58.00193],[11.88824,58.00202],[11.89146,58.00252],[11.89376,58.0033],[11.8956,58.00436],[11.89749,58.0064],[11.89813,58.00778],[11.89797,58.00959],[11.89642,58.01155],[11.8941,58.01288],[11.89061,58.01397],[11.88918,58.0156],[11.88731,58.01676],[11.88903,58.01835],[11.88969,58.01977],[11.8897,58.02107],[11.8903,58.02307],[11.89008,58.02414],[11.88933,58.02534],[11.88978,58.02644],[11.88974,58.02789],[11.88903,58.02926],[11.88807,58.03021],[11.88634,58.03135],[11.88423,58.03223],[11.88365,58.03359],[11.88242,58.0349],[11.88061,58.03601],[11.87886,58.0367],[11.87632,58.03729],[11.8739,58.03753],[11.87168,58.03929],[11.86882,58.04043],[11.86673,58.04088],[11.86464,58.0411],[11.86252,58.0411],[11.85995,58.04081],[11.85653,58.04165],[11.85807,58.0428],[11.85894,58.0439],[11.86355,58.04614],[11.86524,58.0472],[11.86956,58.04896],[11.8726,58.05069],[11.87431,58.05193],[11.87744,58.05336],[11.87991,58.05541],[11.88546,58.05648],[11.88872,58.05775],[11.89148,58.05983],[11.89365,58.06261],[11.89415,58.06444],[11.89376,58.06602],[11.89262,58.06747],[11.89087,58.06869],[11.88813,58.06976],[11.886,58.07022],[11.88327,58.07045],[11.87624,58.07008],[11.87366,58.07141],[11.8712,58.07219],[11.86866,58.07259],[11.86612,58.07263],[11.86616,58.07375],[11.8654,58.07674],[11.86484,58.0777],[11.86471,58.07951],[11.86412,58.08052],[11.86281,58.08172],[11.86045,58.08291],[11.8581,58.08355],[11.85409,58.08416],[11.84893,58.08439],[11.84991,58.08589],[11.85024,58.08745],[11.84983,58.08902],[11.849,58.09014],[11.84931,58.09207],[11.84833,58.09407],[11.85081,58.09373],[11.85376,58.09374],[11.85643,58.09411],[11.85885,58.09482],[11.86086,58.09582],[11.86252,58.09711],[11.86375,58.09894],[11.86399,58.101],[11.86534,58.10182],[11.86654,58.10299],[11.86753,58.10352],[11.87141,58.10286],[11.87467,58.1028],[11.87676,58.10304],[11.87912,58.10364],[11.88113,58.10453],[11.88267,58.10567],[11.8836,58.10696],[11.88401,58.10869],[11.88345,58.11081],[11.88112,58.11313],[11.87714,58.11516],[11.87389,58.1161],[11.8744,58.11779],[11.87495,58.11853],[11.87674,58.11968],[11.87805,58.12132],[11.87835,58.12285],[11.8791,58.12445],[11.87897,58.12626],[11.87824,58.12766],[11.87646,58.12917],[11.87441,58.13014],[11.87176,58.13083],[11.87104,58.13227],[11.86983,58.1334],[11.86868,58.13519],[11.86761,58.1361],[11.86458,58.13754],[11.86068,58.1385],[11.8587,58.13877],[11.85532,58.13877],[11.85143,58.1381],[11.84764,58.13865],[11.84355,58.13844],[11.84375,58.13989],[11.84352,58.141],[11.84199,58.14293],[11.84369,58.14439],[11.84576,58.14725],[11.84669,58.14985],[11.84673,58.15085],[11.84779,58.1534],[11.8516,58.15642],[11.85335,58.16025],[11.85997,58.15946]]]}},{"type":"Feature","id":"1415R008","properties":{"code":"1415R008","name":"Stora Höga-Spekeröd"},"geometry":{"type":"Polygon","coordinates":[[[11.88164,58.03545],[11.88342,58.03391],[11.88423,58.03223],[11.88634,58.03135],[11.88807,58.03021],[11.88903,58.02926],[11.88974,58.02789],[11.88978,58.02644],[11.88933,58.02534],[11.89008,58.02414],[11.8903,58.02307],[11.8897,58.02107],[11.88969,58.01977],[11.88903,58.01835],[11.88731,58.01676],[11.88918,58.0156],[11.89061,58.01397],[11.8941,58.01288],[11.89602,58.01185],[11.89736,58.01062],[11.89798,58.00956],[11.89813,58.00778],[11.89747,58.00637],[11.89558,58.00434],[11.89268,58.00288],[11.88887,58.00208],[11.88143,58.00189],[11.8775,58.00243],[11.87337,58.00365],[11.87162,58.0044],[11.86762,58.00386],[11.86802,58.00265],[11.86789,58.00123],[11.86732,58.00017],[11.86605,57.99892],[11.86472,57.9981],[11.86081,57.99642],[11.85847,57.99573],[11.85646,57.99542],[11.85261,57.99534],[11.84885,57.99599],[11.84871,58.00042],[11.84672,58.00232],[11.84551,58.00283],[11.84219,58.00164],[11.84184,58.00126],[11.84117,58.00122],[11.84081,58.00086],[11.84019,58.00079],[11.83921,57.99941],[11.83415,58.00012],[11.83216,58.00004],[11.83136,57.99984],[11.83027,57.99991],[11.82919,57.99966],[11.82795,57.99972],[11.82337,57.99939],[11.81504,57.99761],[11.8137,57.99757],[11.8126,57.99786],[11.81151,57.9973],[11.79952,57.99825],[11.79147,57.99301],[11.75845,57.99147],[11.77641,58.00814],[11.78898,58.02988],[11.7951,58.03444],[11.80889,58.02816],[11.80893,58.02413],[11.81528,58.02418],[11.82499,58.02683],[11.83358,58.02602],[11.83436,58.0262],[11.83448,58.02673],[11.83516,58.02674],[11.83525,58.02604],[11.83654,58.02559],[11.83646,58.02519],[11.83679,58.02507],[11.83762,58.02491],[11.83843,58.02551],[11.83855,58.02514],[11.84261,58.02444],[11.84882,58.02391],[11.84952,58.02397],[11.85123,58.02503],[11.85123,58.02776],[11.84892,58.02755],[11.84701,58.02793],[11.84625,58.02843],[11.84599,58.03268],[11.8466,58.03323],[11.84583,58.03333],[11.84577,58.03355],[11.84786,58.03442],[11.85281,58.03764],[11.8537,58.03889],[11.86267,58.04111],[11.86591,58.04099],[11.86824,58.04058],[11.8706,58.03982],[11.87253,58.03878],[11.8739,58.03753],[11.87632,58.03729],[11.87829,58.03686],[11.88012,58.03623],[11.88164,58.03545]]]}},{"type":"Feature","id":"1415R009","properties":{"code":"1415R009","name":"Västergård-Doteröd-Nytorpshöjd"},"geometry":{"type":"Polygon","coordinates":[[[11.8309,58.08427],[11.83555,58.08313],[11.83603,58.08332],[11.83782,58.08272],[11.83886,58.08274],[11.8403,58.08231],[11.84207,58.0824],[11.84498,58.08306],[11.84708,58.08459],[11.85081,58.08339],[11.85266,58.08387],[11.85534,58.08401],[11.85873,58.08342],[11.86194,58.08225],[11.86385,58.08083],[11.8647,58.07953],[11.86484,58.0777],[11.86539,58.07675],[11.86368,58.07673],[11.86216,58.07636],[11.86165,58.07595],[11.85867,58.07493],[11.85754,58.07431],[11.85644,58.0743],[11.85619,58.07456],[11.8556,58.07467],[11.85479,58.07413],[11.85388,58.074],[11.85212,58.07309],[11.85209,58.07288],[11.85061,58.072],[11.85054,58.07167],[11.85108,58.07141],[11.85089,58.07131],[11.85115,58.0711],[11.85061,58.07062],[11.85119,58.07031],[11.84878,58.06943],[11.84805,58.07032],[11.84533,58.07017],[11.84477,58.07059],[11.84384,58.07055],[11.84383,58.06998],[11.84376,58.07102],[11.8422,58.07089],[11.84231,58.07135],[11.84271,58.07146],[11.84183,58.07183],[11.84274,58.07214],[11.84161,58.07261],[11.83941,58.07187],[11.83931,58.07165],[11.83722,58.07159],[11.83701,58.07174],[11.83578,58.07181],[11.83456,58.07143],[11.83375,58.07037],[11.83397,58.06883],[11.83308,58.069],[11.83294,58.06869],[11.83235,58.06849],[11.8331,58.06792],[11.83307,58.06749],[11.83267,58.06745],[11.8334,58.06704],[11.83233,58.06676],[11.83232,58.06637],[11.83155,58.06635],[11.83106,58.06552],[11.83293,58.06536],[11.83252,58.06438],[11.83208,58.06414],[11.83101,58.06403],[11.82994,58.06187],[11.8268,58.06136],[11.82624,58.06286],[11.82561,58.06276],[11.82568,58.06262],[11.8242,58.06254],[11.82418,58.06221],[11.82278,58.06221],[11.82128,58.06192],[11.82191,58.06084],[11.82347,58.06108],[11.82361,58.06092],[11.82268,58.0607],[11.82291,58.06032],[11.82209,58.06005],[11.82158,58.0606],[11.82037,58.06034],[11.81896,58.06172],[11.81823,58.06335],[11.81841,58.06483],[11.82284,58.07123],[11.82674,58.07488],[11.82911,58.07747],[11.8299,58.07921],[11.8309,58.08427]]]}},{"type":"Feature","id":"1415R010","properties":{"code":"1415R010","name":"Ödsmål"},"geometry":{"type":"Polygon","coordinates":[[[11.84779,58.1534],[11.84673,58.15085],[11.84669,58.14985],[11.84576,58.14725],[11.84369,58.14439],[11.84199,58.14293],[11.84352,58.141],[11.84375,58.13989],[11.84355,58.13844],[11.84764,58.13865],[11.85143,58.1381],[11.85532,58.13877],[11.8587,58.13877],[11.86068,58.1385],[11.86458,58.13754],[11.86761,58.1361],[11.86868,58.13519],[11.86983,58.1334],[11.87104,58.13227],[11.87176,58.13083],[11.87441,58.13014],[11.87646,58.12917],[11.87824,58.12766],[11.87897,58.12626],[11.8791,58.12445],[11.87835,58.12285],[11.87805,58.12132],[11.87674,58.11968],[11.87495,58.11853],[11.8744,58.11779],[11.87389,58.1161],[11.87714,58.11516],[11.88112,58.11313],[11.88345,58.11081],[11.88402,58.10871],[11.8836,58.10696],[11.88267,58.10567],[11.88113,58.10453],[11.87912,58.10364],[11.87676,58.10304],[11.87467,58.1028],[11.87141,58.10286],[11.86753,58.10352],[11.86654,58.10299],[11.86534,58.10182],[11.86399,58.101],[11.86375,58.09894],[11.86252,58.09711],[11.86086,58.09582],[11.85885,58.09482],[11.85643,58.09411],[11.85376,58.09374],[11.85081,58.09373],[11.84833,58.09407],[11.84931,58.09207],[11.849,58.09014],[11.84983,58.08902],[11.85024,58.08745],[11.84991,58.08589],[11.84893,58.08439],[11.85406,58.08416],[11.85527,58.08395],[11.85266,58.08387],[11.85081,58.08339],[11.84708,58.08459],[11.84498,58.08306],[11.84207,58.0824],[11.8403,58.08231],[11.83886,58.08274],[11.83782,58.08272],[11.83603,58.08332],[11.83555,58.08313],[11.8268,58.0852],[11.82491,58.08637],[11.82317,58.08659],[11.81941,58.089],[11.8062,58.09269],[11.80442,58.09659],[11.79736,58.10121],[11.8033,58.10776],[11.80739,58.10945],[11.80926,58.11105],[11.80548,58.11703],[11.8235,58.11474],[11.83469,58.12252],[11.8323,58.12837],[11.83438,58.13508],[11.83539,58.13641],[11.83647,58.14054],[11.83657,58.1432],[11.83792,58.14557],[11.84779,58.1534]]]}}]}