{"type":"FeatureCollection","features":[{"type":"Feature","id":"1421R001","properties":{"code":"1421R001","name":"Ellös"},"geometry":{"type":"Polygon","coordinates":[[[11.48481,58.19772],[11.48799,58.19741],[11.49192,58.19636],[11.49588,58.19409],[11.49838,58.19233],[11.49943,58.19103],[11.50006,58.18927],[11.49987,58.18755],[11.49904,58.18607],[11.50401,58.18423],[11.50658,58.18246],[11.5075,58.18107],[11.50775,58.17992],[11.50759,58.1788],[11.50678,58.1774],[11.50527,58.1761],[11.50366,58.17523],[11.5019,58.17459],[11.49868,58.17385],[11.49843,58.17213],[11.49722,58.17051],[11.49693,58.16943],[11.49598,58.1681],[11.49071,58.16465],[11.4873,58.16333],[11.48467,58.16287],[11.48255,58.16276],[11.47839,58.16318],[11.47648,58.16369],[11.4747,58.16443],[11.47186,58.16625],[11.46956,58.16568],[11.46663,58.16539],[11.46452,58.16482],[11.46192,58.16446],[11.45853,58.16451],[11.45592,58.16495],[11.45162,58.1664],[11.44934,58.16761],[11.44789,58.16913],[11.44716,58.17096],[11.44735,58.17233],[11.44896,58.17638],[11.4501,58.17761],[11.4521,58.17879],[11.45214,58.18084],[11.45135,58.18211],[11.45171,58.18213],[11.45429,58.18625],[11.45779,58.18944],[11.46369,58.19153],[11.46478,58.19166],[11.46579,58.19293],[11.46697,58.19382],[11.47236,58.19614],[11.4759,58.19697],[11.4797,58.19708],[11.48223,58.19759],[11.48481,58.19772]]]}},{"type":"Feature","id":"1421R002","properties":{"code":"1421R002","name":"Henån"},"geometry":{"type":"Polygon","coordinates":[[[11.70121,58.25326],[11.70577,58.25316],[11.70786,58.25295],[11.71042,58.25236],[11.71222,58.25168],[11.71367,58.25085],[11.71507,58.24959],[11.71583,58.24818],[11.71596,58.24687],[11.71547,58.24543],[11.71427,58.24405],[11.70885,58.2406],[11.70773,58.23955],[11.70632,58.23869],[11.70442,58.23789],[11.70178,58.23723],[11.69896,58.2362],[11.69635,58.23575],[11.69405,58.23565],[11.69778,58.23492],[11.70052,58.23387],[11.70286,58.23221],[11.70388,58.23048],[11.70379,58.22813],[11.70257,58.22631],[11.70407,58.22523],[11.70495,58.22421],[11.70551,58.22278],[11.70548,58.22165],[11.70422,58.21952],[11.70199,58.21769],[11.70013,58.21659],[11.69734,58.21557],[11.69217,58.21445],[11.6888,58.21428],[11.68611,58.21455],[11.68258,58.21558],[11.68034,58.21693],[11.67649,58.21707],[11.67339,58.21778],[11.67086,58.21897],[11.66928,58.22029],[11.66691,58.22073],[11.66506,58.2213],[11.65968,58.22399],[11.65345,58.22124],[11.65214,58.21964],[11.65027,58.21843],[11.64535,58.21649],[11.64354,58.216],[11.64024,58.2156],[11.63687,58.21576],[11.63384,58.21637],[11.63117,58.21747],[11.62901,58.21929],[11.62829,58.22141],[11.62604,58.22266],[11.62451,58.22428],[11.62378,58.22689],[11.62398,58.22827],[11.62488,58.22963],[11.62417,58.23109],[11.62418,58.23245],[11.62209,58.23389],[11.62088,58.23591],[11.62091,58.23736],[11.62164,58.23876],[11.62292,58.24008],[11.62468,58.24116],[11.62939,58.24316],[11.63252,58.24383],[11.63493,58.24485],[11.63834,58.24561],[11.63961,58.24723],[11.64115,58.24844],[11.64322,58.24942],[11.64568,58.2501],[11.64921,58.25047],[11.65252,58.25028],[11.65508,58.25078],[11.65893,58.25085],[11.66126,58.25138],[11.66416,58.2516],[11.66803,58.25128],[11.6715,58.2503],[11.67213,58.25144],[11.67314,58.25243],[11.67697,58.25487],[11.67957,58.25602],[11.68209,58.2566],[11.68569,58.25691],[11.68905,58.25668],[11.69209,58.25599],[11.69461,58.25493],[11.69823,58.25397],[11.70121,58.25326]]]}},{"type":"Feature","id":"1421R003","properties":{"code":"1421R003","name":"Morlanda-Tegneby-Stala"},"geometry":{"type":"Polygon","coordinates":[[[11.66108,58.25701],[11.66893,58.25566],[11.6692,58.25265],[11.6719,58.25112],[11.6715,58.2503],[11.66803,58.25128],[11.66416,58.2516],[11.66126,58.25138],[11.65893,58.25085],[11.65508,58.25078],[11.65252,58.25028],[11.64856,58.25045],[11.64508,58.24997],[11.64322,58.24942],[11.64115,58.24844],[11.63961,58.24723],[11.63834,58.24561],[11.63587,58.24512],[11.63252,58.24383],[11.62884,58.24298],[11.62421,58.24092],[11.62255,58.23977],[11.62118,58.23805],[11.62082,58.23628],[11.6218,58.23419],[11.62418,58.23245],[11.62417,58.23109],[11.62488,58.22963],[11.62398,58.22827],[11.62378,58.22689],[11.62415,58.22503],[11.62472,58.22395],[11.62604,58.22266],[11.62829,58.22141],[11.6288,58.21961],[11.63071,58.21775],[11.63384,58.21637],[11.63819,58.21563],[11.64088,58.21563],[11.64354,58.216],[11.64535,58.21649],[11.64925,58.21797],[11.65168,58.21928],[11.65345,58.22124],[11.65968,58.22399],[11.66506,58.2213],[11.66691,58.22073],[11.66928,58.22029],[11.67086,58.21897],[11.67339,58.21778],[11.67649,58.21707],[11.68034,58.21693],[11.6831,58.21537],[11.68678,58.21445],[11.68945,58.21427],[11.69154,58.21437],[11.6973,58.21556],[11.70013,58.21659],[11.70159,58.21741],[11.70311,58.21863],[11.70135,58.21695],[11.70014,58.21633],[11.70467,58.21496],[11.70557,58.21413],[11.70617,58.21109],[11.70596,58.20913],[11.70477,58.20684],[11.70277,58.20551],[11.69954,58.20422],[11.69652,58.20216],[11.69463,58.2019],[11.69205,58.20067],[11.69153,58.2008],[11.69116,58.20055],[11.69116,58.19998],[11.68994,58.1995],[11.69093,58.19766],[11.69027,58.1962],[11.69053,58.19559],[11.6903,58.19443],[11.68667,58.19196],[11.68433,58.19131],[11.68275,58.19127],[11.682,58.19152],[11.68057,58.19031],[11.68071,58.1899],[11.68047,58.18967],[11.67862,58.18931],[11.67822,58.18904],[11.67718,58.18938],[11.67574,58.18745],[11.67489,58.18785],[11.67052,58.18585],[11.67245,58.18017],[11.67795,58.18425],[11.68087,58.18429],[11.68646,58.18307],[11.69345,58.18127],[11.69421,58.18162],[11.69673,58.18179],[11.69734,58.18204],[11.69909,58.18156],[11.70214,58.18287],[11.70364,58.18415],[11.70474,58.18488],[11.70501,58.18479],[11.70683,58.18604],[11.71167,58.18464],[11.711,58.18324],[11.71431,58.18272],[11.71587,58.1846],[11.71862,58.18694],[11.71937,58.18732],[11.71954,58.18677],[11.72078,58.18624],[11.72145,58.18624],[11.72389,58.18563],[11.72428,58.18504],[11.72586,58.18421],[11.72565,58.18325],[11.72591,58.18217],[11.72513,58.1818],[11.72583,58.18051],[11.72528,58.17988],[11.72298,58.17884],[11.7205,58.17643],[11.71904,58.17366],[11.71813,58.17308],[11.71754,58.17202],[11.71614,58.17059],[11.71398,58.16913],[11.71344,58.16937],[11.71232,58.16902],[11.7122,58.16877],[11.71129,58.16841],[11.7069,58.16771],[11.705,58.16676],[11.70491,58.16615],[11.70624,58.16489],[11.70682,58.16468],[11.70729,58.16474],[11.70679,58.16427],[11.7072,58.16402],[11.70693,58.16337],[11.70802,58.16275],[11.7075,58.16137],[11.7083,58.16064],[11.70793,58.16066],[11.70774,58.15973],[11.70743,58.1596],[11.70791,58.15952],[11.70662,58.15901],[11.70697,58.1588],[11.70665,58.1586],[11.7072,58.15863],[11.70732,58.15818],[11.70669,58.1578],[11.70688,58.15659],[11.70633,58.15631],[11.70593,58.15571],[11.70607,58.1555],[11.70645,58.15553],[11.70605,58.15526],[11.70635,58.15497],[11.70614,58.15448],[11.70794,58.15384],[11.70855,58.1539],[11.70906,58.15431],[11.70983,58.1544],[11.71122,58.15512],[11.71136,58.15574],[11.7121,58.1566],[11.71215,58.1576],[11.71291,58.15931],[11.7128,58.16046],[11.71426,58.16042],[11.7154,58.15952],[11.71899,58.15901],[11.72027,58.15977],[11.72179,58.15907],[11.72162,58.15852],[11.72174,58.15807],[11.7222,58.15788],[11.72196,58.15775],[11.72233,58.15691],[11.72381,58.15532],[11.72282,58.15353],[11.72214,58.15339],[11.72144,58.15287],[11.7212,58.15217],[11.72029,58.15116],[11.72029,58.1506],[11.72071,58.15018],[11.72113,58.15015],[11.72328,58.1489],[11.7245,58.14869],[11.7247,58.14819],[11.72429,58.14772],[11.72524,58.14616],[11.72599,58.14591],[11.72807,58.14449],[11.72933,58.14387],[11.73014,58.14401],[11.73775,58.1411],[11.72874,58.13791],[11.72656,58.13621],[11.72283,58.13679],[11.71891,58.13659],[11.71518,58.13556],[11.71266,58.13403],[11.7103,58.13386],[11.70632,58.13425],[11.70177,58.13585],[11.69743,58.13637],[11.69336,58.13616],[11.69145,58.13576],[11.68936,58.13504],[11.68741,58.13399],[11.68585,58.13244],[11.68529,58.13103],[11.68544,58.12946],[11.68234,58.12912],[11.67921,58.12818],[11.6745,58.1256],[11.67273,58.12408],[11.67201,58.12271],[11.67191,58.12161],[11.67239,58.12022],[11.67354,58.11889],[11.67311,58.11734],[11.67358,58.11563],[11.67467,58.11429],[11.6758,58.11339],[11.67897,58.11149],[11.68134,58.11056],[11.68341,58.11009],[11.68548,58.10986],[11.69424,58.10967],[11.69769,58.10994],[11.70324,58.11104],[11.70683,58.11259],[11.70869,58.11407],[11.71482,58.11588],[11.71709,58.11687],[11.71886,58.11701],[11.72262,58.11678],[11.72583,58.11716],[11.72821,58.11657],[11.73023,58.11632],[11.7323,58.11628],[11.73583,58.11653],[11.73767,58.1148],[11.73867,58.11329],[11.73966,58.10885],[11.74243,58.10587],[11.73856,58.10388],[11.73311,58.0993],[11.72791,58.09686],[11.72508,58.09429],[11.72409,58.09219],[11.72513,58.09026],[11.7231,58.08665],[11.7154,58.08377],[11.71053,58.08668],[11.70685,58.09006],[11.70299,58.09247],[11.70145,58.09442],[11.69758,58.09612],[11.69406,58.09902],[11.68762,58.09705],[11.68233,58.09822],[11.67383,58.09587],[11.67101,58.09901],[11.66525,58.10194],[11.65786,58.09922],[11.6513,58.09978],[11.64706,58.09412],[11.64235,58.09253],[11.63164,58.0909],[11.6239,58.08681],[11.62179,58.08344],[11.59801,58.07032],[11.58566,58.07799],[11.55905,58.0842],[11.55623,58.08308],[11.55851,58.08057],[11.5561,58.07816],[11.55121,58.07864],[11.54878,58.07752],[11.55101,58.07563],[11.55499,58.0745],[11.55565,58.07251],[11.54841,58.07109],[11.54578,58.06728],[11.52867,58.05908],[11.52127,58.05913],[11.51466,58.05761],[11.51051,58.05774],[11.50768,58.0561],[11.50474,58.05261],[11.49548,58.05186],[11.49474,58.05991],[11.49531,58.0674],[11.49366,58.07093],[11.49379,58.07675],[11.49232,58.0842],[11.49447,58.0869],[11.50215,58.10071],[11.50325,58.10316],[11.49436,58.1091],[11.48784,58.11417],[11.48017,58.11794],[11.47684,58.12023],[11.47787,58.12069],[11.47906,58.1207],[11.48071,58.12134],[11.48519,58.11944],[11.48763,58.12288],[11.4908,58.12355],[11.49726,58.12308],[11.49793,58.12403],[11.49739,58.12428],[11.49759,58.12445],[11.4973,58.12468],[11.49781,58.12525],[11.49778,58.12608],[11.49831,58.12603],[11.49832,58.12631],[11.49415,58.13107],[11.49983,58.1346],[11.49855,58.13543],[11.49839,58.13649],[11.49658,58.13693],[11.49382,58.13923],[11.49859,58.14172],[11.50048,58.14189],[11.50156,58.14126],[11.50269,58.1419],[11.50208,58.14204],[11.50189,58.14236],[11.49924,58.14272],[11.49983,58.14363],[11.49716,58.14466],[11.49594,58.14537],[11.49464,58.14511],[11.49388,58.14604],[11.4931,58.14646],[11.49333,58.14672],[11.49255,58.14724],[11.49302,58.14784],[11.49048,58.14817],[11.48953,58.14914],[11.48959,58.14986],[11.48844,58.14984],[11.48824,58.14944],[11.48664,58.14987],[11.48982,58.15289],[11.49058,58.15223],[11.49118,58.15218],[11.49011,58.1532],[11.49636,58.15832],[11.50485,58.15994],[11.5195,58.17138],[11.52173,58.17155],[11.52144,58.17192],[11.50738,58.17003],[11.49936,58.16394],[11.49762,58.16429],[11.49439,58.1633],[11.49261,58.16155],[11.49005,58.16243],[11.4886,58.16371],[11.49071,58.16465],[11.49598,58.1681],[11.49693,58.16943],[11.49722,58.17051],[11.49843,58.17213],[11.49868,58.17385],[11.50206,58.17464],[11.50474,58.17576],[11.50678,58.1774],[11.50768,58.17914],[11.5075,58.18107],[11.50584,58.18313],[11.50351,58.18445],[11.49904,58.18607],[11.49987,58.18755],[11.50009,58.18892],[11.4996,58.19067],[11.49869,58.19203],[11.49588,58.19409],[11.49192,58.19636],[11.48799,58.19741],[11.48416,58.19772],[11.4816,58.1975],[11.4797,58.19708],[11.4759,58.19697],[11.4729,58.19633],[11.46744,58.19409],[11.46579,58.19293],[11.46478,58.19166],[11.46369,58.19153],[11.4664,58.20099],[11.47317,58.20843],[11.47958,58.2145],[11.47684,58.21656],[11.4783,58.21754],[11.47773,58.22373],[11.48097,58.22674],[11.48119,58.22978],[11.48801,58.23223],[11.49514,58.23338],[11.51011,58.23744],[11.51609,58.23979],[11.51979,58.24071],[11.52652,58.23925],[11.52882,58.2371],[11.53103,58.23868],[11.53491,58.23979],[11.53758,58.23855],[11.54189,58.24015],[11.54524,58.23818],[11.55019,58.23662],[11.5512,58.23528],[11.55285,58.23498],[11.5544,58.23498],[11.55543,58.2343],[11.55419,58.23134],[11.55935,58.22723],[11.57474,58.23323],[11.57917,58.23887],[11.58183,58.24038],[11.58826,58.2388],[11.60891,58.24514],[11.60985,58.24704],[11.61719,58.24975],[11.63089,58.25608],[11.63841,58.25539],[11.64602,58.25803],[11.64849,58.26237],[11.65596,58.26026],[11.66108,58.25701]]]}},{"type":"Feature","id":"1421R004","properties":{"code":"1421R004","name":"Svanesund"},"geometry":{"type":"Polygon","coordinates":[[[11.83603,58.16589],[11.83879,58.16575],[11.84081,58.16539],[11.84319,58.16464],[11.84473,58.16387],[11.84818,58.16099],[11.84892,58.15958],[11.84897,58.15801],[11.84768,58.15559],[11.84779,58.1534],[11.83792,58.14557],[11.83657,58.1432],[11.83647,58.14054],[11.83539,58.13641],[11.83438,58.13508],[11.8323,58.12837],[11.83469,58.12252],[11.8235,58.11474],[11.8233,58.11476],[11.82512,58.11757],[11.82548,58.11907],[11.82701,58.12079],[11.82468,58.12054],[11.82224,58.12003],[11.81965,58.11986],[11.81643,58.12013],[11.81403,58.12073],[11.80771,58.12366],[11.80541,58.1251],[11.80382,58.12668],[11.8025,58.1276],[11.79929,58.12871],[11.79677,58.13049],[11.7936,58.13133],[11.78889,58.13354],[11.78708,58.13472],[11.78576,58.13638],[11.7854,58.13807],[11.78578,58.13948],[11.78427,58.1413],[11.78408,58.14344],[11.78508,58.14515],[11.78688,58.14661],[11.78637,58.14781],[11.78621,58.15048],[11.78645,58.1516],[11.78735,58.15298],[11.7885,58.15396],[11.78995,58.15479],[11.79166,58.15546],[11.79379,58.15598],[11.79506,58.15709],[11.79726,58.15829],[11.79983,58.15908],[11.80156,58.15997],[11.80396,58.16073],[11.80616,58.16118],[11.81263,58.16198],[11.81532,58.16194],[11.8173,58.16167],[11.82297,58.15988],[11.82458,58.16151],[11.82873,58.16436],[11.83046,58.16503],[11.8325,58.16554],[11.83603,58.16589]]]}},{"type":"Feature","id":"1421R005","properties":{"code":"1421R005","name":"Torp-Myckleby-Långelanda"},"geometry":{"type":"Polygon","coordinates":[[[11.71624,58.30876],[11.72286,58.30223],[11.74701,58.30912],[11.75667,58.30709],[11.76169,58.30079],[11.76088,58.2975],[11.76627,58.29186],[11.76705,58.28974],[11.77579,58.28126],[11.7772,58.27585],[11.78749,58.26974],[11.80412,58.26863],[11.8079,58.27418],[11.81856,58.27905],[11.82288,58.27731],[11.82378,58.27477],[11.8197,58.26804],[11.83121,58.26335],[11.83184,58.25754],[11.83743,58.25335],[11.83658,58.24683],[11.84191,58.24332],[11.84389,58.23867],[11.84832,58.23512],[11.85174,58.22767],[11.84903,58.22466],[11.8508,58.21568],[11.86776,58.21376],[11.86495,58.20692],[11.8539,58.20744],[11.85086,58.20482],[11.8525,58.20259],[11.85073,58.19521],[11.85036,58.17877],[11.85087,58.17535],[11.85196,58.1728],[11.85441,58.16983],[11.85595,58.16671],[11.8516,58.15642],[11.84779,58.1534],[11.84768,58.15559],[11.84872,58.15727],[11.84905,58.1588],[11.84881,58.15991],[11.84791,58.1613],[11.84514,58.1636],[11.84267,58.16484],[11.83942,58.16566],[11.83585,58.16589],[11.8319,58.16541],[11.82873,58.16436],[11.82458,58.16151],[11.82297,58.15988],[11.82134,58.16029],[11.81854,58.16138],[11.81462,58.16198],[11.81125,58.16186],[11.80879,58.1614],[11.80599,58.16115],[11.80337,58.16058],[11.80156,58.15997],[11.79983,58.15908],[11.79676,58.15807],[11.79504,58.15707],[11.79379,58.15598],[11.79166,58.15546],[11.78948,58.15456],[11.78766,58.15328],[11.78645,58.1516],[11.78632,58.14815],[11.78688,58.14661],[11.78479,58.14481],[11.78397,58.14271],[11.78445,58.14094],[11.78578,58.13948],[11.78543,58.13842],[11.78549,58.13715],[11.78676,58.13501],[11.78843,58.13378],[11.79261,58.13175],[11.79473,58.13095],[11.79677,58.13049],[11.79929,58.12871],[11.8025,58.1276],[11.80382,58.12668],[11.80541,58.1251],[11.80771,58.12366],[11.81403,58.12073],[11.81643,58.12013],[11.81965,58.11986],[11.82224,58.12003],[11.82468,58.12054],[11.82701,58.12079],[11.82568,58.1194],[11.82512,58.11757],[11.8233,58.11476],[11.80545,58.11703],[11.78658,58.12048],[11.76939,58.1104],[11.76323,58.1107],[11.7571,58.10935],[11.74825,58.10568],[11.74243,58.10587],[11.73966,58.10885],[11.73867,58.11329],[11.73767,58.1148],[11.73583,58.11653],[11.73763,58.11674],[11.74173,58.11675],[11.74522,58.11709],[11.74859,58.11777],[11.75089,58.11856],[11.75303,58.11986],[11.7543,58.12146],[11.75456,58.1232],[11.75379,58.12487],[11.75121,58.127],[11.74846,58.12822],[11.74512,58.12892],[11.74162,58.12902],[11.73831,58.13021],[11.73431,58.13067],[11.73367,58.13244],[11.73209,58.13399],[11.73017,58.13503],[11.72656,58.13621],[11.72874,58.13791],[11.73775,58.1411],[11.73014,58.14401],[11.72933,58.14387],[11.72807,58.14449],[11.72599,58.14591],[11.72524,58.14616],[11.72429,58.14772],[11.7247,58.14819],[11.7245,58.14869],[11.72328,58.1489],[11.72113,58.15015],[11.72071,58.15018],[11.72029,58.1506],[11.72029,58.15116],[11.7212,58.15217],[11.72144,58.15287],[11.72214,58.15339],[11.72282,58.15353],[11.72381,58.15532],[11.72233,58.15691],[11.72196,58.15775],[11.7222,58.15788],[11.72174,58.15807],[11.72162,58.15852],[11.72179,58.15907],[11.72027,58.15977],[11.71899,58.15901],[11.7154,58.15952],[11.71426,58.16042],[11.7128,58.16046],[11.71291,58.15931],[11.71215,58.1576],[11.7121,58.1566],[11.71136,58.15574],[11.71122,58.15512],[11.70983,58.1544],[11.70914,58.15433],[11.70871,58.15396],[11.70803,58.15384],[11.70614,58.15448],[11.70606,58.15475],[11.70635,58.15497],[11.70605,58.15526],[11.70645,58.15553],[11.70607,58.1555],[11.70593,58.15571],[11.70633,58.15631],[11.70688,58.15659],[11.70669,58.1578],[11.70732,58.15818],[11.7072,58.15863],[11.70665,58.1586],[11.70697,58.1588],[11.70662,58.15901],[11.70791,58.15952],[11.70743,58.1596],[11.70774,58.15973],[11.70793,58.16066],[11.7083,58.16064],[11.7075,58.16137],[11.70802,58.16275],[11.70693,58.16337],[11.7072,58.16402],[11.70679,58.16427],[11.70729,58.16474],[11.70682,58.16468],[11.70624,58.16489],[11.70491,58.16615],[11.705,58.16676],[11.7069,58.16771],[11.71129,58.16841],[11.7122,58.16877],[11.71232,58.16902],[11.71344,58.16937],[11.71398,58.16913],[11.71614,58.17059],[11.71754,58.17202],[11.71813,58.17308],[11.71904,58.17366],[11.7205,58.17643],[11.72298,58.17884],[11.72528,58.17988],[11.72583,58.18051],[11.72513,58.1818],[11.72591,58.18217],[11.72565,58.18325],[11.72586,58.18421],[11.72428,58.18504],[11.72389,58.18563],[11.72145,58.18624],[11.72078,58.18624],[11.71954,58.18677],[11.71937,58.18732],[11.71862,58.18694],[11.71587,58.1846],[11.71431,58.18272],[11.711,58.18324],[11.71167,58.18464],[11.70683,58.18604],[11.70501,58.18479],[11.70474,58.18488],[11.70364,58.18415],[11.70214,58.18287],[11.69909,58.18156],[11.69734,58.18204],[11.69673,58.18179],[11.69421,58.18162],[11.69345,58.18127],[11.68646,58.18307],[11.68087,58.18429],[11.67795,58.18425],[11.67245,58.18017],[11.67052,58.18585],[11.67489,58.18785],[11.67574,58.18745],[11.67718,58.18938],[11.67822,58.18904],[11.67862,58.18931],[11.68047,58.18967],[11.68071,58.1899],[11.68057,58.19031],[11.682,58.19152],[11.68275,58.19127],[11.68433,58.19131],[11.68667,58.19196],[11.6903,58.19443],[11.69053,58.19559],[11.69027,58.1962],[11.69093,58.19766],[11.68994,58.1995],[11.69116,58.19998],[11.69116,58.20055],[11.69153,58.2008],[11.69205,58.20067],[11.69463,58.2019],[11.69652,58.20216],[11.69954,58.20422],[11.70277,58.20551],[11.70477,58.20684],[11.70596,58.20913],[11.70617,58.21109],[11.70557,58.21413],[11.70467,58.21496],[11.70014,58.21633],[11.70135,58.21695],[11.70422,58.21952],[11.70548,58.22165],[11.70551,58.22278],[11.70495,58.22421],[11.70407,58.22523],[11.70257,58.22631],[11.70348,58.22743],[11.70389,58.22847],[11.70376,58.23084],[11.70255,58.23251],[11.70005,58.2341],[11.69778,58.23492],[11.69405,58.23565],[11.69635,58.23575],[11.69896,58.2362],[11.70178,58.23723],[11.70442,58.23789],[11.70632,58.23869],[11.70773,58.23955],[11.70885,58.2406],[11.71427,58.24405],[11.71547,58.24543],[11.71597,58.24697],[11.71571,58.24852],[11.71479,58.2499],[11.71326,58.25112],[11.71103,58.25216],[11.70908,58.25272],[11.70705,58.25306],[11.70121,58.25326],[11.69461,58.25493],[11.69152,58.25616],[11.68837,58.25677],[11.68569,58.25691],[11.68341,58.25676],[11.68142,58.25649],[11.67902,58.25583],[11.67745,58.25514],[11.67384,58.25297],[11.6719,58.25112],[11.6692,58.25265],[11.66893,58.25566],[11.67342,58.2619],[11.6756,58.26558],[11.67717,58.26926],[11.67496,58.27667],[11.66906,58.28095],[11.67644,58.28663],[11.67824,58.28993],[11.6751,58.29082],[11.67309,58.29442],[11.67389,58.2982],[11.67829,58.30102],[11.69138,58.30285],[11.69393,58.30616],[11.70134,58.30605],[11.71026,58.30632],[11.71624,58.30876]]]}},{"type":"Feature","id":"1421R006","properties":{"code":"1421R006","name":"Varekil"},"geometry":{"type":"Polygon","coordinates":[[[11.69607,58.13639],[11.69913,58.13626],[11.70112,58.13599],[11.70301,58.13552],[11.70632,58.13425],[11.7103,58.13386],[11.71266,58.13403],[11.71518,58.13556],[11.71891,58.13659],[11.72283,58.13679],[11.72661,58.1362],[11.73017,58.13503],[11.73209,58.13399],[11.73367,58.13244],[11.73431,58.13067],[11.73831,58.13021],[11.74162,58.12902],[11.74448,58.12898],[11.74714,58.12858],[11.74916,58.12798],[11.75121,58.127],[11.7535,58.12521],[11.75449,58.12354],[11.75444,58.1218],[11.75337,58.12017],[11.75138,58.11878],[11.74917,58.11793],[11.74584,58.11718],[11.74237,58.1168],[11.73763,58.11674],[11.73165,58.11627],[11.72896,58.11645],[11.72583,58.11716],[11.72262,58.11678],[11.71886,58.11701],[11.71709,58.11687],[11.71482,58.11588],[11.70869,58.11407],[11.70683,58.11259],[11.70381,58.11122],[11.70077,58.11046],[11.69764,58.10993],[11.69558,58.10971],[11.69194,58.10963],[11.68849,58.10988],[11.68613,58.10982],[11.68341,58.11009],[11.68134,58.11056],[11.67897,58.11149],[11.6758,58.11339],[11.6738,58.11529],[11.67312,58.11699],[11.67354,58.11889],[11.67261,58.11987],[11.67197,58.12127],[11.67229,58.12341],[11.67409,58.12533],[11.67872,58.12796],[11.68174,58.12899],[11.68544,58.12946],[11.68525,58.13066],[11.68564,58.13209],[11.68667,58.13339],[11.68832,58.13454],[11.69209,58.13592],[11.69607,58.13639]]]}},{"type":"Feature","id":"1421R007","properties":{"code":"1421R007","name":"Västra Orust"},"geometry":{"type":"Polygon","coordinates":[[[11.40214,58.1925],[11.42921,58.18298],[11.43545,58.18326],[11.44179,58.18142],[11.45135,58.18211],[11.45214,58.18084],[11.4521,58.17879],[11.4501,58.17761],[11.44877,58.17606],[11.44724,58.17199],[11.44731,58.17028],[11.44836,58.16849],[11.45016,58.16708],[11.45474,58.16529],[11.45723,58.16468],[11.45987,58.16442],[11.46261,58.16452],[11.46663,58.16539],[11.46956,58.16568],[11.47186,58.16625],[11.4747,58.16443],[11.47648,58.16369],[11.47839,58.16318],[11.48107,58.16281],[11.48338,58.16278],[11.4861,58.16307],[11.4886,58.16371],[11.49005,58.16243],[11.49261,58.16155],[11.49439,58.1633],[11.49762,58.16429],[11.49936,58.16394],[11.50738,58.17003],[11.52144,58.17192],[11.52173,58.17155],[11.5195,58.17138],[11.50485,58.15994],[11.49636,58.15832],[11.49011,58.1532],[11.49118,58.15218],[11.49058,58.15223],[11.48982,58.15289],[11.48664,58.14987],[11.48824,58.14944],[11.48844,58.14984],[11.48959,58.14986],[11.48953,58.14914],[11.49048,58.14817],[11.49302,58.14784],[11.49255,58.14724],[11.49333,58.14672],[11.4931,58.14646],[11.49388,58.14604],[11.49464,58.14511],[11.49594,58.14537],[11.49716,58.14466],[11.49983,58.14363],[11.49924,58.14272],[11.50189,58.14236],[11.50208,58.14204],[11.50269,58.1419],[11.50156,58.14126],[11.50048,58.14189],[11.49859,58.14172],[11.49382,58.13923],[11.49658,58.13693],[11.49839,58.13649],[11.49855,58.13543],[11.49983,58.1346],[11.49415,58.13107],[11.49832,58.12631],[11.49831,58.12603],[11.49778,58.12608],[11.49781,58.12525],[11.4973,58.12468],[11.49759,58.12445],[11.49739,58.12428],[11.49793,58.12403],[11.49726,58.12308],[11.4908,58.12355],[11.48763,58.12288],[11.48519,58.11944],[11.48071,58.12134],[11.47906,58.1207],[11.47787,58.12069],[11.47684,58.12023],[11.48017,58.11794],[11.48784,58.11417],[11.49436,58.1091],[11.50325,58.10316],[11.50215,58.10071],[11.49447,58.0869],[11.49232,58.0842],[11.49379,58.07675],[11.49366,58.07093],[11.49531,58.0674],[11.49474,58.05991],[11.49548,58.05186],[11.46119,58.04905],[11.40042,58.04893],[11.32117,58.04958],[10.95912,58.04815],[10.89162,58.17601],[11.29984,58.17414],[11.35257,58.1742],[11.3903,58.18681],[11.40214,58.1925]]]}}]}