{"type":"FeatureCollection","features":[{"type":"Feature","id":"1435R001","properties":{"code":"1435R001","name":"Grebbestad"},"geometry":{"type":"Polygon","coordinates":[[[11.22711,58.72218],[11.23305,58.72183],[11.23542,58.72149],[11.23807,58.72144],[11.2407,58.72105],[11.24311,58.72032],[11.24587,58.71873],[11.249,58.7176],[11.2507,58.71647],[11.25191,58.71485],[11.25214,58.71347],[11.25175,58.7122],[11.25265,58.71084],[11.25321,58.70915],[11.25301,58.70696],[11.25332,58.70603],[11.25553,58.70627],[11.25831,58.70624],[11.26093,58.70585],[11.26333,58.70511],[11.26568,58.70381],[11.26693,58.70252],[11.26751,58.70114],[11.2673,58.69929],[11.27068,58.69908],[11.274,58.69828],[11.27635,58.69721],[11.27822,58.69565],[11.27905,58.69414],[11.27927,58.69159],[11.27863,58.69018],[11.27722,58.68883],[11.27913,58.68768],[11.28036,58.68641],[11.28096,58.685],[11.28075,58.68333],[11.28322,58.68196],[11.28573,58.67925],[11.28634,58.67768],[11.28769,58.67627],[11.28885,58.67416],[11.28921,58.67204],[11.28831,58.67029],[11.28586,58.66829],[11.28194,58.6667],[11.28047,58.66545],[11.27896,58.66465],[11.27663,58.66372],[11.27341,58.66278],[11.26578,58.66198],[11.26317,58.66214],[11.26073,58.66264],[11.2573,58.66421],[11.25228,58.66899],[11.24817,58.67411],[11.24497,58.6759],[11.2399,58.67789],[11.24018,58.6797],[11.23846,58.68091],[11.2305,58.6823],[11.22895,58.68335],[11.22886,58.68488],[11.22234,58.68633],[11.21235,58.68737],[11.21069,58.69345],[11.20848,58.69717],[11.20659,58.69897],[11.20537,58.69952],[11.20413,58.70402],[11.20922,58.70421],[11.21846,58.70994],[11.21835,58.71115],[11.21867,58.71214],[11.21656,58.71374],[11.21556,58.71557],[11.21558,58.71703],[11.21607,58.71812],[11.21778,58.7198],[11.22038,58.7211],[11.22368,58.72194],[11.22711,58.72218]]]}},{"type":"Feature","id":"1435R002","properties":{"code":"1435R002","name":"Tanums kustområde"},"geometry":{"type":"Polygon","coordinates":[[[11.1047,58.81835],[11.131,58.81018],[11.14315,58.81104],[11.15242,58.80452],[11.15197,58.8026],[11.16019,58.79733],[11.16287,58.79661],[11.16667,58.79345],[11.16961,58.79248],[11.1723,58.78962],[11.17685,58.78983],[11.17598,58.78852],[11.17561,58.7853],[11.17672,58.7836],[11.17457,58.77887],[11.18118,58.77793],[11.185,58.77454],[11.18599,58.77099],[11.19201,58.7716],[11.19631,58.76875],[11.19567,58.76587],[11.19622,58.76458],[11.20062,58.76294],[11.2013,58.761],[11.20158,58.75598],[11.20309,58.75783],[11.20918,58.75589],[11.21451,58.75325],[11.21801,58.75069],[11.2229,58.74785],[11.22648,58.74466],[11.23091,58.74415],[11.23708,58.74128],[11.24009,58.74076],[11.24251,58.73871],[11.24275,58.73747],[11.24412,58.73616],[11.2442,58.73384],[11.24675,58.73177],[11.24717,58.73107],[11.2479,58.72974],[11.24886,58.72604],[11.25673,58.72248],[11.26827,58.71869],[11.26997,58.71862],[11.27835,58.71564],[11.27855,58.71516],[11.28526,58.71412],[11.28816,58.71334],[11.29159,58.71024],[11.29752,58.71295],[11.30114,58.7138],[11.30338,58.71587],[11.30764,58.71335],[11.30882,58.709],[11.3132,58.70471],[11.30575,58.70293],[11.30823,58.6999],[11.30666,58.69933],[11.31933,58.683],[11.31454,58.6792],[11.31512,58.67512],[11.3259,58.6783],[11.33272,58.67353],[11.33471,58.67277],[11.33972,58.6713],[11.34284,58.67104],[11.34443,58.67115],[11.34639,58.6702],[11.34717,58.67063],[11.35033,58.66707],[11.35413,58.66447],[11.35496,58.66272],[11.35515,58.66113],[11.34659,58.65207],[11.35678,58.64601],[11.36516,58.63979],[11.36093,58.63791],[11.35106,58.63288],[11.35242,58.6311],[11.35371,58.63045],[11.35479,58.62925],[11.35151,58.62782],[11.34897,58.62758],[11.3472,58.6272],[11.34555,58.6273],[11.34442,58.62712],[11.3437,58.6269],[11.34157,58.62545],[11.34692,58.623],[11.33533,58.61541],[11.33551,58.61452],[11.33576,58.61452],[11.33559,58.61421],[11.33603,58.61386],[11.33589,58.61371],[11.33633,58.6136],[11.33598,58.61352],[11.33578,58.6129],[11.33548,58.61285],[11.33534,58.61253],[11.33564,58.61232],[11.33533,58.61142],[11.33458,58.611],[11.33411,58.61004],[11.33369,58.60993],[11.33423,58.60958],[11.33371,58.60905],[11.33293,58.60922],[11.33194,58.60979],[11.33277,58.6083],[11.33257,58.60774],[11.33296,58.60729],[11.33135,58.60608],[11.33159,58.60596],[11.32916,58.60387],[11.32522,58.60261],[11.32473,58.6027],[11.32263,58.60389],[11.3223,58.60433],[11.31104,58.59877],[11.31102,58.59693],[11.31228,58.59653],[11.31494,58.59614],[11.31561,58.59567],[11.31596,58.59591],[11.31621,58.59585],[11.31621,58.5952],[11.31669,58.59511],[11.31711,58.59429],[11.31555,58.59428],[11.31454,58.59448],[11.31447,58.59426],[11.31544,58.5938],[11.31663,58.59135],[11.31672,58.58963],[11.31568,58.58747],[11.31476,58.5875],[11.31421,58.58721],[11.31368,58.58796],[11.30756,58.58551],[11.30467,58.58495],[11.29187,58.58088],[11.28406,58.57768],[11.28104,58.57414],[11.28259,58.56951],[11.2859,58.56814],[11.28919,58.5657],[11.29222,58.56443],[11.29425,58.56479],[11.2951,58.56443],[11.30435,58.56616],[11.30705,58.5664],[11.30736,58.5661],[11.30487,58.55708],[11.30306,58.55629],[11.30371,58.55168],[11.30406,58.54937],[11.30774,58.54915],[11.3085,58.54514],[11.31022,58.54428],[11.31234,58.54545],[11.38478,58.53278],[11.38965,58.5311],[11.40216,58.5335],[11.40342,58.53256],[11.40398,58.53329],[11.40571,58.53313],[11.40676,58.53281],[11.40695,58.53262],[11.40658,58.53259],[11.40618,58.53018],[11.4092,58.52992],[11.40935,58.53196],[11.40607,58.5373],[11.41058,58.5391],[11.4116,58.5386],[11.41476,58.5385],[11.41498,58.5379],[11.41634,58.53745],[11.42136,58.53759],[11.42145,58.53681],[11.42308,58.53642],[11.42316,58.53618],[11.42217,58.53509],[11.42482,58.53454],[11.42839,58.53323],[11.43113,58.53266],[11.43161,58.53241],[11.43259,58.53232],[11.43422,58.53156],[11.43412,58.53129],[11.4373,58.53232],[11.44201,58.53609],[11.44464,58.53476],[11.45119,58.53296],[11.45241,58.53232],[11.44679,58.52561],[11.44639,58.52363],[11.44679,58.52289],[11.44405,58.5214],[11.44153,58.52125],[11.43985,58.51917],[11.43873,58.51824],[11.43959,58.51724],[11.44333,58.50844],[11.44434,58.50841],[11.44398,58.5068],[11.44527,58.50654],[11.44463,58.50564],[11.44539,58.5046],[11.44436,58.50421],[11.44207,58.50178],[11.44183,58.5009],[11.43541,58.49993],[11.43224,58.50023],[11.42653,58.49927],[11.42287,58.49985],[11.41401,58.49893],[11.41142,58.49745],[11.40322,58.49652],[11.38348,58.49228],[11.38271,58.4924],[11.38191,58.49203],[11.37899,58.49189],[11.37627,58.49152],[11.37497,58.49125],[11.37258,58.49036],[11.37059,58.49024],[11.36772,58.48949],[11.36679,58.48952],[11.36647,58.48889],[11.3639,58.48978],[11.36256,58.48915],[11.35902,58.48849],[11.35763,58.48772],[11.35359,58.48767],[11.34217,58.48525],[11.33744,58.48553],[11.32621,58.48164],[11.32087,58.4795],[11.3156,58.47903],[11.30641,58.47576],[11.29552,58.47458],[11.2925,58.47147],[11.2824,58.47014],[11.27833,58.46813],[11.27397,58.46678],[11.262,58.46565],[11.24735,58.45829],[11.24025,58.45558],[11.23843,58.45145],[11.23607,58.44868],[11.21901,58.44888],[11.21406,58.44762],[11.13841,58.44786],[10.67864,58.44677],[10.67098,58.45533],[10.66572,58.46173],[10.66089,58.46822],[10.6565,58.47479],[10.65254,58.48144],[10.64903,58.48816],[10.64596,58.49493],[10.64335,58.50176],[10.6412,58.50864],[10.6395,58.51554],[10.5935,58.76217],[10.60579,58.79742],[10.69925,58.79819],[11.02594,58.79875],[11.06106,58.79532],[11.1047,58.81835]],[[11.26578,58.66198],[11.27279,58.66266],[11.27469,58.66311],[11.27845,58.66443],[11.28047,58.66545],[11.28194,58.6667],[11.28487,58.66779],[11.28632,58.66857],[11.28831,58.67029],[11.2891,58.67165],[11.28901,58.67382],[11.28769,58.67627],[11.28634,58.67768],[11.28573,58.67925],[11.28322,58.68196],[11.28075,58.68333],[11.28096,58.685],[11.28036,58.68641],[11.27913,58.68768],[11.27722,58.68883],[11.27863,58.69018],[11.27927,58.69159],[11.27913,58.6938],[11.27846,58.69533],[11.27677,58.69694],[11.274,58.69828],[11.27068,58.69908],[11.2673,58.69929],[11.26751,58.70114],[11.26693,58.70252],[11.26568,58.70381],[11.26333,58.70511],[11.26093,58.70585],[11.25831,58.70624],[11.25553,58.70627],[11.25332,58.70603],[11.25301,58.70696],[11.25321,58.70915],[11.25265,58.71084],[11.25175,58.7122],[11.25214,58.71347],[11.25191,58.71485],[11.2507,58.71647],[11.24848,58.71786],[11.24587,58.71873],[11.24306,58.72033],[11.23941,58.72129],[11.22796,58.72216],[11.2258,58.72216],[11.22305,58.72183],[11.22038,58.7211],[11.21819,58.72007],[11.21665,58.71884],[11.21569,58.71737],[11.2155,58.71591],[11.21601,58.71447],[11.21719,58.71314],[11.21867,58.71214],[11.21835,58.71115],[11.21846,58.70994],[11.20922,58.70421],[11.20413,58.70402],[11.20537,58.69952],[11.20659,58.69897],[11.20848,58.69717],[11.21069,58.69345],[11.21235,58.68737],[11.22234,58.68633],[11.22886,58.68488],[11.22895,58.68335],[11.2305,58.6823],[11.23846,58.68091],[11.24018,58.6797],[11.2399,58.67789],[11.24497,58.6759],[11.24817,58.67411],[11.25228,58.66899],[11.2573,58.66421],[11.26073,58.66264],[11.26317,58.66214],[11.26578,58.66198]]]}},{"type":"Feature","id":"1435R003","properties":{"code":"1435R003","name":"Tanums landsbygd"},"geometry":{"type":"Polygon","coordinates":[[[11.63225,58.90832],[11.63355,58.90835],[11.63396,58.90818],[11.652,58.90623],[11.65849,58.90678],[11.66078,58.90652],[11.66867,58.89964],[11.6689,58.89888],[11.6696,58.89862],[11.67105,58.89869],[11.67161,58.89838],[11.67321,58.89867],[11.67383,58.89848],[11.67494,58.89732],[11.67689,58.8967],[11.6777,58.896],[11.67705,58.8938],[11.67661,58.89357],[11.6761,58.89235],[11.67581,58.89021],[11.67256,58.88847],[11.67023,58.88648],[11.67876,58.88064],[11.68218,58.875],[11.68906,58.87373],[11.69146,58.87486],[11.69394,58.87542],[11.69497,58.87609],[11.69953,58.87565],[11.70007,58.87417],[11.70091,58.87347],[11.70749,58.86952],[11.70271,58.8679],[11.70163,58.86725],[11.70283,58.86554],[11.70254,58.8644],[11.70191,58.86378],[11.70421,58.86172],[11.70532,58.86226],[11.70584,58.86284],[11.70647,58.86291],[11.70654,58.86185],[11.70704,58.86167],[11.70813,58.86026],[11.70891,58.85988],[11.71019,58.85872],[11.7102,58.85831],[11.70958,58.85786],[11.7078,58.85782],[11.70728,58.85764],[11.70735,58.85724],[11.70919,58.85683],[11.70853,58.85615],[11.70851,58.85561],[11.70883,58.85555],[11.71019,58.85596],[11.71096,58.85599],[11.71176,58.85578],[11.71321,58.85478],[11.71251,58.8526],[11.71099,58.85189],[11.7109,58.8513],[11.71166,58.85094],[11.7129,58.85103],[11.71506,58.84942],[11.71193,58.84759],[11.70749,58.84612],[11.70614,58.84454],[11.70353,58.84374],[11.7028,58.84129],[11.71137,58.83584],[11.71689,58.82976],[11.72051,58.82728],[11.71934,58.82308],[11.7176,58.82144],[11.71438,58.81596],[11.71491,58.81475],[11.71091,58.81078],[11.72529,58.80017],[11.72201,58.78639],[11.7245,58.78166],[11.72246,58.77898],[11.72291,58.77844],[11.72295,58.77752],[11.72251,58.7769],[11.72146,58.77664],[11.72096,58.77598],[11.72123,58.77461],[11.72335,58.77133],[11.71854,58.76027],[11.71038,58.75786],[11.70851,58.74189],[11.70701,58.73567],[11.70419,58.72859],[11.702,58.72833],[11.70094,58.72738],[11.69775,58.72285],[11.69757,58.71754],[11.69895,58.71322],[11.698,58.71153],[11.69922,58.71113],[11.70099,58.70989],[11.70097,58.70736],[11.69987,58.70732],[11.69806,58.70774],[11.69576,58.70786],[11.69259,58.70614],[11.69009,58.70517],[11.68698,58.70326],[11.68493,58.70138],[11.6849,58.70104],[11.68519,58.70094],[11.68462,58.70084],[11.68237,58.69954],[11.68316,58.69924],[11.68344,58.69814],[11.68402,58.69843],[11.68457,58.69826],[11.685,58.69841],[11.68514,58.69821],[11.68957,58.69893],[11.69335,58.69903],[11.69382,58.69817],[11.69386,58.69653],[11.68567,58.69344],[11.68521,58.69296],[11.68545,58.6927],[11.68233,58.69187],[11.68051,58.6897],[11.68087,58.6867],[11.67993,58.68476],[11.67918,58.67914],[11.67925,58.67454],[11.67864,58.67212],[11.68503,58.67085],[11.69008,58.66183],[11.69082,58.65916],[11.6957,58.65426],[11.69497,58.65343],[11.69331,58.65258],[11.69271,58.65176],[11.6919,58.65157],[11.69048,58.6506],[11.68721,58.64937],[11.68674,58.64886],[11.68701,58.64828],[11.68679,58.64806],[11.68376,58.64685],[11.6832,58.64689],[11.68214,58.64645],[11.68201,58.6457],[11.68168,58.6456],[11.68146,58.64349],[11.68109,58.64328],[11.68155,58.6419],[11.68112,58.64138],[11.68113,58.64059],[11.6807,58.63982],[11.6809,58.6386],[11.67844,58.63619],[11.6756,58.63477],[11.67481,58.6338],[11.67136,58.63191],[11.67054,58.63238],[11.6702,58.63424],[11.66891,58.63577],[11.66723,58.6367],[11.66702,58.63736],[11.66631,58.63763],[11.66556,58.63758],[11.66215,58.63532],[11.66101,58.63489],[11.64342,58.63837],[11.64003,58.63799],[11.63909,58.63762],[11.63518,58.63685],[11.63343,58.63713],[11.63237,58.63768],[11.63203,58.63805],[11.63217,58.63853],[11.63049,58.63953],[11.62719,58.63976],[11.6279,58.64079],[11.62777,58.64167],[11.62413,58.64354],[11.62388,58.6441],[11.62437,58.64421],[11.62448,58.64443],[11.62249,58.64669],[11.6191,58.64782],[11.61618,58.64706],[11.59824,58.64965],[11.58602,58.65563],[11.58296,58.65572],[11.57918,58.65671],[11.57907,58.65736],[11.57841,58.65768],[11.57757,58.65762],[11.57764,58.65711],[11.5766,58.65666],[11.5748,58.6587],[11.57442,58.65883],[11.57382,58.65859],[11.57283,58.65918],[11.57272,58.6587],[11.57221,58.65906],[11.5724,58.65933],[11.57155,58.65917],[11.57109,58.65955],[11.57099,58.66026],[11.56601,58.66131],[11.56495,58.66546],[11.55931,58.66732],[11.55506,58.66425],[11.55429,58.66408],[11.55144,58.6638],[11.54918,58.66395],[11.54923,58.6641],[11.5483,58.66419],[11.54732,58.66416],[11.5468,58.66438],[11.54641,58.66514],[11.54534,58.66572],[11.54388,58.66495],[11.54358,58.66433],[11.54176,58.66426],[11.54139,58.66376],[11.54138,58.66281],[11.54256,58.66139],[11.54259,58.66083],[11.5432,58.66067],[11.54369,58.65893],[11.54349,58.65801],[11.54301,58.65746],[11.54306,58.65671],[11.54221,58.6557],[11.54122,58.65583],[11.54033,58.65566],[11.53739,58.65572],[11.53757,58.65609],[11.5367,58.65646],[11.52943,58.65596],[11.53029,58.65429],[11.5303,58.6525],[11.52789,58.65151],[11.52606,58.64983],[11.52448,58.64923],[11.52425,58.64896],[11.5247,58.6483],[11.52399,58.64799],[11.52349,58.64731],[11.52366,58.64702],[11.52314,58.64621],[11.52356,58.64606],[11.52336,58.64544],[11.52275,58.64492],[11.52104,58.64423],[11.51888,58.64301],[11.51569,58.63945],[11.51995,58.62524],[11.52313,58.62041],[11.52662,58.61977],[11.52097,58.60965],[11.51813,58.60572],[11.51478,58.60626],[11.50931,58.60293],[11.50538,58.60197],[11.49609,58.59121],[11.48965,58.5862],[11.48935,58.5846],[11.4941,58.57952],[11.49599,58.57912],[11.50003,58.57772],[11.49841,58.57712],[11.49788,58.57638],[11.4979,58.57552],[11.49667,58.57513],[11.49668,58.57433],[11.49552,58.57268],[11.49566,58.57209],[11.49521,58.57197],[11.49567,58.57123],[11.49572,58.56956],[11.49696,58.56863],[11.49789,58.56856],[11.49778,58.56711],[11.49891,58.56562],[11.50143,58.5643],[11.50283,58.56397],[11.49933,58.55795],[11.49992,58.55742],[11.49959,58.55648],[11.49984,58.55539],[11.49859,58.55442],[11.50256,58.55313],[11.50635,58.55157],[11.50625,58.5514],[11.50704,58.55067],[11.50753,58.55058],[11.5071,58.54916],[11.50538,58.54758],[11.50345,58.54739],[11.50316,58.54718],[11.50344,58.54613],[11.50278,58.54603],[11.50277,58.54509],[11.50328,58.54449],[11.50306,58.5443],[11.50219,58.54441],[11.49989,58.54382],[11.49839,58.54258],[11.498,58.54175],[11.49687,58.54131],[11.49365,58.54096],[11.49094,58.53905],[11.48891,58.53948],[11.48847,58.53747],[11.48504,58.53884],[11.47969,58.53918],[11.47241,58.53715],[11.47074,58.53765],[11.46668,58.53559],[11.46568,58.5337],[11.46515,58.53147],[11.45334,58.53212],[11.45241,58.53232],[11.45119,58.53296],[11.44464,58.53476],[11.44201,58.53609],[11.4373,58.53232],[11.43412,58.53129],[11.43422,58.53156],[11.43259,58.53232],[11.43161,58.53241],[11.43113,58.53266],[11.42839,58.53323],[11.42482,58.53454],[11.42217,58.53509],[11.42316,58.53618],[11.42308,58.53642],[11.42145,58.53681],[11.42136,58.53759],[11.41634,58.53745],[11.41498,58.5379],[11.41476,58.5385],[11.4116,58.5386],[11.41058,58.5391],[11.40607,58.5373],[11.40935,58.53196],[11.4092,58.52992],[11.40618,58.53018],[11.40658,58.53259],[11.40695,58.53262],[11.40571,58.53313],[11.40398,58.53329],[11.40342,58.53256],[11.40216,58.5335],[11.38965,58.5311],[11.38478,58.53278],[11.31234,58.54545],[11.31022,58.54428],[11.3085,58.54514],[11.30774,58.54915],[11.30406,58.54937],[11.30306,58.55629],[11.30487,58.55708],[11.30736,58.5661],[11.30705,58.5664],[11.30435,58.56616],[11.2951,58.56443],[11.29425,58.56479],[11.29222,58.56443],[11.28919,58.5657],[11.2859,58.56814],[11.28259,58.56951],[11.28104,58.57414],[11.28406,58.57768],[11.29187,58.58088],[11.30467,58.58495],[11.30756,58.58551],[11.31368,58.58796],[11.31421,58.58721],[11.31476,58.5875],[11.31568,58.58747],[11.31672,58.58963],[11.31663,58.59135],[11.31544,58.5938],[11.31447,58.59426],[11.31454,58.59448],[11.31555,58.59428],[11.31711,58.59429],[11.31669,58.59511],[11.31621,58.5952],[11.31621,58.59585],[11.31596,58.59591],[11.31561,58.59567],[11.31494,58.59614],[11.31228,58.59653],[11.31102,58.59693],[11.31104,58.59877],[11.3223,58.60433],[11.32263,58.60389],[11.32473,58.6027],[11.32522,58.60261],[11.32916,58.60387],[11.33159,58.60596],[11.33135,58.60608],[11.33296,58.60729],[11.33257,58.60774],[11.33277,58.6083],[11.33194,58.60979],[11.33293,58.60922],[11.33371,58.60905],[11.33423,58.60958],[11.33369,58.60993],[11.33411,58.61004],[11.33458,58.611],[11.33533,58.61142],[11.33564,58.61232],[11.33534,58.61253],[11.33548,58.61285],[11.33578,58.6129],[11.33598,58.61352],[11.33633,58.6136],[11.33589,58.61371],[11.33603,58.61386],[11.33559,58.61421],[11.33576,58.61452],[11.33551,58.61452],[11.33533,58.61541],[11.34692,58.623],[11.34157,58.62545],[11.3437,58.6269],[11.34442,58.62712],[11.34555,58.6273],[11.3472,58.6272],[11.34897,58.62758],[11.35151,58.62782],[11.35479,58.62925],[11.35371,58.63045],[11.35242,58.6311],[11.35106,58.63288],[11.36093,58.63791],[11.36516,58.63979],[11.35678,58.64601],[11.34659,58.65207],[11.35515,58.66113],[11.35496,58.66272],[11.35413,58.66447],[11.35033,58.66707],[11.34717,58.67063],[11.34639,58.6702],[11.34443,58.67115],[11.34284,58.67104],[11.33972,58.6713],[11.33471,58.67277],[11.33272,58.67353],[11.3259,58.6783],[11.31512,58.67512],[11.31454,58.6792],[11.31933,58.683],[11.30666,58.69933],[11.30823,58.6999],[11.30575,58.70293],[11.3132,58.70471],[11.30882,58.709],[11.30764,58.71335],[11.30338,58.71587],[11.30114,58.7138],[11.29752,58.71295],[11.29159,58.71024],[11.28816,58.71334],[11.28526,58.71412],[11.27855,58.71516],[11.27835,58.71564],[11.26997,58.71862],[11.26827,58.71869],[11.25673,58.72248],[11.24886,58.72604],[11.2479,58.72974],[11.24717,58.73107],[11.24675,58.73177],[11.2442,58.73384],[11.24412,58.73616],[11.24275,58.73747],[11.24251,58.73871],[11.24009,58.74076],[11.23708,58.74128],[11.23091,58.74415],[11.22648,58.74466],[11.2229,58.74785],[11.21801,58.75069],[11.21451,58.75325],[11.20918,58.75589],[11.20309,58.75783],[11.20158,58.75598],[11.2013,58.761],[11.20062,58.76294],[11.19622,58.76458],[11.19567,58.76587],[11.19631,58.76875],[11.19201,58.7716],[11.18599,58.77099],[11.185,58.77454],[11.18118,58.77793],[11.17457,58.77887],[11.17672,58.7836],[11.17561,58.7853],[11.17598,58.78852],[11.17685,58.78983],[11.1723,58.78962],[11.16961,58.79248],[11.16667,58.79345],[11.16287,58.79661],[11.16019,58.79733],[11.15197,58.8026],[11.15242,58.80452],[11.14315,58.81104],[11.15302,58.81546],[11.16006,58.81562],[11.16855,58.81781],[11.18021,58.82362],[11.18623,58.82547],[11.18665,58.82558],[11.19568,58.82523],[11.20032,58.82788],[11.20467,58.82845],[11.20867,58.83234],[11.21077,58.83327],[11.21293,58.83357],[11.21271,58.83498],[11.20895,58.83588],[11.21371,58.8381],[11.21832,58.83752],[11.22347,58.83792],[11.22203,58.84074],[11.25731,58.84869],[11.26069,58.84978],[11.26098,58.84934],[11.26057,58.84931],[11.26049,58.84887],[11.26091,58.84851],[11.26013,58.84821],[11.26053,58.84777],[11.26087,58.84813],[11.2614,58.848],[11.26073,58.8477],[11.26084,58.84745],[11.26437,58.84796],[11.26699,58.84782],[11.26687,58.84679],[11.26724,58.84679],[11.26768,58.84605],[11.26665,58.84591],[11.26571,58.84606],[11.26391,58.84599],[11.26258,58.84523],[11.25802,58.8443],[11.25712,58.84491],[11.24711,58.84246],[11.23749,58.83892],[11.23501,58.83619],[11.23252,58.83588],[11.22473,58.83684],[11.22433,58.83506],[11.22665,58.83368],[11.23094,58.83324],[11.23046,58.83076],[11.23235,58.8302],[11.24202,58.83163],[11.25544,58.8365],[11.25622,58.83627],[11.26258,58.8364],[11.26458,58.83605],[11.26708,58.8363],[11.26584,58.83834],[11.2651,58.84054],[11.26614,58.84132],[11.26937,58.84244],[11.26982,58.84224],[11.27361,58.84291],[11.28639,58.84291],[11.28941,58.84433],[11.29044,58.84659],[11.29436,58.84911],[11.2925,58.85059],[11.29768,58.85257],[11.29817,58.85166],[11.3045,58.85111],[11.30911,58.84852],[11.31469,58.84731],[11.31976,58.84684],[11.32418,58.84621],[11.32748,58.84627],[11.32897,58.846],[11.33175,58.845],[11.33832,58.85196],[11.34253,58.85704],[11.34915,58.8643],[11.36294,58.86176],[11.36354,58.86216],[11.3642,58.86211],[11.36505,58.86145],[11.3658,58.86173],[11.36559,58.86117],[11.3665,58.86095],[11.36659,58.86053],[11.3662,58.86002],[11.36531,58.85986],[11.36519,58.85906],[11.36639,58.85857],[11.36762,58.85838],[11.36781,58.85808],[11.3673,58.85737],[11.36811,58.85739],[11.36863,58.85709],[11.36883,58.85685],[11.36842,58.85658],[11.36894,58.856],[11.37057,58.85577],[11.36985,58.85554],[11.37033,58.85527],[11.37021,58.85449],[11.37097,58.85464],[11.37216,58.85458],[11.37228,58.85424],[11.37158,58.85446],[11.37133,58.85411],[11.37266,58.85366],[11.37307,58.8533],[11.37297,58.85311],[11.37205,58.85365],[11.37142,58.85372],[11.37145,58.85301],[11.37246,58.85299],[11.37198,58.85239],[11.37135,58.85228],[11.37112,58.85165],[11.37215,58.85169],[11.3726,58.85214],[11.37353,58.85205],[11.37392,58.85148],[11.37275,58.85139],[11.37251,58.851],[11.37273,58.85091],[11.37327,58.85116],[11.37389,58.85115],[11.3738,58.85074],[11.37435,58.85018],[11.37486,58.85022],[11.37522,58.85046],[11.37611,58.85041],[11.37565,58.85002],[11.37478,58.84986],[11.37541,58.84942],[11.37607,58.84966],[11.37666,58.84952],[11.37735,58.85],[11.3781,58.84961],[11.37732,58.84966],[11.37713,58.84948],[11.37777,58.84871],[11.37856,58.849],[11.37972,58.84885],[11.37955,58.84865],[11.37879,58.84867],[11.3793,58.84848],[11.37931,58.84814],[11.37848,58.84787],[11.37775,58.84705],[11.37626,58.84657],[11.37655,58.84612],[11.37471,58.84427],[11.37294,58.84047],[11.38703,58.842],[11.38688,58.84175],[11.3875,58.84165],[11.38715,58.84133],[11.38729,58.84101],[11.38794,58.84103],[11.38829,58.84082],[11.38833,58.84033],[11.38864,58.84019],[11.38895,58.84027],[11.38904,58.8401],[11.39009,58.84005],[11.39571,58.84168],[11.39721,58.84612],[11.44267,58.86537],[11.45629,58.86897],[11.45756,58.87107],[11.45365,58.87655],[11.45623,58.88581],[11.45548,58.88601],[11.45745,58.88844],[11.46068,58.88966],[11.48292,58.89146],[11.48927,58.89077],[11.4917,58.88912],[11.49796,58.88891],[11.50011,58.88938],[11.51219,58.88332],[11.51385,58.88285],[11.51419,58.88176],[11.51532,58.88134],[11.51614,58.88159],[11.51676,58.88139],[11.51717,58.88106],[11.51651,58.88027],[11.5169,58.87984],[11.51774,58.87948],[11.51931,58.87921],[11.52186,58.87833],[11.52391,58.87821],[11.52504,58.87776],[11.52529,58.87739],[11.52637,58.87689],[11.52916,58.87708],[11.52965,58.87762],[11.53084,58.87795],[11.53135,58.87793],[11.5312,58.87854],[11.5318,58.87848],[11.53293,58.87915],[11.53393,58.87891],[11.53444,58.87856],[11.5351,58.8785],[11.53641,58.87736],[11.53741,58.87742],[11.53735,58.87814],[11.53841,58.8787],[11.53861,58.87907],[11.53828,58.87956],[11.53897,58.88021],[11.53865,58.88268],[11.53819,58.88291],[11.5381,58.8833],[11.53436,58.88484],[11.53371,58.88607],[11.53466,58.88599],[11.53454,58.88559],[11.53486,58.88536],[11.53624,58.88547],[11.53727,58.88616],[11.53892,58.88624],[11.53987,58.88667],[11.53985,58.88761],[11.54061,58.88834],[11.542,58.88806],[11.54242,58.88818],[11.54274,58.88952],[11.54392,58.89008],[11.54483,58.89209],[11.54627,58.89293],[11.5455,58.89343],[11.54534,58.89402],[11.54747,58.89564],[11.54892,58.89541],[11.5489,58.8957],[11.54944,58.89612],[11.54906,58.89674],[11.55043,58.89699],[11.55129,58.89823],[11.55234,58.89788],[11.55307,58.89809],[11.55265,58.89834],[11.55329,58.89862],[11.5534,58.89893],[11.55581,58.8988],[11.55587,58.89844],[11.55767,58.89806],[11.5588,58.8972],[11.5608,58.89637],[11.56142,58.89551],[11.56347,58.89392],[11.56418,58.89246],[11.56509,58.89206],[11.5679,58.88985],[11.56991,58.88894],[11.57007,58.88856],[11.57097,58.88833],[11.57109,58.8881],[11.57249,58.88783],[11.57278,58.88829],[11.57332,58.88846],[11.5736,58.88986],[11.57443,58.89039],[11.57468,58.89115],[11.57519,58.89141],[11.57617,58.89578],[11.5767,58.89637],[11.57669,58.89677],[11.57787,58.89728],[11.57782,58.89749],[11.57951,58.89695],[11.57936,58.89673],[11.57998,58.896],[11.58075,58.8957],[11.58136,58.89573],[11.58187,58.89511],[11.58173,58.89471],[11.58268,58.8941],[11.58403,58.89445],[11.58444,58.89435],[11.58485,58.89458],[11.58787,58.89215],[11.59063,58.89072],[11.60707,58.89795],[11.62631,58.90548],[11.62983,58.90764],[11.63013,58.90849],[11.63117,58.90866],[11.63225,58.90832]],[[11.31074,58.71785],[11.316,58.71537],[11.31792,58.71478],[11.31709,58.71326],[11.31717,58.71148],[11.31774,58.71044],[11.31886,58.70928],[11.31929,58.70779],[11.31996,58.70674],[11.32171,58.70519],[11.32399,58.70407],[11.32708,58.70326],[11.33069,58.70297],[11.33411,58.70326],[11.33769,58.70424],[11.33939,58.70505],[11.34074,58.706],[11.34489,58.70587],[11.34691,58.70612],[11.34936,58.70671],[11.35213,58.70768],[11.35451,58.70912],[11.35583,58.71079],[11.35617,58.71241],[11.35555,58.71418],[11.35425,58.71553],[11.35402,58.71667],[11.35731,58.71798],[11.35921,58.71948],[11.36022,58.72149],[11.35984,58.72372],[11.35726,58.72646],[11.3554,58.72769],[11.35042,58.72964],[11.34841,58.73006],[11.34624,58.73028],[11.34364,58.73215],[11.34042,58.73366],[11.33806,58.73438],[11.33468,58.73482],[11.33169,58.73481],[11.32899,58.73449],[11.32475,58.735],[11.32147,58.7349],[11.31926,58.73538],[11.31656,58.73559],[11.31142,58.73516],[11.30948,58.73475],[11.3067,58.73382],[11.30326,58.73187],[11.29957,58.73032],[11.29711,58.72804],[11.29656,58.72591],[11.29758,58.72383],[11.30071,58.72143],[11.30402,58.72019],[11.30696,58.71953],[11.30883,58.71931],[11.31074,58.71785]]]}},{"type":"Feature","id":"1435R004","properties":{"code":"1435R004","name":"Tanumshede"},"geometry":{"type":"Polygon","coordinates":[[[11.31651,58.73559],[11.31926,58.73538],[11.32147,58.7349],[11.32475,58.735],[11.32899,58.73449],[11.33169,58.73481],[11.33468,58.73482],[11.33871,58.73423],[11.34046,58.73364],[11.34367,58.73213],[11.34624,58.73028],[11.34841,58.73006],[11.35042,58.72964],[11.3554,58.72769],[11.35726,58.72646],[11.35984,58.72372],[11.36022,58.72149],[11.35921,58.71948],[11.35731,58.71798],[11.35402,58.71667],[11.35425,58.71553],[11.35555,58.71418],[11.35617,58.71241],[11.35566,58.71046],[11.35415,58.70884],[11.35161,58.70747],[11.34757,58.70625],[11.34423,58.70584],[11.34074,58.706],[11.33939,58.70505],[11.33769,58.70424],[11.33551,58.70355],[11.33348,58.70316],[11.33003,58.70297],[11.32708,58.70326],[11.32399,58.70407],[11.32184,58.70511],[11.31996,58.70674],[11.31929,58.70779],[11.31886,58.70928],[11.31774,58.71044],[11.31717,58.71148],[11.31709,58.71326],[11.31792,58.71478],[11.31548,58.71558],[11.31327,58.7168],[11.31121,58.71761],[11.30883,58.71931],[11.30696,58.71953],[11.30402,58.72019],[11.30117,58.72119],[11.29824,58.7232],[11.29688,58.72485],[11.29654,58.72628],[11.29692,58.72771],[11.29838,58.72943],[11.30005,58.73059],[11.30326,58.73187],[11.3062,58.7336],[11.30888,58.73457],[11.31211,58.73526],[11.31651,58.73559]]]}}]}