{"type":"FeatureCollection","features":[{"type":"Feature","id":"1441R001","properties":{"code":"1441R001","name":"Aggetorp-Björboholm"},"geometry":{"type":"Polygon","coordinates":[[[12.32701,57.88846],[12.32975,57.8883],[12.33233,57.88779],[12.33468,57.88692],[12.34747,57.88315],[12.34827,57.87591],[12.34814,57.86836],[12.34403,57.86456],[12.33628,57.86337],[12.33672,57.86237],[12.33688,57.86035],[12.33641,57.85901],[12.33562,57.85802],[12.33411,57.85691],[12.3323,57.85606],[12.33,57.85539],[12.32756,57.85506],[12.32532,57.85107],[12.32366,57.84963],[12.32157,57.8486],[12.32082,57.84741],[12.31943,57.84624],[12.31881,57.8472],[12.31626,57.84769],[12.31427,57.84763],[12.3112,57.84931],[12.30888,57.84963],[12.30723,57.84956],[12.30415,57.84808],[12.29701,57.84629],[12.29196,57.84367],[12.28902,57.84241],[12.28673,57.84177],[12.27702,57.83782],[12.27318,57.83667],[12.26728,57.83586],[12.26727,57.83756],[12.26782,57.83891],[12.26874,57.83996],[12.27074,57.84144],[12.26907,57.84243],[12.26781,57.84372],[12.26704,57.84537],[12.2671,57.84679],[12.26426,57.84812],[12.2631,57.84907],[12.26222,57.85019],[12.2618,57.8513],[12.26172,57.85317],[12.26214,57.85436],[12.26324,57.85571],[12.26562,57.8572],[12.26716,57.85867],[12.2696,57.85989],[12.27269,57.86066],[12.27648,57.86117],[12.27884,57.86129],[12.27794,57.86336],[12.27833,57.86513],[12.27978,57.86677],[12.2826,57.86827],[12.288,57.86951],[12.29057,57.86966],[12.29404,57.86955],[12.30021,57.87083],[12.30399,57.87106],[12.30486,57.87234],[12.30606,57.87346],[12.306,57.87483],[12.30659,57.87626],[12.30783,57.87757],[12.31001,57.87884],[12.31151,57.88061],[12.31167,57.88248],[12.31326,57.88446],[12.31608,57.88596],[12.31957,57.88684],[12.32159,57.88765],[12.32411,57.88823],[12.32701,57.88846]]]}},{"type":"Feature","id":"1441R002","properties":{"code":"1441R002","name":"Aspenäs"},"geometry":{"type":"Polygon","coordinates":[[[12.23448,57.79554],[12.23585,57.79523],[12.23759,57.79553],[12.24033,57.79557],[12.2436,57.79511],[12.24659,57.79408],[12.24902,57.79242],[12.25183,57.79153],[12.2568,57.78936],[12.26083,57.78976],[12.26096,57.78951],[12.26036,57.78938],[12.2673,57.77876],[12.2654,57.77875],[12.265,57.77858],[12.26399,57.77768],[12.26427,57.77659],[12.26497,57.77614],[12.26507,57.77517],[12.26648,57.77431],[12.26909,57.77147],[12.26915,57.77091],[12.26599,57.77077],[12.26587,57.77097],[12.26023,57.77058],[12.26105,57.76923],[12.26048,57.76916],[12.26054,57.76886],[12.25924,57.7685],[12.25785,57.76723],[12.25703,57.76701],[12.2549,57.76578],[12.25344,57.7655],[12.23706,57.76432],[12.22625,57.75881],[12.21862,57.75731],[12.21108,57.75514],[12.20208,57.75465],[12.19457,57.7533],[12.19508,57.75835],[12.19207,57.7611],[12.18285,57.7677],[12.17367,57.77594],[12.18345,57.78],[12.201,57.78494],[12.20361,57.78615],[12.20273,57.78689],[12.20384,57.78884],[12.20735,57.78994],[12.20775,57.78939],[12.20856,57.78919],[12.208,57.78987],[12.2083,57.79001],[12.2111,57.7901],[12.21077,57.79073],[12.20949,57.79186],[12.20937,57.79234],[12.21081,57.79276],[12.21239,57.79095],[12.21287,57.79081],[12.2142,57.79103],[12.21481,57.79133],[12.21541,57.79313],[12.21665,57.79417],[12.21749,57.79401],[12.21848,57.79321],[12.21943,57.79296],[12.22022,57.79333],[12.22262,57.79343],[12.2232,57.79319],[12.22991,57.79451],[12.23132,57.7946],[12.23141,57.79492],[12.23216,57.79542],[12.23448,57.79554]]]}},{"type":"Feature","id":"1441R003","properties":{"code":"1441R003","name":"Floda"},"geometry":{"type":"Polygon","coordinates":[[[12.35742,57.81398],[12.3602,57.81159],[12.36055,57.81019],[12.36107,57.80997],[12.36192,57.81045],[12.36298,57.81014],[12.3626,57.80935],[12.36404,57.80976],[12.36698,57.81233],[12.3687,57.8133],[12.37357,57.81523],[12.37667,57.81862],[12.38111,57.81994],[12.38485,57.81998],[12.38479,57.81829],[12.38885,57.81664],[12.39207,57.81428],[12.39315,57.81238],[12.39311,57.81072],[12.39479,57.80945],[12.39201,57.80914],[12.38502,57.80787],[12.38214,57.80756],[12.38029,57.80708],[12.36807,57.80255],[12.36649,57.8028],[12.36578,57.80314],[12.36455,57.80166],[12.36302,57.80067],[12.35321,57.79537],[12.35144,57.79468],[12.34943,57.79811],[12.34858,57.79793],[12.34716,57.80054],[12.34595,57.8014],[12.34686,57.80209],[12.34973,57.80337],[12.34987,57.80403],[12.35258,57.80448],[12.3557,57.80575],[12.3551,57.80617],[12.35461,57.80591],[12.35383,57.80689],[12.35287,57.80687],[12.35229,57.80733],[12.35318,57.80751],[12.35501,57.80832],[12.35473,57.80933],[12.35398,57.81035],[12.35422,57.81042],[12.35323,57.81108],[12.35297,57.81378],[12.35154,57.81534],[12.35222,57.81588],[12.35044,57.81762],[12.3509,57.81863],[12.34746,57.81949],[12.35025,57.82123],[12.35316,57.81897],[12.35558,57.81863],[12.35707,57.81631],[12.35695,57.81559],[12.35742,57.81398]]]}},{"type":"Feature","id":"1441R004","properties":{"code":"1441R004","name":"Gråbo"},"geometry":{"type":"Polygon","coordinates":[[[12.3096,57.84955],[12.3112,57.84931],[12.31427,57.84763],[12.31626,57.84769],[12.31881,57.8472],[12.31943,57.84624],[12.31778,57.8454],[12.31966,57.84367],[12.31838,57.84194],[12.31642,57.8407],[12.31483,57.84008],[12.30159,57.83756],[12.30346,57.83465],[12.2991,57.83382],[12.29872,57.83404],[12.29375,57.83453],[12.29136,57.83427],[12.2911,57.83545],[12.28673,57.84177],[12.28902,57.84241],[12.29196,57.84367],[12.29701,57.84629],[12.30415,57.84808],[12.30723,57.84956],[12.3096,57.84955]]]}},{"type":"Feature","id":"1441R005","properties":{"code":"1441R005","name":"Hulan-Södra Lerum"},"geometry":{"type":"Polygon","coordinates":[[[12.32198,57.783],[12.32268,57.78296],[12.32252,57.78324],[12.32345,57.78298],[12.32491,57.78292],[12.32697,57.78236],[12.32807,57.78253],[12.33058,57.78167],[12.33398,57.7817],[12.33594,57.78291],[12.33607,57.7837],[12.33917,57.78397],[12.34558,57.7774],[12.34829,57.77769],[12.34875,57.77737],[12.34705,57.77718],[12.35928,57.76531],[12.35831,57.7628],[12.357,57.7614],[12.35572,57.7605],[12.35291,57.75934],[12.34891,57.75867],[12.34541,57.75875],[12.34206,57.75941],[12.33986,57.76028],[12.33804,57.7615],[12.33483,57.7625],[12.32941,57.76521],[12.32679,57.76689],[12.32516,57.76888],[12.31977,57.7701],[12.3178,57.77099],[12.31631,57.77208],[12.3159,57.77173],[12.31605,57.77044],[12.31572,57.76931],[12.31619,57.76798],[12.31605,57.76657],[12.31522,57.76519],[12.3138,57.76399],[12.31233,57.76321],[12.31028,57.76246],[12.30492,57.76123],[12.30204,57.76084],[12.29909,57.76087],[12.29765,57.75992],[12.29643,57.75864],[12.29759,57.75717],[12.29793,57.75611],[12.29784,57.75489],[12.29894,57.75359],[12.29946,57.7522],[12.29959,57.74869],[12.29916,57.74764],[12.29826,57.74652],[12.30049,57.7457],[12.30224,57.7446],[12.30373,57.74285],[12.30422,57.74169],[12.30007,57.74115],[12.30003,57.74146],[12.30151,57.74221],[12.30002,57.74415],[12.29655,57.74276],[12.29194,57.74225],[12.27516,57.74453],[12.27286,57.74435],[12.26591,57.7464],[12.26401,57.74775],[12.26133,57.74682],[12.2609,57.74631],[12.25987,57.74613],[12.25787,57.74715],[12.25682,57.74823],[12.25613,57.74817],[12.25546,57.74897],[12.25252,57.75096],[12.25489,57.75163],[12.25393,57.75398],[12.25333,57.75449],[12.25111,57.75497],[12.25157,57.75533],[12.25119,57.75549],[12.25144,57.75639],[12.25759,57.76211],[12.2608,57.76419],[12.26595,57.7669],[12.26745,57.7674],[12.26797,57.76811],[12.27215,57.7695],[12.27456,57.76972],[12.27687,57.77057],[12.27838,57.77057],[12.283,57.77121],[12.28318,57.77109],[12.28359,57.77125],[12.28359,57.77149],[12.28536,57.77129],[12.28803,57.77211],[12.29241,57.77284],[12.29191,57.77327],[12.29346,57.77372],[12.2933,57.77394],[12.29647,57.77509],[12.30086,57.77725],[12.30822,57.77983],[12.31119,57.78028],[12.31384,57.78118],[12.31603,57.78255],[12.31787,57.78283],[12.31909,57.78403],[12.32182,57.78328],[12.32198,57.783]]]}},{"type":"Feature","id":"1441R006","properties":{"code":"1441R006","name":"Jeriko-Bråta-Öxeryd"},"geometry":{"type":"Polygon","coordinates":[[[12.25393,57.75398],[12.25489,57.75163],[12.25252,57.75096],[12.25546,57.74897],[12.25613,57.74817],[12.25682,57.74823],[12.25787,57.74715],[12.25987,57.74613],[12.2609,57.74631],[12.26133,57.74682],[12.26401,57.74775],[12.26591,57.7464],[12.27286,57.74435],[12.27516,57.74453],[12.29194,57.74225],[12.29655,57.74276],[12.30002,57.74415],[12.30151,57.74221],[12.30003,57.74146],[12.30007,57.74115],[12.30422,57.74169],[12.30411,57.73998],[12.30302,57.73834],[12.29541,57.73311],[12.29276,57.73215],[12.29013,57.73172],[12.28969,57.73145],[12.29003,57.73083],[12.28139,57.73043],[12.28278,57.72358],[12.27555,57.72468],[12.27503,57.72737],[12.27338,57.72679],[12.27043,57.7271],[12.26741,57.7269],[12.26644,57.72831],[12.26645,57.72907],[12.26414,57.72872],[12.25827,57.72698],[12.25722,57.72928],[12.22491,57.7276],[12.18507,57.73547],[12.18006,57.75031],[12.18024,57.75067],[12.18114,57.75081],[12.18285,57.75034],[12.18449,57.75039],[12.18648,57.75097],[12.18982,57.75288],[12.19457,57.7533],[12.20208,57.75465],[12.21108,57.75514],[12.21862,57.75731],[12.22625,57.75881],[12.23706,57.76432],[12.24442,57.75694],[12.25144,57.75639],[12.25119,57.75549],[12.25157,57.75533],[12.25111,57.75497],[12.25333,57.75449],[12.25393,57.75398]]]}},{"type":"Feature","id":"1441R007","properties":{"code":"1441R007","name":"Lerum-Hallsås"},"geometry":{"type":"Polygon","coordinates":[[[12.29166,57.79039],[12.29367,57.79017],[12.294,57.78967],[12.29412,57.78901],[12.29376,57.78794],[12.29294,57.78721],[12.29221,57.78558],[12.29282,57.78219],[12.2944,57.78123],[12.29524,57.78111],[12.29405,57.78049],[12.29587,57.77906],[12.2976,57.77931],[12.29845,57.77907],[12.29913,57.77826],[12.30096,57.77882],[12.30252,57.77906],[12.3031,57.77808],[12.2991,57.77646],[12.29647,57.77509],[12.2933,57.77394],[12.29346,57.77372],[12.29191,57.77327],[12.29241,57.77284],[12.28803,57.77211],[12.28536,57.77129],[12.28359,57.77149],[12.28359,57.77125],[12.28318,57.77109],[12.283,57.77121],[12.27838,57.77057],[12.27687,57.77057],[12.27456,57.76972],[12.27215,57.7695],[12.26797,57.76811],[12.26745,57.7674],[12.26595,57.7669],[12.2608,57.76419],[12.25759,57.76211],[12.25144,57.75639],[12.24442,57.75694],[12.23706,57.76432],[12.25344,57.7655],[12.2549,57.76578],[12.25703,57.76701],[12.25785,57.76723],[12.25924,57.7685],[12.26054,57.76886],[12.26048,57.76916],[12.26105,57.76923],[12.26023,57.77058],[12.26587,57.77097],[12.26599,57.77077],[12.26915,57.77091],[12.26909,57.77147],[12.26648,57.77431],[12.26507,57.77517],[12.26497,57.77614],[12.26427,57.77659],[12.26399,57.77768],[12.265,57.77858],[12.2654,57.77875],[12.2673,57.77876],[12.26036,57.78938],[12.26096,57.78951],[12.26083,57.78976],[12.2632,57.78973],[12.26768,57.79109],[12.26986,57.79278],[12.27257,57.79383],[12.27508,57.79431],[12.28013,57.79483],[12.28367,57.79459],[12.28687,57.79375],[12.2893,57.7925],[12.29166,57.79039]]]}},{"type":"Feature","id":"1441R008","properties":{"code":"1441R008","name":"Lerums Kommuns omland"},"geometry":{"type":"Polygon","coordinates":[[[12.35832,57.97462],[12.36224,57.97609],[12.36454,57.97585],[12.36657,57.97489],[12.36465,57.9734],[12.36506,57.97278],[12.36361,57.97043],[12.36976,57.96889],[12.37124,57.96935],[12.37206,57.97005],[12.37456,57.97043],[12.3764,57.96979],[12.38031,57.97079],[12.38547,57.97117],[12.3753,57.96628],[12.36956,57.96433],[12.36364,57.96182],[12.35465,57.95667],[12.35771,57.95249],[12.34125,57.94845],[12.34166,57.94739],[12.34967,57.9488],[12.35479,57.94709],[12.35574,57.94195],[12.36226,57.94146],[12.36264,57.94077],[12.36241,57.94037],[12.36326,57.9396],[12.36163,57.93898],[12.36195,57.93873],[12.36178,57.93852],[12.36367,57.9381],[12.36458,57.93924],[12.3663,57.93946],[12.36943,57.93931],[12.37363,57.94134],[12.37502,57.94106],[12.38168,57.93744],[12.38318,57.93701],[12.38328,57.93662],[12.38467,57.93566],[12.38655,57.9355],[12.38785,57.93602],[12.39779,57.9335],[12.39943,57.93063],[12.4121,57.92856],[12.40867,57.91996],[12.39886,57.91297],[12.39566,57.9058],[12.40544,57.89495],[12.3879,57.89559],[12.39741,57.87675],[12.43296,57.88502],[12.44258,57.89035],[12.44576,57.8847],[12.44289,57.8807],[12.44197,57.87584],[12.44242,57.8749],[12.44187,57.87474],[12.44257,57.87392],[12.44312,57.87382],[12.4445,57.87127],[12.44479,57.87129],[12.44546,57.87021],[12.4456,57.8663],[12.44346,57.86335],[12.44205,57.86253],[12.43941,57.85971],[12.43354,57.8553],[12.4337,57.85254],[12.4419,57.84455],[12.43696,57.84224],[12.43106,57.83899],[12.42559,57.82957],[12.42934,57.82848],[12.43206,57.82632],[12.43076,57.82661],[12.42835,57.82785],[12.42579,57.82857],[12.42265,57.82891],[12.41947,57.82871],[12.41611,57.828],[12.41178,57.82616],[12.40993,57.82507],[12.40662,57.82245],[12.40557,57.82076],[12.40552,57.81841],[12.40631,57.81701],[12.40892,57.81434],[12.40891,57.81295],[12.40964,57.81133],[12.41119,57.80985],[12.41174,57.80865],[12.41273,57.80754],[12.41398,57.80664],[12.41566,57.80582],[12.41805,57.80508],[12.42027,57.80472],[12.42245,57.8046],[12.42631,57.80476],[12.43035,57.80514],[12.43385,57.80616],[12.43572,57.80721],[12.43708,57.80856],[12.44038,57.80967],[12.44283,57.81134],[12.44504,57.81233],[12.44721,57.81416],[12.44822,57.81392],[12.44642,57.81296],[12.44564,57.81153],[12.44573,57.81077],[12.44459,57.80983],[12.44316,57.80802],[12.44391,57.80739],[12.44419,57.8055],[12.4455,57.80442],[12.44987,57.80216],[12.45637,57.79917],[12.47253,57.7861],[12.47317,57.78601],[12.47474,57.78654],[12.47496,57.78701],[12.47453,57.78851],[12.47506,57.78879],[12.4751,57.78947],[12.47558,57.7901],[12.47789,57.79163],[12.47828,57.79295],[12.48072,57.79353],[12.48407,57.7938],[12.4844,57.79206],[12.48948,57.78935],[12.48449,57.77652],[12.4804,57.77304],[12.47822,57.77363],[12.47533,57.77191],[12.47351,57.76918],[12.47342,57.76852],[12.47384,57.76775],[12.46761,57.76308],[12.45768,57.75507],[12.45647,57.75333],[12.45957,57.74906],[12.45609,57.7483],[12.45431,57.74847],[12.45319,57.74757],[12.45185,57.74694],[12.45069,57.74688],[12.44993,57.74661],[12.44736,57.74653],[12.44672,57.74635],[12.4464,57.7454],[12.44426,57.74377],[12.44239,57.74275],[12.44123,57.74103],[12.4376,57.73943],[12.43455,57.73967],[12.42765,57.73617],[12.43019,57.73427],[12.43217,57.73415],[12.43304,57.73364],[12.42756,57.7313],[12.42697,57.73156],[12.42363,57.73057],[12.42228,57.73149],[12.42087,57.73152],[12.42045,57.73176],[12.41629,57.72978],[12.40829,57.73065],[12.40122,57.73219],[12.40055,57.73293],[12.39927,57.73292],[12.3985,57.73251],[12.39439,57.73258],[12.38235,57.73418],[12.33516,57.73301],[12.30479,57.73162],[12.30483,57.72996],[12.30297,57.72973],[12.30313,57.72414],[12.29777,57.72578],[12.29611,57.72669],[12.29447,57.72715],[12.29307,57.72842],[12.29087,57.72889],[12.2905,57.72925],[12.29067,57.72977],[12.29194,57.73092],[12.29003,57.73083],[12.28969,57.73145],[12.29013,57.73172],[12.29217,57.73202],[12.29389,57.73248],[12.29628,57.73361],[12.30033,57.73666],[12.3027,57.73805],[12.30379,57.7393],[12.30422,57.74035],[12.30409,57.74213],[12.3029,57.74398],[12.30099,57.74544],[12.29826,57.74652],[12.29916,57.74764],[12.29959,57.74869],[12.29946,57.7522],[12.29894,57.75359],[12.29784,57.75489],[12.29793,57.75611],[12.29759,57.75717],[12.29643,57.75864],[12.29765,57.75992],[12.29909,57.76087],[12.30204,57.76084],[12.30492,57.76123],[12.31028,57.76246],[12.31233,57.76321],[12.3138,57.76399],[12.31522,57.76519],[12.31605,57.76657],[12.31619,57.76798],[12.31572,57.76931],[12.31605,57.77044],[12.3159,57.77173],[12.31631,57.77208],[12.3178,57.77099],[12.31977,57.7701],[12.32516,57.76888],[12.32679,57.76689],[12.32941,57.76521],[12.33449,57.76265],[12.33804,57.7615],[12.33986,57.76028],[12.34263,57.75925],[12.34615,57.75868],[12.35035,57.75881],[12.35361,57.75957],[12.35654,57.76103],[12.35859,57.76321],[12.35909,57.76518],[12.36033,57.76616],[12.36133,57.76752],[12.36199,57.77074],[12.36192,57.77182],[12.36114,57.77332],[12.36075,57.77505],[12.35966,57.77647],[12.35756,57.77788],[12.35486,57.77886],[12.35377,57.7802],[12.35186,57.7815],[12.3557,57.78217],[12.35853,57.78333],[12.36052,57.78488],[12.36128,57.78603],[12.36159,57.78729],[12.36274,57.78794],[12.36397,57.78816],[12.36708,57.78832],[12.36907,57.78868],[12.37123,57.78831],[12.37324,57.7882],[12.37703,57.78853],[12.38007,57.78935],[12.38475,57.79169],[12.38632,57.79284],[12.38727,57.79403],[12.38777,57.79545],[12.38768,57.79655],[12.39053,57.79804],[12.392,57.79927],[12.39272,57.80033],[12.39306,57.8018],[12.39579,57.80526],[12.39611,57.80671],[12.39589,57.80782],[12.39497,57.80927],[12.39311,57.81072],[12.39315,57.81238],[12.39241,57.81387],[12.39134,57.81496],[12.38885,57.81664],[12.38479,57.81829],[12.38471,57.82053],[12.38348,57.82231],[12.38184,57.82349],[12.37914,57.82459],[12.3766,57.82594],[12.37359,57.82672],[12.36989,57.82714],[12.3692,57.82845],[12.36749,57.83011],[12.36454,57.83166],[12.36246,57.83239],[12.35991,57.8329],[12.35404,57.8333],[12.35138,57.83318],[12.34882,57.8327],[12.34661,57.8319],[12.3442,57.83047],[12.34187,57.82954],[12.34002,57.82828],[12.33854,57.82671],[12.33791,57.82518],[12.33821,57.82308],[12.33914,57.82135],[12.33768,57.82032],[12.3364,57.8188],[12.33415,57.81836],[12.33234,57.81776],[12.32852,57.81556],[12.3269,57.81398],[12.32624,57.8119],[12.32189,57.81244],[12.31964,57.81329],[12.31519,57.81428],[12.31102,57.8145],[12.3077,57.81406],[12.30478,57.81313],[12.30234,57.81291],[12.30037,57.8125],[12.29845,57.81185],[12.29651,57.81081],[12.29538,57.80986],[12.29446,57.80849],[12.29371,57.80639],[12.29394,57.80467],[12.29092,57.80247],[12.28958,57.80047],[12.28963,57.79842],[12.29023,57.79703],[12.29149,57.79575],[12.29331,57.79461],[12.29018,57.79177],[12.28834,57.79309],[12.28562,57.79416],[12.28225,57.79476],[12.27876,57.79477],[12.27445,57.79422],[12.27196,57.79365],[12.26939,57.79251],[12.26768,57.79109],[12.2632,57.78973],[12.25978,57.78974],[12.2568,57.78936],[12.25183,57.79153],[12.24902,57.79242],[12.24719,57.79377],[12.2449,57.79475],[12.24097,57.79552],[12.23721,57.7955],[12.24161,57.79636],[12.22448,57.8109],[12.21441,57.81384],[12.21355,57.81388],[12.21041,57.81281],[12.20471,57.816],[12.20462,57.81636],[12.20584,57.8163],[12.20605,57.81646],[12.20531,57.81657],[12.20602,57.81672],[12.20579,57.81696],[12.20606,57.81749],[12.20501,57.8198],[12.20351,57.82096],[12.20042,57.82252],[12.19986,57.82371],[12.19919,57.82399],[12.19878,57.82455],[12.19376,57.8257],[12.19196,57.83425],[12.17015,57.85568],[12.15658,57.85998],[12.15514,57.86067],[12.15355,57.86096],[12.1512,57.86172],[12.14845,57.8631],[12.14744,57.86323],[12.14618,57.86404],[12.14605,57.8648],[12.14636,57.86544],[12.14603,57.86563],[12.1953,57.87523],[12.19746,57.87379],[12.1998,57.87422],[12.20043,57.87489],[12.1994,57.87591],[12.24137,57.88286],[12.24292,57.88248],[12.24715,57.88333],[12.24675,57.8838],[12.2494,57.88441],[12.29212,57.89322],[12.29966,57.89641],[12.30421,57.90119],[12.30325,57.90147],[12.30239,57.90151],[12.30103,57.90206],[12.30055,57.90458],[12.30189,57.90504],[12.30405,57.90429],[12.30643,57.90518],[12.30387,57.9068],[12.30076,57.90765],[12.3,57.90732],[12.29885,57.91339],[12.29779,57.91416],[12.29714,57.9143],[12.29361,57.91634],[12.2935,57.92],[12.29099,57.92119],[12.2908,57.9221],[12.29352,57.92488],[12.29467,57.92505],[12.29567,57.92552],[12.29673,57.92441],[12.31251,57.96579],[12.32628,57.96909],[12.33205,57.97068],[12.35232,57.97892],[12.35832,57.97462]],[[12.36579,57.92643],[12.36233,57.92596],[12.35899,57.92476],[12.35688,57.92323],[12.35516,57.92073],[12.35432,57.9176],[12.3535,57.91651],[12.35309,57.91506],[12.35406,57.91119],[12.35357,57.90982],[12.35358,57.90858],[12.3548,57.90612],[12.35589,57.90482],[12.3571,57.90396],[12.35913,57.90304],[12.36097,57.90252],[12.36396,57.90193],[12.36596,57.90175],[12.36799,57.90178],[12.37049,57.9021],[12.37369,57.90071],[12.37674,57.90011],[12.3793,57.90001],[12.38215,57.90028],[12.38449,57.90086],[12.3869,57.90198],[12.38862,57.90359],[12.39046,57.90488],[12.39166,57.90669],[12.39197,57.90805],[12.39175,57.90922],[12.39119,57.9102],[12.39002,57.91132],[12.39098,57.91261],[12.39139,57.91444],[12.39001,57.91872],[12.38737,57.92114],[12.38438,57.92259],[12.38128,57.92326],[12.37743,57.92354],[12.37378,57.92526],[12.37119,57.92599],[12.36854,57.92637],[12.36579,57.92643]],[[12.32619,57.88843],[12.3229,57.888],[12.31957,57.88684],[12.31666,57.88615],[12.31456,57.88529],[12.31326,57.88446],[12.31167,57.88248],[12.31151,57.88061],[12.31001,57.87884],[12.30783,57.87757],[12.30659,57.87626],[12.306,57.87483],[12.30606,57.87346],[12.30486,57.87234],[12.30399,57.87106],[12.30021,57.87083],[12.29404,57.86955],[12.29057,57.86966],[12.288,57.86951],[12.2826,57.86827],[12.27978,57.86677],[12.27833,57.86513],[12.27794,57.86336],[12.27884,57.86129],[12.27648,57.86117],[12.27269,57.86066],[12.2696,57.85989],[12.26716,57.85867],[12.26562,57.8572],[12.26324,57.85571],[12.26214,57.85436],[12.26172,57.85317],[12.2618,57.8513],[12.26222,57.85019],[12.2631,57.84907],[12.26426,57.84812],[12.2671,57.84679],[12.26704,57.84537],[12.26781,57.84372],[12.26907,57.84243],[12.27074,57.84144],[12.26871,57.83994],[12.26762,57.83858],[12.26723,57.83722],[12.26739,57.83513],[12.2644,57.83352],[12.2629,57.83167],[12.25929,57.83193],[12.25621,57.83248],[12.25311,57.83251],[12.25144,57.83324],[12.24931,57.8353],[12.2476,57.83636],[12.24547,57.83715],[12.24303,57.83764],[12.23931,57.83784],[12.23669,57.83763],[12.23373,57.83689],[12.23138,57.83571],[12.23006,57.83451],[12.22939,57.8333],[12.22734,57.83234],[12.22555,57.83083],[12.22469,57.82873],[12.22484,57.82765],[12.22541,57.82655],[12.22367,57.82559],[12.22256,57.82464],[12.22041,57.82187],[12.21985,57.82076],[12.21967,57.81901],[12.22029,57.8176],[12.22155,57.81633],[12.22388,57.81505],[12.22689,57.81421],[12.23188,57.81368],[12.23454,57.81376],[12.23772,57.8143],[12.24058,57.81419],[12.24401,57.81459],[12.24738,57.81326],[12.24941,57.81285],[12.25149,57.81267],[12.25773,57.81272],[12.25976,57.81303],[12.26173,57.81356],[12.26425,57.8124],[12.26657,57.8117],[12.2692,57.81132],[12.27237,57.81128],[12.27559,57.81177],[12.27889,57.81306],[12.28458,57.81421],[12.28682,57.815],[12.28812,57.81568],[12.29101,57.81663],[12.29344,57.81808],[12.29468,57.81952],[12.29835,57.82148],[12.29997,57.82309],[12.30557,57.82289],[12.30675,57.82151],[12.30889,57.82017],[12.31175,57.81924],[12.31442,57.81886],[12.31708,57.81885],[12.32081,57.81935],[12.32396,57.82026],[12.32634,57.82152],[12.32739,57.82247],[12.3282,57.82382],[12.32817,57.82627],[12.32933,57.82744],[12.32991,57.82853],[12.33012,57.82975],[12.3299,57.83087],[12.32853,57.83292],[12.32643,57.83436],[12.32607,57.83634],[12.32432,57.83845],[12.32348,57.84042],[12.32212,57.84169],[12.32022,57.84275],[12.3194,57.84398],[12.31778,57.8454],[12.32019,57.8468],[12.32157,57.8486],[12.32321,57.84936],[12.3248,57.85053],[12.32589,57.85185],[12.32649,57.85352],[12.32756,57.85506],[12.33,57.85539],[12.3323,57.85606],[12.33411,57.85691],[12.33562,57.85802],[12.33641,57.85901],[12.33688,57.86035],[12.33672,57.86237],[12.33628,57.86337],[12.34403,57.86456],[12.34814,57.86836],[12.34827,57.87591],[12.34747,57.88315],[12.33468,57.88692],[12.33175,57.88794],[12.32912,57.88837],[12.32619,57.88843]]]}},{"type":"Feature","id":"1441R009","properties":{"code":"1441R009","name":"Ryggebol-Södra Floda"},"geometry":{"type":"Polygon","coordinates":[[[12.39556,57.80483],[12.39306,57.8018],[12.39272,57.80033],[12.392,57.79927],[12.39053,57.79804],[12.38768,57.79655],[12.38777,57.79545],[12.38727,57.79402],[12.386,57.79254],[12.3843,57.79144],[12.38007,57.78935],[12.37703,57.78853],[12.37324,57.7882],[12.37123,57.78831],[12.36907,57.78868],[12.36708,57.78832],[12.36397,57.78816],[12.36274,57.78794],[12.36159,57.78729],[12.36128,57.78603],[12.36052,57.78488],[12.35853,57.78333],[12.3557,57.78217],[12.35186,57.7815],[12.35377,57.7802],[12.35486,57.77886],[12.35693,57.77817],[12.35896,57.77704],[12.35996,57.77617],[12.3608,57.77495],[12.36114,57.77332],[12.36192,57.77182],[12.36199,57.77074],[12.36133,57.76752],[12.36062,57.76646],[12.35928,57.76531],[12.34705,57.77718],[12.34875,57.77737],[12.34829,57.77769],[12.34558,57.7774],[12.33917,57.78397],[12.33607,57.7837],[12.33594,57.78291],[12.33398,57.7817],[12.33058,57.78167],[12.32807,57.78253],[12.32697,57.78236],[12.32491,57.78292],[12.32345,57.78298],[12.32252,57.78324],[12.32268,57.78296],[12.32198,57.783],[12.32182,57.78328],[12.31909,57.78403],[12.31787,57.78283],[12.31559,57.78617],[12.31735,57.78618],[12.32001,57.7871],[12.32146,57.78811],[12.32145,57.78862],[12.32219,57.78901],[12.32321,57.7904],[12.3232,57.79077],[12.32483,57.79104],[12.32609,57.79146],[12.3284,57.79407],[12.32728,57.79477],[12.32845,57.79576],[12.32846,57.79625],[12.33086,57.79702],[12.33155,57.79787],[12.33256,57.79807],[12.33297,57.79794],[12.33389,57.79825],[12.33288,57.79909],[12.33289,57.7994],[12.33332,57.79963],[12.33643,57.79938],[12.33817,57.79994],[12.33951,57.79999],[12.3403,57.80045],[12.34183,57.80048],[12.34361,57.80101],[12.34595,57.8014],[12.34716,57.80054],[12.34858,57.79793],[12.34943,57.79811],[12.35144,57.79468],[12.35321,57.79537],[12.36302,57.80067],[12.36455,57.80166],[12.36578,57.80314],[12.36649,57.8028],[12.36807,57.80255],[12.38029,57.80708],[12.38214,57.80756],[12.38502,57.80787],[12.39201,57.80914],[12.39479,57.80945],[12.39589,57.80782],[12.39609,57.80637],[12.39556,57.80483]]]}},{"type":"Feature","id":"1441R010","properties":{"code":"1441R010","name":"Sjövik"},"geometry":{"type":"Polygon","coordinates":[[[12.36662,57.92645],[12.36937,57.92629],[12.37253,57.92567],[12.3743,57.92506],[12.37743,57.92354],[12.38128,57.92326],[12.38438,57.92259],[12.38737,57.92114],[12.39001,57.91872],[12.39139,57.91444],[12.39098,57.91261],[12.39002,57.91132],[12.39119,57.9102],[12.39175,57.90922],[12.39197,57.90805],[12.39166,57.90669],[12.39046,57.90488],[12.38862,57.90359],[12.3869,57.90198],[12.38449,57.90086],[12.38215,57.90028],[12.3793,57.90001],[12.37674,57.90011],[12.37369,57.90071],[12.37049,57.9021],[12.36799,57.90178],[12.36596,57.90175],[12.36396,57.90193],[12.36097,57.90252],[12.35913,57.90304],[12.3571,57.90396],[12.35589,57.90482],[12.3548,57.90612],[12.35358,57.90858],[12.35357,57.90982],[12.35406,57.91119],[12.35309,57.91506],[12.3535,57.91651],[12.35432,57.9176],[12.35516,57.92073],[12.35688,57.92323],[12.35899,57.92476],[12.3625,57.92599],[12.36662,57.92645]]]}},{"type":"Feature","id":"1441R011","properties":{"code":"1441R011","name":"Stannum-Olstorp-Södra Gråbo"},"geometry":{"type":"Polygon","coordinates":[[[12.32644,57.83444],[12.3281,57.83331],[12.32913,57.83226],[12.3299,57.83087],[12.33009,57.8293],[12.32954,57.82776],[12.32817,57.82627],[12.32836,57.82456],[12.32787,57.82314],[12.32673,57.82183],[12.32451,57.82049],[12.32146,57.8195],[12.31934,57.8191],[12.31639,57.81882],[12.31373,57.81892],[12.31116,57.81938],[12.30841,57.8204],[12.30672,57.82153],[12.30557,57.82289],[12.29997,57.82309],[12.29835,57.82148],[12.29468,57.81952],[12.29344,57.81808],[12.29116,57.81669],[12.28458,57.81421],[12.27889,57.81306],[12.27676,57.81211],[12.2743,57.81151],[12.27099,57.81124],[12.26722,57.81157],[12.26478,57.8122],[12.26173,57.81356],[12.25976,57.81303],[12.2571,57.81267],[12.25004,57.81278],[12.24681,57.81342],[12.24401,57.81459],[12.24058,57.81419],[12.23772,57.8143],[12.23522,57.81384],[12.23321,57.81367],[12.22818,57.81403],[12.22561,57.81449],[12.22286,57.81551],[12.22117,57.81664],[12.22007,57.81795],[12.21962,57.81972],[12.22041,57.82187],[12.22295,57.82502],[12.22541,57.82655],[12.22484,57.82765],[12.22469,57.82873],[12.22555,57.83083],[12.22734,57.83234],[12.22939,57.8333],[12.23033,57.83482],[12.23179,57.83597],[12.23376,57.8369],[12.23669,57.83763],[12.2406,57.83781],[12.24303,57.83764],[12.24489,57.8373],[12.24809,57.83611],[12.24931,57.8353],[12.25144,57.83324],[12.25311,57.83251],[12.25621,57.83248],[12.25929,57.83193],[12.2629,57.83167],[12.2644,57.83352],[12.26739,57.83513],[12.26728,57.83586],[12.27318,57.83667],[12.27702,57.83782],[12.28673,57.84177],[12.2911,57.83545],[12.29136,57.83427],[12.29375,57.83453],[12.29872,57.83404],[12.2991,57.83382],[12.30346,57.83465],[12.30159,57.83756],[12.31483,57.84008],[12.31642,57.8407],[12.31838,57.84194],[12.31966,57.84367],[12.32022,57.84275],[12.32212,57.84169],[12.32348,57.84042],[12.32432,57.83845],[12.32607,57.83634],[12.32644,57.83444]]]}},{"type":"Feature","id":"1441R012","properties":{"code":"1441R012","name":"Stenkullen"},"geometry":{"type":"Polygon","coordinates":[[[12.31184,57.81452],[12.3158,57.81417],[12.31964,57.81329],[12.32189,57.81244],[12.32608,57.81193],[12.32714,57.80955],[12.32849,57.80823],[12.32432,57.80583],[12.32771,57.80615],[12.33086,57.80349],[12.33079,57.80293],[12.32996,57.80227],[12.32867,57.80182],[12.32792,57.80213],[12.32704,57.80163],[12.32772,57.80141],[12.32507,57.79913],[12.32573,57.79713],[12.32558,57.79661],[12.32491,57.79614],[12.32499,57.79548],[12.32693,57.79571],[12.32761,57.79521],[12.32728,57.79477],[12.32745,57.79452],[12.3284,57.79407],[12.32609,57.79146],[12.32483,57.79104],[12.3232,57.79077],[12.32321,57.7904],[12.32219,57.78901],[12.32145,57.78862],[12.32146,57.78811],[12.32028,57.78726],[12.31735,57.78618],[12.31559,57.78617],[12.31787,57.78283],[12.31603,57.78255],[12.31384,57.78118],[12.31177,57.78047],[12.30872,57.77997],[12.3031,57.77808],[12.30252,57.77906],[12.30096,57.77882],[12.29913,57.77826],[12.29845,57.77907],[12.2976,57.77931],[12.29568,57.77912],[12.29405,57.78049],[12.29524,57.78111],[12.2944,57.78123],[12.29282,57.78219],[12.29221,57.78558],[12.29294,57.78721],[12.29376,57.78794],[12.29412,57.78901],[12.294,57.78967],[12.29367,57.79017],[12.29166,57.79039],[12.29081,57.79108],[12.2901,57.79185],[12.29331,57.79461],[12.29114,57.79604],[12.29003,57.79736],[12.28947,57.7994],[12.2897,57.80081],[12.29092,57.80247],[12.29394,57.80467],[12.29371,57.80639],[12.29446,57.80849],[12.29538,57.80986],[12.29692,57.81108],[12.29897,57.81205],[12.30113,57.81269],[12.30478,57.81313],[12.30832,57.81419],[12.31184,57.81452]]]}},{"type":"Feature","id":"1441R013","properties":{"code":"1441R013","name":"Tollered"},"geometry":{"type":"Polygon","coordinates":[[[12.42265,57.82891],[12.42518,57.82868],[12.42708,57.82826],[12.42888,57.82763],[12.43076,57.82661],[12.43206,57.82632],[12.44468,57.81668],[12.44598,57.81563],[12.44566,57.81558],[12.44611,57.81522],[12.44642,57.81528],[12.44692,57.81488],[12.44689,57.81426],[12.44721,57.81416],[12.44504,57.81233],[12.44283,57.81134],[12.44038,57.80967],[12.43708,57.80856],[12.43572,57.80721],[12.43334,57.80595],[12.42968,57.80504],[12.42245,57.8046],[12.41943,57.80482],[12.4169,57.80538],[12.41456,57.80632],[12.41273,57.80754],[12.41174,57.80865],[12.41119,57.80985],[12.40941,57.81168],[12.40891,57.81295],[12.40892,57.81434],[12.40606,57.81733],[12.40537,57.81953],[12.40569,57.82109],[12.40655,57.82238],[12.41131,57.82592],[12.41488,57.82755],[12.41668,57.82817],[12.4201,57.82879],[12.42265,57.82891]]]}},{"type":"Feature","id":"1441R014","properties":{"code":"1441R014","name":"Uddared-Drängsered"},"geometry":{"type":"Polygon","coordinates":[[[12.3527,57.83329],[12.35928,57.83297],[12.36124,57.83268],[12.36503,57.83144],[12.36709,57.83038],[12.36819,57.82954],[12.3692,57.82845],[12.36989,57.82714],[12.37359,57.82672],[12.37602,57.82614],[12.38184,57.82349],[12.38377,57.82201],[12.38485,57.81998],[12.38111,57.81994],[12.37667,57.81862],[12.37357,57.81523],[12.3687,57.8133],[12.36698,57.81233],[12.36404,57.80976],[12.3626,57.80935],[12.36298,57.81014],[12.36192,57.81045],[12.36107,57.80997],[12.36055,57.81019],[12.3602,57.81159],[12.35742,57.81398],[12.35695,57.81559],[12.35707,57.81631],[12.35558,57.81863],[12.35316,57.81897],[12.35025,57.82123],[12.34746,57.81949],[12.3509,57.81863],[12.35044,57.81762],[12.35222,57.81588],[12.35154,57.81534],[12.35297,57.81378],[12.35323,57.81108],[12.35422,57.81042],[12.35398,57.81035],[12.35473,57.80933],[12.35501,57.80832],[12.35318,57.80751],[12.35229,57.80733],[12.35287,57.80687],[12.35383,57.80689],[12.35461,57.80591],[12.3551,57.80617],[12.3557,57.80575],[12.35258,57.80448],[12.34987,57.80403],[12.34973,57.80337],[12.34686,57.80209],[12.34595,57.8014],[12.34361,57.80101],[12.34183,57.80048],[12.3403,57.80045],[12.33951,57.79999],[12.33817,57.79994],[12.33643,57.79938],[12.33332,57.79963],[12.33289,57.7994],[12.33288,57.79909],[12.33389,57.79825],[12.33297,57.79794],[12.33256,57.79807],[12.33155,57.79787],[12.33086,57.79702],[12.32869,57.79644],[12.32845,57.79576],[12.32761,57.79521],[12.32693,57.79571],[12.32499,57.79548],[12.32491,57.79614],[12.32558,57.79661],[12.32573,57.79713],[12.32507,57.79913],[12.32772,57.80141],[12.32704,57.80163],[12.32792,57.80213],[12.32867,57.80182],[12.32996,57.80227],[12.33057,57.80268],[12.33087,57.80327],[12.33086,57.80349],[12.32771,57.80615],[12.32432,57.80583],[12.32849,57.80823],[12.32714,57.80955],[12.32608,57.81193],[12.32714,57.8143],[12.32852,57.81556],[12.3317,57.81749],[12.33415,57.81836],[12.3364,57.8188],[12.33768,57.82032],[12.33914,57.82135],[12.33802,57.82372],[12.33799,57.82552],[12.33905,57.82733],[12.3413,57.82923],[12.3442,57.83047],[12.34661,57.8319],[12.34882,57.8327],[12.3527,57.83329]]]}}]}