{"type":"FeatureCollection","features":[{"type":"Feature","id":"1444R001","properties":{"code":"1444R001","name":"Grästorps omnejd"},"geometry":{"type":"Polygon","coordinates":[[[12.8493,58.42622],[12.84143,58.41314],[12.84336,58.4135],[12.84487,58.41337],[12.84434,58.4122],[12.845,58.41159],[12.84495,58.41132],[12.84425,58.41134],[12.84407,58.41082],[12.8387,58.40914],[12.83862,58.4087],[12.83855,58.40754],[12.83902,58.40674],[12.83906,58.40516],[12.84008,58.40301],[12.84119,58.40212],[12.84193,58.40068],[12.84207,58.39968],[12.84124,58.39975],[12.84062,58.39754],[12.84106,58.39715],[12.84089,58.39615],[12.84236,58.39508],[12.84254,58.39247],[12.84229,58.39158],[12.84385,58.38994],[12.8451,58.38818],[12.84525,58.38748],[12.83565,58.38462],[12.82883,58.38365],[12.82588,58.38278],[12.82265,58.3798],[12.81983,58.37806],[12.81746,58.37869],[12.81577,58.37699],[12.8164,58.37682],[12.81662,58.37623],[12.81756,58.37598],[12.81214,58.37069],[12.80324,58.36311],[12.80021,58.35985],[12.79744,58.35526],[12.79598,58.35357],[12.79476,58.35125],[12.79227,58.34991],[12.79084,58.34966],[12.79214,58.34139],[12.79457,58.34032],[12.79452,58.33914],[12.79607,58.33804],[12.79342,58.3355],[12.79279,58.33546],[12.79252,58.33566],[12.79215,58.33554],[12.79361,58.32508],[12.79554,58.31487],[12.79443,58.31389],[12.80207,58.31147],[12.79928,58.30812],[12.79962,58.30765],[12.80833,58.30561],[12.80878,58.30516],[12.81072,58.30443],[12.81293,58.30215],[12.81568,58.30127],[12.82696,58.30093],[12.83185,58.30113],[12.83093,58.29938],[12.82735,58.2972],[12.82546,58.29479],[12.82602,58.29402],[12.82553,58.29349],[12.8258,58.29201],[12.82735,58.2905],[12.82805,58.29027],[12.83142,58.29006],[12.83221,58.28967],[12.83125,58.28134],[12.82397,58.2813],[12.82171,58.28158],[12.81971,58.28135],[12.81923,58.27926],[12.8181,58.27699],[12.81508,58.27198],[12.81551,58.2707],[12.81064,58.27128],[12.8082,58.27208],[12.79489,58.2745],[12.79504,58.27494],[12.79365,58.27568],[12.78997,58.27674],[12.79427,58.27844],[12.79437,58.27833],[12.79569,58.27952],[12.79509,58.28042],[12.79416,58.28018],[12.79264,58.27934],[12.79106,58.27929],[12.78992,58.279],[12.78821,58.27897],[12.78621,58.27745],[12.77666,58.27944],[12.77223,58.27835],[12.76543,58.27775],[12.76113,58.27755],[12.7527,58.27622],[12.74995,58.27443],[12.74997,58.27385],[12.74662,58.27258],[12.74513,58.26763],[12.72975,58.27042],[12.7183,58.27329],[12.71071,58.2743],[12.70464,58.27425],[12.70094,58.27396],[12.69774,58.2843],[12.68758,58.28319],[12.68123,58.28219],[12.68157,58.28112],[12.68526,58.28165],[12.68554,58.2787],[12.68237,58.27862],[12.68352,58.27491],[12.68116,58.27448],[12.68042,58.27523],[12.67906,58.27475],[12.67007,58.27416],[12.67076,58.27335],[12.67239,58.27241],[12.67312,58.27136],[12.67403,58.27105],[12.67575,58.27084],[12.67557,58.26918],[12.67677,58.26699],[12.67842,58.26481],[12.67975,58.26376],[12.68008,58.26318],[12.67912,58.26211],[12.67937,58.25997],[12.67896,58.25859],[12.67747,58.25883],[12.6769,58.25862],[12.67593,58.25714],[12.67518,58.25691],[12.67499,58.25648],[12.67397,58.25617],[12.67336,58.25536],[12.67183,58.25441],[12.66925,58.25153],[12.66664,58.24986],[12.62819,58.23714],[12.62308,58.23468],[12.62153,58.23362],[12.62029,58.2337],[12.61966,58.23354],[12.61869,58.23417],[12.6181,58.2349],[12.61551,58.23485],[12.61095,58.23419],[12.60876,58.23136],[12.60673,58.23135],[12.60385,58.23194],[12.60239,58.23181],[12.59767,58.22774],[12.5982,58.22727],[12.59829,58.22614],[12.59795,58.22602],[12.59781,58.22524],[12.59631,58.22294],[12.59332,58.22104],[12.59253,58.22119],[12.59282,58.22263],[12.5914,58.22408],[12.5901,58.22525],[12.58881,58.22547],[12.58805,58.22516],[12.58767,58.22522],[12.57789,58.21858],[12.57094,58.22343],[12.55798,58.22855],[12.55144,58.23163],[12.54563,58.23588],[12.52846,58.23457],[12.53108,58.23672],[12.53983,58.24304],[12.54487,58.24926],[12.55204,58.25513],[12.55362,58.25945],[12.55657,58.26235],[12.55769,58.26406],[12.55872,58.26714],[12.56178,58.27116],[12.5687,58.27621],[12.57261,58.27937],[12.57707,58.28109],[12.58005,58.28285],[12.5747,58.28439],[12.56081,58.29285],[12.55593,58.29532],[12.54729,58.30021],[12.53535,58.30523],[12.53482,58.30601],[12.53543,58.30663],[12.53398,58.30728],[12.53338,58.30788],[12.53399,58.31143],[12.53383,58.3122],[12.53344,58.31265],[12.53168,58.31329],[12.53066,58.31319],[12.53025,58.31287],[12.52816,58.31302],[12.52652,58.31275],[12.52604,58.31287],[12.52597,58.31337],[12.52544,58.31325],[12.51898,58.31104],[12.51412,58.30974],[12.50982,58.30829],[12.50814,58.30707],[12.50275,58.30523],[12.49392,58.30279],[12.47932,58.30637],[12.47944,58.31557],[12.46631,58.33702],[12.4675,58.33686],[12.46964,58.3362],[12.47041,58.33648],[12.47178,58.33624],[12.47242,58.33584],[12.47301,58.33585],[12.47438,58.33543],[12.4753,58.3356],[12.47578,58.33528],[12.47713,58.33555],[12.47777,58.33592],[12.47767,58.33662],[12.47803,58.33686],[12.47958,58.33688],[12.48111,58.33714],[12.48194,58.33701],[12.48283,58.33753],[12.48317,58.33802],[12.4829,58.33878],[12.4832,58.33893],[12.48357,58.34012],[12.4828,58.34056],[12.48283,58.3416],[12.48252,58.34199],[12.48165,58.34226],[12.48192,58.34241],[12.48162,58.34295],[12.48063,58.3436],[12.47924,58.34326],[12.47778,58.34345],[12.47749,58.34381],[12.47576,58.34473],[12.47441,58.34416],[12.4743,58.34389],[12.47318,58.3433],[12.47042,58.343],[12.46899,58.34225],[12.46872,58.34177],[12.46833,58.34182],[12.46033,58.3392],[12.45934,58.33906],[12.44758,58.33953],[12.44408,58.33994],[12.44221,58.34113],[12.44052,58.34309],[12.44918,58.34831],[12.449,58.34921],[12.44766,58.34921],[12.4478,58.34939],[12.44874,58.3495],[12.44755,58.35008],[12.44726,58.35095],[12.44756,58.35144],[12.44811,58.35159],[12.44826,58.35116],[12.45388,58.35135],[12.45366,58.35235],[12.45465,58.35337],[12.45449,58.35392],[12.45383,58.35449],[12.45321,58.35437],[12.45274,58.3546],[12.45234,58.35443],[12.45189,58.35457],[12.45151,58.35447],[12.45058,58.35487],[12.44939,58.35511],[12.44752,58.35647],[12.45654,58.35775],[12.47918,58.36339],[12.4794,58.36317],[12.48426,58.36476],[12.48608,58.36477],[12.49066,58.36546],[12.49016,58.36714],[12.49215,58.36703],[12.51524,58.37626],[12.51694,58.3758],[12.51769,58.37536],[12.51806,58.37484],[12.51922,58.37454],[12.52033,58.37454],[12.5263,58.37581],[12.54185,58.37263],[12.55409,58.37234],[12.57471,58.37492],[12.58809,58.38254],[12.61285,58.39481],[12.62893,58.40645],[12.64613,58.41337],[12.65036,58.40822],[12.648,58.40656],[12.65707,58.40476],[12.65808,58.40516],[12.66028,58.40339],[12.66313,58.40394],[12.6659,58.40231],[12.66365,58.40121],[12.66829,58.39778],[12.67048,58.39566],[12.6752,58.39424],[12.67988,58.39346],[12.68846,58.39075],[12.69268,58.39018],[12.69394,58.38986],[12.69888,58.39443],[12.70555,58.39916],[12.72427,58.40494],[12.72645,58.4053],[12.73305,58.41047],[12.73445,58.41261],[12.73686,58.41317],[12.74241,58.41191],[12.74878,58.4108],[12.74842,58.41009],[12.74731,58.41021],[12.74685,58.40877],[12.74927,58.40829],[12.75867,58.40741],[12.76301,58.4068],[12.76594,58.40706],[12.76657,58.40747],[12.76653,58.40938],[12.77655,58.40869],[12.77711,58.41011],[12.78054,58.40929],[12.7842,58.41126],[12.78796,58.41175],[12.79204,58.41369],[12.79388,58.41431],[12.80442,58.41553],[12.80618,58.41629],[12.80986,58.41736],[12.81114,58.41757],[12.81501,58.41926],[12.81863,58.42019],[12.82299,58.4217],[12.82526,58.4227],[12.82663,58.42363],[12.8317,58.42571],[12.83335,58.42686],[12.83678,58.42577],[12.8394,58.42523],[12.84325,58.4268],[12.8446,58.43137],[12.8451,58.43226],[12.8459,58.43261],[12.84571,58.43271],[12.85388,58.43467],[12.85247,58.43023],[12.84838,58.4265],[12.8493,58.42622]],[[12.68033,58.34739],[12.67799,58.34668],[12.67651,58.34596],[12.67302,58.34691],[12.66879,58.34717],[12.66628,58.347],[12.66432,58.34668],[12.66092,58.34548],[12.65892,58.34403],[12.65561,58.34009],[12.65494,58.33835],[12.65465,58.3358],[12.65381,58.33452],[12.65346,58.3331],[12.65374,58.33164],[12.65441,58.33058],[12.65584,58.32932],[12.65814,58.32796],[12.65736,58.32659],[12.65728,58.32522],[12.65786,58.32389],[12.65945,58.3224],[12.66184,58.32125],[12.66789,58.31966],[12.66952,58.31846],[12.67157,58.31753],[12.67438,58.31679],[12.67707,58.31651],[12.68046,58.31666],[12.68359,58.31735],[12.68577,58.31813],[12.68765,58.31917],[12.69021,58.31959],[12.69203,58.32015],[12.69663,58.32258],[12.69823,58.32372],[12.69916,58.32488],[12.70197,58.32614],[12.7049,58.32863],[12.70575,58.33],[12.7059,58.33154],[12.70682,58.33265],[12.70734,58.33407],[12.70682,58.33618],[12.7045,58.33887],[12.70441,58.34096],[12.70386,58.3425],[12.70266,58.34382],[12.70071,58.34505],[12.69783,58.34605],[12.69588,58.3464],[12.69339,58.34655],[12.69137,58.34718],[12.68805,58.34783],[12.68467,58.34796],[12.68033,58.34739]]]}},{"type":"Feature","id":"1444R002","properties":{"code":"1444R002","name":"Grästorps samhälle"},"geometry":{"type":"Polygon","coordinates":[[[12.69593,58.34639],[12.69903,58.34572],[12.70117,58.34482],[12.703,58.34352],[12.70404,58.34217],[12.7045,58.33887],[12.70518,58.33783],[12.7068,58.33621],[12.70733,58.33479],[12.70716,58.33334],[12.7059,58.33154],[12.70586,58.33034],[12.70518,58.32897],[12.70237,58.32641],[12.701,58.3256],[12.69916,58.32488],[12.69823,58.32372],[12.69707,58.32283],[12.69199,58.32013],[12.69021,58.31959],[12.68765,58.31917],[12.68521,58.3179],[12.68113,58.31676],[12.67772,58.31649],[12.67372,58.31692],[12.67049,58.31796],[12.66737,58.31986],[12.66297,58.32091],[12.6608,58.32166],[12.65906,58.32268],[12.65786,58.32389],[12.65724,58.3259],[12.65814,58.32796],[12.65469,58.33027],[12.65374,58.33164],[12.65346,58.33276],[12.65381,58.33452],[12.65465,58.3358],[12.65505,58.33878],[12.6559,58.34054],[12.65892,58.34403],[12.66003,58.34495],[12.66251,58.34616],[12.66565,58.34692],[12.66879,58.34717],[12.67157,58.3471],[12.67424,58.34667],[12.67651,58.34596],[12.67852,58.34688],[12.68038,58.3474],[12.68333,58.34786],[12.68602,58.34798],[12.68935,58.34762],[12.69339,58.34655],[12.69593,58.34639]]]}}]}