{"type":"FeatureCollection","features":[{"type":"Feature","id":"1445R001","properties":{"code":"1445R001","name":"Främmestad omland"},"geometry":{"type":"Polygon","coordinates":[[[12.69774,58.2843],[12.70094,58.27396],[12.70464,58.27425],[12.71071,58.2743],[12.7183,58.27329],[12.72975,58.27042],[12.74513,58.26763],[12.74662,58.27258],[12.74997,58.27385],[12.74995,58.27443],[12.7527,58.27622],[12.76113,58.27755],[12.76543,58.27775],[12.77223,58.27835],[12.77666,58.27944],[12.78621,58.27745],[12.78821,58.27897],[12.78992,58.279],[12.79106,58.27929],[12.79264,58.27934],[12.79416,58.28018],[12.79509,58.28042],[12.79569,58.27952],[12.79437,58.27833],[12.79427,58.27844],[12.78997,58.27674],[12.79365,58.27568],[12.79504,58.27494],[12.79489,58.2745],[12.8082,58.27208],[12.81064,58.27128],[12.81519,58.2708],[12.81586,58.2704],[12.81456,58.26958],[12.81374,58.26965],[12.81323,58.26766],[12.81537,58.26755],[12.81572,58.26722],[12.81754,58.26752],[12.81765,58.26734],[12.8172,58.26535],[12.81703,58.26203],[12.81655,58.26113],[12.82123,58.26092],[12.82301,58.26113],[12.82312,58.26162],[12.82984,58.26095],[12.81946,58.25097],[12.82225,58.24932],[12.82208,58.24841],[12.82152,58.24762],[12.82001,58.24711],[12.81569,58.2462],[12.81565,58.24532],[12.81335,58.24387],[12.81356,58.24322],[12.81266,58.24165],[12.81134,58.2409],[12.81129,58.24055],[12.81074,58.2402],[12.80898,58.23962],[12.80598,58.24127],[12.80502,58.24085],[12.80358,58.23917],[12.80158,58.23504],[12.79944,58.23352],[12.79322,58.2303],[12.79015,58.22898],[12.78942,58.22837],[12.7933,58.22756],[12.79257,58.22213],[12.79331,58.22068],[12.79183,58.21884],[12.78789,58.21529],[12.77961,58.21651],[12.77845,58.21501],[12.78305,58.21392],[12.78335,58.21351],[12.78246,58.21232],[12.78293,58.21069],[12.74746,58.19874],[12.74567,58.19946],[12.74315,58.20007],[12.74042,58.20033],[12.73789,58.20026],[12.73446,58.20121],[12.73105,58.20147],[12.72703,58.20124],[12.72319,58.20043],[12.72038,58.2008],[12.71696,58.20072],[12.70771,58.19867],[12.7057,58.19776],[12.70403,58.19664],[12.70263,58.19533],[12.69945,58.19157],[12.69834,58.19093],[12.69506,58.18976],[12.69298,58.18828],[12.69127,58.18548],[12.69106,58.18369],[12.69225,58.18154],[12.69345,58.18056],[12.6951,58.17967],[12.69205,58.17883],[12.68926,58.1783],[12.68835,58.18111],[12.67656,58.18251],[12.67683,58.18361],[12.6764,58.18403],[12.67693,58.18633],[12.6744,58.18878],[12.67315,58.18914],[12.67046,58.18919],[12.66831,58.18835],[12.66627,58.18798],[12.66418,58.18696],[12.66269,58.18471],[12.66144,58.18464],[12.66028,58.18427],[12.65431,58.18494],[12.65386,58.18528],[12.65227,58.18554],[12.65156,58.18524],[12.61444,58.18928],[12.58634,58.19187],[12.5861,58.19193],[12.5867,58.19266],[12.58665,58.19458],[12.58331,58.19624],[12.58241,58.19634],[12.58152,58.19714],[12.57772,58.19787],[12.57629,58.198],[12.57291,58.19793],[12.5728,58.19695],[12.57413,58.19614],[12.57293,58.19497],[12.57181,58.19526],[12.56862,58.19532],[12.56734,58.1948],[12.5527,58.19621],[12.54966,58.19754],[12.54507,58.19692],[12.5442,58.19726],[12.54319,58.19713],[12.54266,58.19731],[12.54091,58.19693],[12.53966,58.19726],[12.54042,58.19731],[12.5405,58.19747],[12.5401,58.19765],[12.53957,58.19761],[12.53964,58.19817],[12.54019,58.19833],[12.53965,58.19858],[12.53985,58.19877],[12.53951,58.19896],[12.54008,58.1994],[12.53915,58.19972],[12.54029,58.19975],[12.54027,58.19998],[12.53955,58.20017],[12.53941,58.20041],[12.53969,58.20067],[12.54025,58.20045],[12.54039,58.20063],[12.5396,58.20107],[12.53909,58.20079],[12.53925,58.20123],[12.53872,58.20145],[12.53874,58.20163],[12.53962,58.20177],[12.54013,58.20238],[12.53948,58.20246],[12.53879,58.20287],[12.53825,58.20269],[12.53826,58.20304],[12.53773,58.20283],[12.53707,58.203],[12.53716,58.20337],[12.5367,58.20351],[12.53663,58.20375],[12.53618,58.20363],[12.53555,58.20399],[12.5352,58.20457],[12.53438,58.20446],[12.53497,58.20511],[12.53495,58.20523],[12.53453,58.20511],[12.53437,58.2054],[12.53502,58.20531],[12.5353,58.20551],[12.53468,58.20566],[12.53468,58.20625],[12.53391,58.20631],[12.53392,58.20649],[12.53453,58.20657],[12.53425,58.20689],[12.53363,58.20691],[12.53351,58.20732],[12.5329,58.20707],[12.53269,58.2072],[12.53349,58.20794],[12.53283,58.20801],[12.53325,58.2084],[12.53264,58.20861],[12.53247,58.20901],[12.53308,58.2094],[12.53383,58.2093],[12.53405,58.20941],[12.53278,58.20974],[12.53267,58.21004],[12.53466,58.21054],[12.53399,58.21086],[12.53407,58.21115],[12.53477,58.21109],[12.53495,58.21138],[12.53552,58.21119],[12.5352,58.2116],[12.53555,58.21233],[12.53446,58.21251],[12.5335,58.21222],[12.53337,58.21271],[12.53432,58.21299],[12.53349,58.21357],[12.53246,58.21329],[12.53219,58.21354],[12.5325,58.21392],[12.53166,58.21416],[12.53111,58.21381],[12.53086,58.21391],[12.5306,58.2148],[12.53155,58.21485],[12.53122,58.21517],[12.53054,58.21537],[12.53056,58.21584],[12.52966,58.21581],[12.52939,58.21619],[12.52885,58.21592],[12.52814,58.21667],[12.52732,58.21649],[12.52684,58.21674],[12.52608,58.21657],[12.5266,58.21618],[12.52635,58.21604],[12.52551,58.21667],[12.52492,58.21657],[12.5248,58.21685],[12.52428,58.2164],[12.52389,58.21678],[12.52445,58.21722],[12.52372,58.21737],[12.52364,58.21762],[12.5226,58.21734],[12.52267,58.21787],[12.52188,58.218],[12.52245,58.21851],[12.52296,58.21844],[12.52344,58.21858],[12.52303,58.21888],[12.52325,58.21916],[12.52392,58.2193],[12.52297,58.21964],[12.52321,58.21996],[12.52274,58.21989],[12.52255,58.22005],[12.52319,58.22025],[12.52309,58.22062],[12.52367,58.22077],[12.52371,58.22099],[12.52419,58.2209],[12.52441,58.22124],[12.5241,58.2218],[12.5253,58.22258],[12.52512,58.22325],[12.52626,58.22336],[12.52826,58.2242],[12.52823,58.22439],[12.52762,58.22461],[12.52693,58.22451],[12.52663,58.22505],[12.52552,58.22471],[12.52475,58.22495],[12.52465,58.22519],[12.52439,58.22476],[12.5231,58.22475],[12.52284,58.22493],[12.52307,58.22551],[12.52146,58.22591],[12.52196,58.22658],[12.52273,58.22695],[12.52247,58.22741],[12.52303,58.22739],[12.52355,58.2267],[12.52425,58.22708],[12.52381,58.2274],[12.52472,58.22787],[12.52374,58.22805],[12.52387,58.22822],[12.52483,58.22838],[12.52434,58.22894],[12.5251,58.22899],[12.52542,58.22858],[12.52593,58.22866],[12.52598,58.22888],[12.52552,58.2291],[12.52637,58.22987],[12.52586,58.23024],[12.52507,58.23],[12.52503,58.23026],[12.52548,58.23042],[12.52475,58.23099],[12.5236,58.23048],[12.52344,58.23101],[12.52368,58.23133],[12.52299,58.23173],[12.52345,58.23217],[12.52227,58.23236],[12.52239,58.23285],[12.52846,58.23457],[12.54563,58.23588],[12.55144,58.23163],[12.55798,58.22855],[12.57094,58.22343],[12.57789,58.21858],[12.58767,58.22522],[12.58805,58.22516],[12.58881,58.22547],[12.5901,58.22525],[12.5914,58.22408],[12.59282,58.22263],[12.59253,58.22119],[12.59332,58.22104],[12.59631,58.22294],[12.59781,58.22524],[12.59795,58.22602],[12.59829,58.22614],[12.5982,58.22727],[12.59767,58.22774],[12.60239,58.23181],[12.60385,58.23194],[12.60673,58.23135],[12.60876,58.23136],[12.61095,58.23419],[12.61551,58.23485],[12.6181,58.2349],[12.61869,58.23417],[12.61966,58.23354],[12.62029,58.2337],[12.62153,58.23362],[12.62308,58.23468],[12.62819,58.23714],[12.66664,58.24986],[12.66936,58.25163],[12.67175,58.25434],[12.67336,58.25536],[12.67397,58.25617],[12.67499,58.25648],[12.67518,58.25691],[12.67593,58.25714],[12.6769,58.25862],[12.67747,58.25883],[12.67896,58.25859],[12.67937,58.25997],[12.67912,58.26211],[12.68008,58.26318],[12.67975,58.26376],[12.67842,58.26481],[12.67677,58.26699],[12.67557,58.26918],[12.67575,58.27084],[12.67403,58.27105],[12.67312,58.27136],[12.67239,58.27241],[12.67076,58.27335],[12.67007,58.27416],[12.67906,58.27475],[12.68042,58.27523],[12.68116,58.27448],[12.68352,58.27491],[12.68237,58.27862],[12.68554,58.2787],[12.68526,58.28165],[12.68157,58.28112],[12.68123,58.28219],[12.68758,58.28319],[12.69774,58.2843]]]}},{"type":"Feature","id":"1445R002","properties":{"code":"1445R002","name":"Jonslund omland"},"geometry":{"type":"Polygon","coordinates":[[[12.82007,58.22189],[12.81987,58.22082],[12.82023,58.21968],[12.82241,58.21848],[12.82942,58.21697],[12.83362,58.21491],[12.83378,58.214],[12.8341,58.21391],[12.83335,58.21228],[12.83213,58.21102],[12.83085,58.20908],[12.84053,58.20541],[12.84,58.20416],[12.83666,58.20478],[12.83696,58.20548],[12.83618,58.20565],[12.83574,58.2048],[12.83311,58.20566],[12.83445,58.20593],[12.82725,58.2082],[12.82648,58.20747],[12.82615,58.20634],[12.82844,58.20527],[12.82863,58.20464],[12.83256,58.20206],[12.83252,58.20151],[12.83189,58.20072],[12.83307,58.19988],[12.83561,58.20057],[12.84296,58.19541],[12.84388,58.19513],[12.84524,58.19591],[12.84815,58.19502],[12.85053,58.19607],[12.85136,58.19607],[12.85052,58.19714],[12.85111,58.1972],[12.85125,58.19691],[12.85198,58.19708],[12.85186,58.19742],[12.85106,58.19731],[12.84979,58.19729],[12.85205,58.1975],[12.85241,58.1991],[12.85251,58.19832],[12.85215,58.19751],[12.85449,58.19779],[12.85212,58.19746],[12.85215,58.19684],[12.85488,58.19764],[12.85768,58.19666],[12.85845,58.19715],[12.85857,58.19762],[12.85823,58.19776],[12.85845,58.19782],[12.86025,58.1978],[12.86113,58.19726],[12.86307,58.19966],[12.86376,58.19921],[12.86207,58.19713],[12.86379,58.1992],[12.86395,58.19909],[12.86234,58.19711],[12.86405,58.19903],[12.8626,58.1971],[12.86423,58.19891],[12.86499,58.19843],[12.86396,58.19715],[12.86511,58.19834],[12.86691,58.19718],[12.86773,58.19724],[12.8689,58.1978],[12.87064,58.1974],[12.87301,58.19748],[12.87374,58.19715],[12.87446,58.19717],[12.87459,58.19613],[12.87702,58.19713],[12.8794,58.19518],[12.88332,58.19595],[12.88488,58.19513],[12.88605,58.19503],[12.88657,58.19538],[12.88832,58.19533],[12.89182,58.19482],[12.89308,58.19482],[12.89383,58.195],[12.89396,58.19468],[12.89483,58.19464],[12.89423,58.19443],[12.8932,58.19447],[12.89307,58.19433],[12.89364,58.19427],[12.89362,58.19406],[12.89222,58.19362],[12.89111,58.19336],[12.89006,58.19347],[12.89051,58.19258],[12.89714,58.19354],[12.89801,58.19128],[12.89173,58.19052],[12.89233,58.18869],[12.87141,58.18618],[12.86755,58.18032],[12.86081,58.17936],[12.85599,58.17981],[12.83878,58.18034],[12.83797,58.17959],[12.83651,58.17911],[12.83583,58.17829],[12.84738,58.17437],[12.84733,58.17418],[12.85031,58.17161],[12.85171,58.17081],[12.8528,58.17055],[12.85371,58.17003],[12.85744,58.1673],[12.85983,58.16505],[12.86241,58.16536],[12.86388,58.16572],[12.86535,58.16518],[12.87018,58.16591],[12.86939,58.16375],[12.87362,58.16484],[12.87333,58.16597],[12.87103,58.16834],[12.87655,58.16934],[12.87608,58.17059],[12.87846,58.17064],[12.87786,58.15872],[12.87675,58.15684],[12.87725,58.15608],[12.87813,58.15585],[12.8834,58.15668],[12.88882,58.15821],[12.88964,58.15675],[12.89035,58.1572],[12.89602,58.15692],[12.89569,58.15548],[12.89114,58.15507],[12.90394,58.14823],[12.9228,58.1437],[12.91986,58.1367],[12.91825,58.12581],[12.91694,58.12562],[12.91489,58.12587],[12.91387,58.12567],[12.91362,58.12513],[12.91466,58.12441],[12.91444,58.12261],[12.91275,58.12122],[12.91391,58.11989],[12.91638,58.11973],[12.91678,58.12005],[12.91871,58.12001],[12.91871,58.11953],[12.92122,58.11865],[12.92254,58.11841],[12.92941,58.11488],[12.93474,58.11245],[12.87347,58.11086],[12.8412,58.10981],[12.84064,58.11037],[12.84102,58.111],[12.84345,58.11173],[12.84741,58.11568],[12.83302,58.1182],[12.8329,58.11785],[12.83214,58.11755],[12.82992,58.11748],[12.8281,58.11708],[12.82876,58.11473],[12.82801,58.11324],[12.82783,58.11081],[12.8291,58.10977],[12.83175,58.10879],[12.83144,58.10737],[12.82775,58.10545],[12.82225,58.10409],[12.81801,58.10348],[12.81487,58.10334],[12.8118,58.10366],[12.80905,58.10327],[12.80794,58.10454],[12.78544,58.10098],[12.75644,58.09932],[12.75565,58.09623],[12.74734,58.09629],[12.74422,58.09884],[12.71097,58.09676],[12.70856,58.10943],[12.6869,58.12653],[12.68588,58.12662],[12.6847,58.12702],[12.68374,58.12763],[12.68317,58.12875],[12.68303,58.12958],[12.70857,58.15835],[12.68854,58.17383],[12.68781,58.17468],[12.68853,58.17493],[12.69029,58.17677],[12.6902,58.17757],[12.68863,58.17805],[12.68896,58.17825],[12.69205,58.17883],[12.6951,58.17967],[12.69804,58.17873],[12.70072,58.17835],[12.70349,58.17833],[12.70588,58.17861],[12.70825,58.17793],[12.71084,58.17756],[12.71396,58.17756],[12.71625,58.17717],[12.71828,58.17705],[12.72401,58.17745],[12.7271,58.1767],[12.73002,58.17648],[12.73419,58.17688],[12.73901,58.17823],[12.74193,58.17954],[12.74363,58.18104],[12.74449,58.18301],[12.74422,58.18467],[12.7481,58.18589],[12.75147,58.18772],[12.75335,58.18917],[12.75421,58.19055],[12.75438,58.19199],[12.75363,58.19373],[12.75187,58.19558],[12.74746,58.19874],[12.78293,58.21069],[12.78246,58.21232],[12.78335,58.21351],[12.78305,58.21392],[12.77845,58.21501],[12.77961,58.21651],[12.78789,58.21529],[12.79183,58.21884],[12.79331,58.22068],[12.79183,58.21884],[12.79528,58.21684],[12.79983,58.21544],[12.80238,58.21715],[12.80643,58.21575],[12.80814,58.21653],[12.80758,58.21681],[12.81821,58.22153],[12.82007,58.22189]]]}},{"type":"Feature","id":"1445R003","properties":{"code":"1445R003","name":"Nossebro"},"geometry":{"type":"Polygon","coordinates":[[[12.72995,58.20145],[12.73378,58.20131],[12.73572,58.20096],[12.73789,58.20026],[12.74171,58.20026],[12.74567,58.19946],[12.74737,58.19879],[12.74916,58.19767],[12.75012,58.1967],[12.75221,58.19529],[12.75405,58.19305],[12.75438,58.19125],[12.75338,58.1892],[12.7519,58.18798],[12.74863,58.18614],[12.7462,58.18519],[12.74422,58.18467],[12.74451,58.18338],[12.74417,58.18188],[12.74337,58.18073],[12.74193,58.17954],[12.73955,58.17842],[12.73479,58.17701],[12.73277,58.17664],[12.73002,58.17648],[12.7271,58.1767],[12.72401,58.17745],[12.72101,58.17714],[12.71758,58.17707],[12.71396,58.17756],[12.71154,58.17752],[12.70952,58.1777],[12.70588,58.17861],[12.70284,58.1783],[12.70008,58.17841],[12.69728,58.17892],[12.69496,58.17973],[12.69257,58.18124],[12.69117,58.18325],[12.69114,58.18515],[12.69224,58.1873],[12.69332,58.1886],[12.69453,58.18947],[12.69607,58.19023],[12.69834,58.19093],[12.69945,58.19157],[12.70265,58.19536],[12.70521,58.19749],[12.70714,58.19846],[12.70888,58.19903],[12.71274,58.19967],[12.71633,58.20063],[12.71973,58.20083],[12.72319,58.20043],[12.72698,58.20124],[12.72995,58.20145]]]}}]}