{"type":"FeatureCollection","features":[{"type":"Feature","id":"1452R004","properties":{"code":"1452R004","name":"Tranemo södra"},"geometry":{"type":"Polygon","coordinates":[[[13.34615,57.48504],[13.35034,57.48408],[13.35055,57.48337],[13.35353,57.48287],[13.35621,57.48331],[13.35734,57.48177],[13.35724,57.47993],[13.35804,57.47942],[13.36017,57.47901],[13.35985,57.47805],[13.35892,57.4768],[13.35735,57.47622],[13.35801,57.47458],[13.35729,57.4693],[13.35473,57.46997],[13.35253,57.47104],[13.34938,57.47098],[13.34597,57.47136],[13.34264,57.47123],[13.34001,57.47153],[13.33594,57.47277],[13.33351,57.47419],[13.32967,57.47386],[13.32759,57.47398],[13.32551,57.47434],[13.32999,57.47541],[13.33253,57.47684],[13.33423,57.47722],[13.33521,57.47858],[13.33538,57.47952],[13.33634,57.48022],[13.3368,57.48111],[13.34097,57.48157],[13.3456,57.48444],[13.34615,57.48504]]]}},{"type":"Feature","id":"1452R005","properties":{"code":"1452R005","name":"Tranemo södra omland"},"geometry":{"type":"Polygon","coordinates":[[[13.30316,57.45515],[13.31625,57.45331],[13.31702,57.45222],[13.31636,57.45152],[13.3148,57.45134],[13.31429,57.45061],[13.31371,57.45047],[13.31377,57.44951],[13.31181,57.44813],[13.31091,57.44784],[13.31073,57.44747],[13.31039,57.44758],[13.3097,57.44659],[13.30907,57.44637],[13.30953,57.44553],[13.30898,57.44474],[13.31008,57.44388],[13.30778,57.44338],[13.30773,57.44183],[13.30729,57.44137],[13.30823,57.44053],[13.30766,57.4402],[13.30778,57.44004],[13.30904,57.44003],[13.31033,57.44031],[13.31144,57.44113],[13.31047,57.44131],[13.31071,57.44151],[13.31316,57.44131],[13.31345,57.44178],[13.31481,57.44164],[13.31599,57.44173],[13.31645,57.44203],[13.31819,57.44226],[13.31858,57.44276],[13.31995,57.4431],[13.32015,57.44345],[13.32086,57.44365],[13.321,57.44405],[13.32207,57.44405],[13.32282,57.44466],[13.32422,57.44485],[13.32569,57.44571],[13.32753,57.44599],[13.3289,57.44551],[13.33013,57.44613],[13.3317,57.44604],[13.33167,57.4459],[13.33316,57.44577],[13.35998,57.43943],[13.35992,57.43826],[13.3725,57.43193],[13.37697,57.4304],[13.37645,57.42885],[13.37401,57.42854],[13.37333,57.42219],[13.37349,57.41692],[13.36705,57.41198],[13.3717,57.40937],[13.37457,57.40835],[13.3947,57.39852],[13.39711,57.39896],[13.40268,57.39867],[13.40456,57.39816],[13.40604,57.39817],[13.40788,57.39755],[13.41364,57.39674],[13.4153,57.39616],[13.41617,57.39551],[13.41483,57.39332],[13.4148,57.39161],[13.41517,57.39084],[13.41427,57.38884],[13.41465,57.38715],[13.41296,57.38576],[13.41222,57.38421],[13.40897,57.3819],[13.40873,57.38098],[13.41014,57.37756],[13.41533,57.37618],[13.42445,57.3703],[13.43128,57.36814],[13.43312,57.36645],[13.43316,57.3618],[13.43049,57.35924],[13.4308,57.35885],[13.43048,57.35789],[13.42988,57.35767],[13.43464,57.35606],[13.43627,57.35273],[13.43302,57.34904],[13.40631,57.34225],[13.40157,57.3406],[13.3989,57.34024],[13.39691,57.34027],[13.39454,57.34183],[13.39212,57.34125],[13.38782,57.34104],[13.38618,57.34024],[13.38613,57.33706],[13.38376,57.33562],[13.38169,57.3349],[13.38155,57.33426],[13.37928,57.33128],[13.37723,57.32787],[13.37345,57.32627],[13.37228,57.32547],[13.37118,57.32405],[13.37016,57.32399],[13.37002,57.32364],[13.3708,57.32297],[13.36871,57.32155],[13.36349,57.32309],[13.36137,57.32312],[13.35705,57.32195],[13.35165,57.32126],[13.34881,57.31935],[13.34845,57.3187],[13.34692,57.3181],[13.34324,57.31839],[13.34024,57.31766],[13.33843,57.31761],[13.33793,57.31749],[13.33742,57.3168],[13.33577,57.31642],[13.33491,57.31652],[13.33423,57.31589],[13.3334,57.31576],[13.33284,57.3159],[13.3335,57.31643],[13.33166,57.31665],[13.32831,57.31632],[13.32775,57.31596],[13.32682,57.31583],[13.32586,57.31601],[13.32479,57.31558],[13.32056,57.31518],[13.31964,57.3145],[13.3185,57.31426],[13.31259,57.31378],[13.31065,57.31322],[13.31006,57.31279],[13.30905,57.31271],[13.3057,57.31194],[13.30518,57.31218],[13.30318,57.31173],[13.30228,57.31208],[13.30192,57.31178],[13.30008,57.3117],[13.29976,57.31121],[13.29934,57.31108],[13.29812,57.31109],[13.29754,57.31083],[13.29287,57.31022],[13.28963,57.30907],[13.28495,57.3083],[13.28213,57.30745],[13.2759,57.30471],[13.27509,57.3021],[13.27283,57.30005],[13.26994,57.30012],[13.26723,57.29997],[13.26424,57.29926],[13.25858,57.29385],[13.25601,57.29461],[13.2548,57.29445],[13.25332,57.29456],[13.2525,57.29423],[13.25016,57.29394],[13.24935,57.29443],[13.24883,57.29725],[13.24472,57.29827],[13.24213,57.2995],[13.24204,57.29996],[13.24021,57.30237],[13.23864,57.30377],[13.23403,57.30538],[13.2306,57.30599],[13.22598,57.30821],[13.22715,57.31267],[13.22718,57.31411],[13.22508,57.31878],[13.22597,57.31851],[13.22658,57.31808],[13.23575,57.32189],[13.23779,57.3224],[13.24425,57.32474],[13.24706,57.32713],[13.24696,57.32737],[13.25134,57.32787],[13.25583,57.32894],[13.25833,57.32832],[13.26029,57.3308],[13.26266,57.33272],[13.25843,57.33341],[13.25808,57.33416],[13.25422,57.33491],[13.25523,57.33858],[13.25492,57.33931],[13.25798,57.34211],[13.26057,57.34557],[13.26182,57.34782],[13.24871,57.35382],[13.2481,57.35382],[13.24765,57.35411],[13.2462,57.35405],[13.24564,57.3542],[13.24546,57.35402],[13.24354,57.35396],[13.24376,57.35472],[13.24586,57.35637],[13.24753,57.35736],[13.26024,57.37396],[13.24082,57.37366],[13.23282,57.37557],[13.22394,57.37656],[13.21611,57.38192],[13.21569,57.38241],[13.21578,57.38752],[13.21538,57.39348],[13.213,57.39947],[13.22241,57.40306],[13.22966,57.40748],[13.23289,57.41315],[13.23374,57.41566],[13.23338,57.41655],[13.23631,57.42031],[13.24029,57.42395],[13.23848,57.42649],[13.23421,57.42806],[13.23073,57.42888],[13.2317,57.42964],[13.23215,57.43066],[13.23311,57.4318],[13.2331,57.43395],[13.23404,57.4359],[13.23048,57.43545],[13.22788,57.43458],[13.224,57.43288],[13.22092,57.43433],[13.2206,57.43476],[13.22012,57.43607],[13.22063,57.43647],[13.22127,57.43664],[13.22145,57.43715],[13.22039,57.43817],[13.22038,57.43856],[13.22343,57.4406],[13.22519,57.44147],[13.22682,57.44321],[13.22935,57.44324],[13.23212,57.44254],[13.23346,57.44242],[13.23665,57.44276],[13.23673,57.44339],[13.23896,57.44739],[13.23957,57.44815],[13.24176,57.44915],[13.24204,57.44883],[13.24314,57.44845],[13.24529,57.44811],[13.24625,57.44761],[13.24738,57.44791],[13.25198,57.44817],[13.25608,57.44742],[13.25694,57.4476],[13.26002,57.44745],[13.2611,57.44712],[13.26303,57.44802],[13.26346,57.44854],[13.2657,57.44996],[13.26669,57.45113],[13.27711,57.45337],[13.28041,57.45049],[13.29924,57.45139],[13.30316,57.45515]]]}},{"type":"Feature","id":"1452R001","properties":{"code":"1452R001","name":"Limmared-Rosenlund"},"geometry":{"type":"Polygon","coordinates":[[[13.35556,57.55459],[13.35887,57.55431],[13.36231,57.55364],[13.36422,57.55307],[13.36715,57.55311],[13.36961,57.55281],[13.37151,57.55237],[13.37365,57.55154],[13.37534,57.55044],[13.37658,57.54894],[13.37828,57.54796],[13.37955,57.54671],[13.38027,57.54494],[13.38004,57.54261],[13.37935,57.54124],[13.37671,57.53841],[13.37451,57.53711],[13.37209,57.53632],[13.37196,57.53583],[13.37268,57.53474],[13.37372,57.53182],[13.37377,57.52934],[13.37325,57.52795],[13.3713,57.52489],[13.37037,57.52394],[13.3676,57.52224],[13.36453,57.52128],[13.36122,57.52092],[13.3568,57.52124],[13.35696,57.51986],[13.35661,57.51849],[13.35564,57.51721],[13.35408,57.51609],[13.35157,57.51499],[13.34908,57.51428],[13.34626,57.51392],[13.3434,57.51396],[13.34076,57.51436],[13.33841,57.5151],[13.33675,57.51593],[13.33523,57.51714],[13.33432,57.51852],[13.33307,57.51968],[13.33204,57.52141],[13.33164,57.5246],[13.3311,57.52626],[13.33122,57.52783],[13.33249,57.53099],[13.33376,57.53248],[13.33544,57.53361],[13.33803,57.5349],[13.33999,57.53561],[13.34021,57.53741],[13.34123,57.53884],[13.34091,57.54009],[13.34123,57.54167],[13.34086,57.54364],[13.34117,57.54495],[13.34183,57.54602],[13.3417,57.54772],[13.34251,57.55005],[13.3434,57.55133],[13.3453,57.5527],[13.34791,57.55367],[13.35307,57.55446],[13.35556,57.55459]]]}},{"type":"Feature","id":"1452R002","properties":{"code":"1452R002","name":"Länghem"},"geometry":{"type":"Polygon","coordinates":[[[13.24144,57.61427],[13.24474,57.614],[13.24813,57.61312],[13.25053,57.61184],[13.25219,57.60998],[13.25821,57.60829],[13.26031,57.60736],[13.26202,57.6061],[13.26307,57.60462],[13.2648,57.60304],[13.26547,57.60163],[13.26544,57.60007],[13.26425,57.59812],[13.26423,57.59667],[13.26371,57.59527],[13.26211,57.59347],[13.26037,57.59237],[13.25758,57.59139],[13.25343,57.59033],[13.25154,57.59006],[13.24917,57.58867],[13.24581,57.5877],[13.2434,57.586],[13.24079,57.58495],[13.23772,57.58439],[13.23377,57.58434],[13.23056,57.58488],[13.22813,57.58575],[13.2258,57.58723],[13.22456,57.58883],[13.22053,57.58864],[13.21575,57.58871],[13.21294,57.58914],[13.21045,57.58992],[13.20814,57.59123],[13.20682,57.59262],[13.20622,57.59409],[13.20632,57.59557],[13.20744,57.59738],[13.20964,57.59896],[13.2132,57.60039],[13.21629,57.60113],[13.2183,57.60235],[13.2218,57.6034],[13.22352,57.60424],[13.22226,57.60617],[13.22227,57.60796],[13.22333,57.60965],[13.22531,57.61109],[13.22811,57.61225],[13.23049,57.61288],[13.23309,57.61316],[13.23518,57.61314],[13.23811,57.61397],[13.24144,57.61427]]]}},{"type":"Feature","id":"1452R003","properties":{"code":"1452R003","name":"Tranemo norra omland"},"geometry":{"type":"Polygon","coordinates":[[[13.72347,57.68185],[13.72482,57.66943],[13.72312,57.6661],[13.71578,57.6549],[13.71422,57.6516],[13.71249,57.6507],[13.71266,57.65008],[13.71346,57.6499],[13.70763,57.63829],[13.68561,57.63236],[13.68247,57.62584],[13.67154,57.62753],[13.67071,57.61957],[13.67,57.61962],[13.66922,57.61863],[13.66944,57.61813],[13.6712,57.61714],[13.66966,57.61529],[13.66865,57.61525],[13.66799,57.61488],[13.66694,57.61501],[13.66893,57.61626],[13.66903,57.61668],[13.66836,57.61778],[13.66638,57.61713],[13.66424,57.61505],[13.66514,57.6138],[13.66597,57.6117],[13.66873,57.61133],[13.66732,57.60928],[13.668,57.6089],[13.66902,57.60691],[13.66849,57.60646],[13.66955,57.60555],[13.6698,57.6044],[13.67022,57.6043],[13.66957,57.60412],[13.6702,57.60151],[13.66983,57.59816],[13.66928,57.5981],[13.66842,57.59615],[13.66894,57.59513],[13.66887,57.5945],[13.66936,57.59449],[13.66943,57.594],[13.67914,57.59524],[13.67863,57.59387],[13.67908,57.59365],[13.67727,57.5914],[13.67691,57.59013],[13.67574,57.58975],[13.67353,57.58936],[13.6728,57.58782],[13.67162,57.58702],[13.67402,57.58593],[13.67381,57.58548],[13.67403,57.58498],[13.67736,57.58454],[13.67787,57.58464],[13.67863,57.58443],[13.67874,57.58289],[13.67843,57.58225],[13.67873,57.58166],[13.68007,57.5808],[13.68015,57.58018],[13.67961,57.57834],[13.67908,57.57765],[13.68044,57.57673],[13.68135,57.57646],[13.68341,57.57668],[13.68578,57.57657],[13.68659,57.57637],[13.68616,57.5693],[13.68857,57.55829],[13.68315,57.55424],[13.66819,57.54073],[13.66987,57.53995],[13.66878,57.53824],[13.65791,57.5332],[13.65757,57.53255],[13.65453,57.53056],[13.65077,57.52935],[13.65046,57.52951],[13.64932,57.52911],[13.64938,57.52704],[13.64866,57.52666],[13.64668,57.52647],[13.64481,57.52557],[13.64474,57.52529],[13.64247,57.52432],[13.64075,57.52396],[13.63881,57.52385],[13.63652,57.52422],[13.63544,57.52394],[13.63475,57.52405],[13.63293,57.52336],[13.6321,57.52337],[13.6301,57.52251],[13.6285,57.5223],[13.62403,57.52013],[13.62304,57.51883],[13.62145,57.51765],[13.62073,57.51643],[13.61902,57.51537],[13.61873,57.51543],[13.61844,57.51474],[13.61733,57.51442],[13.61702,57.51405],[13.61533,57.5133],[13.61005,57.51206],[13.60473,57.50758],[13.60266,57.50526],[13.5953,57.49671],[13.59382,57.49344],[13.59218,57.49745],[13.59035,57.4973],[13.59031,57.49626],[13.58833,57.49429],[13.58626,57.49435],[13.58206,57.49553],[13.5818,57.49627],[13.57811,57.49715],[13.5777,57.49843],[13.57642,57.49934],[13.57592,57.4994],[13.5773,57.49963],[13.57688,57.50061],[13.57702,57.50103],[13.58419,57.51778],[13.57311,57.51639],[13.57268,57.5157],[13.57109,57.51611],[13.56999,57.516],[13.5666,57.51318],[13.56403,57.51294],[13.56111,57.51293],[13.55954,57.51317],[13.55863,57.51452],[13.54568,57.51291],[13.54698,57.51751],[13.54643,57.52013],[13.54839,57.52105],[13.5474,57.52456],[13.54787,57.52719],[13.54396,57.53375],[13.54674,57.53787],[13.55174,57.54121],[13.55501,57.54825],[13.54826,57.54889],[13.55269,57.57194],[13.55366,57.5757],[13.55297,57.57716],[13.55292,57.57834],[13.5533,57.57938],[13.55296,57.57943],[13.55299,57.5804],[13.55403,57.58092],[13.54309,57.58276],[13.5381,57.58333],[13.54046,57.57751],[13.53651,57.57737],[13.53495,57.57955],[13.53223,57.57948],[13.53224,57.58416],[13.53585,57.58364],[13.53517,57.58626],[13.52467,57.58634],[13.50947,57.58874],[13.5105,57.58986],[13.49721,57.59068],[13.48243,57.59133],[13.48224,57.59159],[13.48077,57.59157],[13.48067,57.59143],[13.47575,57.59164],[13.47297,57.59532],[13.4721,57.5943],[13.47111,57.59431],[13.46912,57.59468],[13.46662,57.5939],[13.46555,57.59384],[13.46329,57.5941],[13.45892,57.5933],[13.46154,57.59138],[13.46088,57.58906],[13.45864,57.58659],[13.45458,57.58666],[13.45455,57.58445],[13.45581,57.58361],[13.45746,57.58299],[13.45902,57.582],[13.4599,57.58028],[13.4606,57.5801],[13.46069,57.57947],[13.46047,57.57849],[13.45941,57.57812],[13.45803,57.57638],[13.45803,57.56749],[13.45875,57.54963],[13.45411,57.54856],[13.44843,57.56947],[13.45349,57.57319],[13.44725,57.57427],[13.44346,57.57598],[13.43954,57.57452],[13.43813,57.57538],[13.43733,57.57562],[13.43443,57.57591],[13.42781,57.57723],[13.42293,57.57085],[13.40492,57.56942],[13.3842,57.57246],[13.38957,57.57951],[13.3917,57.59717],[13.3927,57.60242],[13.39188,57.60471],[13.40359,57.61359],[13.40906,57.61177],[13.40957,57.61176],[13.40997,57.6125],[13.41055,57.61269],[13.41042,57.61301],[13.4107,57.61335],[13.41118,57.61354],[13.4113,57.61479],[13.41314,57.61605],[13.42258,57.61645],[13.43776,57.61126],[13.43946,57.61079],[13.44143,57.61077],[13.45364,57.61468],[13.45664,57.61392],[13.46245,57.61608],[13.46826,57.61954],[13.46889,57.61933],[13.46927,57.61977],[13.47222,57.61991],[13.47397,57.62065],[13.47444,57.62044],[13.47637,57.62222],[13.47935,57.6256],[13.48007,57.6273],[13.48087,57.62793],[13.48119,57.62791],[13.49127,57.64121],[13.50371,57.64821],[13.51489,57.65618],[13.53504,57.67322],[13.53511,57.67278],[13.53709,57.67183],[13.53726,57.67087],[13.53877,57.6698],[13.57658,57.6542],[13.57594,57.6512],[13.5764,57.64939],[13.57741,57.64775],[13.58058,57.64614],[13.58153,57.64695],[13.58166,57.64826],[13.58368,57.64865],[13.58451,57.65002],[13.58607,57.64956],[13.58413,57.64832],[13.58262,57.64685],[13.58285,57.64592],[13.58838,57.64461],[13.59826,57.64464],[13.61696,57.64577],[13.6277,57.65099],[13.6365,57.6563],[13.64388,57.66025],[13.65612,57.66569],[13.65772,57.66598],[13.67067,57.67614],[13.68006,57.67495],[13.68487,57.67534],[13.69006,57.67258],[13.69474,57.67152],[13.70541,57.67273],[13.70727,57.67219],[13.70773,57.67257],[13.70818,57.67499],[13.70751,57.67554],[13.70702,57.67662],[13.70407,57.67768],[13.70336,57.67821],[13.70364,57.67883],[13.71529,57.68082],[13.72347,57.68185]]]}},{"type":"Feature","id":"1452R006","properties":{"code":"1452R006","name":"Tranemo västra"},"geometry":{"type":"Polygon","coordinates":[[[13.34031,57.51027],[13.34419,57.50988],[13.34757,57.50874],[13.34992,57.50701],[13.35134,57.50473],[13.34527,57.50332],[13.34397,57.50178],[13.34605,57.49903],[13.34721,57.49815],[13.34882,57.49754],[13.34902,57.49625],[13.35073,57.49446],[13.35035,57.49313],[13.35095,57.49264],[13.35151,57.4903],[13.35104,57.48944],[13.35042,57.4891],[13.35039,57.48791],[13.34912,57.48736],[13.34769,57.48574],[13.34615,57.48504],[13.3456,57.48444],[13.34097,57.48157],[13.3368,57.48111],[13.33634,57.48022],[13.33538,57.47952],[13.33521,57.47858],[13.33423,57.47722],[13.33253,57.47684],[13.32999,57.47541],[13.32551,57.47434],[13.32127,57.47575],[13.31936,57.47677],[13.31761,57.47851],[13.31674,57.48036],[13.31699,57.48221],[13.31804,57.48389],[13.31708,57.48553],[13.31708,57.48759],[13.31819,57.48935],[13.31843,57.49084],[13.31895,57.49188],[13.32216,57.49523],[13.32128,57.49711],[13.32152,57.49889],[13.32244,57.50022],[13.32441,57.502],[13.32622,57.5031],[13.32817,57.5039],[13.32971,57.50672],[13.33153,57.50821],[13.33301,57.50894],[13.33531,57.50964],[13.33827,57.51015],[13.34031,57.51027]]]}},{"type":"Feature","id":"1452R007","properties":{"code":"1452R007","name":"Tranemo västra omland"},"geometry":{"type":"Polygon","coordinates":[[[13.29177,57.66757],[13.30901,57.66769],[13.31345,57.63769],[13.31745,57.63684],[13.32715,57.63614],[13.32942,57.63433],[13.32242,57.6315],[13.32142,57.62395],[13.31869,57.61902],[13.32395,57.61671],[13.32337,57.61605],[13.32267,57.61593],[13.32257,57.61568],[13.32381,57.61478],[13.3245,57.61452],[13.32578,57.61454],[13.32742,57.61473],[13.32758,57.6151],[13.33296,57.61273],[13.33489,57.61317],[13.3368,57.61298],[13.33973,57.61314],[13.34099,57.61298],[13.3434,57.61343],[13.34461,57.61455],[13.34475,57.61513],[13.34582,57.616],[13.3456,57.61679],[13.347,57.6171],[13.34719,57.61776],[13.34822,57.61815],[13.34855,57.61864],[13.34937,57.61847],[13.35015,57.61904],[13.35069,57.6189],[13.35128,57.61899],[13.35038,57.6222],[13.36088,57.62838],[13.37029,57.62642],[13.37229,57.62643],[13.3814,57.6209],[13.40359,57.61359],[13.39188,57.60471],[13.3927,57.60242],[13.3917,57.59717],[13.38957,57.57951],[13.3842,57.57246],[13.40492,57.56942],[13.42293,57.57085],[13.42229,57.56846],[13.42971,57.56392],[13.42895,57.56153],[13.42503,57.55492],[13.42449,57.55332],[13.41925,57.55146],[13.4174,57.55138],[13.41265,57.54819],[13.39852,57.54703],[13.39387,57.54623],[13.39309,57.54558],[13.39252,57.54557],[13.38606,57.54379],[13.38365,57.54208],[13.38128,57.54129],[13.37962,57.54163],[13.38005,57.54264],[13.38027,57.54494],[13.3793,57.54703],[13.37828,57.54796],[13.37658,57.54894],[13.37569,57.55013],[13.37456,57.55102],[13.37151,57.55237],[13.36783,57.55306],[13.36422,57.55307],[13.36231,57.55364],[13.35887,57.55431],[13.35556,57.55459],[13.35312,57.55446],[13.34909,57.55393],[13.3468,57.55334],[13.34486,57.55245],[13.34288,57.5507],[13.34178,57.54806],[13.34183,57.54602],[13.34117,57.54495],[13.34086,57.54364],[13.34123,57.54167],[13.34091,57.54009],[13.34123,57.53884],[13.34021,57.53741],[13.33999,57.53561],[13.33803,57.5349],[13.33455,57.53308],[13.33326,57.532],[13.33232,57.53064],[13.33105,57.5267],[13.3322,57.52108],[13.33307,57.51968],[13.33597,57.51647],[13.33826,57.51515],[13.34136,57.51424],[13.34352,57.51395],[13.34563,57.51389],[13.34831,57.51413],[13.35095,57.51477],[13.35081,57.51448],[13.36222,57.51428],[13.36581,57.51466],[13.36831,57.50944],[13.36883,57.50885],[13.36772,57.50768],[13.35803,57.50534],[13.35338,57.50521],[13.35134,57.50473],[13.34994,57.50699],[13.34851,57.50821],[13.34655,57.50919],[13.34359,57.51],[13.34026,57.51027],[13.33698,57.50997],[13.33358,57.50915],[13.33108,57.50793],[13.32945,57.50638],[13.32817,57.5039],[13.3267,57.50333],[13.3248,57.50227],[13.3219,57.49957],[13.32125,57.49745],[13.32216,57.49523],[13.31895,57.49188],[13.31843,57.49084],[13.31819,57.48935],[13.31739,57.4883],[13.31698,57.4872],[13.31709,57.4855],[13.31804,57.48389],[13.31713,57.48257],[13.31672,57.48114],[13.31685,57.47992],[13.31738,57.47883],[13.31862,57.47736],[13.32024,57.47624],[13.32551,57.47434],[13.32356,57.47402],[13.31861,57.4752],[13.31743,57.47675],[13.31181,57.47778],[13.30582,57.47844],[13.30123,57.4759],[13.29482,57.47579],[13.29491,57.47193],[13.30171,57.46909],[13.29732,57.4597],[13.29386,57.45824],[13.28675,57.45079],[13.28041,57.45049],[13.27711,57.45337],[13.26669,57.45113],[13.2657,57.44996],[13.26346,57.44854],[13.26303,57.44802],[13.2611,57.44712],[13.26002,57.44745],[13.25694,57.4476],[13.25608,57.44742],[13.25198,57.44817],[13.24738,57.44791],[13.24625,57.44761],[13.24529,57.44811],[13.24314,57.44845],[13.24204,57.44883],[13.24176,57.44915],[13.23957,57.44815],[13.23896,57.44739],[13.23673,57.44339],[13.23665,57.44276],[13.23346,57.44242],[13.23212,57.44254],[13.22935,57.44324],[13.22682,57.44321],[13.22519,57.44147],[13.22063,57.43882],[13.22039,57.43817],[13.22145,57.43715],[13.22127,57.43664],[13.22063,57.43647],[13.22012,57.43607],[13.22092,57.43433],[13.21597,57.43451],[13.20664,57.43519],[13.20469,57.43541],[13.20536,57.43927],[13.20609,57.44036],[13.20181,57.44453],[13.20174,57.44649],[13.20366,57.44736],[13.20488,57.44712],[13.205,57.44779],[13.20642,57.44992],[13.21159,57.45052],[13.21479,57.45173],[13.22016,57.45149],[13.22225,57.45303],[13.22462,57.45664],[13.22316,57.45792],[13.22489,57.45907],[13.22633,57.45942],[13.22729,57.46122],[13.22101,57.4626],[13.22045,57.46299],[13.22692,57.46481],[13.22715,57.46633],[13.22869,57.46801],[13.22907,57.46816],[13.22967,57.46811],[13.23117,57.46753],[13.23246,57.46744],[13.23286,57.46754],[13.233,57.46786],[13.23171,57.46847],[13.23181,57.46877],[13.23239,57.46877],[13.2336,57.4684],[13.23483,57.46885],[13.23578,57.46895],[13.23659,57.46857],[13.23782,57.46853],[13.23962,57.46808],[13.24209,57.46842],[13.24144,57.46901],[13.24168,57.46921],[13.2426,57.4692],[13.24197,57.47011],[13.24244,57.47025],[13.24205,57.47075],[13.24317,57.47111],[13.24657,57.47389],[13.24708,57.47575],[13.24664,57.47635],[13.24443,57.47696],[13.24513,57.47897],[13.24396,57.48143],[13.2386,57.48231],[13.23607,57.4859],[13.2383,57.48619],[13.25116,57.48489],[13.25492,57.4874],[13.25365,57.48799],[13.25461,57.48871],[13.25458,57.48977],[13.25495,57.49059],[13.25642,57.49105],[13.25713,57.49107],[13.25785,57.49371],[13.25952,57.49322],[13.25997,57.49525],[13.25809,57.50014],[13.25627,57.50187],[13.26834,57.5061],[13.27501,57.51046],[13.27412,57.51156],[13.27385,57.51256],[13.27246,57.5239],[13.25947,57.52905],[13.25263,57.54189],[13.25121,57.54135],[13.25072,57.54068],[13.25001,57.54035],[13.25012,57.54007],[13.24845,57.5393],[13.24545,57.53746],[13.23201,57.54221],[13.21474,57.54117],[13.19079,57.53371],[13.18289,57.53513],[13.17408,57.53706],[13.14727,57.54104],[13.13641,57.54765],[13.13644,57.54874],[13.13681,57.54931],[13.13798,57.54991],[13.13813,57.55031],[13.13935,57.55132],[13.14089,57.55192],[13.14113,57.55236],[13.14211,57.5527],[13.17506,57.58856],[13.17052,57.5927],[13.17483,57.59506],[13.17772,57.59701],[13.19938,57.61217],[13.199,57.61239],[13.19973,57.61291],[13.19872,57.62118],[13.2036,57.627],[13.20089,57.63077],[13.19485,57.63741],[13.19636,57.63772],[13.19772,57.63899],[13.20157,57.64072],[13.20454,57.64109],[13.20126,57.64814],[13.19867,57.65108],[13.20291,57.65564],[13.20593,57.65459],[13.21201,57.65336],[13.21663,57.64538],[13.21876,57.64613],[13.22019,57.64556],[13.22093,57.6455],[13.22135,57.64562],[13.22133,57.64581],[13.21967,57.6467],[13.22188,57.64757],[13.22383,57.64744],[13.22553,57.64786],[13.2261,57.64888],[13.22748,57.64962],[13.227,57.65054],[13.22725,57.65114],[13.22706,57.65201],[13.23098,57.65347],[13.23224,57.6542],[13.2362,57.65716],[13.23813,57.65908],[13.23894,57.65931],[13.24102,57.65935],[13.24191,57.6596],[13.2454,57.66128],[13.24602,57.6621],[13.24869,57.6629],[13.25021,57.664],[13.25351,57.66482],[13.25539,57.66573],[13.25665,57.66558],[13.25886,57.66602],[13.26096,57.66774],[13.26452,57.66818],[13.26723,57.66896],[13.26886,57.67002],[13.26983,57.67038],[13.27162,57.67034],[13.27551,57.67137],[13.28034,57.67118],[13.2902,57.67355],[13.29177,57.66757]],[[13.24075,57.61425],[13.23811,57.61397],[13.23518,57.61314],[13.23245,57.61312],[13.2299,57.61276],[13.22807,57.61224],[13.22531,57.61109],[13.22333,57.60965],[13.22227,57.60796],[13.22226,57.60617],[13.22352,57.60424],[13.2218,57.6034],[13.2183,57.60235],[13.21629,57.60113],[13.2132,57.60039],[13.20964,57.59896],[13.20744,57.59738],[13.20623,57.59523],[13.20631,57.59371],[13.20712,57.59221],[13.20851,57.59096],[13.21045,57.58992],[13.21294,57.58914],[13.21575,57.58871],[13.22053,57.58864],[13.22456,57.58883],[13.2258,57.58723],[13.22813,57.58575],[13.23056,57.58488],[13.23377,57.58434],[13.23772,57.58439],[13.24079,57.58495],[13.2434,57.586],[13.24581,57.5877],[13.24917,57.58867],[13.25154,57.59006],[13.25343,57.59033],[13.25758,57.59139],[13.26037,57.59237],[13.26211,57.59347],[13.26371,57.59527],[13.26423,57.59667],[13.26425,57.59812],[13.26544,57.60007],[13.26547,57.60163],[13.2648,57.60304],[13.26307,57.60462],[13.26202,57.6061],[13.26031,57.60736],[13.25821,57.60829],[13.25219,57.60998],[13.25053,57.61184],[13.2476,57.61331],[13.24407,57.6141],[13.24075,57.61425]]]}},{"type":"Feature","id":"1452R008","properties":{"code":"1452R008","name":"Tranemo östra"},"geometry":{"type":"Polygon","coordinates":[[[13.35134,57.50473],[13.35363,57.50169],[13.35426,57.49991],[13.35407,57.49847],[13.35273,57.49525],[13.35317,57.49511],[13.35637,57.4957],[13.35905,57.49581],[13.36229,57.49543],[13.36465,57.49474],[13.37005,57.4917],[13.3713,57.49054],[13.37212,57.48918],[13.37567,57.48785],[13.37709,57.48708],[13.3785,57.48589],[13.37919,57.48485],[13.37948,57.48307],[13.3787,57.4813],[13.37894,57.48005],[13.37874,57.479],[13.37758,57.47731],[13.37803,57.47537],[13.37747,57.47359],[13.3754,57.47122],[13.37382,57.47009],[13.37172,57.46919],[13.36865,57.46851],[13.36466,57.46842],[13.35729,57.4693],[13.35801,57.47458],[13.35735,57.47622],[13.35892,57.4768],[13.35985,57.47805],[13.36017,57.47901],[13.35804,57.47942],[13.35724,57.47993],[13.35734,57.48177],[13.35621,57.48331],[13.35343,57.48288],[13.35055,57.48337],[13.35034,57.48408],[13.34615,57.48504],[13.34769,57.48574],[13.34912,57.48736],[13.35039,57.48791],[13.35042,57.4891],[13.35104,57.48944],[13.35151,57.4903],[13.35095,57.49264],[13.35035,57.49313],[13.35073,57.49446],[13.34902,57.49625],[13.34882,57.49754],[13.34721,57.49815],[13.34605,57.49903],[13.34397,57.50178],[13.34527,57.50332],[13.35134,57.50473]]]}},{"type":"Feature","id":"1452R009","properties":{"code":"1452R009","name":"Tranemo östra omland"},"geometry":{"type":"Polygon","coordinates":[[[13.47575,57.59164],[13.48067,57.59143],[13.48077,57.59157],[13.48224,57.59159],[13.48243,57.59133],[13.49721,57.59068],[13.5105,57.58986],[13.50947,57.58874],[13.52467,57.58634],[13.53517,57.58626],[13.53585,57.58364],[13.53224,57.58416],[13.53223,57.57948],[13.53495,57.57955],[13.53651,57.57737],[13.54046,57.57751],[13.5381,57.58333],[13.54309,57.58276],[13.55403,57.58092],[13.55299,57.5804],[13.55296,57.57943],[13.5533,57.57938],[13.55292,57.57834],[13.55297,57.57716],[13.55366,57.5757],[13.55269,57.57194],[13.54826,57.54889],[13.55501,57.54825],[13.55174,57.54121],[13.54674,57.53787],[13.54396,57.53375],[13.54787,57.52719],[13.5474,57.52456],[13.54839,57.52105],[13.54643,57.52013],[13.54698,57.51751],[13.54568,57.51291],[13.55863,57.51452],[13.55954,57.51317],[13.56111,57.51293],[13.56403,57.51294],[13.5666,57.51318],[13.56999,57.516],[13.57109,57.51611],[13.57268,57.5157],[13.57311,57.51639],[13.58419,57.51778],[13.57702,57.50103],[13.57688,57.50061],[13.5773,57.49963],[13.57592,57.4994],[13.57642,57.49934],[13.5777,57.49843],[13.57811,57.49715],[13.5818,57.49627],[13.58206,57.49553],[13.58626,57.49435],[13.58833,57.49429],[13.59031,57.49626],[13.59035,57.4973],[13.59218,57.49745],[13.59382,57.49344],[13.59292,57.49244],[13.59265,57.49076],[13.59167,57.49046],[13.5905,57.48973],[13.59046,57.48932],[13.58945,57.48818],[13.58985,57.48706],[13.5891,57.48558],[13.58688,57.48373],[13.58705,57.48231],[13.58781,57.48153],[13.58586,57.4797],[13.58595,57.47872],[13.58419,57.47808],[13.58367,57.47803],[13.5831,57.47824],[13.58225,57.47781],[13.58334,57.47667],[13.58331,57.47564],[13.58192,57.4751],[13.58191,57.47477],[13.57937,57.47379],[13.57907,57.47339],[13.57773,57.47302],[13.57711,57.47253],[13.57721,57.47193],[13.57621,57.4718],[13.5729,57.47031],[13.57142,57.46934],[13.57193,57.46914],[13.57215,57.46848],[13.5703,57.46852],[13.56644,57.46494],[13.56612,57.46502],[13.56551,57.46469],[13.56494,57.46409],[13.56369,57.46338],[13.56165,57.46091],[13.56176,57.46075],[13.55713,57.45662],[13.54563,57.44398],[13.5313,57.43045],[13.5142,57.42821],[13.5043,57.41422],[13.5109,57.41187],[13.51437,57.41094],[13.51548,57.41023],[13.51506,57.40636],[13.5158,57.4056],[13.51583,57.405],[13.51529,57.40425],[13.51347,57.40336],[13.51247,57.40111],[13.51308,57.40019],[13.51247,57.39929],[13.51157,57.39885],[13.5116,57.39822],[13.50973,57.3973],[13.48837,57.39559],[13.48461,57.39389],[13.48228,57.39347],[13.48257,57.39333],[13.48186,57.39322],[13.48146,57.39258],[13.48155,57.39221],[13.47989,57.38988],[13.47795,57.38973],[13.47671,57.38943],[13.47653,57.38912],[13.47614,57.3891],[13.47629,57.38852],[13.47675,57.38853],[13.47707,57.38812],[13.47408,57.38627],[13.4742,57.38571],[13.47328,57.38498],[13.47346,57.3841],[13.47196,57.38117],[13.47222,57.38104],[13.46996,57.37895],[13.46966,57.37847],[13.46997,57.3784],[13.46906,57.37758],[13.46915,57.3773],[13.4671,57.37701],[13.46706,57.3767],[13.46745,57.37663],[13.46724,57.37597],[13.46752,57.37513],[13.46872,57.37306],[13.46839,57.37249],[13.46842,57.37127],[13.4631,57.37186],[13.46061,57.37154],[13.4556,57.37054],[13.45409,57.3706],[13.4517,57.37149],[13.44843,57.37111],[13.44742,57.37114],[13.44647,57.3714],[13.44487,57.37227],[13.44426,57.37226],[13.44278,57.3706],[13.43565,57.36905],[13.43312,57.36645],[13.43128,57.36814],[13.42445,57.3703],[13.41533,57.37618],[13.41014,57.37756],[13.40873,57.38098],[13.40897,57.3819],[13.41222,57.38421],[13.41296,57.38576],[13.41465,57.38715],[13.41427,57.38884],[13.41517,57.39084],[13.4148,57.39161],[13.41483,57.39332],[13.41617,57.39551],[13.4153,57.39616],[13.41277,57.39692],[13.40788,57.39755],[13.40604,57.39817],[13.40456,57.39816],[13.40195,57.39877],[13.39711,57.39896],[13.3947,57.39852],[13.37457,57.40835],[13.3717,57.40937],[13.36705,57.41198],[13.37349,57.41692],[13.37333,57.42219],[13.37401,57.42854],[13.37645,57.42885],[13.37697,57.4304],[13.3725,57.43193],[13.35992,57.43826],[13.35998,57.43943],[13.33316,57.44577],[13.33167,57.4459],[13.3317,57.44604],[13.33013,57.44613],[13.3289,57.44551],[13.32753,57.44599],[13.32569,57.44571],[13.32422,57.44485],[13.32282,57.44466],[13.32207,57.44405],[13.321,57.44405],[13.32086,57.44365],[13.32015,57.44345],[13.31995,57.4431],[13.31858,57.44276],[13.31819,57.44226],[13.31645,57.44203],[13.31599,57.44173],[13.31481,57.44164],[13.31345,57.44178],[13.31316,57.44131],[13.31071,57.44151],[13.31047,57.44131],[13.31144,57.44113],[13.31033,57.44031],[13.30904,57.44003],[13.30778,57.44004],[13.30766,57.4402],[13.30823,57.44053],[13.30729,57.44137],[13.30773,57.44183],[13.30778,57.44338],[13.31008,57.44388],[13.30898,57.44474],[13.30953,57.44553],[13.30907,57.44637],[13.3097,57.44659],[13.31039,57.44758],[13.31073,57.44747],[13.31091,57.44784],[13.31181,57.44813],[13.31377,57.44951],[13.31371,57.45047],[13.31429,57.45061],[13.3148,57.45134],[13.31636,57.45152],[13.31681,57.45178],[13.317,57.4523],[13.31625,57.45331],[13.30316,57.45515],[13.29924,57.45139],[13.28675,57.45079],[13.28671,57.45096],[13.29386,57.45824],[13.29732,57.4597],[13.30171,57.46909],[13.29491,57.47193],[13.29482,57.47579],[13.30123,57.4759],[13.30582,57.47844],[13.31181,57.47778],[13.31743,57.47675],[13.31861,57.4752],[13.32356,57.47402],[13.32551,57.47434],[13.32759,57.47398],[13.32967,57.47386],[13.33351,57.47419],[13.33594,57.47277],[13.34001,57.47153],[13.34264,57.47123],[13.34597,57.47136],[13.34938,57.47098],[13.35253,57.47104],[13.35417,57.47019],[13.35649,57.46946],[13.36399,57.46849],[13.36666,57.46836],[13.36991,57.46872],[13.37229,57.46939],[13.37467,57.47063],[13.37723,57.47324],[13.37793,57.47463],[13.37802,57.47571],[13.37758,57.47731],[13.37874,57.479],[13.37894,57.48005],[13.3787,57.4813],[13.37951,57.48342],[13.37933,57.48451],[13.37852,57.48586],[13.37619,57.4876],[13.37212,57.48918],[13.3713,57.49054],[13.37005,57.4917],[13.36461,57.49475],[13.36169,57.49554],[13.35905,57.49581],[13.35637,57.4957],[13.35317,57.49511],[13.35273,57.49525],[13.35407,57.49847],[13.35426,57.49991],[13.35363,57.50169],[13.35134,57.50473],[13.35338,57.50521],[13.35803,57.50534],[13.36772,57.50768],[13.36883,57.50885],[13.36831,57.50944],[13.36581,57.51466],[13.36222,57.51428],[13.35081,57.51448],[13.35095,57.51477],[13.35408,57.51609],[13.35594,57.51751],[13.35687,57.51918],[13.3568,57.52124],[13.36122,57.52092],[13.36453,57.52128],[13.36634,57.52175],[13.36809,57.52246],[13.37073,57.52425],[13.37325,57.52795],[13.37377,57.52934],[13.37372,57.53182],[13.37268,57.53474],[13.37196,57.53583],[13.37209,57.53632],[13.37447,57.53709],[13.37635,57.53813],[13.37962,57.54163],[13.38128,57.54129],[13.38365,57.54208],[13.38606,57.54379],[13.39252,57.54557],[13.39309,57.54558],[13.39387,57.54623],[13.39852,57.54703],[13.41265,57.54819],[13.4174,57.55138],[13.41925,57.55146],[13.42449,57.55332],[13.42503,57.55492],[13.42895,57.56153],[13.42971,57.56392],[13.42229,57.56846],[13.42293,57.57085],[13.42781,57.57723],[13.43443,57.57591],[13.43733,57.57562],[13.43813,57.57538],[13.43954,57.57452],[13.44346,57.57598],[13.44725,57.57427],[13.45349,57.57319],[13.44843,57.56947],[13.44871,57.56811],[13.45411,57.54856],[13.45875,57.54963],[13.45803,57.56749],[13.45803,57.57638],[13.45941,57.57812],[13.46047,57.57849],[13.46069,57.57947],[13.4606,57.5801],[13.4599,57.58028],[13.45902,57.582],[13.45746,57.58299],[13.45581,57.58361],[13.45455,57.58445],[13.45458,57.58666],[13.45864,57.58659],[13.46088,57.58906],[13.46154,57.59138],[13.45892,57.5933],[13.46329,57.5941],[13.46555,57.59384],[13.46662,57.5939],[13.46912,57.59468],[13.47111,57.59431],[13.4721,57.5943],[13.47297,57.59532],[13.47575,57.59164]]]}}]}