{"type":"FeatureCollection","features":[{"type":"Feature","id":"1460R001","properties":{"code":"1460R001","name":"Bengtsfors centrum"},"geometry":{"type":"Polygon","coordinates":[[[12.19307,59.05205],[12.19434,59.05061],[12.19427,59.05018],[12.19838,59.04598],[12.1974,59.04414],[12.20064,59.04179],[12.20292,59.04097],[12.20361,59.04051],[12.21154,59.03778],[12.21223,59.03657],[12.21487,59.03499],[12.2158,59.03495],[12.21901,59.03418],[12.22042,59.03411],[12.22563,59.03269],[12.2266,59.03266],[12.22558,59.03037],[12.22692,59.02967],[12.22768,59.02969],[12.22949,59.02846],[12.2289,59.02796],[12.22759,59.02764],[12.2261,59.02787],[12.22612,59.02746],[12.22553,59.02675],[12.224,59.02717],[12.2233,59.02713],[12.22166,59.02601],[12.22087,59.02608],[12.22092,59.02587],[12.2215,59.02573],[12.22117,59.02551],[12.22148,59.02516],[12.22101,59.02442],[12.21984,59.02399],[12.21987,59.02351],[12.21875,59.0218],[12.22128,59.02152],[12.22129,59.02033],[12.21876,59.01895],[12.21752,59.01895],[12.21412,59.01791],[12.21796,59.01603],[12.2202,59.01624],[12.22273,59.01755],[12.22386,59.01704],[12.22434,59.01721],[12.22468,59.01753],[12.22567,59.01783],[12.22436,59.01795],[12.22456,59.01838],[12.22673,59.01798],[12.22754,59.01815],[12.22937,59.01922],[12.23293,59.01903],[12.23664,59.01557],[12.23647,59.01503],[12.2353,59.01333],[12.23275,59.01161],[12.2292,59.01021],[12.22639,59.00956],[12.22452,59.00881],[12.22195,59.00819],[12.21849,59.00792],[12.21549,59.00812],[12.21229,59.00885],[12.20985,59.00992],[12.20822,59.01111],[12.20739,59.01215],[12.20692,59.01359],[12.20706,59.01495],[12.20546,59.01571],[12.20256,59.01629],[12.20038,59.01712],[12.1987,59.0182],[12.19719,59.01977],[12.19657,59.02113],[12.19671,59.02291],[12.19723,59.02401],[12.19859,59.02568],[12.1977,59.0269],[12.19635,59.02771],[12.19501,59.029],[12.19296,59.02876],[12.1903,59.02876],[12.18773,59.02912],[12.1856,59.02969],[12.18338,59.03065],[12.18192,59.03169],[12.17999,59.03221],[12.17794,59.0331],[12.17672,59.03394],[12.17561,59.0352],[12.17516,59.03659],[12.17543,59.03831],[12.17664,59.03992],[12.17935,59.04167],[12.17931,59.04438],[12.18039,59.04634],[12.18457,59.04997],[12.18642,59.05105],[12.18817,59.05171],[12.1906,59.05225],[12.19307,59.05246],[12.19307,59.05205]]]}},{"type":"Feature","id":"1460R002","properties":{"code":"1460R002","name":"Bengtsfors norra kommundel"},"geometry":{"type":"Polygon","coordinates":[[[12.21463,59.26369],[12.22784,59.2602],[12.2285,59.25681],[12.23563,59.25712],[12.23746,59.25497],[12.23884,59.25172],[12.23909,59.24944],[12.23817,59.24836],[12.23889,59.24588],[12.23948,59.24512],[12.23832,59.24252],[12.23832,59.2419],[12.239,59.24147],[12.23871,59.24017],[12.23924,59.23931],[12.24066,59.23907],[12.24024,59.23857],[12.2405,59.23787],[12.24105,59.2377],[12.24102,59.23688],[12.24181,59.23676],[12.24319,59.23508],[12.24316,59.23435],[12.24391,59.23357],[12.24442,59.23198],[12.24508,59.23149],[12.24502,59.23042],[12.2437,59.22878],[12.24488,59.22629],[12.24646,59.22451],[12.2488,59.21959],[12.25012,59.21875],[12.25317,59.21762],[12.25485,59.21651],[12.25497,59.21463],[12.25455,59.21342],[12.25593,59.20514],[12.25827,59.2026],[12.25864,59.19879],[12.2605,59.19738],[12.26084,59.1945],[12.26618,59.19321],[12.27395,59.18886],[12.2823,59.18825],[12.28931,59.19151],[12.2922,59.19397],[12.29729,59.19641],[12.30423,59.19845],[12.31274,59.19679],[12.31541,59.19289],[12.31522,59.18874],[12.32814,59.18015],[12.3347,59.17918],[12.33644,59.17524],[12.34709,59.17365],[12.36746,59.17695],[12.37583,59.17899],[12.38606,59.18103],[12.39333,59.18317],[12.40835,59.18696],[12.41502,59.1893],[12.41471,59.19011],[12.41487,59.19089],[12.41858,59.19149],[12.42242,59.19261],[12.42474,59.19304],[12.42909,59.19301],[12.43294,59.19337],[12.43827,59.19348],[12.44013,59.19448],[12.44848,59.19426],[12.45111,59.19382],[12.45379,59.19388],[12.4587,59.19285],[12.46247,59.18181],[12.46061,59.18048],[12.46044,59.17922],[12.45813,59.178],[12.45745,59.17731],[12.45721,59.17656],[12.45587,59.17577],[12.45562,59.17478],[12.45462,59.17427],[12.45452,59.17369],[12.44205,59.17358],[12.434,59.17538],[12.42039,59.17494],[12.41915,59.17214],[12.41508,59.1691],[12.42316,59.16347],[12.43124,59.16176],[12.43324,59.16225],[12.43435,59.16216],[12.4358,59.16126],[12.44308,59.15997],[12.44681,59.15912],[12.4482,59.1583],[12.44994,59.1584],[12.45148,59.15783],[12.45146,59.15729],[12.45211,59.15729],[12.45297,59.1569],[12.45342,59.15636],[12.45517,59.15522],[12.45626,59.155],[12.45604,59.15438],[12.45736,59.15425],[12.4583,59.15393],[12.45909,59.1534],[12.45876,59.15312],[12.45916,59.15281],[12.46019,59.15264],[12.46066,59.1528],[12.45795,59.14458],[12.4623,59.14317],[12.46581,59.14114],[12.46849,59.14019],[12.45742,59.13216],[12.45175,59.1289],[12.45172,59.12815],[12.44953,59.12639],[12.44681,59.12276],[12.44738,59.12228],[12.44587,59.12165],[12.44565,59.11909],[12.44445,59.11771],[12.44364,59.11288],[12.44097,59.10981],[12.44325,59.10334],[12.44055,59.10096],[12.4384,59.09654],[12.43618,59.09307],[12.43242,59.08873],[12.42681,59.08495],[12.42501,59.08035],[12.42817,59.07764],[12.42223,59.07441],[12.421,59.07347],[12.41864,59.07007],[12.41976,59.06969],[12.42439,59.07141],[12.42559,59.06968],[12.43047,59.06742],[12.42631,59.06342],[12.4249,59.06095],[12.42162,59.05858],[12.42144,59.06172],[12.41876,59.0601],[12.41303,59.05384],[12.4118,59.05216],[12.41179,59.0494],[12.41406,59.04806],[12.41444,59.04527],[12.41609,59.04509],[12.41694,59.04415],[12.41627,59.04408],[12.41512,59.04098],[12.41596,59.04077],[12.41385,59.03815],[12.41247,59.03753],[12.41493,59.03563],[12.41527,59.03486],[12.42144,59.03235],[12.42203,59.03185],[12.42362,59.0313],[12.4276,59.03041],[12.42926,59.0303],[12.42899,59.02802],[12.42839,59.02715],[12.42875,59.02596],[12.42832,59.02443],[12.4263,59.02509],[12.41173,59.01763],[12.4024,59.00548],[12.40931,59.00456],[12.40694,59.00343],[12.40543,59.00232],[12.40191,59.00036],[12.40127,58.99931],[12.40053,58.99912],[12.39983,58.99865],[12.39956,58.99741],[12.39856,58.99668],[12.39597,58.99081],[12.38927,58.985],[12.38891,58.98309],[12.38797,58.98309],[12.38762,58.98282],[12.38175,58.98231],[12.38115,58.98286],[12.37612,58.98409],[12.37512,58.98513],[12.36409,58.98487],[12.36209,58.98457],[12.35993,58.98244],[12.36041,58.98112],[12.35962,58.98036],[12.3576,58.97689],[12.3516,58.9843],[12.35615,58.99508],[12.35905,58.9969],[12.35396,58.99909],[12.35049,58.9999],[12.34865,58.99763],[12.34133,58.99327],[12.33552,58.99087],[12.32477,58.98779],[12.31986,58.98394],[12.30596,58.97696],[12.29516,58.97717],[12.29536,58.98013],[12.2838,58.97838],[12.27122,58.97563],[12.27029,58.97378],[12.27058,58.96965],[12.26758,58.96755],[12.26164,58.96471],[12.25813,58.96469],[12.25269,58.96326],[12.25039,58.96244],[12.23993,58.96232],[12.23888,58.96259],[12.23356,58.95804],[12.23097,58.9579],[12.22761,58.95695],[12.22399,58.95632],[12.21787,58.96304],[12.21992,58.96524],[12.221,58.96709],[12.21003,58.96865],[12.20736,58.97143],[12.20114,58.97225],[12.19783,58.97303],[12.19421,58.97202],[12.1929,58.97449],[12.19169,58.97505],[12.18539,58.9738],[12.17727,58.97107],[12.17768,58.97226],[12.1834,58.97666],[12.18972,58.97651],[12.19211,58.97897],[12.18777,58.98177],[12.19297,58.99038],[12.19216,58.98987],[12.19124,58.99001],[12.19075,58.9898],[12.19023,58.98987],[12.19011,58.9901],[12.18904,58.98951],[12.1829,58.98992],[12.17999,58.98777],[12.17919,58.98619],[12.1799,58.98569],[12.17931,58.98379],[12.18017,58.98283],[12.18066,58.98173],[12.18049,58.9792],[12.16561,58.97899],[12.1619,58.97961],[12.16183,58.97929],[12.14752,58.97386],[12.14109,58.97844],[12.13908,58.97735],[12.13615,58.97646],[12.13067,58.97643],[12.12744,58.97578],[12.12561,58.97572],[12.12418,58.97538],[12.1239,58.97557],[12.12334,58.97552],[12.12282,58.9757],[12.12194,58.97541],[12.11921,58.9753],[12.11841,58.97622],[12.11302,58.97737],[12.11067,58.97972],[12.11047,58.98831],[12.10655,58.99019],[12.10521,58.9922],[12.10906,58.99455],[12.11003,58.99474],[12.11123,58.99535],[12.11152,58.99583],[12.11672,58.99904],[12.11909,59.00373],[12.11977,59.00651],[12.11752,59.00755],[12.11608,59.00856],[12.11493,59.00806],[12.10945,59.00907],[12.10838,59.01057],[12.09685,59.01965],[12.09537,59.0197],[12.09748,59.02151],[12.09757,59.02304],[12.09918,59.02441],[12.09864,59.02612],[12.09513,59.02797],[12.0915,59.02906],[12.09141,59.03007],[12.09083,59.03093],[12.09112,59.03178],[12.09092,59.0319],[12.09057,59.0319],[12.09047,59.03139],[12.09015,59.03156],[12.08959,59.03139],[12.08928,59.03197],[12.08456,59.03363],[12.08097,59.03535],[12.08211,59.03584],[12.08252,59.03685],[12.08155,59.03718],[12.08098,59.03705],[12.08012,59.03753],[12.07776,59.03799],[12.07151,59.03867],[12.07047,59.03835],[12.06968,59.03876],[12.06814,59.03789],[12.06603,59.03752],[12.06449,59.03752],[12.06401,59.03728],[12.06324,59.03741],[12.06178,59.03805],[12.05605,59.03763],[12.05246,59.03611],[12.04725,59.03327],[12.04679,59.03402],[12.04677,59.03599],[12.04635,59.03649],[12.04509,59.03647],[12.0442,59.03627],[12.0433,59.03576],[12.04196,59.03585],[12.04093,59.0365],[12.04074,59.037],[12.0391,59.03724],[12.03734,59.03796],[12.03078,59.04241],[12.03026,59.04358],[12.02261,59.04755],[12.02026,59.04748],[12.01939,59.04841],[12.01869,59.04872],[12.01622,59.04892],[12.01491,59.04931],[12.01387,59.0494],[12.01198,59.05031],[12.0111,59.05033],[12.01247,59.0517],[12.01245,59.05267],[12.01432,59.05312],[12.01416,59.05359],[12.01556,59.05389],[12.01554,59.05526],[12.01628,59.05718],[12.01581,59.06034],[12.01696,59.06099],[12.00926,59.0631],[12.01043,59.06537],[12.00872,59.06647],[12.00973,59.06729],[12.01005,59.06853],[12.01105,59.0692],[12.01121,59.07034],[12.01558,59.07332],[12.00652,59.07775],[11.99473,59.08138],[11.98683,59.0854],[11.97421,59.09453],[11.97141,59.09543],[11.971,59.09639],[11.97238,59.09695],[11.9728,59.09758],[11.97409,59.09832],[11.9742,59.0988],[11.97505,59.09885],[11.97722,59.09992],[11.98031,59.10221],[11.97863,59.1031],[11.9777,59.10606],[11.97839,59.10638],[11.97945,59.10744],[11.98065,59.10734],[11.98189,59.10755],[11.98381,59.10886],[11.98645,59.10954],[11.98879,59.11191],[11.99007,59.11255],[11.99268,59.11648],[11.99622,59.1174],[11.99687,59.11974],[11.99373,59.12102],[11.99159,59.12107],[11.99073,59.12054],[11.98963,59.12039],[11.98792,59.12076],[11.97053,59.12303],[11.97,59.12577],[11.96962,59.12629],[11.96853,59.12682],[11.96776,59.1276],[11.96785,59.12849],[11.96732,59.12886],[11.9676,59.12943],[11.9668,59.12966],[11.96637,59.12955],[11.96555,59.13007],[11.96499,59.13015],[11.96338,59.13165],[11.96209,59.13373],[11.96171,59.13536],[11.95964,59.13736],[11.95762,59.14019],[11.95651,59.14058],[11.95579,59.14145],[11.95549,59.14241],[11.95583,59.14301],[11.95402,59.14419],[11.95332,59.145],[11.95256,59.14545],[11.95207,59.14543],[11.94999,59.14707],[11.95043,59.1485],[11.95008,59.1487],[11.94998,59.1494],[11.9505,59.15041],[11.94985,59.15418],[11.94577,59.15343],[11.94402,59.15411],[11.94402,59.15439],[11.94364,59.15448],[11.94379,59.15475],[11.94336,59.1548],[11.9434,59.15503],[11.94299,59.15506],[11.9427,59.15545],[11.94214,59.15518],[11.94155,59.1553],[11.94062,59.15502],[11.93887,59.15327],[11.93184,59.15843],[11.92403,59.15846],[11.91065,59.16009],[11.88078,59.15652],[11.87816,59.1609],[11.87233,59.16947],[11.85823,59.17235],[11.85399,59.17533],[11.85402,59.18182],[11.83627,59.19103],[11.82999,59.20451],[11.83583,59.21425],[11.83572,59.23581],[11.84827,59.2332],[11.86251,59.23124],[11.86939,59.23055],[11.88306,59.2262],[11.88914,59.22568],[11.89587,59.22384],[11.90466,59.22285],[11.92069,59.22443],[11.92389,59.22461],[11.9288,59.22607],[11.93506,59.22975],[11.94511,59.235],[11.94307,59.24034],[11.94842,59.24967],[11.96292,59.23913],[11.98811,59.22447],[12.0004,59.22043],[12.01351,59.21223],[12.0186,59.21292],[12.02949,59.21199],[12.03253,59.2014],[12.04839,59.19307],[12.05346,59.18821],[12.08457,59.17636],[12.09002,59.18443],[12.09126,59.18477],[12.09318,59.18472],[12.09497,59.18509],[12.09466,59.18725],[12.09547,59.18877],[12.10093,59.19089],[12.10424,59.19285],[12.10626,59.19365],[12.10825,59.19565],[12.10738,59.19615],[12.10736,59.19644],[12.1057,59.19693],[12.10327,59.19705],[12.10103,59.19695],[12.09973,59.19788],[12.09799,59.1985],[12.09647,59.19795],[12.0956,59.19807],[12.09548,59.19926],[12.09433,59.20022],[12.09422,59.20066],[12.09366,59.20084],[12.09378,59.20104],[12.09444,59.20087],[12.0939,59.20206],[12.09438,59.20276],[12.09361,59.20338],[12.09354,59.20464],[12.09244,59.20486],[12.09277,59.2051],[12.09245,59.20526],[12.09346,59.20591],[12.09372,59.20648],[12.09354,59.20738],[12.09282,59.208],[12.0926,59.2087],[12.0926,59.20965],[12.09329,59.21063],[12.09345,59.21157],[12.09322,59.21189],[12.09157,59.21254],[12.0914,59.21616],[12.08848,59.22318],[12.08445,59.22537],[12.08256,59.24051],[12.0835,59.24633],[12.0822,59.25724],[12.10298,59.25246],[12.10793,59.2527],[12.11205,59.25416],[12.12336,59.25019],[12.12881,59.25054],[12.13592,59.25262],[12.18288,59.24999],[12.18532,59.24999],[12.20006,59.25208],[12.21187,59.25343],[12.20838,59.25724],[12.21023,59.25939],[12.21314,59.26093],[12.21463,59.26369]],[[12.259,59.00062],[12.25559,59.00018],[12.25153,58.99898],[12.24649,58.99909],[12.24307,58.99877],[12.24053,58.99821],[12.23809,58.99725],[12.23624,58.99616],[12.23479,58.99455],[12.23437,58.99312],[12.23467,58.99157],[12.23309,58.99042],[12.23209,58.98925],[12.22889,58.98796],[12.22701,58.98643],[12.22638,58.9854],[12.22454,58.9801],[12.22522,58.97801],[12.22706,58.97637],[12.22534,58.97522],[12.22426,58.97391],[12.22366,58.9705],[12.22431,58.96909],[12.22572,58.96773],[12.2281,58.96647],[12.23054,58.96575],[12.23476,58.96515],[12.23731,58.96509],[12.23938,58.96525],[12.24421,58.96642],[12.24651,58.96742],[12.2491,58.96729],[12.2521,58.96748],[12.25474,58.96802],[12.25703,58.96888],[12.25958,58.97069],[12.26088,58.97305],[12.26053,58.97527],[12.25975,58.97632],[12.25832,58.97745],[12.25824,58.97871],[12.25976,58.98033],[12.26346,58.9806],[12.26693,58.98159],[12.2692,58.98292],[12.27076,58.98478],[12.2746,58.98581],[12.2762,58.98645],[12.2779,58.98751],[12.27882,58.98845],[12.28014,58.99177],[12.28029,58.99317],[12.2795,58.99495],[12.27775,58.99642],[12.27445,58.99776],[12.27256,58.99816],[12.2702,58.99838],[12.26508,59.00002],[12.26176,59.00057],[12.259,59.00062]],[[12.2309,59.05396],[12.22687,59.0535],[12.22346,59.0524],[12.22118,59.05235],[12.21921,59.0521],[12.21573,59.05104],[12.21303,59.04925],[12.21162,59.04733],[12.20889,59.0455],[12.20777,59.0436],[12.20688,59.04332],[12.20595,59.04481],[12.20463,59.04586],[12.20462,59.04738],[12.20389,59.04879],[12.20278,59.04987],[12.20092,59.05097],[12.19798,59.05195],[12.19456,59.05244],[12.19125,59.05234],[12.18817,59.05171],[12.18496,59.05025],[12.18039,59.04634],[12.17931,59.04438],[12.17935,59.04167],[12.17664,59.03992],[12.1753,59.03795],[12.17521,59.03622],[12.17583,59.03487],[12.17708,59.03365],[12.17892,59.03262],[12.18192,59.03169],[12.18334,59.03067],[12.1849,59.02995],[12.18773,59.02912],[12.19163,59.02872],[12.19501,59.029],[12.19635,59.02771],[12.1977,59.0269],[12.19859,59.02568],[12.19702,59.02368],[12.19651,59.02181],[12.19697,59.02011],[12.19837,59.0185],[12.19992,59.01737],[12.20142,59.01667],[12.20315,59.01613],[12.20546,59.01571],[12.20706,59.01495],[12.20692,59.01359],[12.20739,59.01215],[12.20822,59.01111],[12.20985,59.00992],[12.21286,59.00867],[12.21698,59.00797],[12.21982,59.00796],[12.22275,59.00835],[12.23126,59.01097],[12.23326,59.01188],[12.23496,59.01303],[12.23612,59.01432],[12.23664,59.01557],[12.24,59.01456],[12.24329,59.01417],[12.24732,59.01436],[12.25071,59.0151],[12.25291,59.01603],[12.25612,59.01817],[12.2575,59.01939],[12.2584,59.02084],[12.25889,59.02401],[12.25806,59.02611],[12.25638,59.02762],[12.2541,59.02878],[12.25347,59.02936],[12.25293,59.03063],[12.25172,59.0319],[12.25041,59.03274],[12.24832,59.0336],[12.24955,59.03534],[12.24953,59.03742],[12.25039,59.03932],[12.24998,59.04118],[12.2506,59.04229],[12.25079,59.04341],[12.24993,59.0456],[12.24754,59.04747],[12.24414,59.04873],[12.24156,59.05118],[12.23972,59.05228],[12.23764,59.0531],[12.23575,59.05357],[12.23373,59.05385],[12.2309,59.05396]]]}},{"type":"Feature","id":"1460R003","properties":{"code":"1460R003","name":"Bengtsfors södra kommundel"},"geometry":{"type":"Polygon","coordinates":[[[12.40935,59.00455],[12.4129,59.00402],[12.42538,59.00269],[12.42673,59.00212],[12.42628,58.99776],[12.42308,58.99309],[12.41597,58.98754],[12.41109,58.98405],[12.40835,58.98363],[12.40978,58.98089],[12.41351,58.97954],[12.41782,58.97349],[12.41322,58.97085],[12.41277,58.96921],[12.41152,58.96793],[12.41083,58.96655],[12.40998,58.9658],[12.40887,58.96546],[12.40956,58.96495],[12.4097,58.96318],[12.41134,58.96316],[12.41332,58.96351],[12.41359,58.96342],[12.41348,58.96215],[12.41284,58.96132],[12.41385,58.96062],[12.41542,58.96013],[12.41569,58.95938],[12.41515,58.95926],[12.41569,58.9587],[12.41575,58.95808],[12.41612,58.958],[12.41664,58.95837],[12.41794,58.95828],[12.41654,58.95715],[12.41413,58.95602],[12.41402,58.95538],[12.41429,58.95522],[12.41345,58.95442],[12.41251,58.95397],[12.41268,58.9536],[12.41242,58.95312],[12.41345,58.9526],[12.41485,58.94979],[12.41668,58.94727],[12.42013,58.94631],[12.4176,58.94461],[12.42337,58.94295],[12.42725,58.94079],[12.43045,58.94116],[12.443,58.94418],[12.44875,58.93617],[12.45631,58.93267],[12.45629,58.92633],[12.45097,58.92685],[12.44972,58.92379],[12.45028,58.92292],[12.44795,58.92041],[12.44615,58.91739],[12.4462,58.91234],[12.45086,58.91324],[12.45687,58.91858],[12.4606,58.91774],[12.46041,58.91712],[12.4506,58.9119],[12.44649,58.91135],[12.44756,58.90829],[12.45104,58.90354],[12.45103,58.90149],[12.44238,58.89671],[12.44206,58.89433],[12.44056,58.89301],[12.44129,58.89184],[12.44096,58.88834],[12.43886,58.88159],[12.43815,58.88131],[12.43759,58.87937],[12.43455,58.87821],[12.43263,58.8732],[12.43282,58.86714],[12.42343,58.85976],[12.42255,58.8596],[12.4091,58.85452],[12.39922,58.85239],[12.40034,58.85127],[12.40019,58.8492],[12.40047,58.84773],[12.40189,58.8461],[12.40191,58.84553],[12.40371,58.84316],[12.40276,58.842],[12.39751,58.84242],[12.39226,58.84205],[12.38703,58.84118],[12.3811,58.83988],[12.37224,58.84035],[12.36371,58.83939],[12.36151,58.83949],[12.36034,58.8392],[12.35786,58.83967],[12.35776,58.84085],[12.35716,58.84211],[12.35817,58.8438],[12.35834,58.84591],[12.35809,58.84771],[12.3584,58.84994],[12.35967,58.85166],[12.35921,58.8529],[12.35932,58.85361],[12.34757,58.85241],[12.34749,58.85197],[12.34708,58.85205],[12.34546,58.85169],[12.34369,58.85181],[12.34358,58.85207],[12.3371,58.85132],[12.33551,58.85131],[12.33453,58.85104],[12.33368,58.8501],[12.33271,58.8499],[12.33248,58.84921],[12.33014,58.84976],[12.32934,58.84971],[12.32738,58.849],[12.32755,58.84815],[12.32654,58.84784],[12.32484,58.84738],[12.32356,58.84755],[12.32238,58.84715],[12.32043,58.84699],[12.31858,58.84657],[12.31797,58.84667],[12.31713,58.84745],[12.31614,58.84736],[12.31514,58.84758],[12.31453,58.84857],[12.31465,58.84904],[12.31258,58.84931],[12.31183,58.85012],[12.30925,58.85034],[12.30859,58.85014],[12.30785,58.85108],[12.30696,58.85118],[12.30708,58.85154],[12.30651,58.85222],[12.30495,58.85235],[12.30311,58.85321],[12.30206,58.85331],[12.30112,58.85286],[12.27719,58.85411],[12.26318,58.85368],[12.25897,58.85249],[12.25489,58.85181],[12.25329,58.8505],[12.25039,58.84865],[12.24911,58.84833],[12.24734,58.84848],[12.24462,58.84778],[12.24345,58.84626],[12.24454,58.84508],[12.24425,58.84466],[12.2443,58.84347],[12.24302,58.84278],[12.24316,58.84129],[12.2347,58.83857],[12.23345,58.83769],[12.23174,58.81903],[12.23745,58.81694],[12.23846,58.81495],[12.23968,58.81404],[12.23897,58.81282],[12.23928,58.81231],[12.23794,58.80872],[12.24526,58.80773],[12.25167,58.80256],[12.25317,58.80214],[12.25327,58.80168],[12.25464,58.8006],[12.25557,58.79941],[12.25915,58.79674],[12.26093,58.7925],[12.26212,58.78821],[12.26089,58.78085],[12.26144,58.77879],[12.26269,58.77731],[12.26033,58.77503],[12.26011,58.77425],[12.25856,58.77393],[12.25592,58.77269],[12.25528,58.77262],[12.25439,58.77174],[12.25381,58.77153],[12.25309,58.77162],[12.2519,58.77227],[12.25178,58.77174],[12.24994,58.77151],[12.24723,58.77005],[12.24454,58.76932],[12.24464,58.76909],[12.24273,58.76804],[12.24232,58.76747],[12.24146,58.76729],[12.24098,58.76661],[12.23983,58.7658],[12.23713,58.76455],[12.23592,58.76364],[12.23438,58.76365],[12.23333,58.7633],[12.2333,58.76373],[12.23273,58.76357],[12.23241,58.76388],[12.23345,58.76389],[12.23382,58.76405],[12.23304,58.76435],[12.23305,58.76473],[12.23256,58.76482],[12.23251,58.76437],[12.23215,58.76438],[12.23199,58.76476],[12.23157,58.76483],[12.23184,58.76443],[12.2308,58.76446],[12.23061,58.76502],[12.23102,58.76515],[12.23161,58.76497],[12.23177,58.76534],[12.23165,58.76553],[12.23137,58.76537],[12.231,58.76553],[12.23134,58.76584],[12.23106,58.76629],[12.2303,58.7664],[12.22991,58.76679],[12.22827,58.76687],[12.22797,58.76674],[12.22728,58.76697],[12.22785,58.76739],[12.22681,58.76776],[12.22664,58.7681],[12.22596,58.76829],[12.22556,58.7682],[12.22539,58.76865],[12.22509,58.7685],[12.22441,58.76877],[12.22429,58.76842],[12.22376,58.76839],[12.2228,58.7692],[12.22218,58.76869],[12.22175,58.76876],[12.22148,58.76907],[12.22085,58.76891],[12.22029,58.76838],[12.21854,58.76837],[12.21803,58.76797],[12.21849,58.767],[12.21766,58.76629],[12.21803,58.76541],[12.21354,58.76315],[12.21084,58.76236],[12.207,58.76043],[12.20358,58.75944],[12.18996,58.75048],[12.18959,58.74954],[12.18608,58.75001],[12.18356,58.759],[12.18272,58.75899],[12.18077,58.75976],[12.17891,58.76133],[12.17881,58.76189],[12.17959,58.76239],[12.17964,58.76297],[12.17709,58.76406],[12.16664,58.7713],[12.16439,58.77468],[12.13922,58.7893],[12.13091,58.79431],[12.1313,58.7946],[12.10282,58.7982],[12.1032,58.79796],[12.10303,58.79748],[12.10246,58.79742],[12.10201,58.79777],[12.1017,58.79729],[12.1008,58.79714],[12.10007,58.79585],[12.10013,58.79559],[12.10068,58.79535],[12.10082,58.79346],[12.10147,58.79306],[12.10161,58.79262],[12.10347,58.79179],[12.10396,58.79181],[12.10429,58.79217],[12.10581,58.79206],[12.10902,58.79068],[12.11029,58.79068],[12.11047,58.79046],[12.11018,58.79016],[12.11091,58.78995],[12.11075,58.78925],[12.1113,58.7893],[12.11177,58.7888],[12.11138,58.78786],[12.11246,58.78771],[12.11331,58.78697],[12.11275,58.78657],[12.11213,58.78646],[12.11219,58.78615],[12.11279,58.78596],[12.11186,58.78539],[12.11203,58.78499],[12.11157,58.7848],[12.1118,58.78447],[12.11123,58.78435],[12.11069,58.78452],[12.1099,58.78582],[12.10564,58.78592],[12.10477,58.78573],[12.09975,58.78301],[12.09921,58.7839],[12.09554,58.78487],[12.09291,58.78505],[12.0876,58.7865],[12.08266,58.78731],[12.05992,58.78667],[12.06037,58.78555],[12.05624,58.78229],[12.06056,58.77906],[12.04591,58.77224],[12.04105,58.77736],[12.02168,58.77609],[12.0149,58.77853],[12.01431,58.78111],[12.01487,58.78292],[12.01452,58.78351],[12.0148,58.78454],[12.0142,58.78517],[12.01249,58.78388],[12.008,58.78278],[12.00661,58.78227],[12.00501,58.78253],[12.00312,58.78321],[12.00198,58.78527],[11.99989,58.78689],[11.9979,58.78719],[11.99725,58.78915],[11.99511,58.79316],[11.99542,58.79372],[11.99665,58.79433],[11.9981,58.79599],[11.99933,58.79676],[11.99983,58.79843],[12.00113,58.80041],[12.00074,58.80155],[12.00141,58.80339],[12.00555,58.80205],[12.00974,58.80168],[12.01115,58.80217],[12.01538,58.80507],[12.01577,58.80483],[12.01633,58.80562],[12.01714,58.80605],[12.02128,58.8061],[12.02291,58.80677],[12.02312,58.80729],[12.02381,58.80737],[12.02331,58.8095],[12.03325,58.82155],[12.04311,58.82941],[12.04399,58.82813],[12.04802,58.8283],[12.05031,58.82693],[12.05262,58.82661],[12.0531,58.82573],[12.05289,58.82538],[12.05964,58.82491],[12.06475,58.8294],[12.06299,58.82953],[12.06823,58.8319],[12.05809,58.83394],[12.05238,58.83457],[12.05188,58.83542],[12.05174,58.83745],[12.05126,58.83797],[12.05081,58.83804],[12.05122,58.83837],[12.05108,58.83894],[12.05134,58.83929],[12.05096,58.84064],[12.0539,58.84365],[12.0539,58.84432],[12.05327,58.84532],[12.05477,58.84601],[12.05537,58.84736],[12.05685,58.84864],[12.05812,58.8472],[12.06188,58.8456],[12.06228,58.84514],[12.0634,58.84484],[12.06412,58.8453],[12.06476,58.84526],[12.06717,58.84574],[12.06726,58.84551],[12.0683,58.84504],[12.06877,58.84412],[12.06962,58.8437],[12.07112,58.84328],[12.07173,58.84342],[12.07614,58.84157],[12.07613,58.84129],[12.07767,58.84051],[12.07849,58.84079],[12.07921,58.83993],[12.07927,58.83923],[12.08035,58.83851],[12.08075,58.83766],[12.08935,58.83418],[12.08856,58.8387],[12.08941,58.83985],[12.08913,58.84102],[12.08937,58.84186],[12.09073,58.84309],[12.09087,58.84681],[12.09178,58.84766],[12.09299,58.84783],[12.09339,58.84842],[12.09713,58.84849],[12.09642,58.8489],[12.09684,58.84959],[12.09668,58.85028],[12.09704,58.85045],[12.09731,58.85127],[12.09838,58.85198],[12.09804,58.85364],[12.10151,58.85851],[12.10114,58.86117],[12.08842,58.87234],[12.08527,58.87169],[12.08378,58.87406],[12.08476,58.87559],[12.08435,58.87641],[12.08467,58.87761],[12.0854,58.8783],[12.08669,58.88042],[12.08639,58.88132],[12.09669,58.89267],[12.0976,58.89305],[12.09785,58.89344],[12.0978,58.89363],[12.09676,58.89375],[12.09558,58.89436],[12.09421,58.89458],[12.09428,58.89586],[12.09491,58.89616],[12.09605,58.89862],[12.09768,58.90037],[12.10091,58.90607],[12.08715,58.90829],[12.08387,58.91139],[12.07711,58.91409],[12.07789,58.91511],[12.07618,58.91597],[12.07794,58.91668],[12.08255,58.91703],[12.0836,58.9211],[12.08394,58.92574],[12.08521,58.92838],[12.08534,58.93522],[12.08653,58.93825],[12.08876,58.93891],[12.08778,58.94211],[12.09389,58.9435],[12.09745,58.94779],[12.10362,58.94893],[12.10455,58.94979],[12.10945,58.95119],[12.11335,58.94768],[12.11879,58.94573],[12.12577,58.94542],[12.12661,58.94967],[12.12631,58.95316],[12.13629,58.95546],[12.14398,58.95932],[12.14541,58.95925],[12.14578,58.95799],[12.14637,58.95748],[12.14689,58.95755],[12.14796,58.95724],[12.14882,58.95756],[12.14958,58.96393],[12.14948,58.97007],[12.14752,58.97386],[12.16183,58.97929],[12.1619,58.97961],[12.16561,58.97899],[12.18049,58.9792],[12.18066,58.98173],[12.18017,58.98283],[12.17931,58.98379],[12.1799,58.98569],[12.17919,58.98619],[12.17999,58.98777],[12.1829,58.98992],[12.18904,58.98951],[12.19011,58.9901],[12.19023,58.98987],[12.19075,58.9898],[12.19124,58.99001],[12.19216,58.98987],[12.19297,58.99038],[12.18777,58.98177],[12.19211,58.97897],[12.18972,58.97651],[12.1834,58.97666],[12.17768,58.97226],[12.17727,58.97107],[12.18539,58.9738],[12.19169,58.97505],[12.1929,58.97449],[12.19421,58.97202],[12.19783,58.97303],[12.20114,58.97225],[12.20736,58.97143],[12.21003,58.96865],[12.221,58.96709],[12.21992,58.96524],[12.21787,58.96304],[12.22399,58.95632],[12.22761,58.95695],[12.23097,58.9579],[12.23356,58.95804],[12.23888,58.96259],[12.23993,58.96232],[12.25039,58.96244],[12.25269,58.96326],[12.25813,58.96469],[12.26164,58.96471],[12.26758,58.96755],[12.27058,58.96965],[12.27029,58.97378],[12.27122,58.97563],[12.2838,58.97838],[12.29536,58.98013],[12.29516,58.97717],[12.30596,58.97696],[12.31986,58.98394],[12.32477,58.98779],[12.33552,58.99087],[12.34133,58.99327],[12.34865,58.99763],[12.35049,58.9999],[12.35396,58.99909],[12.35905,58.9969],[12.35615,58.99508],[12.3516,58.9843],[12.3576,58.97689],[12.35962,58.98036],[12.36041,58.98112],[12.35993,58.98244],[12.36209,58.98457],[12.36409,58.98487],[12.37512,58.98513],[12.37612,58.98409],[12.38115,58.98286],[12.38175,58.98231],[12.38762,58.98282],[12.38797,58.98309],[12.38891,58.98309],[12.38927,58.985],[12.39597,58.99081],[12.39856,58.99668],[12.39956,58.99741],[12.39983,58.99865],[12.40053,58.99912],[12.40127,58.99931],[12.40191,59.00036],[12.40543,59.00232],[12.40694,59.00343],[12.40935,59.00455]],[[12.28631,58.94562],[12.28215,58.94501],[12.27931,58.94416],[12.27715,58.94316],[12.27454,58.94109],[12.27365,58.93888],[12.27264,58.93748],[12.27241,58.93609],[12.2727,58.935],[12.27366,58.93367],[12.27508,58.9326],[12.27446,58.93117],[12.2747,58.92947],[12.27563,58.92803],[12.27752,58.92602],[12.28018,58.92446],[12.28805,58.92151],[12.28989,58.92039],[12.29249,58.91936],[12.29368,58.91738],[12.29567,58.91574],[12.29758,58.91466],[12.30151,58.91333],[12.30645,58.91255],[12.30694,58.9112],[12.30805,58.90976],[12.30963,58.9086],[12.31165,58.90772],[12.31539,58.90684],[12.31843,58.90655],[12.32172,58.9067],[12.32392,58.90649],[12.32591,58.90652],[12.32847,58.90685],[12.33028,58.90732],[12.3324,58.90822],[12.33371,58.9091],[12.33529,58.91064],[12.33597,58.91204],[12.33596,58.91346],[12.33547,58.91453],[12.33427,58.91581],[12.33249,58.91692],[12.33655,58.91823],[12.33971,58.91841],[12.34235,58.91894],[12.34627,58.92033],[12.34818,58.92138],[12.35096,58.92399],[12.35195,58.92641],[12.35178,58.92855],[12.35061,58.93018],[12.34893,58.93134],[12.3468,58.93222],[12.34307,58.93322],[12.33833,58.93386],[12.33497,58.93376],[12.33186,58.93313],[12.32926,58.93218],[12.32679,58.93054],[12.32569,58.93025],[12.32158,58.93044],[12.31565,58.93158],[12.31299,58.93182],[12.31263,58.93245],[12.31223,58.93553],[12.31116,58.93688],[12.30943,58.93809],[12.30783,58.93879],[12.30552,58.93944],[12.30353,58.93978],[12.30088,58.93993],[12.29914,58.9416],[12.29664,58.94328],[12.29343,58.94478],[12.29,58.94549],[12.28631,58.94562]]]}},{"type":"Feature","id":"1460R004","properties":{"code":"1460R004","name":"Bengtsfors-Sidan södra"},"geometry":{"type":"Polygon","coordinates":[[[12.23161,59.05396],[12.23575,59.05357],[12.23764,59.0531],[12.23972,59.05228],[12.24156,59.05118],[12.24414,59.04873],[12.24745,59.04752],[12.24966,59.04591],[12.25077,59.04375],[12.2506,59.04229],[12.24998,59.04118],[12.25039,59.03932],[12.24953,59.03742],[12.24955,59.03534],[12.24832,59.0336],[12.25041,59.03274],[12.25172,59.0319],[12.25293,59.03063],[12.25347,59.02936],[12.2541,59.02878],[12.25593,59.02791],[12.25706,59.0271],[12.25868,59.02503],[12.25888,59.02356],[12.2585,59.02118],[12.25717,59.01905],[12.25347,59.01636],[12.25194,59.01556],[12.24938,59.01473],[12.24667,59.01429],[12.24395,59.01416],[12.24194,59.01426],[12.23768,59.01517],[12.23664,59.01557],[12.23293,59.01903],[12.22937,59.01922],[12.22754,59.01815],[12.22673,59.01798],[12.22456,59.01838],[12.22436,59.01795],[12.22567,59.01783],[12.22468,59.01753],[12.22434,59.01721],[12.22386,59.01704],[12.22273,59.01755],[12.2202,59.01624],[12.21796,59.01603],[12.21412,59.01791],[12.21752,59.01895],[12.21876,59.01895],[12.22129,59.02033],[12.22128,59.02152],[12.21875,59.0218],[12.21987,59.02351],[12.21984,59.02399],[12.22101,59.02442],[12.22148,59.02516],[12.22117,59.02551],[12.2215,59.02573],[12.22092,59.02587],[12.22087,59.02608],[12.22166,59.02601],[12.2233,59.02713],[12.224,59.02717],[12.22553,59.02675],[12.22612,59.02746],[12.2261,59.02787],[12.22759,59.02764],[12.2289,59.02796],[12.22949,59.02846],[12.22768,59.02969],[12.22692,59.02967],[12.22558,59.03037],[12.2266,59.03266],[12.22563,59.03269],[12.22042,59.03411],[12.21901,59.03418],[12.2158,59.03495],[12.21487,59.03499],[12.21223,59.03657],[12.21154,59.03778],[12.20361,59.04051],[12.20292,59.04097],[12.20064,59.04179],[12.1974,59.04414],[12.19838,59.04598],[12.19427,59.05018],[12.19434,59.05061],[12.19307,59.05205],[12.19323,59.05246],[12.19718,59.05212],[12.19988,59.0514],[12.20198,59.05041],[12.20412,59.04847],[12.20469,59.04704],[12.20463,59.04586],[12.20595,59.04481],[12.20688,59.04332],[12.20777,59.0436],[12.20889,59.0455],[12.21162,59.04733],[12.21303,59.04925],[12.21573,59.05104],[12.21921,59.0521],[12.22118,59.05235],[12.22346,59.0524],[12.22749,59.05363],[12.23161,59.05396]]]}},{"type":"Feature","id":"1460R005","properties":{"code":"1460R005","name":"Billingsfors"},"geometry":{"type":"Polygon","coordinates":[[[12.26033,59.00064],[12.26379,59.00029],[12.26631,58.99969],[12.26832,58.99888],[12.2702,58.99838],[12.27256,58.99816],[12.27445,58.99776],[12.2763,58.99715],[12.27817,58.99616],[12.27974,58.99462],[12.28032,58.99281],[12.2794,58.98949],[12.27856,58.98814],[12.27753,58.98723],[12.2757,58.98622],[12.27076,58.98478],[12.2692,58.98292],[12.26693,58.98159],[12.26346,58.9806],[12.25976,58.98033],[12.25824,58.97871],[12.25832,58.97745],[12.25975,58.97632],[12.26053,58.97527],[12.26088,58.97305],[12.25958,58.97069],[12.25703,58.96888],[12.25474,58.96802],[12.2521,58.96748],[12.2491,58.96729],[12.24651,58.96742],[12.24363,58.96624],[12.24075,58.96547],[12.23873,58.96517],[12.2347,58.96516],[12.22994,58.96589],[12.22758,58.96668],[12.22569,58.96776],[12.22431,58.96909],[12.22366,58.9705],[12.22426,58.97391],[12.22534,58.97522],[12.22706,58.97637],[12.22522,58.97801],[12.22454,58.9801],[12.22638,58.9854],[12.22701,58.98643],[12.22889,58.98796],[12.23209,58.98925],[12.23309,58.99042],[12.23467,58.99157],[12.23437,58.99314],[12.235,58.9949],[12.23666,58.99646],[12.23934,58.99779],[12.24116,58.99839],[12.24371,58.99887],[12.24875,58.99913],[12.25153,58.99898],[12.25626,59.00032],[12.26033,59.00064]]]}},{"type":"Feature","id":"1460R006","properties":{"code":"1460R006","name":"Dals Långed"},"geometry":{"type":"Polygon","coordinates":[[[12.28764,58.94564],[12.29084,58.94537],[12.29398,58.94459],[12.29622,58.94355],[12.29875,58.94188],[12.30088,58.93993],[12.30353,58.93978],[12.30552,58.93944],[12.30783,58.93879],[12.30943,58.93809],[12.31116,58.93688],[12.31223,58.93553],[12.31263,58.93245],[12.31299,58.93182],[12.31565,58.93158],[12.32158,58.93044],[12.32569,58.93025],[12.32679,58.93054],[12.32926,58.93218],[12.33186,58.93313],[12.33497,58.93376],[12.33833,58.93386],[12.34307,58.93322],[12.3468,58.93222],[12.34893,58.93134],[12.35061,58.93018],[12.35178,58.92855],[12.35195,58.92641],[12.35096,58.92399],[12.34818,58.92138],[12.34627,58.92033],[12.34235,58.91894],[12.33971,58.91841],[12.33655,58.91823],[12.33249,58.91692],[12.33427,58.91581],[12.33547,58.91453],[12.33596,58.91346],[12.33597,58.91204],[12.33529,58.91064],[12.33368,58.90908],[12.33193,58.90798],[12.32967,58.90714],[12.32591,58.90652],[12.32392,58.90649],[12.32172,58.9067],[12.31831,58.90655],[12.31539,58.90684],[12.3111,58.90791],[12.3092,58.90886],[12.30805,58.90976],[12.30694,58.9112],[12.30645,58.91255],[12.30151,58.91333],[12.29709,58.91489],[12.29567,58.91574],[12.29366,58.9174],[12.29249,58.91936],[12.28989,58.92039],[12.28805,58.92151],[12.28018,58.92446],[12.27839,58.92538],[12.27719,58.92632],[12.27538,58.92834],[12.27456,58.92981],[12.27446,58.93117],[12.27508,58.9326],[12.27335,58.934],[12.27246,58.93572],[12.27252,58.93714],[12.27365,58.93888],[12.2741,58.94045],[12.27549,58.94199],[12.27715,58.94316],[12.27877,58.94396],[12.28354,58.94531],[12.28764,58.94564]]]}}]}