{"type":"FeatureCollection","features":[{"type":"Feature","id":"1470R002","properties":{"code":"1470R002","name":"Jung-Tråvad"},"geometry":{"type":"Polygon","coordinates":[[[13.0333,58.34944],[13.04587,58.34693],[13.04153,58.3425],[13.04172,58.34157],[13.05714,58.33845],[13.07279,58.34525],[13.08347,58.33943],[13.0923,58.34179],[13.0939,58.34108],[13.0942,58.3411],[13.09452,58.34156],[13.09521,58.34164],[13.09564,58.34146],[13.09619,58.34032],[13.09595,58.33934],[13.09663,58.33906],[13.09797,58.33896],[13.09881,58.33795],[13.09997,58.33805],[13.10007,58.33855],[13.1004,58.33861],[13.10223,58.33785],[13.10237,58.33878],[13.11653,58.34417],[13.12726,58.34115],[13.13041,58.33985],[13.13172,58.33893],[13.13383,58.33788],[13.13882,58.33887],[13.14064,58.33907],[13.14271,58.33716],[13.13794,58.33575],[13.14171,58.33392],[13.13829,58.33146],[13.13259,58.32593],[13.13629,58.3245],[13.13928,58.32372],[13.13973,58.32377],[13.14054,58.32343],[13.12943,58.31512],[13.13836,58.31145],[13.13146,58.30794],[13.1273,58.30674],[13.12645,58.30619],[13.13046,58.3032],[13.13092,58.30341],[13.1375,58.29661],[13.12638,58.29388],[13.12841,58.29049],[13.12841,58.28168],[13.12394,58.27488],[13.1273,58.27368],[13.1305,58.27309],[13.13103,58.27286],[13.13134,58.27236],[13.1348,58.27085],[13.15456,58.27763],[13.15769,58.27757],[13.15691,58.27591],[13.16236,58.27264],[13.16406,58.27357],[13.16629,58.27298],[13.16589,58.27263],[13.166,58.27234],[13.16466,58.27127],[13.16438,58.26958],[13.16375,58.26871],[13.16258,58.26797],[13.15853,58.26657],[13.16181,58.26573],[13.16178,58.26482],[13.16209,58.26467],[13.16174,58.26432],[13.16369,58.26328],[13.16047,58.26289],[13.1603,58.26106],[13.16065,58.26011],[13.16189,58.25836],[13.15287,58.25819],[13.15226,58.25744],[13.15181,58.25467],[13.15217,58.25233],[13.1455,58.24919],[13.14639,58.24819],[13.14531,58.2444],[13.12219,58.24613],[13.11938,58.23514],[13.11419,58.2364],[13.11434,58.23657],[13.11179,58.23743],[13.10803,58.23927],[13.1042,58.24061],[13.10085,58.23792],[13.10002,58.23831],[13.09798,58.23864],[13.06486,58.23133],[13.06407,58.23121],[13.06216,58.23209],[13.05423,58.2308],[13.04282,58.23002],[13.03473,58.23157],[13.03511,58.23338],[13.03156,58.23362],[13.03192,58.23435],[13.0311,58.23605],[13.01584,58.22823],[13.01628,58.22775],[13.01494,58.22706],[13.01527,58.2269],[13.01591,58.22544],[13.01542,58.22459],[13.01669,58.2236],[13.0166,58.22281],[13.01449,58.22185],[13.01462,58.22102],[13.01375,58.22099],[13.01384,58.22067],[13.01312,58.21977],[13.01121,58.21971],[13.00937,58.21904],[13.00637,58.21863],[13.00401,58.2177],[13.00318,58.21761],[13.00288,58.21672],[13.00062,58.21538],[12.99961,58.21714],[12.99399,58.21631],[12.99602,58.21137],[12.99443,58.21115],[12.99302,58.21116],[12.98771,58.21225],[12.98589,58.21217],[12.98461,58.21486],[12.97855,58.21394],[12.97681,58.21279],[12.97609,58.21273],[12.97364,58.21379],[12.97404,58.21438],[12.974,58.2155],[12.97284,58.21547],[12.9727,58.21585],[12.97313,58.21674],[12.97285,58.21814],[12.97384,58.21828],[12.97342,58.21865],[12.97339,58.21903],[12.97399,58.21911],[12.97352,58.22012],[12.97376,58.22066],[12.97427,58.22049],[12.9739,58.22101],[12.9743,58.22158],[12.97387,58.2221],[12.97446,58.22237],[12.97454,58.22267],[12.9734,58.22302],[12.97279,58.22445],[12.97358,58.22432],[12.97476,58.22484],[12.97395,58.2253],[12.97386,58.22562],[12.97462,58.22587],[12.97438,58.22613],[12.9736,58.22608],[12.97323,58.2266],[12.97387,58.22688],[12.97384,58.22729],[12.97349,58.22749],[12.97164,58.22765],[12.97166,58.22809],[12.9721,58.22819],[12.97198,58.22836],[12.97266,58.22873],[12.97205,58.22958],[12.97264,58.22996],[12.9734,58.23014],[12.97349,58.23039],[12.97292,58.23074],[12.97275,58.23138],[12.97409,58.23188],[12.97388,58.23243],[12.97332,58.23237],[12.9732,58.23285],[12.97368,58.23279],[12.97247,58.23485],[12.97197,58.23494],[12.97192,58.23529],[12.97093,58.23524],[12.97039,58.23499],[12.96966,58.23574],[12.96789,58.23634],[12.96825,58.23667],[12.96767,58.23698],[12.96645,58.23628],[12.96473,58.23624],[12.96335,58.2368],[12.96362,58.23751],[12.96186,58.238],[12.96056,58.23894],[12.9604,58.23882],[12.96023,58.23893],[12.95929,58.24085],[12.95875,58.24136],[12.95676,58.24126],[12.95628,58.2416],[12.95635,58.2421],[12.95594,58.24244],[12.95488,58.24248],[12.95328,58.24294],[12.95442,58.24329],[12.95467,58.24374],[12.95516,58.24378],[12.95513,58.24424],[12.95397,58.24481],[12.95368,58.24424],[12.95245,58.24424],[12.95093,58.245],[12.94984,58.24424],[12.94942,58.24438],[12.94959,58.24491],[12.94836,58.24511],[12.94756,58.24444],[12.94674,58.24451],[12.94584,58.24392],[12.94488,58.24371],[12.94434,58.24405],[12.94331,58.24397],[12.94289,58.24504],[12.94239,58.24528],[12.94242,58.24577],[12.94278,58.24636],[12.94381,58.24646],[12.94345,58.24714],[12.94166,58.24791],[12.94084,58.24874],[12.94088,58.24896],[12.94173,58.24905],[12.94067,58.24927],[12.94074,58.24955],[12.941,58.25001],[12.9414,58.25011],[12.94119,58.25039],[12.94485,58.25046],[12.94838,58.25112],[12.9498,58.25005],[12.9513,58.24932],[12.95487,58.24809],[12.9574,58.24754],[12.96007,58.24733],[12.96212,58.24742],[12.96493,58.24779],[12.96723,58.24842],[12.97006,58.24788],[12.97366,58.24778],[12.97697,58.24825],[12.97949,58.24906],[12.98173,58.25032],[12.98465,58.25268],[12.98665,58.25079],[12.99194,58.2477],[12.99362,58.24715],[12.9961,58.24669],[12.99807,58.24657],[13.00055,58.24668],[13.00306,58.24525],[13.00517,58.24449],[13.00765,58.24394],[13.01106,58.24374],[13.01502,58.24424],[13.01831,58.24547],[13.02086,58.2473],[13.02156,58.24831],[13.02252,58.25071],[13.02246,58.25179],[13.02179,58.25317],[13.0196,58.25498],[13.01543,58.25669],[13.0147,58.25742],[13.01436,58.25867],[13.01366,58.25969],[13.01043,58.26213],[13.00656,58.26366],[13.00197,58.26444],[12.9979,58.26427],[12.99353,58.2632],[12.99297,58.2642],[12.99094,58.26648],[12.98874,58.26819],[12.98486,58.26984],[12.98001,58.27088],[12.97862,58.2716],[12.9862,58.27309],[12.99106,58.27508],[12.99564,58.27597],[12.99576,58.27629],[12.98752,58.27546],[12.98087,58.27851],[12.98213,58.27957],[12.98256,58.27928],[12.98321,58.27935],[12.98707,58.28133],[12.98929,58.28272],[12.99083,58.28402],[12.99203,58.28442],[12.99578,58.2864],[12.99905,58.286],[13.00022,58.28616],[13.00091,58.28654],[13.00141,58.28792],[13.00229,58.28838],[13.005,58.28851],[13.00508,58.29203],[13.00413,58.29279],[13.004,58.2935],[13.00439,58.29365],[13.005,58.29514],[13.00234,58.2955],[13.00244,58.30544],[13.00032,58.30589],[13.00015,58.30816],[12.99884,58.30876],[12.99871,58.30902],[12.99932,58.31047],[13.00224,58.31274],[13.00367,58.31416],[13.00319,58.31581],[13.00989,58.31697],[13.00955,58.31937],[13.00281,58.32462],[13.00339,58.3247],[13.00391,58.32503],[13.00455,58.32671],[13.00701,58.3272],[13.00716,58.32825],[13.00779,58.32908],[13.0068,58.33018],[13.0086,58.33089],[13.00928,58.33202],[13.00989,58.33221],[13.01693,58.33249],[13.01777,58.33286],[13.01844,58.33388],[13.02177,58.33473],[13.0224,58.33559],[13.02271,58.33714],[13.02406,58.33802],[13.02455,58.33868],[13.02823,58.33989],[13.02919,58.34075],[13.02926,58.34125],[13.02851,58.34277],[13.02773,58.34344],[13.02816,58.34388],[13.02871,58.34372],[13.02924,58.34407],[13.03021,58.34421],[13.03084,58.34402],[13.03233,58.343],[13.03449,58.34272],[13.03462,58.34288],[13.03307,58.34465],[13.03136,58.34502],[13.03244,58.34546],[13.03261,58.34575],[13.03264,58.3464],[13.03212,58.34749],[13.03294,58.34834],[13.0333,58.34944]]]}},{"type":"Feature","id":"1470R001","properties":{"code":"1470R001","name":"Helås-Arentorp-Tumleberg"},"geometry":{"type":"Polygon","coordinates":[[[12.79502,58.31761],[12.80277,58.31615],[12.83696,58.31311],[12.84445,58.31231],[12.85018,58.31104],[12.85436,58.30971],[12.86498,58.30498],[12.87057,58.30318],[12.87649,58.30174],[12.88206,58.30079],[12.88739,58.30021],[12.89323,58.29993],[12.91239,58.30029],[12.91883,58.30009],[12.9242,58.29961],[12.93691,58.29802],[12.93677,58.2976],[12.93716,58.29735],[12.93981,58.29681],[12.93968,58.29624],[12.93838,58.29637],[12.9382,58.29611],[12.93782,58.29628],[12.93733,58.2962],[12.93753,58.29501],[12.9373,58.29458],[12.93702,58.29435],[12.93566,58.29407],[12.93488,58.29341],[12.93488,58.29189],[12.93411,58.29121],[12.93542,58.29068],[12.93545,58.28987],[12.93485,58.2886],[12.93344,58.28785],[12.93265,58.28687],[12.93363,58.28692],[12.93383,58.28668],[12.93445,58.28722],[12.93544,58.28738],[12.93591,58.28722],[12.93594,58.28682],[12.93438,58.2851],[12.9331,58.28423],[12.9331,58.28329],[12.93187,58.28301],[12.93087,58.28233],[12.93092,58.28159],[12.92907,58.28076],[12.92815,58.27958],[12.92823,58.2792],[12.92923,58.27861],[12.92913,58.27832],[12.92791,58.27797],[12.92778,58.27774],[12.92927,58.27702],[12.92819,58.27578],[12.92923,58.27483],[12.92793,58.27359],[12.92662,58.27298],[12.92717,58.27242],[12.92848,58.27239],[12.92956,58.27126],[12.9294,58.27053],[12.92777,58.26971],[12.92789,58.26954],[12.92991,58.26904],[12.92992,58.26884],[12.92903,58.26833],[12.92709,58.26863],[12.92614,58.26817],[12.92669,58.26744],[12.92843,58.26693],[12.92846,58.26658],[12.9272,58.26655],[12.92658,58.2661],[12.92774,58.26532],[12.92762,58.26478],[12.9262,58.26431],[12.92449,58.26446],[12.92377,58.26416],[12.9239,58.26339],[12.92437,58.26328],[12.92527,58.26362],[12.92599,58.26327],[12.92597,58.26308],[12.92508,58.26294],[12.92445,58.26252],[12.92453,58.2616],[12.92696,58.26114],[12.92775,58.25931],[12.92725,58.2578],[12.9275,58.25639],[12.92816,58.25533],[12.92973,58.2539],[12.93276,58.25225],[12.93444,58.25162],[12.94133,58.25028],[12.94067,58.24927],[12.94173,58.24905],[12.94088,58.24896],[12.94084,58.24874],[12.94166,58.24791],[12.94345,58.24714],[12.94381,58.24646],[12.94278,58.24636],[12.94242,58.24577],[12.94239,58.24528],[12.94289,58.24504],[12.94331,58.24397],[12.94434,58.24405],[12.94488,58.24371],[12.94584,58.24392],[12.94674,58.24451],[12.94756,58.24444],[12.94836,58.24511],[12.94959,58.24491],[12.94942,58.24438],[12.94984,58.24424],[12.95093,58.245],[12.95245,58.24424],[12.95368,58.24424],[12.95397,58.24481],[12.95513,58.24424],[12.95516,58.24378],[12.95467,58.24374],[12.95442,58.24329],[12.95328,58.24294],[12.95488,58.24248],[12.95594,58.24244],[12.95635,58.2421],[12.95628,58.2416],[12.95676,58.24126],[12.95875,58.24136],[12.95929,58.24085],[12.96023,58.23893],[12.9604,58.23882],[12.96056,58.23894],[12.96186,58.238],[12.96362,58.23751],[12.96335,58.2368],[12.96473,58.23624],[12.96645,58.23628],[12.96767,58.23698],[12.96825,58.23667],[12.96789,58.23634],[12.96966,58.23574],[12.97039,58.23499],[12.97093,58.23524],[12.97192,58.23529],[12.97197,58.23494],[12.97247,58.23485],[12.9734,58.23352],[12.97368,58.23279],[12.9732,58.23285],[12.97332,58.23237],[12.97388,58.23243],[12.97409,58.23188],[12.97275,58.23138],[12.97292,58.23074],[12.97349,58.23039],[12.9734,58.23014],[12.97264,58.22996],[12.97205,58.22958],[12.97266,58.22873],[12.97198,58.22836],[12.9721,58.22819],[12.97166,58.22809],[12.97164,58.22765],[12.97349,58.22749],[12.97384,58.22729],[12.97387,58.22688],[12.97323,58.2266],[12.9736,58.22608],[12.97438,58.22613],[12.97462,58.22587],[12.97386,58.22562],[12.97395,58.2253],[12.97476,58.22484],[12.97358,58.22432],[12.97279,58.22445],[12.9734,58.22302],[12.97454,58.22267],[12.97446,58.22237],[12.97387,58.2221],[12.9743,58.22158],[12.9739,58.22101],[12.97427,58.22049],[12.97376,58.22066],[12.97352,58.22012],[12.97399,58.21911],[12.97339,58.21903],[12.97342,58.21865],[12.97384,58.21828],[12.97285,58.21814],[12.97313,58.21674],[12.9727,58.21585],[12.97284,58.21547],[12.974,58.2155],[12.97404,58.21438],[12.97364,58.21379],[12.97434,58.21354],[12.97323,58.21301],[12.95872,58.20995],[12.94575,58.20286],[12.94584,58.20028],[12.93928,58.19879],[12.94032,58.19678],[12.9384,58.19546],[12.93113,58.19344],[12.92608,58.19276],[12.92137,58.19257],[12.92016,58.19282],[12.9187,58.19485],[12.91667,58.19539],[12.91554,58.19657],[12.91213,58.1967],[12.90961,58.19615],[12.90358,58.19947],[12.89764,58.19757],[12.89789,58.19721],[12.8975,58.19559],[12.89797,58.19539],[12.89922,58.19386],[12.89051,58.19258],[12.89007,58.19347],[12.89111,58.19336],[12.89222,58.19362],[12.89362,58.19406],[12.89364,58.19427],[12.89307,58.19433],[12.8932,58.19447],[12.89423,58.19443],[12.89483,58.19464],[12.89396,58.19468],[12.89383,58.195],[12.89308,58.19482],[12.89182,58.19482],[12.88832,58.19533],[12.88657,58.19538],[12.88605,58.19503],[12.88488,58.19513],[12.88332,58.19595],[12.8794,58.19518],[12.87702,58.19713],[12.87459,58.19613],[12.87446,58.19717],[12.87374,58.19715],[12.87301,58.19748],[12.87064,58.1974],[12.8689,58.1978],[12.86773,58.19724],[12.86691,58.19718],[12.86511,58.19834],[12.86396,58.19715],[12.86499,58.19843],[12.86423,58.19891],[12.8626,58.1971],[12.86405,58.19903],[12.86234,58.19711],[12.86395,58.19909],[12.86379,58.1992],[12.86207,58.19713],[12.86376,58.19921],[12.86307,58.19966],[12.86113,58.19726],[12.86025,58.1978],[12.85825,58.1978],[12.85857,58.19762],[12.85845,58.19715],[12.85768,58.19666],[12.85488,58.19764],[12.85215,58.19684],[12.85212,58.19746],[12.85449,58.19779],[12.85215,58.19751],[12.85251,58.19832],[12.85241,58.1991],[12.85205,58.1975],[12.84979,58.19729],[12.85186,58.19742],[12.85198,58.19708],[12.85125,58.19691],[12.85111,58.1972],[12.85052,58.19714],[12.85136,58.19607],[12.85053,58.19607],[12.84815,58.19502],[12.84524,58.19591],[12.84388,58.19513],[12.84296,58.19541],[12.83947,58.19769],[12.83561,58.20057],[12.83307,58.19988],[12.83189,58.20072],[12.83252,58.20151],[12.83256,58.20206],[12.82863,58.20464],[12.82844,58.20527],[12.82615,58.20634],[12.82648,58.20747],[12.82725,58.2082],[12.83445,58.20593],[12.83311,58.20566],[12.83574,58.2048],[12.83618,58.20565],[12.83696,58.20548],[12.83666,58.20478],[12.84,58.20416],[12.84053,58.20541],[12.83085,58.20908],[12.83213,58.21102],[12.83335,58.21228],[12.8341,58.21391],[12.83378,58.214],[12.83362,58.21491],[12.82942,58.21697],[12.82241,58.21848],[12.82023,58.21968],[12.81987,58.22082],[12.82006,58.22191],[12.81821,58.22153],[12.80758,58.21681],[12.80814,58.21653],[12.80643,58.21575],[12.80238,58.21715],[12.79983,58.21544],[12.79528,58.21684],[12.79183,58.21884],[12.79331,58.22068],[12.79257,58.22213],[12.7933,58.22756],[12.78942,58.22837],[12.79015,58.22898],[12.79322,58.2303],[12.79944,58.23352],[12.80158,58.23504],[12.80358,58.23917],[12.80502,58.24085],[12.80598,58.24127],[12.80898,58.23962],[12.81074,58.2402],[12.81129,58.24055],[12.81134,58.2409],[12.81266,58.24165],[12.81356,58.24322],[12.81335,58.24387],[12.81565,58.24532],[12.81569,58.2462],[12.82001,58.24711],[12.82152,58.24762],[12.82208,58.24841],[12.82225,58.24932],[12.81946,58.25097],[12.82984,58.26095],[12.82312,58.26162],[12.82301,58.26113],[12.82123,58.26092],[12.81655,58.26113],[12.81703,58.26203],[12.8172,58.26535],[12.81765,58.26734],[12.81754,58.26752],[12.81572,58.26722],[12.81537,58.26755],[12.81323,58.26766],[12.81374,58.26965],[12.81456,58.26958],[12.81586,58.2704],[12.81542,58.27067],[12.81508,58.27198],[12.8181,58.27699],[12.81923,58.27926],[12.81971,58.28135],[12.82171,58.28158],[12.82397,58.2813],[12.83125,58.28134],[12.83223,58.28947],[12.83188,58.28991],[12.83142,58.29006],[12.82805,58.29027],[12.82735,58.2905],[12.8258,58.29201],[12.82553,58.29349],[12.82602,58.29402],[12.82546,58.29479],[12.82735,58.2972],[12.83093,58.29938],[12.83185,58.30113],[12.82696,58.30093],[12.81568,58.30127],[12.81293,58.30215],[12.81072,58.30443],[12.80878,58.30516],[12.80833,58.30561],[12.79962,58.30765],[12.79928,58.30812],[12.80207,58.31147],[12.79443,58.31389],[12.79554,58.31487],[12.79502,58.31761]]]}},{"type":"Feature","id":"1470R003","properties":{"code":"1470R003","name":"Kvänum"},"geometry":{"type":"Polygon","coordinates":[[[13.18988,58.31363],[13.19256,58.31346],[13.19503,58.31297],[13.19925,58.31273],[13.20122,58.3123],[13.20405,58.31136],[13.20567,58.31062],[13.20754,58.30921],[13.21008,58.30789],[13.21142,58.30661],[13.21201,58.30553],[13.21219,58.30407],[13.21162,58.30254],[13.21039,58.30122],[13.2088,58.30017],[13.20959,58.29878],[13.20976,58.29774],[13.20942,58.29637],[13.20842,58.29508],[13.20871,58.29371],[13.20833,58.29225],[13.20986,58.29022],[13.21002,58.28881],[13.20969,58.28775],[13.20832,58.28612],[13.20611,58.28475],[13.20387,58.28391],[13.20066,58.28334],[13.19792,58.28328],[13.19463,58.28371],[13.19157,58.28466],[13.18909,58.28609],[13.18793,58.28641],[13.18475,58.28683],[13.18301,58.28733],[13.18116,58.28814],[13.1792,58.28938],[13.17699,58.28928],[13.17495,58.2894],[13.17119,58.29025],[13.16871,58.29147],[13.16658,58.29322],[13.16428,58.29473],[13.16274,58.29611],[13.16199,58.29747],[13.16191,58.29892],[13.16251,58.3003],[13.16343,58.30129],[13.16521,58.3025],[13.16494,58.30401],[13.1656,58.30578],[13.1666,58.30688],[13.16909,58.30864],[13.17227,58.30996],[13.17615,58.31065],[13.1831,58.31273],[13.18716,58.31343],[13.18988,58.31363]]]}},{"type":"Feature","id":"1470R004","properties":{"code":"1470R004","name":"Larv-Längjum-Edsvära"},"geometry":{"type":"Polygon","coordinates":[[[13.17488,58.26436],[13.17458,58.26311],[13.18058,58.26337],[13.1845,58.26291],[13.18742,58.26219],[13.18758,58.26323],[13.19915,58.25812],[13.20623,58.25874],[13.2059,58.26107],[13.21451,58.26253],[13.21641,58.25921],[13.21957,58.25958],[13.22142,58.25459],[13.24095,58.25525],[13.2413,58.25631],[13.24364,58.25771],[13.25073,58.25375],[13.2422,58.24262],[13.24388,58.24231],[13.24341,58.2341],[13.23981,58.23405],[13.24019,58.23363],[13.23303,58.227],[13.24427,58.22577],[13.24876,58.223],[13.25367,58.22119],[13.2612,58.22007],[13.26362,58.21861],[13.2668,58.2181],[13.26891,58.2163],[13.27012,58.21565],[13.27641,58.21787],[13.28548,58.21989],[13.28593,58.21929],[13.28726,58.2189],[13.29362,58.2178],[13.29559,58.21567],[13.30374,58.21017],[13.30553,58.21015],[13.30694,58.20983],[13.30975,58.20955],[13.31077,58.21],[13.31419,58.20969],[13.31374,58.20874],[13.31962,58.20492],[13.31996,58.20365],[13.31068,58.20184],[13.30477,58.19874],[13.30342,58.20016],[13.30672,58.20142],[13.3063,58.20197],[13.2856,58.19052],[13.28418,58.19046],[13.28323,58.18966],[13.28103,58.18935],[13.27947,58.18981],[13.2755,58.18999],[13.25724,58.18886],[13.25579,58.19012],[13.25463,58.19027],[13.25373,58.19017],[13.25231,58.18969],[13.25206,58.18885],[13.25139,58.1883],[13.25038,58.18897],[13.25013,58.18953],[13.24874,58.1903],[13.24562,58.19018],[13.2441,58.18961],[13.2433,58.18876],[13.24421,58.18805],[13.24385,58.18763],[13.24491,58.18741],[13.24566,58.18681],[13.24688,58.18657],[13.24719,58.18635],[13.24691,58.18577],[13.24573,58.18529],[13.24363,58.18385],[13.24397,58.18218],[13.24362,58.18113],[13.24286,58.18036],[13.24288,58.17984],[13.24168,58.17866],[13.24193,58.17798],[13.24143,58.17664],[13.24224,58.17615],[13.24228,58.17531],[13.24317,58.17375],[13.24195,58.17289],[13.24014,58.17226],[13.2398,58.17143],[13.23806,58.17098],[13.23666,58.17025],[13.23624,58.16966],[13.23462,58.16928],[13.23408,58.1689],[13.23405,58.16855],[13.23471,58.16803],[13.23629,58.16767],[13.23597,58.16723],[13.23617,58.16691],[13.23429,58.1658],[13.23312,58.16325],[13.23063,58.16236],[13.23054,58.1618],[13.23094,58.16142],[13.23011,58.16056],[13.23054,58.15921],[13.22977,58.15861],[13.22909,58.15843],[13.22728,58.15612],[13.22796,58.15616],[13.22799,58.15602],[13.22729,58.15578],[13.22706,58.15542],[13.22712,58.15362],[13.22756,58.15331],[13.22871,58.15312],[13.22935,58.1523],[13.2287,58.15145],[13.22855,58.15012],[13.22941,58.14873],[13.23032,58.14831],[13.2313,58.14737],[13.2302,58.14635],[13.23,58.14569],[13.22862,58.14479],[13.22882,58.14454],[13.22568,58.1362],[13.2114,58.14284],[13.17592,58.12104],[13.14209,58.11407],[13.13652,58.11387],[13.13485,58.11345],[13.13326,58.11383],[13.12685,58.11339],[13.11507,58.11496],[13.11376,58.1155],[13.11279,58.11546],[13.10901,58.11623],[13.10892,58.11605],[13.1053,58.11633],[13.10444,58.11587],[13.1003,58.11601],[13.10036,58.11576],[13.0968,58.11602],[13.09633,58.11592],[13.09607,58.11605],[13.0864,58.11674],[13.08925,58.12219],[13.08911,58.12252],[13.08804,58.12312],[13.08749,58.12387],[13.08621,58.12452],[13.0859,58.12511],[13.08529,58.12506],[13.08436,58.12536],[13.08275,58.12619],[13.08295,58.12726],[13.08377,58.1279],[13.08366,58.12848],[13.08396,58.1284],[13.08453,58.12873],[13.08565,58.12799],[13.08597,58.1281],[13.08631,58.12886],[13.08778,58.12952],[13.08777,58.13009],[13.08861,58.13026],[13.09129,58.12983],[13.09432,58.12849],[13.0967,58.12895],[13.09754,58.12896],[13.09107,58.13142],[13.0864,58.13486],[13.09419,58.13683],[13.10612,58.1403],[13.1053,58.14111],[13.10474,58.14105],[13.10461,58.14137],[13.10509,58.14138],[13.10513,58.14169],[13.10271,58.14181],[13.10061,58.14512],[13.08856,58.14204],[13.08582,58.14448],[13.09348,58.14639],[13.08877,58.15029],[13.08658,58.14965],[13.08546,58.14965],[13.08257,58.15068],[13.08045,58.15229],[13.08008,58.15292],[13.07999,58.15761],[13.06674,58.15708],[13.06701,58.15733],[13.06883,58.1578],[13.06925,58.15854],[13.06723,58.15953],[13.06575,58.15969],[13.06395,58.15899],[13.06507,58.16222],[13.06292,58.16277],[13.0578,58.1757],[13.05876,58.17894],[13.05627,58.17942],[13.05673,58.18071],[13.05907,58.18309],[13.07037,58.19038],[13.06717,58.19184],[13.06894,58.19269],[13.07049,58.19312],[13.07325,58.19352],[13.07787,58.19514],[13.08035,58.19509],[13.08146,58.19526],[13.08283,58.19499],[13.08376,58.19534],[13.08466,58.1953],[13.0846,58.19549],[13.08371,58.19591],[13.08365,58.19615],[13.08143,58.19716],[13.08112,58.19708],[13.08109,58.19757],[13.08029,58.19776],[13.08009,58.19806],[13.07958,58.19828],[13.07866,58.19829],[13.07834,58.19922],[13.07928,58.19919],[13.07971,58.19938],[13.07901,58.19979],[13.07829,58.1999],[13.07767,58.19973],[13.0759,58.2],[13.07585,58.20049],[13.07297,58.20067],[13.0726,58.20128],[13.07116,58.20166],[13.07035,58.20166],[13.06889,58.20214],[13.06814,58.202],[13.06703,58.20262],[13.0659,58.20275],[13.06543,58.20301],[13.06567,58.20326],[13.06423,58.20413],[13.06368,58.20398],[13.06193,58.20416],[13.06168,58.20402],[13.06104,58.20408],[13.06085,58.20443],[13.06035,58.20456],[13.05978,58.20432],[13.05832,58.20429],[13.05731,58.20463],[13.05709,58.20532],[13.05597,58.2053],[13.05532,58.2055],[13.05487,58.20541],[13.05469,58.20505],[13.05391,58.20535],[13.05266,58.20497],[13.05241,58.20524],[13.05075,58.20559],[13.05012,58.20663],[13.04944,58.20652],[13.04832,58.20745],[13.0472,58.20783],[13.04713,58.20819],[13.04679,58.20825],[13.04699,58.20989],[13.04748,58.21046],[13.04727,58.21068],[13.04597,58.21128],[13.04528,58.21129],[13.0452,58.21157],[13.04396,58.21208],[13.04357,58.21175],[13.03985,58.21216],[13.03977,58.21256],[13.03936,58.21256],[13.03864,58.21335],[13.03837,58.21429],[13.03874,58.21494],[13.03817,58.21537],[13.03729,58.2156],[13.03636,58.21556],[13.03496,58.21608],[13.03368,58.21593],[13.03286,58.21629],[13.03288,58.2165],[13.03168,58.21662],[13.03132,58.21643],[13.03067,58.21658],[13.02966,58.216],[13.02836,58.21592],[13.02672,58.21648],[13.02583,58.2173],[13.02495,58.21762],[13.02258,58.21765],[13.02191,58.21749],[13.02182,58.21766],[13.02128,58.21749],[13.02014,58.21786],[13.01922,58.21791],[13.01884,58.21767],[13.01763,58.21763],[13.01758,58.21737],[13.0166,58.2175],[13.01675,58.21796],[13.01623,58.21815],[13.0148,58.21824],[13.01382,58.21908],[13.0133,58.21913],[13.01292,58.21968],[13.01384,58.22067],[13.01375,58.22099],[13.01462,58.22102],[13.01449,58.22185],[13.01651,58.22274],[13.01676,58.22333],[13.01622,58.22411],[13.01542,58.22459],[13.01591,58.22544],[13.01527,58.2269],[13.01494,58.22706],[13.01628,58.22775],[13.01584,58.22823],[13.0311,58.23605],[13.03192,58.23435],[13.03156,58.23362],[13.03511,58.23338],[13.03473,58.23157],[13.04282,58.23002],[13.05423,58.2308],[13.06216,58.23209],[13.06407,58.23121],[13.06486,58.23133],[13.09798,58.23864],[13.10002,58.23831],[13.10085,58.23792],[13.1042,58.24061],[13.10803,58.23927],[13.11179,58.23743],[13.11434,58.23657],[13.11419,58.2364],[13.11938,58.23514],[13.12219,58.24613],[13.14531,58.2444],[13.14639,58.24819],[13.1455,58.24919],[13.15217,58.25233],[13.15181,58.25467],[13.15226,58.25744],[13.15287,58.25819],[13.16189,58.25836],[13.16065,58.26011],[13.1603,58.26106],[13.16047,58.26289],[13.17065,58.26408],[13.17419,58.26491],[13.17488,58.26436]]]}},{"type":"Feature","id":"1470R005","properties":{"code":"1470R005","name":"Stora Levene-Håkantorp"},"geometry":{"type":"Polygon","coordinates":[[[12.90095,58.38809],[12.90362,58.38744],[12.9047,58.38667],[12.90638,58.38598],[12.90727,58.38471],[12.90741,58.38363],[12.91822,58.38586],[12.91945,58.38717],[12.92108,58.38759],[12.9214,58.38722],[12.92124,58.38694],[12.92189,58.38635],[12.92294,58.38338],[12.91909,58.37978],[12.92895,58.37786],[12.94326,58.36988],[12.95247,58.3615],[12.95193,58.36091],[12.95262,58.36031],[12.95489,58.35991],[12.95462,58.35952],[12.95624,58.35804],[12.95775,58.35543],[12.96079,58.35168],[12.9609,58.35105],[12.96212,58.34912],[12.96681,58.34555],[12.97485,58.34825],[12.978,58.34388],[12.97242,58.34146],[12.97351,58.34067],[12.9667,58.33757],[12.95755,58.33399],[12.95141,58.33183],[12.94867,58.33142],[12.95197,58.32726],[12.95579,58.32483],[12.9591,58.32276],[12.961,58.32326],[12.96302,58.32196],[12.96387,58.32171],[12.9649,58.3217],[12.96641,58.32133],[12.9673,58.32152],[12.97339,58.31822],[12.97547,58.31573],[12.97602,58.31589],[12.97761,58.31546],[12.97833,58.31563],[12.97846,58.31644],[12.97894,58.31675],[12.98035,58.31634],[12.98097,58.31642],[12.98041,58.31743],[12.98105,58.31786],[12.98195,58.3178],[12.98227,58.3172],[12.98348,58.31674],[12.98452,58.31674],[12.98662,58.31729],[12.98863,58.31944],[12.98774,58.32058],[12.99012,58.32096],[12.99002,58.32177],[12.99031,58.32202],[12.99257,58.32184],[12.99337,58.32193],[12.99374,58.32208],[12.99412,58.32287],[12.99596,58.32308],[12.99741,58.32358],[12.99958,58.32396],[13.00029,58.32469],[13.00094,58.32496],[13.00281,58.32462],[13.00955,58.31937],[13.00989,58.31697],[13.00319,58.31581],[13.00367,58.31416],[13.00224,58.31274],[12.99932,58.31047],[12.99871,58.30902],[12.99884,58.30876],[13.00015,58.30816],[13.00032,58.30589],[13.00244,58.30544],[13.00234,58.2955],[13.005,58.29514],[13.00439,58.29365],[13.004,58.2935],[13.00413,58.29279],[13.00508,58.29203],[13.005,58.28851],[13.00229,58.28838],[13.00141,58.28792],[13.00091,58.28654],[13.00022,58.28616],[12.99905,58.286],[12.99578,58.2864],[12.99203,58.28442],[12.99083,58.28402],[12.98929,58.28272],[12.98707,58.28133],[12.98321,58.27935],[12.98256,58.27928],[12.98213,58.27957],[12.98087,58.27851],[12.98752,58.27546],[12.99576,58.27629],[12.99564,58.27597],[12.99106,58.27508],[12.9862,58.27309],[12.97862,58.2716],[12.97642,58.27232],[12.97382,58.27274],[12.97063,58.27366],[12.96689,58.27404],[12.96549,58.27501],[12.96399,58.2757],[12.96228,58.27622],[12.95965,58.2767],[12.95569,58.2768],[12.953,58.2764],[12.94642,58.27599],[12.94384,58.27556],[12.94198,58.27504],[12.93975,58.27399],[12.9372,58.27312],[12.93501,58.27176],[12.9339,58.27044],[12.93348,58.26846],[12.93279,58.26748],[12.92935,58.26576],[12.92767,58.26419],[12.92689,58.26252],[12.92696,58.26114],[12.92453,58.2616],[12.92445,58.26252],[12.92508,58.26294],[12.92597,58.26308],[12.92594,58.26341],[12.92527,58.26362],[12.92437,58.26328],[12.9239,58.26339],[12.92364,58.26383],[12.92397,58.26436],[12.92449,58.26446],[12.9262,58.26431],[12.92762,58.26478],[12.92782,58.26503],[12.92774,58.26532],[12.92658,58.2661],[12.9272,58.26655],[12.92846,58.26658],[12.92843,58.26693],[12.92669,58.26744],[12.92614,58.26817],[12.92709,58.26863],[12.92903,58.26833],[12.92992,58.26884],[12.92991,58.26904],[12.92789,58.26954],[12.92777,58.26971],[12.9294,58.27053],[12.92956,58.27126],[12.92848,58.27239],[12.92717,58.27242],[12.92662,58.27298],[12.92793,58.27359],[12.92923,58.27483],[12.92819,58.27578],[12.92927,58.27702],[12.92778,58.27774],[12.92791,58.27797],[12.92913,58.27832],[12.92923,58.27861],[12.92823,58.2792],[12.92815,58.27958],[12.92907,58.28076],[12.93092,58.28159],[12.93087,58.28233],[12.93187,58.28301],[12.9331,58.28329],[12.9331,58.28423],[12.93438,58.2851],[12.93594,58.28682],[12.93591,58.28722],[12.93544,58.28738],[12.93445,58.28722],[12.93383,58.28668],[12.93363,58.28692],[12.93265,58.28687],[12.93344,58.28785],[12.93485,58.2886],[12.93545,58.28987],[12.93542,58.29068],[12.93411,58.29121],[12.93488,58.29189],[12.93488,58.29341],[12.93566,58.29407],[12.93702,58.29435],[12.9373,58.29458],[12.93753,58.29501],[12.93733,58.2962],[12.93782,58.29628],[12.9382,58.29611],[12.93838,58.29637],[12.93968,58.29624],[12.93981,58.29681],[12.93716,58.29735],[12.93677,58.2976],[12.93691,58.29802],[12.9242,58.29961],[12.91883,58.30009],[12.91239,58.30029],[12.89323,58.29993],[12.88739,58.30021],[12.88206,58.30079],[12.87649,58.30174],[12.87057,58.30318],[12.86498,58.30498],[12.85436,58.30971],[12.85018,58.31104],[12.84445,58.31231],[12.83696,58.31311],[12.80277,58.31615],[12.79932,58.31665],[12.79502,58.31761],[12.79361,58.32508],[12.79215,58.33554],[12.79252,58.33566],[12.79279,58.33546],[12.79342,58.3355],[12.79607,58.33804],[12.79452,58.33914],[12.79457,58.34032],[12.79214,58.34139],[12.79084,58.34966],[12.79227,58.34991],[12.79476,58.35125],[12.79598,58.35357],[12.79744,58.35526],[12.80021,58.35985],[12.80324,58.36311],[12.81214,58.37069],[12.81756,58.37598],[12.81662,58.37623],[12.8164,58.37682],[12.81577,58.37699],[12.81746,58.37869],[12.81983,58.37806],[12.82265,58.3798],[12.82588,58.38278],[12.82883,58.38365],[12.83565,58.38462],[12.84525,58.38748],[12.84535,58.38724],[12.85277,58.38596],[12.85683,58.38507],[12.86061,58.38493],[12.86282,58.38519],[12.86925,58.38522],[12.87264,58.385],[12.87342,58.38461],[12.87687,58.38449],[12.88212,58.38474],[12.88795,58.38539],[12.89048,58.3863],[12.89592,58.38651],[12.89654,58.38692],[12.89705,58.38695],[12.89964,58.38889],[12.90095,58.38809]]]}},{"type":"Feature","id":"1470R006","properties":{"code":"1470R006","name":"Vara västra"},"geometry":{"type":"Polygon","coordinates":[[[12.95702,58.27685],[12.95965,58.2767],[12.96228,58.27622],[12.965,58.27527],[12.96689,58.27404],[12.97063,58.27366],[12.97382,58.27274],[12.97642,58.27232],[12.97862,58.2716],[12.97477,58.27044],[12.97005,58.26942],[12.9663,58.26827],[12.96361,58.26779],[12.96452,58.26709],[12.96202,58.26677],[12.95811,58.26467],[12.95611,58.26327],[12.95595,58.26303],[12.95622,58.26279],[12.95523,58.26226],[12.95329,58.26327],[12.95284,58.26288],[12.95305,58.26238],[12.95202,58.26187],[12.95472,58.2605],[12.96254,58.25733],[12.96717,58.25587],[12.969,58.25601],[12.97079,58.25691],[12.9713,58.25668],[12.96608,58.25456],[12.95358,58.24856],[12.95028,58.24978],[12.94838,58.25112],[12.94485,58.25046],[12.94099,58.2504],[12.93566,58.2513],[12.93229,58.25248],[12.92935,58.25418],[12.92768,58.25603],[12.92725,58.2578],[12.92775,58.25931],[12.92698,58.26107],[12.92685,58.26215],[12.92727,58.26355],[12.92821,58.26484],[12.92977,58.26602],[12.93279,58.26748],[12.93348,58.26846],[12.93359,58.26972],[12.93412,58.27079],[12.93536,58.27205],[12.93668,58.27287],[12.93975,58.27399],[12.94202,58.27506],[12.94464,58.27573],[12.94901,58.27624],[12.953,58.2764],[12.95502,58.27674],[12.95702,58.27685]]]}},{"type":"Feature","id":"1470R007","properties":{"code":"1470R007","name":"Vara östra-Emtunga"},"geometry":{"type":"Polygon","coordinates":[[[12.97865,58.27159],[12.98001,58.27088],[12.98486,58.26984],[12.98878,58.26817],[12.99094,58.26648],[12.99297,58.2642],[12.99353,58.2632],[12.9979,58.26427],[13.00057,58.26447],[13.00262,58.26439],[13.00712,58.26349],[13.00933,58.26267],[13.01126,58.2616],[13.01366,58.25969],[13.01436,58.25867],[13.0147,58.25742],[13.01543,58.25669],[13.01748,58.25597],[13.02006,58.2547],[13.02151,58.2535],[13.02236,58.25213],[13.02245,58.25035],[13.02114,58.24763],[13.0198,58.24637],[13.01732,58.24499],[13.01502,58.24424],[13.01309,58.24389],[13.00902,58.24379],[13.00642,58.24417],[13.00456,58.24469],[13.00203,58.24572],[13.00055,58.24668],[12.99742,58.24659],[12.99421,58.24701],[12.99194,58.2477],[12.99048,58.24842],[12.98623,58.25109],[12.98465,58.25268],[12.98333,58.25146],[12.97999,58.24929],[12.97772,58.24844],[12.97512,58.24792],[12.97088,58.2478],[12.96723,58.24842],[12.96365,58.24758],[12.95942,58.24735],[12.95608,58.24778],[12.95358,58.24856],[12.96608,58.25456],[12.9713,58.25668],[12.97079,58.25691],[12.969,58.25601],[12.96717,58.25587],[12.96254,58.25733],[12.95472,58.2605],[12.95202,58.26187],[12.95305,58.26238],[12.95284,58.26288],[12.95329,58.26327],[12.95523,58.26226],[12.95622,58.26279],[12.95595,58.26303],[12.95611,58.26327],[12.95811,58.26467],[12.96202,58.26677],[12.96452,58.26709],[12.96361,58.26779],[12.9663,58.26827],[12.97005,58.26942],[12.97477,58.27044],[12.97865,58.27159]]]}},{"type":"Feature","id":"1470R008","properties":{"code":"1470R008","name":"Vedum"},"geometry":{"type":"Polygon","coordinates":[[[13.00257,58.18399],[13.00463,58.18384],[13.00917,58.18313],[13.0115,58.18236],[13.01335,58.18134],[13.01492,58.17973],[13.01595,58.17732],[13.01787,58.17682],[13.01985,58.17602],[13.02128,58.17517],[13.02256,58.17401],[13.02362,58.17184],[13.02326,58.16996],[13.02175,58.16819],[13.0204,58.16728],[13.01877,58.16653],[13.01876,58.16431],[13.01752,58.16253],[13.01487,58.1607],[13.01283,58.1597],[13.00932,58.15848],[13.00676,58.15797],[13.00267,58.15788],[13.00019,58.15734],[12.99825,58.15713],[12.99077,58.15718],[12.98772,58.1578],[12.98561,58.15865],[12.98111,58.16111],[12.97929,58.163],[12.97682,58.16395],[12.97512,58.16509],[12.97378,58.16686],[12.9736,58.16879],[12.97238,58.17006],[12.97151,58.17167],[12.97126,58.1727],[12.97151,58.17408],[12.97314,58.17603],[12.97443,58.17683],[12.97652,58.17767],[12.9796,58.17829],[12.98407,58.17864],[12.98628,58.1786],[12.98898,58.179],[12.99076,58.18113],[12.99367,58.18263],[12.99548,58.18314],[12.99927,58.1838],[13.00257,58.18399]]]}},{"type":"Feature","id":"1470R009","properties":{"code":"1470R009","name":"Vedumsbygden"},"geometry":{"type":"Polygon","coordinates":[[[13.01121,58.21971],[13.01295,58.2197],[13.0133,58.21913],[13.01382,58.21908],[13.0148,58.21824],[13.0151,58.21832],[13.01675,58.21796],[13.0168,58.21744],[13.01767,58.21739],[13.01763,58.21763],[13.01884,58.21767],[13.01922,58.21791],[13.02014,58.21786],[13.02128,58.21749],[13.02182,58.21766],[13.02191,58.21749],[13.02258,58.21765],[13.02444,58.21768],[13.02575,58.21734],[13.02672,58.21648],[13.02836,58.21592],[13.02966,58.216],[13.03067,58.21658],[13.03132,58.21643],[13.03168,58.21662],[13.03288,58.2165],[13.03286,58.21629],[13.03368,58.21593],[13.03496,58.21608],[13.03636,58.21556],[13.03729,58.2156],[13.03817,58.21537],[13.03874,58.21494],[13.03837,58.21429],[13.03864,58.21335],[13.03936,58.21256],[13.03977,58.21256],[13.03985,58.21216],[13.04357,58.21175],[13.04396,58.21208],[13.0452,58.21157],[13.04528,58.21129],[13.04597,58.21128],[13.04727,58.21068],[13.04748,58.21046],[13.04699,58.20989],[13.04679,58.20825],[13.04713,58.20819],[13.0472,58.20783],[13.04832,58.20745],[13.04944,58.20652],[13.05012,58.20663],[13.05075,58.20559],[13.05241,58.20524],[13.05266,58.20497],[13.05391,58.20535],[13.05469,58.20505],[13.05487,58.20541],[13.05532,58.2055],[13.05597,58.2053],[13.05709,58.20532],[13.05731,58.20463],[13.05832,58.20429],[13.05978,58.20432],[13.06035,58.20456],[13.06085,58.20443],[13.06104,58.20408],[13.06168,58.20402],[13.06193,58.20416],[13.06368,58.20398],[13.06423,58.20413],[13.06567,58.20326],[13.06543,58.20301],[13.0659,58.20275],[13.06703,58.20262],[13.06814,58.202],[13.06889,58.20214],[13.07035,58.20166],[13.07116,58.20166],[13.0726,58.20128],[13.07297,58.20067],[13.07585,58.20049],[13.0759,58.2],[13.07767,58.19973],[13.07829,58.1999],[13.07901,58.19979],[13.07971,58.19938],[13.07928,58.19919],[13.07834,58.19922],[13.07866,58.19829],[13.07958,58.19828],[13.08009,58.19806],[13.08029,58.19776],[13.08109,58.19757],[13.08112,58.19708],[13.08143,58.19716],[13.08365,58.19615],[13.08371,58.19591],[13.0846,58.19549],[13.08466,58.1953],[13.08376,58.19534],[13.08283,58.19499],[13.08146,58.19526],[13.08035,58.19509],[13.07787,58.19514],[13.07325,58.19352],[13.07049,58.19312],[13.06894,58.19269],[13.06717,58.19184],[13.07037,58.19038],[13.05907,58.18309],[13.05673,58.18071],[13.05627,58.17942],[13.05876,58.17894],[13.0578,58.1757],[13.06292,58.16277],[13.06507,58.16222],[13.06395,58.15899],[13.06575,58.15969],[13.06723,58.15953],[13.06925,58.15854],[13.06883,58.1578],[13.06701,58.15733],[13.06674,58.15708],[13.07999,58.15761],[13.08008,58.15292],[13.08045,58.15229],[13.08257,58.15068],[13.08546,58.14965],[13.08658,58.14965],[13.08877,58.15029],[13.09348,58.14639],[13.08582,58.14448],[13.08856,58.14204],[13.10061,58.14512],[13.10271,58.14181],[13.10513,58.14169],[13.10509,58.14138],[13.10461,58.14137],[13.10474,58.14105],[13.1053,58.14111],[13.10612,58.1403],[13.09419,58.13683],[13.0864,58.13486],[13.09107,58.13142],[13.09754,58.12896],[13.0967,58.12895],[13.09432,58.12849],[13.09129,58.12983],[13.08861,58.13026],[13.08777,58.13009],[13.08778,58.12952],[13.08631,58.12886],[13.08597,58.1281],[13.08565,58.12799],[13.08453,58.12873],[13.08396,58.1284],[13.08366,58.12848],[13.08377,58.1279],[13.08295,58.12726],[13.08275,58.12619],[13.08436,58.12536],[13.08529,58.12506],[13.0859,58.12511],[13.08621,58.12452],[13.08749,58.12387],[13.08804,58.12312],[13.08911,58.12252],[13.08925,58.12219],[13.0864,58.11674],[13.07936,58.11679],[13.0651,58.1145],[13.04591,58.11367],[13.04542,58.11416],[13.04304,58.1149],[13.0402,58.11525],[13.03883,58.11497],[13.03559,58.11536],[13.03333,58.11482],[13.03319,58.11449],[13.03259,58.11441],[13.03161,58.11381],[13.03087,58.11313],[13.03091,58.1121],[13.01845,58.11157],[13.00719,58.1102],[12.97861,58.10911],[12.96312,58.11171],[12.93474,58.11245],[12.92941,58.11488],[12.92254,58.11841],[12.92122,58.11865],[12.91871,58.11953],[12.91871,58.12001],[12.91678,58.12005],[12.91638,58.11973],[12.91391,58.11989],[12.91275,58.12122],[12.91444,58.12261],[12.91466,58.12441],[12.91362,58.12513],[12.91387,58.12567],[12.91489,58.12587],[12.91694,58.12562],[12.91825,58.12581],[12.91986,58.1367],[12.9228,58.1437],[12.90394,58.14823],[12.89114,58.15507],[12.89569,58.15548],[12.89602,58.15692],[12.89035,58.1572],[12.88964,58.15675],[12.88882,58.15821],[12.8834,58.15668],[12.87813,58.15585],[12.87725,58.15608],[12.87675,58.15684],[12.87786,58.15872],[12.87846,58.17064],[12.87608,58.17059],[12.87655,58.16934],[12.87103,58.16834],[12.87333,58.16597],[12.87362,58.16484],[12.86939,58.16375],[12.87018,58.16591],[12.86535,58.16518],[12.86388,58.16572],[12.86241,58.16536],[12.85983,58.16505],[12.85744,58.1673],[12.85371,58.17003],[12.8528,58.17055],[12.85171,58.17081],[12.85031,58.17161],[12.84733,58.17418],[12.84738,58.17437],[12.83583,58.17829],[12.83651,58.17911],[12.83797,58.17959],[12.83878,58.18034],[12.85599,58.17981],[12.86081,58.17936],[12.86755,58.18032],[12.87141,58.18618],[12.89233,58.18869],[12.89173,58.19052],[12.89801,58.19128],[12.89714,58.19354],[12.89051,58.19258],[12.89006,58.19347],[12.89051,58.19258],[12.89922,58.19386],[12.89797,58.19539],[12.8975,58.19559],[12.89789,58.19721],[12.89764,58.19757],[12.90358,58.19947],[12.90961,58.19615],[12.91213,58.1967],[12.91554,58.19657],[12.91667,58.19539],[12.9187,58.19485],[12.92039,58.19269],[12.92137,58.19257],[12.92608,58.19276],[12.93113,58.19344],[12.9384,58.19546],[12.94032,58.19678],[12.93928,58.19879],[12.94584,58.20028],[12.94575,58.20286],[12.95872,58.20995],[12.97323,58.21301],[12.97434,58.21354],[12.97555,58.21289],[12.97652,58.21272],[12.97855,58.21394],[12.98461,58.21486],[12.98589,58.21217],[12.98771,58.21225],[12.99302,58.21116],[12.99443,58.21115],[12.99602,58.21137],[12.99399,58.21631],[12.99961,58.21714],[13.00062,58.21538],[13.00288,58.21672],[13.00318,58.21761],[13.00401,58.2177],[13.00637,58.21863],[13.00937,58.21904],[13.01121,58.21971]],[[13.00127,58.18398],[12.99608,58.18326],[12.9931,58.18242],[12.99041,58.18084],[12.98898,58.179],[12.98628,58.1786],[12.98407,58.17864],[12.9796,58.17829],[12.97596,58.17749],[12.97314,58.17603],[12.97151,58.17408],[12.97126,58.1727],[12.97151,58.17167],[12.97238,58.17006],[12.9736,58.16879],[12.97378,58.16686],[12.97512,58.16509],[12.97682,58.16395],[12.97929,58.163],[12.98111,58.16111],[12.98561,58.15865],[12.98772,58.1578],[12.99077,58.15718],[12.99825,58.15713],[13.00019,58.15734],[13.00267,58.15788],[13.00676,58.15797],[13.00932,58.15848],[13.01334,58.15991],[13.01629,58.1616],[13.01782,58.16283],[13.01887,58.16464],[13.01877,58.16653],[13.0204,58.16728],[13.02175,58.16819],[13.02286,58.16931],[13.02345,58.17038],[13.02356,58.17218],[13.02237,58.17421],[13.01985,58.17602],[13.01787,58.17682],[13.01595,58.17732],[13.01469,58.18007],[13.01295,58.18161],[13.01094,58.18259],[13.00858,58.18326],[13.004,58.18391],[13.00127,58.18398]]]}},{"type":"Feature","id":"1470R010","properties":{"code":"1470R010","name":"Öttum-Norra Vånga"},"geometry":{"type":"Polygon","coordinates":[[[13.19635,58.35183],[13.19704,58.34994],[13.19951,58.34943],[13.20381,58.34976],[13.20549,58.35014],[13.20692,58.35148],[13.20865,58.3511],[13.21388,58.35048],[13.21833,58.34963],[13.21959,58.34905],[13.22002,58.34951],[13.22212,58.34922],[13.2244,58.34848],[13.22566,58.34766],[13.24048,58.3449],[13.24122,58.34421],[13.24433,58.34278],[13.24911,58.33997],[13.25113,58.3382],[13.24582,58.33413],[13.24479,58.33301],[13.24495,58.33233],[13.24464,58.33187],[13.2425,58.32993],[13.24195,58.32966],[13.24137,58.32966],[13.23891,58.32601],[13.25315,58.31818],[13.25035,58.31664],[13.25145,58.31601],[13.24883,58.31467],[13.2485,58.31382],[13.24872,58.31366],[13.24932,58.31368],[13.24916,58.31348],[13.24999,58.313],[13.25009,58.31267],[13.25139,58.3121],[13.25215,58.31202],[13.25295,58.31225],[13.25379,58.31191],[13.25438,58.31198],[13.25465,58.3122],[13.25532,58.3121],[13.25568,58.31179],[13.25574,58.31081],[13.25613,58.31019],[13.25665,58.31024],[13.25729,58.30994],[13.25739,58.30922],[13.25709,58.30883],[13.25914,58.30854],[13.25896,58.30734],[13.25954,58.30577],[13.25903,58.30563],[13.26169,58.30343],[13.27204,58.30398],[13.27857,58.30347],[13.28118,58.30476],[13.28086,58.30551],[13.28178,58.30561],[13.28611,58.30456],[13.2911,58.30408],[13.29205,58.30369],[13.29295,58.30259],[13.29562,58.30233],[13.29605,58.30238],[13.29653,58.30294],[13.29657,58.30407],[13.29801,58.30472],[13.29988,58.30522],[13.30218,58.30547],[13.30377,58.3061],[13.30516,58.30637],[13.30587,58.3064],[13.30832,58.30599],[13.30875,58.30588],[13.3089,58.30552],[13.31022,58.30498],[13.30983,58.30423],[13.32846,58.30195],[13.33534,58.30076],[13.33333,58.29627],[13.36601,58.29351],[13.36757,58.29315],[13.37368,58.29018],[13.38177,58.28569],[13.4051,58.27647],[13.3892,58.25519],[13.38313,58.25896],[13.37837,58.25796],[13.37871,58.25668],[13.37874,58.25205],[13.38231,58.25008],[13.36981,58.24081],[13.35736,58.23307],[13.35495,58.23333],[13.35436,58.23375],[13.35287,58.23388],[13.35215,58.23449],[13.35231,58.23496],[13.35151,58.2355],[13.35058,58.23559],[13.34968,58.23534],[13.3492,58.23548],[13.34667,58.2351],[13.3461,58.23488],[13.34427,58.23485],[13.34299,58.2342],[13.34265,58.23421],[13.34077,58.23294],[13.33832,58.23173],[13.33782,58.23099],[13.33823,58.23054],[13.33935,58.2305],[13.34336,58.22796],[13.34466,58.22751],[13.34502,58.22689],[13.34603,58.2261],[13.32957,58.21591],[13.32545,58.21569],[13.32252,58.21365],[13.32294,58.21315],[13.32451,58.21282],[13.31574,58.20745],[13.31374,58.20874],[13.31419,58.20969],[13.31077,58.21],[13.30975,58.20955],[13.30694,58.20983],[13.30553,58.21015],[13.30374,58.21017],[13.29559,58.21567],[13.29362,58.2178],[13.28726,58.2189],[13.28593,58.21929],[13.28548,58.21989],[13.27641,58.21787],[13.27012,58.21565],[13.26891,58.2163],[13.2668,58.2181],[13.26362,58.21861],[13.2612,58.22007],[13.25367,58.22119],[13.24876,58.223],[13.24427,58.22577],[13.23303,58.227],[13.24019,58.23363],[13.23981,58.23405],[13.24341,58.2341],[13.24388,58.24231],[13.2422,58.24262],[13.25073,58.25375],[13.24364,58.25771],[13.2413,58.25631],[13.24095,58.25525],[13.22142,58.25459],[13.21957,58.25958],[13.21641,58.25921],[13.21451,58.26253],[13.2059,58.26107],[13.20623,58.25874],[13.19915,58.25812],[13.18758,58.26323],[13.18742,58.26219],[13.1845,58.26291],[13.18058,58.26337],[13.17458,58.26311],[13.17488,58.26436],[13.17419,58.26491],[13.17065,58.26408],[13.16369,58.26328],[13.16174,58.26432],[13.16209,58.26467],[13.16178,58.26482],[13.16181,58.26573],[13.15853,58.26657],[13.16258,58.26797],[13.16375,58.26871],[13.16438,58.26958],[13.16466,58.27127],[13.166,58.27234],[13.16589,58.27263],[13.16629,58.27298],[13.16406,58.27357],[13.16236,58.27264],[13.15691,58.27591],[13.15769,58.27757],[13.15456,58.27763],[13.1348,58.27085],[13.13134,58.27236],[13.13103,58.27286],[13.1305,58.27309],[13.1273,58.27368],[13.12399,58.27479],[13.12841,58.28168],[13.12841,58.29049],[13.12638,58.29388],[13.1375,58.29661],[13.13092,58.30341],[13.13046,58.3032],[13.12645,58.30619],[13.1273,58.30674],[13.13146,58.30794],[13.13836,58.31145],[13.12943,58.31512],[13.14054,58.32343],[13.13973,58.32377],[13.13928,58.32372],[13.13629,58.3245],[13.13259,58.32593],[13.13474,58.32812],[13.13606,58.32758],[13.13768,58.32776],[13.13837,58.32703],[13.14035,58.32818],[13.13949,58.3288],[13.1452,58.33237],[13.1492,58.33061],[13.1586,58.33041],[13.1676,58.32923],[13.16988,58.33228],[13.17292,58.33568],[13.17392,58.3363],[13.17118,58.33767],[13.17195,58.33886],[13.16924,58.34086],[13.16835,58.34111],[13.16954,58.34757],[13.17045,58.34768],[13.16946,58.34902],[13.1705,58.34947],[13.1699,58.35039],[13.17141,58.3509],[13.1731,58.3506],[13.17344,58.35073],[13.17475,58.34974],[13.17995,58.35195],[13.18323,58.35301],[13.18562,58.35438],[13.19635,58.35183]],[[13.18918,58.31361],[13.1831,58.31273],[13.17615,58.31065],[13.17227,58.30996],[13.16896,58.30857],[13.1666,58.30688],[13.16539,58.30545],[13.16494,58.30401],[13.16521,58.3025],[13.16343,58.30129],[13.16231,58.29997],[13.16186,58.29855],[13.16211,58.29713],[13.16304,58.29577],[13.16428,58.29473],[13.16658,58.29322],[13.16871,58.29147],[13.17119,58.29025],[13.17495,58.2894],[13.17699,58.28928],[13.1792,58.28938],[13.18116,58.28814],[13.18301,58.28733],[13.18475,58.28683],[13.18793,58.28641],[13.18909,58.28609],[13.19157,58.28466],[13.19463,58.28371],[13.19792,58.28328],[13.2013,58.28341],[13.20387,58.28391],[13.20658,58.28499],[13.20866,58.28641],[13.20969,58.28775],[13.21002,58.28881],[13.20986,58.29022],[13.20833,58.29225],[13.20871,58.29371],[13.20842,58.29508],[13.20942,58.29637],[13.20976,58.29774],[13.20959,58.29878],[13.2088,58.30017],[13.21039,58.30122],[13.21162,58.30254],[13.21219,58.30407],[13.21201,58.30553],[13.21142,58.30661],[13.21008,58.30789],[13.20754,58.30921],[13.20567,58.31062],[13.20322,58.31166],[13.20064,58.31245],[13.19862,58.31282],[13.19503,58.31297],[13.19193,58.31353],[13.18918,58.31361]]]}}]}