{"type":"FeatureCollection","features":[{"type":"Feature","id":"1471R001","properties":{"code":"1471R001","name":"Götene kommun nordvästra"},"geometry":{"type":"Polygon","coordinates":[[[13.62858,58.68298],[13.62526,58.67858],[13.62342,58.67889],[13.62173,58.67699],[13.62097,58.67657],[13.62007,58.67332],[13.62105,58.67257],[13.62041,58.67211],[13.62049,58.67129],[13.61939,58.66977],[13.60498,58.65602],[13.60454,58.65595],[13.60393,58.65547],[13.59847,58.6561],[13.59839,58.65626],[13.58848,58.65295],[13.58786,58.65041],[13.58582,58.64859],[13.58357,58.64812],[13.584,58.64786],[13.58294,58.64708],[13.58569,58.64572],[13.58531,58.6454],[13.59332,58.6454],[13.59563,58.64508],[13.5957,58.64464],[13.59336,58.64193],[13.59383,58.64169],[13.59361,58.64144],[13.60244,58.64157],[13.60279,58.64224],[13.60356,58.64251],[13.61056,58.63826],[13.61208,58.63493],[13.61471,58.63234],[13.61296,58.63036],[13.61195,58.63004],[13.6091,58.62968],[13.60769,58.62978],[13.60595,58.63031],[13.60474,58.63159],[13.60164,58.63008],[13.60212,58.62952],[13.60386,58.62866],[13.60388,58.62812],[13.60636,58.62779],[13.60819,58.62827],[13.60969,58.62839],[13.6112,58.62818],[13.61146,58.62758],[13.61232,58.62746],[13.6123,58.62672],[13.60576,58.62469],[13.60534,58.62421],[13.60555,58.62339],[13.60429,58.62329],[13.60452,58.62281],[13.60472,58.62287],[13.60489,58.6225],[13.60967,58.62112],[13.61256,58.6206],[13.61276,58.62083],[13.61526,58.62061],[13.61662,58.62001],[13.6169,58.62055],[13.617,58.62328],[13.62018,58.62347],[13.63076,58.62213],[13.62284,58.6165],[13.62515,58.61743],[13.62635,58.61828],[13.62842,58.6173],[13.62739,58.61719],[13.62744,58.61666],[13.62842,58.61622],[13.63067,58.61575],[13.63148,58.61375],[13.62921,58.61384],[13.62905,58.61474],[13.62634,58.61596],[13.62284,58.61635],[13.62121,58.61508],[13.62096,58.61346],[13.61288,58.61194],[13.61067,58.61037],[13.60495,58.60912],[13.60202,58.60766],[13.60151,58.6064],[13.60023,58.60548],[13.59642,58.60547],[13.59427,58.60359],[13.59284,58.60309],[13.59067,58.59971],[13.58915,58.60114],[13.58918,58.60143],[13.58381,58.60272],[13.58448,58.60328],[13.58361,58.60458],[13.58503,58.60535],[13.58501,58.60557],[13.58422,58.60599],[13.58517,58.60647],[13.58506,58.60663],[13.57872,58.60598],[13.57599,58.60641],[13.57692,58.60822],[13.57688,58.60905],[13.57876,58.61138],[13.5794,58.61384],[13.57822,58.61453],[13.57757,58.61426],[13.57757,58.61375],[13.57208,58.61573],[13.57054,58.61846],[13.56637,58.61796],[13.57285,58.61212],[13.56155,58.60271],[13.56208,58.60277],[13.56294,58.60246],[13.56404,58.60185],[13.56424,58.60141],[13.56741,58.60011],[13.56773,58.59986],[13.56719,58.59932],[13.56677,58.5991],[13.5654,58.59978],[13.56428,58.60007],[13.56217,58.60026],[13.56136,58.6012],[13.56096,58.60224],[13.5512,58.59417],[13.54864,58.59249],[13.54916,58.59198],[13.54913,58.59138],[13.55118,58.59103],[13.55099,58.59],[13.55054,58.58974],[13.54967,58.58964],[13.54786,58.58997],[13.54736,58.58877],[13.54625,58.58895],[13.54541,58.58954],[13.54459,58.58973],[13.54197,58.58795],[13.54198,58.58688],[13.54044,58.58701],[13.52766,58.57851],[13.50836,58.57161],[13.50987,58.57123],[13.51066,58.57068],[13.5095,58.56984],[13.50579,58.5695],[13.50452,58.56954],[13.50451,58.56997],[13.49421,58.56567],[13.49076,58.56384],[13.49037,58.56547],[13.48855,58.56576],[13.48787,58.5663],[13.48624,58.56676],[13.48562,58.56746],[13.48413,58.56703],[13.48471,58.5665],[13.48409,58.56608],[13.48422,58.56575],[13.48629,58.56323],[13.48582,58.56273],[13.48656,58.56238],[13.48147,58.55721],[13.48168,58.55647],[13.48061,58.55491],[13.47862,58.55339],[13.4832,58.54872],[13.47662,58.54551],[13.47283,58.54405],[13.46754,58.53875],[13.46748,58.53843],[13.46847,58.53829],[13.47033,58.53838],[13.47068,58.53769],[13.46759,58.53699],[13.46314,58.5354],[13.45329,58.5309],[13.45096,58.53021],[13.44778,58.52884],[13.44634,58.52806],[13.44355,58.5259],[13.44138,58.52515],[13.43812,58.52362],[13.43385,58.52057],[13.43288,58.51922],[13.43263,58.51744],[13.43322,58.51603],[13.43485,58.51434],[13.43897,58.51166],[13.44238,58.51045],[13.44434,58.51012],[13.44705,58.51],[13.45111,58.51049],[13.45089,58.51017],[13.45116,58.50794],[13.45253,58.50566],[13.45125,58.50542],[13.45077,58.50555],[13.44802,58.50414],[13.44563,58.50394],[13.44306,58.5034],[13.44221,58.50301],[13.43867,58.50211],[13.4406,58.50632],[13.42682,58.51035],[13.41705,58.51094],[13.41441,58.51123],[13.41303,58.51178],[13.41045,58.51127],[13.41013,58.5118],[13.41213,58.51328],[13.41101,58.514],[13.40283,58.51372],[13.38711,58.51351],[13.38776,58.50731],[13.38904,58.50741],[13.38911,58.50714],[13.38779,58.50708],[13.3881,58.50588],[13.38983,58.50595],[13.38999,58.50557],[13.38855,58.5051],[13.38902,58.50427],[13.39045,58.5047],[13.39077,58.50418],[13.38944,58.50372],[13.39087,58.50209],[13.39399,58.49936],[13.39594,58.49899],[13.39648,58.49698],[13.39803,58.49525],[13.39831,58.49256],[13.39375,58.49208],[13.39161,58.49121],[13.38972,58.48998],[13.38802,58.48945],[13.38774,58.48953],[13.38795,58.48981],[13.38726,58.49001],[13.38669,58.48939],[13.38659,58.48993],[13.38624,58.4901],[13.38573,58.48956],[13.38542,58.48954],[13.38544,58.49],[13.38367,58.49015],[13.38365,58.49051],[13.38317,58.4908],[13.383,58.49015],[13.38263,58.4902],[13.38257,58.49052],[13.38224,58.49061],[13.38202,58.49011],[13.38037,58.48966],[13.37989,58.48883],[13.38043,58.48878],[13.38009,58.48853],[13.38038,58.48838],[13.38006,58.48824],[13.3798,58.4872],[13.37924,58.48663],[13.37947,58.48616],[13.3802,58.48597],[13.381,58.48483],[13.38071,58.48438],[13.37979,58.48412],[13.37939,58.47987],[13.36467,58.48238],[13.34991,58.48316],[13.34987,58.48339],[13.34389,58.48424],[13.33995,58.48134],[13.33562,58.48142],[13.33439,58.48049],[13.33458,58.47975],[13.33388,58.47945],[13.33209,58.47962],[13.32976,58.47946],[13.32921,58.47975],[13.3287,58.47962],[13.3267,58.47995],[13.32539,58.47986],[13.32232,58.48011],[13.31868,58.47701],[13.31729,58.47707],[13.31561,58.4765],[13.31551,58.47607],[13.31437,58.47516],[13.31327,58.47488],[13.3123,58.47504],[13.3123,58.47552],[13.31084,58.47581],[13.31092,58.4762],[13.31162,58.47644],[13.31156,58.47661],[13.31098,58.47686],[13.31031,58.47672],[13.31022,58.47744],[13.30862,58.47768],[13.30832,58.47811],[13.30774,58.47807],[13.30719,58.47865],[13.30589,58.47802],[13.30547,58.47861],[13.30461,58.47875],[13.30402,58.47822],[13.30274,58.47827],[13.30248,58.47785],[13.3004,58.47876],[13.30046,58.47953],[13.3,58.47953],[13.29972,58.47975],[13.29823,58.47943],[13.29789,58.47953],[13.29766,58.48008],[13.29708,58.48019],[13.29643,58.47965],[13.29633,58.48034],[13.2953,58.48022],[13.29419,58.48056],[13.29362,58.48023],[13.29307,58.48071],[13.29183,58.48059],[13.2918,58.48107],[13.29119,58.48136],[13.29078,58.48141],[13.29033,58.48111],[13.28997,58.4812],[13.28906,58.48203],[13.28846,58.48227],[13.29423,58.4845],[13.29341,58.48508],[13.29285,58.48487],[13.29135,58.48592],[13.29381,58.48671],[13.29285,58.48708],[13.28163,58.48403],[13.28117,58.48439],[13.28014,58.48445],[13.28003,58.48485],[13.27906,58.48571],[13.27738,58.48574],[13.27813,58.48639],[13.27717,58.48637],[13.27693,58.48616],[13.27514,58.4864],[13.27618,58.48672],[13.27624,58.48691],[13.27543,58.48701],[13.27482,58.48681],[13.27401,58.48705],[13.27364,58.48666],[13.27293,58.48648],[13.27291,58.48714],[13.2725,58.48748],[13.27125,58.48707],[13.27101,58.48768],[13.27037,58.4873],[13.26885,58.48747],[13.26959,58.48779],[13.26824,58.48811],[13.26816,58.48871],[13.26699,58.48857],[13.26797,58.48925],[13.26679,58.48913],[13.26678,58.48968],[13.26631,58.48928],[13.26604,58.48938],[13.26634,58.48983],[13.26715,58.49013],[13.26638,58.49052],[13.26747,58.4906],[13.26559,58.49089],[13.26654,58.49118],[13.26665,58.49158],[13.26526,58.49191],[13.26497,58.49243],[13.26432,58.49249],[13.26451,58.49298],[13.26358,58.49284],[13.26459,58.49334],[13.26542,58.49313],[13.26696,58.49311],[13.26731,58.49331],[13.26631,58.49382],[13.26698,58.49437],[13.26677,58.49614],[13.26701,58.4971],[13.26441,58.50475],[13.21935,58.53381],[13.27195,58.61019],[13.42508,58.74594],[13.52328,58.75681],[13.62809,58.72275],[13.63483,58.69135],[13.62935,58.68399],[13.62883,58.68376],[13.62858,58.68298]],[[13.31102,58.5412],[13.30739,58.54033],[13.30462,58.54041],[13.30123,58.54005],[13.29759,58.54009],[13.2918,58.53947],[13.28997,58.53904],[13.28624,58.5377],[13.28378,58.53653],[13.28213,58.53499],[13.28155,58.53478],[13.27408,58.5189],[13.27513,58.51706],[13.27618,58.5162],[13.2778,58.51533],[13.27873,58.51288],[13.2798,58.51157],[13.28149,58.51043],[13.2841,58.50943],[13.28444,58.50912],[13.28526,58.50813],[13.28509,58.50697],[13.2855,58.50557],[13.28626,58.50456],[13.28757,58.50353],[13.28852,58.50149],[13.28975,58.50023],[13.29242,58.49856],[13.29505,58.49752],[13.29813,58.49682],[13.30132,58.4965],[13.30492,58.49651],[13.30822,58.49697],[13.31126,58.49804],[13.31464,58.49876],[13.31739,58.49999],[13.31861,58.50092],[13.32028,58.50281],[13.32124,58.50475],[13.32151,58.5064],[13.32302,58.50719],[13.32546,58.50895],[13.32632,58.50996],[13.32685,58.51135],[13.32635,58.51348],[13.32437,58.51536],[13.32291,58.51612],[13.3208,58.51686],[13.31866,58.51735],[13.31644,58.51759],[13.31308,58.51881],[13.31084,58.5209],[13.30782,58.52222],[13.30701,58.52346],[13.30523,58.52489],[13.30871,58.52527],[13.31116,58.52594],[13.31317,58.5269],[13.31471,58.52814],[13.31851,58.52929],[13.32308,58.53154],[13.32456,58.53273],[13.32547,58.53416],[13.32566,58.53558],[13.32503,58.53745],[13.32418,58.53848],[13.32258,58.53963],[13.32087,58.54042],[13.31844,58.54111],[13.3158,58.54145],[13.31303,58.54144],[13.31102,58.5412]]]}},{"type":"Feature","id":"1471R002","properties":{"code":"1471R002","name":"Götene kommun sydöstra"},"geometry":{"type":"Polygon","coordinates":[[[13.57208,58.61573],[13.57757,58.61375],[13.57757,58.61426],[13.57822,58.61453],[13.5794,58.61384],[13.57876,58.61138],[13.57688,58.60905],[13.57692,58.60822],[13.57599,58.60641],[13.57872,58.60598],[13.58506,58.60663],[13.58517,58.60647],[13.58422,58.60599],[13.58501,58.60557],[13.58503,58.60535],[13.58361,58.60458],[13.58448,58.60328],[13.58381,58.60272],[13.58918,58.60143],[13.58915,58.60114],[13.59122,58.59924],[13.59017,58.59823],[13.59525,58.59743],[13.59487,58.59716],[13.59489,58.59637],[13.5944,58.59616],[13.59422,58.59555],[13.59332,58.59554],[13.59341,58.59503],[13.5981,58.59507],[13.59768,58.59369],[13.59791,58.59182],[13.59628,58.59159],[13.59591,58.59039],[13.59807,58.59027],[13.59815,58.59046],[13.60085,58.59021],[13.60516,58.58743],[13.62614,58.57539],[13.65362,58.57161],[13.65723,58.56973],[13.66373,58.56231],[13.66814,58.54406],[13.6665,58.54267],[13.66765,58.54275],[13.67054,58.54344],[13.67092,58.54375],[13.67094,58.54453],[13.67165,58.54478],[13.67287,58.54498],[13.67437,58.54484],[13.6764,58.54492],[13.66915,58.53396],[13.67257,58.53363],[13.67185,58.53221],[13.66979,58.5316],[13.66776,58.5317],[13.66225,58.52324],[13.65437,58.51756],[13.64209,58.51441],[13.63767,58.49636],[13.63283,58.48965],[13.6235,58.48503],[13.62406,58.48475],[13.62444,58.48417],[13.62341,58.48373],[13.62255,58.48301],[13.62115,58.48078],[13.62119,58.48003],[13.62083,58.4799],[13.62203,58.47921],[13.61991,58.47871],[13.61776,58.47871],[13.61788,58.4783],[13.61414,58.47908],[13.61396,58.47816],[13.61328,58.47806],[13.61309,58.47764],[13.6126,58.47749],[13.61135,58.47379],[13.61246,58.47257],[13.61169,58.47194],[13.60009,58.47357],[13.59984,58.4747],[13.59914,58.47464],[13.59624,58.47497],[13.59454,58.47426],[13.59259,58.47423],[13.59004,58.4749],[13.58934,58.47487],[13.58391,58.4746],[13.58155,58.47371],[13.57825,58.47414],[13.57358,58.47382],[13.57002,58.47259],[13.56774,58.47295],[13.56681,58.47048],[13.56611,58.47053],[13.562,58.4683],[13.5662,58.46594],[13.56609,58.46388],[13.56289,58.46306],[13.56017,58.46348],[13.55735,58.46424],[13.54904,58.46272],[13.5457,58.46279],[13.54637,58.46168],[13.54709,58.46161],[13.54761,58.46133],[13.54889,58.46005],[13.54657,58.45939],[13.5432,58.45794],[13.5421,58.45658],[13.54032,58.45553],[13.53661,58.45503],[13.53439,58.45543],[13.53251,58.45523],[13.53066,58.45543],[13.52709,58.45533],[13.52269,58.45628],[13.5216,58.45721],[13.51899,58.4573],[13.51562,58.45665],[13.51401,58.45675],[13.51325,58.45742],[13.51176,58.45741],[13.51048,58.45651],[13.50836,58.45643],[13.50808,58.45619],[13.50288,58.45469],[13.49632,58.4524],[13.49605,58.4515],[13.49645,58.45109],[13.49308,58.45123],[13.49312,58.45187],[13.49699,58.45544],[13.50022,58.45914],[13.49792,58.45936],[13.49781,58.45878],[13.49607,58.45702],[13.49221,58.4548],[13.48685,58.45552],[13.48407,58.4518],[13.48149,58.45213],[13.4789,58.45217],[13.47707,58.45184],[13.47369,58.4517],[13.47275,58.45086],[13.46162,58.45205],[13.4472,58.44904],[13.4391,58.45005],[13.43808,58.44998],[13.43619,58.44736],[13.4405,58.44546],[13.43908,58.44439],[13.4378,58.44376],[13.43609,58.44178],[13.43706,58.43502],[13.43681,58.43273],[13.42864,58.43415],[13.42455,58.43377],[13.42152,58.43407],[13.41919,58.43372],[13.41823,58.43375],[13.41744,58.43425],[13.41654,58.43439],[13.41648,58.43402],[13.41571,58.434],[13.41469,58.4336],[13.41317,58.43366],[13.41231,58.43333],[13.41202,58.43343],[13.41215,58.43359],[13.41168,58.43341],[13.41082,58.43371],[13.40988,58.43354],[13.40969,58.43372],[13.40781,58.4329],[13.40676,58.43292],[13.40652,58.43267],[13.40528,58.43265],[13.40478,58.43235],[13.40254,58.43217],[13.40252,58.43243],[13.40205,58.43238],[13.40129,58.43281],[13.40033,58.43247],[13.39979,58.43249],[13.39927,58.43203],[13.39757,58.43259],[13.39681,58.4325],[13.39506,58.43313],[13.39469,58.43309],[13.39453,58.43275],[13.3941,58.43303],[13.39352,58.43304],[13.39345,58.4333],[13.39289,58.43311],[13.39121,58.43341],[13.39013,58.4333],[13.38973,58.43375],[13.38902,58.43379],[13.38888,58.43399],[13.38924,58.43404],[13.38895,58.43423],[13.38762,58.43457],[13.38666,58.43453],[13.38552,58.43484],[13.38476,58.43472],[13.38432,58.43481],[13.38422,58.43506],[13.38383,58.43495],[13.38278,58.43509],[13.38218,58.43553],[13.38137,58.43571],[13.37812,58.43597],[13.37773,58.43631],[13.37722,58.43614],[13.37683,58.43622],[13.37641,58.43599],[13.37531,58.43625],[13.37321,58.43589],[13.37256,58.43652],[13.37159,58.43665],[13.3716,58.43685],[13.3711,58.43692],[13.37057,58.43729],[13.36868,58.43774],[13.36897,58.43801],[13.36803,58.43816],[13.36767,58.43854],[13.3671,58.43868],[13.36655,58.43854],[13.36659,58.43889],[13.36528,58.43904],[13.3648,58.43948],[13.36422,58.43911],[13.36327,58.43913],[13.36234,58.4395],[13.36158,58.43955],[13.36068,58.43955],[13.36024,58.43922],[13.3597,58.43972],[13.35863,58.4399],[13.35814,58.43962],[13.35769,58.44007],[13.35714,58.43984],[13.35705,58.44002],[13.35621,58.4402],[13.35531,58.43975],[13.35506,58.44032],[13.35438,58.44007],[13.35436,58.44039],[13.35402,58.44036],[13.35381,58.44081],[13.35268,58.44088],[13.35129,58.44045],[13.35036,58.44088],[13.34917,58.44087],[13.34862,58.44064],[13.3486,58.44033],[13.34589,58.43988],[13.34513,58.43926],[13.34391,58.43887],[13.3427,58.43758],[13.33971,58.43626],[13.33844,58.43775],[13.33682,58.43888],[13.33507,58.43986],[13.33356,58.44043],[13.33056,58.44259],[13.33032,58.44298],[13.32918,58.44357],[13.32838,58.44373],[13.32633,58.44484],[13.32547,58.44597],[13.32306,58.44622],[13.32191,58.44662],[13.32227,58.44708],[13.32151,58.44728],[13.32051,58.44833],[13.31966,58.44836],[13.31895,58.44915],[13.31837,58.44941],[13.31852,58.44955],[13.31907,58.44937],[13.31935,58.44957],[13.31778,58.4504],[13.31797,58.45083],[13.31705,58.45071],[13.31562,58.4512],[13.3153,58.45119],[13.31499,58.45088],[13.31456,58.451],[13.315,58.45169],[13.31569,58.45198],[13.31404,58.45196],[13.31384,58.45227],[13.31438,58.45295],[13.31283,58.453],[13.31229,58.45346],[13.31172,58.45358],[13.31163,58.453],[13.31114,58.45287],[13.3107,58.45323],[13.31113,58.45361],[13.31091,58.45396],[13.3104,58.45403],[13.30948,58.45364],[13.30888,58.45388],[13.3068,58.45561],[13.30596,58.45575],[13.30585,58.45677],[13.30536,58.45646],[13.30504,58.45652],[13.3051,58.45678],[13.30607,58.45735],[13.30563,58.45763],[13.30654,58.45782],[13.30676,58.45824],[13.30662,58.45862],[13.30594,58.45843],[13.30518,58.4588],[13.30634,58.45882],[13.30668,58.45916],[13.30593,58.4594],[13.30591,58.45957],[13.30536,58.45927],[13.30489,58.45978],[13.30582,58.4601],[13.3055,58.46043],[13.30472,58.46025],[13.30439,58.46058],[13.30577,58.46086],[13.30599,58.46105],[13.30521,58.46152],[13.30453,58.46157],[13.30496,58.46223],[13.30358,58.46206],[13.30306,58.46274],[13.30216,58.46279],[13.30266,58.46323],[13.30181,58.46384],[13.30238,58.46432],[13.30324,58.46437],[13.30357,58.46468],[13.30329,58.46517],[13.30403,58.46526],[13.30508,58.46615],[13.30518,58.46633],[13.30445,58.46652],[13.3049,58.46671],[13.30516,58.46726],[13.30478,58.46784],[13.30541,58.46801],[13.30595,58.46905],[13.30648,58.46914],[13.30628,58.4695],[13.30688,58.46968],[13.3065,58.46999],[13.30588,58.46984],[13.3055,58.47011],[13.30577,58.47062],[13.3054,58.47104],[13.30451,58.47094],[13.3044,58.47114],[13.30501,58.47148],[13.30486,58.47162],[13.30348,58.4717],[13.30322,58.47275],[13.30415,58.47306],[13.30432,58.47279],[13.30559,58.47273],[13.3061,58.47331],[13.30553,58.47356],[13.30562,58.47379],[13.30673,58.47371],[13.30762,58.47415],[13.3083,58.47423],[13.30928,58.47394],[13.30933,58.47446],[13.31044,58.47389],[13.31179,58.4738],[13.31181,58.47408],[13.31087,58.47438],[13.31097,58.47467],[13.31206,58.47498],[13.31238,58.47462],[13.31281,58.47461],[13.31437,58.47516],[13.31551,58.47607],[13.31561,58.4765],[13.31729,58.47707],[13.31862,58.47697],[13.32232,58.48011],[13.32539,58.47986],[13.3267,58.47995],[13.3287,58.47962],[13.32921,58.47975],[13.32976,58.47946],[13.33209,58.47962],[13.33388,58.47945],[13.33458,58.47975],[13.33439,58.48049],[13.33562,58.48142],[13.33995,58.48134],[13.34389,58.48424],[13.34987,58.48339],[13.34991,58.48316],[13.36467,58.48238],[13.37939,58.47987],[13.37979,58.48412],[13.38071,58.48438],[13.381,58.48483],[13.3802,58.48597],[13.37947,58.48616],[13.37924,58.48663],[13.3798,58.4872],[13.38006,58.48824],[13.38038,58.48838],[13.38009,58.48853],[13.38043,58.48878],[13.37989,58.48883],[13.38037,58.48966],[13.38202,58.49011],[13.38224,58.49061],[13.38257,58.49052],[13.38263,58.4902],[13.383,58.49015],[13.38317,58.4908],[13.38365,58.49051],[13.38367,58.49015],[13.38544,58.49],[13.38542,58.48954],[13.38573,58.48956],[13.38624,58.4901],[13.38659,58.48993],[13.38669,58.48939],[13.38726,58.49001],[13.38795,58.48981],[13.38774,58.48953],[13.38802,58.48945],[13.38972,58.48998],[13.39161,58.49121],[13.39375,58.49208],[13.39831,58.49256],[13.39803,58.49525],[13.39648,58.49698],[13.39594,58.49899],[13.39399,58.49936],[13.39087,58.50209],[13.38944,58.50372],[13.39077,58.50418],[13.39045,58.5047],[13.38902,58.50427],[13.38855,58.5051],[13.38999,58.50557],[13.38983,58.50595],[13.3881,58.50588],[13.38779,58.50708],[13.38911,58.50714],[13.38904,58.50741],[13.38776,58.50731],[13.38711,58.51351],[13.40283,58.51372],[13.41101,58.514],[13.41213,58.51328],[13.41013,58.5118],[13.41045,58.51127],[13.41303,58.51178],[13.41441,58.51123],[13.41705,58.51094],[13.42682,58.51035],[13.4406,58.50632],[13.43867,58.50211],[13.44221,58.50301],[13.44306,58.5034],[13.44563,58.50394],[13.44802,58.50414],[13.45077,58.50555],[13.45125,58.50542],[13.45253,58.50566],[13.45116,58.50794],[13.45089,58.51017],[13.45111,58.51049],[13.45201,58.51073],[13.45565,58.51047],[13.45881,58.51078],[13.46163,58.51045],[13.46438,58.5105],[13.46783,58.51093],[13.47053,58.5117],[13.4757,58.51253],[13.47654,58.51161],[13.47676,58.51016],[13.47797,58.50854],[13.47959,58.50744],[13.48124,58.50674],[13.48333,58.505],[13.4859,58.50389],[13.48966,58.50319],[13.49384,58.50313],[13.49706,58.50358],[13.50029,58.50476],[13.50221,58.50619],[13.50328,58.50784],[13.50489,58.5091],[13.50584,58.51058],[13.50586,58.51288],[13.50421,58.51541],[13.50679,58.51574],[13.50927,58.51641],[13.51149,58.51746],[13.51272,58.51839],[13.51364,58.51947],[13.51419,58.5209],[13.51404,58.52236],[13.51333,58.5236],[13.51348,58.52403],[13.51752,58.52539],[13.51992,58.52705],[13.52077,58.52836],[13.52101,58.5296],[13.52206,58.53114],[13.5222,58.53312],[13.52095,58.53528],[13.51631,58.53988],[13.5149,58.54073],[13.51294,58.54152],[13.50923,58.54228],[13.50723,58.54237],[13.50374,58.5422],[13.49763,58.54124],[13.49487,58.54142],[13.49014,58.54124],[13.48639,58.54047],[13.48258,58.53997],[13.4803,58.53932],[13.47614,58.53899],[13.47256,58.53795],[13.47068,58.53769],[13.47033,58.53838],[13.46882,58.53825],[13.46748,58.53843],[13.46754,58.53875],[13.47283,58.54405],[13.47662,58.54551],[13.4832,58.54872],[13.47862,58.55339],[13.48061,58.55491],[13.48168,58.55647],[13.48147,58.55721],[13.48656,58.56238],[13.48582,58.56273],[13.48629,58.56323],[13.48422,58.56575],[13.48409,58.56608],[13.48471,58.5665],[13.48413,58.56703],[13.48562,58.56746],[13.48624,58.56676],[13.48787,58.5663],[13.48855,58.56576],[13.49037,58.56547],[13.49076,58.56384],[13.49421,58.56567],[13.50451,58.56997],[13.50452,58.56954],[13.50579,58.5695],[13.5095,58.56984],[13.51066,58.57068],[13.50987,58.57123],[13.50836,58.57161],[13.52766,58.57851],[13.54044,58.58701],[13.54198,58.58688],[13.54197,58.58795],[13.54459,58.58973],[13.54541,58.58954],[13.54625,58.58895],[13.54713,58.58877],[13.54756,58.5889],[13.54786,58.58997],[13.54967,58.58964],[13.55054,58.58974],[13.55099,58.59],[13.55123,58.59096],[13.55079,58.59117],[13.54913,58.59138],[13.54916,58.59198],[13.54864,58.59249],[13.5512,58.59417],[13.56096,58.60224],[13.56136,58.6012],[13.56217,58.60026],[13.56428,58.60007],[13.5654,58.59978],[13.56677,58.5991],[13.56773,58.59986],[13.56424,58.60141],[13.56404,58.60185],[13.56294,58.60246],[13.56208,58.60277],[13.56155,58.60271],[13.57285,58.61212],[13.56637,58.61796],[13.57054,58.61846],[13.57208,58.61573]],[[13.43184,58.48077],[13.43172,58.47935],[13.43229,58.47796],[13.43087,58.47599],[13.43091,58.47402],[13.42875,58.47216],[13.42821,58.47112],[13.42808,58.46988],[13.42645,58.46834],[13.42582,58.46691],[13.42603,58.46498],[13.42715,58.4628],[13.42804,58.46178],[13.42983,58.46056],[13.43219,58.4596],[13.43414,58.45913],[13.43658,58.45883],[13.43988,58.45787],[13.44196,58.4576],[13.4441,58.45754],[13.44686,58.45778],[13.44884,58.45821],[13.45107,58.459],[13.45362,58.45924],[13.45609,58.45982],[13.45913,58.46126],[13.46241,58.46432],[13.46452,58.465],[13.46646,58.46604],[13.4686,58.46797],[13.46937,58.46948],[13.4693,58.47138],[13.46838,58.47286],[13.46645,58.47435],[13.46364,58.47554],[13.46231,58.47709],[13.46317,58.47884],[13.46374,58.48141],[13.4634,58.48286],[13.46206,58.48452],[13.46064,58.48549],[13.45847,58.48642],[13.45654,58.48692],[13.45425,58.48727],[13.4508,58.48731],[13.4472,58.48674],[13.44205,58.48631],[13.43901,58.4856],[13.43451,58.48364],[13.43264,58.48215],[13.43184,58.48077]]]}},{"type":"Feature","id":"1471R003","properties":{"code":"1471R003","name":"Götene tätort centrala-Götene tätort södra"},"geometry":{"type":"Polygon","coordinates":[[[13.49058,58.54128],[13.49198,58.53571],[13.49201,58.529],[13.49699,58.52977],[13.49951,58.53048],[13.50657,58.53155],[13.50904,58.53182],[13.51469,58.53193],[13.51651,58.53225],[13.51816,58.533],[13.52225,58.53283],[13.52227,58.53268],[13.52206,58.53114],[13.52101,58.5296],[13.52062,58.52803],[13.51961,58.52675],[13.51752,58.52539],[13.51348,58.52403],[13.51333,58.5236],[13.51404,58.52236],[13.51419,58.5209],[13.51364,58.51947],[13.51272,58.51839],[13.51149,58.51746],[13.50927,58.51641],[13.50679,58.51574],[13.50421,58.51541],[13.50582,58.51299],[13.50595,58.51092],[13.50523,58.5095],[13.50328,58.50784],[13.50221,58.50619],[13.50075,58.50503],[13.49877,58.50409],[13.4958,58.50334],[13.49319,58.50311],[13.49031,58.50315],[13.48771,58.50345],[13.48534,58.50407],[13.48378,58.50475],[13.48124,58.50674],[13.47914,58.50769],[13.47764,58.50885],[13.47676,58.51016],[13.47654,58.51161],[13.4757,58.51253],[13.47053,58.5117],[13.46783,58.51093],[13.46438,58.5105],[13.46163,58.51045],[13.45881,58.51078],[13.45565,58.51047],[13.45201,58.51073],[13.45111,58.51049],[13.45162,58.51124],[13.45086,58.51244],[13.45017,58.51282],[13.44923,58.51236],[13.44691,58.51254],[13.44587,58.51347],[13.45504,58.51629],[13.45526,58.51613],[13.4564,58.51651],[13.45622,58.51666],[13.46286,58.51869],[13.47436,58.52184],[13.47531,58.52447],[13.47454,58.5249],[13.47426,58.5254],[13.47437,58.52636],[13.47235,58.53021],[13.47275,58.53034],[13.47242,58.53058],[13.47404,58.53111],[13.47068,58.53769],[13.47256,58.53795],[13.47614,58.53899],[13.4803,58.53932],[13.48319,58.54009],[13.48639,58.54047],[13.48805,58.54091],[13.49058,58.54128]]]}},{"type":"Feature","id":"1471R004","properties":{"code":"1471R004","name":"Götene tätort nordvästra"},"geometry":{"type":"Polygon","coordinates":[[[13.47068,58.53769],[13.47404,58.53111],[13.47242,58.53058],[13.47275,58.53034],[13.47235,58.53021],[13.47437,58.52636],[13.47426,58.5254],[13.47454,58.5249],[13.47531,58.52447],[13.47436,58.52184],[13.46286,58.51869],[13.45622,58.51666],[13.4564,58.51651],[13.45526,58.51613],[13.45504,58.51629],[13.44587,58.51347],[13.44691,58.51254],[13.44923,58.51236],[13.45017,58.51282],[13.45086,58.51244],[13.45162,58.51124],[13.45111,58.51049],[13.44846,58.51007],[13.44569,58.51002],[13.44238,58.51045],[13.44003,58.51117],[13.43852,58.51191],[13.4345,58.51463],[13.43322,58.51603],[13.43263,58.51744],[13.43274,58.51886],[13.43354,58.52024],[13.43766,58.52334],[13.44138,58.52515],[13.44355,58.5259],[13.44634,58.52806],[13.44778,58.52884],[13.45096,58.53021],[13.45329,58.5309],[13.46314,58.5354],[13.46885,58.53733],[13.47068,58.53769]]]}},{"type":"Feature","id":"1471R005","properties":{"code":"1471R005","name":"Götene tätort nordöstra"},"geometry":{"type":"Polygon","coordinates":[[[13.50788,58.54236],[13.50988,58.5422],[13.51234,58.5417],[13.51427,58.54102],[13.5158,58.54023],[13.51701,58.5393],[13.52095,58.53528],[13.52196,58.5338],[13.52225,58.53283],[13.51816,58.533],[13.51651,58.53225],[13.51469,58.53193],[13.50904,58.53182],[13.50657,58.53155],[13.49951,58.53048],[13.49699,58.52977],[13.49201,58.529],[13.49198,58.53571],[13.49058,58.54128],[13.49487,58.54142],[13.49763,58.54124],[13.50374,58.5422],[13.50788,58.54236]]]}},{"type":"Feature","id":"1471R006","properties":{"code":"1471R006","name":"Källby"},"geometry":{"type":"Polygon","coordinates":[[[13.31444,58.54149],[13.31714,58.54133],[13.31968,58.54081],[13.32144,58.54019],[13.32345,58.53908],[13.32479,58.5378],[13.32538,58.53673],[13.32568,58.53524],[13.32529,58.53374],[13.32426,58.53242],[13.3226,58.53126],[13.31851,58.52929],[13.31471,58.52814],[13.31361,58.52719],[13.31172,58.52617],[13.30871,58.52527],[13.30523,58.52489],[13.30701,58.52346],[13.30782,58.52222],[13.31084,58.5209],[13.31308,58.51881],[13.31644,58.51759],[13.31866,58.51735],[13.3208,58.51686],[13.32291,58.51612],[13.3244,58.51534],[13.32585,58.51414],[13.32655,58.51313],[13.32678,58.51098],[13.32546,58.50895],[13.32302,58.50719],[13.32154,58.50644],[13.32124,58.50475],[13.32028,58.50281],[13.31861,58.50092],[13.31683,58.49967],[13.31464,58.49876],[13.31126,58.49804],[13.30947,58.49732],[13.30757,58.49683],[13.30427,58.49648],[13.3001,58.49658],[13.29684,58.49706],[13.29402,58.49787],[13.29113,58.49926],[13.2894,58.50052],[13.28832,58.50182],[13.28757,58.50353],[13.28626,58.50456],[13.2855,58.50557],[13.28509,58.50697],[13.28526,58.50813],[13.28444,58.50912],[13.2841,58.50943],[13.28149,58.51043],[13.2798,58.51157],[13.27873,58.51288],[13.2778,58.51533],[13.27618,58.5162],[13.27513,58.51706],[13.27408,58.5189],[13.28155,58.53478],[13.28213,58.53499],[13.2842,58.53679],[13.28941,58.53886],[13.29243,58.53957],[13.29824,58.54012],[13.30123,58.54005],[13.30462,58.54041],[13.30739,58.54033],[13.31102,58.5412],[13.31444,58.54149]]]}},{"type":"Feature","id":"1471R007","properties":{"code":"1471R007","name":"Lundsbrunn"},"geometry":{"type":"Polygon","coordinates":[[[13.45276,58.48735],[13.45571,58.48708],[13.45847,58.48642],[13.46076,58.48542],[13.46268,58.48392],[13.4634,58.48286],[13.46374,58.48141],[13.46317,58.47884],[13.46231,58.47709],[13.46364,58.47554],[13.46645,58.47435],[13.46846,58.47277],[13.46939,58.47104],[13.46923,58.46904],[13.46833,58.46765],[13.46646,58.46604],[13.46452,58.465],[13.46241,58.46432],[13.45954,58.46156],[13.45721,58.46022],[13.45424,58.45935],[13.45107,58.459],[13.44884,58.45821],[13.44686,58.45778],[13.4441,58.45754],[13.44131,58.45766],[13.43851,58.45818],[13.43658,58.45883],[13.43277,58.45943],[13.42938,58.46081],[13.42804,58.46178],[13.42695,58.46312],[13.42588,58.46541],[13.42594,58.46735],[13.42677,58.46874],[13.42808,58.46988],[13.42821,58.47112],[13.42875,58.47216],[13.43091,58.47402],[13.43087,58.47599],[13.43229,58.47796],[13.43172,58.47935],[13.43184,58.48077],[13.43262,58.48213],[13.43366,58.48309],[13.43647,58.4846],[13.44078,58.48609],[13.4472,58.48674],[13.44997,58.48724],[13.45276,58.48735]]]}}]}