{"type":"FeatureCollection","features":[{"type":"Feature","id":"1485R001","properties":{"code":"1485R001","name":"Ammenäs-Forshälla-Backamo"},"geometry":{"type":"Polygon","coordinates":[[[11.87855,58.33019],[11.88725,58.3267],[11.88852,58.32641],[11.88995,58.32519],[11.89186,58.32423],[11.89579,58.3232],[11.89731,58.32238],[11.89906,58.32174],[11.90246,58.3211],[11.90653,58.32109],[11.90985,58.32169],[11.91345,58.32191],[11.9165,58.32244],[11.91983,58.32189],[11.92365,58.32177],[11.92953,58.32305],[11.93113,58.32169],[11.93263,58.3212],[11.93355,58.3195],[11.93721,58.31805],[11.93683,58.31679],[11.93922,58.31709],[11.94113,58.31524],[11.94267,58.31618],[11.94417,58.31779],[11.94594,58.31804],[11.94906,58.31937],[11.95214,58.31978],[11.95319,58.32015],[11.95374,58.32061],[11.95485,58.32094],[11.95738,58.32095],[11.95907,58.3214],[11.96215,58.32149],[11.96885,58.32033],[11.97211,58.3191],[11.97279,58.31823],[11.97362,58.318],[11.96751,58.31654],[11.96636,58.31606],[11.96118,58.31515],[11.96166,58.31478],[11.96206,58.31205],[11.95875,58.31091],[11.95398,58.31019],[11.9511,58.30921],[11.94546,58.30685],[11.94838,58.30626],[11.95621,58.30576],[11.95889,58.30465],[11.96148,58.30297],[11.96147,58.30246],[11.96085,58.30229],[11.96084,58.30189],[11.96184,58.30184],[11.96259,58.30088],[11.96187,58.29945],[11.9564,58.30037],[11.95592,58.30007],[11.95596,58.2998],[11.95457,58.29979],[11.95367,58.30018],[11.95093,58.29996],[11.94981,58.29939],[11.94994,58.29887],[11.94932,58.29863],[11.95135,58.29843],[11.95352,58.29795],[11.95575,58.29717],[11.95772,58.29694],[11.96011,58.29634],[11.96101,58.2959],[11.9645,58.29577],[11.96823,58.29534],[11.97358,58.29523],[11.97483,58.29249],[11.97404,58.29054],[11.97711,58.28749],[11.97897,58.28712],[11.97768,58.28421],[11.97859,58.28302],[11.97833,58.28264],[11.97855,58.28206],[11.97929,58.2814],[11.97953,58.27971],[11.98001,58.27874],[11.98108,58.2778],[11.9813,58.27495],[11.97636,58.27173],[11.96671,58.27212],[11.96014,58.26937],[11.96908,58.25326],[11.97178,58.25386],[11.977,58.25634],[11.9813,58.25697],[11.98037,58.25576],[11.99145,58.25028],[11.99592,58.24895],[11.99764,58.24869],[12.00024,58.24727],[12.00242,58.24638],[11.99753,58.24527],[11.99055,58.24309],[11.99739,58.24075],[11.99928,58.23875],[12.00025,58.23878],[11.99734,58.23584],[11.99456,58.23466],[11.99194,58.23429],[11.99546,58.23327],[11.99987,58.23357],[12.01578,58.23321],[12.01636,58.23255],[12.01769,58.23307],[12.02487,58.23447],[12.02812,58.23319],[12.04235,58.22845],[12.04332,58.22673],[12.03463,58.21758],[12.0318,58.21564],[12.02237,58.20823],[12.02451,58.19656],[12.0187,58.19568],[12.01688,58.19261],[12.01644,58.19233],[12.01508,58.19257],[12.01265,58.18799],[12.01112,58.18707],[12.00988,58.18311],[12.00515,58.18126],[12.00311,58.17992],[12.00239,58.17989],[12.00161,58.18014],[12.00067,58.18098],[11.99306,58.17756],[11.98595,58.17465],[11.98631,58.17411],[11.98628,58.17322],[11.98711,58.1728],[11.98773,58.17205],[11.98821,58.17046],[11.99195,58.16726],[11.99051,58.16614],[11.99005,58.16321],[11.9871,58.15737],[11.98447,58.15687],[11.98262,58.15484],[11.98338,58.15348],[11.98331,58.15286],[11.98378,58.15239],[11.98326,58.15149],[11.98351,58.15111],[11.98301,58.15014],[11.98318,58.14994],[11.98252,58.14992],[11.98242,58.15005],[11.98124,58.14991],[11.98076,58.14934],[11.9786,58.14968],[11.97849,58.15034],[11.97784,58.15126],[11.97615,58.15096],[11.97373,58.15103],[11.95652,58.15155],[11.9494,58.15206],[11.94538,58.15179],[11.9447,58.152],[11.94248,58.15186],[11.93952,58.15204],[11.93907,58.15182],[11.9368,58.1522],[11.93514,58.15226],[11.93295,58.15283],[11.92972,58.15257],[11.92603,58.15173],[11.92532,58.15227],[11.92538,58.15662],[11.92473,58.15797],[11.92408,58.15772],[11.9212,58.15763],[11.91997,58.15741],[11.91305,58.1572],[11.90265,58.15765],[11.90288,58.15822],[11.89552,58.15804],[11.89486,58.15821],[11.89232,58.15798],[11.88907,58.15823],[11.88915,58.15845],[11.88465,58.15864],[11.88086,58.15849],[11.8793,58.15872],[11.87733,58.15872],[11.87393,58.15903],[11.86424,58.15868],[11.85997,58.15946],[11.85335,58.16025],[11.85595,58.16671],[11.85441,58.16983],[11.85196,58.1728],[11.85087,58.17535],[11.85036,58.17877],[11.85073,58.19521],[11.8525,58.20259],[11.85086,58.20482],[11.8539,58.20744],[11.86495,58.20692],[11.86686,58.21158],[11.8881,58.21146],[11.88744,58.20933],[11.88549,58.20742],[11.88464,58.20612],[11.88442,58.20511],[11.8847,58.20375],[11.88646,58.20158],[11.88708,58.20027],[11.88835,58.19902],[11.89072,58.19774],[11.89388,58.19689],[11.8964,58.19551],[11.89822,58.19493],[11.90049,58.1945],[11.90261,58.19431],[11.90538,58.1944],[11.90933,58.19521],[11.91289,58.19696],[11.91588,58.19656],[11.91858,58.19656],[11.92216,58.19703],[11.92507,58.19794],[11.92693,58.199],[11.9282,58.20025],[11.92886,58.20165],[11.92883,58.20315],[11.93656,58.20487],[11.9382,58.20555],[11.9399,58.20665],[11.94081,58.20762],[11.94143,58.2089],[11.94319,58.21015],[11.94422,58.21146],[11.9447,58.21289],[11.94454,58.21442],[11.94688,58.21597],[11.94801,58.21767],[11.94815,58.21909],[11.94762,58.22055],[11.94657,58.22188],[11.94507,58.22294],[11.94518,58.22458],[11.94483,58.22565],[11.94333,58.22801],[11.9418,58.22938],[11.94073,58.23176],[11.93894,58.23329],[11.93651,58.23441],[11.93563,58.23576],[11.93375,58.23717],[11.93562,58.23818],[11.93882,58.23946],[11.94106,58.24136],[11.94179,58.24356],[11.94092,58.24633],[11.9397,58.24763],[11.93794,58.2487],[11.93235,58.25053],[11.92904,58.25099],[11.92608,58.25095],[11.92336,58.25053],[11.92064,58.24966],[11.91928,58.25116],[11.91696,58.25249],[11.91443,58.25329],[11.91111,58.25375],[11.90873,58.25375],[11.90662,58.25355],[11.90464,58.25313],[11.90234,58.25231],[11.90039,58.25114],[11.89897,58.24953],[11.89731,58.24931],[11.89603,58.24889],[11.89556,58.24854],[11.89492,58.24786],[11.89526,58.24666],[11.89251,58.24775],[11.88961,58.24829],[11.88699,58.24903],[11.88496,58.24931],[11.88093,58.24924],[11.8784,58.24882],[11.8766,58.2483],[11.8757,58.25037],[11.8739,58.25191],[11.8713,58.25306],[11.86816,58.25372],[11.86477,58.25384],[11.86088,58.25342],[11.85791,58.25255],[11.85598,58.25152],[11.85538,58.25284],[11.8569,58.25644],[11.83743,58.25335],[11.83184,58.25754],[11.83121,58.26335],[11.8197,58.26804],[11.82378,58.27477],[11.82288,58.27731],[11.81856,58.27905],[11.8079,58.27418],[11.80412,58.26863],[11.78749,58.26974],[11.7772,58.27585],[11.77579,58.28126],[11.76705,58.28974],[11.76627,58.29186],[11.76088,58.2975],[11.76169,58.30079],[11.75654,58.30712],[11.7742,58.31471],[11.77406,58.3148],[11.79414,58.31705],[11.80379,58.3154],[11.81456,58.31986],[11.8223,58.32252],[11.83104,58.32405],[11.84004,58.32325],[11.85281,58.32806],[11.86432,58.32756],[11.86938,58.33108],[11.87297,58.33248],[11.87716,58.33076],[11.87803,58.33067],[11.87855,58.33019]]]}},{"type":"Feature","id":"1485R002","properties":{"code":"1485R002","name":"Bokenäset-Berg-Sund"},"geometry":{"type":"Polygon","coordinates":[[[11.60768,58.3737],[11.61686,58.37157],[11.61773,58.37192],[11.61834,58.37166],[11.61931,58.37047],[11.61975,58.37034],[11.62107,58.36899],[11.62617,58.36494],[11.62887,58.36189],[11.63092,58.35868],[11.63145,58.35829],[11.63154,58.35727],[11.62903,58.35602],[11.62744,58.35601],[11.62501,58.35562],[11.61897,58.35505],[11.61933,58.35488],[11.61998,58.35241],[11.62133,58.35059],[11.62126,58.34993],[11.62015,58.34975],[11.61957,58.34868],[11.62038,58.3482],[11.62099,58.34692],[11.623,58.34709],[11.62895,58.34941],[11.63793,58.35251],[11.64173,58.35322],[11.64389,58.35325],[11.64532,58.3543],[11.65434,58.3555],[11.65648,58.35552],[11.66472,58.35433],[11.66705,58.35418],[11.67611,58.3549],[11.68138,58.35465],[11.68441,58.35401],[11.69096,58.35661],[11.6921,58.35614],[11.69229,58.35558],[11.69449,58.35422],[11.69716,58.35323],[11.69979,58.35333],[11.70352,58.35451],[11.70493,58.35347],[11.70971,58.35071],[11.71261,58.34813],[11.71377,58.3478],[11.71692,58.34602],[11.71462,58.34216],[11.71374,58.34211],[11.7132,58.34178],[11.7123,58.34178],[11.71255,58.34046],[11.71326,58.34015],[11.71348,58.33968],[11.71183,58.334],[11.72585,58.33386],[11.73538,58.33497],[11.76093,58.33376],[11.76241,58.33188],[11.7652,58.33005],[11.76847,58.32894],[11.77148,58.32847],[11.77471,58.32841],[11.77646,58.32779],[11.77725,58.32646],[11.77905,58.32504],[11.78417,58.32273],[11.78544,58.32168],[11.78729,58.32069],[11.79112,58.31959],[11.79011,58.3166],[11.77406,58.3148],[11.7742,58.31471],[11.75654,58.30712],[11.74701,58.30912],[11.72286,58.30223],[11.71624,58.30876],[11.71026,58.30632],[11.70134,58.30605],[11.69393,58.30616],[11.69138,58.30285],[11.67829,58.30102],[11.67389,58.2982],[11.67309,58.29442],[11.6751,58.29082],[11.67824,58.28993],[11.67644,58.28663],[11.66906,58.28095],[11.67496,58.27667],[11.67717,58.26926],[11.6756,58.26558],[11.67342,58.2619],[11.66891,58.25563],[11.66108,58.25701],[11.65596,58.26026],[11.64849,58.26237],[11.64602,58.25803],[11.63841,58.25539],[11.63089,58.25608],[11.61719,58.24975],[11.60985,58.24704],[11.60891,58.24514],[11.58826,58.2388],[11.58183,58.24038],[11.57917,58.23887],[11.57474,58.23323],[11.55935,58.22723],[11.55419,58.23134],[11.55543,58.2343],[11.5544,58.23498],[11.55285,58.23498],[11.5512,58.23528],[11.55019,58.23662],[11.54524,58.23818],[11.54189,58.24015],[11.53758,58.23855],[11.53491,58.23979],[11.53103,58.23868],[11.52882,58.2371],[11.52652,58.23925],[11.51979,58.24071],[11.51609,58.23979],[11.51011,58.23744],[11.49514,58.23338],[11.4927,58.23529],[11.48949,58.23629],[11.48915,58.23756],[11.49164,58.24248],[11.49332,58.24398],[11.49373,58.24508],[11.49502,58.24628],[11.4951,58.24679],[11.49628,58.24832],[11.5039,58.25774],[11.50541,58.26082],[11.50503,58.26264],[11.5011,58.26338],[11.49323,58.26235],[11.49168,58.26343],[11.48915,58.26404],[11.48909,58.26475],[11.48855,58.26522],[11.4834,58.26593],[11.47256,58.26944],[11.48554,58.27576],[11.5047,58.28598],[11.50976,58.28951],[11.50932,58.29317],[11.51563,58.29787],[11.52208,58.30099],[11.53049,58.31025],[11.53121,58.31253],[11.53798,58.31531],[11.55338,58.32846],[11.55596,58.33328],[11.55947,58.33471],[11.56636,58.34086],[11.5748,58.34711],[11.58087,58.35429],[11.58438,58.35714],[11.59821,58.36721],[11.60185,58.37206],[11.60768,58.3737]]]}},{"type":"Feature","id":"1485R003","properties":{"code":"1485R003","name":"Hedegärde-Äsperöd-Gräskärr"},"geometry":{"type":"Polygon","coordinates":[[[11.96374,58.37402],[11.96051,58.37134],[11.96067,58.36838],[11.96157,58.36653],[11.96169,58.36497],[11.96121,58.36357],[11.95967,58.3619],[11.96255,58.36223],[11.9664,58.36359],[11.96966,58.36415],[11.97189,58.36483],[11.97451,58.36526],[11.97796,58.36537],[11.9819,58.36476],[11.98312,58.36642],[11.98491,58.36766],[11.98833,58.36913],[11.99152,58.36979],[11.9945,58.36993],[11.99756,58.36967],[12.00071,58.36888],[12.00414,58.36828],[12.0069,58.3672],[12.00869,58.36596],[12.00975,58.3646],[12.01019,58.36333],[12.01028,58.3615],[12.01149,58.36035],[12.01222,58.35894],[12.01232,58.35782],[12.01199,58.35667],[12.0145,58.35589],[12.01679,58.35457],[12.01798,58.3533],[12.01847,58.35222],[12.02005,58.35092],[12.02094,58.34955],[12.02109,58.34766],[12.02039,58.34615],[12.01718,58.34333],[12.01549,58.34224],[12.01215,58.34113],[12.00812,58.34074],[12.00612,58.34084],[12.00276,58.34132],[11.9999,58.34114],[11.99777,58.34125],[11.99153,58.34244],[11.98659,58.34193],[11.98554,58.34044],[11.98335,58.33893],[11.97905,58.33738],[11.9765,58.33684],[11.97447,58.33668],[11.97231,58.33672],[11.96879,58.33591],[11.96154,58.33528],[11.9576,58.33565],[11.95357,58.33669],[11.9509,58.3365],[11.95302,58.34029],[11.95543,58.3426],[11.9552,58.34383],[11.95455,58.34405],[11.95527,58.34411],[11.95593,58.34389],[11.95683,58.34434],[11.95674,58.3446],[11.95535,58.34462],[11.95533,58.34489],[11.95656,58.34491],[11.95805,58.34456],[11.9597,58.34567],[11.95986,58.34665],[11.95857,58.34761],[11.95844,58.34872],[11.95995,58.34993],[11.96062,58.35012],[11.96095,58.35066],[11.96139,58.35065],[11.96355,58.35173],[11.96253,58.35405],[11.96307,58.35469],[11.95936,58.35534],[11.95682,58.35552],[11.95256,58.35522],[11.95039,58.35532],[11.94595,58.3562],[11.94335,58.35648],[11.94066,58.35626],[11.93625,58.35533],[11.93733,58.35671],[11.93712,58.35831],[11.93819,58.35815],[11.93933,58.35834],[11.9397,58.36086],[11.93818,58.36275],[11.9389,58.36507],[11.94039,58.36511],[11.94203,58.36491],[11.9428,58.3659],[11.94393,58.36631],[11.94526,58.36756],[11.94873,58.36962],[11.95242,58.37145],[11.95516,58.37233],[11.95606,58.37311],[11.95726,58.37487],[11.95854,58.3758],[11.96314,58.38041],[11.96467,58.37825],[11.9647,58.37585],[11.96374,58.37402]]]}},{"type":"Feature","id":"1485R004","properties":{"code":"1485R004","name":"Helenedal-Södra Dalaberg-Bleket"},"geometry":{"type":"Polygon","coordinates":[[[11.95158,58.38532],[11.95343,58.38485],[11.95647,58.38362],[11.95952,58.38271],[11.96105,58.38193],[11.96314,58.38041],[11.95854,58.3758],[11.95726,58.37487],[11.95606,58.37311],[11.95516,58.37233],[11.95242,58.37145],[11.94873,58.36962],[11.94526,58.36756],[11.94393,58.36631],[11.9428,58.3659],[11.94203,58.36491],[11.94039,58.36511],[11.9389,58.36507],[11.93925,58.36621],[11.9363,58.36681],[11.93572,58.36636],[11.93429,58.36655],[11.93424,58.36617],[11.93364,58.36614],[11.93289,58.36573],[11.93247,58.36478],[11.93181,58.36479],[11.93104,58.36553],[11.93253,58.36625],[11.93276,58.36671],[11.93073,58.36958],[11.93102,58.37085],[11.93206,58.37147],[11.93339,58.37101],[11.93474,58.37079],[11.94097,58.37086],[11.94025,58.37276],[11.94061,58.37271],[11.94232,58.37332],[11.94144,58.37409],[11.94041,58.37557],[11.939,58.37633],[11.93712,58.37666],[11.93397,58.37642],[11.93432,58.37878],[11.93391,58.3831],[11.93346,58.38405],[11.93434,58.38401],[11.93647,58.38466],[11.93842,58.385],[11.943,58.38507],[11.94619,58.3856],[11.94889,58.38564],[11.95158,58.38532]]]}},{"type":"Feature","id":"1485R005","properties":{"code":"1485R005","name":"Herrestad-Sunningen-Utby"},"geometry":{"type":"Polygon","coordinates":[[[11.81489,58.35138],[11.8207,58.35069],[11.82354,58.35109],[11.8292,58.35023],[11.83191,58.35029],[11.8569,58.35293],[11.85865,58.35297],[11.86271,58.35223],[11.86504,58.35216],[11.86602,58.35177],[11.86656,58.35185],[11.86802,58.35127],[11.86771,58.35081],[11.8689,58.35025],[11.87113,58.3497],[11.87117,58.3495],[11.87487,58.34755],[11.87515,58.34777],[11.87614,58.34759],[11.87641,58.34703],[11.87478,58.34581],[11.87413,58.34501],[11.87428,58.34335],[11.87796,58.34043],[11.87891,58.33659],[11.87297,58.33248],[11.86938,58.33108],[11.86432,58.32756],[11.85281,58.32806],[11.84004,58.32325],[11.83104,58.32405],[11.8223,58.32252],[11.81456,58.31986],[11.80379,58.3154],[11.79414,58.31705],[11.79011,58.3166],[11.79112,58.31959],[11.78729,58.32069],[11.78544,58.32168],[11.78417,58.32273],[11.77905,58.32504],[11.77725,58.32646],[11.77646,58.32779],[11.77471,58.32841],[11.77148,58.32847],[11.76787,58.32908],[11.76568,58.32982],[11.76343,58.3311],[11.76179,58.33248],[11.7608,58.33407],[11.76068,58.33545],[11.76122,58.33683],[11.76327,58.33879],[11.76577,58.34005],[11.77193,58.34192],[11.77464,58.34224],[11.77744,58.34221],[11.77884,58.3435],[11.78092,58.34461],[11.78332,58.34535],[11.78616,58.34579],[11.79044,58.34572],[11.79446,58.34518],[11.79687,58.34462],[11.79895,58.34377],[11.80076,58.34262],[11.80178,58.34163],[11.80244,58.34052],[11.80457,58.34141],[11.80776,58.34208],[11.81103,58.34219],[11.81395,58.34181],[11.81655,58.34212],[11.81507,58.34502],[11.81312,58.34763],[11.81282,58.34904],[11.81313,58.35029],[11.81096,58.35086],[11.80882,58.3518],[11.81083,58.35212],[11.81227,58.35216],[11.81489,58.35138]]]}},{"type":"Feature","id":"1485R006","properties":{"code":"1485R006","name":"Hogstorp-Lanesund-Kissleberg"},"geometry":{"type":"Polygon","coordinates":[[[11.96105,58.44355],[11.96033,58.44248],[11.96033,58.44182],[11.95589,58.43882],[11.95031,58.43279],[11.95078,58.43096],[11.94919,58.42881],[11.94869,58.42766],[11.94619,58.42652],[11.94656,58.42595],[11.94497,58.42423],[11.94513,58.42363],[11.94414,58.42298],[11.94433,58.42269],[11.94364,58.42222],[11.94174,58.42161],[11.94012,58.42013],[11.93914,58.41986],[11.93904,58.41932],[11.93818,58.41887],[11.9376,58.41792],[11.93611,58.41729],[11.93584,58.4169],[11.93599,58.41647],[11.9344,58.41624],[11.93536,58.41467],[11.93643,58.4137],[11.93745,58.41069],[11.93985,58.40778],[11.94006,58.40712],[11.93796,58.40442],[11.93706,58.40209],[11.92851,58.39562],[11.92815,58.39498],[11.92819,58.39437],[11.93346,58.38405],[11.92918,58.38371],[11.92572,58.38371],[11.92303,58.38339],[11.92006,58.38252],[11.91806,58.38144],[11.91513,58.38058],[11.91307,58.37949],[11.91012,58.37917],[11.90314,58.37777],[11.90017,58.37638],[11.89731,58.37351],[11.895,58.37345],[11.89265,58.37311],[11.88703,58.37324],[11.88374,58.373],[11.87938,58.37206],[11.87709,58.37123],[11.87482,58.36975],[11.87357,58.36802],[11.87274,58.36439],[11.87167,58.36219],[11.87179,58.36077],[11.8725,58.35914],[11.86888,58.35891],[11.86505,58.358],[11.86684,58.35426],[11.86886,58.35381],[11.86793,58.35152],[11.86532,58.35276],[11.86504,58.35216],[11.86271,58.35223],[11.85865,58.35297],[11.8569,58.35293],[11.83191,58.35029],[11.8292,58.35023],[11.82354,58.35109],[11.8207,58.35069],[11.81489,58.35138],[11.81227,58.35216],[11.81083,58.35212],[11.80882,58.3518],[11.81096,58.35086],[11.81313,58.35029],[11.81282,58.34904],[11.81312,58.34763],[11.81507,58.34502],[11.81655,58.34212],[11.81395,58.34181],[11.81103,58.34219],[11.80776,58.34208],[11.80457,58.34141],[11.80244,58.34052],[11.80178,58.34163],[11.80076,58.34262],[11.79895,58.34377],[11.79687,58.34462],[11.79446,58.34518],[11.79044,58.34572],[11.78616,58.34579],[11.78332,58.34535],[11.78092,58.34461],[11.77884,58.3435],[11.77744,58.34221],[11.77464,58.34224],[11.77193,58.34192],[11.77,58.34143],[11.76467,58.33959],[11.7626,58.33828],[11.76121,58.33681],[11.76068,58.33545],[11.76093,58.33376],[11.73538,58.33497],[11.72585,58.33386],[11.71183,58.334],[11.71348,58.33968],[11.71326,58.34015],[11.71255,58.34046],[11.7123,58.34178],[11.7132,58.34178],[11.71374,58.34211],[11.71462,58.34216],[11.71692,58.34602],[11.71377,58.3478],[11.71261,58.34813],[11.70971,58.35071],[11.70493,58.35347],[11.70352,58.35451],[11.69979,58.35333],[11.69716,58.35323],[11.69449,58.35422],[11.69229,58.35558],[11.6921,58.35614],[11.69096,58.35661],[11.68441,58.35401],[11.68138,58.35465],[11.67611,58.3549],[11.66705,58.35418],[11.66472,58.35433],[11.65648,58.35552],[11.65434,58.3555],[11.64532,58.3543],[11.64389,58.35325],[11.64173,58.35322],[11.63793,58.35251],[11.62895,58.34941],[11.623,58.34709],[11.62099,58.34692],[11.62038,58.3482],[11.61957,58.34868],[11.62015,58.34975],[11.62126,58.34993],[11.62133,58.35059],[11.61998,58.35241],[11.61933,58.35488],[11.61897,58.35505],[11.62501,58.35562],[11.62744,58.35601],[11.62903,58.35602],[11.63118,58.35697],[11.63154,58.35727],[11.63145,58.35829],[11.63092,58.35868],[11.62887,58.36189],[11.62617,58.36494],[11.62107,58.36899],[11.61975,58.37034],[11.61931,58.37047],[11.61834,58.37166],[11.61773,58.37192],[11.61686,58.37157],[11.60768,58.3737],[11.60185,58.37206],[11.59721,58.3742],[11.59509,58.37618],[11.59876,58.38159],[11.59638,58.38679],[11.59918,58.40053],[11.60962,58.39839],[11.61928,58.39485],[11.62519,58.39931],[11.62779,58.4027],[11.63255,58.40519],[11.63539,58.40846],[11.63959,58.41153],[11.64715,58.41769],[11.65175,58.41952],[11.65176,58.42048],[11.65598,58.42141],[11.66068,58.42358],[11.66499,58.42699],[11.67758,58.43199],[11.68402,58.43197],[11.68868,58.43125],[11.69572,58.43162],[11.69937,58.42786],[11.69907,58.42749],[11.69989,58.42727],[11.69977,58.42685],[11.70026,58.42689],[11.69997,58.42651],[11.70142,58.42599],[11.70211,58.42397],[11.70264,58.42389],[11.70264,58.42367],[11.70219,58.42359],[11.70198,58.42326],[11.70177,58.42184],[11.70218,58.42126],[11.70219,58.42048],[11.70185,58.41993],[11.70239,58.4197],[11.70409,58.42007],[11.70505,58.41989],[11.70495,58.41846],[11.70514,58.41872],[11.71729,58.42044],[11.72419,58.42208],[11.72646,58.42233],[11.72736,58.42291],[11.72862,58.42289],[11.72925,58.42323],[11.7377,58.42485],[11.73784,58.4247],[11.7489,58.427],[11.75038,58.42541],[11.75966,58.42771],[11.76072,58.42813],[11.76162,58.4282],[11.76227,58.42789],[11.76223,58.42735],[11.76263,58.42728],[11.76351,58.4266],[11.77044,58.42916],[11.77049,58.42999],[11.76604,58.43234],[11.76878,58.43354],[11.76968,58.43466],[11.77118,58.43457],[11.77275,58.4353],[11.7738,58.43526],[11.7747,58.43552],[11.77599,58.43549],[11.77695,58.43511],[11.77976,58.43618],[11.78068,58.43713],[11.78123,58.43732],[11.78128,58.43758],[11.78322,58.43893],[11.78581,58.43922],[11.78817,58.44025],[11.78833,58.441],[11.78883,58.44155],[11.79064,58.44218],[11.79361,58.44182],[11.79494,58.44245],[11.79521,58.44299],[11.79667,58.44398],[11.79964,58.44519],[11.8146,58.44207],[11.8155,58.44026],[11.81698,58.43921],[11.81837,58.4378],[11.82436,58.43521],[11.84074,58.42638],[11.86824,58.42952],[11.86841,58.42863],[11.86905,58.42926],[11.87029,58.4298],[11.87197,58.43001],[11.8746,58.43196],[11.87487,58.43268],[11.87585,58.43358],[11.87905,58.43589],[11.88523,58.43221],[11.89339,58.43265],[11.90155,58.43434],[11.90391,58.43509],[11.90544,58.43823],[11.91438,58.43497],[11.92219,58.43906],[11.9222,58.43951],[11.92309,58.44016],[11.92303,58.44093],[11.92384,58.44107],[11.92467,58.44165],[11.9253,58.44155],[11.92498,58.4429],[11.92613,58.44344],[11.92751,58.44358],[11.92855,58.44389],[11.93061,58.44512],[11.93433,58.44425],[11.93685,58.44337],[11.93691,58.44311],[11.93767,58.4429],[11.93942,58.44295],[11.94019,58.44279],[11.94795,58.44538],[11.95412,58.44647],[11.97427,58.45221],[11.97129,58.44921],[11.9668,58.44623],[11.96357,58.44446],[11.96105,58.44355]]]}},{"type":"Feature","id":"1485R007","properties":{"code":"1485R007","name":"Hälle-Lyckorna"},"geometry":{"type":"Polygon","coordinates":[[[11.91136,58.22469],[11.91742,58.22188],[11.9181,58.22193],[11.91831,58.2217],[11.91949,58.2215],[11.92009,58.22116],[11.92096,58.22143],[11.92191,58.22131],[11.92169,58.22093],[11.92286,58.22083],[11.92454,58.21966],[11.92495,58.21878],[11.92539,58.21856],[11.92531,58.21817],[11.9263,58.21794],[11.92674,58.21753],[11.9283,58.21776],[11.931,58.21742],[11.93081,58.2176],[11.93123,58.21771],[11.93195,58.21735],[11.93165,58.21722],[11.93233,58.21692],[11.93391,58.21675],[11.93598,58.21499],[11.93516,58.21384],[11.93528,58.21365],[11.93591,58.21377],[11.93624,58.2132],[11.93705,58.21266],[11.93855,58.21278],[11.93969,58.21222],[11.94084,58.21273],[11.93989,58.21315],[11.94028,58.21351],[11.93886,58.21422],[11.93865,58.21453],[11.9396,58.21595],[11.94097,58.2159],[11.94198,58.21519],[11.94364,58.21493],[11.94441,58.21559],[11.94575,58.21508],[11.94454,58.21442],[11.94465,58.21252],[11.94399,58.21111],[11.94286,58.20986],[11.94143,58.2089],[11.94081,58.20762],[11.9399,58.20665],[11.9382,58.20555],[11.93656,58.20487],[11.92883,58.20315],[11.92886,58.20165],[11.9282,58.20025],[11.92693,58.199],[11.92507,58.19794],[11.92216,58.19703],[11.91858,58.19656],[11.91588,58.19656],[11.91289,58.19696],[11.91001,58.19546],[11.90743,58.19471],[11.90474,58.19435],[11.90132,58.1944],[11.899,58.19475],[11.89709,58.19526],[11.89541,58.19595],[11.89388,58.19689],[11.8913,58.19753],[11.88878,58.19872],[11.88733,58.19995],[11.88646,58.20158],[11.88488,58.20342],[11.88448,58.20442],[11.88453,58.20579],[11.88522,58.2071],[11.88744,58.20933],[11.8882,58.21163],[11.89118,58.21189],[11.89464,58.21311],[11.89542,58.21547],[11.89967,58.22031],[11.91136,58.22469]]]}},{"type":"Feature","id":"1485R008","properties":{"code":"1485R008","name":"Kapelle-Walkesborg-Gustafsberg"},"geometry":{"type":"Polygon","coordinates":[[[11.92346,58.34277],[11.92453,58.34135],[11.92763,58.34152],[11.93031,58.34204],[11.93103,58.34186],[11.93438,58.34327],[11.93991,58.34493],[11.94385,58.3458],[11.94548,58.3466],[11.94928,58.34594],[11.95063,58.34553],[11.95042,58.3438],[11.94945,58.34391],[11.94768,58.34278],[11.9472,58.34187],[11.95289,58.34009],[11.9509,58.3365],[11.94779,58.33658],[11.94666,58.33476],[11.94492,58.33337],[11.94498,58.33189],[11.9441,58.33023],[11.9431,58.32933],[11.94079,58.32794],[11.93689,58.32664],[11.93292,58.32624],[11.92952,58.32652],[11.92653,58.32713],[11.92472,58.32771],[11.92236,58.32518],[11.92063,58.32391],[11.91839,58.32295],[11.91489,58.32211],[11.90985,58.32169],[11.90737,58.32119],[11.90524,58.32101],[11.90246,58.3211],[11.89964,58.32158],[11.89731,58.32238],[11.89579,58.3232],[11.89186,58.32423],[11.88995,58.32519],[11.88852,58.32641],[11.88667,58.3269],[11.87855,58.33019],[11.87803,58.33067],[11.87716,58.33076],[11.87297,58.33248],[11.87891,58.33659],[11.90061,58.33956],[11.90434,58.34203],[11.907,58.3434],[11.91458,58.3463],[11.91893,58.3473],[11.92604,58.34813],[11.92916,58.34889],[11.93179,58.3489],[11.9312,58.34753],[11.92858,58.34497],[11.92649,58.34378],[11.92346,58.34277]]]}},{"type":"Feature","id":"1485R009","properties":{"code":"1485R009","name":"Kurveröd-Fasseröd"},"geometry":{"type":"Polygon","coordinates":[[[11.92243,58.3745],[11.92161,58.37148],[11.92192,58.37036],[11.91989,58.37001],[11.92122,58.36855],[11.92351,58.36738],[11.92413,58.36552],[11.92348,58.36532],[11.92359,58.36435],[11.92135,58.36425],[11.91901,58.36373],[11.91699,58.36389],[11.91601,58.36359],[11.91581,58.36325],[11.90746,58.36342],[11.90631,58.36271],[11.90555,58.36182],[11.90592,58.36127],[11.90571,58.36102],[11.90628,58.36058],[11.90546,58.36026],[11.90992,58.35735],[11.91157,58.35672],[11.9121,58.35623],[11.91328,58.35605],[11.91326,58.35572],[11.90747,58.35617],[11.90349,58.35572],[11.8979,58.35458],[11.89776,58.35439],[11.89418,58.35357],[11.89407,58.35324],[11.89038,58.3525],[11.88481,58.3517],[11.88449,58.35141],[11.88375,58.35133],[11.88248,58.35169],[11.87711,58.35153],[11.87708,58.35132],[11.87147,58.35147],[11.86881,58.35115],[11.86802,58.35127],[11.86656,58.35185],[11.86602,58.35177],[11.86504,58.35216],[11.86532,58.35276],[11.86793,58.35152],[11.86886,58.35381],[11.86684,58.35426],[11.86505,58.358],[11.86888,58.35891],[11.8725,58.35914],[11.87179,58.36077],[11.87167,58.36219],[11.87274,58.36439],[11.87357,58.36802],[11.87424,58.36914],[11.87526,58.37013],[11.87773,58.37151],[11.88152,58.37262],[11.88374,58.373],[11.88703,58.37324],[11.89265,58.37311],[11.895,58.37345],[11.89731,58.37351],[11.89832,58.37431],[11.89979,58.3761],[11.90206,58.37738],[11.9049,58.37821],[11.90725,58.37849],[11.91074,58.37927],[11.91307,58.37949],[11.91513,58.38058],[11.91806,58.38144],[11.92063,58.38274],[11.92288,58.38336],[11.9234,58.37687],[11.92102,58.37664],[11.92243,58.3745]]]}},{"type":"Feature","id":"1485R010","properties":{"code":"1485R010","name":"Lane Ryr-Stenshult-Östra Forshälla"},"geometry":{"type":"Polygon","coordinates":[[[12.02411,58.44489],[12.02451,58.44485],[12.02504,58.44522],[12.02937,58.44569],[12.02991,58.44562],[12.03147,58.44597],[12.03203,58.44585],[12.03236,58.44518],[12.0339,58.44479],[12.03478,58.44419],[12.03561,58.44398],[12.03604,58.4434],[12.03674,58.4434],[12.03919,58.4428],[12.04133,58.44266],[12.04204,58.44279],[12.0433,58.44267],[12.0488,58.44282],[12.04964,58.44255],[12.05093,58.44165],[12.05356,58.44289],[12.05612,58.44342],[12.05669,58.4437],[12.06092,58.4433],[12.06619,58.44195],[12.07114,58.43902],[12.07362,58.43728],[12.07471,58.43714],[12.07483,58.43634],[12.07658,58.43472],[12.07893,58.43304],[12.08646,58.42907],[12.09095,58.42523],[12.10094,58.41903],[12.10172,58.41878],[12.10273,58.41794],[12.10387,58.41753],[12.10442,58.41783],[12.11953,58.41277],[12.12297,58.41206],[12.12588,58.41063],[12.12624,58.41067],[12.12944,58.40962],[12.13141,58.40947],[12.13315,58.40898],[12.1354,58.40817],[12.13801,58.40621],[12.14114,58.40514],[12.14167,58.40526],[12.14366,58.40438],[12.14677,58.40414],[12.15035,58.40187],[12.15129,58.40031],[12.15506,58.3967],[12.15453,58.38975],[12.14992,58.38869],[12.14851,58.38792],[12.14918,58.3874],[12.14845,58.38711],[12.15043,58.38563],[12.14667,58.38242],[12.14655,58.38258],[12.14278,58.37977],[12.13132,58.36985],[12.13285,58.36894],[12.13245,58.36826],[12.13049,58.36744],[12.1251,58.36701],[12.1252,58.36791],[12.12348,58.36826],[12.11534,58.36635],[12.11539,58.36583],[12.11667,58.36554],[12.11688,58.36521],[12.11657,58.36459],[12.11678,58.36339],[12.11639,58.36302],[12.11571,58.36297],[12.11682,58.36224],[12.11567,58.36141],[12.11529,58.36019],[12.11649,58.35952],[12.11577,58.35806],[12.11482,58.35805],[12.11452,58.35769],[12.11369,58.3576],[12.11286,58.35704],[12.11109,58.35667],[12.11078,58.35629],[12.10951,58.35605],[12.10954,58.35521],[12.10882,58.35498],[12.10769,58.35402],[12.10821,58.35319],[12.10684,58.35267],[12.10569,58.35105],[12.10033,58.35102],[12.0996,58.34847],[12.10127,58.34811],[12.10348,58.34869],[12.10443,58.34853],[12.10465,58.34871],[12.10548,58.34871],[12.10611,58.34815],[12.10575,58.34788],[12.10666,58.34771],[12.1064,58.34754],[12.10581,58.34756],[12.10534,58.34726],[12.10773,58.34696],[12.10735,58.34664],[12.10689,58.34659],[12.10707,58.34529],[12.10618,58.34418],[12.10773,58.3435],[12.10921,58.34227],[12.10939,58.34188],[12.10881,58.34147],[12.10964,58.34093],[12.10888,58.33892],[12.10969,58.33857],[12.10956,58.33795],[12.11031,58.33734],[12.11144,58.33711],[12.11155,58.3363],[12.11294,58.33583],[12.11263,58.33452],[12.1118,58.33376],[12.11345,58.33292],[12.11447,58.33141],[12.11437,58.33103],[12.11359,58.33057],[12.11443,58.33027],[12.11498,58.32945],[12.11778,58.32774],[12.11822,58.32752],[12.11911,58.32756],[12.11981,58.32721],[12.12079,58.32599],[12.12019,58.32522],[12.12066,58.32513],[12.12154,58.32533],[12.12231,58.32455],[12.12054,58.32373],[12.11751,58.32334],[12.11801,58.32246],[12.11746,58.32168],[12.11827,58.31971],[12.11674,58.31908],[12.11477,58.31772],[12.11289,58.31737],[12.11155,58.3159],[12.11098,58.31339],[12.10855,58.31271],[12.10463,58.31368],[12.10245,58.31297],[12.10336,58.31191],[12.1031,58.31094],[12.10376,58.31055],[12.10393,58.30991],[12.10513,58.30965],[12.10665,58.30884],[12.10731,58.30882],[12.10736,58.30832],[12.10809,58.30825],[12.10838,58.30787],[12.10939,58.30774],[12.1104,58.30716],[12.11061,58.30677],[12.11167,58.30675],[12.1128,58.30575],[12.11373,58.30568],[12.11737,58.30453],[12.11844,58.30453],[12.11523,58.30275],[12.11335,58.30103],[12.10857,58.29739],[12.10736,58.29701],[12.10326,58.29444],[12.09853,58.29236],[12.09664,58.29017],[12.09454,58.28645],[12.09352,58.2853],[12.09299,58.28492],[12.0908,58.28423],[12.08659,58.26666],[12.08476,58.26683],[12.08261,58.26657],[12.08202,58.26631],[12.08337,58.26357],[12.09436,58.26047],[12.09317,58.25815],[12.09274,58.2559],[12.07576,58.24764],[12.07431,58.24589],[12.074,58.24005],[12.07256,58.24033],[12.07178,58.24134],[12.07079,58.24137],[12.07016,58.24109],[12.06868,58.24102],[12.06825,58.2414],[12.06772,58.24152],[12.06496,58.24119],[12.06386,58.2406],[12.06349,58.23996],[12.06249,58.24025],[12.06118,58.23863],[12.06169,58.23841],[12.06328,58.23578],[12.06267,58.2347],[12.06331,58.23448],[12.06306,58.23363],[12.06249,58.23363],[12.06164,58.23329],[12.06076,58.23333],[12.06045,58.23307],[12.05963,58.23325],[12.05867,58.23277],[12.05796,58.23286],[12.05744,58.23327],[12.05699,58.23297],[12.05697,58.23188],[12.05624,58.23115],[12.05631,58.23082],[12.05538,58.23021],[12.05563,58.23009],[12.05437,58.23007],[12.05284,58.23043],[12.05229,58.23033],[12.05211,58.23003],[12.04774,58.2278],[12.0456,58.22729],[12.02812,58.23319],[12.02487,58.23447],[12.01769,58.23307],[12.01636,58.23255],[12.01578,58.23321],[11.99987,58.23357],[11.99546,58.23327],[11.99194,58.23429],[11.99456,58.23466],[11.99734,58.23584],[12.00025,58.23878],[11.99928,58.23875],[11.99739,58.24075],[11.99055,58.24309],[11.99753,58.24527],[12.00242,58.24638],[12.00024,58.24727],[11.99764,58.24869],[11.99592,58.24895],[11.99145,58.25028],[11.98037,58.25576],[11.9813,58.25697],[11.977,58.25634],[11.97178,58.25386],[11.96908,58.25326],[11.96014,58.26937],[11.96671,58.27212],[11.97636,58.27173],[11.9813,58.27495],[11.98108,58.2778],[11.98001,58.27874],[11.97953,58.27971],[11.97929,58.2814],[11.97855,58.28206],[11.97833,58.28264],[11.97859,58.28302],[11.97768,58.28421],[11.97897,58.28712],[11.97711,58.28749],[11.97404,58.29054],[11.97483,58.29249],[11.97358,58.29523],[11.96823,58.29534],[11.9645,58.29577],[11.96101,58.2959],[11.96011,58.29634],[11.95772,58.29694],[11.95575,58.29717],[11.95352,58.29795],[11.95135,58.29843],[11.94932,58.29863],[11.94994,58.29887],[11.94981,58.29939],[11.95093,58.29996],[11.95367,58.30018],[11.95457,58.29979],[11.95596,58.2998],[11.95592,58.30007],[11.9564,58.30037],[11.96187,58.29945],[11.96259,58.30088],[11.96184,58.30184],[11.96084,58.30189],[11.96085,58.30229],[11.96147,58.30246],[11.96148,58.30297],[11.95889,58.30465],[11.95621,58.30576],[11.94838,58.30626],[11.94546,58.30685],[11.9511,58.30921],[11.95398,58.31019],[11.95875,58.31091],[11.96206,58.31205],[11.96166,58.31478],[11.96118,58.31515],[11.96636,58.31606],[11.96751,58.31654],[11.97362,58.318],[11.97279,58.31823],[11.97211,58.3191],[11.96885,58.32033],[11.96215,58.32149],[11.95907,58.3214],[11.95738,58.32095],[11.95561,58.32102],[11.95412,58.32076],[11.95319,58.32015],[11.95214,58.31978],[11.94906,58.31937],[11.94594,58.31804],[11.94417,58.31779],[11.94267,58.31618],[11.94113,58.31524],[11.93922,58.31709],[11.93683,58.31679],[11.93721,58.31805],[11.93355,58.3195],[11.93263,58.3212],[11.93113,58.32169],[11.92953,58.32305],[11.92292,58.32172],[11.91983,58.32189],[11.9165,58.32244],[11.91902,58.32317],[11.92118,58.32425],[11.92472,58.32771],[11.92653,58.32713],[11.92952,58.32652],[11.93287,58.32624],[11.93689,58.32664],[11.9403,58.32771],[11.94269,58.32905],[11.9441,58.33023],[11.94498,58.33189],[11.94492,58.33337],[11.94666,58.33476],[11.94779,58.33658],[11.95093,58.3365],[11.95357,58.33669],[11.9576,58.33565],[11.96154,58.33528],[11.96879,58.33591],[11.97231,58.33672],[11.97447,58.33668],[11.9765,58.33684],[11.97905,58.33738],[11.98335,58.33893],[11.98554,58.34044],[11.98659,58.34193],[11.99153,58.34244],[11.99651,58.34142],[11.99841,58.3412],[12.00055,58.34115],[12.00276,58.34132],[12.00742,58.34075],[12.01091,58.34092],[12.01392,58.3416],[12.01597,58.3425],[12.02014,58.34583],[12.02114,58.348],[12.02106,58.34919],[12.02057,58.35026],[12.01847,58.35222],[12.01798,58.3533],[12.01676,58.3546],[12.0145,58.35589],[12.01199,58.35667],[12.01232,58.35782],[12.01222,58.35894],[12.01149,58.36035],[12.01028,58.3615],[12.01012,58.36367],[12.00949,58.36503],[12.00746,58.36688],[12.00414,58.36828],[11.99673,58.36978],[11.99365,58.36994],[11.99089,58.36971],[11.98778,58.36894],[11.98491,58.36766],[11.98312,58.36642],[11.9819,58.36476],[11.97796,58.36537],[11.97451,58.36526],[11.97189,58.36483],[11.96966,58.36415],[11.9664,58.36359],[11.96255,58.36223],[11.95961,58.36192],[11.961,58.36325],[11.9617,58.365],[11.96157,58.36653],[11.96067,58.36838],[11.96051,58.37134],[11.96374,58.37402],[11.9647,58.37585],[11.96478,58.37791],[11.96356,58.38002],[11.96146,58.38167],[11.95952,58.38271],[11.95647,58.38362],[11.95343,58.38485],[11.95028,58.38552],[11.94688,58.38564],[11.943,58.38507],[11.93911,58.38507],[11.93647,58.38466],[11.93434,58.38401],[11.93346,58.38405],[11.92819,58.39437],[11.92815,58.39498],[11.92851,58.39562],[11.93706,58.40209],[11.93796,58.40442],[11.94006,58.40712],[11.93985,58.40778],[11.93745,58.41069],[11.93643,58.4137],[11.93536,58.41467],[11.9344,58.41624],[11.93599,58.41647],[11.93584,58.4169],[11.93611,58.41729],[11.9376,58.41792],[11.93818,58.41887],[11.93904,58.41932],[11.93914,58.41986],[11.94012,58.42013],[11.94174,58.42161],[11.94364,58.42222],[11.94433,58.42269],[11.94414,58.42298],[11.94513,58.42363],[11.94497,58.42423],[11.94656,58.42595],[11.94619,58.42652],[11.94869,58.42766],[11.94919,58.42881],[11.95078,58.43096],[11.95031,58.43279],[11.95589,58.43882],[11.96033,58.44182],[11.96033,58.44248],[11.96105,58.44355],[11.96357,58.44446],[11.9668,58.44623],[11.97129,58.44921],[11.97427,58.45221],[11.97623,58.45283],[11.98394,58.45099],[12.01242,58.44891],[12.02461,58.44761],[12.02382,58.44571],[12.02411,58.44489]]]}},{"type":"Feature","id":"1485R011","properties":{"code":"1485R011","name":"Ljungskile-Ulvesund"},"geometry":{"type":"Polygon","coordinates":[[[11.85538,58.25284],[11.85598,58.25152],[11.85848,58.25277],[11.86154,58.25354],[11.86542,58.25386],[11.86879,58.25363],[11.87189,58.25286],[11.87434,58.25162],[11.87594,58.25005],[11.8766,58.2483],[11.8784,58.24882],[11.88093,58.24924],[11.88496,58.24931],[11.88699,58.24903],[11.88961,58.24829],[11.89251,58.24775],[11.89526,58.24666],[11.89492,58.24786],[11.89556,58.24854],[11.89603,58.24889],[11.89731,58.24931],[11.89897,58.24953],[11.90004,58.25085],[11.90173,58.25201],[11.90523,58.25328],[11.90873,58.25375],[11.9124,58.25364],[11.91629,58.25275],[11.9189,58.25144],[11.92064,58.24966],[11.92259,58.25034],[11.92462,58.25078],[11.92886,58.251],[11.93235,58.25053],[11.93741,58.24894],[11.9397,58.24763],[11.94092,58.24633],[11.94176,58.24391],[11.94162,58.24244],[11.94073,58.24096],[11.93925,58.23972],[11.93768,58.23889],[11.93562,58.23818],[11.93375,58.23717],[11.93563,58.23576],[11.93651,58.23441],[11.93894,58.23329],[11.94073,58.23176],[11.9418,58.22938],[11.94333,58.22801],[11.94483,58.22565],[11.94518,58.22458],[11.94507,58.22294],[11.94657,58.22188],[11.94762,58.22055],[11.94815,58.21909],[11.94801,58.21767],[11.94719,58.2163],[11.94577,58.21509],[11.94441,58.21559],[11.94364,58.21493],[11.94198,58.21519],[11.94097,58.2159],[11.9396,58.21595],[11.93865,58.21453],[11.93886,58.21422],[11.94028,58.21351],[11.93989,58.21315],[11.94084,58.21273],[11.93969,58.21222],[11.93855,58.21278],[11.93705,58.21266],[11.93624,58.2132],[11.93591,58.21377],[11.93528,58.21365],[11.93516,58.21384],[11.93598,58.21499],[11.93391,58.21675],[11.93233,58.21692],[11.93165,58.21722],[11.93195,58.21735],[11.93123,58.21771],[11.93081,58.2176],[11.931,58.21742],[11.9283,58.21776],[11.92674,58.21753],[11.9263,58.21794],[11.92531,58.21817],[11.92539,58.21856],[11.92495,58.21878],[11.92454,58.21966],[11.92286,58.22083],[11.92169,58.22093],[11.92191,58.22131],[11.92096,58.22143],[11.92009,58.22116],[11.91949,58.2215],[11.91831,58.2217],[11.9181,58.22193],[11.91742,58.22188],[11.91136,58.22469],[11.89967,58.22031],[11.89542,58.21547],[11.89464,58.21311],[11.89118,58.21189],[11.8882,58.21163],[11.8881,58.21146],[11.86686,58.21158],[11.86776,58.21376],[11.8508,58.21568],[11.84903,58.22466],[11.85174,58.22767],[11.85014,58.23125],[11.84832,58.23512],[11.84389,58.23867],[11.84191,58.24332],[11.83658,58.24683],[11.83743,58.25335],[11.8569,58.25644],[11.85538,58.25284]]]}},{"type":"Feature","id":"1485R012","properties":{"code":"1485R012","name":"Norra Dalaberg-Norra Hovhult"},"geometry":{"type":"Polygon","coordinates":[[[11.93346,58.38405],[11.93391,58.3831],[11.93432,58.37878],[11.93397,58.37642],[11.93658,58.37666],[11.93787,58.37659],[11.939,58.37633],[11.94025,58.37571],[11.94232,58.37332],[11.94061,58.37271],[11.94025,58.37276],[11.94097,58.37086],[11.93425,58.37084],[11.93206,58.37147],[11.93345,58.37263],[11.92211,58.37318],[11.92243,58.3745],[11.92102,58.37664],[11.9234,58.37687],[11.92288,58.38336],[11.92572,58.38371],[11.92918,58.38371],[11.93346,58.38405]]]}},{"type":"Feature","id":"1485R013","properties":{"code":"1485R013","name":"Skansberget-Norra centrum-Sörvik"},"geometry":{"type":"Polygon","coordinates":[[[11.90747,58.35617],[11.91326,58.35572],[11.91328,58.35605],[11.92866,58.35406],[11.9309,58.35404],[11.93253,58.35425],[11.93288,58.3532],[11.93876,58.35283],[11.94071,58.35244],[11.93949,58.35147],[11.93939,58.35106],[11.93796,58.35064],[11.93757,58.34841],[11.93576,58.34869],[11.93096,58.34899],[11.92916,58.34889],[11.92604,58.34813],[11.91893,58.3473],[11.91627,58.34677],[11.91458,58.3463],[11.907,58.3434],[11.90434,58.34203],[11.90061,58.33956],[11.87891,58.33659],[11.87796,58.34043],[11.87428,58.34335],[11.87413,58.34501],[11.87478,58.34581],[11.87641,58.34703],[11.87614,58.34759],[11.87515,58.34777],[11.87487,58.34755],[11.87117,58.3495],[11.87113,58.3497],[11.8689,58.35025],[11.86771,58.35081],[11.86802,58.35127],[11.86881,58.35115],[11.87147,58.35147],[11.87708,58.35132],[11.87711,58.35153],[11.88248,58.35169],[11.88375,58.35133],[11.88449,58.35141],[11.88481,58.3517],[11.89038,58.3525],[11.89407,58.35324],[11.89418,58.35357],[11.89776,58.35439],[11.8979,58.35458],[11.90349,58.35572],[11.90747,58.35617]]]}},{"type":"Feature","id":"1485R014","properties":{"code":"1485R014","name":"Skogslyckan-Underås"},"geometry":{"type":"Polygon","coordinates":[[[11.92359,58.36435],[11.92362,58.36327],[11.92328,58.36324],[11.92323,58.36292],[11.92476,58.36291],[11.92482,58.36242],[11.92737,58.35927],[11.92956,58.3582],[11.93094,58.35708],[11.93253,58.35425],[11.9309,58.35404],[11.92866,58.35406],[11.9121,58.35623],[11.91157,58.35672],[11.90992,58.35735],[11.90546,58.36026],[11.90628,58.36058],[11.90571,58.36102],[11.90592,58.36127],[11.90555,58.36182],[11.90631,58.36271],[11.90746,58.36342],[11.91581,58.36325],[11.91601,58.36359],[11.91699,58.36389],[11.91901,58.36373],[11.92135,58.36425],[11.92359,58.36435]]]}},{"type":"Feature","id":"1485R015","properties":{"code":"1485R015","name":"Södra Hovhult-Ramneröd-Elseberg"},"geometry":{"type":"Polygon","coordinates":[[[11.93181,58.36479],[11.93247,58.36478],[11.93289,58.36573],[11.93364,58.36614],[11.93424,58.36617],[11.93429,58.36655],[11.93572,58.36636],[11.9363,58.36681],[11.93925,58.36621],[11.93818,58.36268],[11.9397,58.36086],[11.93933,58.35834],[11.93819,58.35815],[11.93712,58.35831],[11.93733,58.35671],[11.93625,58.35533],[11.93253,58.35425],[11.93094,58.35708],[11.92956,58.3582],[11.92737,58.35927],[11.92482,58.36242],[11.92476,58.36291],[11.92323,58.36292],[11.92328,58.36324],[11.92362,58.36327],[11.92348,58.36532],[11.92413,58.36552],[11.92351,58.36738],[11.92122,58.36855],[11.91989,58.37001],[11.92192,58.37036],[11.92161,58.37148],[11.92211,58.37318],[11.93345,58.37263],[11.93102,58.37085],[11.93066,58.37011],[11.93081,58.36943],[11.93274,58.36684],[11.93253,58.36625],[11.93104,58.36553],[11.93181,58.36479]]]}},{"type":"Feature","id":"1485R016","properties":{"code":"1485R016","name":"Tureborg-Stenbacken"},"geometry":{"type":"Polygon","coordinates":[[[11.96355,58.35173],[11.96139,58.35065],[11.96095,58.35066],[11.96062,58.35012],[11.95995,58.34993],[11.95852,58.34893],[11.95857,58.34761],[11.95986,58.34665],[11.9597,58.34567],[11.95805,58.34456],[11.95656,58.34491],[11.95533,58.34489],[11.95535,58.34462],[11.95674,58.3446],[11.95683,58.34434],[11.95593,58.34389],[11.95527,58.34411],[11.95455,58.34405],[11.9552,58.34383],[11.95543,58.3426],[11.95289,58.34009],[11.94737,58.34177],[11.9472,58.34187],[11.94768,58.34278],[11.94945,58.34391],[11.95042,58.3438],[11.9503,58.34434],[11.95075,58.34533],[11.95063,58.34553],[11.94928,58.34594],[11.94548,58.3466],[11.94605,58.34706],[11.94645,58.34803],[11.94895,58.34761],[11.95013,58.34769],[11.95186,58.34883],[11.95479,58.34932],[11.95583,58.3499],[11.9575,58.35182],[11.95971,58.35324],[11.96253,58.35405],[11.96355,58.35173]]]}},{"type":"Feature","id":"1485R017","properties":{"code":"1485R017","name":"Uddelvalla Söder-Södra centrum"},"geometry":{"type":"Polygon","coordinates":[[[11.94464,58.34871],[11.94644,58.34791],[11.9458,58.3468],[11.94385,58.3458],[11.93782,58.34434],[11.93438,58.34327],[11.93103,58.34186],[11.93031,58.34204],[11.92763,58.34152],[11.92453,58.34135],[11.92346,58.34277],[11.92649,58.34378],[11.92858,58.34497],[11.9312,58.34753],[11.93179,58.3489],[11.93576,58.34869],[11.93757,58.34841],[11.93781,58.34933],[11.94464,58.34871]]]}},{"type":"Feature","id":"1485R018","properties":{"code":"1485R018","name":"Östrabo-Hönseberget-Margretegärde"},"geometry":{"type":"Polygon","coordinates":[[[11.95184,58.35522],[11.95682,58.35552],[11.95936,58.35534],[11.96307,58.35469],[11.96253,58.35405],[11.96018,58.35348],[11.9575,58.35182],[11.95541,58.34958],[11.95415,58.34916],[11.95186,58.34883],[11.95052,58.3478],[11.94951,58.34761],[11.94645,58.34803],[11.94394,58.34885],[11.93781,58.34933],[11.93796,58.35064],[11.93939,58.35106],[11.93949,58.35147],[11.94071,58.35244],[11.93876,58.35283],[11.93288,58.3532],[11.93253,58.35425],[11.93755,58.35568],[11.94227,58.35645],[11.94435,58.35644],[11.94949,58.35545],[11.95184,58.35522]]]}}]}