{"type":"FeatureCollection","features":[{"type":"Feature","id":"1486R001","properties":{"code":"1486R001","name":"Skee-Näsinge-Hogdal"},"geometry":{"type":"Polygon","coordinates":[[[11.43118,59.0279],[11.44261,59.01355],[11.46462,58.99117],[11.46007,58.98816],[11.45891,58.98811],[11.45812,58.98787],[11.45645,58.98617],[11.45387,58.98547],[11.46232,58.97306],[11.45968,58.95249],[11.46366,58.93326],[11.45626,58.91663],[11.45648,58.89504],[11.45718,58.89329],[11.457,58.89096],[11.45563,58.88941],[11.45745,58.88844],[11.45548,58.88601],[11.45623,58.88581],[11.45365,58.87655],[11.45756,58.87107],[11.45629,58.86897],[11.44267,58.86537],[11.39721,58.84612],[11.39571,58.84168],[11.39009,58.84005],[11.38904,58.8401],[11.38895,58.84027],[11.38864,58.84019],[11.38833,58.84033],[11.38829,58.84082],[11.38794,58.84103],[11.38729,58.84101],[11.38715,58.84133],[11.3875,58.84165],[11.38688,58.84175],[11.38703,58.842],[11.37294,58.84047],[11.37471,58.84427],[11.37655,58.84612],[11.37626,58.84657],[11.37775,58.84705],[11.37848,58.84787],[11.37931,58.84814],[11.3793,58.84848],[11.37879,58.84867],[11.37955,58.84865],[11.37972,58.84885],[11.37856,58.849],[11.37777,58.84871],[11.37713,58.84948],[11.37732,58.84966],[11.3781,58.84961],[11.37735,58.85],[11.37666,58.84952],[11.37607,58.84966],[11.37541,58.84942],[11.37478,58.84986],[11.37565,58.85002],[11.37611,58.85041],[11.37522,58.85046],[11.37486,58.85022],[11.37435,58.85018],[11.3738,58.85074],[11.37389,58.85115],[11.37327,58.85116],[11.37273,58.85091],[11.37251,58.851],[11.37275,58.85139],[11.37392,58.85148],[11.37353,58.85205],[11.3726,58.85214],[11.37215,58.85169],[11.37112,58.85165],[11.37135,58.85228],[11.37198,58.85239],[11.37246,58.85299],[11.37145,58.85301],[11.37142,58.85372],[11.37205,58.85365],[11.37297,58.85311],[11.37307,58.8533],[11.37266,58.85366],[11.37133,58.85411],[11.37158,58.85446],[11.37228,58.85424],[11.37216,58.85458],[11.37097,58.85464],[11.37021,58.85449],[11.37033,58.85527],[11.36985,58.85554],[11.37057,58.85577],[11.36894,58.856],[11.36842,58.85658],[11.36883,58.85685],[11.36863,58.85709],[11.36811,58.85739],[11.3673,58.85737],[11.36781,58.85808],[11.36762,58.85838],[11.36639,58.85857],[11.36519,58.85906],[11.36531,58.85986],[11.3662,58.86002],[11.36659,58.86053],[11.3665,58.86095],[11.36559,58.86117],[11.3658,58.86173],[11.36505,58.86145],[11.3642,58.86211],[11.36354,58.86216],[11.36294,58.86176],[11.34915,58.8643],[11.34253,58.85704],[11.33832,58.85196],[11.33175,58.845],[11.32897,58.846],[11.32748,58.84627],[11.32418,58.84621],[11.31976,58.84684],[11.31469,58.84731],[11.30911,58.84852],[11.3045,58.85111],[11.29817,58.85166],[11.29768,58.85257],[11.2925,58.85059],[11.29436,58.84911],[11.29044,58.84659],[11.28941,58.84433],[11.28639,58.84291],[11.27361,58.84291],[11.26982,58.84224],[11.26937,58.84244],[11.26614,58.84132],[11.2651,58.84054],[11.26584,58.83834],[11.26708,58.8363],[11.26458,58.83605],[11.26258,58.8364],[11.25622,58.83627],[11.25544,58.8365],[11.24202,58.83163],[11.23235,58.8302],[11.23046,58.83076],[11.23094,58.83324],[11.22665,58.83368],[11.22433,58.83506],[11.22473,58.83684],[11.23252,58.83588],[11.23501,58.83619],[11.23749,58.83892],[11.24711,58.84246],[11.25712,58.84491],[11.25802,58.8443],[11.26258,58.84523],[11.26391,58.84599],[11.26571,58.84606],[11.26665,58.84591],[11.26768,58.84605],[11.26724,58.84679],[11.26687,58.84679],[11.26699,58.84782],[11.26437,58.84796],[11.26084,58.84745],[11.26073,58.8477],[11.2614,58.848],[11.26087,58.84813],[11.26053,58.84777],[11.26013,58.84821],[11.26091,58.84851],[11.26049,58.84887],[11.26057,58.84931],[11.26098,58.84934],[11.26069,58.84978],[11.25731,58.84869],[11.22213,58.84078],[11.22457,58.84213],[11.22737,58.84271],[11.2263,58.84623],[11.22947,58.84824],[11.23568,58.85388],[11.23448,58.85488],[11.23295,58.85744],[11.23287,58.85794],[11.23344,58.85886],[11.23417,58.85917],[11.23621,58.85956],[11.23816,58.86037],[11.24088,58.862],[11.24282,58.86283],[11.24634,58.86276],[11.2481,58.86442],[11.24693,58.86742],[11.25011,58.86861],[11.25318,58.86729],[11.25366,58.86736],[11.25448,58.86773],[11.25374,58.86811],[11.25376,58.86839],[11.25628,58.87021],[11.25098,58.8715],[11.24945,58.87058],[11.24586,58.86961],[11.24208,58.87054],[11.24136,58.87118],[11.24072,58.87085],[11.23941,58.87216],[11.23775,58.87165],[11.23841,58.87195],[11.23804,58.87216],[11.23724,58.87194],[11.23694,58.87214],[11.23421,58.87129],[11.23288,58.87219],[11.23211,58.87343],[11.23178,58.87554],[11.2328,58.87791],[11.23511,58.87775],[11.23785,58.87836],[11.23822,58.87942],[11.23809,58.88177],[11.242,58.88413],[11.24379,58.88451],[11.25041,58.88526],[11.25573,58.88686],[11.25809,58.89379],[11.26122,58.89478],[11.26456,58.89773],[11.26656,58.90075],[11.27061,58.90136],[11.25195,58.90839],[11.24366,58.91231],[11.23707,58.90989],[11.23397,58.91255],[11.23091,58.9146],[11.23627,58.91694],[11.22764,58.92078],[11.23077,58.92337],[11.23338,58.92437],[11.22737,58.92705],[11.22617,58.92724],[11.22159,58.93393],[11.20949,58.93197],[11.20679,58.93177],[11.20886,58.93248],[11.21154,58.93375],[11.21614,58.93472],[11.22194,58.93674],[11.22452,58.93812],[11.22628,58.94013],[11.23167,58.94137],[11.23383,58.94221],[11.23846,58.94554],[11.23964,58.94755],[11.23929,58.9496],[11.23787,58.95118],[11.23501,58.95265],[11.23181,58.95343],[11.22539,58.95381],[11.2205,58.95348],[11.21697,58.95285],[11.21385,58.95159],[11.21287,58.95271],[11.21135,58.95383],[11.20983,58.95457],[11.20751,58.95527],[11.20729,58.95698],[11.2081,58.9595],[11.20535,58.96347],[11.2031,58.96346],[11.19711,58.96563],[11.19387,58.96903],[11.19735,58.97305],[11.19485,58.97542],[11.19392,58.97721],[11.19795,58.97882],[11.19862,58.97998],[11.20034,58.98053],[11.2009,58.98255],[11.20068,58.98305],[11.19694,58.98269],[11.19581,58.98372],[11.19501,58.98411],[11.19664,58.98543],[11.19587,58.98798],[11.20143,58.99023],[11.20763,58.98933],[11.20655,58.99552],[11.20654,58.99872],[11.20549,58.99972],[11.21165,59.00177],[11.21557,59.00388],[11.21969,59.00442],[11.22044,59.00793],[11.2207,59.00791],[11.22043,59.00795],[11.21219,59.00509],[11.20507,59.00365],[11.19752,59.00171],[11.19197,59.00109],[11.18038,58.99671],[11.17337,58.99789],[11.16458,58.99593],[11.16239,58.99377],[11.15797,58.99207],[11.14967,58.99169],[11.14269,58.98935],[11.12989,58.98703],[11.12561,58.98445],[11.11633,58.98251],[11.11289,58.98027],[11.10495,58.97414],[11.10379,58.97142],[11.09169,58.97106],[11.07134,58.98013],[11.09238,58.9918],[11.11714,59.01506],[11.1535,59.07926],[11.22486,59.08761],[11.25829,59.0961],[11.27099,59.09767],[11.28904,59.09958],[11.3025,59.10621],[11.33991,59.11498],[11.36841,59.09844],[11.38933,59.07715],[11.4142,59.03969],[11.43118,59.0279]]]}},{"type":"Feature","id":"1486R002","properties":{"code":"1486R002","name":"Strömstad centrum-Erlandseröd"},"geometry":{"type":"Polygon","coordinates":[[[11.21135,58.95383],[11.21385,58.95159],[11.21579,58.95248],[11.21847,58.9532],[11.2232,58.95373],[11.22548,58.95381],[11.22982,58.95362],[11.23309,58.9532],[11.23658,58.95198],[11.23884,58.95026],[11.23958,58.94893],[11.23969,58.94789],[11.23878,58.94587],[11.23514,58.943],[11.23334,58.94198],[11.23088,58.94116],[11.22628,58.94013],[11.22489,58.93841],[11.22246,58.93695],[11.21614,58.93472],[11.21154,58.93375],[11.2072,58.93188],[11.19588,58.92943],[11.18934,58.92884],[11.18736,58.92839],[11.18058,58.92741],[11.17225,58.92471],[11.16091,58.9237],[11.15906,58.92511],[11.15825,58.92641],[11.15799,58.92835],[11.15846,58.92965],[11.15927,58.93076],[11.15911,58.93278],[11.15741,58.93474],[11.16277,58.93493],[11.16558,58.93919],[11.16505,58.94083],[11.16668,58.94345],[11.1711,58.94518],[11.17195,58.94514],[11.17596,58.94286],[11.1779,58.94375],[11.17774,58.94391],[11.17809,58.94424],[11.18281,58.94652],[11.18342,58.94764],[11.18612,58.94873],[11.18809,58.94807],[11.19168,58.9487],[11.19311,58.94837],[11.1947,58.94929],[11.20777,58.95337],[11.20751,58.95527],[11.20983,58.95457],[11.21135,58.95383]]]}},{"type":"Feature","id":"1486R003","properties":{"code":"1486R003","name":"Tjärnö-Koster-Kebal"},"geometry":{"type":"Polygon","coordinates":[[[11.22043,59.00795],[11.2207,59.00791],[11.22044,59.00793],[11.21969,59.00442],[11.21557,59.00388],[11.21165,59.00177],[11.20549,58.99972],[11.20654,58.99872],[11.20655,58.99552],[11.20763,58.98933],[11.20143,58.99023],[11.19587,58.98798],[11.19664,58.98543],[11.19501,58.98411],[11.19581,58.98372],[11.19694,58.98269],[11.20068,58.98305],[11.2009,58.98255],[11.20034,58.98053],[11.19862,58.97998],[11.19795,58.97882],[11.19392,58.97721],[11.19485,58.97542],[11.19735,58.97305],[11.19387,58.96903],[11.19711,58.96563],[11.2031,58.96346],[11.20535,58.96347],[11.2081,58.9595],[11.20729,58.95698],[11.20777,58.95337],[11.1947,58.94929],[11.19311,58.94837],[11.19168,58.9487],[11.18809,58.94807],[11.18612,58.94873],[11.18342,58.94764],[11.18281,58.94652],[11.17809,58.94424],[11.17774,58.94391],[11.1779,58.94375],[11.17596,58.94286],[11.17195,58.94514],[11.1711,58.94518],[11.16668,58.94345],[11.16505,58.94083],[11.16558,58.93919],[11.16277,58.93493],[11.15741,58.93474],[11.15911,58.93278],[11.15927,58.93076],[11.15846,58.92965],[11.15799,58.92835],[11.15839,58.92608],[11.15936,58.92481],[11.16091,58.9237],[11.17225,58.92471],[11.18058,58.92741],[11.18736,58.92839],[11.18934,58.92884],[11.19588,58.92943],[11.20679,58.93177],[11.20949,58.93197],[11.22159,58.93393],[11.22617,58.92724],[11.22737,58.92705],[11.23338,58.92437],[11.23077,58.92337],[11.22764,58.92078],[11.23627,58.91694],[11.23091,58.9146],[11.23397,58.91255],[11.23707,58.90989],[11.24366,58.91231],[11.25195,58.90839],[11.27061,58.90136],[11.26656,58.90075],[11.26456,58.89773],[11.26122,58.89478],[11.25809,58.89379],[11.25573,58.88686],[11.25041,58.88526],[11.24379,58.88451],[11.242,58.88413],[11.23809,58.88177],[11.23822,58.87942],[11.23785,58.87836],[11.23511,58.87775],[11.2328,58.87791],[11.23178,58.87554],[11.23211,58.87343],[11.23288,58.87219],[11.23421,58.87129],[11.23694,58.87214],[11.23724,58.87194],[11.23804,58.87216],[11.23841,58.87195],[11.23775,58.87165],[11.23941,58.87216],[11.24072,58.87085],[11.24136,58.87118],[11.24208,58.87054],[11.24586,58.86961],[11.24945,58.87058],[11.25098,58.8715],[11.25628,58.87021],[11.25376,58.86839],[11.25374,58.86811],[11.25448,58.86773],[11.25318,58.86729],[11.25011,58.86861],[11.24693,58.86742],[11.2481,58.86442],[11.24634,58.86276],[11.24282,58.86283],[11.24088,58.862],[11.23816,58.86037],[11.23621,58.85956],[11.23417,58.85917],[11.23344,58.85886],[11.23287,58.85794],[11.23295,58.85744],[11.23448,58.85488],[11.23568,58.85388],[11.22947,58.84824],[11.2263,58.84623],[11.22737,58.84271],[11.22457,58.84213],[11.22203,58.84074],[11.22347,58.83792],[11.21832,58.83752],[11.21371,58.8381],[11.20895,58.83588],[11.21271,58.83498],[11.21293,58.83357],[11.21077,58.83327],[11.20867,58.83234],[11.20467,58.82845],[11.20032,58.82788],[11.19568,58.82523],[11.18665,58.82558],[11.18021,58.82362],[11.16855,58.81781],[11.16006,58.81562],[11.15302,58.81546],[11.14315,58.81104],[11.131,58.81018],[11.1047,58.81835],[11.06106,58.79532],[11.02594,58.79875],[10.69925,58.79819],[10.60579,58.79742],[10.63891,58.89227],[10.91791,58.94228],[10.98319,58.96045],[11.06641,58.97739],[11.07134,58.98013],[11.09169,58.97106],[11.10379,58.97142],[11.10495,58.97414],[11.11289,58.98027],[11.11633,58.98251],[11.12561,58.98445],[11.12989,58.98703],[11.14269,58.98935],[11.14967,58.99169],[11.15797,58.99207],[11.16239,58.99377],[11.16458,58.99593],[11.17337,58.99789],[11.18038,58.99671],[11.19197,59.00109],[11.19752,59.00171],[11.20507,59.00365],[11.21219,59.00509],[11.22043,59.00795]]]}}]}