{"type":"FeatureCollection","features":[{"type":"Feature","id":"1489R001","properties":{"code":"1489R001","name":"Alingsås centrum"},"geometry":{"type":"Polygon","coordinates":[[[12.53343,57.93037],[12.54244,57.92956],[12.54383,57.92864],[12.54403,57.92846],[12.53905,57.92738],[12.53895,57.92691],[12.54023,57.9264],[12.5408,57.92539],[12.54112,57.92367],[12.54325,57.92196],[12.54092,57.92191],[12.5372,57.92236],[12.53744,57.92256],[12.53702,57.92287],[12.53602,57.92275],[12.5355,57.923],[12.53419,57.92271],[12.53354,57.9219],[12.53301,57.92187],[12.53191,57.92139],[12.53008,57.92181],[12.52938,57.92161],[12.52691,57.92197],[12.52494,57.92306],[12.52927,57.92691],[12.53133,57.92755],[12.53237,57.92967],[12.53303,57.92957],[12.53343,57.93037]]]}},{"type":"Feature","id":"1489R002","properties":{"code":"1489R002","name":"Alingsås nordöstra omland"},"geometry":{"type":"Polygon","coordinates":[[[12.62811,58.09423],[12.639,58.08729],[12.63788,58.08603],[12.63682,58.08539],[12.63657,58.08486],[12.63572,58.0847],[12.63658,58.08331],[12.63765,58.08333],[12.64039,58.08398],[12.64291,58.08367],[12.64385,58.08382],[12.64763,58.0851],[12.65068,58.08639],[12.65067,58.08582],[12.64953,58.08401],[12.6503,58.08324],[12.64993,58.08243],[12.65013,58.08211],[12.6487,58.08119],[12.64741,58.08139],[12.63548,58.07325],[12.63506,58.07326],[12.63498,58.06684],[12.63372,58.06633],[12.63293,58.06548],[12.63105,58.06437],[12.62721,58.06315],[12.62325,58.06258],[12.61197,58.06037],[12.59296,58.05327],[12.58054,58.04724],[12.57985,58.04453],[12.58036,58.04105],[12.57865,58.03946],[12.57733,58.037],[12.56861,58.02573],[12.56682,58.02401],[12.56504,58.0243],[12.56542,58.02221],[12.55717,58.01295],[12.55778,58.01248],[12.55783,58.01155],[12.55669,58.0112],[12.55583,58.0104],[12.555,58.0101],[12.55098,58.00623],[12.53932,57.99847],[12.56772,57.97402],[12.56909,57.9736],[12.5693,57.97293],[12.56877,57.97235],[12.57029,57.97289],[12.57092,57.97294],[12.57401,57.97239],[12.57808,57.97273],[12.57922,57.9723],[12.58045,57.97214],[12.58226,57.97099],[12.58365,57.97212],[12.58417,57.97171],[12.58571,57.97177],[12.58638,57.972],[12.58806,57.97068],[12.58905,57.97116],[12.59093,57.97161],[12.59225,57.97066],[12.59383,57.97142],[12.59442,57.97156],[12.59517,57.97148],[12.59944,57.97321],[12.60012,57.97329],[12.6003,57.97328],[12.60074,57.97315],[12.5996,57.97203],[12.59486,57.97112],[12.59369,57.97013],[12.59117,57.96962],[12.59017,57.96853],[12.58921,57.96839],[12.58885,57.96655],[12.58822,57.96583],[12.58584,57.96461],[12.58526,57.96395],[12.58599,57.96236],[12.58696,57.9616],[12.58702,57.96089],[12.58636,57.96059],[12.58466,57.96066],[12.58399,57.96045],[12.58449,57.95956],[12.58417,57.95896],[12.58336,57.95883],[12.58304,57.95839],[12.58369,57.95723],[12.58371,57.95641],[12.58315,57.95561],[12.58229,57.95516],[12.58061,57.95492],[12.58012,57.95446],[12.58078,57.95363],[12.58068,57.95318],[12.58023,57.95272],[12.57852,57.95231],[12.57873,57.9518],[12.57938,57.95154],[12.57994,57.9506],[12.57948,57.94985],[12.57823,57.9489],[12.57523,57.94943],[12.57036,57.94952],[12.56803,57.95017],[12.56607,57.95045],[12.56282,57.95047],[12.5597,57.94995],[12.55612,57.94864],[12.55367,57.94852],[12.55169,57.94818],[12.54999,57.9477],[12.54828,57.94692],[12.54778,57.94692],[12.54617,57.94822],[12.54413,57.9492],[12.54029,57.95019],[12.53712,57.95044],[12.53579,57.95097],[12.53351,57.9523],[12.53059,57.95318],[12.52345,57.9541],[12.52001,57.95418],[12.51782,57.95468],[12.51583,57.9549],[12.51146,57.95495],[12.50878,57.95473],[12.50453,57.95601],[12.50124,57.95637],[12.49875,57.95631],[12.49455,57.9565],[12.49124,57.95606],[12.48789,57.95486],[12.48432,57.95227],[12.48277,57.95292],[12.4804,57.95436],[12.47782,57.95357],[12.47605,57.95342],[12.47615,57.95331],[12.4749,57.95313],[12.4742,57.9534],[12.4741,57.95385],[12.47335,57.95438],[12.46385,57.96953],[12.48205,57.98444],[12.48025,57.98526],[12.49166,57.99059],[12.49247,57.99202],[12.49135,57.99308],[12.49139,57.99352],[12.49066,57.99375],[12.48917,57.99517],[12.48834,57.99484],[12.488,57.9942],[12.48734,57.99382],[12.4867,57.99394],[12.48679,57.99437],[12.48588,57.99472],[12.48271,57.99427],[12.48223,57.99403],[12.47983,57.99419],[12.47837,57.99359],[12.47651,57.99337],[12.47664,57.99368],[12.47588,57.99409],[12.47578,57.99448],[12.47744,57.99553],[12.47702,57.99599],[12.47617,57.99633],[12.47457,57.99629],[12.46621,57.99694],[12.47143,58.00241],[12.47343,58.00487],[12.47172,58.00706],[12.47317,58.01074],[12.47581,58.01922],[12.47521,58.02461],[12.47696,58.02879],[12.47824,58.03297],[12.47715,58.03898],[12.48518,58.04329],[12.49188,58.05504],[12.49694,58.05921],[12.49688,58.06172],[12.5151,58.07106],[12.53587,58.07953],[12.54592,58.08739],[12.55619,58.08693],[12.55637,58.08721],[12.55794,58.08732],[12.5582,58.08677],[12.56783,58.08622],[12.5683,58.0868],[12.56905,58.08712],[12.57037,58.0873],[12.57015,58.08663],[12.57402,58.08831],[12.58775,58.08973],[12.61246,58.09296],[12.62811,58.09423]]]}},{"type":"Feature","id":"1489R003","properties":{"code":"1489R003","name":"Alingsås norra omland"},"geometry":{"type":"Polygon","coordinates":[[[12.54966,58.19754],[12.5527,58.19621],[12.56734,58.1948],[12.56862,58.19532],[12.57181,58.19526],[12.57293,58.19497],[12.57413,58.19614],[12.5728,58.19695],[12.57291,58.19793],[12.57629,58.198],[12.57772,58.19787],[12.58152,58.19714],[12.58241,58.19634],[12.58331,58.19624],[12.58665,58.19458],[12.5867,58.19266],[12.5861,58.19193],[12.58634,58.19187],[12.61444,58.18928],[12.65156,58.18524],[12.65227,58.18554],[12.65386,58.18528],[12.65431,58.18494],[12.66028,58.18427],[12.66144,58.18464],[12.66269,58.18471],[12.66418,58.18696],[12.66627,58.18798],[12.66831,58.18835],[12.67046,58.18919],[12.67315,58.18914],[12.6744,58.18878],[12.67693,58.18633],[12.6764,58.18403],[12.67683,58.18361],[12.67656,58.18251],[12.68835,58.18111],[12.68926,58.1783],[12.68863,58.17805],[12.6902,58.17757],[12.69029,58.17677],[12.69001,58.17626],[12.68853,58.17493],[12.68781,58.17468],[12.68787,58.17451],[12.70857,58.15835],[12.68303,58.12958],[12.68317,58.12875],[12.68374,58.12763],[12.6847,58.12702],[12.68588,58.12662],[12.6869,58.12653],[12.70856,58.10943],[12.71097,58.09676],[12.69951,58.08847],[12.68608,58.08735],[12.67592,58.08589],[12.6673,58.08349],[12.6579,58.07744],[12.63622,58.07324],[12.6376,58.06831],[12.63683,58.06805],[12.63498,58.06684],[12.63506,58.07326],[12.63548,58.07325],[12.64741,58.08139],[12.6487,58.08119],[12.65013,58.08211],[12.64993,58.08243],[12.6503,58.08324],[12.64953,58.08401],[12.65067,58.08582],[12.65068,58.08639],[12.64763,58.0851],[12.64385,58.08382],[12.64291,58.08367],[12.64039,58.08398],[12.63669,58.08325],[12.63572,58.0847],[12.63657,58.08486],[12.63682,58.08539],[12.63788,58.08603],[12.639,58.08729],[12.62811,58.09423],[12.61246,58.09296],[12.58775,58.08973],[12.57402,58.08831],[12.57015,58.08663],[12.57037,58.0873],[12.56905,58.08712],[12.5683,58.0868],[12.56783,58.08622],[12.5582,58.08677],[12.55794,58.08732],[12.55637,58.08721],[12.55619,58.08693],[12.54592,58.08739],[12.53587,58.07953],[12.5151,58.07106],[12.49688,58.06172],[12.49628,58.07056],[12.48821,58.07101],[12.48119,58.06935],[12.48164,58.07026],[12.48136,58.07224],[12.48169,58.07369],[12.48322,58.07574],[12.48222,58.07652],[12.48034,58.07687],[12.47953,58.07798],[12.47834,58.07772],[12.47751,58.07683],[12.42401,58.07206],[12.42567,58.07437],[12.43059,58.07933],[12.43301,58.08518],[12.4332,58.0887],[12.43457,58.0935],[12.43376,58.09515],[12.43689,58.09591],[12.44043,58.09594],[12.4458,58.09781],[12.4505,58.10001],[12.45761,58.10129],[12.4588,58.10244],[12.45952,58.1028],[12.46181,58.10318],[12.45818,58.11086],[12.46131,58.11453],[12.46514,58.12343],[12.47073,58.12622],[12.47075,58.12599],[12.47108,58.12592],[12.47157,58.12622],[12.47232,58.12618],[12.47674,58.12504],[12.47788,58.12552],[12.47963,58.1289],[12.47944,58.12912],[12.48094,58.13244],[12.48147,58.13287],[12.48206,58.13272],[12.48256,58.13309],[12.49427,58.13394],[12.49896,58.14096],[12.4975,58.14109],[12.49493,58.14166],[12.49384,58.14243],[12.49252,58.14271],[12.48926,58.14287],[12.48581,58.14276],[12.47958,58.14478],[12.47795,58.1448],[12.47664,58.14506],[12.47385,58.1451],[12.47087,58.14545],[12.47021,58.14528],[12.46866,58.14558],[12.46823,58.14541],[12.46739,58.14591],[12.46681,58.14572],[12.46636,58.14503],[12.46537,58.14502],[12.46435,58.14473],[12.46465,58.14534],[12.46691,58.14648],[12.46813,58.1467],[12.46859,58.14617],[12.47377,58.14815],[12.47649,58.15702],[12.47793,58.16031],[12.47837,58.16274],[12.47942,58.16578],[12.4838,58.16458],[12.48451,58.16397],[12.4868,58.1631],[12.48883,58.16289],[12.48947,58.16234],[12.49046,58.16215],[12.49074,58.16192],[12.49196,58.16275],[12.49212,58.16379],[12.49168,58.16383],[12.49125,58.16501],[12.49201,58.16695],[12.49313,58.16776],[12.49397,58.16752],[12.49464,58.16775],[12.49535,58.16736],[12.4963,58.16659],[12.49633,58.16552],[12.4966,58.16535],[12.49961,58.1658],[12.50046,58.16614],[12.50203,58.16585],[12.50451,58.16659],[12.50622,58.16604],[12.50759,58.1661],[12.5098,58.16563],[12.51303,58.16613],[12.51626,58.16579],[12.5165,58.16567],[12.516,58.16485],[12.51649,58.16432],[12.51635,58.16299],[12.51849,58.16328],[12.5208,58.16316],[12.52349,58.16519],[12.52171,58.16575],[12.52078,58.16635],[12.52323,58.16806],[12.5237,58.16885],[12.52349,58.16986],[12.52409,58.17041],[12.52335,58.17088],[12.52225,58.17104],[12.52224,58.17149],[12.5247,58.1717],[12.52641,58.17165],[12.52736,58.17148],[12.52777,58.17117],[12.53114,58.17086],[12.5319,58.17225],[12.5295,58.17463],[12.53169,58.17567],[12.53288,58.17651],[12.53663,58.17528],[12.5376,58.1785],[12.54495,58.17816],[12.5449,58.17843],[12.54351,58.1793],[12.54382,58.17997],[12.54313,58.18059],[12.54399,58.1815],[12.54457,58.18442],[12.54292,58.18679],[12.54362,58.18692],[12.54391,58.18718],[12.54345,58.18757],[12.54385,58.18803],[12.54354,58.18822],[12.54362,58.18849],[12.5429,58.18859],[12.54262,58.18883],[12.54225,58.18945],[12.54248,58.18974],[12.54197,58.18982],[12.54135,58.18964],[12.54076,58.18978],[12.54024,58.19015],[12.54093,58.19045],[12.53977,58.19073],[12.54078,58.19104],[12.5404,58.19178],[12.54126,58.19175],[12.5414,58.19192],[12.54075,58.19206],[12.54078,58.19249],[12.54019,58.19244],[12.53996,58.19293],[12.5407,58.19301],[12.54096,58.19353],[12.54055,58.19357],[12.54048,58.19392],[12.5397,58.19416],[12.53985,58.19446],[12.53921,58.19657],[12.53976,58.19662],[12.5395,58.19679],[12.53967,58.19706],[12.54111,58.19694],[12.54266,58.19731],[12.54319,58.19713],[12.5442,58.19726],[12.54507,58.19692],[12.54966,58.19754]],[[12.54077,58.14065],[12.53809,58.14035],[12.53546,58.13976],[12.53287,58.1388],[12.53106,58.13773],[12.52987,58.1365],[12.5293,58.13513],[12.52979,58.13217],[12.52471,58.13301],[12.52268,58.13316],[12.51996,58.13304],[12.51742,58.13257],[12.5142,58.13127],[12.51164,58.12932],[12.50848,58.1289],[12.50486,58.12773],[12.5029,58.12656],[12.50165,58.12526],[12.50103,58.12377],[12.50128,58.12187],[12.50278,58.12001],[12.50395,58.11761],[12.50622,58.11582],[12.50651,58.11406],[12.50786,58.11234],[12.5078,58.11096],[12.5085,58.10935],[12.50979,58.10806],[12.51116,58.1072],[12.51337,58.10629],[12.51517,58.10578],[12.5233,58.10481],[12.52528,58.10484],[12.52782,58.10517],[12.53015,58.10584],[12.53207,58.10679],[12.53349,58.10797],[12.53426,58.10918],[12.5365,58.10941],[12.53838,58.10983],[12.54221,58.11136],[12.54541,58.11151],[12.54852,58.11221],[12.55107,58.11338],[12.55281,58.11494],[12.55482,58.11571],[12.55612,58.11649],[12.55762,58.11805],[12.55813,58.11972],[12.55979,58.12069],[12.56108,58.12193],[12.56184,58.12404],[12.56118,58.12606],[12.55935,58.12807],[12.55791,58.12891],[12.55615,58.12961],[12.5558,58.13158],[12.55454,58.13313],[12.55444,58.13501],[12.55326,58.13669],[12.55105,58.13837],[12.54845,58.13955],[12.54477,58.14043],[12.54077,58.14065]]]}},{"type":"Feature","id":"1489R004","properties":{"code":"1489R004","name":"Alingsås västra omland"},"geometry":{"type":"Polygon","coordinates":[[[12.47953,58.07798],[12.48034,58.07687],[12.48222,58.07652],[12.48322,58.07574],[12.48169,58.07369],[12.48136,58.07224],[12.48164,58.07026],[12.48119,58.06935],[12.48821,58.07101],[12.49628,58.07056],[12.49694,58.05921],[12.49188,58.05504],[12.48518,58.04329],[12.47715,58.03898],[12.47824,58.03297],[12.47696,58.02879],[12.47521,58.02461],[12.47581,58.01922],[12.47317,58.01074],[12.47172,58.00706],[12.47343,58.00487],[12.47143,58.00241],[12.46621,57.99694],[12.47457,57.99629],[12.47617,57.99633],[12.47702,57.99599],[12.47744,57.99553],[12.47578,57.99448],[12.47588,57.99409],[12.47664,57.99368],[12.47651,57.99337],[12.47837,57.99359],[12.47983,57.99419],[12.48223,57.99403],[12.48271,57.99427],[12.48588,57.99472],[12.48679,57.99437],[12.4867,57.99394],[12.48734,57.99382],[12.488,57.9942],[12.48834,57.99484],[12.48917,57.99517],[12.49066,57.99375],[12.49139,57.99352],[12.49135,57.99308],[12.49247,57.99202],[12.49166,57.99059],[12.48025,57.98526],[12.48205,57.98444],[12.46385,57.96953],[12.47335,57.95438],[12.4741,57.95385],[12.4742,57.9534],[12.47521,57.9531],[12.47615,57.95331],[12.47605,57.95342],[12.47782,57.95357],[12.4804,57.95436],[12.48277,57.95292],[12.48432,57.95227],[12.48336,57.95069],[12.48313,57.94917],[12.48093,57.94866],[12.47845,57.94763],[12.4751,57.94671],[12.47318,57.94576],[12.471,57.94414],[12.46994,57.94284],[12.46955,57.94176],[12.46956,57.94068],[12.47016,57.9393],[12.47242,57.93706],[12.47563,57.93561],[12.47962,57.93491],[12.48346,57.935],[12.48587,57.93412],[12.48844,57.93367],[12.48882,57.93192],[12.48638,57.93194],[12.48297,57.93171],[12.48113,57.9314],[12.47899,57.93077],[12.47527,57.92885],[12.47302,57.92798],[12.47014,57.9264],[12.46878,57.9254],[12.46781,57.92426],[12.46726,57.92293],[12.46759,57.92094],[12.46703,57.91882],[12.46738,57.91705],[12.46851,57.91554],[12.4681,57.91401],[12.46811,57.91245],[12.46991,57.90912],[12.47119,57.90762],[12.4698,57.90432],[12.44258,57.89035],[12.43296,57.88502],[12.39741,57.87675],[12.3879,57.89559],[12.40544,57.89495],[12.39566,57.9058],[12.39886,57.91297],[12.40867,57.91996],[12.4121,57.92856],[12.39943,57.93063],[12.39779,57.9335],[12.38785,57.93602],[12.38655,57.9355],[12.38467,57.93566],[12.38328,57.93662],[12.38318,57.93701],[12.38168,57.93744],[12.37502,57.94106],[12.37363,57.94134],[12.36943,57.93931],[12.3663,57.93946],[12.36458,57.93924],[12.36367,57.9381],[12.36178,57.93852],[12.36195,57.93873],[12.36163,57.93898],[12.36326,57.9396],[12.36241,57.94037],[12.36264,57.94077],[12.36226,57.94146],[12.35574,57.94195],[12.35479,57.94709],[12.34967,57.9488],[12.34166,57.94739],[12.34125,57.94845],[12.35771,57.95249],[12.35465,57.95667],[12.36364,57.96182],[12.36956,57.96433],[12.3753,57.96628],[12.38547,57.97117],[12.38031,57.97079],[12.3764,57.96979],[12.37456,57.97043],[12.37206,57.97005],[12.37124,57.96935],[12.36976,57.96889],[12.36361,57.97043],[12.36506,57.97278],[12.36465,57.9734],[12.36657,57.97489],[12.36454,57.97585],[12.36224,57.97609],[12.35832,57.97462],[12.35232,57.97892],[12.37023,57.98653],[12.36845,57.98925],[12.37156,57.98923],[12.37203,57.9913],[12.37417,57.99275],[12.3783,57.99222],[12.3808,57.99159],[12.38603,57.99198],[12.39173,57.99075],[12.39217,57.98991],[12.41333,57.98739],[12.41167,57.98858],[12.41104,57.98988],[12.41184,57.99026],[12.41046,57.99225],[12.41324,57.99808],[12.41777,58.00113],[12.41855,58.00228],[12.41754,58.00299],[12.41533,58.00316],[12.4149,58.00543],[12.41322,58.00741],[12.41406,58.01145],[12.41378,58.01201],[12.41317,58.01225],[12.41881,58.01678],[12.41634,58.0233],[12.41511,58.02309],[12.41164,58.02367],[12.41279,58.0251],[12.41237,58.02609],[12.41375,58.02713],[12.41557,58.02784],[12.41705,58.02903],[12.41991,58.03284],[12.41961,58.03512],[12.4173,58.03558],[12.41571,58.0364],[12.41869,58.03817],[12.41924,58.04106],[12.41966,58.04179],[12.42382,58.04494],[12.42414,58.04697],[12.42583,58.04804],[12.42694,58.04928],[12.42125,58.05201],[12.41808,58.06164],[12.41913,58.06536],[12.42401,58.07206],[12.47751,58.07683],[12.47834,58.07772],[12.47953,58.07798]]]}},{"type":"Feature","id":"1489R005","properties":{"code":"1489R005","name":"Alingsås östra omland"},"geometry":{"type":"Polygon","coordinates":[[[12.6041,57.97458],[12.60479,57.97432],[12.60575,57.9733],[12.6068,57.97314],[12.61014,57.97372],[12.61265,57.9737],[12.61372,57.97417],[12.61386,57.9747],[12.61442,57.9747],[12.61979,57.96562],[12.61932,57.96541],[12.62228,57.96442],[12.62072,57.96305],[12.61979,57.96148],[12.62008,57.96154],[12.62117,57.96045],[12.62214,57.95998],[12.62711,57.96034],[12.6485,57.95002],[12.65275,57.94081],[12.65169,57.9311],[12.65617,57.92087],[12.65677,57.91573],[12.65876,57.91331],[12.66525,57.90886],[12.66348,57.90209],[12.65884,57.89692],[12.66177,57.89299],[12.66265,57.89148],[12.66253,57.891],[12.66414,57.89087],[12.66441,57.89035],[12.6633,57.88967],[12.66384,57.88886],[12.66177,57.88806],[12.66113,57.88552],[12.65928,57.88487],[12.65945,57.88437],[12.65314,57.8816],[12.6535,57.87996],[12.65462,57.879],[12.65481,57.87776],[12.65611,57.87719],[12.66066,57.87626],[12.66268,57.87508],[12.66171,57.87497],[12.65687,57.86829],[12.65625,57.86782],[12.65665,57.86664],[12.6574,57.86623],[12.65732,57.86586],[12.65625,57.86515],[12.65619,57.86485],[12.65392,57.86374],[12.65628,57.86282],[12.65651,57.86026],[12.66009,57.85674],[12.6601,57.8564],[12.65828,57.85176],[12.65804,57.85178],[12.65552,57.84957],[12.65224,57.8486],[12.64938,57.84805],[12.6468,57.84662],[12.64666,57.84574],[12.64445,57.84571],[12.64443,57.84508],[12.64412,57.8457],[12.64371,57.84557],[12.64347,57.84517],[12.64255,57.84534],[12.64201,57.84595],[12.64313,57.84618],[12.63858,57.84718],[12.63673,57.84858],[12.63312,57.84748],[12.63046,57.84598],[12.62331,57.84749],[12.62399,57.85013],[12.62095,57.8523],[12.61837,57.85133],[12.6096,57.85203],[12.58637,57.84403],[12.57641,57.84286],[12.56526,57.85677],[12.56458,57.85724],[12.56057,57.85917],[12.55888,57.86014],[12.55845,57.86078],[12.55688,57.8616],[12.52651,57.8768],[12.51795,57.87591],[12.50919,57.8733],[12.50958,57.87482],[12.50922,57.87626],[12.50821,57.87757],[12.50628,57.87898],[12.5042,57.87987],[12.50173,57.88046],[12.49909,57.8807],[12.49655,57.8806],[12.49793,57.88208],[12.49856,57.88428],[12.49836,57.88575],[12.49697,57.88851],[12.49842,57.88947],[12.49959,57.8908],[12.50014,57.89234],[12.50005,57.89351],[12.49932,57.89542],[12.49818,57.89669],[12.4952,57.89863],[12.49265,57.89966],[12.4993,57.90349],[12.50084,57.90498],[12.50153,57.90533],[12.5007,57.90535],[12.50033,57.90582],[12.50137,57.90736],[12.50251,57.90782],[12.50338,57.90889],[12.50287,57.90925],[12.50738,57.90843],[12.51093,57.90838],[12.51506,57.90793],[12.5192,57.90833],[12.52268,57.90942],[12.52581,57.90836],[12.52977,57.90793],[12.53287,57.90704],[12.53548,57.90676],[12.53901,57.90671],[12.54049,57.90502],[12.54271,57.9038],[12.54555,57.903],[12.54871,57.90271],[12.55317,57.90315],[12.55746,57.90447],[12.56014,57.90558],[12.56347,57.90585],[12.5681,57.90687],[12.57044,57.90764],[12.573,57.90913],[12.57584,57.91143],[12.57725,57.91391],[12.57697,57.91614],[12.57601,57.91746],[12.57484,57.9185],[12.57454,57.91991],[12.57525,57.92154],[12.5779,57.92179],[12.58168,57.9225],[12.58457,57.9234],[12.58601,57.92416],[12.58745,57.92535],[12.58832,57.92667],[12.58863,57.92773],[12.58878,57.92975],[12.58835,57.93111],[12.58735,57.93243],[12.58605,57.9334],[12.58654,57.93455],[12.58653,57.93602],[12.58584,57.93739],[12.58473,57.9385],[12.58486,57.93991],[12.58441,57.94119],[12.58463,57.94274],[12.58388,57.94496],[12.58303,57.9463],[12.58198,57.94722],[12.5801,57.94826],[12.57823,57.9489],[12.57948,57.94985],[12.57994,57.9506],[12.57938,57.95154],[12.57873,57.9518],[12.57852,57.95231],[12.58023,57.95272],[12.58068,57.95318],[12.58078,57.95363],[12.58012,57.95446],[12.58061,57.95492],[12.58229,57.95516],[12.58315,57.95561],[12.58371,57.95641],[12.58369,57.95723],[12.58304,57.95839],[12.58336,57.95883],[12.58417,57.95896],[12.58449,57.95956],[12.58399,57.96045],[12.58466,57.96066],[12.58636,57.96059],[12.58702,57.96089],[12.58696,57.9616],[12.58599,57.96236],[12.58526,57.96395],[12.58584,57.96461],[12.58822,57.96583],[12.58885,57.96655],[12.58921,57.96839],[12.59017,57.96853],[12.59117,57.96962],[12.59369,57.97013],[12.59486,57.97112],[12.5996,57.97203],[12.60062,57.97316],[12.60092,57.9731],[12.60274,57.97427],[12.6041,57.97458]]]}},{"type":"Feature","id":"1489R006","properties":{"code":"1489R006","name":"Bolltorp"},"geometry":{"type":"Polygon","coordinates":[[[12.52345,57.9541],[12.53123,57.95304],[12.53355,57.95228],[12.53579,57.95097],[12.53712,57.95044],[12.54041,57.95017],[12.54048,57.94429],[12.54242,57.94293],[12.542,57.94293],[12.54157,57.94025],[12.5418,57.9402],[12.54172,57.93924],[12.54058,57.93915],[12.54058,57.93936],[12.54002,57.9393],[12.54016,57.93838],[12.53811,57.93742],[12.53513,57.93811],[12.52933,57.93886],[12.52102,57.9417],[12.52316,57.94266],[12.52373,57.94337],[12.52573,57.94449],[12.52459,57.946],[12.52456,57.94696],[12.52459,57.94779],[12.52579,57.9496],[12.52371,57.94958],[12.52314,57.94979],[12.52365,57.9505],[12.52443,57.9507],[12.52397,57.95161],[12.52011,57.95222],[12.52044,57.95276],[12.52434,57.95344],[12.52345,57.9541]]]}},{"type":"Feature","id":"1489R007","properties":{"code":"1489R007","name":"Brogården-Östlyckan"},"geometry":{"type":"Polygon","coordinates":[[[12.55599,57.94055],[12.56105,57.93857],[12.56222,57.93891],[12.5685,57.93667],[12.56685,57.93581],[12.56058,57.93366],[12.55603,57.9318],[12.54942,57.92978],[12.54403,57.92846],[12.54244,57.92951],[12.54249,57.93001],[12.54421,57.93373],[12.54518,57.93485],[12.54712,57.93604],[12.55599,57.94055]]]}},{"type":"Feature","id":"1489R008","properties":{"code":"1489R008","name":"Brunnsparken-Landskyrkan"},"geometry":{"type":"Polygon","coordinates":[[[12.53206,57.93548],[12.53353,57.93538],[12.53405,57.93474],[12.5361,57.93463],[12.53717,57.93418],[12.53966,57.93427],[12.5412,57.93457],[12.54213,57.9345],[12.54282,57.9338],[12.54421,57.93373],[12.54244,57.92956],[12.53332,57.93038],[12.53303,57.92957],[12.52889,57.93013],[12.52941,57.93206],[12.53144,57.9323],[12.53181,57.9334],[12.52975,57.93336],[12.52842,57.93395],[12.53018,57.93517],[12.53206,57.93548]]]}},{"type":"Feature","id":"1489R009","properties":{"code":"1489R009","name":"Gråbo-Ängabo"},"geometry":{"type":"Polygon","coordinates":[[[12.56349,57.92313],[12.57015,57.92322],[12.57024,57.92252],[12.57408,57.92252],[12.57409,57.92208],[12.57655,57.92205],[12.57677,57.92164],[12.57525,57.92154],[12.57454,57.91991],[12.57484,57.9185],[12.5765,57.91689],[12.57731,57.91503],[12.57715,57.91357],[12.57584,57.91143],[12.57195,57.90843],[12.56868,57.90702],[12.56347,57.90585],[12.56014,57.90558],[12.55499,57.90363],[12.55252,57.90302],[12.54871,57.90271],[12.54551,57.903],[12.54691,57.90402],[12.5465,57.90593],[12.54679,57.90637],[12.54835,57.90562],[12.54763,57.90603],[12.54807,57.90752],[12.54692,57.90999],[12.54577,57.91358],[12.54593,57.91551],[12.54723,57.91689],[12.54727,57.91725],[12.54959,57.91702],[12.55434,57.91704],[12.55296,57.91822],[12.55153,57.92065],[12.55675,57.92131],[12.55704,57.92207],[12.55858,57.92228],[12.55843,57.92258],[12.56349,57.92313]]]}},{"type":"Feature","id":"1489R010","properties":{"code":"1489R010","name":"Hemsjö-Ödenäs"},"geometry":{"type":"Polygon","coordinates":[[[12.52651,57.8768],[12.55783,57.86111],[12.55845,57.86078],[12.55888,57.86014],[12.56057,57.85917],[12.56316,57.85805],[12.56526,57.85677],[12.57641,57.84286],[12.58637,57.84403],[12.6096,57.85203],[12.61837,57.85133],[12.62095,57.8523],[12.62399,57.85013],[12.62331,57.84749],[12.63046,57.84598],[12.63312,57.84748],[12.63673,57.84858],[12.63858,57.84718],[12.64313,57.84618],[12.64201,57.84595],[12.64255,57.84534],[12.64347,57.84517],[12.64371,57.84557],[12.64412,57.8457],[12.64415,57.84533],[12.64463,57.845],[12.64363,57.84288],[12.63938,57.84039],[12.62972,57.83643],[12.61984,57.83336],[12.61128,57.83149],[12.6101,57.83153],[12.60968,57.8317],[12.60831,57.83134],[12.60249,57.82782],[12.59772,57.8253],[12.59273,57.82176],[12.59998,57.80974],[12.59287,57.80465],[12.58621,57.79723],[12.57622,57.79146],[12.55802,57.7848],[12.54366,57.77857],[12.52052,57.76533],[12.52002,57.76414],[12.5184,57.76273],[12.51798,57.76253],[12.51731,57.76255],[12.51547,57.76188],[12.50775,57.76418],[12.50644,57.76474],[12.49877,57.76664],[12.49814,57.76648],[12.48449,57.77652],[12.48948,57.78935],[12.4844,57.79206],[12.48407,57.7938],[12.48072,57.79353],[12.47828,57.79295],[12.47789,57.79163],[12.47558,57.7901],[12.4751,57.78947],[12.47506,57.78879],[12.47453,57.78851],[12.47496,57.78701],[12.47474,57.78654],[12.47317,57.78601],[12.47267,57.78602],[12.45637,57.79917],[12.44987,57.80216],[12.4455,57.80442],[12.44419,57.8055],[12.44391,57.80739],[12.44316,57.80802],[12.44459,57.80983],[12.44573,57.81077],[12.44564,57.81153],[12.44642,57.81296],[12.44822,57.81392],[12.44689,57.81426],[12.44692,57.81488],[12.44642,57.81528],[12.44611,57.81522],[12.44566,57.81558],[12.44598,57.81563],[12.44468,57.81668],[12.42934,57.82848],[12.42559,57.82957],[12.43106,57.83899],[12.43696,57.84224],[12.44306,57.84521],[12.44433,57.84314],[12.44539,57.84228],[12.44698,57.84143],[12.44719,57.83953],[12.44883,57.83757],[12.45067,57.8365],[12.45394,57.83536],[12.45534,57.83421],[12.45681,57.83341],[12.45969,57.83246],[12.46316,57.83202],[12.46741,57.83214],[12.47008,57.8325],[12.47423,57.83346],[12.47785,57.83309],[12.48184,57.83348],[12.4839,57.83322],[12.48665,57.8332],[12.48932,57.83355],[12.49191,57.8343],[12.49445,57.83563],[12.49595,57.83712],[12.49785,57.8377],[12.49986,57.8387],[12.50152,57.83982],[12.50248,57.84082],[12.50306,57.8419],[12.50323,57.84338],[12.50271,57.84532],[12.50181,57.84672],[12.50316,57.84842],[12.50353,57.85008],[12.50567,57.85094],[12.50962,57.8516],[12.51257,57.85281],[12.51419,57.854],[12.51645,57.85625],[12.51715,57.85731],[12.51748,57.85876],[12.51726,57.85988],[12.51665,57.86096],[12.51561,57.86203],[12.51223,57.86401],[12.50723,57.8659],[12.50744,57.86799],[12.50615,57.87003],[12.50767,57.87127],[12.50919,57.8733],[12.51795,57.87591],[12.52651,57.8768]]]}},{"type":"Feature","id":"1489R011","properties":{"code":"1489R011","name":"Ingared"},"geometry":{"type":"Polygon","coordinates":[[[12.50919,57.8733],[12.50738,57.87097],[12.50615,57.87003],[12.50744,57.86799],[12.50723,57.8659],[12.51223,57.86401],[12.51561,57.86203],[12.51712,57.86021],[12.51739,57.85798],[12.51645,57.85625],[12.51387,57.8537],[12.51257,57.85281],[12.50962,57.8516],[12.50567,57.85094],[12.50353,57.85008],[12.50316,57.84842],[12.50181,57.84672],[12.50283,57.84496],[12.50323,57.84338],[12.50316,57.84223],[12.50248,57.84082],[12.50116,57.83953],[12.49836,57.83791],[12.49595,57.83712],[12.49492,57.83599],[12.49304,57.83479],[12.49121,57.83405],[12.48871,57.83344],[12.48519,57.83317],[12.48184,57.83348],[12.4779,57.83309],[12.47423,57.83346],[12.4693,57.83236],[12.46464,57.83201],[12.46108,57.83221],[12.45784,57.833],[12.45576,57.83395],[12.45394,57.83536],[12.45067,57.8365],[12.44883,57.83757],[12.44719,57.83953],[12.44698,57.84143],[12.44539,57.84228],[12.44433,57.84314],[12.44312,57.84519],[12.44183,57.84462],[12.4337,57.85254],[12.43354,57.8553],[12.43941,57.85971],[12.44205,57.86253],[12.44374,57.86372],[12.44712,57.86494],[12.44857,57.864],[12.45013,57.86371],[12.4507,57.8634],[12.45083,57.86386],[12.45114,57.86391],[12.45497,57.8618],[12.45451,57.86074],[12.45575,57.86009],[12.45565,57.85959],[12.4563,57.85894],[12.45838,57.85752],[12.45999,57.85818],[12.46473,57.85887],[12.46685,57.85647],[12.47008,57.85763],[12.47143,57.85742],[12.47256,57.85633],[12.48108,57.85882],[12.48173,57.85855],[12.48267,57.85889],[12.48502,57.85821],[12.49126,57.85768],[12.49153,57.85737],[12.4919,57.85747],[12.49208,57.86067],[12.49085,57.8614],[12.49163,57.86242],[12.49202,57.86436],[12.49341,57.86411],[12.49526,57.8641],[12.49527,57.86557],[12.49631,57.86652],[12.4968,57.86749],[12.49607,57.86788],[12.4954,57.86788],[12.49485,57.86859],[12.49701,57.86904],[12.49856,57.86997],[12.49891,57.87112],[12.50091,57.87191],[12.5029,57.87102],[12.50624,57.87199],[12.50919,57.8733]]]}},{"type":"Feature","id":"1489R012","properties":{"code":"1489R012","name":"Kullingsberg-Rothoffskär"},"geometry":{"type":"Polygon","coordinates":[[[12.50638,57.92703],[12.52949,57.92702],[12.52494,57.92306],[12.52654,57.92208],[12.52737,57.92187],[12.52649,57.92145],[12.52486,57.91975],[12.52514,57.91929],[12.52431,57.91871],[12.52545,57.91811],[12.52423,57.91712],[12.52392,57.91605],[12.53542,57.91225],[12.54596,57.91268],[12.54807,57.90752],[12.54763,57.90603],[12.54835,57.90562],[12.54679,57.90637],[12.5465,57.90593],[12.54691,57.90402],[12.54551,57.903],[12.54324,57.9036],[12.54129,57.90449],[12.53982,57.90561],[12.53901,57.90671],[12.53548,57.90676],[12.53287,57.90704],[12.52977,57.90793],[12.52581,57.90836],[12.52268,57.90942],[12.5192,57.90833],[12.51506,57.90793],[12.51093,57.90838],[12.50738,57.90843],[12.50287,57.90925],[12.50373,57.90969],[12.50363,57.90997],[12.50399,57.91022],[12.50476,57.91054],[12.50796,57.91055],[12.50931,57.91142],[12.50891,57.91168],[12.50921,57.91232],[12.50574,57.91378],[12.50701,57.91468],[12.50536,57.91549],[12.50716,57.91664],[12.50781,57.91768],[12.50879,57.91806],[12.51064,57.91997],[12.51054,57.92144],[12.51011,57.92196],[12.50819,57.92301],[12.50665,57.923],[12.50654,57.92318],[12.50716,57.9239],[12.50689,57.92463],[12.50757,57.92555],[12.50816,57.92564],[12.50638,57.92703]]]}},{"type":"Feature","id":"1489R013","properties":{"code":"1489R013","name":"Kvarnbacken-Enehagen"},"geometry":{"type":"Polygon","coordinates":[[[12.49525,57.95652],[12.50325,57.95622],[12.50575,57.95572],[12.50878,57.95473],[12.51146,57.95495],[12.51583,57.9549],[12.51782,57.95468],[12.52001,57.95418],[12.52344,57.9541],[12.52434,57.95344],[12.52044,57.95276],[12.52011,57.95222],[12.52397,57.95161],[12.52443,57.9507],[12.52365,57.9505],[12.52314,57.94979],[12.52371,57.94958],[12.52579,57.9496],[12.52459,57.94779],[12.52456,57.94696],[12.52459,57.946],[12.52573,57.94449],[12.52373,57.94337],[12.52316,57.94266],[12.52102,57.9417],[12.49687,57.95009],[12.49634,57.95003],[12.49276,57.95065],[12.48491,57.95084],[12.48352,57.95103],[12.48478,57.95275],[12.48839,57.95511],[12.49189,57.9562],[12.49525,57.95652]]]}},{"type":"Feature","id":"1489R014","properties":{"code":"1489R014","name":"Lövekulle-Stadsskogen"},"geometry":{"type":"Polygon","coordinates":[[[12.50034,57.92541],[12.50356,57.92663],[12.50553,57.92698],[12.50647,57.92704],[12.50816,57.92564],[12.50757,57.92555],[12.50689,57.92463],[12.50716,57.9239],[12.50654,57.92318],[12.50665,57.923],[12.50819,57.92301],[12.51011,57.92196],[12.51054,57.92144],[12.51064,57.91997],[12.50879,57.91806],[12.50781,57.91768],[12.50716,57.91664],[12.50536,57.91549],[12.50701,57.91468],[12.50574,57.91378],[12.50921,57.91232],[12.50891,57.91168],[12.50931,57.91142],[12.509,57.91114],[12.50796,57.91055],[12.50476,57.91054],[12.50399,57.91022],[12.50363,57.90997],[12.50373,57.90969],[12.50287,57.90925],[12.49917,57.91121],[12.49423,57.91001],[12.49304,57.90846],[12.49095,57.90704],[12.48707,57.90555],[12.48457,57.90494],[12.48177,57.90464],[12.4792,57.90466],[12.47672,57.90501],[12.47501,57.90549],[12.47249,57.90668],[12.47096,57.90784],[12.46822,57.912],[12.46806,57.91367],[12.46851,57.91554],[12.46754,57.91672],[12.46716,57.91773],[12.46706,57.91965],[12.46759,57.92094],[12.46722,57.92259],[12.46781,57.92426],[12.46917,57.92573],[12.47255,57.92774],[12.47527,57.92885],[12.47899,57.93077],[12.48113,57.9314],[12.48297,57.93171],[12.48638,57.93194],[12.48882,57.93192],[12.48864,57.93229],[12.50034,57.92541]]]}},{"type":"Feature","id":"1489R015","properties":{"code":"1489R015","name":"Nolby-Sävelund"},"geometry":{"type":"Polygon","coordinates":[[[12.54041,57.95017],[12.54359,57.94939],[12.54528,57.94871],[12.54778,57.94692],[12.54828,57.94692],[12.54999,57.9477],[12.55169,57.94818],[12.55367,57.94852],[12.55612,57.94864],[12.5597,57.94995],[12.56282,57.95047],[12.56607,57.95045],[12.56803,57.95017],[12.57036,57.94952],[12.57523,57.94943],[12.57823,57.9489],[12.57785,57.94758],[12.57601,57.94627],[12.57558,57.94569],[12.57592,57.94523],[12.57696,57.94499],[12.57533,57.94289],[12.57066,57.93802],[12.5685,57.93667],[12.56222,57.93891],[12.56105,57.93857],[12.55599,57.94055],[12.54587,57.93538],[12.54421,57.93373],[12.54282,57.9338],[12.54213,57.9345],[12.5412,57.93457],[12.53966,57.93427],[12.53678,57.93426],[12.5361,57.93463],[12.53673,57.93615],[12.53833,57.93757],[12.54016,57.93838],[12.54002,57.9393],[12.54058,57.93936],[12.54058,57.93915],[12.54172,57.93924],[12.5418,57.9402],[12.54157,57.94025],[12.542,57.94293],[12.54242,57.94293],[12.54048,57.94429],[12.54041,57.95017]]]}},{"type":"Feature","id":"1489R016","properties":{"code":"1489R016","name":"Nolhaga-Hagagården"},"geometry":{"type":"Polygon","coordinates":[[[12.52002,57.942],[12.52594,57.93998],[12.52279,57.93756],[12.52168,57.93496],[12.52575,57.93435],[12.52733,57.9335],[12.52756,57.93357],[12.52584,57.93298],[12.52516,57.93248],[12.52528,57.93206],[12.52642,57.93143],[12.52604,57.93082],[12.52414,57.93033],[12.52178,57.93055],[12.51854,57.93045],[12.5178,57.93066],[12.51626,57.93073],[12.51577,57.93056],[12.51528,57.93001],[12.51439,57.93001],[12.51139,57.93087],[12.51079,57.93086],[12.51058,57.93068],[12.511,57.92977],[12.51048,57.92903],[12.5099,57.92905],[12.50815,57.92998],[12.50772,57.92935],[12.50735,57.92914],[12.50681,57.92912],[12.50485,57.93066],[12.50454,57.93167],[12.5033,57.93235],[12.50098,57.93266],[12.50095,57.93268],[12.50259,57.93452],[12.50433,57.93463],[12.50571,57.9342],[12.50634,57.93419],[12.50693,57.93456],[12.50655,57.93597],[12.50525,57.93601],[12.50489,57.93641],[12.50784,57.93774],[12.50855,57.93837],[12.50647,57.94026],[12.50891,57.94131],[12.51808,57.94062],[12.52002,57.942]]]}},{"type":"Feature","id":"1489R017","properties":{"code":"1489R017","name":"Noltorp"},"geometry":{"type":"Polygon","coordinates":[[[12.52933,57.93886],[12.53513,57.93811],[12.53811,57.93742],[12.53673,57.93615],[12.5361,57.93463],[12.53435,57.93466],[12.53353,57.93538],[12.5319,57.9355],[12.53018,57.93517],[12.52847,57.93397],[12.52733,57.9335],[12.52575,57.93435],[12.52168,57.93496],[12.52279,57.93756],[12.52593,57.93998],[12.52933,57.93886]]]}},{"type":"Feature","id":"1489R018","properties":{"code":"1489R018","name":"Nygård-Stockslycke"},"geometry":{"type":"Polygon","coordinates":[[[12.5784,57.94886],[12.58063,57.94802],[12.58271,57.94663],[12.58373,57.94529],[12.58446,57.94342],[12.58465,57.94238],[12.58441,57.94119],[12.58489,57.93947],[12.58473,57.9385],[12.58607,57.93707],[12.5866,57.93568],[12.58654,57.93455],[12.58605,57.9334],[12.58793,57.93179],[12.58878,57.92975],[12.58846,57.927],[12.58716,57.92505],[12.58555,57.92388],[12.58349,57.92298],[12.58168,57.9225],[12.57677,57.92164],[12.57655,57.92205],[12.57409,57.92208],[12.57408,57.92252],[12.57024,57.92252],[12.57015,57.92322],[12.5633,57.92313],[12.56315,57.92299],[12.56069,57.92293],[12.55843,57.92258],[12.55858,57.92228],[12.55704,57.92207],[12.55675,57.92131],[12.55153,57.92065],[12.55296,57.91822],[12.55434,57.91704],[12.54959,57.91702],[12.54727,57.91725],[12.54345,57.92177],[12.54112,57.92367],[12.54053,57.92603],[12.54023,57.9264],[12.53895,57.92691],[12.53905,57.92738],[12.54689,57.92915],[12.55217,57.93057],[12.55603,57.9318],[12.56058,57.93366],[12.56685,57.93581],[12.56826,57.93652],[12.57066,57.93802],[12.57533,57.94289],[12.57696,57.94499],[12.57592,57.94523],[12.57558,57.94569],[12.57601,57.94627],[12.57785,57.94758],[12.57793,57.94849],[12.5784,57.94886]]]}},{"type":"Feature","id":"1489R019","properties":{"code":"1489R019","name":"Prästeryd-Gerdsken"},"geometry":{"type":"Polygon","coordinates":[[[12.53561,57.9228],[12.53702,57.92287],[12.53744,57.92256],[12.5372,57.92236],[12.54092,57.92191],[12.54325,57.92196],[12.54345,57.92177],[12.54727,57.91725],[12.54723,57.91689],[12.54593,57.91551],[12.54571,57.91422],[12.54596,57.91268],[12.53542,57.91225],[12.52392,57.91605],[12.52423,57.91712],[12.52545,57.91811],[12.52431,57.91871],[12.52514,57.91929],[12.52486,57.91975],[12.52649,57.92145],[12.52737,57.92187],[12.52938,57.92161],[12.53008,57.92181],[12.53191,57.92139],[12.53301,57.92187],[12.53354,57.9219],[12.53419,57.92271],[12.5355,57.923],[12.53561,57.9228]]]}},{"type":"Feature","id":"1489R020","properties":{"code":"1489R020","name":"Saxebäcken-Tegelbruket"},"geometry":{"type":"Polygon","coordinates":[[[12.48378,57.95109],[12.48491,57.95084],[12.49276,57.95065],[12.49634,57.95003],[12.49687,57.95009],[12.52011,57.94202],[12.51808,57.94062],[12.50891,57.94131],[12.50664,57.9404],[12.50657,57.94014],[12.50854,57.9382],[12.50489,57.93641],[12.50525,57.93601],[12.50655,57.93597],[12.50693,57.93456],[12.50634,57.93419],[12.50571,57.9342],[12.50433,57.93463],[12.50259,57.93452],[12.50102,57.93267],[12.49582,57.93344],[12.48842,57.93346],[12.48844,57.93367],[12.48587,57.93412],[12.48346,57.935],[12.47962,57.93491],[12.4762,57.93545],[12.47284,57.9368],[12.47158,57.9377],[12.47042,57.93896],[12.46952,57.94102],[12.46992,57.94282],[12.47134,57.94443],[12.4746,57.94649],[12.47625,57.94712],[12.47845,57.94763],[12.48077,57.94861],[12.48313,57.94917],[12.48323,57.95033],[12.48378,57.95109]]]}},{"type":"Feature","id":"1489R022","properties":{"code":"1489R022","name":"Sörhaga-Gustav Adolf"},"geometry":{"type":"Polygon","coordinates":[[[12.48842,57.93346],[12.49582,57.93344],[12.5033,57.93235],[12.50454,57.93167],[12.50485,57.93066],[12.50627,57.92936],[12.50681,57.92912],[12.50735,57.92914],[12.50815,57.92998],[12.5099,57.92905],[12.51048,57.92903],[12.511,57.92977],[12.51058,57.93068],[12.51079,57.93086],[12.51139,57.93087],[12.51439,57.93001],[12.51528,57.93001],[12.51577,57.93056],[12.51626,57.93073],[12.5178,57.93066],[12.51854,57.93045],[12.52178,57.93055],[12.52414,57.93033],[12.52604,57.93082],[12.52642,57.93143],[12.52528,57.93206],[12.52516,57.93248],[12.52584,57.93298],[12.52842,57.93395],[12.52975,57.93336],[12.53181,57.9334],[12.53144,57.9323],[12.52941,57.93206],[12.52889,57.93013],[12.53237,57.92967],[12.53133,57.92755],[12.52944,57.927],[12.50765,57.92711],[12.50553,57.92698],[12.50356,57.92663],[12.50034,57.92541],[12.48864,57.93229],[12.48842,57.93346]]]}},{"type":"Feature","id":"1489R021","properties":{"code":"1489R021","name":"Sollebrunn"},"geometry":{"type":"Polygon","coordinates":[[[12.54207,58.14067],[12.54543,58.14031],[12.54899,58.13936],[12.55118,58.1383],[12.55328,58.13666],[12.55444,58.13501],[12.55454,58.13313],[12.5558,58.13158],[12.55615,58.12961],[12.55791,58.12891],[12.55935,58.12807],[12.56118,58.12606],[12.56184,58.12404],[12.56108,58.12193],[12.55979,58.12069],[12.55813,58.11972],[12.55762,58.11805],[12.55612,58.11649],[12.55482,58.11571],[12.55281,58.11494],[12.55107,58.11338],[12.54852,58.11221],[12.54541,58.11151],[12.54221,58.11136],[12.53838,58.10983],[12.5365,58.10941],[12.53426,58.10918],[12.53349,58.10797],[12.53207,58.10679],[12.53015,58.10584],[12.52782,58.10517],[12.52528,58.10484],[12.5233,58.10481],[12.51517,58.10578],[12.51337,58.10629],[12.51116,58.1072],[12.50979,58.10806],[12.5085,58.10935],[12.5078,58.11096],[12.50786,58.11234],[12.50651,58.11406],[12.50622,58.11582],[12.50395,58.11761],[12.50278,58.12001],[12.50128,58.12187],[12.50103,58.12377],[12.50189,58.12558],[12.50328,58.12684],[12.50486,58.12773],[12.50848,58.1289],[12.51164,58.12932],[12.51464,58.13152],[12.51801,58.13271],[12.52065,58.13311],[12.52333,58.13314],[12.52979,58.13217],[12.52926,58.13445],[12.52938,58.13549],[12.53011,58.13682],[12.53144,58.13801],[12.53338,58.13902],[12.53607,58.13993],[12.53939,58.14055],[12.54207,58.14067]]]}},{"type":"Feature","id":"1489R023","properties":{"code":"1489R023","name":"Västra bodarna-Hästeryd"},"geometry":{"type":"Polygon","coordinates":[[[12.49917,57.91121],[12.50338,57.90889],[12.50251,57.90782],[12.50137,57.90736],[12.50033,57.90582],[12.5007,57.90535],[12.50153,57.90533],[12.50084,57.90498],[12.4993,57.90349],[12.49265,57.89966],[12.4952,57.89863],[12.49818,57.89669],[12.49932,57.89542],[12.50005,57.89351],[12.50014,57.89234],[12.49959,57.8908],[12.49842,57.88947],[12.49697,57.88851],[12.49836,57.88575],[12.49856,57.88428],[12.49793,57.88208],[12.49655,57.8806],[12.49909,57.8807],[12.50173,57.88046],[12.5042,57.87987],[12.50628,57.87898],[12.50821,57.87757],[12.50922,57.87626],[12.50958,57.87482],[12.50919,57.8733],[12.50624,57.87199],[12.5029,57.87102],[12.50091,57.87191],[12.49891,57.87112],[12.49856,57.86997],[12.49701,57.86904],[12.49485,57.86859],[12.4954,57.86788],[12.49607,57.86788],[12.4968,57.86749],[12.49631,57.86652],[12.49527,57.86557],[12.49526,57.8641],[12.49341,57.86411],[12.49202,57.86436],[12.49163,57.86242],[12.49085,57.8614],[12.49208,57.86067],[12.4919,57.85747],[12.49153,57.85737],[12.49126,57.85768],[12.49025,57.85781],[12.48502,57.85821],[12.48267,57.85889],[12.48173,57.85855],[12.48108,57.85882],[12.47256,57.85633],[12.47143,57.85742],[12.47008,57.85763],[12.46685,57.85647],[12.46473,57.85887],[12.45999,57.85818],[12.45838,57.85752],[12.4563,57.85894],[12.45565,57.85959],[12.45575,57.86009],[12.45451,57.86074],[12.45497,57.8618],[12.45114,57.86391],[12.45083,57.86386],[12.4507,57.8634],[12.45013,57.86371],[12.44857,57.864],[12.44712,57.86494],[12.44374,57.86372],[12.4456,57.8663],[12.4455,57.87005],[12.44479,57.87129],[12.4445,57.87127],[12.44312,57.87382],[12.44257,57.87392],[12.44187,57.87474],[12.44242,57.8749],[12.44197,57.87584],[12.44289,57.8807],[12.44576,57.8847],[12.44258,57.89035],[12.4698,57.90432],[12.47119,57.90762],[12.47398,57.9059],[12.47672,57.90501],[12.47984,57.90462],[12.48395,57.90485],[12.48707,57.90555],[12.49095,57.90704],[12.49304,57.90846],[12.49423,57.91001],[12.49917,57.91121]]]}}]}