{"type":"FeatureCollection","features":[{"type":"Feature","id":"1490R023","properties":{"code":"1490R023","name":"Lugnet"},"geometry":{"type":"Polygon","coordinates":[[[12.94241,57.72861],[12.94335,57.72737],[12.94378,57.72602],[12.94495,57.72602],[12.94676,57.72666],[12.94767,57.72615],[12.94829,57.7267],[12.94884,57.72657],[12.95027,57.72552],[12.9511,57.7259],[12.9541,57.72613],[12.95264,57.72476],[12.95119,57.72407],[12.94131,57.72214],[12.93956,57.72482],[12.93885,57.72475],[12.93843,57.725],[12.94051,57.72852],[12.94124,57.72827],[12.94157,57.72863],[12.94241,57.72861]]]}},{"type":"Feature","id":"1490R024","properties":{"code":"1490R024","name":"Målsryd-Aplared-Dannike"},"geometry":{"type":"Polygon","coordinates":[[[13.15028,57.74146],[13.15055,57.73922],[13.15087,57.73872],[13.15808,57.73896],[13.15898,57.73829],[13.16204,57.73731],[13.1652,57.73191],[13.16618,57.73223],[13.20187,57.71335],[13.20191,57.71307],[13.20246,57.71297],[13.20256,57.71177],[13.20294,57.71209],[13.20364,57.71222],[13.20525,57.71202],[13.20643,57.71216],[13.20683,57.71228],[13.20691,57.71278],[13.21297,57.71142],[13.23134,57.70995],[13.23933,57.70743],[13.25377,57.70531],[13.25949,57.69871],[13.27695,57.69379],[13.30901,57.66769],[13.29177,57.66757],[13.2902,57.67355],[13.28034,57.67118],[13.27551,57.67137],[13.27162,57.67034],[13.26983,57.67038],[13.26886,57.67002],[13.26723,57.66896],[13.26452,57.66818],[13.26096,57.66774],[13.25886,57.66602],[13.25665,57.66558],[13.25539,57.66573],[13.25351,57.66482],[13.25021,57.664],[13.24869,57.6629],[13.24602,57.6621],[13.2454,57.66128],[13.24169,57.65951],[13.2383,57.65917],[13.23706,57.65822],[13.2362,57.65716],[13.23224,57.6542],[13.23098,57.65347],[13.22706,57.65201],[13.22725,57.65114],[13.227,57.65054],[13.22748,57.64962],[13.2261,57.64888],[13.22553,57.64786],[13.22383,57.64744],[13.22188,57.64757],[13.21967,57.6467],[13.22133,57.64581],[13.22112,57.64553],[13.22019,57.64556],[13.21876,57.64613],[13.21663,57.64538],[13.21201,57.65336],[13.20593,57.65459],[13.20343,57.6554],[13.20112,57.65643],[13.2,57.65655],[13.20462,57.6602],[13.20562,57.66142],[13.20566,57.66201],[13.20409,57.6626],[13.20668,57.66396],[13.20703,57.66457],[13.20899,57.666],[13.20782,57.66785],[13.206,57.66848],[13.20311,57.66797],[13.19835,57.67223],[13.1947,57.67032],[13.19256,57.66954],[13.19183,57.66956],[13.19213,57.67019],[13.19322,57.67069],[13.19317,57.671],[13.19193,57.67166],[13.1922,57.6727],[13.1929,57.67354],[13.19138,57.67346],[13.19322,57.67536],[13.19298,57.67609],[13.18862,57.67606],[13.18633,57.67353],[13.16168,57.67367],[13.16054,57.67441],[13.1516,57.67034],[13.14973,57.66989],[13.14763,57.66993],[13.1386,57.66914],[13.13775,57.67001],[13.13529,57.67091],[13.1326,57.67007],[13.13157,57.66955],[13.13068,57.6685],[13.12066,57.66673],[13.11438,57.66684],[13.11436,57.66568],[13.11072,57.66271],[13.10794,57.65772],[13.10842,57.65751],[13.11558,57.65711],[13.11807,57.65653],[13.11746,57.65586],[13.11777,57.65524],[13.11651,57.65079],[13.11476,57.6507],[13.11459,57.64803],[13.11491,57.64751],[13.11465,57.64728],[13.11367,57.64721],[13.1131,57.64692],[13.1112,57.6443],[13.11031,57.64225],[13.09403,57.62903],[13.09173,57.62692],[13.08725,57.62355],[13.09043,57.61857],[13.08131,57.61852],[13.07588,57.61708],[13.07507,57.61654],[13.07476,57.61592],[13.07543,57.61518],[13.07522,57.61431],[13.07658,57.61275],[13.06642,57.60905],[13.06018,57.60784],[13.05597,57.60605],[13.05245,57.60673],[13.05182,57.60611],[13.05048,57.60558],[13.0477,57.60534],[13.04521,57.60546],[13.04391,57.60509],[13.04323,57.60524],[13.04229,57.60517],[13.04116,57.60435],[13.03895,57.60401],[13.03857,57.60369],[13.03798,57.60373],[13.03788,57.60338],[13.0373,57.60321],[13.03594,57.60366],[13.03345,57.6035],[13.03305,57.60335],[13.03262,57.60344],[13.03136,57.60255],[13.03089,57.60165],[13.02963,57.60157],[13.02923,57.60108],[13.02884,57.60112],[13.02943,57.60056],[13.02829,57.60023],[13.02811,57.59956],[13.0258,57.59858],[13.02457,57.59852],[13.02437,57.5983],[13.02397,57.59839],[13.02349,57.59775],[13.02269,57.59787],[13.02202,57.59741],[13.02335,57.5965],[13.02511,57.59591],[13.02377,57.59521],[13.0178,57.59726],[13.01694,57.59655],[13.02258,57.59459],[13.01589,57.59124],[13.01707,57.59079],[13.01744,57.59024],[13.01728,57.58942],[13.01542,57.58867],[13.01357,57.59006],[13.00679,57.58657],[13.004,57.58416],[13.00186,57.58287],[12.9993,57.57939],[12.99897,57.57932],[12.998,57.57832],[12.99801,57.57724],[12.99738,57.57702],[12.9966,57.57715],[12.99566,57.57615],[12.99563,57.57578],[12.99469,57.57564],[12.99386,57.57501],[12.99284,57.57491],[12.99204,57.57458],[12.99187,57.57406],[12.99081,57.57357],[12.99113,57.57296],[12.99184,57.57258],[12.99133,57.57223],[12.99157,57.57189],[12.9883,57.57232],[12.98632,57.57234],[12.95743,57.5674],[12.9574,57.56991],[12.95923,57.57127],[12.95891,57.57492],[12.96313,57.57887],[12.96352,57.58172],[12.97431,57.58843],[12.98099,57.59908],[12.99582,57.62155],[12.99919,57.62318],[13.00092,57.62511],[13.00141,57.6266],[13.00194,57.62716],[13.00206,57.62774],[13.00244,57.62789],[13.00228,57.62824],[13.00031,57.62834],[13.00528,57.63633],[13.00456,57.63738],[13.00465,57.63785],[13.00646,57.63981],[13.00651,57.64284],[13.00597,57.64642],[13.00364,57.65585],[13.00103,57.65607],[13.00136,57.65641],[13.00115,57.65656],[13.00133,57.65732],[13.00254,57.65784],[13.00295,57.65848],[13.00413,57.65864],[13.00411,57.65901],[13.00143,57.6593],[12.99974,57.65968],[12.99785,57.66103],[12.99594,57.66116],[12.99526,57.66188],[12.99258,57.66194],[12.98981,57.66268],[12.98784,57.66286],[12.9867,57.66317],[12.9817,57.66339],[12.98053,57.66316],[12.97696,57.66414],[12.9777,57.66476],[12.97958,57.66571],[12.98004,57.66627],[12.98097,57.66662],[12.98092,57.66732],[12.98139,57.66786],[12.98284,57.6683],[12.98323,57.66823],[12.98787,57.67029],[12.98819,57.67085],[12.98894,57.67085],[12.9882,57.67141],[12.98821,57.6718],[12.98899,57.67229],[12.99041,57.67273],[12.99085,57.67255],[12.993,57.67405],[12.99629,57.67552],[12.99748,57.67717],[13.00136,57.6793],[13.00317,57.68292],[13.006,57.68717],[13.00647,57.68737],[13.00758,57.68981],[13.00929,57.69103],[13.00905,57.69231],[13.00976,57.69357],[13.01378,57.69295],[13.01428,57.69169],[13.01749,57.69366],[13.0168,57.69445],[13.01097,57.69565],[13.01168,57.69689],[13.01461,57.69687],[13.01397,57.69784],[13.02212,57.69756],[13.02524,57.69682],[13.02633,57.69595],[13.02656,57.69418],[13.02559,57.69311],[13.02399,57.69226],[13.02782,57.69171],[13.02878,57.69136],[13.03171,57.69127],[13.0319,57.68855],[13.03575,57.68894],[13.03606,57.6927],[13.03736,57.69311],[13.03911,57.69265],[13.04646,57.69213],[13.04767,57.69163],[13.04896,57.69243],[13.0515,57.69177],[13.05281,57.69108],[13.05502,57.69191],[13.05797,57.69091],[13.0588,57.69134],[13.05994,57.69129],[13.06235,57.69202],[13.06193,57.69259],[13.06348,57.69352],[13.06585,57.69418],[13.06672,57.69539],[13.06518,57.69701],[13.06229,57.69845],[13.06208,57.69904],[13.06461,57.70033],[13.06817,57.7011],[13.07198,57.70087],[13.07289,57.70183],[13.0738,57.70343],[13.07713,57.70538],[13.08082,57.7062],[13.08297,57.70593],[13.08804,57.70591],[13.09096,57.70567],[13.09114,57.70598],[13.09466,57.70598],[13.09753,57.70626],[13.10324,57.70619],[13.10642,57.70669],[13.10922,57.70767],[13.11122,57.70797],[13.11366,57.70741],[13.11712,57.70717],[13.11688,57.70577],[13.11721,57.70451],[13.11628,57.70315],[13.11601,57.70204],[13.11634,57.70011],[13.11766,57.69815],[13.12029,57.69656],[13.12466,57.69533],[13.12897,57.69494],[13.13228,57.69518],[13.13659,57.69591],[13.13834,57.69637],[13.14079,57.6975],[13.14248,57.69898],[13.14323,57.70056],[13.14366,57.70281],[13.1435,57.70427],[13.14248,57.70676],[13.1425,57.70885],[13.14196,57.70985],[13.14017,57.71193],[13.14296,57.71281],[13.14631,57.7146],[13.1478,57.71606],[13.14855,57.7178],[13.14849,57.71985],[13.14782,57.72127],[13.14609,57.72297],[13.14356,57.72428],[13.14354,57.72556],[13.14313,57.72656],[13.1436,57.72866],[13.14289,57.73041],[13.14116,57.73197],[13.13865,57.73314],[13.13484,57.73399],[13.13151,57.73415],[13.12821,57.73373],[13.12536,57.73279],[13.12319,57.73151],[13.12158,57.72969],[13.11879,57.73055],[13.11481,57.73099],[13.1132,57.73233],[13.11284,57.73375],[13.11165,57.73527],[13.11269,57.73652],[13.1127,57.73721],[13.11669,57.73858],[13.1151,57.74062],[13.11529,57.74227],[13.11678,57.74338],[13.11752,57.74347],[13.12028,57.73836],[13.12235,57.73799],[13.12492,57.741],[13.12768,57.742],[13.13175,57.74067],[13.13322,57.74068],[13.14034,57.74271],[13.14099,57.74335],[13.14421,57.74518],[13.15028,57.74146]]]}},{"type":"Feature","id":"1490R025","properties":{"code":"1490R025","name":"Norrby"},"geometry":{"type":"Polygon","coordinates":[[[12.93744,57.72383],[12.93765,57.7232],[12.93647,57.72338],[12.93544,57.72334],[12.93063,57.72085],[12.92919,57.72062],[12.92855,57.72093],[12.92949,57.72123],[12.9285,57.72209],[12.92565,57.72419],[12.92277,57.72579],[12.92624,57.72675],[12.92816,57.72787],[12.92993,57.72798],[12.9318,57.72755],[12.93168,57.72731],[12.93327,57.72695],[12.93446,57.72639],[12.9356,57.72529],[12.93509,57.72472],[12.9352,57.72442],[12.93556,57.72425],[12.93692,57.72419],[12.93744,57.72383]]]}},{"type":"Feature","id":"1490R006","properties":{"code":"1490R006","name":"Byttorp-Parkstaden"},"geometry":{"type":"Polygon","coordinates":[[[12.91156,57.72657],[12.91232,57.72524],[12.91489,57.72592],[12.91606,57.72574],[12.91763,57.72633],[12.91961,57.726],[12.91911,57.72488],[12.91946,57.72425],[12.91865,57.72339],[12.919,57.72332],[12.92142,57.72476],[12.92311,57.72549],[12.92565,57.72419],[12.9285,57.72209],[12.92949,57.72123],[12.92855,57.72093],[12.92869,57.72077],[12.92919,57.72062],[12.9303,57.72075],[12.93197,57.71968],[12.92878,57.71879],[12.92823,57.71812],[12.92671,57.71813],[12.92403,57.71779],[12.92231,57.71723],[12.91286,57.71544],[12.90925,57.71518],[12.90601,57.71536],[12.90779,57.7162],[12.91009,57.71816],[12.90777,57.71883],[12.90706,57.71963],[12.90715,57.72051],[12.90652,57.72106],[12.90705,57.72125],[12.90802,57.72264],[12.90563,57.72353],[12.90646,57.72456],[12.90771,57.72498],[12.90963,57.72607],[12.91156,57.72657]]]}},{"type":"Feature","id":"1490R007","properties":{"code":"1490R007","name":"Dalsjöfors"},"geometry":{"type":"Polygon","coordinates":[[[13.0962,57.73969],[13.10208,57.73963],[13.10474,57.73928],[13.10692,57.7387],[13.10903,57.73776],[13.11093,57.73628],[13.11267,57.73408],[13.1132,57.73233],[13.11481,57.73099],[13.11879,57.73055],[13.12158,57.72969],[13.12323,57.73154],[13.12586,57.73301],[13.12886,57.73386],[13.13215,57.73416],[13.13546,57.7339],[13.13865,57.73314],[13.14116,57.73197],[13.14262,57.73075],[13.1436,57.72869],[13.14313,57.72656],[13.14354,57.72556],[13.14356,57.72428],[13.14609,57.72297],[13.14782,57.72127],[13.14849,57.71985],[13.14854,57.71778],[13.1478,57.71606],[13.14631,57.7146],[13.14296,57.71281],[13.14017,57.71193],[13.14196,57.70985],[13.1426,57.70851],[13.14248,57.70676],[13.14367,57.7035],[13.14334,57.70094],[13.1427,57.69931],[13.14157,57.69806],[13.13942,57.69678],[13.13719,57.69604],[13.13166,57.69509],[13.12828,57.69496],[13.12402,57.69546],[13.12135,57.69618],[13.1193,57.69702],[13.11705,57.69879],[13.11605,57.70119],[13.11616,57.70282],[13.11721,57.70451],[13.11688,57.70577],[13.11712,57.70717],[13.11366,57.70741],[13.11122,57.70797],[13.10922,57.70767],[13.10642,57.70669],[13.10324,57.70619],[13.09753,57.70626],[13.09233,57.70593],[13.08881,57.70627],[13.08537,57.70725],[13.0828,57.70755],[13.08097,57.708],[13.07838,57.70912],[13.07651,57.71061],[13.07561,57.71194],[13.0752,57.71376],[13.07173,57.71502],[13.07031,57.71591],[13.06937,57.71683],[13.0686,57.71827],[13.06847,57.71939],[13.06874,57.7205],[13.06967,57.72188],[13.07091,57.72292],[13.07237,57.72374],[13.07408,57.72439],[13.07605,57.72487],[13.07691,57.72669],[13.07884,57.72829],[13.08093,57.72925],[13.08306,57.72984],[13.08399,57.73077],[13.08463,57.73266],[13.08661,57.73443],[13.08722,57.73595],[13.08847,57.73723],[13.09028,57.7383],[13.09312,57.73924],[13.0962,57.73969]]]}},{"type":"Feature","id":"1490R001","properties":{"code":"1490R001","name":"Bergdalen-Norrmalm väst"},"geometry":{"type":"Polygon","coordinates":[[[12.96083,57.73995],[12.96625,57.73898],[12.96567,57.73708],[12.96821,57.73481],[12.96846,57.73341],[12.96815,57.73286],[12.96601,57.73165],[12.96537,57.72867],[12.9631,57.72742],[12.9621,57.72753],[12.96043,57.72692],[12.95881,57.72767],[12.95786,57.7277],[12.95581,57.72621],[12.95436,57.72625],[12.9511,57.7259],[12.95027,57.72552],[12.94884,57.72657],[12.94829,57.7267],[12.94767,57.72615],[12.94676,57.72666],[12.94495,57.72602],[12.94366,57.72605],[12.94335,57.72737],[12.94241,57.72861],[12.94157,57.72863],[12.94124,57.72827],[12.94051,57.72852],[12.94127,57.72996],[12.94253,57.72981],[12.94355,57.73002],[12.94473,57.7311],[12.94613,57.73176],[12.94791,57.73237],[12.94898,57.7322],[12.94969,57.73344],[12.95094,57.73321],[12.95116,57.73342],[12.95427,57.73297],[12.95491,57.73328],[12.95547,57.7341],[12.95764,57.73471],[12.95905,57.73608],[12.96083,57.73647],[12.95897,57.73838],[12.95637,57.73904],[12.95657,57.73928],[12.95586,57.74035],[12.95686,57.74149],[12.96083,57.73995]]]}},{"type":"Feature","id":"1490R002","properties":{"code":"1490R002","name":"Borgstena Tämta"},"geometry":{"type":"Polygon","coordinates":[[[12.90651,57.94172],[12.90985,57.94012],[12.9111,57.94],[12.91175,57.94047],[12.92484,57.93757],[12.92592,57.93707],[12.92632,57.93731],[12.9277,57.93696],[12.92738,57.93547],[12.92637,57.93399],[12.9258,57.93153],[12.92509,57.93014],[12.93022,57.92931],[12.93149,57.92859],[12.92953,57.92749],[12.92887,57.92762],[12.92947,57.9289],[12.92727,57.92847],[12.92628,57.92767],[12.93849,57.92573],[12.94008,57.92586],[12.94125,57.92503],[12.94768,57.92187],[12.96027,57.91327],[12.96341,57.91399],[12.99526,57.89934],[12.99583,57.89959],[12.99735,57.8993],[13.00257,57.89957],[13.00304,57.89716],[13.00626,57.8956],[13.00803,57.89574],[13.01105,57.89729],[13.01169,57.89603],[13.01323,57.89413],[13.01436,57.89481],[13.01649,57.89563],[13.01787,57.89571],[13.02243,57.89505],[13.02241,57.89548],[13.02274,57.89573],[13.02462,57.89644],[13.02479,57.89714],[13.02572,57.89804],[13.02661,57.89852],[13.02691,57.89905],[13.03129,57.89821],[13.07671,57.90541],[13.08505,57.90464],[13.08849,57.90259],[13.09129,57.90314],[13.09436,57.90504],[13.10099,57.90809],[13.10203,57.9077],[13.10473,57.90775],[13.106,57.90799],[13.10615,57.90746],[13.10686,57.90717],[13.10811,57.90534],[13.1084,57.90535],[13.11372,57.90134],[13.11651,57.89856],[13.11661,57.89344],[13.11608,57.89282],[13.11659,57.89281],[13.1166,57.88949],[13.11554,57.88262],[13.11315,57.88351],[13.11314,57.88384],[13.11262,57.88387],[13.11192,57.88359],[13.11047,57.88375],[13.10922,57.88342],[13.10672,57.88224],[13.10518,57.88046],[13.10529,57.87977],[13.10367,57.87848],[13.09983,57.87718],[13.09617,57.87775],[13.08858,57.87839],[13.0901,57.87668],[13.08952,57.8754],[13.08811,57.87488],[13.08882,57.87399],[13.08885,57.87277],[13.061,57.86153],[13.02998,57.85489],[13.02028,57.85108],[13.0183,57.84994],[13.01786,57.84982],[13.01737,57.84997],[13.01635,57.84956],[13.00922,57.84995],[13.00994,57.85039],[13.00894,57.85054],[13.00848,57.85599],[13.00682,57.85532],[13.00386,57.85524],[12.99059,57.85891],[12.9846,57.85751],[12.97438,57.86001],[12.97221,57.85697],[12.97007,57.85474],[12.96811,57.85482],[12.96657,57.85441],[12.96551,57.85444],[12.9498,57.84427],[12.94257,57.84004],[12.93354,57.83436],[12.93198,57.83496],[12.93052,57.83494],[12.92829,57.83462],[12.92285,57.83143],[12.91808,57.82511],[12.92284,57.82536],[12.92353,57.82457],[12.92257,57.82397],[12.92265,57.82314],[12.92197,57.82275],[12.92161,57.82221],[12.92214,57.82176],[12.92166,57.82024],[12.92189,57.8194],[12.92103,57.8185],[12.90945,57.82269],[12.90996,57.82348],[12.9095,57.82411],[12.90893,57.82415],[12.90825,57.82312],[12.9034,57.82484],[12.89521,57.82551],[12.88886,57.83167],[12.88476,57.83397],[12.88484,57.83524],[12.88419,57.83615],[12.88372,57.83616],[12.88321,57.83657],[12.8833,57.83696],[12.88161,57.83702],[12.87994,57.83819],[12.88037,57.83892],[12.87962,57.83928],[12.87655,57.83741],[12.86913,57.84057],[12.87045,57.84803],[12.87079,57.84854],[12.87078,57.84891],[12.87015,57.8494],[12.87014,57.85044],[12.87309,57.85146],[12.87604,57.85429],[12.87342,57.85495],[12.87161,57.86023],[12.86324,57.86095],[12.86163,57.86048],[12.85783,57.86081],[12.85731,57.86062],[12.85759,57.86003],[12.85737,57.85975],[12.85674,57.85967],[12.85598,57.86],[12.85366,57.85992],[12.85275,57.85927],[12.85319,57.85865],[12.83078,57.86409],[12.82993,57.86486],[12.83033,57.86556],[12.82502,57.86534],[12.8253,57.86569],[12.8247,57.86659],[12.8246,57.86753],[12.82526,57.86783],[12.82547,57.86834],[12.82475,57.86885],[12.82505,57.86936],[12.82469,57.86969],[12.82499,57.87],[12.82491,57.87064],[12.82425,57.87088],[12.82374,57.87167],[12.82545,57.8754],[12.82959,57.87883],[12.83686,57.88328],[12.84882,57.88878],[12.8477,57.88131],[12.85183,57.88116],[12.85206,57.88282],[12.8526,57.88279],[12.85307,57.88731],[12.85097,57.88749],[12.85111,57.88915],[12.85178,57.88929],[12.85272,57.88996],[12.8551,57.89106],[12.85445,57.89291],[12.85714,57.89334],[12.8586,57.89319],[12.85885,57.89269],[12.86208,57.89278],[12.86519,57.89261],[12.86657,57.89323],[12.86691,57.89351],[12.86676,57.89386],[12.87577,57.89572],[12.86829,57.89749],[12.86396,57.89792],[12.86104,57.90062],[12.86707,57.91399],[12.87608,57.92258],[12.87643,57.92323],[12.8771,57.92347],[12.87763,57.92333],[12.87864,57.9243],[12.87925,57.92437],[12.88057,57.92501],[12.88149,57.92622],[12.88491,57.92626],[12.8869,57.92575],[12.88768,57.92633],[12.88942,57.92633],[12.8916,57.92608],[12.89217,57.92642],[12.89516,57.92648],[12.89904,57.92554],[12.89977,57.92648],[12.90189,57.92826],[12.90349,57.9287],[12.9042,57.92924],[12.90528,57.92963],[12.90576,57.93047],[12.90662,57.93098],[12.91128,57.93202],[12.91155,57.93224],[12.91122,57.93351],[12.9133,57.93387],[12.91108,57.93624],[12.91007,57.93653],[12.91005,57.9363],[12.90652,57.93814],[12.89639,57.93883],[12.90651,57.94172]]]}},{"type":"Feature","id":"1490R003","properties":{"code":"1490R003","name":"Borås centrum sydöst"},"geometry":{"type":"Polygon","coordinates":[[[12.94346,57.72255],[12.94509,57.72004],[12.95011,57.72095],[12.95324,57.72233],[12.95563,57.72265],[12.95562,57.72174],[12.95718,57.71947],[12.95696,57.71882],[12.9562,57.71821],[12.95682,57.71693],[12.96004,57.71706],[12.96204,57.71735],[12.96718,57.71924],[12.96925,57.71746],[12.96829,57.71669],[12.96549,57.71557],[12.96519,57.71484],[12.96687,57.71398],[12.96752,57.71329],[12.96862,57.71299],[12.9709,57.71315],[12.96813,57.71139],[12.96393,57.70978],[12.96144,57.70823],[12.96043,57.70788],[12.95787,57.70849],[12.95672,57.70765],[12.95574,57.70802],[12.95477,57.70744],[12.95281,57.70835],[12.95199,57.70774],[12.95243,57.70757],[12.95354,57.70767],[12.95529,57.70683],[12.95516,57.70644],[12.95148,57.7066],[12.95029,57.70691],[12.94961,57.70713],[12.94942,57.70809],[12.94747,57.71006],[12.94711,57.71077],[12.94698,57.71139],[12.94751,57.71201],[12.94796,57.71209],[12.9482,57.713],[12.94628,57.71442],[12.94507,57.71496],[12.94351,57.71741],[12.9443,57.71761],[12.94131,57.72214],[12.94346,57.72255]]]}},{"type":"Feature","id":"1490R004","properties":{"code":"1490R004","name":"Bredared"},"geometry":{"type":"Polygon","coordinates":[[[12.82374,57.87167],[12.82425,57.87088],[12.82491,57.87064],[12.82499,57.87],[12.82469,57.86969],[12.82505,57.86936],[12.82475,57.86885],[12.82547,57.86834],[12.82526,57.86783],[12.8246,57.86753],[12.8247,57.86659],[12.8253,57.86569],[12.82502,57.86534],[12.83033,57.86556],[12.82993,57.86486],[12.83078,57.86409],[12.85319,57.85865],[12.85275,57.85927],[12.85366,57.85992],[12.85598,57.86],[12.85674,57.85967],[12.85737,57.85975],[12.85759,57.86003],[12.85731,57.86062],[12.85783,57.86081],[12.86163,57.86048],[12.86324,57.86095],[12.87161,57.86023],[12.87342,57.85495],[12.87604,57.85429],[12.87309,57.85146],[12.87014,57.85044],[12.87015,57.8494],[12.87078,57.84891],[12.87079,57.84854],[12.87045,57.84803],[12.86913,57.84057],[12.87655,57.83741],[12.87962,57.83928],[12.88037,57.83892],[12.87994,57.83819],[12.88161,57.83702],[12.8833,57.83696],[12.88321,57.83657],[12.88372,57.83616],[12.88419,57.83615],[12.88484,57.83524],[12.88476,57.83397],[12.88886,57.83167],[12.89521,57.82551],[12.9034,57.82484],[12.90825,57.82312],[12.90893,57.82415],[12.9095,57.82411],[12.90996,57.82348],[12.90945,57.82269],[12.92103,57.8185],[12.92189,57.8194],[12.92166,57.82024],[12.92214,57.82176],[12.92161,57.82221],[12.92197,57.82275],[12.92265,57.82314],[12.92257,57.82397],[12.92353,57.82457],[12.92284,57.82536],[12.9273,57.82561],[12.94081,57.83211],[12.94955,57.82999],[12.95477,57.82996],[12.95267,57.82416],[12.94462,57.82111],[12.94045,57.81833],[12.94178,57.81258],[12.94118,57.81158],[12.94216,57.8114],[12.94439,57.80218],[12.95312,57.7947],[12.95683,57.78861],[12.9626,57.78733],[12.96431,57.78799],[12.97402,57.78531],[12.96968,57.77887],[12.96913,57.77645],[12.96802,57.77406],[12.96354,57.77235],[12.95479,57.76677],[12.94327,57.76666],[12.94141,57.76643],[12.93974,57.76557],[12.93674,57.76477],[12.93434,57.76358],[12.93181,57.76283],[12.92897,57.76114],[12.92789,57.75983],[12.92752,57.75875],[12.92452,57.7567],[12.92317,57.7549],[12.92292,57.75353],[12.92332,57.7522],[12.92162,57.7504],[12.92115,57.74843],[12.9214,57.74737],[12.9224,57.74555],[12.92357,57.74416],[12.92162,57.74192],[12.92095,57.74047],[12.91938,57.73882],[12.91824,57.7401],[12.91533,57.74217],[12.91255,57.74316],[12.90899,57.74365],[12.90718,57.74571],[12.90352,57.74864],[12.90371,57.74909],[12.903,57.7509],[12.90663,57.7526],[12.90592,57.75284],[12.90522,57.75364],[12.90631,57.7548],[12.90786,57.75763],[12.90876,57.75838],[12.90537,57.76293],[12.88957,57.7688],[12.88974,57.769],[12.88878,57.76973],[12.88753,57.77023],[12.88655,57.76984],[12.88338,57.77093],[12.88223,57.77152],[12.88193,57.77225],[12.88119,57.77263],[12.88002,57.77494],[12.8776,57.77628],[12.87671,57.77619],[12.87543,57.77499],[12.86017,57.78246],[12.85902,57.78228],[12.85683,57.78308],[12.85616,57.78365],[12.85639,57.78399],[12.85606,57.78432],[12.85286,57.78445],[12.85214,57.78363],[12.85157,57.7836],[12.85145,57.7842],[12.85185,57.78509],[12.85292,57.78602],[12.81446,57.80684],[12.81496,57.80677],[12.8156,57.80703],[12.81486,57.80719],[12.8143,57.80967],[12.81003,57.81038],[12.80774,57.81041],[12.79837,57.81535],[12.79728,57.81508],[12.79562,57.81538],[12.79419,57.81669],[12.79261,57.81766],[12.79247,57.81827],[12.79197,57.8187],[12.77993,57.82735],[12.76266,57.8338],[12.76225,57.83463],[12.75809,57.8334],[12.75605,57.832],[12.74371,57.83483],[12.76383,57.84442],[12.76158,57.8585],[12.7613,57.85867],[12.76202,57.8597],[12.75652,57.86536],[12.76201,57.86667],[12.76553,57.86638],[12.76673,57.86604],[12.7696,57.86461],[12.77085,57.86482],[12.77155,57.86527],[12.77207,57.867],[12.77098,57.86968],[12.77425,57.86969],[12.77696,57.86891],[12.7791,57.86867],[12.80845,57.87019],[12.82374,57.87167]]]}},{"type":"Feature","id":"1490R005","properties":{"code":"1490R005","name":"Brämhult"},"geometry":{"type":"Polygon","coordinates":[[[13.03193,57.75138],[13.03392,57.75108],[13.03626,57.75041],[13.03779,57.7497],[13.03912,57.74877],[13.04182,57.74759],[13.0437,57.74611],[13.04463,57.7444],[13.04437,57.74226],[13.04367,57.74124],[13.04217,57.73984],[13.04302,57.73791],[13.04252,57.73573],[13.0405,57.73365],[13.03919,57.73288],[13.0373,57.73215],[13.03595,57.73127],[13.02861,57.72876],[13.02679,57.72846],[13.02574,57.72776],[13.02142,57.72722],[13.01942,57.72617],[13.01803,57.72631],[13.01648,57.72608],[13.0145,57.72699],[13.01434,57.72787],[13.00427,57.72681],[13.00413,57.72707],[13.00514,57.7274],[13.00571,57.7286],[13.00551,57.73002],[13.00582,57.73042],[13.00538,57.73052],[13.00375,57.73064],[12.9996,57.73011],[12.99509,57.72992],[12.98837,57.73105],[12.98849,57.73172],[12.99055,57.73289],[12.99148,57.73373],[12.98878,57.73428],[12.98335,57.74304],[12.98487,57.74309],[12.98679,57.74364],[12.98872,57.74396],[12.99207,57.74404],[12.99599,57.74352],[12.99847,57.74281],[13.00027,57.74205],[13.00357,57.74186],[13.00635,57.7438],[13.01481,57.74759],[13.01672,57.74915],[13.01881,57.7501],[13.02126,57.75075],[13.02492,57.7512],[13.02927,57.75144],[13.03193,57.75138]]]}},{"type":"Feature","id":"1490R008","properties":{"code":"1490R008","name":"Dammsvedjan"},"geometry":{"type":"Polygon","coordinates":[[[12.93333,57.70523],[12.93552,57.70515],[12.93699,57.70422],[12.93812,57.70393],[12.93917,57.70487],[12.94224,57.70387],[12.9437,57.70295],[12.94663,57.7022],[12.94961,57.70218],[12.94979,57.7026],[12.95207,57.70309],[12.95942,57.70142],[12.95882,57.70105],[12.96017,57.69783],[12.96692,57.69821],[12.9696,57.69721],[12.9665,57.69644],[12.96596,57.69465],[12.96434,57.69296],[12.96183,57.69165],[12.95924,57.6909],[12.95531,57.69052],[12.95178,57.68968],[12.94777,57.68958],[12.94402,57.69027],[12.94084,57.69161],[12.93859,57.69186],[12.93614,57.69239],[12.93439,57.69145],[12.93227,57.69074],[12.92926,57.68932],[12.93398,57.69434],[12.92925,57.7014],[12.93278,57.70415],[12.93333,57.70523]]]}},{"type":"Feature","id":"1490R013","properties":{"code":"1490R013","name":"Frufällan-Sparsör väst"},"geometry":{"type":"Polygon","coordinates":[[[13.03316,57.81764],[13.03045,57.81456],[13.03297,57.81318],[13.03204,57.81314],[13.03148,57.81207],[13.02923,57.81334],[13.02834,57.81289],[13.02439,57.81336],[13.02258,57.81209],[13.02219,57.81034],[13.02225,57.80957],[13.02334,57.80773],[13.01969,57.80638],[13.01766,57.80605],[13.01681,57.80544],[13.01631,57.8037],[13.01567,57.80295],[13.01403,57.80175],[13.01274,57.80167],[13.0125,57.80139],[13.01141,57.80115],[13.01107,57.79861],[13.00983,57.79612],[13.01089,57.7953],[13.0115,57.79518],[13.01224,57.79561],[13.0142,57.79497],[13.0157,57.79378],[13.01498,57.79378],[13.0158,57.79296],[13.0156,57.79099],[13.01461,57.79031],[13.01469,57.78812],[13.01614,57.78735],[13.0123,57.78491],[13.01195,57.78487],[13.01012,57.78552],[13.00774,57.78484],[13.00678,57.78363],[13.00529,57.78253],[13.00449,57.78125],[13.00312,57.77994],[13.00276,57.77843],[13.00173,57.77707],[13.00011,57.77589],[12.99776,57.77487],[12.99823,57.7731],[12.99759,57.77054],[12.99495,57.77162],[12.99228,57.77002],[12.99162,57.76924],[12.98409,57.7703],[12.98122,57.76972],[12.97678,57.77118],[12.97536,57.77275],[12.97398,57.77314],[12.97368,57.77299],[12.97329,57.77306],[12.97213,57.77182],[12.97184,57.77187],[12.96802,57.77406],[12.96913,57.77645],[12.96968,57.77887],[12.97402,57.78531],[12.98155,57.78809],[12.98234,57.78958],[12.99091,57.79665],[12.99602,57.80767],[12.99635,57.80905],[12.99958,57.81075],[13.00378,57.80998],[13.00545,57.81065],[13.00726,57.81068],[13.00848,57.81091],[13.00835,57.8138],[13.01216,57.81348],[13.01675,57.81492],[13.01887,57.81423],[13.02015,57.81463],[13.02248,57.81705],[13.03205,57.81958],[13.03316,57.81764]]]}},{"type":"Feature","id":"1490R009","properties":{"code":"1490R009","name":"Ekås-Hestra"},"geometry":{"type":"Polygon","coordinates":[[[12.92625,57.73115],[12.92665,57.73084],[12.9281,57.73095],[12.92936,57.73063],[12.92942,57.72801],[12.92775,57.72773],[12.92624,57.72675],[12.92277,57.72579],[12.92311,57.72549],[12.92142,57.72476],[12.919,57.72332],[12.91865,57.72339],[12.91946,57.72425],[12.91911,57.72488],[12.91961,57.726],[12.91763,57.72633],[12.91606,57.72574],[12.91489,57.72592],[12.91232,57.72524],[12.91156,57.72657],[12.90963,57.72607],[12.90771,57.72498],[12.90646,57.72456],[12.90563,57.72353],[12.90469,57.72302],[12.90145,57.72182],[12.89393,57.71958],[12.89446,57.72149],[12.88634,57.72393],[12.88541,57.72508],[12.88402,57.72942],[12.88312,57.73102],[12.8824,57.73131],[12.88326,57.7317],[12.88298,57.73321],[12.88347,57.73479],[12.88458,57.73613],[12.88595,57.73711],[12.88154,57.73762],[12.87923,57.73833],[12.87771,57.73908],[12.87415,57.74159],[12.87066,57.74598],[12.87025,57.74771],[12.87086,57.7494],[12.87206,57.75065],[12.87366,57.75161],[12.87453,57.75362],[12.87635,57.75514],[12.87836,57.75607],[12.88019,57.75659],[12.88276,57.75697],[12.88521,57.75705],[12.89316,57.75603],[12.89671,57.75484],[12.8981,57.754],[12.89918,57.75303],[12.89989,57.75195],[12.90022,57.75059],[12.90083,57.74993],[12.90379,57.74846],[12.90528,57.74704],[12.90718,57.74571],[12.90899,57.74365],[12.9113,57.74342],[12.91372,57.74283],[12.91536,57.74216],[12.91707,57.74107],[12.91938,57.73882],[12.91852,57.73843],[12.92079,57.73755],[12.91961,57.73586],[12.9231,57.73349],[12.9242,57.73178],[12.92625,57.73115]]]}},{"type":"Feature","id":"1490R010","properties":{"code":"1490R010","name":"Fristad centrum"},"geometry":{"type":"Polygon","coordinates":[[[13.03014,57.83411],[13.02831,57.83265],[13.0289,57.83217],[13.03338,57.83181],[13.03642,57.831],[13.03919,57.82944],[13.04066,57.82747],[13.04083,57.82603],[13.04045,57.82458],[13.03741,57.81911],[13.03876,57.8178],[13.03934,57.81671],[13.03645,57.81617],[13.0375,57.81527],[13.03741,57.81483],[13.03468,57.81333],[13.03301,57.81343],[13.03303,57.81328],[13.03246,57.81342],[13.03045,57.81456],[13.03316,57.81764],[13.03205,57.81958],[13.02248,57.81705],[13.02015,57.81463],[13.01887,57.81423],[13.01675,57.81492],[13.01216,57.81348],[13.00835,57.8138],[13.00848,57.81091],[13.00726,57.81068],[13.00545,57.81065],[13.00378,57.80998],[12.99958,57.81075],[12.99635,57.80905],[12.99501,57.81091],[12.99533,57.81261],[12.99415,57.81503],[12.99416,57.81585],[12.99499,57.81813],[12.99614,57.81805],[12.99679,57.81844],[12.99594,57.81972],[12.99649,57.81957],[12.99834,57.82148],[12.99952,57.82189],[13.00327,57.82125],[13.00425,57.82141],[13.00511,57.82051],[13.00792,57.81993],[13.00763,57.82228],[13.00842,57.82448],[13.00735,57.82454],[13.00763,57.82536],[12.99995,57.82671],[12.99794,57.8274],[12.99684,57.82829],[12.99221,57.83346],[12.99133,57.83294],[12.98876,57.83372],[12.99032,57.83484],[12.98999,57.83579],[12.99219,57.83635],[12.99433,57.83662],[12.99731,57.8376],[13.00014,57.838],[13.00103,57.83923],[13.00219,57.84016],[13.00367,57.84098],[13.00556,57.84168],[13.00749,57.84213],[13.00969,57.8424],[13.01479,57.84382],[13.01883,57.84413],[13.02206,57.84376],[13.02522,57.84285],[13.02721,57.84187],[13.02966,57.83995],[13.03077,57.83869],[13.03125,57.83734],[13.031,57.8355],[13.03014,57.83411]]]}},{"type":"Feature","id":"1490R011","properties":{"code":"1490R011","name":"Fristad omland"},"geometry":{"type":"Polygon","coordinates":[[[13.11314,57.88384],[13.11315,57.88351],[13.11554,57.88262],[13.11492,57.87864],[13.1085,57.86565],[13.10567,57.85591],[13.11128,57.85305],[13.1153,57.85138],[13.11651,57.85131],[13.11682,57.85111],[13.11779,57.85098],[13.11992,57.85016],[13.12106,57.84933],[13.12224,57.84888],[13.12198,57.84868],[13.12367,57.84775],[13.12554,57.84591],[13.12734,57.84488],[13.12773,57.84433],[13.12704,57.84389],[13.12506,57.84369],[13.12096,57.84214],[13.12282,57.83924],[13.12624,57.83825],[13.1284,57.83546],[13.12964,57.83595],[13.13129,57.8342],[13.13119,57.83388],[13.13269,57.83343],[13.13482,57.82592],[13.13472,57.82296],[13.13521,57.82249],[13.13488,57.8216],[13.12581,57.81537],[13.12197,57.81561],[13.11022,57.8148],[13.10796,57.81441],[13.1,57.81253],[13.09461,57.81222],[13.09217,57.81225],[13.0892,57.81159],[13.08649,57.81126],[13.08576,57.81103],[13.08669,57.8102],[13.08668,57.80941],[13.08704,57.80905],[13.08649,57.80832],[13.08481,57.80758],[13.08467,57.80672],[13.0823,57.80649],[13.08142,57.80545],[13.08062,57.8057],[13.0796,57.80554],[13.07914,57.80449],[13.07846,57.80488],[13.07789,57.8049],[13.07782,57.80509],[13.07739,57.80507],[13.07695,57.80469],[13.07624,57.80516],[13.0757,57.80503],[13.07539,57.80429],[13.07446,57.80451],[13.07374,57.8043],[13.07335,57.80441],[13.07339,57.80471],[13.07138,57.80417],[13.07166,57.80383],[13.07056,57.80355],[13.0704,57.80293],[13.07345,57.80303],[13.07331,57.802],[13.07188,57.79954],[13.07374,57.79845],[13.07223,57.7981],[13.07211,57.79894],[13.07187,57.79896],[13.07109,57.7978],[13.07002,57.79695],[13.0685,57.79623],[13.06809,57.7956],[13.06851,57.795],[13.06836,57.79425],[13.06818,57.79395],[13.06732,57.7937],[13.06764,57.79314],[13.06642,57.79198],[13.06663,57.79117],[13.06613,57.79084],[13.06518,57.7907],[13.06556,57.79012],[13.06468,57.78971],[13.0645,57.78897],[13.06379,57.78878],[13.06217,57.78784],[13.06171,57.78686],[13.05918,57.78614],[13.0577,57.78613],[13.05723,57.78597],[13.05638,57.78611],[13.05573,57.78587],[13.05588,57.78549],[13.05477,57.78472],[13.05519,57.78448],[13.05357,57.7822],[13.05089,57.77967],[13.05004,57.77839],[13.04939,57.77838],[13.04841,57.7777],[13.04671,57.77629],[13.04599,57.77526],[13.04386,57.77362],[13.04227,57.77252],[13.01871,57.76381],[13.01834,57.7628],[13.01625,57.76092],[13.01164,57.76074],[13.00801,57.75944],[13.00686,57.76061],[13.00535,57.76107],[13.00446,57.76114],[13.00422,57.76329],[13.00282,57.76504],[12.99881,57.76768],[12.99612,57.76879],[12.99738,57.77017],[12.99815,57.77239],[12.99821,57.77346],[12.99776,57.77487],[13.00011,57.77589],[13.00173,57.77707],[13.00276,57.77843],[13.00312,57.77994],[13.00449,57.78125],[13.00529,57.78253],[13.00678,57.78363],[13.00774,57.78484],[13.01012,57.78552],[13.01351,57.78443],[13.01632,57.78401],[13.02251,57.78372],[13.02507,57.78396],[13.02687,57.78436],[13.02945,57.7854],[13.03159,57.78707],[13.03652,57.78811],[13.03977,57.78944],[13.04168,57.79091],[13.04265,57.79264],[13.04247,57.79504],[13.04141,57.79696],[13.04035,57.79818],[13.04169,57.79945],[13.04237,57.80082],[13.04238,57.80227],[13.04172,57.80364],[13.03951,57.80557],[13.03764,57.80662],[13.03534,57.80739],[13.03219,57.80786],[13.03464,57.80899],[13.03616,57.81009],[13.03698,57.81107],[13.03748,57.81238],[13.03917,57.81428],[13.03951,57.81569],[13.03933,57.81676],[13.03876,57.8178],[13.03741,57.81911],[13.04045,57.82458],[13.04077,57.82711],[13.03952,57.82915],[13.03693,57.83079],[13.03342,57.8318],[13.0289,57.83217],[13.02831,57.83265],[13.0304,57.83443],[13.03119,57.83628],[13.03108,57.83803],[13.02966,57.83995],[13.02675,57.84215],[13.02522,57.84285],[13.0227,57.84362],[13.01878,57.84413],[13.01613,57.84402],[13.01419,57.8437],[13.00969,57.8424],[13.00671,57.84198],[13.00417,57.84119],[13.0017,57.83981],[13.00014,57.838],[12.99731,57.8376],[12.99433,57.83662],[12.99219,57.83635],[12.99039,57.83592],[12.9887,57.83528],[12.98657,57.83414],[12.98346,57.83427],[12.98075,57.83397],[12.97743,57.83317],[12.97501,57.83216],[12.97293,57.8316],[12.97058,57.83044],[12.96845,57.82838],[12.965,57.82603],[12.96392,57.82407],[12.96415,57.82222],[12.96509,57.82084],[12.96623,57.8199],[12.96947,57.8184],[12.9688,57.81662],[12.96958,57.8138],[12.96923,57.81251],[12.96936,57.81139],[12.96988,57.8103],[12.97184,57.80795],[12.97366,57.80643],[12.97587,57.80541],[12.97833,57.80476],[12.98101,57.80446],[12.98325,57.80448],[12.98816,57.80489],[12.99015,57.80525],[12.99318,57.80628],[12.99602,57.80767],[12.99091,57.79665],[12.98234,57.78958],[12.98155,57.78809],[12.97402,57.78531],[12.96431,57.78799],[12.9626,57.78733],[12.95683,57.78861],[12.95312,57.7947],[12.94439,57.80218],[12.94216,57.8114],[12.94118,57.81158],[12.94178,57.81258],[12.94045,57.81833],[12.94462,57.82111],[12.95267,57.82416],[12.95477,57.82996],[12.94955,57.82999],[12.94081,57.83211],[12.9273,57.82561],[12.91808,57.82511],[12.92285,57.83143],[12.92829,57.83462],[12.93052,57.83494],[12.93198,57.83496],[12.93354,57.83436],[12.94257,57.84004],[12.9498,57.84427],[12.96551,57.85444],[12.96657,57.85441],[12.96811,57.85482],[12.97007,57.85474],[12.97221,57.85697],[12.97438,57.86001],[12.9846,57.85751],[12.99059,57.85891],[13.00386,57.85524],[13.00682,57.85532],[13.00848,57.85599],[13.00894,57.85054],[13.00994,57.85039],[13.00922,57.84995],[13.01635,57.84956],[13.01737,57.84997],[13.01786,57.84982],[13.0183,57.84994],[13.02028,57.85108],[13.02998,57.85489],[13.061,57.86153],[13.08885,57.87277],[13.08882,57.87399],[13.08811,57.87488],[13.08952,57.8754],[13.0901,57.87668],[13.08858,57.87839],[13.09617,57.87775],[13.09983,57.87718],[13.10367,57.87848],[13.10529,57.87977],[13.10518,57.88046],[13.1059,57.88147],[13.10781,57.88286],[13.11013,57.88371],[13.11093,57.88379],[13.11094,57.88368],[13.11192,57.88359],[13.11262,57.88387],[13.11314,57.88384]]]}},{"type":"Feature","id":"1490R012","properties":{"code":"1490R012","name":"Fristad-Asklanda"},"geometry":{"type":"Polygon","coordinates":[[[12.99042,57.83508],[12.98876,57.83372],[12.99133,57.83294],[12.99221,57.83346],[12.99684,57.82829],[12.99794,57.8274],[12.99995,57.82671],[13.00763,57.82536],[13.00735,57.82454],[13.00842,57.82448],[13.00763,57.82228],[13.00792,57.81993],[13.00511,57.82051],[13.00425,57.82141],[13.00327,57.82125],[12.99952,57.82189],[12.99834,57.82148],[12.99649,57.81957],[12.99594,57.81972],[12.99679,57.81844],[12.99614,57.81805],[12.99499,57.81813],[12.99416,57.81585],[12.99415,57.81503],[12.99533,57.81261],[12.99501,57.81091],[12.99635,57.80905],[12.99602,57.80767],[12.99264,57.80607],[12.98956,57.80512],[12.98325,57.80448],[12.97974,57.80456],[12.97641,57.80523],[12.97366,57.80643],[12.97211,57.80764],[12.97012,57.80998],[12.96928,57.81173],[12.96958,57.8138],[12.9688,57.81625],[12.96947,57.8184],[12.96708,57.81939],[12.96509,57.82084],[12.96399,57.82265],[12.964,57.82441],[12.96532,57.82633],[12.96845,57.82838],[12.97058,57.83044],[12.97241,57.8314],[12.97501,57.83216],[12.97743,57.83317],[12.98015,57.83385],[12.98341,57.83427],[12.98657,57.83414],[12.98999,57.83579],[12.99042,57.83508]]]}},{"type":"Feature","id":"1490R014","properties":{"code":"1490R014","name":"Gånghester"},"geometry":{"type":"Polygon","coordinates":[[[13.01852,57.71066],[13.02132,57.71048],[13.02463,57.71052],[13.02804,57.71007],[13.03137,57.71051],[13.03492,57.71045],[13.0369,57.71023],[13.03931,57.70963],[13.04123,57.70883],[13.04296,57.70772],[13.04463,57.70587],[13.04531,57.70437],[13.0492,57.70334],[13.05222,57.70298],[13.0546,57.7023],[13.0571,57.70104],[13.05883,57.69948],[13.0622,57.69848],[13.06434,57.69755],[13.06587,57.69644],[13.06672,57.69539],[13.06585,57.69418],[13.06348,57.69352],[13.06193,57.69259],[13.06235,57.69202],[13.05994,57.69129],[13.0588,57.69134],[13.05797,57.69091],[13.05502,57.69191],[13.05281,57.69108],[13.0515,57.69177],[13.04896,57.69243],[13.04767,57.69163],[13.04646,57.69213],[13.03911,57.69265],[13.03736,57.69311],[13.03606,57.6927],[13.03575,57.68894],[13.0319,57.68855],[13.03171,57.69127],[13.02878,57.69136],[13.02782,57.69171],[13.02399,57.69226],[13.02559,57.69311],[13.02656,57.69418],[13.02633,57.69595],[13.02524,57.69682],[13.02212,57.69756],[13.01397,57.69784],[13.01461,57.69687],[13.01168,57.69689],[13.01097,57.69565],[13.0168,57.69445],[13.01749,57.69366],[13.01428,57.69169],[13.01378,57.69295],[13.01008,57.6935],[13.00748,57.69415],[13.00577,57.69472],[13.00388,57.69571],[13.00203,57.69765],[13.0015,57.6994],[13.0015,57.70049],[13.00228,57.70282],[13.00337,57.70414],[13.00552,57.70551],[13.00852,57.70648],[13.00945,57.70771],[13.01092,57.70885],[13.01236,57.70955],[13.01461,57.71024],[13.01852,57.71066]]]}},{"type":"Feature","id":"1490R022","properties":{"code":"1490R022","name":"Kristineberg öst-Hedvigsborg"},"geometry":{"type":"Polygon","coordinates":[[[12.94961,57.70713],[12.95148,57.7066],[12.95456,57.70657],[12.96084,57.70512],[12.96613,57.70437],[12.96698,57.70446],[12.96636,57.70361],[12.96778,57.70275],[12.96959,57.70071],[12.96692,57.69821],[12.96017,57.69783],[12.95882,57.70105],[12.95942,57.70142],[12.95207,57.70309],[12.94979,57.7026],[12.94961,57.70218],[12.94663,57.7022],[12.9437,57.70295],[12.94224,57.70387],[12.93917,57.70487],[12.93944,57.70596],[12.94061,57.70658],[12.94487,57.7052],[12.94615,57.70511],[12.94789,57.70436],[12.94988,57.70428],[12.94935,57.70695],[12.94961,57.70713]]]}},{"type":"Feature","id":"1490R015","properties":{"code":"1490R015","name":"Göta centrum-Kristineberg väst"},"geometry":{"type":"Polygon","coordinates":[[[12.93464,57.71169],[12.93696,57.71071],[12.93728,57.71083],[12.94076,57.70956],[12.94218,57.70931],[12.94424,57.70939],[12.94656,57.70872],[12.94935,57.70695],[12.94988,57.70428],[12.94789,57.70436],[12.94615,57.70511],[12.94487,57.7052],[12.94061,57.70658],[12.93944,57.70596],[12.93917,57.70487],[12.93812,57.70393],[12.93699,57.70422],[12.93552,57.70515],[12.93333,57.70523],[12.93278,57.70415],[12.92925,57.7014],[12.93398,57.69434],[12.92926,57.68932],[12.92702,57.68878],[12.92357,57.68831],[12.92092,57.68833],[12.91891,57.68859],[12.91653,57.68922],[12.91449,57.69017],[12.91275,57.69161],[12.91003,57.69326],[12.90853,57.69521],[12.90891,57.69549],[12.91009,57.69566],[12.91124,57.69609],[12.91241,57.69735],[12.9132,57.69888],[12.91319,57.69938],[12.91228,57.70023],[12.91215,57.70078],[12.91212,57.70147],[12.91289,57.70263],[12.91253,57.7038],[12.91536,57.70728],[12.91605,57.70765],[12.92008,57.70804],[12.92162,57.70963],[12.92351,57.70984],[12.92414,57.71053],[12.92377,57.71077],[12.92914,57.71401],[12.93042,57.71595],[12.93231,57.7173],[12.93731,57.71625],[12.93616,57.71562],[12.93631,57.7148],[12.93356,57.71333],[12.93329,57.71281],[12.93449,57.71212],[12.93464,57.71169]]]}},{"type":"Feature","id":"1490R016","properties":{"code":"1490R016","name":"Hedared-Sandhult-Backabo"},"geometry":{"type":"Polygon","coordinates":[[[12.76266,57.8338],[12.77993,57.82735],[12.79197,57.8187],[12.79247,57.81827],[12.79261,57.81766],[12.79419,57.81669],[12.79562,57.81538],[12.79728,57.81508],[12.79837,57.81535],[12.80774,57.81041],[12.81003,57.81038],[12.8143,57.80967],[12.81486,57.80719],[12.8156,57.80703],[12.81496,57.80677],[12.81446,57.80684],[12.85292,57.78602],[12.85185,57.78509],[12.85145,57.7842],[12.85157,57.7836],[12.85214,57.78363],[12.85286,57.78445],[12.85606,57.78432],[12.85639,57.78399],[12.85616,57.78365],[12.85683,57.78308],[12.85902,57.78228],[12.86017,57.78246],[12.87543,57.77499],[12.87671,57.77619],[12.8776,57.77628],[12.88002,57.77494],[12.88119,57.77263],[12.88193,57.77225],[12.88223,57.77152],[12.88338,57.77093],[12.88655,57.76984],[12.88753,57.77023],[12.88878,57.76973],[12.88974,57.769],[12.88957,57.7688],[12.90537,57.76293],[12.90876,57.75838],[12.90786,57.75763],[12.90631,57.7548],[12.90522,57.75364],[12.90592,57.75284],[12.90663,57.7526],[12.903,57.7509],[12.90371,57.74909],[12.90352,57.74864],[12.90083,57.74993],[12.90022,57.75059],[12.89966,57.75238],[12.8981,57.754],[12.89609,57.75513],[12.89316,57.75603],[12.88655,57.75697],[12.88451,57.75706],[12.88207,57.75691],[12.87956,57.75644],[12.87784,57.75587],[12.87635,57.75514],[12.87484,57.75397],[12.87407,57.75295],[12.87366,57.75161],[12.8717,57.75035],[12.8705,57.74875],[12.87029,57.74701],[12.87088,57.74562],[12.87447,57.74129],[12.87774,57.73906],[12.87975,57.73813],[12.88154,57.73762],[12.88595,57.73711],[12.88458,57.73613],[12.88341,57.73469],[12.88298,57.73321],[12.88326,57.7317],[12.88068,57.73035],[12.87787,57.73109],[12.87509,57.73136],[12.87249,57.73124],[12.87018,57.73083],[12.8651,57.73098],[12.86192,57.73068],[12.85712,57.72933],[12.85475,57.72817],[12.85308,57.72658],[12.85246,57.72464],[12.85169,57.72532],[12.85191,57.72696],[12.85116,57.72871],[12.84964,57.73014],[12.84723,57.7314],[12.84373,57.7323],[12.83301,57.73406],[12.831,57.73422],[12.82834,57.73411],[12.82414,57.73317],[12.82132,57.73326],[12.81867,57.73296],[12.81684,57.73251],[12.81472,57.73165],[12.81339,57.7308],[12.81218,57.72954],[12.81061,57.72683],[12.81042,57.72491],[12.80866,57.72425],[12.80714,57.72338],[12.8054,57.72422],[12.803,57.72492],[12.80256,57.726],[12.80144,57.72725],[12.8001,57.72814],[12.79807,57.72902],[12.7922,57.73022],[12.78927,57.73031],[12.7867,57.73002],[12.78438,57.7294],[12.78086,57.72801],[12.77941,57.7272],[12.77819,57.72617],[12.77701,57.72402],[12.77701,57.72281],[12.77755,57.7212],[12.77652,57.71884],[12.77489,57.72028],[12.77275,57.72133],[12.77033,57.72202],[12.76767,57.72237],[12.76474,57.72234],[12.76183,57.7219],[12.75937,57.72114],[12.75741,57.72012],[12.75463,57.71756],[12.75389,57.71621],[12.75381,57.71489],[12.75188,57.71322],[12.75102,57.71144],[12.74939,57.70943],[12.74915,57.70753],[12.75033,57.70538],[12.73546,57.71423],[12.72053,57.71687],[12.71657,57.71867],[12.72156,57.72397],[12.72022,57.7257],[12.70669,57.72325],[12.70544,57.72384],[12.70152,57.72504],[12.70148,57.72749],[12.69768,57.73113],[12.69814,57.73147],[12.69993,57.73155],[12.69942,57.73193],[12.70014,57.73244],[12.70101,57.73253],[12.70695,57.73504],[12.7083,57.73526],[12.70865,57.73566],[12.71038,57.736],[12.71363,57.73794],[12.71416,57.73927],[12.7147,57.73964],[12.71443,57.74059],[12.71123,57.74104],[12.71743,57.75283],[12.71991,57.75319],[12.71918,57.75641],[12.71899,57.76268],[12.7226,57.7749],[12.72243,57.77549],[12.72687,57.77916],[12.72759,57.78023],[12.72827,57.78214],[12.73008,57.78386],[12.73099,57.7842],[12.73217,57.78434],[12.73368,57.78545],[12.73622,57.78671],[12.73634,57.7871],[12.73605,57.7885],[12.73459,57.78871],[12.73276,57.78849],[12.7295,57.78934],[12.72865,57.78992],[12.72915,57.79054],[12.72763,57.79191],[12.72768,57.79214],[12.72643,57.79289],[12.72419,57.79305],[12.72371,57.79274],[12.71032,57.79726],[12.69933,57.80178],[12.70072,57.8082],[12.70727,57.8167],[12.7206,57.81777],[12.7191,57.81829],[12.71961,57.81868],[12.72088,57.81898],[12.72867,57.82021],[12.73272,57.82107],[12.73389,57.82094],[12.73446,57.82118],[12.73614,57.82109],[12.73767,57.82201],[12.73862,57.8223],[12.74019,57.82356],[12.74194,57.82443],[12.74572,57.82606],[12.7495,57.82742],[12.75436,57.83128],[12.75626,57.83211],[12.75809,57.8334],[12.76225,57.83463],[12.76266,57.8338]]]}},{"type":"Feature","id":"1490R017","properties":{"code":"1490R017","name":"Hulta centrum-Sörmarken"},"geometry":{"type":"Polygon","coordinates":[[[12.9902,57.7239],[12.99326,57.72406],[12.99519,57.72448],[12.99581,57.7236],[12.9954,57.72325],[12.9964,57.7218],[13.00272,57.71764],[13.00341,57.71672],[13.0037,57.71675],[13.00551,57.71408],[13.00286,57.71357],[13.00171,57.71413],[12.99871,57.71502],[12.99135,57.71593],[12.99033,57.7163],[12.98896,57.71644],[12.98834,57.71726],[12.98585,57.71776],[12.98363,57.7189],[12.98156,57.71934],[12.97956,57.71912],[12.97265,57.71623],[12.97083,57.71704],[12.96925,57.71746],[12.96718,57.71924],[12.97426,57.72153],[12.97903,57.72397],[12.98086,57.72451],[12.98372,57.72471],[12.9902,57.7239]]]}},{"type":"Feature","id":"1490R018","properties":{"code":"1490R018","name":"Hulta syd-Trandared norr-Brotorp"},"geometry":{"type":"Polygon","coordinates":[[[12.98834,57.71726],[12.98896,57.71644],[12.99033,57.7163],[12.99135,57.71593],[12.99871,57.71502],[13.00171,57.71413],[13.00286,57.71357],[13.00551,57.71408],[13.00668,57.71236],[13.0012,57.71324],[12.99938,57.71156],[12.99498,57.70876],[12.99756,57.70728],[12.99942,57.70553],[13.00025,57.70419],[13.00024,57.70204],[12.99853,57.69932],[12.99735,57.69841],[12.9954,57.69745],[12.99301,57.69677],[12.99043,57.69644],[12.98584,57.69614],[12.98292,57.69628],[12.98053,57.6959],[12.977,57.6958],[12.97415,57.69612],[12.97075,57.6971],[12.9696,57.69721],[12.96692,57.69821],[12.96959,57.70071],[12.96778,57.70275],[12.9687,57.70458],[12.96715,57.70467],[12.96706,57.70528],[12.9675,57.70616],[12.96884,57.70588],[12.9699,57.70623],[12.96923,57.707],[12.97005,57.70713],[12.96985,57.70749],[12.97092,57.70768],[12.9708,57.70927],[12.97036,57.70956],[12.96774,57.71015],[12.96658,57.71075],[12.96856,57.71161],[12.9709,57.71315],[12.96862,57.71299],[12.96752,57.71329],[12.96687,57.71398],[12.96519,57.71484],[12.96549,57.71557],[12.96829,57.71669],[12.96925,57.71746],[12.97083,57.71704],[12.97265,57.71623],[12.97956,57.71912],[12.98077,57.71934],[12.9833,57.71902],[12.98585,57.71776],[12.98834,57.71726]]]}},{"type":"Feature","id":"1490R019","properties":{"code":"1490R019","name":"Hässleholmen väst"},"geometry":{"type":"Polygon","coordinates":[[[12.97108,57.73185],[12.97443,57.7315],[12.97509,57.73179],[12.97639,57.73086],[12.97911,57.73101],[12.97903,57.72971],[12.97854,57.72958],[12.97814,57.72816],[12.98098,57.72797],[12.98054,57.72631],[12.98224,57.7247],[12.98027,57.72438],[12.97903,57.72397],[12.97474,57.72172],[12.97022,57.72027],[12.96867,57.72222],[12.96805,57.72234],[12.96737,57.7233],[12.96758,57.72392],[12.96721,57.72456],[12.96697,57.72665],[12.9631,57.72742],[12.96537,57.72867],[12.96601,57.73165],[12.96815,57.73286],[12.97108,57.73185]]]}},{"type":"Feature","id":"1490R020","properties":{"code":"1490R020","name":"Hässleholmen öst norr"},"geometry":{"type":"Polygon","coordinates":[[[12.97701,57.74303],[12.98007,57.74257],[12.98335,57.74304],[12.98878,57.73428],[12.99148,57.73373],[12.99055,57.73289],[12.98849,57.73172],[12.98837,57.73105],[12.99193,57.73049],[12.99416,57.7272],[12.99671,57.72659],[12.99708,57.72599],[12.99804,57.72527],[12.99469,57.72435],[12.99213,57.72393],[12.9902,57.7239],[12.98437,57.72466],[12.98224,57.7247],[12.98054,57.72631],[12.98098,57.72797],[12.97814,57.72816],[12.97854,57.72958],[12.97903,57.72971],[12.97911,57.73101],[12.97639,57.73086],[12.97509,57.73179],[12.97443,57.7315],[12.97108,57.73185],[12.96815,57.73286],[12.96852,57.73372],[12.96821,57.73481],[12.96565,57.73712],[12.96625,57.73898],[12.97701,57.74303]]]}},{"type":"Feature","id":"1490R021","properties":{"code":"1490R021","name":"Kinnarumma-Fagerhult-Viskafors öst"},"geometry":{"type":"Polygon","coordinates":[[[12.88015,57.6353],[12.88074,57.63376],[12.88059,57.6324],[12.88395,57.63113],[12.88577,57.6301],[12.88681,57.62918],[12.88757,57.62801],[12.88999,57.62666],[12.8912,57.62572],[12.89252,57.62359],[12.8924,57.62166],[12.89085,57.61961],[12.89129,57.6176],[12.89051,57.61575],[12.88824,57.61388],[12.88665,57.61314],[12.88459,57.61254],[12.88712,57.61149],[12.88872,57.61032],[12.89002,57.60866],[12.89033,57.60688],[12.89272,57.60447],[12.89536,57.60339],[12.89844,57.60145],[12.89951,57.6],[12.89983,57.5982],[12.8993,57.59668],[12.89801,57.59526],[12.89635,57.5942],[12.89364,57.5932],[12.89237,57.59168],[12.89069,57.59061],[12.88558,57.58872],[12.884,57.58742],[12.88146,57.58624],[12.87817,57.58551],[12.87467,57.58536],[12.87125,57.5858],[12.86721,57.58583],[12.86333,57.58669],[12.86177,57.58737],[12.85911,57.589],[12.85802,57.59007],[12.85736,57.59114],[12.8566,57.59407],[12.85703,57.59551],[12.85781,57.59655],[12.8604,57.59832],[12.86335,57.59953],[12.86659,57.60044],[12.86699,57.60082],[12.86618,57.60188],[12.86574,57.60333],[12.86612,57.6051],[12.86563,57.60699],[12.86626,57.60875],[12.86776,57.61049],[12.86926,57.61166],[12.87129,57.6126],[12.87354,57.61321],[12.86914,57.61519],[12.86357,57.61612],[12.85907,57.61763],[12.86002,57.62017],[12.86159,57.62276],[12.86221,57.62312],[12.86487,57.62397],[12.86582,57.62469],[12.86718,57.62501],[12.86777,57.62537],[12.86814,57.62591],[12.86907,57.62648],[12.86937,57.62821],[12.86891,57.62902],[12.86961,57.62956],[12.87395,57.6305],[12.87269,57.63264],[12.87345,57.63569],[12.87411,57.63592],[12.88015,57.6353]]]}},{"type":"Feature","id":"1490R026","properties":{"code":"1490R026","name":"Norrmalm norr"},"geometry":{"type":"Polygon","coordinates":[[[12.95299,57.74938],[12.95563,57.74776],[12.95677,57.74744],[12.95811,57.74747],[12.96079,57.74844],[12.96193,57.74625],[12.96297,57.74606],[12.96437,57.74475],[12.9651,57.74276],[12.96669,57.74203],[12.9686,57.74267],[12.97128,57.74316],[12.97407,57.74327],[12.97701,57.74303],[12.96625,57.73898],[12.96087,57.73994],[12.95686,57.74149],[12.95586,57.74035],[12.95657,57.73928],[12.95637,57.73904],[12.95897,57.73838],[12.96083,57.73647],[12.95905,57.73608],[12.95818,57.73506],[12.95748,57.73464],[12.95596,57.73436],[12.95547,57.7341],[12.95491,57.73328],[12.95427,57.73297],[12.95116,57.73342],[12.95094,57.73321],[12.94969,57.73344],[12.94898,57.7322],[12.94791,57.73237],[12.94613,57.73176],[12.94473,57.7311],[12.94355,57.73002],[12.94253,57.72981],[12.94127,57.72996],[12.94456,57.7414],[12.9456,57.7438],[12.94932,57.74895],[12.95081,57.74853],[12.95299,57.74938]]]}},{"type":"Feature","id":"1490R027","properties":{"code":"1490R027","name":"Regementet"},"geometry":{"type":"Polygon","coordinates":[[[12.92777,57.71814],[12.92909,57.71806],[12.93231,57.7173],[12.93042,57.71595],[12.92914,57.71401],[12.92377,57.71077],[12.92414,57.71053],[12.92351,57.70984],[12.92162,57.70963],[12.92008,57.70804],[12.91605,57.70765],[12.91501,57.70704],[12.91244,57.70352],[12.91293,57.70306],[12.91289,57.70263],[12.91212,57.70147],[12.91215,57.70078],[12.91228,57.70023],[12.91325,57.69921],[12.91255,57.69755],[12.91124,57.69609],[12.91009,57.69566],[12.90891,57.69549],[12.90853,57.69521],[12.90825,57.69615],[12.90767,57.69679],[12.90495,57.69796],[12.9029,57.69981],[12.90228,57.70152],[12.90276,57.70479],[12.90161,57.70637],[12.90409,57.7062],[12.91071,57.71125],[12.9098,57.71335],[12.90921,57.71357],[12.90901,57.71426],[12.90925,57.71518],[12.91286,57.71544],[12.92231,57.71723],[12.92403,57.71779],[12.92777,57.71814]]]}},{"type":"Feature","id":"1490R028","properties":{"code":"1490R028","name":"Ryda-Alideberg-Knalleland"},"geometry":{"type":"Polygon","coordinates":[[[12.94731,57.76324],[12.9412,57.7597],[12.9412,57.75895],[12.94042,57.75859],[12.93792,57.75872],[12.93728,57.75815],[12.93889,57.75743],[12.9385,57.75705],[12.93655,57.75709],[12.93594,57.75694],[12.93644,57.75674],[12.93963,57.7563],[12.93963,57.75578],[12.93895,57.75566],[12.93743,57.75578],[12.9364,57.75523],[12.93445,57.75491],[12.93304,57.75406],[12.93299,57.75359],[12.93544,57.75333],[12.9351,57.75257],[12.93382,57.75189],[12.934,57.75088],[12.93351,57.75005],[12.93104,57.7489],[12.93114,57.74847],[12.93261,57.74816],[12.93194,57.74707],[12.93324,57.74635],[12.93357,57.74571],[12.93378,57.74333],[12.93456,57.74327],[12.93617,57.742],[12.93746,57.74206],[12.93936,57.74184],[12.94403,57.74325],[12.94533,57.74376],[12.94601,57.74437],[12.94456,57.7414],[12.94179,57.73104],[12.93875,57.7253],[12.93744,57.72383],[12.93692,57.72419],[12.93556,57.72425],[12.9352,57.72442],[12.93509,57.72472],[12.9356,57.72529],[12.93493,57.72604],[12.93385,57.72672],[12.93168,57.72731],[12.9318,57.72755],[12.92942,57.72801],[12.92936,57.73063],[12.9281,57.73095],[12.92665,57.73084],[12.92625,57.73115],[12.9242,57.73178],[12.9231,57.73349],[12.91961,57.73586],[12.92079,57.73755],[12.91852,57.73843],[12.91973,57.73901],[12.92095,57.74047],[12.92162,57.74192],[12.92357,57.74416],[12.9226,57.74522],[12.9214,57.74737],[12.92128,57.74959],[12.92209,57.75109],[12.92332,57.7522],[12.92293,57.75389],[12.92369,57.75578],[12.92576,57.75771],[12.92752,57.75875],[12.92861,57.76078],[12.93084,57.76238],[12.93238,57.76304],[12.93434,57.76358],[12.93674,57.76477],[12.93974,57.76557],[12.94141,57.76643],[12.94327,57.76666],[12.94731,57.76324]]]}},{"type":"Feature","id":"1490R029","properties":{"code":"1490R029","name":"Rydboholm-Viskafors centrum"},"geometry":{"type":"Polygon","coordinates":[[[12.8938,57.67011],[12.89704,57.66963],[12.9,57.66858],[12.90208,57.66716],[12.90331,57.66538],[12.90341,57.66367],[12.90236,57.6612],[12.90333,57.65933],[12.90349,57.65796],[12.90318,57.65694],[12.90222,57.65565],[12.90324,57.6541],[12.90342,57.65259],[12.90291,57.65118],[12.90123,57.64891],[12.89961,57.64773],[12.89549,57.64572],[12.88906,57.64361],[12.88746,57.64261],[12.88517,57.64173],[12.88501,57.64022],[12.88412,57.63849],[12.88283,57.63726],[12.87995,57.63558],[12.88015,57.6353],[12.87411,57.63592],[12.87345,57.63569],[12.87269,57.63264],[12.87395,57.6305],[12.86961,57.62956],[12.86891,57.62902],[12.86937,57.62821],[12.86907,57.62648],[12.86814,57.62591],[12.86752,57.62518],[12.86582,57.62469],[12.86487,57.62397],[12.86221,57.62312],[12.86159,57.62276],[12.86002,57.62017],[12.85907,57.61763],[12.85393,57.61682],[12.85402,57.61568],[12.85346,57.61405],[12.8522,57.61264],[12.85043,57.61152],[12.84865,57.61079],[12.84616,57.61018],[12.83877,57.60974],[12.83529,57.61006],[12.83248,57.61084],[12.8289,57.6114],[12.83152,57.61616],[12.83351,57.619],[12.82836,57.62141],[12.82967,57.62162],[12.83205,57.62261],[12.833,57.62349],[12.83153,57.62352],[12.83037,57.62305],[12.82996,57.62336],[12.83285,57.62478],[12.83473,57.62624],[12.83872,57.62842],[12.83909,57.6283],[12.84035,57.62881],[12.84189,57.63122],[12.83666,57.63395],[12.83888,57.63443],[12.84103,57.63462],[12.84297,57.63568],[12.84254,57.63746],[12.84318,57.63921],[12.84498,57.64121],[12.84814,57.64294],[12.84984,57.6436],[12.85192,57.6441],[12.85798,57.64463],[12.86685,57.64791],[12.8643,57.65112],[12.86399,57.65316],[12.86442,57.65458],[12.86586,57.65619],[12.86964,57.65889],[12.872,57.66195],[12.8779,57.66671],[12.88236,57.66889],[12.8847,57.66962],[12.88795,57.67004],[12.8938,57.67011]]]}},{"type":"Feature","id":"1490R030","properties":{"code":"1490R030","name":"Rångedala"},"geometry":{"type":"Polygon","coordinates":[[[13.13476,57.82146],[13.13469,57.81942],[13.13544,57.81936],[13.14083,57.81664],[13.13929,57.81599],[13.13783,57.81578],[13.13878,57.81517],[13.13939,57.81388],[13.13662,57.81287],[13.14596,57.81],[13.16037,57.80403],[13.16996,57.80159],[13.17705,57.79665],[13.18128,57.79432],[13.18356,57.79494],[13.1842,57.79548],[13.18744,57.79409],[13.18711,57.79353],[13.18704,57.79249],[13.18745,57.79148],[13.18707,57.7903],[13.18847,57.78883],[13.18842,57.78813],[13.1865,57.78616],[13.18543,57.78596],[13.18448,57.7854],[13.18199,57.78485],[13.17793,57.78072],[13.1739,57.77401],[13.1659,57.77501],[13.15911,57.778],[13.14307,57.77679],[13.14287,57.77511],[13.15267,57.77292],[13.15164,57.76965],[13.14725,57.76682],[13.14481,57.76638],[13.15168,57.76205],[13.14972,57.75918],[13.1431,57.75777],[13.13991,57.75939],[13.13854,57.76064],[13.13311,57.75571],[13.13003,57.75444],[13.12746,57.75384],[13.12595,57.75387],[13.12582,57.75275],[13.12956,57.75184],[13.12949,57.75088],[13.13023,57.74891],[13.13127,57.74704],[13.13287,57.74562],[13.13488,57.74566],[13.13872,57.74477],[13.14081,57.74586],[13.14128,57.74728],[13.14349,57.74698],[13.14402,57.74715],[13.1511,57.74614],[13.15212,57.74617],[13.15319,57.74588],[13.15425,57.74602],[13.15589,57.74445],[13.15902,57.74311],[13.15924,57.74204],[13.15902,57.74101],[13.15803,57.73967],[13.15753,57.73938],[13.15808,57.73896],[13.15087,57.73872],[13.15055,57.73922],[13.15028,57.74146],[13.14421,57.74518],[13.14099,57.74335],[13.14034,57.74271],[13.13322,57.74068],[13.13175,57.74067],[13.12768,57.742],[13.12492,57.741],[13.12235,57.73799],[13.12028,57.73836],[13.11752,57.74347],[13.11678,57.74338],[13.11529,57.74227],[13.1151,57.74062],[13.11669,57.73858],[13.1127,57.73721],[13.11269,57.73652],[13.11165,57.73527],[13.11064,57.73658],[13.10903,57.73776],[13.10675,57.73875],[13.10414,57.7394],[13.10144,57.73966],[13.0962,57.73969],[13.09312,57.73924],[13.09078,57.73852],[13.08888,57.73752],[13.08748,57.73629],[13.08661,57.73443],[13.08487,57.73297],[13.08425,57.73198],[13.08399,57.73077],[13.08306,57.72984],[13.0804,57.72905],[13.07842,57.72803],[13.07667,57.72637],[13.07605,57.72487],[13.07301,57.72402],[13.07053,57.72264],[13.06895,57.72093],[13.06847,57.71905],[13.06894,57.71747],[13.07031,57.71591],[13.0722,57.71478],[13.0752,57.71376],[13.07598,57.71126],[13.07838,57.70912],[13.08153,57.70783],[13.08537,57.70725],[13.08881,57.70627],[13.09114,57.70598],[13.09096,57.70567],[13.08804,57.70591],[13.08297,57.70593],[13.08082,57.7062],[13.0795,57.70598],[13.07713,57.70538],[13.0738,57.70343],[13.07289,57.70183],[13.07198,57.70087],[13.06884,57.70115],[13.06461,57.70033],[13.06208,57.69904],[13.06229,57.69845],[13.05883,57.69948],[13.0571,57.70104],[13.05407,57.70249],[13.05162,57.7031],[13.0492,57.70334],[13.04531,57.70437],[13.04461,57.7059],[13.04328,57.70743],[13.04214,57.70832],[13.03931,57.70963],[13.03555,57.7104],[13.03137,57.71051],[13.02804,57.71007],[13.02463,57.71052],[13.02132,57.71048],[13.01841,57.71066],[13.01461,57.71024],[13.01236,57.70955],[13.01092,57.70885],[13.00945,57.70771],[13.00852,57.70648],[13.00662,57.70595],[13.00501,57.70526],[13.00372,57.70443],[13.00268,57.70342],[12.99999,57.70474],[12.99756,57.70728],[12.99498,57.70876],[12.99938,57.71156],[13.0012,57.71324],[13.00597,57.71243],[13.00891,57.7123],[13.0123,57.71269],[13.0154,57.71364],[13.01808,57.71535],[13.01893,57.71641],[13.01944,57.7178],[13.02302,57.72038],[13.02426,57.72154],[13.02766,57.72289],[13.02954,57.72394],[13.03127,57.72587],[13.03154,57.72798],[13.03404,57.7293],[13.03574,57.73115],[13.0373,57.73215],[13.03919,57.73288],[13.0405,57.73365],[13.04252,57.73573],[13.04302,57.73791],[13.04217,57.73984],[13.04395,57.74158],[13.04469,57.74332],[13.04453,57.74476],[13.0437,57.74611],[13.04182,57.74759],[13.03912,57.74877],[13.03779,57.7497],[13.03626,57.75041],[13.03327,57.7512],[13.02996,57.75146],[13.02268,57.75096],[13.01881,57.7501],[13.01672,57.74915],[13.01481,57.74759],[13.00635,57.7438],[13.00357,57.74186],[13.00027,57.74205],[12.99847,57.74281],[12.99474,57.74377],[12.99073,57.74408],[12.98805,57.74387],[12.98487,57.74309],[12.98245,57.74296],[12.98007,57.74257],[12.97547,57.74319],[12.97191,57.74322],[12.96924,57.74282],[12.96669,57.74203],[12.9651,57.74276],[12.96437,57.74475],[12.96251,57.74636],[12.9669,57.74892],[12.9704,57.75157],[12.97374,57.75279],[12.97481,57.75112],[12.97631,57.74995],[12.97892,57.74868],[12.98134,57.74804],[12.984,57.74774],[12.98666,57.7478],[12.98861,57.74809],[12.99344,57.74923],[12.99509,57.7499],[12.99681,57.75099],[12.99918,57.75394],[13.00096,57.75533],[13.00166,57.75634],[13.00199,57.75748],[13.00362,57.75916],[13.00446,57.76114],[13.00535,57.76107],[13.00686,57.76061],[13.00801,57.75944],[13.01164,57.76074],[13.01625,57.76092],[13.01834,57.7628],[13.01871,57.76381],[13.04227,57.77252],[13.04599,57.77526],[13.04671,57.77629],[13.04841,57.7777],[13.04939,57.77838],[13.05004,57.77839],[13.05089,57.77967],[13.05357,57.7822],[13.05519,57.78448],[13.05477,57.78472],[13.05588,57.78549],[13.05573,57.78587],[13.05638,57.78611],[13.05723,57.78597],[13.0577,57.78613],[13.05918,57.78614],[13.06171,57.78686],[13.06217,57.78784],[13.06379,57.78878],[13.0645,57.78897],[13.06468,57.78971],[13.06556,57.79012],[13.06518,57.7907],[13.06613,57.79084],[13.06663,57.79117],[13.06642,57.79198],[13.06764,57.79314],[13.06732,57.7937],[13.06818,57.79395],[13.06836,57.79425],[13.06851,57.795],[13.06809,57.7956],[13.0685,57.79623],[13.07002,57.79695],[13.07109,57.7978],[13.07187,57.79896],[13.07211,57.79894],[13.07223,57.7981],[13.07374,57.79845],[13.07188,57.79954],[13.07331,57.802],[13.07345,57.80303],[13.0704,57.80293],[13.07056,57.80355],[13.07166,57.80383],[13.07138,57.80417],[13.07339,57.80471],[13.07335,57.80441],[13.07374,57.8043],[13.07446,57.80451],[13.07539,57.80429],[13.0757,57.80503],[13.07624,57.80516],[13.07695,57.80469],[13.07739,57.80507],[13.07782,57.80509],[13.07789,57.8049],[13.07846,57.80488],[13.07914,57.80449],[13.0796,57.80554],[13.08062,57.8057],[13.08142,57.80545],[13.0823,57.80649],[13.08467,57.80672],[13.08481,57.80758],[13.08649,57.80832],[13.08704,57.80905],[13.08668,57.80941],[13.08669,57.8102],[13.08576,57.81103],[13.09217,57.81225],[13.09461,57.81222],[13.1,57.81253],[13.10796,57.81441],[13.11022,57.8148],[13.12197,57.81561],[13.12581,57.81537],[13.13476,57.82146]]]}},{"type":"Feature","id":"1490R031","properties":{"code":"1490R031","name":"Salängen"},"geometry":{"type":"Polygon","coordinates":[[[12.95881,57.72767],[12.96043,57.72692],[12.95815,57.72537],[12.95941,57.72286],[12.95777,57.72263],[12.95409,57.72254],[12.95295,57.72223],[12.95011,57.72095],[12.94509,57.72004],[12.94346,57.72255],[12.95131,57.72411],[12.95294,57.72498],[12.95413,57.72623],[12.95581,57.72621],[12.95786,57.7277],[12.95881,57.72767]]]}},{"type":"Feature","id":"1490R032","properties":{"code":"1490R032","name":"Sandared"},"geometry":{"type":"Polygon","coordinates":[[[12.8054,57.72422],[12.80714,57.72338],[12.81041,57.72497],[12.8111,57.72316],[12.8105,57.72269],[12.81123,57.72155],[12.81147,57.71977],[12.81101,57.71837],[12.80418,57.71716],[12.80391,57.71675],[12.80756,57.71575],[12.81263,57.71549],[12.81208,57.7117],[12.81361,57.70976],[12.81439,57.70938],[12.81595,57.70769],[12.81688,57.70713],[12.80751,57.70337],[12.79478,57.69919],[12.79198,57.69694],[12.78948,57.69635],[12.78527,57.69906],[12.78149,57.70074],[12.76145,57.69864],[12.75033,57.70538],[12.74915,57.70753],[12.74939,57.70943],[12.75102,57.71144],[12.75188,57.71322],[12.75381,57.71489],[12.75389,57.71621],[12.75439,57.71724],[12.7573,57.72004],[12.75937,57.72114],[12.76183,57.7219],[12.76474,57.72234],[12.76767,57.72237],[12.77033,57.72202],[12.77275,57.72133],[12.77489,57.72028],[12.77652,57.71884],[12.77755,57.7212],[12.77696,57.7236],[12.77725,57.7248],[12.77791,57.72586],[12.77903,57.72692],[12.78039,57.72778],[12.78493,57.72959],[12.78735,57.73013],[12.79055,57.73032],[12.79347,57.73005],[12.79749,57.72919],[12.79964,57.72838],[12.80144,57.72725],[12.80256,57.726],[12.803,57.72492],[12.8054,57.72422]]]}},{"type":"Feature","id":"1490R033","properties":{"code":"1490R033","name":"Sjöbo centrum"},"geometry":{"type":"Polygon","coordinates":[[[12.94153,57.75291],[12.94016,57.75139],[12.94025,57.75109],[12.94094,57.75081],[12.94078,57.75048],[12.94539,57.74932],[12.94322,57.74713],[12.93919,57.74427],[12.93867,57.74305],[12.9378,57.7433],[12.93741,57.74268],[12.93746,57.74206],[12.93617,57.742],[12.93456,57.74327],[12.93378,57.74333],[12.93357,57.74571],[12.93324,57.74635],[12.93194,57.74707],[12.93261,57.74816],[12.93114,57.74847],[12.93104,57.7489],[12.93351,57.75005],[12.934,57.75088],[12.93382,57.75189],[12.9351,57.75257],[12.93661,57.75227],[12.93807,57.75387],[12.94153,57.75291]]]}},{"type":"Feature","id":"1490R034","properties":{"code":"1490R034","name":"Sjöbo norra"},"geometry":{"type":"Polygon","coordinates":[[[12.94427,57.75737],[12.94723,57.75628],[12.9486,57.75723],[12.95151,57.75622],[12.94779,57.75315],[12.94632,57.75064],[12.94524,57.74936],[12.94078,57.75048],[12.94094,57.75081],[12.94025,57.75109],[12.94016,57.75139],[12.94153,57.75291],[12.93807,57.75387],[12.93648,57.75221],[12.9351,57.75257],[12.93544,57.75333],[12.93299,57.75359],[12.93304,57.75406],[12.93445,57.75491],[12.9364,57.75523],[12.93743,57.75578],[12.93895,57.75566],[12.94025,57.75598],[12.94128,57.75566],[12.94326,57.75648],[12.94427,57.75737]]]}},{"type":"Feature","id":"1490R035","properties":{"code":"1490R035","name":"Sjöbo-Johannelund"},"geometry":{"type":"Polygon","coordinates":[[[12.94681,57.75141],[12.94864,57.75111],[12.94859,57.75062],[12.95234,57.7499],[12.95299,57.74938],[12.95081,57.74853],[12.94932,57.74895],[12.94668,57.7452],[12.94533,57.74376],[12.93936,57.74184],[12.93746,57.74206],[12.93741,57.74268],[12.9378,57.7433],[12.93867,57.74305],[12.93919,57.74427],[12.94322,57.74713],[12.94539,57.74932],[12.94681,57.75141]]]}},{"type":"Feature","id":"1490R036","properties":{"code":"1490R036","name":"Sjömarken-Lundaskog"},"geometry":{"type":"Polygon","coordinates":[[[12.83301,57.73406],[12.84541,57.73196],[12.84723,57.7314],[12.84925,57.73041],[12.85081,57.72912],[12.8516,57.72797],[12.85194,57.72652],[12.85169,57.72532],[12.85246,57.72464],[12.85246,57.72487],[12.85304,57.7238],[12.85235,57.72357],[12.85479,57.72177],[12.85709,57.72158],[12.86813,57.7222],[12.86954,57.72212],[12.87013,57.72189],[12.87147,57.72049],[12.87288,57.72044],[12.87387,57.72083],[12.87562,57.71947],[12.87731,57.71968],[12.87826,57.71957],[12.87914,57.72014],[12.88226,57.71867],[12.88325,57.71746],[12.88156,57.71737],[12.87607,57.71659],[12.87274,57.71574],[12.86711,57.71532],[12.86525,57.71489],[12.86164,57.71361],[12.85963,57.71321],[12.85823,57.71318],[12.85804,57.71162],[12.85846,57.71097],[12.85299,57.7106],[12.84988,57.71006],[12.84707,57.70927],[12.844,57.70803],[12.8368,57.70412],[12.83501,57.70661],[12.827,57.70969],[12.82009,57.70842],[12.81688,57.70713],[12.81595,57.70769],[12.81439,57.70938],[12.81361,57.70976],[12.81208,57.7117],[12.81263,57.71549],[12.80756,57.71575],[12.80391,57.71675],[12.80418,57.71716],[12.81101,57.71837],[12.81147,57.71977],[12.81123,57.72155],[12.8105,57.72269],[12.8111,57.72316],[12.81035,57.72576],[12.81061,57.72683],[12.81218,57.72954],[12.81342,57.73083],[12.81519,57.73188],[12.8174,57.73267],[12.81933,57.73307],[12.82196,57.73327],[12.82414,57.73317],[12.82701,57.73391],[12.83031,57.73423],[12.83301,57.73406]]]}},{"type":"Feature","id":"1490R037","properties":{"code":"1490R037","name":"Sparsör öst"},"geometry":{"type":"Polygon","coordinates":[[[13.03934,57.81671],[13.03917,57.81428],[13.03748,57.81238],[13.03648,57.81041],[13.03507,57.80924],[13.03219,57.80786],[13.03538,57.80738],[13.03816,57.80638],[13.04077,57.80463],[13.04194,57.80332],[13.04244,57.8019],[13.04226,57.80048],[13.04141,57.79911],[13.04035,57.79818],[13.04141,57.79696],[13.04258,57.79468],[13.04271,57.79298],[13.04196,57.79124],[13.04066,57.79],[13.03878,57.78896],[13.03652,57.78811],[13.03159,57.78707],[13.02945,57.7854],[13.02627,57.7842],[13.02379,57.78379],[13.02184,57.78371],[13.01632,57.78401],[13.01351,57.78443],[13.01195,57.78487],[13.01614,57.78735],[13.01469,57.78812],[13.01461,57.79031],[13.0156,57.79099],[13.0158,57.79296],[13.01498,57.79378],[13.0157,57.79378],[13.0142,57.79497],[13.01224,57.79561],[13.0115,57.79518],[13.01089,57.7953],[13.00983,57.79612],[13.01107,57.79861],[13.01141,57.80115],[13.0125,57.80139],[13.01274,57.80167],[13.01403,57.80175],[13.01567,57.80295],[13.01631,57.8037],[13.01681,57.80544],[13.01766,57.80605],[13.01969,57.80638],[13.02334,57.80773],[13.02225,57.80957],[13.02219,57.81034],[13.02258,57.81209],[13.02439,57.81336],[13.02834,57.81289],[13.02923,57.81334],[13.03148,57.81207],[13.03204,57.81314],[13.03297,57.81318],[13.03301,57.81343],[13.03468,57.81333],[13.03741,57.81483],[13.0375,57.81527],[13.03645,57.81617],[13.03934,57.81671]]]}},{"type":"Feature","id":"1490R038","properties":{"code":"1490R038","name":"Stadskärnan-Druvefors"},"geometry":{"type":"Polygon","coordinates":[[[12.93885,57.72475],[12.93956,57.72482],[12.9443,57.71761],[12.94351,57.71741],[12.94507,57.71496],[12.94628,57.71442],[12.9482,57.713],[12.94796,57.71209],[12.94751,57.71201],[12.94698,57.71139],[12.94747,57.71006],[12.94951,57.70793],[12.94961,57.70713],[12.94935,57.70695],[12.94587,57.70901],[12.94397,57.70942],[12.94218,57.70931],[12.94076,57.70956],[12.93728,57.71083],[12.93696,57.71071],[12.93464,57.71169],[12.93449,57.71212],[12.93329,57.71281],[12.93356,57.71333],[12.93631,57.7148],[12.93616,57.71562],[12.93731,57.71625],[12.93028,57.71781],[12.92823,57.71812],[12.92878,57.71879],[12.93197,57.71968],[12.9303,57.72075],[12.93544,57.72334],[12.93647,57.72338],[12.93765,57.7232],[12.93744,57.72383],[12.93843,57.725],[12.93885,57.72475]]]}},{"type":"Feature","id":"1490R039","properties":{"code":"1490R039","name":"Svaneholm"},"geometry":{"type":"Polygon","coordinates":[[[12.84189,57.63122],[12.84035,57.62881],[12.83909,57.6283],[12.83872,57.62842],[12.83473,57.62624],[12.83285,57.62478],[12.82996,57.62336],[12.83037,57.62305],[12.83153,57.62352],[12.833,57.62349],[12.83205,57.62261],[12.82967,57.62162],[12.82836,57.62141],[12.83351,57.619],[12.83152,57.61616],[12.8289,57.6114],[12.82707,57.612],[12.82441,57.61039],[12.82259,57.60965],[12.81768,57.6083],[12.81412,57.60793],[12.81495,57.60609],[12.81446,57.60403],[12.81299,57.6025],[12.81022,57.60087],[12.80693,57.59977],[12.80505,57.5995],[12.80284,57.59942],[12.79604,57.59698],[12.7923,57.59635],[12.78906,57.59643],[12.78514,57.5973],[12.78073,57.59774],[12.77824,57.5984],[12.77632,57.59929],[12.77479,57.60047],[12.77391,57.60176],[12.77364,57.6032],[12.77407,57.60469],[12.77628,57.60733],[12.7775,57.60823],[12.77955,57.60922],[12.78143,57.61183],[12.78428,57.61378],[12.78613,57.61446],[12.788,57.61546],[12.79122,57.61655],[12.79379,57.61703],[12.79685,57.61713],[12.79856,57.6177],[12.8006,57.61809],[12.80185,57.61918],[12.80323,57.61996],[12.80874,57.62172],[12.81277,57.6239],[12.81455,57.6245],[12.81696,57.62496],[12.81873,57.62572],[12.8212,57.62637],[12.82249,57.62692],[12.82377,57.62764],[12.82624,57.62986],[12.82761,57.63073],[12.83439,57.63343],[12.83666,57.63395],[12.84189,57.63122]]]}},{"type":"Feature","id":"1490R040","properties":{"code":"1490R040","name":"Svensgärde"},"geometry":{"type":"Polygon","coordinates":[[[13.03595,57.73127],[13.03404,57.7293],[13.03154,57.72798],[13.03141,57.72621],[13.03026,57.72453],[13.02819,57.72313],[13.02426,57.72154],[13.02302,57.72038],[13.01944,57.7178],[13.01863,57.71597],[13.01689,57.71443],[13.01474,57.71337],[13.0123,57.71269],[13.00955,57.71233],[13.00668,57.71236],[13.0037,57.71675],[13.00341,57.71672],[13.00272,57.71764],[12.9964,57.7218],[12.9954,57.72325],[12.99581,57.7236],[12.99519,57.72448],[12.99804,57.72527],[12.99708,57.72599],[12.99671,57.72659],[12.99416,57.7272],[12.99193,57.73049],[12.99509,57.72992],[12.9996,57.73011],[13.00375,57.73064],[13.00538,57.73052],[13.00582,57.73042],[13.00551,57.73002],[13.00571,57.7286],[13.00514,57.7274],[13.00413,57.72707],[13.00427,57.72681],[13.01434,57.72787],[13.0145,57.72699],[13.01648,57.72608],[13.01803,57.72631],[13.01942,57.72617],[13.02142,57.72722],[13.02574,57.72776],[13.02679,57.72846],[13.02861,57.72876],[13.03595,57.73127]]]}},{"type":"Feature","id":"1490R041","properties":{"code":"1490R041","name":"Södra Öresjö"},"geometry":{"type":"Polygon","coordinates":[[[12.96802,57.77406],[12.97213,57.77182],[12.97322,57.77302],[12.97398,57.77314],[12.97536,57.77275],[12.97678,57.77118],[12.98104,57.76975],[12.98409,57.7703],[12.99162,57.76924],[12.99228,57.77002],[12.99495,57.77162],[12.99759,57.77054],[12.99612,57.76879],[12.99924,57.76743],[13.00246,57.76532],[13.00352,57.76435],[13.00446,57.76262],[13.00434,57.76072],[13.00338,57.7588],[13.00199,57.75748],[13.00166,57.75634],[13.00096,57.75533],[12.99918,57.75394],[12.99681,57.75099],[12.99402,57.74944],[12.99226,57.7489],[12.98733,57.74788],[12.98464,57.74772],[12.98196,57.74793],[12.97896,57.74867],[12.97635,57.74992],[12.97481,57.75112],[12.97374,57.75279],[12.9704,57.75157],[12.9669,57.74892],[12.96251,57.74636],[12.96297,57.74606],[12.96193,57.74625],[12.96079,57.74844],[12.95811,57.74747],[12.95677,57.74744],[12.95563,57.74776],[12.95234,57.7499],[12.94859,57.75062],[12.94864,57.75111],[12.94681,57.75141],[12.94822,57.7536],[12.95151,57.75622],[12.9486,57.75723],[12.94723,57.75628],[12.94427,57.75737],[12.94326,57.75648],[12.94128,57.75566],[12.94025,57.75598],[12.93963,57.75578],[12.93963,57.7563],[12.93644,57.75674],[12.93594,57.75694],[12.93655,57.75709],[12.9385,57.75705],[12.93889,57.75743],[12.93728,57.75815],[12.93792,57.75872],[12.94042,57.75859],[12.9412,57.75895],[12.9412,57.7597],[12.94731,57.76324],[12.94327,57.76666],[12.95479,57.76677],[12.96354,57.77235],[12.96802,57.77406]]]}},{"type":"Feature","id":"1490R042","properties":{"code":"1490R042","name":"Trandared centrum"},"geometry":{"type":"Polygon","coordinates":[[[12.9708,57.70927],[12.97092,57.70768],[12.96985,57.70749],[12.97005,57.70713],[12.96923,57.707],[12.9699,57.70623],[12.96884,57.70588],[12.9675,57.70616],[12.96713,57.7056],[12.96715,57.70467],[12.9687,57.70458],[12.96778,57.70275],[12.96636,57.70361],[12.96698,57.70446],[12.96613,57.70437],[12.96058,57.70517],[12.95516,57.70644],[12.95529,57.70683],[12.95354,57.70767],[12.95243,57.70757],[12.95199,57.70774],[12.95281,57.70835],[12.95477,57.70744],[12.95574,57.70802],[12.95672,57.70765],[12.95787,57.70849],[12.96043,57.70788],[12.96144,57.70823],[12.96393,57.70978],[12.96658,57.71075],[12.96774,57.71015],[12.97053,57.70947],[12.9708,57.70927]]]}},{"type":"Feature","id":"1490R043","properties":{"code":"1490R043","name":"Viared-Ramnaslätt-Tullen"},"geometry":{"type":"Polygon","coordinates":[[[12.87848,57.73097],[12.88068,57.73035],[12.8824,57.73131],[12.88312,57.73102],[12.88402,57.72942],[12.88565,57.72465],[12.88634,57.72393],[12.89446,57.72149],[12.89393,57.71958],[12.90145,57.72182],[12.90563,57.72353],[12.90802,57.72264],[12.90705,57.72125],[12.90652,57.72106],[12.90715,57.72051],[12.90706,57.71963],[12.90777,57.71883],[12.91009,57.71816],[12.90779,57.7162],[12.90601,57.71536],[12.90925,57.71518],[12.90901,57.71426],[12.90921,57.71357],[12.9098,57.71335],[12.91071,57.71125],[12.90409,57.7062],[12.90161,57.70637],[12.90137,57.70769],[12.89867,57.70926],[12.89423,57.7082],[12.89181,57.708],[12.88922,57.70811],[12.88683,57.70731],[12.88414,57.7068],[12.87864,57.70652],[12.87731,57.7052],[12.87523,57.70405],[12.87202,57.70298],[12.86879,57.7025],[12.86658,57.70167],[12.8648,57.70067],[12.86232,57.69984],[12.86077,57.69855],[12.85855,57.69748],[12.85736,57.69575],[12.85491,57.69413],[12.8507,57.69265],[12.84852,57.69226],[12.84613,57.6921],[12.84477,57.69153],[12.84353,57.69008],[12.8399,57.68766],[12.83823,57.68698],[12.83428,57.68587],[12.83302,57.68287],[12.83184,57.68155],[12.82874,57.67964],[12.82512,57.67849],[12.82466,57.67728],[12.82352,57.67601],[12.8179,57.67225],[12.81519,57.67128],[12.81082,57.67061],[12.80692,57.67078],[12.80359,57.67158],[12.80158,57.67252],[12.79986,57.67369],[12.79886,57.67466],[12.79814,57.67597],[12.79801,57.67704],[12.79841,57.67839],[12.8003,57.68034],[12.79901,57.68182],[12.79854,57.68336],[12.79892,57.6856],[12.79987,57.68719],[12.80011,57.68918],[12.79968,57.691],[12.79198,57.69694],[12.79478,57.69919],[12.80751,57.70337],[12.82009,57.70842],[12.827,57.70969],[12.83501,57.70661],[12.8368,57.70412],[12.844,57.70803],[12.84707,57.70927],[12.84988,57.71006],[12.85299,57.7106],[12.85846,57.71097],[12.85804,57.71162],[12.85823,57.71318],[12.85963,57.71321],[12.86164,57.71361],[12.86525,57.71489],[12.86711,57.71532],[12.87274,57.71574],[12.87607,57.71659],[12.88156,57.71737],[12.88325,57.71746],[12.88226,57.71867],[12.87914,57.72014],[12.87826,57.71957],[12.87731,57.71968],[12.87562,57.71947],[12.87387,57.72083],[12.87288,57.72044],[12.87147,57.72049],[12.87013,57.72189],[12.86954,57.72212],[12.86813,57.7222],[12.85625,57.72159],[12.85479,57.72177],[12.85235,57.72357],[12.85304,57.7238],[12.8525,57.72523],[12.85308,57.72658],[12.85393,57.72753],[12.85607,57.72891],[12.85949,57.73009],[12.86192,57.73068],[12.86446,57.73097],[12.87018,57.73083],[12.87249,57.73124],[12.87445,57.73136],[12.87848,57.73097]]]}},{"type":"Feature","id":"1490R044","properties":{"code":"1490R044","name":"Viskafors västra omland"},"geometry":{"type":"Polygon","coordinates":[[[12.89873,57.70923],[12.90137,57.70769],[12.90162,57.70634],[12.90276,57.70479],[12.90228,57.70152],[12.90291,57.69978],[12.90495,57.69796],[12.90767,57.69679],[12.90825,57.69615],[12.90886,57.69462],[12.90992,57.69336],[12.90992,57.69286],[12.90905,57.69199],[12.90874,57.69112],[12.90855,57.68947],[12.91001,57.68868],[12.91029,57.6875],[12.91156,57.68639],[12.91192,57.68574],[12.91035,57.68372],[12.90906,57.68268],[12.90815,57.68128],[12.90477,57.68072],[12.90412,57.68013],[12.90415,57.67982],[12.90547,57.67923],[12.90567,57.67834],[12.90336,57.67701],[12.90225,57.67559],[12.90043,57.67423],[12.90024,57.67332],[12.9007,57.6723],[12.89989,57.67119],[12.89944,57.66883],[12.89704,57.66963],[12.89443,57.67006],[12.89234,57.67015],[12.88726,57.66999],[12.8847,57.66962],[12.88292,57.66911],[12.87838,57.66698],[12.87591,57.66527],[12.87467,57.66401],[12.872,57.66195],[12.86964,57.65889],[12.86586,57.65619],[12.86442,57.65458],[12.86399,57.65316],[12.8643,57.65112],[12.86685,57.64791],[12.85798,57.64463],[12.85253,57.6442],[12.84878,57.64322],[12.84589,57.64183],[12.84384,57.64012],[12.84258,57.6378],[12.84297,57.63568],[12.84162,57.63489],[12.84103,57.63462],[12.83827,57.63432],[12.83495,57.63359],[12.83316,57.63299],[12.83143,57.63212],[12.82866,57.63122],[12.82662,57.63013],[12.82377,57.62764],[12.82249,57.62692],[12.8212,57.62637],[12.81873,57.62572],[12.81696,57.62496],[12.81455,57.6245],[12.81277,57.6239],[12.80874,57.62172],[12.80323,57.61996],[12.80185,57.61918],[12.8006,57.61809],[12.79856,57.6177],[12.79685,57.61713],[12.79379,57.61703],[12.79122,57.61655],[12.788,57.61546],[12.78613,57.61446],[12.78428,57.61378],[12.78176,57.61216],[12.77955,57.60922],[12.77662,57.60762],[12.77459,57.60545],[12.77392,57.60436],[12.77364,57.6032],[12.77379,57.60209],[12.77451,57.60078],[12.77583,57.59961],[12.77723,57.59881],[12.78073,57.59774],[12.78514,57.5973],[12.78844,57.59651],[12.79166,57.59632],[12.79544,57.59682],[12.79962,57.59828],[12.80041,57.59812],[12.81027,57.59849],[12.80049,57.59021],[12.79761,57.58911],[12.79364,57.58939],[12.79148,57.58882],[12.78961,57.58866],[12.78894,57.58831],[12.78788,57.58687],[12.78728,57.58548],[12.74307,57.56819],[12.73423,57.55976],[12.70927,57.56559],[12.70839,57.56531],[12.70657,57.56551],[12.70631,57.5653],[12.70637,57.56464],[12.70573,57.56441],[12.70372,57.56473],[12.70268,57.56463],[12.69868,57.56538],[12.69758,57.56519],[12.69746,57.56482],[12.6982,57.56454],[12.69735,57.56437],[12.69688,57.56435],[12.69616,57.56464],[12.69403,57.56463],[12.69212,57.566],[12.69195,57.56661],[12.69046,57.56686],[12.6902,57.56705],[12.69033,57.56734],[12.68927,57.56775],[12.68911,57.56826],[12.68598,57.56838],[12.68513,57.56795],[12.6845,57.56818],[12.68354,57.56808],[12.68331,57.56833],[12.68169,57.5686],[12.68123,57.5693],[12.68085,57.56902],[12.67995,57.56926],[12.67572,57.56878],[12.66095,57.56599],[12.65181,57.56831],[12.64243,57.57427],[12.64082,57.57642],[12.63657,57.57792],[12.63636,57.57782],[12.63556,57.57801],[12.63465,57.57884],[12.63469,57.58069],[12.63539,57.58262],[12.63752,57.58536],[12.63741,57.58657],[12.63658,57.58752],[12.63619,57.58873],[12.63434,57.59189],[12.63403,57.59475],[12.63618,57.59484],[12.63883,57.59576],[12.64059,57.59573],[12.642,57.59547],[12.64293,57.59622],[12.64319,57.59703],[12.64471,57.59902],[12.64508,57.60014],[12.6492,57.6018],[12.65181,57.60259],[12.65316,57.60278],[12.65433,57.60352],[12.65443,57.60375],[12.65339,57.60445],[12.65327,57.60478],[12.65456,57.60535],[12.65587,57.60666],[12.65598,57.60707],[12.65523,57.60746],[12.65587,57.60801],[12.65669,57.60827],[12.6568,57.60872],[12.65556,57.60947],[12.6556,57.6098],[12.6568,57.61052],[12.65738,57.61118],[12.65722,57.61193],[12.65622,57.61264],[12.65598,57.61363],[12.65475,57.61383],[12.65486,57.61422],[12.65438,57.61479],[12.65512,57.61583],[12.65539,57.61702],[12.65498,57.61741],[12.65399,57.6177],[12.65412,57.6184],[12.65603,57.61933],[12.65631,57.6201],[12.65575,57.62074],[12.65694,57.62241],[12.65729,57.62373],[12.65084,57.62897],[12.65086,57.63257],[12.65298,57.63352],[12.64535,57.6389],[12.64211,57.63501],[12.63292,57.64174],[12.66591,57.6529],[12.66739,57.65376],[12.6684,57.65408],[12.66945,57.65376],[12.67138,57.655],[12.67264,57.65514],[12.67292,57.65572],[12.67099,57.65647],[12.67202,57.65806],[12.67386,57.65917],[12.67631,57.65992],[12.68032,57.66169],[12.68085,57.66222],[12.68124,57.66185],[12.68397,57.66095],[12.68448,57.66161],[12.68439,57.66199],[12.68339,57.66249],[12.68343,57.66282],[12.68738,57.66359],[12.68859,57.66401],[12.69056,57.66416],[12.69196,57.66473],[12.6944,57.66516],[12.69581,57.66619],[12.7032,57.6687],[12.70547,57.6683],[12.70674,57.66835],[12.70826,57.66794],[12.76282,57.68612],[12.75137,57.68916],[12.75224,57.69004],[12.75494,57.69077],[12.75395,57.69647],[12.76145,57.69864],[12.78149,57.70074],[12.78527,57.69906],[12.78948,57.69635],[12.79198,57.69694],[12.79968,57.691],[12.80011,57.68918],[12.79987,57.68719],[12.79892,57.6856],[12.79854,57.68336],[12.79901,57.68182],[12.8003,57.68034],[12.79892,57.67912],[12.79813,57.67772],[12.79806,57.67631],[12.79862,57.67498],[12.80026,57.6734],[12.80202,57.67227],[12.80359,57.67158],[12.80754,57.6707],[12.81145,57.67066],[12.81519,57.67128],[12.81836,57.67249],[12.82352,57.67601],[12.82466,57.67728],[12.82512,57.67849],[12.82874,57.67964],[12.83184,57.68155],[12.83302,57.68287],[12.83428,57.68587],[12.83823,57.68698],[12.8399,57.68766],[12.84353,57.69008],[12.84477,57.69153],[12.84613,57.6921],[12.84852,57.69226],[12.8507,57.69265],[12.85506,57.6942],[12.85736,57.69575],[12.85855,57.69748],[12.86077,57.69855],[12.86232,57.69984],[12.8648,57.70067],[12.86658,57.70167],[12.86879,57.7025],[12.87202,57.70298],[12.87523,57.70405],[12.87731,57.7052],[12.87864,57.70652],[12.88414,57.7068],[12.88683,57.70731],[12.88922,57.70811],[12.89181,57.708],[12.89389,57.70816],[12.89873,57.70923]]]}},{"type":"Feature","id":"1490R045","properties":{"code":"1490R045","name":"Viskafors östra omland"},"geometry":{"type":"Polygon","coordinates":[[[13.00268,57.70342],[13.00211,57.70247],[13.00146,57.70014],[13.00205,57.69762],[13.0031,57.69632],[13.00477,57.69518],[13.00688,57.69432],[13.00976,57.69357],[13.00905,57.69231],[13.00929,57.69103],[13.00758,57.68981],[13.00647,57.68737],[13.006,57.68717],[13.00317,57.68292],[13.00136,57.6793],[12.99748,57.67717],[12.99629,57.67552],[12.993,57.67405],[12.99085,57.67255],[12.99041,57.67273],[12.98899,57.67229],[12.98821,57.6718],[12.9882,57.67141],[12.98894,57.67085],[12.98819,57.67085],[12.98787,57.67029],[12.98323,57.66823],[12.98284,57.6683],[12.98139,57.66786],[12.98092,57.66732],[12.98097,57.66662],[12.98004,57.66627],[12.97958,57.66571],[12.9777,57.66476],[12.97696,57.66414],[12.98053,57.66316],[12.9817,57.66339],[12.9867,57.66317],[12.98784,57.66286],[12.98981,57.66268],[12.99258,57.66194],[12.99526,57.66188],[12.99594,57.66116],[12.99785,57.66103],[12.99974,57.65968],[13.00143,57.6593],[13.00411,57.65901],[13.00413,57.65864],[13.00295,57.65848],[13.00254,57.65784],[13.00133,57.65732],[13.00115,57.65656],[13.00136,57.65641],[13.00103,57.65607],[13.00364,57.65585],[13.00597,57.64642],[13.00651,57.64284],[13.00646,57.63981],[13.00465,57.63785],[13.00456,57.63738],[13.00528,57.63633],[13.00031,57.62834],[13.00228,57.62824],[13.00244,57.62789],[13.00206,57.62774],[13.00194,57.62716],[13.00141,57.6266],[13.00131,57.62571],[12.99919,57.62318],[12.99582,57.62155],[12.98099,57.59908],[12.97431,57.58843],[12.96352,57.58172],[12.96313,57.57887],[12.95891,57.57492],[12.95441,57.57493],[12.94769,57.57328],[12.9434,57.57056],[12.92872,57.56349],[12.92633,57.56407],[12.92082,57.56329],[12.91906,57.56338],[12.92028,57.56642],[12.91981,57.56835],[12.92058,57.56951],[12.91997,57.57303],[12.91654,57.57462],[12.91315,57.57246],[12.90927,57.56908],[12.90424,57.56578],[12.90291,57.56405],[12.89984,57.56473],[12.88307,57.55846],[12.87921,57.55649],[12.88062,57.55565],[12.87823,57.5546],[12.87752,57.55489],[12.87564,57.55511],[12.8698,57.55674],[12.86888,57.55596],[12.86818,57.5569],[12.86627,57.55713],[12.86502,57.55771],[12.86464,57.558],[12.86638,57.55877],[12.85386,57.56715],[12.85405,57.56784],[12.85496,57.56847],[12.85478,57.56905],[12.85531,57.57025],[12.85503,57.57054],[12.85381,57.57116],[12.85186,57.57008],[12.85034,57.57184],[12.84943,57.57143],[12.84896,57.57087],[12.84692,57.57119],[12.84656,57.5711],[12.84657,57.57078],[12.84627,57.57064],[12.84437,57.57124],[12.84351,57.57129],[12.84413,57.57146],[12.84511,57.57142],[12.84539,57.57159],[12.84004,57.57478],[12.8125,57.58824],[12.80147,57.59107],[12.81027,57.59849],[12.80041,57.59812],[12.79962,57.59828],[12.80284,57.59942],[12.80571,57.59957],[12.80812,57.60007],[12.81022,57.60087],[12.81257,57.60221],[12.81398,57.60339],[12.81489,57.60505],[12.81489,57.60643],[12.81412,57.60793],[12.81768,57.6083],[12.82259,57.60965],[12.82441,57.61039],[12.82707,57.612],[12.8295,57.61125],[12.83248,57.61084],[12.83469,57.61018],[12.83732,57.60979],[12.84412,57.60995],[12.84677,57.61029],[12.85033,57.61147],[12.85263,57.61302],[12.85378,57.61471],[12.85393,57.61682],[12.85919,57.61765],[12.86299,57.61626],[12.86914,57.61519],[12.87354,57.61321],[12.87073,57.61239],[12.86885,57.6114],[12.86773,57.61047],[12.86605,57.60839],[12.86563,57.60699],[12.86612,57.6051],[12.86578,57.60298],[12.86618,57.60188],[12.86699,57.60082],[12.86659,57.60044],[12.86335,57.59953],[12.85993,57.59808],[12.85857,57.59722],[12.85723,57.59584],[12.85664,57.59441],[12.85664,57.59329],[12.85752,57.59081],[12.85877,57.58928],[12.86224,57.58714],[12.86511,57.58618],[12.86784,57.58577],[12.87125,57.5858],[12.87386,57.58541],[12.87614,57.58535],[12.87897,57.58563],[12.88199,57.58643],[12.88412,57.58749],[12.88558,57.58872],[12.89069,57.59061],[12.89237,57.59168],[12.89364,57.5932],[12.89635,57.5942],[12.89837,57.59557],[12.89963,57.59736],[12.89975,57.59932],[12.89907,57.60074],[12.89775,57.60202],[12.89491,57.60363],[12.89272,57.60447],[12.89164,57.6054],[12.89033,57.60688],[12.88982,57.60901],[12.88836,57.61064],[12.88663,57.61175],[12.88459,57.61254],[12.88665,57.61314],[12.88824,57.61388],[12.89051,57.61575],[12.89129,57.6176],[12.89085,57.61961],[12.8924,57.62166],[12.89252,57.62359],[12.8912,57.62572],[12.88999,57.62666],[12.88757,57.62801],[12.88681,57.62918],[12.88577,57.6301],[12.88395,57.63113],[12.88059,57.6324],[12.88068,57.63413],[12.87995,57.63558],[12.88159,57.63642],[12.88387,57.63818],[12.88501,57.64022],[12.88517,57.64173],[12.88746,57.64261],[12.88906,57.64361],[12.89535,57.64566],[12.89961,57.64773],[12.90152,57.64921],[12.90309,57.65151],[12.90337,57.65369],[12.90222,57.65565],[12.90318,57.65695],[12.90349,57.65865],[12.90236,57.6612],[12.90331,57.66334],[12.90347,57.6647],[12.90299,57.66604],[12.90217,57.66708],[12.90099,57.66801],[12.89944,57.66883],[12.89989,57.67119],[12.9007,57.6723],[12.9002,57.67365],[12.90072,57.67454],[12.90225,57.67559],[12.90336,57.67701],[12.90567,57.67834],[12.90547,57.67923],[12.90405,57.67992],[12.90453,57.68059],[12.90815,57.68128],[12.90906,57.68268],[12.91035,57.68372],[12.9119,57.68554],[12.91156,57.68639],[12.91029,57.6875],[12.91001,57.68868],[12.90855,57.68947],[12.90874,57.69112],[12.90905,57.69199],[12.90992,57.69286],[12.90992,57.69336],[12.91547,57.68966],[12.91773,57.68886],[12.92087,57.68833],[12.92426,57.68836],[12.92884,57.68919],[12.93057,57.6898],[12.93227,57.69074],[12.93439,57.69145],[12.93614,57.69239],[12.93859,57.69186],[12.94084,57.69161],[12.94343,57.69047],[12.94581,57.68984],[12.94845,57.68954],[12.95115,57.68961],[12.9531,57.6899],[12.95531,57.69052],[12.95924,57.6909],[12.96234,57.69185],[12.96394,57.69269],[12.96542,57.69392],[12.96615,57.69498],[12.9665,57.69644],[12.96972,57.69724],[12.97415,57.69612],[12.97764,57.69579],[12.98053,57.6959],[12.98292,57.69628],[12.98584,57.69614],[12.99106,57.69649],[12.99427,57.69708],[12.99735,57.69841],[12.99911,57.69996],[13.00035,57.7024],[13.00041,57.70348],[12.99999,57.70474],[13.00268,57.70342]]]}},{"type":"Feature","id":"1490R046","properties":{"code":"1490R046","name":"Äspered"},"geometry":{"type":"Polygon","coordinates":[[[13.18842,57.78813],[13.18794,57.78754],[13.18759,57.78728],[13.18711,57.78667],[13.18665,57.78627],[13.1865,57.78615],[13.18542,57.78595],[13.18533,57.78589],[13.18521,57.78584],[13.18494,57.7856],[13.18484,57.78554],[13.18448,57.78539],[13.18406,57.78528],[13.18283,57.78512],[13.18198,57.78485],[13.17793,57.78071],[13.21483,57.77859],[13.21569,57.77954],[13.21674,57.77997],[13.22306,57.78027],[13.22462,57.77973],[13.2266,57.7787],[13.22693,57.77712],[13.22925,57.7755],[13.23022,57.7743],[13.23082,57.77399],[13.24762,57.77311],[13.24393,57.75224],[13.24987,57.74855],[13.24072,57.74669],[13.23865,57.74507],[13.23308,57.74206],[13.23204,57.73788],[13.23016,57.73751],[13.22719,57.73932],[13.22251,57.73657],[13.23687,57.72987],[13.21252,57.71637],[13.21505,57.71623],[13.21629,57.71586],[13.21722,57.71497],[13.21665,57.71462],[13.21292,57.71486],[13.21206,57.71452],[13.2116,57.71453],[13.20972,57.71482],[13.20638,57.7129],[13.20691,57.71278],[13.20683,57.71228],[13.20525,57.71202],[13.20364,57.71222],[13.20294,57.71209],[13.20256,57.71177],[13.20246,57.71297],[13.20191,57.71307],[13.20187,57.71335],[13.16618,57.73223],[13.1652,57.73191],[13.16204,57.73731],[13.15898,57.73829],[13.15753,57.73938],[13.15803,57.73967],[13.15902,57.74101],[13.15924,57.74204],[13.15902,57.74311],[13.15589,57.74445],[13.15425,57.74602],[13.15319,57.74588],[13.15212,57.74617],[13.1511,57.74614],[13.14402,57.74715],[13.14349,57.74698],[13.14128,57.74728],[13.14081,57.74586],[13.13872,57.74477],[13.13488,57.74566],[13.13287,57.74562],[13.13127,57.74704],[13.13023,57.74891],[13.12949,57.75088],[13.12956,57.75184],[13.12582,57.75275],[13.12595,57.75387],[13.12746,57.75384],[13.13003,57.75444],[13.13311,57.75571],[13.13854,57.76064],[13.13991,57.75939],[13.1431,57.75777],[13.14972,57.75918],[13.15168,57.76205],[13.14481,57.76638],[13.14725,57.76682],[13.15164,57.76965],[13.15267,57.77292],[13.14287,57.77511],[13.14307,57.77679],[13.15911,57.778],[13.1659,57.77501],[13.1739,57.77401],[13.17793,57.78072],[13.18199,57.78485],[13.18283,57.78512],[13.18448,57.7854],[13.18484,57.78555],[13.18521,57.78585],[13.18543,57.78596],[13.1865,57.78616],[13.18711,57.78667],[13.1876,57.78729],[13.18842,57.78813]]]}},{"type":"Feature","id":"1490R047","properties":{"code":"1490R047","name":"Östermalm"},"geometry":{"type":"Polygon","coordinates":[[[12.9621,57.72753],[12.96697,57.72665],[12.96721,57.72456],[12.96758,57.72392],[12.96737,57.7233],[12.96805,57.72234],[12.96867,57.72222],[12.97022,57.72027],[12.96204,57.71735],[12.96004,57.71706],[12.95682,57.71693],[12.9562,57.71821],[12.95696,57.71882],[12.95718,57.71947],[12.95562,57.72174],[12.95563,57.72265],[12.95777,57.72263],[12.95941,57.72286],[12.95815,57.72537],[12.96112,57.72725],[12.9621,57.72753]]]}}]}