{"type":"FeatureCollection","features":[{"type":"Feature","id":"1491R001","properties":{"code":"1491R001","name":"Fotåsen-Brunn"},"geometry":{"type":"Polygon","coordinates":[[[13.40513,57.81796],[13.40846,57.81768],[13.41263,57.81671],[13.41576,57.81634],[13.4198,57.81527],[13.42013,57.81236],[13.42091,57.81086],[13.42119,57.80924],[13.42042,57.80452],[13.41966,57.80218],[13.41879,57.80066],[13.4169,57.79821],[13.41522,57.79682],[13.41537,57.79637],[13.41363,57.79611],[13.41336,57.79576],[13.41163,57.79614],[13.40993,57.79614],[13.40756,57.79486],[13.40244,57.79427],[13.4016,57.79334],[13.39592,57.79057],[13.39226,57.79041],[13.38767,57.79084],[13.38446,57.7918],[13.38225,57.79306],[13.38087,57.79463],[13.38011,57.79682],[13.37991,57.7987],[13.38043,57.80047],[13.38154,57.80179],[13.38337,57.80298],[13.38236,57.80411],[13.38178,57.80554],[13.38169,57.80725],[13.3823,57.80864],[13.38392,57.81016],[13.38634,57.81133],[13.38867,57.81193],[13.39376,57.81269],[13.39435,57.81393],[13.39544,57.8151],[13.39815,57.8167],[13.40176,57.81766],[13.40513,57.81796]]]}},{"type":"Feature","id":"1491R002","properties":{"code":"1491R002","name":"Fredriksberg"},"geometry":{"type":"Polygon","coordinates":[[[13.41693,57.78521],[13.41518,57.78199],[13.41507,57.78099],[13.41658,57.78144],[13.41807,57.78231],[13.41896,57.78236],[13.42025,57.78087],[13.4219,57.78122],[13.42561,57.77773],[13.4265,57.77727],[13.43289,57.77485],[13.43634,57.77296],[13.44415,57.77052],[13.44241,57.7701],[13.43953,57.76878],[13.4364,57.7681],[13.43285,57.76797],[13.42901,57.76855],[13.4271,57.76693],[13.42559,57.76498],[13.42413,57.76389],[13.42217,57.76294],[13.41912,57.76215],[13.41581,57.76191],[13.41253,57.76223],[13.40987,57.76293],[13.40844,57.76092],[13.4072,57.76142],[13.4061,57.76267],[13.40538,57.76406],[13.40455,57.77118],[13.40644,57.77162],[13.40752,57.77283],[13.41032,57.77398],[13.4108,57.77444],[13.4117,57.7779],[13.41287,57.77884],[13.41441,57.7794],[13.41273,57.78102],[13.41103,57.78111],[13.41141,57.78186],[13.40998,57.78193],[13.41064,57.78288],[13.41136,57.78291],[13.41167,57.78367],[13.41092,57.78464],[13.41281,57.78514],[13.41453,57.78526],[13.4167,57.78573],[13.41693,57.78521]]]}},{"type":"Feature","id":"1491R003","properties":{"code":"1491R003","name":"Gällstad"},"geometry":{"type":"Polygon","coordinates":[[[13.42901,57.76855],[13.43158,57.76807],[13.43431,57.76795],[13.4364,57.7681],[13.43883,57.76858],[13.44839,57.76704],[13.44783,57.76645],[13.44762,57.76515],[13.44607,57.76393],[13.44899,57.76261],[13.44946,57.7628],[13.44909,57.76298],[13.44972,57.76355],[13.45031,57.76339],[13.4504,57.76316],[13.45647,57.76398],[13.46064,57.76279],[13.46232,57.76388],[13.47368,57.76131],[13.47369,57.76085],[13.47775,57.7595],[13.47872,57.75965],[13.49577,57.75458],[13.4962,57.75405],[13.49616,57.75341],[13.49525,57.75198],[13.49647,57.75163],[13.49867,57.75056],[13.50127,57.75052],[13.50354,57.75009],[13.50459,57.75037],[13.50677,57.75058],[13.5078,57.75105],[13.51864,57.74756],[13.52005,57.74729],[13.5227,57.74718],[13.52686,57.74308],[13.5275,57.74296],[13.52807,57.74258],[13.52907,57.74267],[13.52955,57.74237],[13.53013,57.74234],[13.53052,57.74255],[13.56116,57.73852],[13.57396,57.7296],[13.58416,57.72323],[13.59249,57.71864],[13.59253,57.7191],[13.59299,57.71906],[13.59341,57.7186],[13.59319,57.71825],[13.60266,57.71308],[13.60481,57.71297],[13.60585,57.71336],[13.60644,57.71321],[13.60657,57.71284],[13.61119,57.71235],[13.68784,57.70637],[13.6942,57.70574],[13.72249,57.69169],[13.72347,57.68185],[13.71529,57.68082],[13.70364,57.67883],[13.70336,57.67821],[13.70407,57.67768],[13.70702,57.67662],[13.70751,57.67554],[13.70818,57.67499],[13.70773,57.67257],[13.70727,57.67219],[13.70541,57.67273],[13.69474,57.67152],[13.69006,57.67258],[13.68487,57.67534],[13.68006,57.67495],[13.67067,57.67614],[13.65772,57.66598],[13.65612,57.66569],[13.64388,57.66025],[13.6365,57.6563],[13.6277,57.65099],[13.61696,57.64577],[13.59826,57.64464],[13.58838,57.64461],[13.58285,57.64592],[13.58262,57.64685],[13.58413,57.64832],[13.58607,57.64956],[13.58451,57.65002],[13.58368,57.64865],[13.58166,57.64826],[13.58153,57.64695],[13.58058,57.64614],[13.57741,57.64775],[13.5764,57.64939],[13.57594,57.6512],[13.57658,57.6542],[13.53877,57.6698],[13.53726,57.67087],[13.53709,57.67183],[13.53511,57.67278],[13.53504,57.67322],[13.51489,57.65618],[13.50371,57.64821],[13.49127,57.64121],[13.48119,57.62791],[13.48087,57.62793],[13.48007,57.6273],[13.47935,57.6256],[13.47637,57.62222],[13.47444,57.62044],[13.47397,57.62065],[13.47222,57.61991],[13.46927,57.61977],[13.46889,57.61933],[13.46826,57.61954],[13.46245,57.61608],[13.45664,57.61392],[13.45364,57.61468],[13.44143,57.61077],[13.43946,57.61079],[13.43776,57.61126],[13.42258,57.61645],[13.41314,57.61605],[13.41303,57.61592],[13.41305,57.618],[13.41333,57.61816],[13.41394,57.61794],[13.4151,57.61821],[13.41422,57.61888],[13.41515,57.61903],[13.41556,57.61929],[13.41956,57.62471],[13.41959,57.62777],[13.41688,57.62994],[13.42007,57.63197],[13.42559,57.6315],[13.42713,57.63396],[13.42269,57.63588],[13.42474,57.63715],[13.42489,57.63941],[13.4285,57.64111],[13.42784,57.6426],[13.4289,57.6443],[13.42522,57.64506],[13.41651,57.66438],[13.41338,57.66572],[13.41357,57.66779],[13.41431,57.66852],[13.41534,57.66903],[13.41153,57.67053],[13.41377,57.67582],[13.41534,57.67748],[13.41652,57.67854],[13.41955,57.68058],[13.42154,57.68261],[13.42491,57.68178],[13.42827,57.68659],[13.42602,57.68727],[13.42653,57.68906],[13.42896,57.69065],[13.42942,57.69067],[13.43113,57.69283],[13.43097,57.6936],[13.4306,57.69382],[13.42757,57.69427],[13.42748,57.69467],[13.42418,57.69455],[13.42367,57.6955],[13.42394,57.69652],[13.42431,57.69735],[13.42728,57.69866],[13.42822,57.69882],[13.42845,57.69871],[13.43084,57.70052],[13.43103,57.70117],[13.43346,57.70104],[13.43387,57.7015],[13.43519,57.70465],[13.43362,57.70487],[13.43622,57.7117],[13.43379,57.712],[13.43358,57.71163],[13.4325,57.71182],[13.43328,57.71528],[13.43216,57.71501],[13.42593,57.71457],[13.41978,57.71287],[13.40073,57.70875],[13.39285,57.70726],[13.38282,57.70799],[13.3835,57.72572],[13.38811,57.73173],[13.38838,57.73832],[13.38318,57.74263],[13.38282,57.74651],[13.38381,57.74998],[13.38904,57.76255],[13.39072,57.76049],[13.39241,57.75946],[13.39397,57.75886],[13.39571,57.75843],[13.39821,57.75814],[13.40238,57.75838],[13.40485,57.75897],[13.40736,57.76011],[13.40885,57.76132],[13.40987,57.76293],[13.41253,57.76223],[13.41581,57.76191],[13.41912,57.76215],[13.42217,57.76294],[13.4237,57.76364],[13.4251,57.76458],[13.42625,57.7656],[13.4271,57.76693],[13.42901,57.76855]]]}},{"type":"Feature","id":"1491R004","properties":{"code":"1491R004","name":"Hester-Karlslätt-Höghult"},"geometry":{"type":"Polygon","coordinates":[[[13.4198,57.81527],[13.42759,57.81209],[13.4314,57.81261],[13.43472,57.8125],[13.4402,57.81187],[13.44369,57.81094],[13.4468,57.81067],[13.44922,57.81007],[13.45221,57.80856],[13.45516,57.8075],[13.45737,57.80622],[13.45887,57.80463],[13.45996,57.80168],[13.46015,57.80057],[13.45991,57.79917],[13.45906,57.79783],[13.45798,57.79688],[13.45662,57.79609],[13.45318,57.7946],[13.44893,57.79352],[13.44732,57.79162],[13.44244,57.78905],[13.44198,57.78866],[13.44184,57.78787],[13.44132,57.78721],[13.43937,57.78626],[13.43778,57.786],[13.43689,57.78539],[13.43624,57.78523],[13.43314,57.78521],[13.43236,57.78541],[13.4319,57.78581],[13.43145,57.7871],[13.43032,57.78782],[13.42935,57.78815],[13.42973,57.78901],[13.42951,57.79036],[13.43015,57.79068],[13.43041,57.79165],[13.42835,57.79267],[13.42503,57.79286],[13.4246,57.7935],[13.42381,57.79347],[13.42364,57.79256],[13.41893,57.79279],[13.41607,57.79323],[13.41722,57.79536],[13.41553,57.79527],[13.41522,57.79682],[13.4169,57.79821],[13.41804,57.79954],[13.41966,57.80218],[13.42042,57.80452],[13.42118,57.80983],[13.42013,57.81236],[13.4198,57.81527]]]}},{"type":"Feature","id":"1491R005","properties":{"code":"1491R005","name":"Hökerum-Tvärred-Vegby"},"geometry":{"type":"Polygon","coordinates":[[[13.22044,57.91084],[13.23695,57.90338],[13.2427,57.90014],[13.25043,57.88799],[13.25322,57.88185],[13.25904,57.87929],[13.25968,57.87925],[13.26204,57.87833],[13.26391,57.87783],[13.26785,57.8789],[13.26751,57.87707],[13.26664,57.87531],[13.26615,57.875],[13.26637,57.87473],[13.26609,57.87436],[13.26646,57.87388],[13.26617,57.8735],[13.26616,57.87226],[13.26496,57.87127],[13.26605,57.86949],[13.26693,57.86951],[13.26906,57.87028],[13.27146,57.86519],[13.27453,57.86278],[13.2772,57.86255],[13.28084,57.86273],[13.30038,57.86188],[13.30411,57.8596],[13.31102,57.86021],[13.31131,57.85996],[13.31117,57.85944],[13.31181,57.85856],[13.31288,57.85871],[13.31546,57.86083],[13.32417,57.86124],[13.33529,57.86269],[13.34262,57.86179],[13.34644,57.8611],[13.35397,57.86103],[13.35498,57.85997],[13.34912,57.84965],[13.34892,57.84523],[13.34789,57.84093],[13.34748,57.83355],[13.34929,57.82758],[13.35121,57.82634],[13.35055,57.82543],[13.3514,57.82177],[13.34722,57.82163],[13.34088,57.82329],[13.3373,57.82047],[13.36169,57.81555],[13.39075,57.81225],[13.38807,57.81181],[13.38578,57.81112],[13.38392,57.81016],[13.38257,57.80898],[13.38178,57.80759],[13.38168,57.80621],[13.38216,57.80444],[13.38337,57.80298],[13.38189,57.80208],[13.38089,57.80114],[13.38025,57.80012],[13.37991,57.7987],[13.38011,57.79682],[13.38087,57.79463],[13.38189,57.79336],[13.3835,57.79225],[13.38588,57.79129],[13.38831,57.79073],[13.3929,57.79039],[13.39592,57.79057],[13.39401,57.78809],[13.39341,57.78673],[13.39378,57.78419],[13.39366,57.78207],[13.39329,57.78075],[13.39345,57.77953],[13.39275,57.77805],[13.39262,57.77469],[13.39101,57.77392],[13.38985,57.7731],[13.38811,57.77141],[13.38737,57.7701],[13.387,57.76845],[13.3871,57.76599],[13.38745,57.76498],[13.38904,57.76255],[13.38381,57.74998],[13.38282,57.74651],[13.38318,57.74263],[13.38838,57.73832],[13.38811,57.73173],[13.3835,57.72572],[13.38282,57.70799],[13.39285,57.70726],[13.40073,57.70875],[13.41978,57.71287],[13.42593,57.71457],[13.43216,57.71501],[13.43328,57.71528],[13.4325,57.71182],[13.43358,57.71163],[13.43379,57.712],[13.43622,57.7117],[13.43362,57.70487],[13.43519,57.70465],[13.43387,57.7015],[13.43346,57.70104],[13.43103,57.70117],[13.43084,57.70052],[13.42845,57.69871],[13.42822,57.69882],[13.42728,57.69866],[13.42431,57.69735],[13.42394,57.69652],[13.42367,57.6955],[13.42418,57.69455],[13.42748,57.69467],[13.42757,57.69427],[13.4306,57.69382],[13.43097,57.6936],[13.43113,57.69283],[13.42942,57.69067],[13.42896,57.69065],[13.42653,57.68906],[13.42602,57.68727],[13.42827,57.68659],[13.42491,57.68178],[13.42154,57.68261],[13.41955,57.68058],[13.41652,57.67854],[13.41534,57.67748],[13.41377,57.67582],[13.41153,57.67053],[13.41534,57.66903],[13.41431,57.66852],[13.41357,57.66779],[13.41338,57.66572],[13.41651,57.66438],[13.42522,57.64506],[13.4289,57.6443],[13.42784,57.6426],[13.4285,57.64111],[13.42489,57.63941],[13.42474,57.63715],[13.42269,57.63588],[13.42713,57.63396],[13.42559,57.6315],[13.42007,57.63197],[13.41688,57.62994],[13.41959,57.62777],[13.41956,57.62471],[13.41556,57.61929],[13.41515,57.61903],[13.41422,57.61888],[13.4151,57.61821],[13.41394,57.61794],[13.41333,57.61816],[13.41305,57.618],[13.41311,57.61603],[13.4113,57.61479],[13.41118,57.61354],[13.4107,57.61335],[13.41042,57.61301],[13.41055,57.61269],[13.40997,57.6125],[13.40957,57.61176],[13.40906,57.61177],[13.3814,57.6209],[13.37229,57.62643],[13.37029,57.62642],[13.36088,57.62838],[13.35038,57.6222],[13.35128,57.61899],[13.35069,57.6189],[13.35015,57.61904],[13.34937,57.61847],[13.34855,57.61864],[13.34822,57.61815],[13.34719,57.61776],[13.347,57.6171],[13.3456,57.61679],[13.34582,57.616],[13.34475,57.61513],[13.34461,57.61455],[13.3434,57.61343],[13.34099,57.61298],[13.33973,57.61314],[13.3368,57.61298],[13.33489,57.61317],[13.33296,57.61273],[13.32758,57.6151],[13.32742,57.61473],[13.3245,57.61452],[13.32257,57.61568],[13.32267,57.61593],[13.32337,57.61605],[13.32395,57.61671],[13.31869,57.61902],[13.32142,57.62395],[13.32242,57.6315],[13.32942,57.63433],[13.32715,57.63614],[13.31745,57.63684],[13.31345,57.63769],[13.30907,57.66753],[13.30873,57.66794],[13.27695,57.69379],[13.25949,57.69871],[13.25377,57.70531],[13.23933,57.70743],[13.23134,57.70995],[13.21297,57.71142],[13.20638,57.7129],[13.20972,57.71482],[13.2116,57.71453],[13.21206,57.71452],[13.21292,57.71486],[13.21665,57.71462],[13.21722,57.71497],[13.21629,57.71586],[13.21505,57.71623],[13.21252,57.71637],[13.23687,57.72987],[13.22251,57.73657],[13.22719,57.73932],[13.23016,57.73751],[13.23204,57.73788],[13.23308,57.74206],[13.23865,57.74507],[13.24072,57.74669],[13.24987,57.74855],[13.24393,57.75224],[13.24762,57.77311],[13.23082,57.77399],[13.23022,57.7743],[13.22925,57.7755],[13.22693,57.77712],[13.2266,57.7787],[13.22462,57.77973],[13.22306,57.78027],[13.21674,57.77997],[13.21569,57.77954],[13.21483,57.77859],[13.17793,57.78071],[13.18198,57.78485],[13.18448,57.78539],[13.18542,57.78595],[13.1865,57.78615],[13.18842,57.78813],[13.18847,57.78883],[13.18707,57.7903],[13.18745,57.79148],[13.18704,57.79249],[13.18711,57.79353],[13.18744,57.79409],[13.1842,57.79548],[13.18356,57.79494],[13.18128,57.79432],[13.17705,57.79665],[13.16996,57.80159],[13.16037,57.80403],[13.14596,57.81],[13.13662,57.81287],[13.13939,57.81388],[13.13878,57.81517],[13.13783,57.81578],[13.13929,57.81599],[13.14083,57.81664],[13.13544,57.81936],[13.13469,57.81942],[13.13476,57.82146],[13.13521,57.82249],[13.13472,57.82296],[13.13482,57.82592],[13.13269,57.83343],[13.13119,57.83388],[13.13129,57.8342],[13.12964,57.83595],[13.1284,57.83546],[13.12624,57.83825],[13.12282,57.83924],[13.12096,57.84214],[13.12506,57.84369],[13.12704,57.84389],[13.12773,57.84433],[13.12723,57.84498],[13.12554,57.84591],[13.12375,57.84769],[13.12198,57.84868],[13.12224,57.84888],[13.12106,57.84933],[13.11992,57.85016],[13.11779,57.85098],[13.11682,57.85111],[13.11651,57.85131],[13.1153,57.85138],[13.11128,57.85305],[13.10567,57.85591],[13.1085,57.86565],[13.11492,57.87864],[13.1166,57.88949],[13.11924,57.8901],[13.13063,57.88919],[13.1314,57.88939],[13.12913,57.8914],[13.1328,57.89295],[13.13813,57.8958],[13.13879,57.89714],[13.14101,57.89705],[13.14324,57.89734],[13.14417,57.8973],[13.14493,57.89701],[13.14607,57.89597],[13.15046,57.89677],[13.15341,57.89653],[13.16122,57.89663],[13.17082,57.89873],[13.18427,57.90299],[13.18789,57.90432],[13.21131,57.90858],[13.21264,57.90938],[13.21632,57.91073],[13.22044,57.91084]]]}},{"type":"Feature","id":"1491R006","properties":{"code":"1491R006","name":"Hössna-Timmele"},"geometry":{"type":"Polygon","coordinates":[[[13.41724,57.98383],[13.42563,57.98197],[13.42706,57.98261],[13.42922,57.98012],[13.42979,57.97986],[13.43043,57.97872],[13.43041,57.97808],[13.4314,57.97769],[13.43121,57.97735],[13.43447,57.97392],[13.43542,57.97254],[13.43519,57.97028],[13.43705,57.96851],[13.43819,57.96825],[13.43941,57.96838],[13.44323,57.96431],[13.44338,57.96195],[13.44133,57.95944],[13.4411,57.95754],[13.44008,57.95625],[13.44004,57.9552],[13.44065,57.95432],[13.44055,57.95406],[13.43934,57.95243],[13.43787,57.952],[13.43839,57.95053],[13.4389,57.94508],[13.43879,57.94459],[13.43827,57.94422],[13.4387,57.94378],[13.43935,57.94382],[13.43944,57.94369],[13.43827,57.94027],[13.43611,57.94042],[13.43554,57.94003],[13.43469,57.93787],[13.44309,57.93605],[13.43995,57.93095],[13.4398,57.92867],[13.43347,57.9257],[13.42509,57.91765],[13.42343,57.91549],[13.41956,57.91367],[13.41412,57.91033],[13.4079,57.90874],[13.39953,57.90514],[13.39895,57.90548],[13.39628,57.9046],[13.39601,57.90426],[13.39303,57.9041],[13.3948,57.9037],[13.39612,57.90302],[13.39468,57.9015],[13.39566,57.89992],[13.40085,57.89995],[13.40249,57.90117],[13.40226,57.90248],[13.40357,57.90273],[13.40676,57.90284],[13.40671,57.9013],[13.40838,57.90124],[13.40933,57.90101],[13.40991,57.90021],[13.40922,57.8994],[13.4143,57.89064],[13.41401,57.89021],[13.40512,57.89632],[13.40325,57.89498],[13.40667,57.88155],[13.41627,57.87712],[13.41702,57.87699],[13.41688,57.87676],[13.41943,57.87553],[13.422,57.87512],[13.42423,57.87551],[13.43277,57.87855],[13.43451,57.87979],[13.43475,57.88149],[13.43649,57.88209],[13.43706,57.88288],[13.43707,57.88311],[13.43617,57.88338],[13.43555,57.88458],[13.43612,57.88535],[13.43663,57.88516],[13.4369,57.88557],[13.43749,57.88583],[13.43728,57.88603],[13.4368,57.88603],[13.43721,57.88713],[13.43842,57.88728],[13.43961,57.88708],[13.44046,57.88753],[13.44115,57.88751],[13.44237,57.89021],[13.44883,57.89149],[13.44922,57.89108],[13.4498,57.8911],[13.4501,57.89144],[13.45118,57.89134],[13.4513,57.89069],[13.45165,57.89048],[13.45204,57.8907],[13.45197,57.89148],[13.45363,57.89119],[13.45608,57.89039],[13.45827,57.89004],[13.45457,57.88905],[13.45204,57.88924],[13.45158,57.88907],[13.45166,57.88869],[13.45099,57.88846],[13.44947,57.88873],[13.44711,57.88821],[13.44824,57.88762],[13.4481,57.88726],[13.45249,57.8837],[13.44983,57.8819],[13.44789,57.88185],[13.44544,57.8831],[13.4407,57.88493],[13.43918,57.88408],[13.44787,57.88021],[13.45133,57.87967],[13.46013,57.87474],[13.46147,57.87612],[13.47647,57.86753],[13.47721,57.86751],[13.47817,57.86796],[13.47876,57.86797],[13.47928,57.86766],[13.48088,57.86966],[13.49193,57.86774],[13.49183,57.86917],[13.49615,57.86954],[13.49703,57.86818],[13.49823,57.86806],[13.49858,57.86761],[13.49721,57.86562],[13.4966,57.86522],[13.49489,57.86309],[13.4963,57.86247],[13.49589,57.86092],[13.49297,57.85845],[13.49014,57.85242],[13.48925,57.8515],[13.48841,57.84928],[13.4891,57.84924],[13.48947,57.84894],[13.49071,57.84924],[13.49874,57.84653],[13.50607,57.85068],[13.5078,57.85137],[13.51804,57.84896],[13.51941,57.84951],[13.52131,57.84983],[13.5232,57.85118],[13.52672,57.85564],[13.53004,57.85654],[13.53533,57.86046],[13.53935,57.86091],[13.5398,57.86118],[13.53989,57.86173],[13.53914,57.86242],[13.53611,57.86444],[13.54381,57.86818],[13.54719,57.86894],[13.55183,57.87366],[13.55289,57.87644],[13.55456,57.87788],[13.55908,57.88022],[13.55839,57.88062],[13.55931,57.88254],[13.56064,57.88303],[13.56088,57.88401],[13.56236,57.88511],[13.56226,57.8854],[13.56381,57.88676],[13.5638,57.88699],[13.56501,57.88798],[13.56593,57.88839],[13.56703,57.88954],[13.56787,57.89107],[13.56813,57.89489],[13.56991,57.89619],[13.59087,57.9071],[13.60487,57.91201],[13.60966,57.91561],[13.61837,57.91932],[13.628,57.91911],[13.63371,57.91816],[13.64065,57.91853],[13.64246,57.92371],[13.64789,57.92517],[13.64887,57.92837],[13.65417,57.92777],[13.65493,57.92723],[13.65746,57.92723],[13.65761,57.92697],[13.66958,57.93009],[13.6771,57.93123],[13.69513,57.93183],[13.70411,57.9315],[13.7142,57.93016],[13.72904,57.93125],[13.73371,57.93775],[13.7413,57.94035],[13.75644,57.94082],[13.76585,57.93773],[13.76731,57.93177],[13.76837,57.93156],[13.76804,57.93097],[13.7694,57.92893],[13.77101,57.92772],[13.7712,57.92595],[13.77399,57.92531],[13.77532,57.92483],[13.77678,57.92502],[13.77813,57.92591],[13.77986,57.92622],[13.78076,57.927],[13.78203,57.92628],[13.78554,57.926],[13.78927,57.92215],[13.78976,57.91883],[13.79195,57.90925],[13.79057,57.90638],[13.78943,57.9066],[13.78822,57.90622],[13.78539,57.90586],[13.78341,57.90542],[13.78153,57.90465],[13.78035,57.90347],[13.78052,57.90303],[13.77729,57.90326],[13.76848,57.89839],[13.76748,57.89748],[13.76397,57.89573],[13.76147,57.89339],[13.76042,57.89144],[13.76577,57.88798],[13.76343,57.88534],[13.76448,57.88359],[13.76643,57.88219],[13.76636,57.87843],[13.75701,57.87263],[13.74218,57.86533],[13.7398,57.85522],[13.73785,57.85524],[13.73588,57.85479],[13.73468,57.85211],[13.7348,57.85098],[13.73608,57.84972],[13.73146,57.84529],[13.73679,57.84328],[13.73788,57.81751],[13.73764,57.81706],[13.73904,57.81691],[13.73985,57.8166],[13.74143,57.81682],[13.74359,57.81661],[13.74347,57.8164],[13.74441,57.81625],[13.74417,57.81573],[13.74435,57.81488],[13.74645,57.81164],[13.74616,57.81092],[13.74638,57.81021],[13.74524,57.80945],[13.74334,57.80864],[13.74172,57.80734],[13.74301,57.80562],[13.7443,57.80462],[13.74406,57.80087],[13.74291,57.80101],[13.74256,57.79845],[13.74387,57.79838],[13.74623,57.78427],[13.74902,57.78434],[13.75028,57.78209],[13.75045,57.78127],[13.74869,57.77795],[13.7472,57.77748],[13.74878,57.77665],[13.75122,57.77583],[13.75238,57.77431],[13.75304,57.77376],[13.75388,57.77344],[13.74557,57.76312],[13.74304,57.76096],[13.74279,57.76026],[13.74203,57.75958],[13.74277,57.75901],[13.7425,57.75818],[13.74109,57.75711],[13.73912,57.75633],[13.73833,57.75577],[13.73695,57.75526],[13.73492,57.75489],[13.73379,57.75389],[13.73166,57.75253],[13.73182,57.7521],[13.73128,57.74967],[13.73086,57.74918],[13.7292,57.74863],[13.72809,57.74801],[13.72528,57.74358],[13.72287,57.74246],[13.7143,57.73064],[13.71559,57.72684],[13.71609,57.72628],[13.71587,57.72433],[13.71629,57.72346],[13.71843,57.72246],[13.72969,57.71838],[13.72662,57.71608],[13.6942,57.70574],[13.68784,57.70637],[13.61119,57.71235],[13.60657,57.71284],[13.60644,57.71321],[13.60585,57.71336],[13.60481,57.71297],[13.60266,57.71308],[13.59319,57.71825],[13.59341,57.7186],[13.59299,57.71906],[13.59253,57.7191],[13.59249,57.71864],[13.58416,57.72323],[13.57396,57.7296],[13.56116,57.73852],[13.53052,57.74255],[13.53013,57.74234],[13.52955,57.74237],[13.52907,57.74267],[13.52807,57.74258],[13.5275,57.74296],[13.52686,57.74308],[13.5227,57.74718],[13.52005,57.74729],[13.51864,57.74756],[13.5078,57.75105],[13.50677,57.75058],[13.50459,57.75037],[13.50354,57.75009],[13.50127,57.75052],[13.49867,57.75056],[13.49647,57.75163],[13.49525,57.75198],[13.49616,57.75341],[13.4962,57.75405],[13.49577,57.75458],[13.47872,57.75965],[13.47775,57.7595],[13.47369,57.76085],[13.47368,57.76131],[13.46232,57.76388],[13.46064,57.76279],[13.45647,57.76398],[13.4504,57.76316],[13.45031,57.76339],[13.44972,57.76355],[13.44909,57.76298],[13.44946,57.7628],[13.44899,57.76261],[13.44607,57.76393],[13.44762,57.76515],[13.44783,57.76645],[13.44839,57.76704],[13.43883,57.76858],[13.44074,57.76922],[13.44241,57.7701],[13.44457,57.77064],[13.44671,57.77156],[13.44837,57.77273],[13.44948,57.77418],[13.44983,57.77534],[13.44977,57.77646],[13.44859,57.77847],[13.45038,57.78043],[13.45075,57.78185],[13.45044,57.78341],[13.45241,57.78527],[13.45355,57.78706],[13.45394,57.78867],[13.45363,57.79008],[13.45264,57.79142],[13.45108,57.79258],[13.44893,57.79352],[13.45264,57.79441],[13.45662,57.79609],[13.45838,57.79719],[13.45957,57.79848],[13.46009,57.79988],[13.45996,57.80168],[13.45887,57.80463],[13.45695,57.80652],[13.45464,57.80775],[13.45221,57.80856],[13.45033,57.80964],[13.44804,57.81041],[13.44614,57.81077],[13.44369,57.81094],[13.44015,57.81188],[13.43472,57.8125],[13.43076,57.81257],[13.42759,57.81209],[13.41863,57.81567],[13.41511,57.81646],[13.4121,57.81681],[13.40778,57.81779],[13.40577,57.81795],[13.40311,57.81785],[13.40053,57.81741],[13.39872,57.81691],[13.39714,57.81623],[13.39547,57.81513],[13.39435,57.81393],[13.39376,57.81269],[13.39075,57.81225],[13.36169,57.81555],[13.3373,57.82047],[13.34088,57.82329],[13.34722,57.82163],[13.3514,57.82177],[13.35055,57.82543],[13.35121,57.82634],[13.34929,57.82758],[13.34748,57.83355],[13.34789,57.84093],[13.34892,57.84523],[13.34912,57.84965],[13.35498,57.85997],[13.35397,57.86103],[13.34644,57.8611],[13.34262,57.86179],[13.33529,57.86269],[13.32417,57.86124],[13.31546,57.86083],[13.31288,57.85871],[13.31181,57.85856],[13.31117,57.85944],[13.31131,57.85996],[13.31102,57.86021],[13.30411,57.8596],[13.30038,57.86188],[13.28084,57.86273],[13.2772,57.86255],[13.27453,57.86278],[13.27146,57.86519],[13.26906,57.87028],[13.26693,57.86951],[13.26605,57.86949],[13.26496,57.87127],[13.26616,57.87226],[13.26617,57.8735],[13.26646,57.87388],[13.26609,57.87436],[13.26637,57.87473],[13.26615,57.875],[13.26664,57.87531],[13.26751,57.87707],[13.26785,57.8789],[13.26391,57.87783],[13.26204,57.87833],[13.25968,57.87925],[13.25904,57.87929],[13.25322,57.88185],[13.25043,57.88799],[13.2427,57.90014],[13.23695,57.90338],[13.22104,57.91057],[13.22061,57.91132],[13.22093,57.91187],[13.22078,57.91296],[13.22317,57.91455],[13.22404,57.9149],[13.22429,57.9154],[13.22412,57.91594],[13.22466,57.91612],[13.22714,57.91874],[13.22723,57.91912],[13.22765,57.91889],[13.23086,57.91979],[13.23128,57.9241],[13.2347,57.92455],[13.23178,57.9276],[13.2319,57.92814],[13.23414,57.93069],[13.236,57.93162],[13.24212,57.93337],[13.24725,57.937],[13.25109,57.9377],[13.25207,57.93913],[13.2538,57.94],[13.25456,57.93921],[13.25578,57.94104],[13.26256,57.94446],[13.26503,57.94702],[13.27405,57.95269],[13.28341,57.95304],[13.28333,57.95266],[13.28368,57.95232],[13.28561,57.95254],[13.28793,57.95235],[13.28944,57.9518],[13.29161,57.95165],[13.29155,57.95272],[13.29746,57.95314],[13.298,57.95346],[13.29936,57.95332],[13.30165,57.95473],[13.30241,57.95481],[13.30324,57.95516],[13.30668,57.95568],[13.30805,57.95704],[13.30946,57.95593],[13.31047,57.95546],[13.32466,57.95325],[13.3281,57.95174],[13.33506,57.95711],[13.34721,57.97144],[13.35048,57.9754],[13.34935,57.97568],[13.34956,57.97769],[13.35671,57.98012],[13.35697,57.98185],[13.37471,57.97846],[13.39145,57.97872],[13.41735,57.97782],[13.4183,57.97898],[13.41967,57.97986],[13.41935,57.98079],[13.41755,57.983],[13.41724,57.98383]]]}},{"type":"Feature","id":"1491R007","properties":{"code":"1491R007","name":"Redväg"},"geometry":{"type":"Polygon","coordinates":[[[13.53244,58.00704],[13.53614,58.00649],[13.53723,58.00717],[13.53707,58.00738],[13.53738,58.00773],[13.54253,58.00853],[13.54662,58.0037],[13.5522,58.00544],[13.55601,58.00468],[13.55667,58.00654],[13.55811,58.00705],[13.5594,58.00666],[13.55962,58.00633],[13.56354,58.00384],[13.56902,58.00195],[13.57194,58.00052],[13.57217,58.00009],[13.57937,57.99531],[13.58293,57.99078],[13.59201,57.99037],[13.59281,57.99053],[13.59416,57.99008],[13.59163,57.98951],[13.59137,57.98931],[13.59098,57.98862],[13.58985,57.98806],[13.58997,57.98722],[13.58817,57.986],[13.5867,57.98532],[13.58702,57.98469],[13.58108,57.97939],[13.57959,57.97417],[13.58989,57.96026],[13.59192,57.95871],[13.59195,57.95846],[13.59129,57.95796],[13.59557,57.95126],[13.6089,57.94864],[13.61137,57.94109],[13.6136,57.93913],[13.61302,57.93548],[13.61198,57.93465],[13.61189,57.93405],[13.61193,57.93338],[13.61326,57.93302],[13.61293,57.93177],[13.61374,57.93025],[13.60493,57.92914],[13.60515,57.92859],[13.60406,57.92827],[13.60453,57.92528],[13.60337,57.92534],[13.59898,57.92684],[13.58715,57.91631],[13.58963,57.91554],[13.59361,57.91912],[13.59331,57.91746],[13.59175,57.9151],[13.59472,57.91375],[13.5995,57.91019],[13.59087,57.9071],[13.56991,57.89619],[13.56813,57.89489],[13.56787,57.89107],[13.56711,57.88966],[13.56593,57.88839],[13.56501,57.88798],[13.5638,57.88699],[13.56381,57.88676],[13.56226,57.8854],[13.56236,57.88511],[13.56099,57.88412],[13.56064,57.88303],[13.55931,57.88254],[13.55839,57.88062],[13.55908,57.88022],[13.55456,57.87788],[13.55289,57.87644],[13.55183,57.87366],[13.54719,57.86894],[13.54381,57.86818],[13.53611,57.86444],[13.53914,57.86242],[13.53989,57.86173],[13.5398,57.86118],[13.53935,57.86091],[13.53533,57.86046],[13.53004,57.85654],[13.52672,57.85564],[13.5232,57.85118],[13.52131,57.84983],[13.51941,57.84951],[13.51804,57.84896],[13.5078,57.85137],[13.50607,57.85068],[13.49874,57.84653],[13.49071,57.84924],[13.48947,57.84894],[13.4891,57.84924],[13.48841,57.84928],[13.48925,57.8515],[13.49014,57.85242],[13.49297,57.85845],[13.49589,57.86092],[13.4963,57.86247],[13.49489,57.86309],[13.4966,57.86522],[13.49721,57.86562],[13.49858,57.86761],[13.49823,57.86806],[13.49703,57.86818],[13.49615,57.86954],[13.49183,57.86917],[13.49193,57.86774],[13.48088,57.86966],[13.47928,57.86766],[13.47876,57.86797],[13.47817,57.86796],[13.47721,57.86751],[13.47647,57.86753],[13.46147,57.87612],[13.46013,57.87474],[13.45133,57.87967],[13.44787,57.88021],[13.43918,57.88408],[13.4407,57.88493],[13.44544,57.8831],[13.44789,57.88185],[13.44983,57.8819],[13.45249,57.8837],[13.4481,57.88726],[13.44824,57.88762],[13.44711,57.88821],[13.44947,57.88873],[13.45099,57.88846],[13.45166,57.88869],[13.45158,57.88907],[13.45204,57.88924],[13.45457,57.88905],[13.45827,57.89004],[13.45608,57.89039],[13.45363,57.89119],[13.45197,57.89148],[13.45204,57.8907],[13.45165,57.89048],[13.4513,57.89069],[13.45118,57.89134],[13.4501,57.89144],[13.4498,57.8911],[13.44922,57.89108],[13.44883,57.89149],[13.44237,57.89021],[13.44115,57.88751],[13.44046,57.88753],[13.43961,57.88708],[13.43842,57.88728],[13.43721,57.88713],[13.4368,57.88603],[13.43728,57.88603],[13.43749,57.88583],[13.4369,57.88557],[13.43663,57.88516],[13.43612,57.88535],[13.43555,57.88458],[13.43617,57.88338],[13.43707,57.88311],[13.43706,57.88288],[13.43649,57.88209],[13.43475,57.88149],[13.43451,57.87979],[13.43277,57.87855],[13.42423,57.87551],[13.422,57.87512],[13.41943,57.87553],[13.41688,57.87676],[13.41702,57.87699],[13.41627,57.87712],[13.40667,57.88155],[13.40325,57.89498],[13.40512,57.89632],[13.41401,57.89021],[13.4143,57.89064],[13.40922,57.8994],[13.40991,57.90021],[13.40933,57.90101],[13.40838,57.90124],[13.40671,57.9013],[13.40676,57.90284],[13.40357,57.90273],[13.40226,57.90248],[13.40249,57.90117],[13.40085,57.89995],[13.39566,57.89992],[13.39468,57.9015],[13.39612,57.90302],[13.3948,57.9037],[13.39302,57.9042],[13.39601,57.90426],[13.39628,57.9046],[13.39895,57.90548],[13.39953,57.90514],[13.4079,57.90874],[13.41412,57.91033],[13.41956,57.91367],[13.42343,57.91549],[13.42509,57.91765],[13.43347,57.9257],[13.4398,57.92867],[13.43995,57.93095],[13.44309,57.93605],[13.43469,57.93787],[13.43554,57.94003],[13.43611,57.94042],[13.43827,57.94027],[13.43944,57.94369],[13.43935,57.94382],[13.4387,57.94378],[13.43827,57.94422],[13.43879,57.94459],[13.4389,57.94508],[13.43839,57.95053],[13.43787,57.952],[13.43934,57.95243],[13.44055,57.95406],[13.44065,57.95432],[13.44004,57.9552],[13.44008,57.95625],[13.4411,57.95754],[13.44133,57.95944],[13.44878,57.95839],[13.45215,57.95987],[13.45659,57.96405],[13.45776,57.96464],[13.46001,57.96525],[13.46275,57.96631],[13.47332,57.96585],[13.47371,57.96542],[13.47826,57.96755],[13.48649,57.9673],[13.48887,57.97106],[13.48826,57.97498],[13.48685,57.97858],[13.48262,57.9785],[13.48047,57.98328],[13.48271,57.98357],[13.48594,57.98371],[13.48723,57.98353],[13.50549,57.99828],[13.51182,58.00269],[13.51269,58.00409],[13.51353,58.00398],[13.51584,58.00899],[13.52489,58.01093],[13.5269,58.0106],[13.52725,58.01041],[13.5271,58.00989],[13.52547,58.00907],[13.52509,58.00857],[13.52784,58.00848],[13.53244,58.00704]]]}},{"type":"Feature","id":"1491R008","properties":{"code":"1491R008","name":"Ulricehamn centrum"},"geometry":{"type":"Polygon","coordinates":[[[13.41537,57.79637],[13.41553,57.79527],[13.41722,57.79536],[13.41607,57.79323],[13.41893,57.79279],[13.42364,57.79256],[13.42381,57.79347],[13.4246,57.7935],[13.42503,57.79286],[13.42835,57.79267],[13.43041,57.79165],[13.43015,57.79068],[13.42951,57.79036],[13.42973,57.78901],[13.42935,57.78815],[13.4264,57.78854],[13.426,57.78609],[13.42534,57.78426],[13.42256,57.78484],[13.42281,57.78548],[13.42252,57.78629],[13.41897,57.78787],[13.41923,57.78939],[13.41868,57.78984],[13.4143,57.7902],[13.41386,57.78958],[13.41341,57.79009],[13.41206,57.78869],[13.41045,57.78919],[13.41135,57.79012],[13.40736,57.79074],[13.40312,57.79288],[13.4016,57.79334],[13.40244,57.79427],[13.40756,57.79486],[13.40993,57.79614],[13.41163,57.79614],[13.41336,57.79576],[13.41363,57.79611],[13.41537,57.79637]]]}},{"type":"Feature","id":"1491R009","properties":{"code":"1491R009","name":"Ulricehamn södra centrum"},"geometry":{"type":"Polygon","coordinates":[[[13.41045,57.78919],[13.41206,57.78869],[13.41323,57.79004],[13.41386,57.78958],[13.4143,57.7902],[13.41868,57.78984],[13.41923,57.78939],[13.41897,57.78787],[13.42252,57.78629],[13.42281,57.78548],[13.42256,57.78484],[13.42534,57.78426],[13.426,57.78609],[13.4264,57.78854],[13.42883,57.78828],[13.43083,57.78756],[13.43145,57.7871],[13.432,57.78566],[13.43271,57.78529],[13.43624,57.78523],[13.43689,57.78539],[13.43778,57.786],[13.43937,57.78626],[13.44132,57.78721],[13.44184,57.78787],[13.44198,57.78866],[13.44244,57.78905],[13.44732,57.79162],[13.44903,57.79348],[13.44956,57.79329],[13.4515,57.79232],[13.45266,57.7914],[13.45363,57.79008],[13.45394,57.78867],[13.45355,57.78706],[13.45241,57.78527],[13.45044,57.78341],[13.45075,57.78185],[13.45038,57.78043],[13.44859,57.77847],[13.44977,57.77646],[13.44963,57.77451],[13.44901,57.77343],[13.44766,57.77215],[13.44625,57.77132],[13.44415,57.77052],[13.43634,57.77296],[13.43289,57.77485],[13.4265,57.77727],[13.42561,57.77773],[13.4219,57.78122],[13.42025,57.78087],[13.41896,57.78236],[13.41807,57.78231],[13.41658,57.78144],[13.41507,57.78099],[13.41518,57.78199],[13.41695,57.7851],[13.4167,57.78573],[13.41453,57.78526],[13.41281,57.78514],[13.41092,57.78464],[13.41167,57.78367],[13.41136,57.78291],[13.41064,57.78288],[13.40998,57.78193],[13.41141,57.78186],[13.41103,57.78111],[13.41273,57.78102],[13.41441,57.7794],[13.41287,57.77884],[13.4117,57.7779],[13.4108,57.77444],[13.41032,57.77398],[13.40752,57.77283],[13.40644,57.77162],[13.40455,57.77118],[13.40538,57.76406],[13.4061,57.76267],[13.4072,57.76142],[13.40844,57.76092],[13.40643,57.7596],[13.40363,57.75862],[13.40013,57.75815],[13.39694,57.75824],[13.39342,57.75904],[13.39072,57.76049],[13.3883,57.76353],[13.3871,57.76599],[13.38704,57.76879],[13.38787,57.77109],[13.39021,57.77338],[13.39262,57.77469],[13.39275,57.77805],[13.39345,57.77953],[13.39329,57.78075],[13.39366,57.78207],[13.39378,57.78419],[13.39336,57.78604],[13.39362,57.7874],[13.39592,57.79057],[13.4016,57.79334],[13.40312,57.79288],[13.40736,57.79074],[13.41135,57.79012],[13.41045,57.78919]]]}}]}