{"type":"FeatureCollection","features":[{"type":"Feature","id":"1494R007","properties":{"code":"1494R007","name":"Nya Staden"},"geometry":{"type":"Polygon","coordinates":[[[13.17169,58.5177],[13.15604,58.4988],[13.15048,58.49434],[13.14479,58.4913],[13.13984,58.48925],[13.13425,58.48658],[13.13391,58.48756],[13.13324,58.48791],[13.13045,58.48623],[13.12865,58.48581],[13.12552,58.48726],[13.12442,58.48813],[13.12344,58.48951],[13.122,58.48996],[13.11858,58.4916],[13.13833,58.50561],[13.13744,58.50583],[13.14023,58.50838],[13.1423,58.50785],[13.14505,58.50996],[13.16158,58.51998],[13.1693,58.52621],[13.17081,58.52518],[13.17644,58.52507],[13.17169,58.5177]]]}},{"type":"Feature","id":"1494R001","properties":{"code":"1494R001","name":"Gamla Staden"},"geometry":{"type":"Polygon","coordinates":[[[13.21173,58.49611],[13.21142,58.49534],[13.21151,58.49357],[13.21098,58.49242],[13.21158,58.49087],[13.21139,58.48938],[13.21239,58.48805],[13.2127,58.48699],[13.21216,58.48486],[13.21095,58.48356],[13.2082,58.48175],[13.20605,58.48086],[13.2019,58.47965],[13.19798,58.48223],[13.18775,58.4879],[13.185,58.48968],[13.18275,58.4919],[13.18172,58.4943],[13.17919,58.49419],[13.17465,58.49183],[13.16743,58.49384],[13.16698,58.49345],[13.16607,58.49362],[13.16592,58.49298],[13.16152,58.49286],[13.16121,58.4921],[13.15618,58.49272],[13.15715,58.49401],[13.15425,58.49466],[13.15372,58.49507],[13.15306,58.49482],[13.15186,58.49536],[13.15604,58.4988],[13.16619,58.51096],[13.17169,58.5177],[13.17644,58.52507],[13.1956,58.52473],[13.19031,58.51384],[13.18972,58.51363],[13.18837,58.51156],[13.1904,58.50986],[13.19112,58.50813],[13.19146,58.50791],[13.19533,58.507],[13.19814,58.50578],[13.20006,58.5043],[13.20095,58.50279],[13.20612,58.50185],[13.20934,58.50047],[13.21079,58.49927],[13.21149,58.49826],[13.21173,58.49611]]]}},{"type":"Feature","id":"1494R002","properties":{"code":"1494R002","name":"Hovby-Norra Härene-Saleby"},"geometry":{"type":"Polygon","coordinates":[[[13.12493,58.47784],[13.12611,58.47549],[13.12824,58.47358],[13.12956,58.47275],[13.13212,58.47159],[13.13404,58.47096],[13.13724,58.47017],[13.1399,58.46988],[13.1433,58.47001],[13.14607,58.47057],[13.15158,58.47018],[13.1563,58.47043],[13.15941,58.47123],[13.16215,58.4727],[13.16538,58.47294],[13.16837,58.47371],[13.17092,58.47503],[13.17248,58.47649],[13.18014,58.47584],[13.18018,58.47557],[13.17968,58.47523],[13.17926,58.47522],[13.17923,58.4742],[13.18025,58.47416],[13.17948,58.47252],[13.17999,58.47198],[13.18052,58.4717],[13.18113,58.47169],[13.18146,58.47138],[13.18113,58.46981],[13.18723,58.46747],[13.18826,58.46106],[13.18939,58.45819],[13.19865,58.45545],[13.20311,58.45712],[13.2063,58.45772],[13.21428,58.45822],[13.21804,58.4588],[13.21874,58.45868],[13.21904,58.45765],[13.2209,58.45793],[13.22638,58.45788],[13.22794,58.4576],[13.23017,58.45691],[13.23212,58.45665],[13.23256,58.4569],[13.23944,58.45519],[13.23653,58.45372],[13.23512,58.4525],[13.23433,58.45112],[13.2343,58.44934],[13.23565,58.44705],[13.23703,58.44582],[13.2393,58.44458],[13.24325,58.44304],[13.24588,58.44255],[13.24905,58.44243],[13.25119,58.44142],[13.25406,58.44071],[13.25829,58.4404],[13.26168,58.44076],[13.26428,58.44147],[13.26533,58.44114],[13.27089,58.44176],[13.27638,58.44203],[13.2774,58.44238],[13.28334,58.44362],[13.28529,58.44426],[13.2908,58.44144],[13.29575,58.43974],[13.29561,58.44085],[13.29854,58.44084],[13.29931,58.44102],[13.2983,58.44238],[13.2984,58.44323],[13.29884,58.44344],[13.30488,58.4424],[13.30909,58.44227],[13.31138,58.44183],[13.30229,58.43782],[13.30284,58.43682],[13.30553,58.43631],[13.3058,58.43567],[13.30532,58.43505],[13.30454,58.4325],[13.30654,58.43175],[13.30848,58.43154],[13.31008,58.43225],[13.31347,58.43253],[13.31479,58.43344],[13.31817,58.43358],[13.31917,58.43335],[13.31976,58.43402],[13.32047,58.43386],[13.32157,58.43474],[13.32239,58.43421],[13.32444,58.4346],[13.32511,58.43445],[13.32523,58.43404],[13.32629,58.43458],[13.33104,58.43507],[13.33151,58.43487],[13.3322,58.435],[13.33279,58.43456],[13.33334,58.43473],[13.33389,58.43432],[13.33519,58.43404],[13.33543,58.43412],[13.33584,58.43379],[13.33667,58.43379],[13.33646,58.43299],[13.33674,58.43294],[13.33721,58.4332],[13.33755,58.43307],[13.3376,58.43286],[13.33709,58.43281],[13.33767,58.43241],[13.33814,58.43241],[13.33781,58.43217],[13.33828,58.4318],[13.33884,58.43158],[13.33904,58.43172],[13.34036,58.43174],[13.34044,58.43131],[13.34172,58.43077],[13.3422,58.43079],[13.34218,58.43059],[13.34354,58.42985],[13.34432,58.43005],[13.34477,58.42994],[13.34423,58.42956],[13.34564,58.43021],[13.3462,58.42995],[13.34591,58.42961],[13.34614,58.42929],[13.34645,58.42961],[13.34706,58.42962],[13.34751,58.42937],[13.3474,58.42896],[13.34805,58.42855],[13.34898,58.42915],[13.34952,58.4292],[13.34951,58.42878],[13.34892,58.42863],[13.34934,58.42842],[13.34971,58.42851],[13.35,58.4282],[13.35092,58.4283],[13.3513,58.42856],[13.35165,58.42846],[13.35181,58.42801],[13.35237,58.42792],[13.35314,58.42817],[13.35424,58.42793],[13.35454,58.42815],[13.35476,58.42807],[13.35057,58.42664],[13.34893,58.42633],[13.34821,58.42545],[13.34816,58.4249],[13.34629,58.42375],[13.34494,58.42118],[13.34559,58.42094],[13.34544,58.42085],[13.34447,58.42049],[13.33843,58.4193],[13.33781,58.41899],[13.33652,58.41729],[13.33585,58.41679],[13.33495,58.41626],[13.33189,58.41535],[13.33062,58.4144],[13.32797,58.41389],[13.32686,58.41344],[13.32146,58.41364],[13.32236,58.41295],[13.32063,58.41277],[13.3161,58.4116],[13.31295,58.41138],[13.3113,58.41195],[13.30603,58.41006],[13.30427,58.40994],[13.30162,58.40856],[13.30087,58.40737],[13.30127,58.4058],[13.30068,58.40595],[13.29966,58.40573],[13.29929,58.40581],[13.29882,58.40551],[13.2979,58.40559],[13.2976,58.40523],[13.29658,58.40556],[13.29508,58.40513],[13.29466,58.40528],[13.29419,58.4048],[13.29397,58.40489],[13.2931,58.40442],[13.29252,58.40451],[13.29313,58.40406],[13.28831,58.40352],[13.28485,58.40338],[13.28114,58.40345],[13.27788,58.40295],[13.2757,58.40311],[13.27522,58.40362],[13.27424,58.4034],[13.27324,58.40391],[13.27299,58.40444],[13.27248,58.40437],[13.27175,58.40472],[13.27133,58.40463],[13.27016,58.40518],[13.26983,58.40511],[13.2694,58.4054],[13.26856,58.40548],[13.268,58.40514],[13.26751,58.40536],[13.26695,58.40509],[13.26708,58.40483],[13.26626,58.40483],[13.2664,58.40455],[13.2645,58.40412],[13.26412,58.40387],[13.26243,58.40383],[13.26132,58.40407],[13.25925,58.40413],[13.25812,58.40386],[13.25776,58.40392],[13.25665,58.40347],[13.25605,58.40357],[13.25536,58.40332],[13.25343,58.40324],[13.25285,58.4035],[13.25206,58.40341],[13.25153,58.40377],[13.25078,58.40388],[13.24989,58.40441],[13.24976,58.40498],[13.24858,58.40489],[13.24813,58.40513],[13.24759,58.4049],[13.24766,58.40547],[13.24696,58.40559],[13.23978,58.40265],[13.23559,58.4032],[13.23703,58.40957],[13.23631,58.40913],[13.23606,58.40862],[13.23566,58.40851],[13.23453,58.40881],[13.23367,58.40961],[13.23305,58.40938],[13.23231,58.40945],[13.23184,58.40915],[13.23058,58.40924],[13.23001,58.40912],[13.22954,58.41343],[13.22648,58.41393],[13.22658,58.41275],[13.22257,58.41298],[13.2225,58.41428],[13.21843,58.4143],[13.2155,58.41469],[13.21351,58.41538],[13.21221,58.41554],[13.21377,58.40525],[13.20088,58.40625],[13.19963,58.40343],[13.19947,58.40088],[13.19785,58.39903],[13.19724,58.39776],[13.18982,58.39829],[13.18858,58.39564],[13.18898,58.39483],[13.18876,58.39405],[13.18789,58.3942],[13.1876,58.39411],[13.18824,58.39319],[13.18614,58.3932],[13.18618,58.39339],[13.18689,58.39347],[13.18662,58.39379],[13.18423,58.39463],[13.18393,58.39458],[13.18416,58.39433],[13.18394,58.39418],[13.18328,58.39417],[13.18275,58.39438],[13.18238,58.39392],[13.18198,58.3939],[13.18179,58.39432],[13.18269,58.3949],[13.18165,58.39514],[13.18144,58.39492],[13.18189,58.39472],[13.17984,58.39446],[13.17895,58.3948],[13.17729,58.39471],[13.17582,58.39498],[13.17554,58.39476],[13.17619,58.39432],[13.17551,58.39426],[13.17487,58.39469],[13.17403,58.39464],[13.17398,58.39409],[13.17288,58.39426],[13.17183,58.39344],[13.17224,58.39332],[13.17247,58.39284],[13.17418,58.39205],[13.17423,58.3909],[13.17552,58.39062],[13.1774,58.39102],[13.17869,58.39071],[13.17975,58.39008],[13.18101,58.38987],[13.18155,58.389],[13.18232,58.38878],[13.18379,58.38766],[13.18383,58.38666],[13.18288,58.38523],[13.18325,58.38486],[13.18224,58.38404],[13.18283,58.38327],[13.1823,58.38285],[13.18245,58.38249],[13.18215,58.38187],[13.1831,58.38076],[13.18365,58.37952],[13.18346,58.379],[13.18217,58.37796],[13.18393,58.37772],[13.18417,58.37763],[13.18388,58.37718],[13.18516,58.37714],[13.18619,58.37648],[13.18511,58.37391],[13.18426,58.37277],[13.18427,58.37143],[13.18498,58.37102],[13.18779,58.3707],[13.18953,58.36952],[13.19078,58.36992],[13.19144,58.36987],[13.19164,58.36867],[13.19404,58.36791],[13.19622,58.36575],[13.19873,58.3641],[13.19871,58.36375],[13.19788,58.363],[13.19793,58.36186],[13.19964,58.36081],[13.20001,58.36003],[13.20186,58.35982],[13.20459,58.35868],[13.20827,58.35753],[13.20896,58.35592],[13.20873,58.35554],[13.20622,58.35551],[13.19699,58.35008],[13.19635,58.35183],[13.18562,58.35438],[13.18323,58.35301],[13.17995,58.35195],[13.17475,58.34974],[13.17344,58.35073],[13.1731,58.3506],[13.17141,58.3509],[13.1699,58.35039],[13.1705,58.34947],[13.16946,58.34902],[13.17045,58.34768],[13.16954,58.34757],[13.16835,58.34111],[13.16924,58.34086],[13.17195,58.33886],[13.17118,58.33767],[13.17392,58.3363],[13.17292,58.33568],[13.16988,58.33228],[13.1676,58.32923],[13.1586,58.33041],[13.1492,58.33061],[13.1452,58.33237],[13.13949,58.3288],[13.14035,58.32818],[13.13837,58.32703],[13.13768,58.32776],[13.13606,58.32758],[13.13474,58.32812],[13.13946,58.33243],[13.14171,58.33392],[13.13794,58.33575],[13.14271,58.33716],[13.14064,58.33907],[13.13882,58.33887],[13.13383,58.33788],[13.13172,58.33893],[13.13041,58.33985],[13.12726,58.34115],[13.11653,58.34417],[13.10237,58.33878],[13.10223,58.33785],[13.1004,58.33861],[13.10007,58.33855],[13.09997,58.33805],[13.09881,58.33795],[13.09797,58.33896],[13.09663,58.33906],[13.09595,58.33934],[13.09619,58.34032],[13.09564,58.34146],[13.09521,58.34164],[13.09452,58.34156],[13.0942,58.3411],[13.0939,58.34108],[13.0923,58.34179],[13.08347,58.33943],[13.07279,58.34525],[13.05714,58.33845],[13.04172,58.34157],[13.04153,58.3425],[13.04587,58.34693],[13.0333,58.34944],[13.03333,58.35026],[13.03273,58.35173],[13.0332,58.35263],[13.033,58.35458],[13.0323,58.35628],[13.03375,58.35919],[13.03462,58.35963],[13.03674,58.36018],[13.03907,58.36205],[13.0405,58.3646],[13.04015,58.36501],[13.03843,58.3651],[13.03815,58.36531],[13.0381,58.36568],[13.03871,58.3663],[13.03985,58.36843],[13.03937,58.36875],[13.03817,58.36876],[13.03765,58.36915],[13.03759,58.36959],[13.03776,58.36992],[13.04046,58.37121],[13.04419,58.37363],[13.04435,58.37459],[13.04351,58.37508],[13.04178,58.37557],[13.04157,58.37647],[13.04244,58.37683],[13.04385,58.37708],[13.04681,58.37685],[13.04799,58.37709],[13.04846,58.37752],[13.04901,58.37922],[13.05141,58.38104],[13.05254,58.38103],[13.05449,58.38041],[13.05565,58.38033],[13.05703,58.38049],[13.05756,58.38077],[13.05768,58.38135],[13.05677,58.3825],[13.05728,58.38282],[13.0594,58.38347],[13.05959,58.38458],[13.05944,58.38564],[13.05834,58.38644],[13.05912,58.3894],[13.05721,58.39269],[13.05808,58.39334],[13.06084,58.39342],[13.062,58.39382],[13.06384,58.39581],[13.06404,58.39663],[13.06375,58.39748],[13.06087,58.39837],[13.05934,58.40008],[13.05867,58.39933],[13.0559,58.3991],[13.05488,58.39865],[13.05413,58.39862],[13.05397,58.39813],[13.05193,58.39853],[13.04829,58.39815],[13.04796,58.39911],[13.04706,58.4],[13.04705,58.40041],[13.04577,58.40102],[13.04541,58.40196],[13.04569,58.40268],[13.04553,58.40329],[13.04464,58.40378],[13.0437,58.40506],[13.04388,58.40583],[13.04347,58.40584],[13.0434,58.40608],[13.04377,58.40614],[13.04384,58.40594],[13.04448,58.40613],[13.0445,58.40647],[13.04533,58.40732],[13.04474,58.40766],[13.04387,58.40878],[13.04253,58.4095],[13.04169,58.40977],[13.03923,58.41007],[13.03834,58.41044],[13.03719,58.41226],[13.03712,58.41493],[13.03469,58.41444],[13.03455,58.41478],[13.034,58.41489],[13.0337,58.41564],[13.0329,58.41589],[13.03035,58.41878],[13.03005,58.42011],[13.0384,58.41852],[13.04034,58.41934],[13.04356,58.41993],[13.0446,58.42048],[13.04531,58.42131],[13.04683,58.42236],[13.05051,58.42601],[13.05177,58.42619],[13.05509,58.42589],[13.05651,58.42633],[13.05809,58.42814],[13.06038,58.42952],[13.06089,58.43029],[13.06098,58.43238],[13.06444,58.43526],[13.06508,58.43553],[13.0669,58.43581],[13.07102,58.43534],[13.07198,58.43539],[13.0751,58.43688],[13.07888,58.43738],[13.08001,58.4378],[13.08214,58.43973],[13.08753,58.44374],[13.08804,58.44607],[13.08979,58.44859],[13.08959,58.4502],[13.08997,58.45105],[13.09544,58.45418],[13.09657,58.45665],[13.10104,58.45835],[13.10258,58.45945],[13.1052,58.46303],[13.10484,58.46373],[13.10356,58.46491],[13.10354,58.46556],[13.10573,58.46674],[13.10646,58.46741],[13.10871,58.47053],[13.10887,58.47206],[13.10932,58.47284],[13.10994,58.4732],[13.11293,58.47402],[13.11835,58.47604],[13.12493,58.47784]]]}},{"type":"Feature","id":"1494R003","properties":{"code":"1494R003","name":"Järpås-Lovene"},"geometry":{"type":"Polygon","coordinates":[[[12.92682,58.4289],[12.93306,58.42752],[12.93155,58.427],[12.92925,58.42382],[12.93355,58.42251],[12.93473,58.4224],[12.93587,58.4236],[12.94339,58.42122],[12.94519,58.42255],[12.94467,58.42362],[12.94819,58.42556],[12.95071,58.42208],[12.9514,58.41899],[12.95215,58.41849],[12.95904,58.42068],[12.9601,58.41985],[12.96032,58.42018],[12.9626,58.42113],[12.96356,58.42175],[12.96521,58.42216],[12.96565,58.42367],[12.96552,58.42449],[12.96747,58.42427],[12.96775,58.4241],[12.97253,58.42428],[12.97705,58.42602],[12.9802,58.42413],[12.98141,58.42369],[12.98453,58.42415],[12.98522,58.42291],[12.99231,58.42186],[12.99288,58.42209],[12.99504,58.42221],[12.99701,58.42127],[13.00284,58.42271],[13.00374,58.42312],[13.00519,58.42443],[13.00748,58.424],[13.01066,58.42392],[13.01644,58.4227],[13.02009,58.42222],[13.02144,58.42256],[13.02163,58.42293],[13.0301,58.41992],[13.03035,58.41878],[13.0329,58.41589],[13.0337,58.41564],[13.034,58.41489],[13.03455,58.41478],[13.03469,58.41444],[13.03712,58.41493],[13.03719,58.41226],[13.03846,58.41035],[13.03923,58.41007],[13.0422,58.40962],[13.04426,58.40844],[13.04474,58.40766],[13.04533,58.40732],[13.0445,58.40647],[13.04448,58.40613],[13.04384,58.40594],[13.04377,58.40614],[13.0434,58.40608],[13.04347,58.40584],[13.04388,58.40583],[13.0437,58.40506],[13.04464,58.40378],[13.04553,58.40329],[13.04569,58.40268],[13.04541,58.40196],[13.04577,58.40102],[13.04705,58.40041],[13.04706,58.4],[13.04796,58.39911],[13.04829,58.39815],[13.05193,58.39853],[13.05397,58.39813],[13.05413,58.39862],[13.05488,58.39865],[13.0559,58.3991],[13.05867,58.39933],[13.05934,58.40008],[13.06087,58.39837],[13.06342,58.39764],[13.06398,58.39721],[13.06396,58.39599],[13.062,58.39382],[13.06084,58.39342],[13.05808,58.39334],[13.05721,58.39269],[13.05912,58.3894],[13.05834,58.38644],[13.05944,58.38564],[13.05959,58.38458],[13.0594,58.38347],[13.05728,58.38282],[13.05677,58.3825],[13.05768,58.38135],[13.05756,58.38077],[13.05703,58.38049],[13.05565,58.38033],[13.05449,58.38041],[13.05254,58.38103],[13.05141,58.38104],[13.04901,58.37922],[13.04846,58.37752],[13.04799,58.37709],[13.04681,58.37685],[13.04385,58.37708],[13.04173,58.3766],[13.04151,58.37598],[13.04178,58.37557],[13.04351,58.37508],[13.04435,58.37459],[13.04419,58.37363],[13.04046,58.37121],[13.03843,58.37032],[13.03764,58.36972],[13.03765,58.36915],[13.03817,58.36876],[13.03937,58.36875],[13.03985,58.36843],[13.03871,58.3663],[13.0381,58.36568],[13.03815,58.36531],[13.03843,58.3651],[13.04015,58.36501],[13.0405,58.3646],[13.03907,58.36205],[13.03674,58.36018],[13.03462,58.35963],[13.03375,58.35919],[13.0323,58.35657],[13.033,58.35458],[13.0332,58.35263],[13.03273,58.35173],[13.03338,58.34992],[13.03294,58.34834],[13.03212,58.34749],[13.03264,58.3464],[13.03261,58.34575],[13.03244,58.34546],[13.03136,58.34502],[13.03307,58.34465],[13.03457,58.34278],[13.03233,58.343],[13.03084,58.34402],[13.03021,58.34421],[13.02924,58.34407],[13.02871,58.34372],[13.02816,58.34388],[13.02773,58.34344],[13.02851,58.34277],[13.02926,58.34125],[13.02919,58.34075],[13.02823,58.33989],[13.02455,58.33868],[13.02406,58.33802],[13.02271,58.33714],[13.0224,58.33559],[13.02158,58.33461],[13.01915,58.33417],[13.01844,58.33388],[13.01777,58.33286],[13.01693,58.33249],[13.00989,58.33221],[13.00928,58.33202],[13.0086,58.33089],[13.0068,58.33018],[13.00779,58.32908],[13.00716,58.32825],[13.00701,58.3272],[13.00455,58.32671],[13.00421,58.32635],[13.00405,58.32522],[13.00363,58.32483],[13.00281,58.32462],[13.00069,58.32493],[12.99958,58.32396],[12.99741,58.32358],[12.99596,58.32308],[12.99412,58.32287],[12.99374,58.32208],[12.99337,58.32193],[12.99257,58.32184],[12.99031,58.32202],[12.99002,58.32177],[12.99012,58.32096],[12.98774,58.32058],[12.98863,58.31944],[12.98662,58.31729],[12.98452,58.31674],[12.98348,58.31674],[12.98227,58.3172],[12.98195,58.3178],[12.98105,58.31786],[12.98041,58.31743],[12.98097,58.31642],[12.98035,58.31634],[12.97894,58.31675],[12.97846,58.31644],[12.97843,58.31573],[12.97779,58.31546],[12.97602,58.31589],[12.97547,58.31573],[12.97339,58.31822],[12.9673,58.32152],[12.96641,58.32133],[12.9649,58.3217],[12.96387,58.32171],[12.96302,58.32196],[12.961,58.32326],[12.9591,58.32276],[12.95197,58.32726],[12.94867,58.33142],[12.95141,58.33183],[12.95755,58.33399],[12.9667,58.33757],[12.97351,58.34067],[12.97242,58.34146],[12.978,58.34388],[12.97485,58.34825],[12.96681,58.34555],[12.96212,58.34912],[12.9609,58.35105],[12.96079,58.35168],[12.95775,58.35543],[12.95624,58.35804],[12.95462,58.35952],[12.95489,58.35991],[12.95262,58.36031],[12.95193,58.36091],[12.95247,58.3615],[12.94326,58.36988],[12.92895,58.37786],[12.91909,58.37978],[12.92294,58.38338],[12.92189,58.38635],[12.92124,58.38694],[12.9214,58.38722],[12.92108,58.38759],[12.91945,58.38717],[12.91822,58.38586],[12.90741,58.38363],[12.90727,58.38471],[12.90638,58.38598],[12.9047,58.38667],[12.90362,58.38744],[12.90095,58.38809],[12.89964,58.38889],[12.89705,58.38695],[12.89654,58.38692],[12.89592,58.38651],[12.89048,58.3863],[12.88795,58.38539],[12.88212,58.38474],[12.87687,58.38449],[12.87342,58.38461],[12.87264,58.385],[12.86925,58.38522],[12.86282,58.38519],[12.86061,58.38493],[12.85683,58.38507],[12.85277,58.38596],[12.84535,58.38724],[12.84525,58.38748],[12.86161,58.39185],[12.86037,58.39509],[12.86288,58.39538],[12.86501,58.39618],[12.86708,58.39626],[12.87176,58.39718],[12.87491,58.3974],[12.87469,58.39503],[12.89794,58.39613],[12.89577,58.40041],[12.89526,58.40041],[12.89382,58.40364],[12.8945,58.4076],[12.8938,58.41023],[12.8946,58.41219],[12.89455,58.41331],[12.89567,58.41368],[12.89812,58.41657],[12.89951,58.41679],[12.89982,58.41714],[12.90156,58.4174],[12.90358,58.41746],[12.90523,58.41934],[12.90672,58.42028],[12.90111,58.42179],[12.9026,58.42394],[12.90313,58.42535],[12.91036,58.42307],[12.91303,58.42692],[12.91296,58.42756],[12.91772,58.42707],[12.91798,58.42664],[12.91925,58.42689],[12.92147,58.42654],[12.92214,58.42607],[12.92432,58.42527],[12.92669,58.42734],[12.92682,58.4289]]]}},{"type":"Feature","id":"1494R004","properties":{"code":"1494R004","name":"Kålland-Kållandsö"},"geometry":{"type":"Polygon","coordinates":[[[13.1795,58.75557],[13.2532,58.72533],[13.42508,58.74594],[13.27195,58.61019],[13.21935,58.53381],[13.23456,58.52401],[13.17081,58.52518],[13.16667,58.52801],[13.1689,58.5286],[13.15142,58.53844],[13.1519,58.53928],[13.15351,58.54087],[13.15406,58.5426],[13.15356,58.54428],[13.15167,58.54607],[13.14962,58.54713],[13.14725,58.54791],[13.14362,58.54845],[13.14062,58.54841],[13.13902,58.54926],[13.13726,58.54988],[13.13496,58.55036],[13.13227,58.55062],[13.12814,58.55032],[13.12626,58.54987],[13.12433,58.54913],[13.12023,58.54937],[13.11495,58.54861],[13.11051,58.54763],[13.10747,58.54634],[13.10378,58.54553],[13.10139,58.54445],[13.0998,58.54325],[13.09871,58.54154],[13.09868,58.53964],[13.09993,58.53773],[13.09811,58.53586],[13.09764,58.53397],[13.09837,58.53206],[13.1005,58.53016],[13.10139,58.52818],[13.10178,58.526],[13.10034,58.52522],[13.09888,58.52398],[13.09803,58.52267],[13.09777,58.52159],[13.09214,58.5216],[13.08819,58.52079],[13.08177,58.51999],[13.0772,58.51871],[13.07609,58.51953],[13.075,58.52102],[13.08171,58.52252],[13.08144,58.526],[13.07945,58.52663],[13.07601,58.52664],[13.0744,58.52563],[13.06862,58.52767],[13.06452,58.52783],[13.06261,58.52813],[13.06095,58.52819],[13.04359,58.52663],[13.03937,58.52758],[13.03769,58.53233],[13.03419,58.53402],[13.02188,58.53272],[13.02004,58.53325],[13.01492,58.53136],[13.01413,58.53068],[13.0112,58.53284],[13.00936,58.53264],[13.00976,58.53108],[13.00887,58.53069],[12.99882,58.53322],[12.99846,58.53374],[12.99698,58.53316],[12.99551,58.53429],[12.9945,58.5355],[12.99469,58.53588],[12.99166,58.53734],[12.98997,58.53875],[12.99388,58.54113],[12.98713,58.54656],[12.99248,58.54874],[12.99538,58.55034],[12.99095,58.55219],[12.9901,58.5532],[12.98566,58.55539],[12.98878,58.55817],[12.95248,58.57941],[12.95103,58.58086],[12.95072,58.58081],[12.78988,58.61888],[12.84199,58.6752],[12.89963,58.81427],[13.15144,58.75522],[13.1795,58.75557]]]}},{"type":"Feature","id":"1494R005","properties":{"code":"1494R005","name":"Majåker-Ljunghed-Lidåker"},"geometry":{"type":"Polygon","coordinates":[[[13.15304,58.49482],[13.15372,58.49507],[13.15425,58.49466],[13.15715,58.49401],[13.15618,58.49272],[13.16122,58.4921],[13.16017,58.48989],[13.14937,58.48331],[13.16827,58.47685],[13.17248,58.47649],[13.17092,58.47503],[13.16837,58.47371],[13.16538,58.47294],[13.16215,58.4727],[13.15993,58.47143],[13.15697,58.47055],[13.15433,58.47022],[13.15164,58.47018],[13.14607,58.47057],[13.14398,58.4701],[13.14126,58.46986],[13.13724,58.47017],[13.13274,58.47136],[13.12956,58.47275],[13.12789,58.47387],[13.12556,58.47614],[13.12496,58.47755],[13.12487,58.4805],[13.12548,58.48191],[13.12678,58.4833],[13.12512,58.4853],[13.1249,58.48719],[13.12524,58.48748],[13.12865,58.48581],[13.13045,58.48623],[13.13324,58.48791],[13.13391,58.48756],[13.13425,58.48658],[13.13984,58.48925],[13.14479,58.4913],[13.15048,58.49434],[13.15186,58.49536],[13.15304,58.49482]]]}},{"type":"Feature","id":"1494R006","properties":{"code":"1494R006","name":"Margretelund"},"geometry":{"type":"Polygon","coordinates":[[[13.18172,58.4943],[13.18275,58.4919],[13.185,58.48968],[13.18775,58.4879],[13.19798,58.48223],[13.2019,58.47965],[13.19796,58.47917],[13.1939,58.47948],[13.19147,58.48012],[13.18953,58.48099],[13.18616,58.48177],[13.18326,58.48308],[13.1804,58.48294],[13.17559,58.48241],[13.17169,58.48269],[13.1704,58.48255],[13.17218,58.481],[13.17299,58.47968],[13.17317,58.4781],[13.17248,58.47649],[13.16827,58.47685],[13.14937,58.48331],[13.16017,58.48989],[13.16152,58.49286],[13.16592,58.49298],[13.16607,58.49362],[13.16698,58.49345],[13.16743,58.49384],[13.17465,58.49183],[13.17919,58.49419],[13.18172,58.4943]]]}},{"type":"Feature","id":"1494R008","properties":{"code":"1494R008","name":"Råda Mosse-Dalängen-Lilleskog"},"geometry":{"type":"Polygon","coordinates":[[[13.1693,58.52621],[13.16158,58.51998],[13.14505,58.50996],[13.1423,58.50785],[13.14023,58.50838],[13.13744,58.50583],[13.13833,58.50561],[13.12193,58.49395],[13.11753,58.49548],[13.11448,58.49544],[13.1125,58.49594],[13.11423,58.4987],[13.11536,58.5],[13.11605,58.50058],[13.11843,58.50174],[13.11439,58.50427],[13.11218,58.507],[13.11823,58.51031],[13.11464,58.51484],[13.11295,58.52021],[13.11392,58.52053],[13.114,58.52031],[13.11473,58.52025],[13.11576,58.51987],[13.11633,58.51988],[13.11646,58.51952],[13.11685,58.5194],[13.11656,58.51918],[13.11712,58.5193],[13.11742,58.51866],[13.11762,58.51884],[13.11883,58.51868],[13.11963,58.51885],[13.11974,58.51869],[13.12014,58.5187],[13.12018,58.51843],[13.12038,58.51862],[13.12154,58.51873],[13.12252,58.51841],[13.12302,58.51862],[13.12585,58.51863],[13.12616,58.51885],[13.12664,58.51863],[13.12736,58.51895],[13.12764,58.51857],[13.12797,58.51898],[13.12868,58.51871],[13.12892,58.51885],[13.12938,58.51875],[13.12918,58.51846],[13.13041,58.51882],[13.13111,58.51826],[13.1314,58.51895],[13.131,58.51915],[13.13229,58.5188],[13.13329,58.51939],[13.13502,58.51985],[13.13607,58.51994],[13.14471,58.52214],[13.16667,58.52801],[13.1693,58.52621]]]}},{"type":"Feature","id":"1494R009","properties":{"code":"1494R009","name":"Råda-Askeslätt"},"geometry":{"type":"Polygon","coordinates":[[[13.09777,58.52159],[13.10379,58.52153],[13.10578,58.52128],[13.10843,58.52044],[13.11174,58.51898],[13.1135,58.51868],[13.11464,58.51484],[13.11823,58.51031],[13.11218,58.507],[13.11439,58.50427],[13.11843,58.50174],[13.11605,58.50058],[13.11536,58.5],[13.11423,58.4987],[13.1125,58.49594],[13.11448,58.49544],[13.11753,58.49548],[13.12193,58.49395],[13.11858,58.4916],[13.122,58.48996],[13.12344,58.48951],[13.12442,58.48813],[13.12524,58.48748],[13.12317,58.48582],[13.1212,58.48488],[13.11619,58.48348],[13.11355,58.48305],[13.10944,58.4831],[13.10748,58.48342],[13.10527,58.48408],[13.10247,58.48339],[13.09742,58.4827],[13.0947,58.48273],[13.0894,58.48332],[13.08614,58.48406],[13.08394,58.48494],[13.08193,58.48639],[13.08099,58.48775],[13.08087,58.48987],[13.08222,58.49183],[13.08042,58.49302],[13.07917,58.49468],[13.07822,58.49776],[13.07836,58.49888],[13.07915,58.50029],[13.08069,58.50162],[13.08269,58.50264],[13.08526,58.50341],[13.08808,58.50381],[13.08968,58.50486],[13.09124,58.50552],[13.09533,58.50648],[13.09651,58.5082],[13.09637,58.50931],[13.09664,58.5104],[13.09793,58.51205],[13.10013,58.51341],[13.105,58.51516],[13.10304,58.51588],[13.10064,58.51717],[13.09868,58.51877],[13.0979,58.52017],[13.09777,58.52159]]]}},{"type":"Feature","id":"1494R010","properties":{"code":"1494R010","name":"Tofta-Stenhammar-Sjölunda"},"geometry":{"type":"Polygon","coordinates":[[[13.13846,58.54949],[13.14062,58.54841],[13.14427,58.5484],[13.14784,58.54776],[13.15012,58.54691],[13.15208,58.5458],[13.15356,58.54428],[13.15404,58.54225],[13.15351,58.54087],[13.1519,58.53928],[13.15142,58.53844],[13.1689,58.5286],[13.14471,58.52214],[13.13607,58.51994],[13.13502,58.51985],[13.13329,58.51939],[13.13229,58.5188],[13.131,58.51915],[13.1314,58.51895],[13.13111,58.51826],[13.13041,58.51882],[13.12918,58.51846],[13.12938,58.51875],[13.12892,58.51885],[13.12868,58.51871],[13.12797,58.51898],[13.12764,58.51857],[13.12736,58.51895],[13.12664,58.51863],[13.12616,58.51885],[13.12585,58.51863],[13.12302,58.51862],[13.12252,58.51841],[13.12154,58.51873],[13.12038,58.51862],[13.12018,58.51843],[13.12014,58.5187],[13.11974,58.51869],[13.11963,58.51885],[13.11883,58.51868],[13.11762,58.51884],[13.11742,58.51866],[13.11712,58.5193],[13.11656,58.51918],[13.11685,58.5194],[13.11646,58.51952],[13.11633,58.51988],[13.11576,58.51987],[13.11473,58.52025],[13.114,58.52031],[13.11392,58.52053],[13.11295,58.52021],[13.1135,58.51868],[13.11174,58.51898],[13.10843,58.52044],[13.10578,58.52128],[13.10379,58.52153],[13.09777,58.52159],[13.09803,58.52267],[13.09888,58.52398],[13.10034,58.52522],[13.10178,58.526],[13.10139,58.52818],[13.1005,58.53016],[13.09837,58.53206],[13.09764,58.53397],[13.09811,58.53586],[13.09993,58.53773],[13.09868,58.53964],[13.09871,58.54154],[13.09952,58.54294],[13.10097,58.54419],[13.10378,58.54553],[13.10747,58.54634],[13.11051,58.54763],[13.11824,58.54919],[13.12099,58.54939],[13.12433,58.54913],[13.12753,58.5502],[13.13156,58.55063],[13.13496,58.55036],[13.13846,58.54949]]]}},{"type":"Feature","id":"1494R011","properties":{"code":"1494R011","name":"Vinninga-Filsbäck"},"geometry":{"type":"Polygon","coordinates":[[[13.1956,58.52473],[13.23456,58.52401],[13.26441,58.50475],[13.26701,58.4971],[13.26677,58.49614],[13.26698,58.49437],[13.26631,58.49382],[13.26731,58.49331],[13.26696,58.49311],[13.26542,58.49313],[13.26459,58.49334],[13.26358,58.49284],[13.26451,58.49298],[13.26432,58.49249],[13.26497,58.49243],[13.26526,58.49191],[13.26665,58.49158],[13.26654,58.49118],[13.26559,58.49089],[13.26747,58.4906],[13.26638,58.49052],[13.26715,58.49013],[13.26634,58.48983],[13.26603,58.48942],[13.26631,58.48928],[13.26678,58.48968],[13.26679,58.48913],[13.26797,58.48925],[13.26724,58.48888],[13.26703,58.48852],[13.26816,58.48871],[13.26824,58.48811],[13.26959,58.48779],[13.26885,58.48747],[13.27037,58.4873],[13.27101,58.48768],[13.27125,58.48707],[13.27267,58.48743],[13.27293,58.48648],[13.27364,58.48666],[13.27401,58.48705],[13.27482,58.48681],[13.27543,58.48701],[13.27624,58.48691],[13.27618,58.48672],[13.27514,58.4864],[13.27618,58.48622],[13.27693,58.48616],[13.27717,58.48637],[13.27813,58.48639],[13.27738,58.48574],[13.27906,58.48571],[13.28003,58.48485],[13.28014,58.48445],[13.28117,58.48439],[13.28163,58.48403],[13.29285,58.48708],[13.29381,58.48671],[13.29135,58.48592],[13.29285,58.48487],[13.29341,58.48508],[13.29423,58.4845],[13.28846,58.48227],[13.28906,58.48203],[13.28997,58.4812],[13.29033,58.48111],[13.29078,58.48141],[13.29119,58.48136],[13.2918,58.48107],[13.29183,58.48059],[13.29307,58.48071],[13.29362,58.48023],[13.29419,58.48056],[13.2953,58.48022],[13.29633,58.48034],[13.29643,58.47965],[13.29708,58.48019],[13.29766,58.48008],[13.29789,58.47953],[13.29823,58.47943],[13.29972,58.47975],[13.3,58.47953],[13.30046,58.47953],[13.3004,58.47876],[13.30248,58.47785],[13.30274,58.47827],[13.30402,58.47822],[13.30461,58.47875],[13.30547,58.47861],[13.30589,58.47802],[13.30719,58.47865],[13.30774,58.47807],[13.30832,58.47811],[13.30862,58.47768],[13.31022,58.47744],[13.31031,58.47672],[13.31098,58.47686],[13.31165,58.47654],[13.31092,58.4762],[13.31084,58.47581],[13.3123,58.47552],[13.3123,58.47504],[13.31327,58.47488],[13.31267,58.47459],[13.31206,58.47498],[13.31097,58.47467],[13.31087,58.47438],[13.31181,58.47408],[13.31191,58.47385],[13.31044,58.47389],[13.30933,58.47446],[13.30928,58.47394],[13.3083,58.47423],[13.30762,58.47415],[13.30673,58.47371],[13.30562,58.47379],[13.30553,58.47356],[13.3061,58.47331],[13.30559,58.47273],[13.30432,58.47279],[13.30415,58.47306],[13.30322,58.47275],[13.30348,58.4717],[13.30486,58.47162],[13.30501,58.47148],[13.3044,58.47114],[13.30451,58.47094],[13.3054,58.47104],[13.30577,58.47062],[13.3055,58.47011],[13.30588,58.46984],[13.3065,58.46999],[13.30688,58.46968],[13.30628,58.4695],[13.30648,58.46914],[13.30595,58.46905],[13.30541,58.46801],[13.30478,58.46784],[13.30516,58.46726],[13.3049,58.46671],[13.30445,58.46652],[13.30518,58.46633],[13.30508,58.46615],[13.30403,58.46526],[13.30329,58.46517],[13.30357,58.46468],[13.30324,58.46437],[13.30238,58.46432],[13.30181,58.46384],[13.30266,58.46323],[13.30216,58.46279],[13.30306,58.46274],[13.30358,58.46206],[13.30496,58.46223],[13.30453,58.46157],[13.30521,58.46152],[13.30599,58.46105],[13.30577,58.46086],[13.30439,58.46058],[13.30472,58.46025],[13.3055,58.46043],[13.30582,58.4601],[13.30489,58.45978],[13.30536,58.45927],[13.30591,58.45957],[13.30593,58.4594],[13.30668,58.45916],[13.30634,58.45882],[13.30518,58.4588],[13.30594,58.45843],[13.30662,58.45862],[13.30676,58.45824],[13.30654,58.45782],[13.30563,58.45763],[13.30607,58.45735],[13.3051,58.45678],[13.30504,58.45652],[13.30536,58.45646],[13.30585,58.45677],[13.30596,58.45575],[13.3068,58.45561],[13.30888,58.45388],[13.30948,58.45364],[13.3104,58.45403],[13.31091,58.45396],[13.31113,58.45361],[13.3107,58.45323],[13.31114,58.45287],[13.31163,58.453],[13.31172,58.45358],[13.31229,58.45346],[13.31283,58.453],[13.31438,58.45295],[13.31384,58.45227],[13.31404,58.45196],[13.31569,58.45198],[13.315,58.45169],[13.31448,58.45111],[13.31467,58.45094],[13.31499,58.45088],[13.3153,58.45119],[13.31562,58.4512],[13.31705,58.45071],[13.31762,58.45086],[13.31808,58.45076],[13.31778,58.4504],[13.31935,58.44957],[13.31907,58.44937],[13.31852,58.44955],[13.31837,58.44941],[13.31973,58.44834],[13.31898,58.4478],[13.31894,58.44751],[13.32038,58.44729],[13.31943,58.44696],[13.31949,58.44672],[13.32025,58.4464],[13.3191,58.44567],[13.31937,58.44561],[13.31995,58.44596],[13.32025,58.44546],[13.32249,58.44523],[13.32249,58.44503],[13.32186,58.44498],[13.32172,58.44478],[13.3227,58.44433],[13.32251,58.44373],[13.32359,58.44338],[13.32296,58.44294],[13.32307,58.44241],[13.32364,58.44204],[13.3246,58.44205],[13.32498,58.44147],[13.3279,58.4405],[13.32773,58.44007],[13.32803,58.43971],[13.31779,58.43719],[13.32086,58.43578],[13.32157,58.43474],[13.32047,58.43386],[13.31976,58.43402],[13.31917,58.43335],[13.31817,58.43358],[13.31479,58.43344],[13.31347,58.43253],[13.31008,58.43225],[13.30848,58.43154],[13.30654,58.43175],[13.30454,58.4325],[13.30532,58.43505],[13.3058,58.43567],[13.30553,58.43631],[13.30284,58.43682],[13.30229,58.43782],[13.31138,58.44183],[13.3103,58.44207],[13.30765,58.4424],[13.30488,58.4424],[13.29884,58.44344],[13.2984,58.44323],[13.2983,58.44238],[13.29931,58.44102],[13.29854,58.44084],[13.29561,58.44085],[13.29575,58.43974],[13.2908,58.44144],[13.28529,58.44426],[13.28334,58.44362],[13.2774,58.44238],[13.27638,58.44203],[13.27089,58.44176],[13.26533,58.44114],[13.26428,58.44147],[13.26177,58.44078],[13.25894,58.44042],[13.25469,58.4406],[13.25174,58.44124],[13.24905,58.44243],[13.24588,58.44255],[13.24268,58.4432],[13.23869,58.44488],[13.23595,58.44671],[13.2343,58.44934],[13.23445,58.45146],[13.23614,58.45344],[13.23944,58.45519],[13.23256,58.4569],[13.23212,58.45665],[13.23017,58.45691],[13.22794,58.4576],[13.22638,58.45788],[13.2209,58.45793],[13.21904,58.45765],[13.21874,58.45868],[13.21804,58.4588],[13.21428,58.45822],[13.2063,58.45772],[13.20311,58.45712],[13.19865,58.45545],[13.18939,58.45819],[13.18826,58.46106],[13.18723,58.46747],[13.18113,58.46981],[13.18146,58.47138],[13.18113,58.47169],[13.18052,58.4717],[13.17999,58.47198],[13.17948,58.47252],[13.18025,58.47416],[13.17923,58.4742],[13.17926,58.47522],[13.17968,58.47523],[13.18018,58.47557],[13.18014,58.47584],[13.17248,58.47649],[13.17317,58.4781],[13.17299,58.47968],[13.17218,58.481],[13.1704,58.48255],[13.17169,58.48269],[13.17418,58.48242],[13.17624,58.48243],[13.1804,58.48294],[13.18326,58.48308],[13.18612,58.48178],[13.18953,58.48099],[13.19265,58.47976],[13.1959,58.47922],[13.19867,58.4792],[13.20196,58.47966],[13.20716,58.48127],[13.20959,58.48256],[13.21132,58.48387],[13.21216,58.48486],[13.2127,58.48699],[13.21239,58.48805],[13.21139,58.48938],[13.21158,58.49087],[13.21098,58.49242],[13.21157,58.49391],[13.21142,58.49534],[13.21181,58.49719],[13.21079,58.49927],[13.20931,58.50049],[13.20732,58.50146],[13.20489,58.50215],[13.20095,58.50279],[13.20034,58.50397],[13.1994,58.50493],[13.19639,58.5066],[13.19386,58.50742],[13.19146,58.50791],[13.19014,58.51018],[13.18837,58.51156],[13.18972,58.51363],[13.19031,58.51384],[13.1956,58.52473]]]}},{"type":"Feature","id":"1494R012","properties":{"code":"1494R012","name":"Örslösa-Tun"},"geometry":{"type":"Polygon","coordinates":[[[12.78988,58.61888],[12.95072,58.58081],[12.95103,58.58086],[12.95248,58.57941],[12.98878,58.55817],[12.98566,58.55539],[12.9901,58.5532],[12.99095,58.55219],[12.99538,58.55034],[12.99248,58.54874],[12.98713,58.54656],[12.99388,58.54113],[12.98997,58.53875],[12.99166,58.53734],[12.99469,58.53588],[12.9945,58.5355],[12.99551,58.53429],[12.99698,58.53316],[12.99846,58.53374],[12.99882,58.53322],[13.00887,58.53069],[13.00976,58.53108],[13.00936,58.53264],[13.0112,58.53284],[13.01413,58.53068],[13.01492,58.53136],[13.02004,58.53325],[13.02188,58.53272],[13.03419,58.53402],[13.03769,58.53233],[13.03937,58.52758],[13.04359,58.52663],[13.06095,58.52819],[13.06261,58.52813],[13.06452,58.52783],[13.06862,58.52767],[13.0744,58.52563],[13.07601,58.52664],[13.07945,58.52663],[13.08144,58.526],[13.08171,58.52252],[13.075,58.52102],[13.07609,58.51953],[13.0772,58.51871],[13.08177,58.51999],[13.08819,58.52079],[13.09214,58.5216],[13.09777,58.52159],[13.09802,58.51983],[13.09937,58.51807],[13.10256,58.51612],[13.105,58.51516],[13.10013,58.51341],[13.09793,58.51205],[13.09664,58.5104],[13.09637,58.50931],[13.09651,58.5082],[13.09533,58.50648],[13.09124,58.50552],[13.08968,58.50486],[13.08808,58.50381],[13.08526,58.50341],[13.08269,58.50264],[13.08069,58.50162],[13.07915,58.50029],[13.07836,58.49888],[13.07822,58.49776],[13.07917,58.49468],[13.08042,58.49302],[13.08222,58.49183],[13.08119,58.49059],[13.08079,58.48953],[13.08116,58.48739],[13.08304,58.48548],[13.08614,58.48406],[13.0894,58.48332],[13.09606,58.48267],[13.09945,58.48292],[13.10315,58.48351],[13.10527,58.48408],[13.10748,58.48342],[13.11014,58.48303],[13.1122,58.48298],[13.11487,58.48322],[13.12006,58.48451],[13.12173,58.48508],[13.1236,58.48611],[13.12494,58.48737],[13.12512,58.4853],[13.12678,58.4833],[13.12548,58.48191],[13.12496,58.48087],[13.12493,58.47784],[13.11835,58.47604],[13.11293,58.47402],[13.10994,58.4732],[13.10932,58.47284],[13.10887,58.47206],[13.10871,58.47053],[13.10646,58.46741],[13.10573,58.46674],[13.10354,58.46556],[13.10356,58.46491],[13.10484,58.46373],[13.1052,58.46303],[13.10258,58.45945],[13.10104,58.45835],[13.09657,58.45665],[13.09544,58.45418],[13.08997,58.45105],[13.08959,58.4502],[13.08979,58.44859],[13.08804,58.44607],[13.08753,58.44374],[13.08214,58.43973],[13.08015,58.4379],[13.07888,58.43738],[13.0751,58.43688],[13.07198,58.43539],[13.07102,58.43534],[13.0669,58.43581],[13.06508,58.43553],[13.06444,58.43526],[13.06098,58.43238],[13.06089,58.43029],[13.06038,58.42952],[13.05809,58.42814],[13.05651,58.42633],[13.05509,58.42589],[13.05177,58.42619],[13.05051,58.42601],[13.04683,58.42236],[13.04531,58.42131],[13.0446,58.42048],[13.04356,58.41993],[13.04034,58.41934],[13.0384,58.41852],[13.03005,58.42011],[13.0301,58.41992],[13.02163,58.42293],[13.02144,58.42256],[13.02009,58.42222],[13.01644,58.4227],[13.01066,58.42392],[13.00748,58.424],[13.00519,58.42443],[13.00374,58.42312],[13.00284,58.42271],[12.99701,58.42127],[12.99504,58.42221],[12.99288,58.42209],[12.99231,58.42186],[12.98522,58.42291],[12.98453,58.42415],[12.98141,58.42369],[12.9802,58.42413],[12.97705,58.42602],[12.97253,58.42428],[12.96775,58.4241],[12.96747,58.42427],[12.96552,58.42449],[12.96565,58.42367],[12.96521,58.42216],[12.96356,58.42175],[12.9626,58.42113],[12.96032,58.42018],[12.9601,58.41985],[12.95904,58.42068],[12.95215,58.41849],[12.9514,58.41899],[12.95071,58.42208],[12.94819,58.42556],[12.94467,58.42362],[12.94519,58.42255],[12.94339,58.42122],[12.93587,58.4236],[12.93473,58.4224],[12.93355,58.42251],[12.92925,58.42382],[12.93155,58.427],[12.93306,58.42752],[12.92682,58.4289],[12.92669,58.42734],[12.92432,58.42527],[12.92214,58.42607],[12.92147,58.42654],[12.91925,58.42689],[12.91798,58.42664],[12.91772,58.42707],[12.91296,58.42756],[12.91303,58.42692],[12.91036,58.42307],[12.90313,58.42535],[12.9026,58.42394],[12.90111,58.42179],[12.90672,58.42028],[12.90523,58.41934],[12.90358,58.41746],[12.90156,58.4174],[12.89982,58.41714],[12.89951,58.41679],[12.89812,58.41657],[12.89567,58.41368],[12.89455,58.41331],[12.8946,58.41219],[12.8938,58.41023],[12.8945,58.4076],[12.89429,58.40528],[12.89375,58.40392],[12.89526,58.40041],[12.89577,58.40041],[12.89794,58.39613],[12.87469,58.39503],[12.87491,58.3974],[12.87176,58.39718],[12.86708,58.39626],[12.86501,58.39618],[12.86288,58.39538],[12.86037,58.39509],[12.86161,58.39185],[12.84525,58.38748],[12.8451,58.38818],[12.84385,58.38994],[12.84229,58.39158],[12.84254,58.39247],[12.84236,58.39508],[12.84089,58.39615],[12.84106,58.39715],[12.84062,58.39754],[12.84124,58.39975],[12.84207,58.39968],[12.84193,58.40068],[12.84119,58.40212],[12.84008,58.40301],[12.83906,58.40516],[12.83902,58.40674],[12.83855,58.40754],[12.8387,58.40914],[12.84407,58.41082],[12.84425,58.41134],[12.84495,58.41132],[12.845,58.41159],[12.84434,58.4122],[12.84487,58.41337],[12.84336,58.4135],[12.84143,58.41314],[12.8493,58.42622],[12.84838,58.4265],[12.85261,58.43047],[12.85388,58.43467],[12.84571,58.43271],[12.8459,58.43261],[12.8451,58.43226],[12.8446,58.43137],[12.84325,58.4268],[12.8394,58.42523],[12.83678,58.42577],[12.83335,58.42686],[12.8317,58.42571],[12.82663,58.42363],[12.82526,58.4227],[12.82299,58.4217],[12.81863,58.42019],[12.81501,58.41926],[12.81114,58.41757],[12.80986,58.41736],[12.80618,58.41629],[12.80415,58.41547],[12.79388,58.41431],[12.79204,58.41369],[12.78796,58.41175],[12.7842,58.41126],[12.78054,58.40929],[12.77711,58.41011],[12.77655,58.40869],[12.76653,58.40938],[12.76659,58.40757],[12.76629,58.40716],[12.76301,58.4068],[12.75867,58.40741],[12.74927,58.40829],[12.74685,58.40877],[12.74731,58.41021],[12.74842,58.41009],[12.74878,58.4108],[12.74241,58.41191],[12.73686,58.41317],[12.73445,58.41261],[12.73305,58.41047],[12.72645,58.4053],[12.72427,58.40494],[12.70555,58.39916],[12.69888,58.39443],[12.69394,58.38986],[12.69268,58.39018],[12.68846,58.39075],[12.67988,58.39346],[12.6752,58.39424],[12.67048,58.39566],[12.66829,58.39778],[12.66365,58.40121],[12.6659,58.40231],[12.66313,58.40394],[12.66028,58.40339],[12.65808,58.40516],[12.65707,58.40476],[12.648,58.40656],[12.65036,58.40822],[12.64613,58.41337],[12.65586,58.42249],[12.64777,58.4419],[12.64402,58.44913],[12.66486,58.46233],[12.71657,58.49435],[12.74266,58.56768],[12.78988,58.61888]]]}}]}