{"type":"FeatureCollection","features":[{"type":"Feature","id":"1495R003","properties":{"code":"1495R003","name":"Skara tätort centrala västra"},"geometry":{"type":"Polygon","coordinates":[[[13.423,58.38857],[13.42627,58.38834],[13.43184,58.38446],[13.43124,58.3843],[13.43154,58.38398],[13.42651,58.38279],[13.42405,58.38383],[13.42441,58.38467],[13.42361,58.38479],[13.42357,58.38514],[13.42415,58.38519],[13.42399,58.38614],[13.4209,58.38582],[13.41716,58.38498],[13.41697,58.38728],[13.41669,58.38753],[13.41858,58.38772],[13.41995,58.38815],[13.423,58.38857]]]}},{"type":"Feature","id":"1495R001","properties":{"code":"1495R001","name":"Axvall"},"geometry":{"type":"Polygon","coordinates":[[[13.57945,58.4001],[13.58549,58.39951],[13.58738,58.39916],[13.58962,58.39841],[13.59178,58.39711],[13.59505,58.39269],[13.5952,58.39124],[13.59468,58.38989],[13.59715,58.38846],[13.59849,58.38682],[13.5988,58.38572],[13.5986,58.38431],[13.59748,58.38254],[13.59447,58.37969],[13.59147,58.37826],[13.58785,58.37754],[13.58546,58.37497],[13.58311,58.37361],[13.58057,58.3728],[13.57772,58.37238],[13.5743,58.37146],[13.57158,58.37122],[13.56888,58.37134],[13.56616,58.37172],[13.56381,58.37235],[13.5622,58.37305],[13.56058,58.37416],[13.55926,58.37611],[13.55915,58.37715],[13.55951,58.37837],[13.55729,58.37897],[13.55527,58.37991],[13.55372,58.38111],[13.55264,58.38246],[13.55187,58.38467],[13.55212,58.38649],[13.55333,58.38883],[13.55558,58.39055],[13.55697,58.39299],[13.55896,58.39438],[13.56171,58.39561],[13.56347,58.39616],[13.56674,58.39672],[13.56905,58.39683],[13.57085,58.39826],[13.57356,58.39938],[13.57612,58.39992],[13.57945,58.4001]]]}},{"type":"Feature","id":"1495R002","properties":{"code":"1495R002","name":"Skara tätort centrala södra"},"geometry":{"type":"Polygon","coordinates":[[[13.43339,58.38494],[13.43342,58.38396],[13.43425,58.38401],[13.43433,58.38339],[13.43513,58.38285],[13.44384,58.3832],[13.44397,58.38238],[13.44294,58.38157],[13.44217,58.37953],[13.44066,58.37967],[13.43918,58.37927],[13.43923,58.37891],[13.43876,58.37859],[13.43962,58.37793],[13.43881,58.37665],[13.43703,58.37638],[13.43598,58.37736],[13.43229,58.37916],[13.43132,58.38071],[13.43078,58.38279],[13.42726,58.38261],[13.42651,58.38279],[13.43154,58.38398],[13.43124,58.3843],[13.43187,58.38446],[13.43185,58.38491],[13.43339,58.38494]]]}},{"type":"Feature","id":"1495R004","properties":{"code":"1495R004","name":"Skara tätort centrala östra"},"geometry":{"type":"Polygon","coordinates":[[[13.44904,58.3905],[13.45243,58.38887],[13.45341,58.38801],[13.45362,58.38649],[13.4528,58.38509],[13.45112,58.38439],[13.44861,58.38368],[13.44673,58.38339],[13.44365,58.38313],[13.43501,58.38288],[13.43433,58.38339],[13.43425,58.38401],[13.43342,58.38396],[13.43324,58.3866],[13.43433,58.38755],[13.43594,58.38734],[13.43796,58.38781],[13.44139,58.38796],[13.44196,58.38831],[13.44377,58.38834],[13.44636,58.38994],[13.44904,58.3905]]]}},{"type":"Feature","id":"1495R005","properties":{"code":"1495R005","name":"Skara tätort nordvästra"},"geometry":{"type":"Polygon","coordinates":[[[13.41497,58.39899],[13.42065,58.39442],[13.42399,58.39401],[13.42582,58.39348],[13.42574,58.39308],[13.42835,58.39271],[13.42891,58.39346],[13.4367,58.39258],[13.4391,58.39255],[13.43949,58.39105],[13.43943,58.38837],[13.43984,58.38795],[13.43796,58.38781],[13.43594,58.38734],[13.43433,58.38755],[13.43324,58.3866],[13.43339,58.38494],[13.43185,58.38491],[13.43178,58.38444],[13.4261,58.38843],[13.42415,58.38841],[13.42263,58.3886],[13.42148,58.38829],[13.41995,58.38815],[13.41858,58.38772],[13.4146,58.38724],[13.40885,58.38702],[13.40737,58.38722],[13.40694,58.38689],[13.40296,58.38616],[13.40316,58.38516],[13.39535,58.38425],[13.38808,58.38535],[13.38866,58.3866],[13.38956,58.38757],[13.39232,58.38916],[13.39601,58.3901],[13.39885,58.39044],[13.40104,58.39047],[13.40076,58.39199],[13.40121,58.39339],[13.40233,58.39471],[13.40406,58.39584],[13.40977,58.3983],[13.41221,58.39883],[13.41497,58.39899]]]}},{"type":"Feature","id":"1495R006","properties":{"code":"1495R006","name":"Skara tätort nordöstra"},"geometry":{"type":"Polygon","coordinates":[[[13.43778,58.41416],[13.44181,58.41376],[13.44419,58.41308],[13.44573,58.41237],[13.44792,58.41056],[13.44899,58.40872],[13.44929,58.40731],[13.45069,58.40688],[13.45246,58.40774],[13.45489,58.40846],[13.45703,58.4088],[13.45994,58.40891],[13.46288,58.40863],[13.46639,58.40781],[13.46868,58.40705],[13.47014,58.40629],[13.47161,58.40507],[13.47254,58.40335],[13.47284,58.40178],[13.4727,58.40018],[13.47342,58.39873],[13.4742,58.39486],[13.47368,58.39249],[13.4764,58.39087],[13.47878,58.38999],[13.48182,58.38826],[13.48314,58.38699],[13.48388,58.38544],[13.48075,58.38528],[13.47336,58.38411],[13.46306,58.38399],[13.45957,58.38415],[13.45971,58.38427],[13.45309,58.38555],[13.45362,58.38649],[13.45341,58.38801],[13.45243,58.38887],[13.44922,58.39048],[13.44885,58.39052],[13.44636,58.38994],[13.44395,58.38838],[13.44196,58.38831],[13.44139,58.38796],[13.43984,58.38795],[13.43943,58.38837],[13.43949,58.39105],[13.4391,58.39255],[13.4367,58.39258],[13.42891,58.39346],[13.42835,58.39271],[13.42574,58.39308],[13.42582,58.39348],[13.42399,58.39401],[13.42065,58.39442],[13.41495,58.39902],[13.41819,58.39905],[13.42097,58.39872],[13.42423,58.39898],[13.42618,58.39896],[13.4262,58.40067],[13.42656,58.40165],[13.42494,58.40499],[13.42471,58.40645],[13.42534,58.40842],[13.42687,58.4105],[13.42855,58.41205],[13.43108,58.41325],[13.43419,58.41397],[13.43778,58.41416]]]}},{"type":"Feature","id":"1495R007","properties":{"code":"1495R007","name":"Skara tätort sydvästra"},"geometry":{"type":"Polygon","coordinates":[[[13.41687,58.38749],[13.41716,58.38498],[13.4209,58.38582],[13.42399,58.38614],[13.42415,58.38519],[13.42357,58.38514],[13.42361,58.38479],[13.42441,58.38467],[13.42405,58.38383],[13.42726,58.38261],[13.43078,58.38279],[13.43132,58.38071],[13.43229,58.37916],[13.43598,58.37736],[13.43703,58.37638],[13.43308,58.37578],[13.43229,58.37409],[13.43239,58.37365],[13.43175,58.37342],[13.43118,58.37147],[13.42913,58.37127],[13.42814,58.36861],[13.42449,58.36165],[13.42162,58.35763],[13.42,58.35958],[13.4194,58.36101],[13.41941,58.36213],[13.42031,58.36393],[13.42045,58.36561],[13.41784,58.36529],[13.41235,58.3653],[13.408,58.36491],[13.40507,58.36514],[13.40251,58.36572],[13.40078,58.36639],[13.39685,58.36848],[13.39548,58.3697],[13.39475,58.37102],[13.39103,58.37175],[13.38748,58.37321],[13.38553,58.37488],[13.38467,58.37673],[13.38485,58.37865],[13.38562,58.38027],[13.38675,58.38161],[13.38856,58.3828],[13.38803,58.38414],[13.38808,58.38535],[13.39535,58.38425],[13.40316,58.38516],[13.40296,58.38616],[13.40694,58.38689],[13.40737,58.38722],[13.40885,58.38702],[13.4146,58.38724],[13.41687,58.38749]]]}},{"type":"Feature","id":"1495R008","properties":{"code":"1495R008","name":"Skara tätort sydöstra"},"geometry":{"type":"Polygon","coordinates":[[[13.45309,58.38555],[13.45971,58.38427],[13.45957,58.38415],[13.46306,58.38399],[13.47336,58.38411],[13.48075,58.38528],[13.48388,58.38544],[13.48474,58.38352],[13.48423,58.38137],[13.48282,58.37971],[13.47996,58.37817],[13.47756,58.37751],[13.47558,58.37723],[13.47282,58.37718],[13.47029,58.37742],[13.46806,58.37694],[13.46782,58.37569],[13.46718,58.37462],[13.4658,58.37335],[13.46436,58.37252],[13.46071,58.37136],[13.45504,58.37057],[13.45187,58.3672],[13.45148,58.36547],[13.45041,58.36411],[13.44915,58.36317],[13.44695,58.36206],[13.44545,58.3602],[13.43943,58.35598],[13.43699,58.35509],[13.43373,58.35452],[13.43012,58.35451],[13.42733,58.35494],[13.42427,58.35597],[13.42162,58.35763],[13.42449,58.36165],[13.42814,58.36861],[13.42913,58.37127],[13.43118,58.37147],[13.43175,58.37342],[13.43239,58.37365],[13.43229,58.37409],[13.43308,58.37578],[13.43881,58.37665],[13.43962,58.37793],[13.43876,58.37859],[13.43923,58.37891],[13.43918,58.37927],[13.44066,58.37967],[13.44217,58.37953],[13.44294,58.38157],[13.44397,58.38238],[13.44384,58.3832],[13.44861,58.38368],[13.45205,58.38476],[13.4528,58.38509],[13.45309,58.38555]]]}},{"type":"Feature","id":"1495R009","properties":{"code":"1495R009","name":"Skara västra omland-Ardala"},"geometry":{"type":"Polygon","coordinates":[[[13.32051,58.44833],[13.32151,58.44728],[13.32227,58.44708],[13.32191,58.44662],[13.32306,58.44622],[13.32547,58.44597],[13.32633,58.44484],[13.32838,58.44373],[13.32918,58.44357],[13.33032,58.44298],[13.33056,58.44259],[13.33356,58.44043],[13.33507,58.43986],[13.33682,58.43888],[13.33844,58.43775],[13.33971,58.43626],[13.3427,58.43758],[13.34391,58.43887],[13.34513,58.43926],[13.34589,58.43988],[13.3486,58.44033],[13.34862,58.44064],[13.34917,58.44087],[13.35036,58.44088],[13.35129,58.44045],[13.35216,58.4406],[13.35231,58.44087],[13.35369,58.44084],[13.35402,58.44036],[13.35436,58.44039],[13.35433,58.44009],[13.35506,58.44032],[13.35531,58.43975],[13.35621,58.4402],[13.35705,58.44002],[13.35714,58.43984],[13.35769,58.44007],[13.35814,58.43962],[13.35863,58.4399],[13.3597,58.43972],[13.36024,58.43922],[13.36068,58.43955],[13.36158,58.43955],[13.36234,58.4395],[13.36327,58.43913],[13.36422,58.43911],[13.3648,58.43948],[13.36528,58.43904],[13.36659,58.43889],[13.36655,58.43854],[13.3671,58.43868],[13.36767,58.43854],[13.36803,58.43816],[13.36897,58.43801],[13.36868,58.43774],[13.37057,58.43729],[13.3711,58.43692],[13.3716,58.43685],[13.37159,58.43665],[13.37256,58.43652],[13.37321,58.43589],[13.37531,58.43625],[13.37641,58.43599],[13.37683,58.43622],[13.37722,58.43614],[13.37773,58.43631],[13.37812,58.43597],[13.38137,58.43571],[13.38218,58.43553],[13.38278,58.43509],[13.38383,58.43495],[13.38422,58.43506],[13.38432,58.43481],[13.38476,58.43472],[13.38552,58.43484],[13.38666,58.43453],[13.38762,58.43457],[13.38895,58.43423],[13.38924,58.43404],[13.38888,58.43399],[13.38902,58.43379],[13.38973,58.43375],[13.39013,58.4333],[13.39121,58.43341],[13.39289,58.43311],[13.39345,58.4333],[13.39352,58.43304],[13.3941,58.43303],[13.39453,58.43275],[13.39469,58.43309],[13.39506,58.43313],[13.39681,58.4325],[13.39757,58.43259],[13.39927,58.43203],[13.39979,58.43249],[13.40033,58.43247],[13.40129,58.43281],[13.40205,58.43238],[13.40252,58.43243],[13.40244,58.43219],[13.4033,58.43234],[13.40372,58.43222],[13.40478,58.43235],[13.40528,58.43265],[13.40652,58.43267],[13.40676,58.43292],[13.40781,58.4329],[13.40815,58.43313],[13.40918,58.43225],[13.40806,58.43117],[13.40833,58.43033],[13.40867,58.43014],[13.41087,58.42982],[13.41261,58.42926],[13.41385,58.42864],[13.41587,58.42844],[13.41482,58.42825],[13.4145,58.42739],[13.4108,58.4273],[13.40892,58.42627],[13.40809,58.42629],[13.40781,58.42572],[13.40632,58.42567],[13.40504,58.42535],[13.40332,58.4258],[13.40247,58.42566],[13.40205,58.42456],[13.40124,58.42474],[13.40078,58.42512],[13.40028,58.42492],[13.39917,58.42528],[13.39736,58.42479],[13.39592,58.42481],[13.39566,58.42466],[13.3943,58.42488],[13.3938,58.42479],[13.39202,58.42529],[13.38982,58.42504],[13.38763,58.42414],[13.38868,58.42362],[13.3905,58.42315],[13.39158,58.42318],[13.39263,58.42345],[13.3948,58.42298],[13.39499,58.4222],[13.39655,58.42208],[13.39716,58.42161],[13.39947,58.42165],[13.40076,58.42134],[13.40128,58.42094],[13.40126,58.4205],[13.40629,58.41781],[13.40775,58.41643],[13.40908,58.41561],[13.40935,58.41498],[13.4112,58.41367],[13.4116,58.4128],[13.41244,58.41206],[13.41252,58.41158],[13.41012,58.41133],[13.40781,58.41153],[13.40825,58.40962],[13.40875,58.40886],[13.40871,58.40834],[13.4114,58.40787],[13.41364,58.40441],[13.41402,58.40285],[13.41268,58.40281],[13.41106,58.40305],[13.41112,58.40132],[13.41212,58.40133],[13.41293,58.4009],[13.41439,58.39996],[13.41495,58.39902],[13.41221,58.39883],[13.40977,58.3983],[13.40314,58.39532],[13.40198,58.39439],[13.40104,58.39306],[13.40075,58.39165],[13.40104,58.39047],[13.39821,58.39038],[13.39467,58.38986],[13.39181,58.38895],[13.38994,58.38788],[13.38868,58.38662],[13.38813,58.38556],[13.38803,58.38414],[13.38856,58.3828],[13.38685,58.38169],[13.38583,58.38059],[13.38485,58.37865],[13.38463,58.37708],[13.3853,58.3752],[13.38706,58.37347],[13.38842,58.37271],[13.39103,58.37175],[13.39475,58.37102],[13.39546,58.36973],[13.39646,58.36876],[13.40128,58.36617],[13.40384,58.36537],[13.40652,58.36497],[13.40931,58.36493],[13.41235,58.3653],[13.41376,58.36521],[13.41363,58.35635],[13.41972,58.35472],[13.40786,58.34909],[13.39271,58.34551],[13.39597,58.34128],[13.39525,58.341],[13.39504,58.34115],[13.38895,58.33819],[13.38863,58.33838],[13.38839,58.33826],[13.38742,58.33755],[13.38647,58.33611],[13.38475,58.3363],[13.37697,58.33901],[13.37552,58.3384],[13.37305,58.3334],[13.3712,58.32497],[13.38294,58.32536],[13.37788,58.32154],[13.37748,58.32035],[13.37958,58.31801],[13.37714,58.31356],[13.37344,58.31349],[13.37111,58.30988],[13.37156,58.30973],[13.36939,58.30833],[13.37131,58.30728],[13.36978,58.30557],[13.37041,58.30537],[13.37367,58.3089],[13.3743,58.30875],[13.37152,58.30419],[13.37295,58.30297],[13.37147,58.30045],[13.37162,58.29986],[13.36927,58.2965],[13.36754,58.29316],[13.36601,58.29351],[13.33333,58.29627],[13.33534,58.30076],[13.32846,58.30195],[13.30983,58.30423],[13.31022,58.30498],[13.3089,58.30552],[13.30875,58.30588],[13.30587,58.3064],[13.30377,58.3061],[13.30218,58.30547],[13.29988,58.30522],[13.29801,58.30472],[13.29657,58.30407],[13.29653,58.30294],[13.29605,58.30238],[13.29562,58.30233],[13.29295,58.30259],[13.29205,58.30369],[13.2911,58.30408],[13.28611,58.30456],[13.28178,58.30561],[13.28086,58.30551],[13.28118,58.30476],[13.27857,58.30347],[13.27204,58.30398],[13.26169,58.30343],[13.25903,58.30563],[13.25954,58.30577],[13.25896,58.30734],[13.25914,58.30854],[13.25709,58.30883],[13.25739,58.30922],[13.25729,58.30994],[13.25665,58.31024],[13.25613,58.31019],[13.25574,58.31081],[13.25568,58.31179],[13.25532,58.3121],[13.25465,58.3122],[13.25438,58.31198],[13.25379,58.31191],[13.25295,58.31225],[13.25215,58.31202],[13.25139,58.3121],[13.25009,58.31267],[13.24999,58.313],[13.24916,58.31348],[13.24932,58.31368],[13.24872,58.31366],[13.2485,58.31382],[13.24883,58.31467],[13.25145,58.31601],[13.25035,58.31664],[13.25315,58.31818],[13.23891,58.32601],[13.24137,58.32966],[13.24195,58.32966],[13.2425,58.32993],[13.24464,58.33187],[13.24495,58.33233],[13.24479,58.33301],[13.24582,58.33413],[13.25113,58.3382],[13.24842,58.34047],[13.24433,58.34278],[13.24122,58.34421],[13.24048,58.3449],[13.22566,58.34766],[13.2244,58.34848],[13.22212,58.34922],[13.22002,58.34951],[13.21959,58.34905],[13.21833,58.34963],[13.21388,58.35048],[13.20865,58.3511],[13.20692,58.35148],[13.20549,58.35014],[13.20381,58.34976],[13.19951,58.34943],[13.19704,58.34994],[13.19806,58.35085],[13.20013,58.35182],[13.20622,58.35551],[13.20873,58.35554],[13.20896,58.35592],[13.20848,58.35662],[13.20851,58.35728],[13.20827,58.35753],[13.20459,58.35868],[13.20186,58.35982],[13.20001,58.36003],[13.19964,58.36081],[13.19793,58.36186],[13.19788,58.363],[13.19871,58.36375],[13.19873,58.3641],[13.19622,58.36575],[13.19404,58.36791],[13.19164,58.36867],[13.19144,58.36987],[13.19078,58.36992],[13.18953,58.36952],[13.18779,58.3707],[13.18498,58.37102],[13.18427,58.37143],[13.18426,58.37277],[13.18511,58.37391],[13.18619,58.37648],[13.18516,58.37714],[13.18388,58.37718],[13.18417,58.37763],[13.18393,58.37772],[13.18217,58.37796],[13.18346,58.379],[13.18365,58.37952],[13.1831,58.38076],[13.18215,58.38187],[13.18245,58.38249],[13.1823,58.38285],[13.18283,58.38327],[13.18224,58.38404],[13.18325,58.38486],[13.18288,58.38523],[13.18383,58.38666],[13.18379,58.38766],[13.18232,58.38878],[13.18155,58.389],[13.18101,58.38987],[13.17975,58.39008],[13.17869,58.39071],[13.1774,58.39102],[13.17552,58.39062],[13.17423,58.3909],[13.17418,58.39205],[13.17247,58.39284],[13.17224,58.39332],[13.17183,58.39344],[13.17288,58.39426],[13.17398,58.39409],[13.17403,58.39464],[13.17487,58.39469],[13.17551,58.39426],[13.17619,58.39432],[13.17554,58.39476],[13.17582,58.39498],[13.17729,58.39471],[13.17895,58.3948],[13.17984,58.39446],[13.18189,58.39472],[13.18144,58.39492],[13.18165,58.39514],[13.18269,58.3949],[13.18179,58.39432],[13.18198,58.3939],[13.18238,58.39392],[13.18275,58.39438],[13.18328,58.39417],[13.18394,58.39418],[13.18416,58.39433],[13.18393,58.39458],[13.18423,58.39463],[13.18662,58.39379],[13.18689,58.39347],[13.18618,58.39339],[13.18614,58.3932],[13.18824,58.39319],[13.1876,58.39411],[13.18789,58.3942],[13.18876,58.39405],[13.18898,58.39483],[13.18858,58.39564],[13.18982,58.39829],[13.19724,58.39776],[13.19785,58.39903],[13.19947,58.40088],[13.19963,58.40343],[13.20088,58.40625],[13.21377,58.40525],[13.21221,58.41554],[13.21351,58.41538],[13.2155,58.41469],[13.21843,58.4143],[13.2225,58.41428],[13.22257,58.41298],[13.22658,58.41275],[13.22648,58.41393],[13.22954,58.41343],[13.22993,58.40915],[13.23172,58.40913],[13.23231,58.40945],[13.23305,58.40938],[13.23367,58.40961],[13.23453,58.40881],[13.23566,58.40851],[13.23606,58.40862],[13.23631,58.40913],[13.23703,58.40957],[13.23559,58.4032],[13.23978,58.40265],[13.24696,58.40559],[13.24766,58.40547],[13.24759,58.4049],[13.24813,58.40513],[13.24858,58.40489],[13.24976,58.40498],[13.24989,58.40441],[13.25078,58.40388],[13.25153,58.40377],[13.25206,58.40341],[13.25285,58.4035],[13.25343,58.40324],[13.25536,58.40332],[13.25605,58.40357],[13.25665,58.40347],[13.25776,58.40392],[13.25812,58.40386],[13.25925,58.40413],[13.26132,58.40407],[13.26243,58.40383],[13.26412,58.40387],[13.2645,58.40412],[13.2664,58.40455],[13.26626,58.40483],[13.26708,58.40483],[13.26695,58.40509],[13.26751,58.40536],[13.268,58.40514],[13.26856,58.40548],[13.2694,58.4054],[13.26983,58.40511],[13.27016,58.40518],[13.27133,58.40463],[13.27175,58.40472],[13.27248,58.40437],[13.27299,58.40444],[13.27324,58.40391],[13.27424,58.4034],[13.27522,58.40362],[13.2757,58.40311],[13.27788,58.40295],[13.28114,58.40345],[13.287,58.40342],[13.29313,58.40406],[13.29252,58.40451],[13.2931,58.40442],[13.29397,58.40489],[13.29419,58.4048],[13.29466,58.40528],[13.29508,58.40513],[13.29658,58.40556],[13.2976,58.40523],[13.2979,58.40559],[13.29882,58.40551],[13.29929,58.40581],[13.29966,58.40573],[13.30068,58.40595],[13.30127,58.4058],[13.30087,58.40737],[13.30162,58.40856],[13.30427,58.40994],[13.30603,58.41006],[13.3113,58.41195],[13.31295,58.41138],[13.3161,58.4116],[13.32063,58.41277],[13.32236,58.41295],[13.32146,58.41364],[13.32686,58.41344],[13.32797,58.41389],[13.33062,58.4144],[13.33189,58.41535],[13.33495,58.41626],[13.33585,58.41679],[13.33652,58.41729],[13.33781,58.41899],[13.33843,58.4193],[13.34447,58.42049],[13.34544,58.42085],[13.34559,58.42094],[13.34494,58.42118],[13.34629,58.42375],[13.34816,58.4249],[13.34821,58.42545],[13.34893,58.42633],[13.35057,58.42664],[13.35476,58.42807],[13.35454,58.42815],[13.35424,58.42793],[13.35314,58.42817],[13.35237,58.42792],[13.35181,58.42801],[13.35165,58.42846],[13.3513,58.42856],[13.35092,58.4283],[13.35,58.4282],[13.34971,58.42851],[13.34934,58.42842],[13.34892,58.42863],[13.34951,58.42878],[13.34952,58.4292],[13.34898,58.42915],[13.34805,58.42855],[13.3474,58.42896],[13.34751,58.42937],[13.34706,58.42962],[13.34645,58.42961],[13.34614,58.42929],[13.34591,58.42961],[13.3462,58.42995],[13.34564,58.43021],[13.34517,58.4301],[13.34477,58.42967],[13.34423,58.42956],[13.34477,58.42994],[13.34432,58.43005],[13.34354,58.42985],[13.34218,58.43059],[13.3422,58.43079],[13.34172,58.43077],[13.34044,58.43131],[13.34036,58.43174],[13.33904,58.43172],[13.33884,58.43158],[13.33828,58.4318],[13.33781,58.43217],[13.33814,58.43241],[13.33767,58.43241],[13.33709,58.43281],[13.3376,58.43286],[13.33755,58.43307],[13.33721,58.4332],[13.33674,58.43294],[13.33646,58.43299],[13.33667,58.43379],[13.33584,58.43379],[13.33543,58.43412],[13.33519,58.43404],[13.33389,58.43432],[13.33334,58.43473],[13.33279,58.43456],[13.3322,58.435],[13.33151,58.43487],[13.33104,58.43507],[13.32629,58.43458],[13.32523,58.43404],[13.32511,58.43445],[13.32444,58.4346],[13.32239,58.43421],[13.32146,58.43482],[13.32086,58.43578],[13.31779,58.43719],[13.32803,58.43971],[13.32773,58.44007],[13.32782,58.44057],[13.32625,58.44097],[13.32498,58.44147],[13.3246,58.44205],[13.32359,58.44205],[13.32298,58.44249],[13.32304,58.44306],[13.32359,58.44338],[13.32251,58.44373],[13.3227,58.44433],[13.32172,58.44478],[13.32186,58.44498],[13.32249,58.44503],[13.32249,58.44523],[13.32025,58.44546],[13.31995,58.44596],[13.31937,58.44561],[13.3191,58.44567],[13.32025,58.4464],[13.31949,58.44672],[13.31943,58.44696],[13.32038,58.44729],[13.31925,58.44738],[13.31894,58.44751],[13.31898,58.4478],[13.31973,58.44834],[13.32051,58.44833]]]}},{"type":"Feature","id":"1495R010","properties":{"code":"1495R010","name":"Skara östra omland-Hornborgasjön"},"geometry":{"type":"Polygon","coordinates":[[[13.49792,58.45936],[13.50022,58.45914],[13.49699,58.45544],[13.49312,58.45187],[13.49308,58.45123],[13.49645,58.45109],[13.49605,58.4515],[13.49632,58.4524],[13.50288,58.45469],[13.50808,58.45619],[13.50836,58.45643],[13.51048,58.45651],[13.51176,58.45741],[13.51325,58.45742],[13.51401,58.45675],[13.51562,58.45665],[13.51899,58.4573],[13.5216,58.45721],[13.52269,58.45628],[13.52709,58.45533],[13.53066,58.45543],[13.53251,58.45523],[13.53439,58.45543],[13.53661,58.45503],[13.53976,58.45545],[13.5417,58.455],[13.54343,58.45586],[13.54426,58.45599],[13.54835,58.45551],[13.549,58.45502],[13.5506,58.45485],[13.55177,58.45437],[13.55259,58.45384],[13.55364,58.45236],[13.55454,58.45223],[13.55494,58.45236],[13.55615,58.45201],[13.55593,58.4517],[13.55627,58.45083],[13.55727,58.44974],[13.55441,58.44723],[13.54797,58.44011],[13.55549,58.43459],[13.55651,58.43485],[13.55833,58.4349],[13.5605,58.43232],[13.55953,58.42947],[13.56774,58.43014],[13.56831,58.43151],[13.5741,58.43136],[13.57406,58.43066],[13.57461,58.43071],[13.5778,58.42997],[13.57862,58.43136],[13.5791,58.43134],[13.58008,58.43175],[13.57993,58.43211],[13.6101,58.42323],[13.60812,58.42143],[13.61361,58.41943],[13.61376,58.41903],[13.61549,58.41857],[13.6191,58.41665],[13.62417,58.41531],[13.62692,58.41217],[13.63123,58.41249],[13.63368,58.41161],[13.63273,58.41066],[13.63261,58.41003],[13.63321,58.4065],[13.62567,58.40545],[13.62662,58.40437],[13.62964,58.40335],[13.63117,58.4026],[13.63258,58.40269],[13.632,58.40082],[13.63575,58.39595],[13.62485,58.39445],[13.62073,58.39509],[13.61733,58.39585],[13.6137,58.39592],[13.61197,58.39373],[13.6063,58.39231],[13.60772,58.39113],[13.60754,58.38882],[13.60616,58.38797],[13.607,58.38354],[13.6061,58.38341],[13.60428,58.38425],[13.59962,58.38572],[13.59881,58.38526],[13.59864,58.38646],[13.59782,58.38781],[13.59636,58.38904],[13.59468,58.38989],[13.5952,58.39124],[13.59505,58.39269],[13.59449,58.39372],[13.59331,58.39489],[13.59242,58.3965],[13.59011,58.39818],[13.58673,58.3993],[13.57945,58.4001],[13.57675,58.4],[13.57478,58.39969],[13.57134,58.39852],[13.56905,58.39683],[13.56478,58.39644],[13.56171,58.39561],[13.5585,58.39413],[13.55697,58.39299],[13.55558,58.39055],[13.55364,58.38916],[13.55269,58.38783],[13.55185,58.38538],[13.55212,58.38354],[13.55343,58.38144],[13.55482,58.3802],[13.55677,58.37917],[13.55951,58.37837],[13.55915,58.37715],[13.55937,58.37578],[13.55998,58.37478],[13.56131,58.37359],[13.56328,58.37255],[13.56616,58.37172],[13.57017,58.37124],[13.57293,58.37129],[13.57553,58.37169],[13.57772,58.37238],[13.57996,58.37267],[13.58244,58.37335],[13.58465,58.3744],[13.58647,58.37595],[13.58909,58.37403],[13.5919,58.36988],[13.57643,58.36028],[13.57229,58.34381],[13.56045,58.33896],[13.56076,58.32359],[13.54514,58.3181],[13.53854,58.30489],[13.54069,58.30457],[13.53187,58.29813],[13.53246,58.29175],[13.51882,58.28749],[13.49284,58.27603],[13.4906,58.27487],[13.48571,58.27435],[13.47439,58.27959],[13.46876,58.28039],[13.46518,58.27929],[13.44084,58.28086],[13.4356,58.27986],[13.40475,58.276],[13.4051,58.27647],[13.38177,58.28569],[13.37368,58.29018],[13.36754,58.29316],[13.36927,58.2965],[13.37162,58.29986],[13.37147,58.30045],[13.37295,58.30297],[13.37152,58.30419],[13.3743,58.30875],[13.37367,58.3089],[13.37041,58.30537],[13.36978,58.30557],[13.37131,58.30728],[13.36939,58.30833],[13.37156,58.30973],[13.37111,58.30988],[13.37344,58.31349],[13.37714,58.31356],[13.37958,58.31801],[13.37748,58.32035],[13.37788,58.32154],[13.38294,58.32536],[13.3712,58.32497],[13.37305,58.3334],[13.37552,58.3384],[13.37697,58.33901],[13.38475,58.3363],[13.38647,58.33611],[13.38742,58.33755],[13.38839,58.33826],[13.38863,58.33838],[13.38895,58.33819],[13.39504,58.34115],[13.39525,58.341],[13.39597,58.34128],[13.39271,58.34551],[13.40786,58.34909],[13.41972,58.35472],[13.41363,58.35635],[13.41376,58.36521],[13.41784,58.36529],[13.42045,58.36561],[13.42031,58.36393],[13.41941,58.36213],[13.4196,58.36033],[13.42145,58.35777],[13.42441,58.3559],[13.42733,58.35494],[13.43012,58.35451],[13.43373,58.35452],[13.43699,58.35509],[13.43894,58.35576],[13.44087,58.35681],[13.44222,58.35805],[13.44579,58.36049],[13.44695,58.36206],[13.45005,58.3638],[13.45148,58.36547],[13.45187,58.3672],[13.45504,58.37057],[13.46071,58.37136],[13.46436,58.37252],[13.4658,58.37335],[13.46718,58.37462],[13.46782,58.37569],[13.46806,58.37694],[13.47029,58.37742],[13.47352,58.37716],[13.47622,58.3773],[13.47821,58.37765],[13.48052,58.37839],[13.48244,58.37943],[13.48378,58.38066],[13.48454,58.38208],[13.48474,58.38352],[13.48337,58.38665],[13.48221,58.38795],[13.47928,58.38973],[13.4764,58.39087],[13.47368,58.39249],[13.4742,58.39486],[13.47342,58.39873],[13.4727,58.40018],[13.47284,58.40178],[13.47244,58.40369],[13.47129,58.4054],[13.46868,58.40705],[13.46698,58.40766],[13.4635,58.40851],[13.45929,58.40892],[13.45693,58.40879],[13.45429,58.40832],[13.45246,58.40774],[13.45069,58.40688],[13.44929,58.40731],[13.44898,58.40874],[13.44766,58.41087],[13.4466,58.41182],[13.44474,58.41286],[13.44241,58.41363],[13.43983,58.41406],[13.43687,58.41417],[13.43419,58.41397],[13.43108,58.41325],[13.42855,58.41205],[13.42711,58.41081],[13.42534,58.40842],[13.42471,58.40601],[13.4259,58.40272],[13.42656,58.40165],[13.4262,58.40067],[13.42618,58.39896],[13.42423,58.39898],[13.42097,58.39872],[13.41819,58.39905],[13.41495,58.39902],[13.41439,58.39996],[13.41293,58.4009],[13.41212,58.40133],[13.41112,58.40132],[13.41106,58.40305],[13.41268,58.40281],[13.41402,58.40285],[13.41364,58.40441],[13.4114,58.40787],[13.40871,58.40834],[13.40875,58.40886],[13.40825,58.40962],[13.40781,58.41153],[13.41012,58.41133],[13.41252,58.41158],[13.41244,58.41206],[13.4116,58.4128],[13.4112,58.41367],[13.40935,58.41498],[13.40908,58.41561],[13.40775,58.41643],[13.40629,58.41781],[13.40126,58.4205],[13.40128,58.42094],[13.40076,58.42134],[13.39947,58.42165],[13.39716,58.42161],[13.39655,58.42208],[13.39499,58.4222],[13.3948,58.42298],[13.39263,58.42345],[13.39158,58.42318],[13.3905,58.42315],[13.38868,58.42362],[13.38763,58.42414],[13.38982,58.42504],[13.39202,58.42529],[13.3938,58.42479],[13.3943,58.42488],[13.39566,58.42466],[13.39592,58.42481],[13.39736,58.42479],[13.39917,58.42528],[13.40028,58.42492],[13.40078,58.42512],[13.40124,58.42474],[13.40205,58.42456],[13.40247,58.42566],[13.40332,58.4258],[13.40504,58.42535],[13.40632,58.42567],[13.40759,58.42568],[13.40809,58.42629],[13.40892,58.42627],[13.4108,58.4273],[13.4145,58.42739],[13.41482,58.42825],[13.41587,58.42844],[13.41385,58.42864],[13.41261,58.42926],[13.41087,58.42982],[13.40867,58.43014],[13.40825,58.4304],[13.40806,58.43117],[13.40918,58.43225],[13.40815,58.43313],[13.40934,58.43367],[13.40969,58.43372],[13.40988,58.43354],[13.41082,58.43371],[13.41168,58.43341],[13.41215,58.43359],[13.41202,58.43343],[13.41231,58.43333],[13.41244,58.43351],[13.41288,58.43342],[13.41306,58.43364],[13.41469,58.4336],[13.41571,58.434],[13.41634,58.43398],[13.41654,58.43439],[13.41744,58.43425],[13.41823,58.43375],[13.41919,58.43372],[13.42152,58.43407],[13.42455,58.43377],[13.42864,58.43415],[13.43681,58.43273],[13.43706,58.43502],[13.43609,58.44178],[13.4378,58.44376],[13.43908,58.44439],[13.4405,58.44546],[13.43619,58.44736],[13.43808,58.44998],[13.4391,58.45005],[13.4472,58.44904],[13.46162,58.45205],[13.47275,58.45086],[13.47369,58.4517],[13.47707,58.45184],[13.4789,58.45217],[13.48149,58.45213],[13.48407,58.4518],[13.48685,58.45552],[13.49221,58.4548],[13.49607,58.45702],[13.49781,58.45878],[13.49792,58.45936]]]}},{"type":"Feature","id":"1495R011","properties":{"code":"1495R011","name":"Varnhem-Eggby-Eggby omland"},"geometry":{"type":"Polygon","coordinates":[[[13.62711,58.48298],[13.63106,58.48308],[13.632,58.48226],[13.63546,58.48312],[13.63765,58.48164],[13.63926,58.48187],[13.64004,58.4818],[13.6399,58.47939],[13.63953,58.4789],[13.6386,58.47838],[13.63608,58.47772],[13.63562,58.47521],[13.63412,58.47427],[13.63419,58.47364],[13.63591,58.47316],[13.63531,58.47232],[13.63544,58.47198],[13.63598,58.47172],[13.63783,58.47174],[13.64159,58.47119],[13.64757,58.47139],[13.64794,58.46812],[13.64901,58.46755],[13.65436,58.46901],[13.6566,58.46908],[13.65821,58.46974],[13.66135,58.46885],[13.66242,58.46818],[13.6621,58.46793],[13.66279,58.46761],[13.6647,58.46725],[13.66811,58.46601],[13.66977,58.46403],[13.67108,58.46374],[13.67138,58.46289],[13.67201,58.46268],[13.6719,58.46222],[13.67576,58.46276],[13.67995,58.46238],[13.68058,58.46186],[13.68146,58.46221],[13.68228,58.46155],[13.68615,58.46124],[13.70471,58.46111],[13.7045,58.46152],[13.70661,58.46259],[13.70781,58.46294],[13.70857,58.46419],[13.70881,58.4642],[13.71001,58.46398],[13.71092,58.4634],[13.71212,58.46341],[13.71247,58.46371],[13.71823,58.46252],[13.71823,58.462],[13.71862,58.46181],[13.71912,58.46205],[13.72369,58.46053],[13.72577,58.46027],[13.7268,58.45962],[13.72565,58.45849],[13.72776,58.45809],[13.73093,58.45536],[13.72985,58.4548],[13.73233,58.45433],[13.73284,58.45402],[13.73358,58.45309],[13.73355,58.45187],[13.73455,58.45125],[13.73549,58.45149],[13.73631,58.45102],[13.73708,58.45097],[13.73953,58.45136],[13.74133,58.45099],[13.74243,58.45097],[13.74307,58.45145],[13.74516,58.4507],[13.74593,58.45075],[13.74651,58.45044],[13.74678,58.44988],[13.74922,58.44861],[13.75183,58.44634],[13.74969,58.44298],[13.74752,58.4417],[13.74656,58.44024],[13.74698,58.43949],[13.74342,58.43636],[13.74498,58.4364],[13.74329,58.43393],[13.74421,58.43354],[13.74845,58.43299],[13.7502,58.43256],[13.75004,58.43148],[13.7504,58.43082],[13.75109,58.43055],[13.752,58.42972],[13.75193,58.42918],[13.75122,58.4289],[13.75039,58.42901],[13.74924,58.42835],[13.74853,58.42644],[13.75146,58.42543],[13.75259,58.42482],[13.75479,58.42496],[13.75671,58.42451],[13.75727,58.42527],[13.76594,58.42398],[13.76622,58.42186],[13.76541,58.42141],[13.76288,58.42065],[13.76377,58.41952],[13.76366,58.41908],[13.76195,58.41904],[13.76085,58.4186],[13.75853,58.41842],[13.75679,58.41857],[13.75199,58.41287],[13.74558,58.40603],[13.74427,58.40306],[13.74268,58.40184],[13.74183,58.4017],[13.74071,58.40097],[13.73962,58.40125],[13.73927,58.40016],[13.73456,58.39739],[13.73807,58.39749],[13.73438,58.39326],[13.73527,58.39326],[13.73558,58.3935],[13.73786,58.39382],[13.73992,58.3936],[13.74131,58.39292],[13.74232,58.3918],[13.74258,58.39111],[13.74466,58.39115],[13.74647,58.38984],[13.7458,58.38914],[13.74468,58.38869],[13.74356,58.3885],[13.74263,58.38794],[13.74303,58.3874],[13.74205,58.38686],[13.73894,58.38536],[13.73816,58.38525],[13.73758,58.38536],[13.73704,58.38473],[13.73651,58.38465],[13.73607,58.384],[13.73463,58.38337],[13.73494,58.38317],[13.73385,58.38268],[13.73348,58.38289],[13.73258,58.38243],[13.7328,58.38175],[13.73086,58.38089],[13.72826,58.37872],[13.72732,58.37844],[13.7272,58.3781],[13.72471,58.37724],[13.72348,58.3771],[13.69826,58.37734],[13.69644,58.37711],[13.66706,58.37002],[13.73416,58.3625],[13.72288,58.35347],[13.63053,58.34763],[13.63081,58.34841],[13.62113,58.3507],[13.61432,58.35092],[13.60363,58.35248],[13.60179,58.35413],[13.59836,58.35196],[13.57229,58.34381],[13.57643,58.36028],[13.5919,58.36988],[13.58909,58.37403],[13.58647,58.37595],[13.58785,58.37754],[13.59147,58.37826],[13.59447,58.37969],[13.59775,58.38285],[13.59881,58.38526],[13.59962,58.38572],[13.60428,58.38425],[13.6061,58.38341],[13.607,58.38354],[13.60616,58.38797],[13.60754,58.38882],[13.60772,58.39113],[13.6063,58.39231],[13.61197,58.39373],[13.6137,58.39592],[13.61733,58.39585],[13.62073,58.39509],[13.62485,58.39445],[13.63575,58.39595],[13.632,58.40082],[13.63258,58.40269],[13.63117,58.4026],[13.62964,58.40335],[13.62662,58.40437],[13.62567,58.40545],[13.63321,58.4065],[13.63261,58.41003],[13.63273,58.41066],[13.63368,58.41161],[13.63123,58.41249],[13.62692,58.41217],[13.62417,58.41531],[13.6191,58.41665],[13.61549,58.41857],[13.61376,58.41903],[13.61361,58.41943],[13.60812,58.42143],[13.6101,58.42323],[13.57993,58.43211],[13.58008,58.43175],[13.5791,58.43134],[13.57862,58.43136],[13.5778,58.42997],[13.57461,58.43071],[13.57406,58.43066],[13.5741,58.43136],[13.56831,58.43151],[13.56774,58.43014],[13.55953,58.42947],[13.5605,58.43232],[13.55833,58.4349],[13.55651,58.43485],[13.55549,58.43459],[13.54797,58.44011],[13.55441,58.44723],[13.55727,58.44974],[13.55627,58.45083],[13.55593,58.4517],[13.55618,58.45196],[13.55494,58.45236],[13.55454,58.45223],[13.55364,58.45236],[13.55239,58.45401],[13.55078,58.45481],[13.549,58.45502],[13.54835,58.45551],[13.54397,58.45599],[13.5417,58.455],[13.53976,58.45545],[13.54048,58.45559],[13.5421,58.45658],[13.5432,58.45794],[13.54657,58.45939],[13.54889,58.46005],[13.54761,58.46133],[13.54709,58.46161],[13.54637,58.46168],[13.5457,58.46279],[13.54904,58.46272],[13.55735,58.46424],[13.56017,58.46348],[13.56289,58.46306],[13.56609,58.46388],[13.5662,58.46594],[13.562,58.4683],[13.56611,58.47053],[13.56681,58.47048],[13.56774,58.47295],[13.57002,58.47259],[13.57358,58.47382],[13.57825,58.47414],[13.58155,58.47371],[13.58391,58.4746],[13.58934,58.47487],[13.59004,58.4749],[13.59259,58.47423],[13.59454,58.47426],[13.59624,58.47497],[13.59914,58.47464],[13.59984,58.4747],[13.60009,58.47357],[13.61169,58.47194],[13.61246,58.47257],[13.61135,58.47379],[13.6126,58.47749],[13.61309,58.47764],[13.61328,58.47806],[13.61396,58.47816],[13.61414,58.47908],[13.61788,58.4783],[13.61776,58.47871],[13.61991,58.47871],[13.62203,58.47921],[13.62083,58.4799],[13.62119,58.48003],[13.62116,58.48033],[13.6231,58.48055],[13.62383,58.48087],[13.62465,58.48197],[13.62711,58.48298]]]}}]}