{"type":"FeatureCollection","features":[{"type":"Feature","id":"1496R008","properties":{"code":"1496R008","name":"Källegården"},"geometry":{"type":"Polygon","coordinates":[[[13.84019,58.38801],[13.84495,58.3881],[13.84492,58.38703],[13.84975,58.38698],[13.84097,58.3769],[13.83928,58.37711],[13.83861,58.377],[13.83669,58.3773],[13.83653,58.37752],[13.83564,58.37745],[13.83348,58.37812],[13.83563,58.37933],[13.83666,58.38089],[13.83586,58.38115],[13.837,58.38207],[13.83433,58.38428],[13.8363,58.38513],[13.83848,58.38726],[13.84019,58.38801]]]}},{"type":"Feature","id":"1496R001","properties":{"code":"1496R001","name":"Billingsluttningen-Kullen"},"geometry":{"type":"Polygon","coordinates":[[[13.83832,58.39906],[13.84085,58.39924],[13.84096,58.39966],[13.84248,58.39866],[13.83909,58.39544],[13.84001,58.39517],[13.84149,58.39504],[13.84379,58.39503],[13.84622,58.39439],[13.84541,58.39613],[13.84566,58.39624],[13.84937,58.39553],[13.8487,58.39507],[13.8487,58.39452],[13.8471,58.39351],[13.84748,58.39317],[13.84645,58.392],[13.84634,58.38932],[13.84498,58.38931],[13.84496,58.38951],[13.84177,58.38955],[13.84177,58.38813],[13.84019,58.38801],[13.83848,58.38726],[13.8363,58.38513],[13.83433,58.38428],[13.83174,58.38702],[13.83068,58.38676],[13.83,58.38756],[13.82953,58.38923],[13.82659,58.38927],[13.82449,58.38875],[13.82507,58.38901],[13.82509,58.38951],[13.82283,58.39032],[13.82226,58.39031],[13.82102,58.39175],[13.82129,58.39252],[13.81636,58.3938],[13.81677,58.39421],[13.81641,58.39444],[13.81456,58.39513],[13.81254,58.39542],[13.81244,58.39582],[13.8133,58.39728],[13.81709,58.39769],[13.8186,58.39889],[13.81908,58.39879],[13.8217,58.40174],[13.82612,58.40227],[13.82758,58.40213],[13.8286,58.40144],[13.831,58.4013],[13.83396,58.40078],[13.83357,58.40018],[13.83832,58.39906]]]}},{"type":"Feature","id":"1496R002","properties":{"code":"1496R002","name":"Dälderna-Havstena"},"geometry":{"type":"Polygon","coordinates":[[[13.84962,58.41099],[13.85121,58.40875],[13.8522,58.40824],[13.85128,58.40736],[13.85091,58.40546],[13.85039,58.40498],[13.8511,58.40477],[13.84994,58.40345],[13.84704,58.40121],[13.8424,58.39871],[13.84096,58.39966],[13.84085,58.39924],[13.83832,58.39906],[13.83357,58.40018],[13.83396,58.40078],[13.831,58.4013],[13.8286,58.40144],[13.82758,58.40213],[13.82657,58.40229],[13.8217,58.40174],[13.82061,58.40067],[13.82002,58.4008],[13.82022,58.40103],[13.8195,58.40143],[13.81989,58.40163],[13.81927,58.40199],[13.81966,58.40267],[13.81923,58.40551],[13.8196,58.40551],[13.8196,58.40533],[13.82302,58.40549],[13.82305,58.40475],[13.82358,58.40724],[13.82299,58.40852],[13.82963,58.40826],[13.83041,58.40725],[13.83241,58.40714],[13.83301,58.40858],[13.83412,58.40957],[13.83486,58.40987],[13.83596,58.41],[13.84022,58.4095],[13.84154,58.40969],[13.84409,58.41052],[13.8446,58.41134],[13.84566,58.41207],[13.84962,58.41099]]]}},{"type":"Feature","id":"1496R011","properties":{"code":"1496R011","name":"Norrmalm-Rosenhaga"},"geometry":{"type":"Polygon","coordinates":[[[13.87461,58.41057],[13.86914,58.40479],[13.87507,58.40375],[13.87629,58.40391],[13.87639,58.40359],[13.87955,58.40422],[13.88066,58.40325],[13.88489,58.40404],[13.88725,58.40483],[13.88557,58.40061],[13.89097,58.40026],[13.8958,58.3995],[13.89561,58.39823],[13.89394,58.39806],[13.89085,58.39808],[13.87628,58.39913],[13.87198,58.39907],[13.86979,58.3988],[13.86116,58.39667],[13.85843,58.39544],[13.86321,58.39912],[13.8635,58.39957],[13.86158,58.40001],[13.86463,58.4018],[13.86431,58.40279],[13.86368,58.40352],[13.86195,58.40407],[13.8597,58.40444],[13.85705,58.40403],[13.85608,58.40357],[13.8536,58.4016],[13.85248,58.40106],[13.85107,58.40077],[13.84852,58.40059],[13.84655,58.3968],[13.84541,58.39613],[13.84622,58.39439],[13.84379,58.39503],[13.84149,58.39504],[13.84001,58.39517],[13.83909,58.39544],[13.8424,58.39871],[13.84704,58.40121],[13.84994,58.40345],[13.8511,58.40477],[13.85039,58.40498],[13.85091,58.40546],[13.85128,58.40736],[13.8522,58.40824],[13.85569,58.40721],[13.8577,58.40683],[13.85996,58.40663],[13.86585,58.40683],[13.86567,58.40985],[13.86602,58.41031],[13.86631,58.41043],[13.86807,58.41029],[13.86849,58.41132],[13.87067,58.41126],[13.87406,58.41089],[13.87461,58.41057]]]}},{"type":"Feature","id":"1496R003","properties":{"code":"1496R003","name":"Ekängen-Aspö-Ulveket"},"geometry":{"type":"Polygon","coordinates":[[[13.82879,58.42527],[13.82956,58.42497],[13.83052,58.42498],[13.83195,58.42579],[13.83437,58.42605],[13.83549,58.42587],[13.84059,58.42138],[13.84169,58.42148],[13.8428,58.42233],[13.84331,58.42336],[13.84398,58.42329],[13.84413,58.42346],[13.84736,58.423],[13.84625,58.42066],[13.8454,58.41713],[13.84566,58.41708],[13.84564,58.41675],[13.84794,58.41729],[13.85051,58.41748],[13.85089,58.41728],[13.85182,58.41761],[13.8524,58.4175],[13.85277,58.41801],[13.85315,58.4181],[13.85344,58.41803],[13.85338,58.41748],[13.85367,58.41736],[13.85408,58.41754],[13.8555,58.41738],[13.85806,58.41747],[13.86127,58.41816],[13.86499,58.41602],[13.86603,58.41593],[13.86716,58.41542],[13.86809,58.41539],[13.86825,58.41581],[13.86914,58.41649],[13.86893,58.41572],[13.86814,58.41475],[13.86629,58.41354],[13.85397,58.40775],[13.8522,58.40824],[13.85121,58.40875],[13.84962,58.41099],[13.84566,58.41207],[13.8446,58.41134],[13.84409,58.41052],[13.84154,58.40969],[13.84022,58.4095],[13.83596,58.41],[13.83486,58.40987],[13.83412,58.40957],[13.83301,58.40858],[13.83241,58.40714],[13.83041,58.40725],[13.82963,58.40826],[13.82299,58.40852],[13.82358,58.40724],[13.82305,58.40475],[13.82302,58.40549],[13.8196,58.40533],[13.8196,58.40551],[13.81923,58.40551],[13.81966,58.40267],[13.81927,58.40199],[13.81989,58.40163],[13.8195,58.40143],[13.82022,58.40103],[13.82002,58.4008],[13.82061,58.40067],[13.81908,58.39879],[13.8186,58.39889],[13.81709,58.39769],[13.8133,58.39728],[13.81275,58.39647],[13.80904,58.39659],[13.80802,58.3979],[13.80767,58.3979],[13.80794,58.39943],[13.80878,58.40083],[13.8108,58.40239],[13.81294,58.40333],[13.81536,58.40394],[13.8162,58.40482],[13.81458,58.40761],[13.81475,58.40966],[13.81416,58.41059],[13.81236,58.41213],[13.80953,58.41589],[13.80936,58.41768],[13.81,58.41908],[13.8117,58.42063],[13.8137,58.42163],[13.81607,58.42232],[13.81969,58.42281],[13.8204,58.42457],[13.82061,58.42658],[13.82128,58.4276],[13.82244,58.42862],[13.82128,58.42582],[13.82732,58.42525],[13.82879,58.42527]]]}},{"type":"Feature","id":"1496R004","properties":{"code":"1496R004","name":"Frösve Säter-Tidan-Väring"},"geometry":{"type":"Polygon","coordinates":[[[14.01085,58.5961],[14.02661,58.59314],[14.02697,58.59344],[14.02776,58.59329],[14.02753,58.59298],[14.03091,58.59235],[14.0289,58.58915],[14.03321,58.5885],[14.02993,58.58364],[14.03407,58.5825],[14.03525,58.58307],[14.03643,58.58295],[14.03729,58.58249],[14.03801,58.58281],[14.03854,58.58393],[14.04045,58.58393],[14.04535,58.58322],[14.04532,58.58271],[14.04598,58.58272],[14.04592,58.58209],[14.04684,58.58202],[14.05162,58.57055],[14.0562,58.56581],[14.05834,58.56416],[14.05829,58.56272],[14.05865,58.56176],[14.05953,58.56157],[14.05944,58.56147],[14.06401,58.56155],[14.06288,58.55995],[14.06072,58.55866],[14.06102,58.55849],[14.0615,58.55657],[14.06425,58.55635],[14.06544,58.55606],[14.06666,58.55547],[14.06651,58.55495],[14.07043,58.55093],[14.07355,58.54641],[14.07856,58.53338],[14.07833,58.53082],[14.08087,58.5298],[14.08176,58.52799],[14.08342,58.52767],[14.08387,58.52789],[14.08464,58.52785],[14.08488,58.52762],[14.08489,58.52725],[14.08363,58.52644],[14.08427,58.52566],[14.08357,58.52551],[14.08396,58.52382],[14.08713,58.52305],[14.09227,58.50887],[14.14512,58.51179],[14.14207,58.50861],[14.13612,58.49067],[14.1366,58.49069],[14.13777,58.4892],[14.13137,58.48856],[14.13166,58.48756],[14.12827,58.48666],[14.12384,58.48694],[14.1239,58.48624],[14.12599,58.4862],[14.12616,58.48591],[14.13034,58.48656],[14.13317,58.48751],[14.13376,58.48814],[14.13475,58.4885],[14.12952,58.47921],[14.13006,58.47907],[14.12771,58.47828],[14.12466,58.47919],[14.12347,58.47785],[14.12555,58.47784],[14.12693,58.47751],[14.12771,58.47805],[14.12861,58.47799],[14.12564,58.47249],[14.12519,58.47338],[14.12507,58.47475],[14.1238,58.47486],[14.12442,58.47137],[14.12476,58.47087],[14.12096,58.46434],[14.11997,58.46425],[14.11855,58.46497],[14.11719,58.46651],[14.11683,58.46385],[14.11632,58.4629],[14.11739,58.45811],[14.11518,58.45443],[14.11287,58.45452],[14.11384,58.45206],[14.09111,58.45188],[14.09072,58.45149],[14.08332,58.45045],[14.07483,58.44897],[14.07513,58.44817],[14.06966,58.4489],[14.06844,58.44956],[14.06586,58.4516],[14.06281,58.45157],[14.06064,58.45134],[14.05776,58.45159],[14.05185,58.45157],[14.04916,58.45135],[14.04574,58.45156],[14.04183,58.45134],[14.03928,58.45159],[14.02868,58.45154],[14.02497,58.45179],[14.01816,58.45178],[14.01275,58.45199],[14.008,58.45112],[14.002,58.45107],[13.99941,58.45133],[13.99723,58.45127],[13.99601,58.45063],[13.99399,58.45175],[13.9917,58.452],[13.99004,58.45242],[13.98784,58.45267],[13.98382,58.45261],[13.97922,58.45218],[13.97633,58.45151],[13.97083,58.45086],[13.96732,58.44992],[13.96314,58.44994],[13.95698,58.44899],[13.95404,58.44878],[13.94926,58.44789],[13.94495,58.44742],[13.94091,58.44676],[13.94072,58.44712],[13.92997,58.44591],[13.93085,58.44539],[13.93016,58.44524],[13.92687,58.44548],[13.92514,58.44533],[13.92451,58.44487],[13.92421,58.44536],[13.89899,58.43894],[13.89678,58.43979],[13.89312,58.44076],[13.88984,58.44127],[13.88708,58.44127],[13.88472,58.441],[13.88218,58.44123],[13.87829,58.44116],[13.87452,58.44078],[13.86973,58.43958],[13.8672,58.43865],[13.86342,58.43673],[13.8616,58.43543],[13.85745,58.43493],[13.85418,58.43409],[13.85041,58.43443],[13.84395,58.43422],[13.84144,58.43369],[13.83922,58.43283],[13.83751,58.43172],[13.83652,58.43064],[13.83368,58.43115],[13.83093,58.43124],[13.82826,58.43097],[13.82577,58.43035],[13.82323,58.42915],[13.82128,58.4276],[13.82048,58.42624],[13.8204,58.42457],[13.81969,58.42281],[13.81674,58.42245],[13.81484,58.42202],[13.81262,58.42116],[13.81092,58.42005],[13.80946,58.41804],[13.80953,58.41589],[13.81236,58.41213],[13.81416,58.41059],[13.81475,58.40966],[13.81458,58.40761],[13.8162,58.40482],[13.81536,58.40394],[13.81294,58.40333],[13.81067,58.40233],[13.80907,58.40113],[13.80825,58.4001],[13.80777,58.39803],[13.80583,58.39559],[13.80531,58.3937],[13.80619,58.39152],[13.8072,58.39053],[13.80864,58.38962],[13.80727,58.38857],[13.80648,58.38756],[13.80475,58.38678],[13.80351,58.38592],[13.80236,58.38461],[13.80157,58.38183],[13.80216,58.37965],[13.76356,58.39355],[13.76365,58.39324],[13.75828,58.39218],[13.75678,58.39337],[13.75709,58.39425],[13.75997,58.39444],[13.76004,58.39529],[13.76284,58.39448],[13.77212,58.41469],[13.7648,58.41658],[13.76333,58.41907],[13.76366,58.41908],[13.76377,58.41952],[13.76288,58.42065],[13.76541,58.42141],[13.76622,58.42186],[13.76594,58.42398],[13.75727,58.42527],[13.75671,58.42451],[13.75479,58.42496],[13.75259,58.42482],[13.75146,58.42543],[13.74853,58.42644],[13.74924,58.42835],[13.75039,58.42901],[13.75122,58.4289],[13.75204,58.42936],[13.752,58.42972],[13.75109,58.43055],[13.7504,58.43082],[13.75004,58.43148],[13.7502,58.43256],[13.74845,58.43299],[13.74421,58.43354],[13.74329,58.43393],[13.7433,58.43417],[13.74498,58.4364],[13.74924,58.43615],[13.75009,58.43624],[13.75839,58.43828],[13.75997,58.43958],[13.76517,58.43892],[13.77515,58.43804],[13.78897,58.44171],[13.79336,58.45161],[13.80434,58.47436],[13.80659,58.47512],[13.80855,58.47497],[13.81129,58.47796],[13.8104,58.47919],[13.80983,58.49085],[13.8106,58.49121],[13.81221,58.4931],[13.81217,58.49337],[13.80949,58.49434],[13.81024,58.49528],[13.80991,58.49596],[13.8105,58.49756],[13.81065,58.49912],[13.81108,58.49962],[13.81381,58.49931],[13.8146,58.50068],[13.81527,58.50063],[13.81547,58.501],[13.81513,58.50171],[13.81601,58.50171],[13.81676,58.50366],[13.81945,58.50281],[13.82025,58.50347],[13.82865,58.50497],[13.82822,58.50538],[13.82823,58.50649],[13.82769,58.50711],[13.82767,58.50823],[13.83726,58.51499],[13.83783,58.52639],[13.84719,58.52494],[13.84698,58.52392],[13.85111,58.52454],[13.85249,58.5245],[13.85405,58.5242],[13.85452,58.5244],[13.85478,58.52489],[13.85524,58.52487],[13.85514,58.52466],[13.85614,58.52452],[13.85722,58.52483],[13.85984,58.52495],[13.86172,58.52562],[13.8651,58.52739],[13.86612,58.52889],[13.86997,58.5296],[13.87005,58.52913],[13.86938,58.52797],[13.86968,58.52769],[13.87404,58.52869],[13.87789,58.5332],[13.88825,58.53785],[13.88875,58.53843],[13.89018,58.53882],[13.89036,58.53977],[13.89072,58.54001],[13.8936,58.54123],[13.89538,58.54131],[13.89598,58.54194],[13.89769,58.54236],[13.89836,58.54236],[13.89895,58.54305],[13.90225,58.54494],[13.91169,58.54893],[13.91273,58.55654],[13.9152,58.56048],[13.92883,58.57019],[13.93644,58.57761],[13.9402,58.58169],[13.94523,58.58407],[13.94807,58.58661],[13.95131,58.58632],[13.9558,58.58727],[13.95814,58.58747],[13.95891,58.58761],[13.96204,58.58909],[13.96275,58.5892],[13.96542,58.58824],[13.96537,58.58756],[13.96611,58.58666],[13.9667,58.58634],[13.97104,58.5865],[13.97316,58.58514],[13.97536,58.5855],[13.97835,58.58572],[13.9825,58.58693],[13.98361,58.58775],[13.98371,58.58883],[13.98564,58.58982],[13.98678,58.59003],[13.98803,58.58999],[13.99021,58.58952],[13.98663,58.59263],[13.98608,58.59256],[13.98603,58.59332],[13.99795,58.59385],[13.99786,58.59509],[14.003,58.59484],[14.00947,58.5953],[14.01085,58.5961]],[[13.99086,58.58575],[13.9894,58.58452],[13.98859,58.58317],[13.98845,58.58172],[13.98906,58.58026],[13.98821,58.57768],[13.98817,58.57657],[13.98877,58.57512],[13.99019,58.57368],[13.99002,58.57168],[13.9907,58.56837],[13.99213,58.56675],[13.99442,58.56545],[13.99463,58.56416],[13.99553,58.5626],[13.99532,58.56026],[13.99468,58.55888],[13.99472,58.55746],[13.99574,58.55574],[13.99768,58.55431],[13.9975,58.55278],[13.99806,58.55136],[13.99892,58.55038],[14.00057,58.54925],[14.00219,58.54854],[14.00461,58.54789],[14.00661,58.54762],[14.01178,58.54731],[14.01585,58.54765],[14.01827,58.5483],[14.01986,58.54899],[14.02301,58.55084],[14.02474,58.55251],[14.02533,58.55404],[14.02518,58.55561],[14.02404,58.55731],[14.02216,58.55864],[14.02157,58.56057],[14.02423,58.56107],[14.02739,58.56204],[14.02939,58.56298],[14.03086,58.56413],[14.03185,58.56569],[14.03207,58.5671],[14.03328,58.56837],[14.03404,58.56981],[14.03426,58.57122],[14.03379,58.57264],[14.03227,58.57424],[14.02988,58.57552],[14.02684,58.57634],[14.02225,58.57694],[14.02252,58.57855],[14.02205,58.58],[14.02264,58.58205],[14.02234,58.58349],[14.02137,58.58482],[14.02023,58.58572],[14.01708,58.5871],[14.01451,58.58764],[14.0118,58.58787],[14.00857,58.58783],[14.00583,58.588],[14.00325,58.58784],[14.00086,58.58807],[13.99879,58.58804],[13.9961,58.58767],[13.99402,58.58713],[13.99086,58.58575]]]}},{"type":"Feature","id":"1496R005","properties":{"code":"1496R005","name":"Hentorp-Våmb"},"geometry":{"type":"Polygon","coordinates":[[[13.81456,58.39513],[13.81677,58.39421],[13.81636,58.3938],[13.82129,58.39252],[13.82102,58.39175],[13.82226,58.39031],[13.82283,58.39032],[13.82509,58.38951],[13.82507,58.38901],[13.82449,58.38875],[13.82659,58.38927],[13.82953,58.38923],[13.83,58.38756],[13.83068,58.38676],[13.83174,58.38702],[13.83438,58.38422],[13.837,58.38207],[13.83586,58.38115],[13.83666,58.38089],[13.83563,58.37933],[13.83348,58.37812],[13.83564,58.37745],[13.83653,58.37752],[13.83669,58.3773],[13.83861,58.377],[13.83928,58.37711],[13.84097,58.3769],[13.83696,58.37223],[13.8351,58.36941],[13.83485,58.3688],[13.83673,58.36874],[13.83363,58.36599],[13.83191,58.36347],[13.8313,58.36295],[13.82966,58.36301],[13.82799,58.36352],[13.82646,58.36364],[13.82534,58.36309],[13.82476,58.36246],[13.82387,58.36218],[13.82381,58.36166],[13.8246,58.36089],[13.81312,58.36178],[13.81172,58.36245],[13.80918,58.36272],[13.80861,58.36333],[13.80537,58.36218],[13.8045,58.3644],[13.80449,58.36646],[13.80494,58.36783],[13.80444,58.3694],[13.80281,58.37081],[13.80203,58.37227],[13.80194,58.37424],[13.80291,58.37603],[13.80249,58.3778],[13.80266,58.37826],[13.80199,58.37941],[13.80216,58.37965],[13.8016,58.38111],[13.80204,58.38392],[13.80348,58.3859],[13.80475,58.38678],[13.80648,58.38756],[13.80727,58.38857],[13.80864,58.38962],[13.80646,58.3912],[13.80534,58.39336],[13.8056,58.39516],[13.80767,58.3979],[13.80802,58.3979],[13.80904,58.39659],[13.81275,58.39647],[13.81254,58.39542],[13.81456,58.39513]]]}},{"type":"Feature","id":"1496R006","properties":{"code":"1496R006","name":"Högskolan-Trängen"},"geometry":{"type":"Polygon","coordinates":[[[13.86145,58.40094],[13.86269,58.40068],[13.86158,58.40001],[13.8635,58.39957],[13.86321,58.39912],[13.85843,58.39544],[13.85441,58.39627],[13.85321,58.3949],[13.84566,58.39624],[13.84655,58.3968],[13.84696,58.39762],[13.84862,58.3974],[13.85226,58.39806],[13.8531,58.39932],[13.85618,58.39902],[13.85796,58.39906],[13.85884,58.4008],[13.86069,58.40054],[13.86145,58.40094]]]}},{"type":"Feature","id":"1496R007","properties":{"code":"1496R007","name":"Igelstorp-Värsås"},"geometry":{"type":"Polygon","coordinates":[[[13.98784,58.45267],[13.99399,58.45175],[13.99601,58.45063],[13.99723,58.45127],[13.99941,58.45133],[14.002,58.45107],[14.008,58.45112],[14.01275,58.45199],[14.01816,58.45178],[14.02497,58.45179],[14.02868,58.45154],[14.03928,58.45159],[14.04183,58.45134],[14.04574,58.45156],[14.04916,58.45135],[14.05185,58.45157],[14.05776,58.45159],[14.06064,58.45134],[14.06281,58.45157],[14.06586,58.4516],[14.06844,58.44956],[14.06966,58.4489],[14.07513,58.44817],[14.07269,58.44747],[14.072,58.44629],[14.07255,58.44586],[14.07283,58.44492],[14.07221,58.44505],[14.07149,58.44366],[14.07062,58.44324],[14.06816,58.4428],[14.06795,58.44297],[14.06819,58.44317],[14.06599,58.44338],[14.06699,58.44283],[14.06584,58.4415],[14.0623,58.44191],[14.0612,58.44155],[14.06135,58.44094],[14.05999,58.44014],[14.06027,58.43998],[14.06338,58.4408],[14.06461,58.44051],[14.06434,58.44001],[14.06724,58.44018],[14.06726,58.44128],[14.06863,58.44154],[14.07082,58.43915],[14.07155,58.43899],[14.07139,58.43595],[14.07417,58.43613],[14.07648,58.43345],[14.07569,58.4328],[14.07186,58.43133],[14.06757,58.4304],[14.0659,58.43027],[14.06765,58.42924],[14.06286,58.42723],[14.06289,58.42654],[14.06377,58.42507],[14.06372,58.42447],[14.06429,58.42392],[14.06407,58.42266],[14.06673,58.42082],[14.06961,58.42113],[14.07476,58.42131],[14.07698,58.42208],[14.07817,58.42213],[14.07879,58.42195],[14.08026,58.42033],[14.07933,58.42005],[14.08001,58.41828],[14.08067,58.41829],[14.08076,58.41733],[14.08263,58.41592],[14.07974,58.41583],[14.07975,58.41563],[14.08047,58.41557],[14.0803,58.41536],[14.07927,58.41454],[14.07826,58.41421],[14.07708,58.41227],[14.07656,58.41242],[14.07146,58.40661],[14.07163,58.4063],[14.0679,58.40224],[14.08217,58.39371],[14.10211,58.38528],[14.10481,58.38243],[14.1076,58.38282],[14.11567,58.37957],[14.13675,58.37201],[14.14556,58.37409],[14.14827,58.37499],[14.14986,58.37619],[14.15265,58.37595],[14.15237,58.37534],[14.15054,58.37359],[14.14768,58.37221],[14.14647,58.3712],[14.14427,58.37072],[14.14248,58.36961],[14.14021,58.36873],[14.13977,58.36819],[14.13957,58.36716],[14.13868,58.36629],[14.13589,58.36575],[14.13191,58.36442],[14.13023,58.36354],[14.12791,58.36085],[14.12771,58.3598],[14.12803,58.35949],[14.12943,58.3595],[14.13022,58.35926],[14.13085,58.35826],[14.13055,58.35787],[14.12781,58.35729],[14.12497,58.35615],[14.12215,58.35552],[14.12141,58.35365],[14.11907,58.35292],[14.11888,58.35246],[14.11927,58.35142],[14.11905,58.35107],[14.11798,58.35075],[14.11659,58.35081],[14.11503,58.35056],[14.11453,58.3503],[14.11445,58.34952],[14.11625,58.34862],[14.11689,58.34747],[14.12165,58.34627],[14.12262,58.34549],[14.12164,58.3443],[14.12161,58.34379],[14.12249,58.34278],[14.1223,58.3422],[14.11929,58.33973],[14.11569,58.33861],[14.11408,58.33667],[14.11412,58.33613],[14.11461,58.33559],[14.11439,58.33533],[14.11316,58.3348],[14.11157,58.33504],[14.11115,58.33496],[14.11104,58.33511],[14.10784,58.33565],[14.10848,58.33765],[14.1056,58.33802],[14.10617,58.34006],[14.09822,58.33849],[14.0912,58.33935],[14.08841,58.32828],[14.09275,58.32722],[14.09346,58.3264],[14.08735,58.32356],[14.08662,58.32209],[14.08643,58.31869],[14.08698,58.31868],[14.08627,58.3183],[14.08561,58.31743],[14.08596,58.31684],[14.07678,58.31618],[14.07497,58.31431],[14.07363,58.3141],[14.07114,58.31313],[14.06823,58.3133],[14.06614,58.31321],[14.06304,58.31275],[14.0635,58.3124],[14.06236,58.31192],[14.0626,58.31178],[14.06057,58.31058],[14.057,58.30979],[14.05416,58.31031],[14.05373,58.31066],[14.05451,58.31145],[14.05325,58.31273],[14.05223,58.31328],[14.05096,58.31364],[14.04866,58.3137],[14.048,58.31486],[14.03886,58.31797],[14.03767,58.31587],[14.03531,58.31468],[14.03595,58.31395],[14.02446,58.31228],[14.02458,58.31197],[14.02743,58.31],[14.02792,58.30817],[14.02675,58.30587],[14.01821,58.30078],[14.01736,58.30092],[14.01624,58.30148],[14.01215,58.30226],[14.01159,58.30157],[14.00936,58.30065],[14.00718,58.29908],[14.00686,58.2986],[14.00503,58.29849],[14.00402,58.29766],[14.00097,58.29768],[13.99985,58.29642],[13.99967,58.29567],[13.99896,58.29539],[13.99691,58.29283],[13.99545,58.29015],[13.99552,58.28767],[13.99478,58.28717],[13.99449,58.28586],[13.99364,58.2852],[13.99205,58.28448],[13.99123,58.28373],[13.98892,58.28341],[13.98716,58.28217],[13.98561,58.28177],[13.98391,58.2808],[13.98265,58.27942],[13.95143,58.2638],[13.95634,58.26078],[13.95622,58.25952],[13.9546,58.25739],[13.95398,58.25611],[13.94725,58.25573],[13.94665,58.25552],[13.94591,58.25471],[13.94356,58.25436],[13.94027,58.25478],[13.93817,58.25477],[13.94055,58.26345],[13.93358,58.26182],[13.93292,58.26006],[13.93117,58.2584],[13.93043,58.25543],[13.92621,58.25443],[13.9239,58.25333],[13.91937,58.25169],[13.91769,58.25077],[13.9151,58.25014],[13.91297,58.24888],[13.90979,58.24821],[13.90657,58.24687],[13.90402,58.24743],[13.90379,58.24725],[13.90168,58.24714],[13.90164,58.24776],[13.89976,58.24818],[13.89457,58.24849],[13.89178,58.24835],[13.88856,58.24848],[13.88466,58.24822],[13.88399,58.24799],[13.87873,58.24826],[13.86951,58.24808],[13.87023,58.24954],[13.87038,58.25327],[13.86208,58.25338],[13.85111,58.26748],[13.8534,58.26775],[13.85739,58.26565],[13.85636,58.26448],[13.85691,58.26457],[13.85732,58.26525],[13.85914,58.26662],[13.85989,58.26764],[13.88605,58.25883],[13.89046,58.25818],[13.89172,58.26062],[13.8663,58.2693],[13.85932,58.26916],[13.85579,58.27001],[13.8538,58.2697],[13.85022,58.27097],[13.85533,58.2741],[13.85444,58.28009],[13.8533,58.28032],[13.85417,58.28106],[13.85399,58.28119],[13.85439,58.2813],[13.8544,58.28198],[13.85326,58.28307],[13.85354,58.28362],[13.85252,58.28377],[13.85129,58.28495],[13.85127,58.28545],[13.8532,58.29058],[13.85652,58.29434],[13.85518,58.29438],[13.85609,58.29496],[13.85657,58.30276],[13.85629,58.30292],[13.85658,58.30293],[13.85676,58.30613],[13.86081,58.31238],[13.86381,58.31345],[13.86623,58.315],[13.86736,58.31614],[13.86928,58.31602],[13.87018,58.31708],[13.87206,58.31699],[13.87218,58.31747],[13.87534,58.3173],[13.87579,58.31768],[13.8794,58.31843],[13.87427,58.31875],[13.87392,58.31901],[13.87526,58.31947],[13.87607,58.32004],[13.88386,58.31961],[13.88467,58.31889],[13.88576,58.31831],[13.88634,58.31824],[13.88709,58.31758],[13.88876,58.31795],[13.89275,58.318],[13.89464,58.31778],[13.90821,58.31469],[13.91442,58.31372],[13.91577,58.31326],[13.91829,58.3117],[13.92165,58.31003],[13.92716,58.30857],[13.92639,58.3145],[13.92654,58.3162],[13.92737,58.31902],[13.92736,58.32258],[13.92918,58.32441],[13.93098,58.32547],[13.93496,58.3263],[13.93748,58.32637],[13.93868,58.3268],[13.94051,58.32714],[13.94153,58.3278],[13.94332,58.32742],[13.94422,58.32841],[13.9425,58.33224],[13.94326,58.33435],[13.94231,58.33482],[13.94047,58.33483],[13.93973,58.33528],[13.94072,58.33669],[13.94117,58.33859],[13.94097,58.34239],[13.94001,58.34276],[13.9422,58.34393],[13.94234,58.34446],[13.942,58.34482],[13.94031,58.3454],[13.93778,58.34514],[13.93564,58.34633],[13.93582,58.34738],[13.93262,58.3484],[13.93224,58.34973],[13.93267,58.35035],[13.9327,58.35124],[13.93308,58.35121],[13.93333,58.35195],[13.9331,58.35385],[13.93396,58.35418],[13.93358,58.35485],[13.93281,58.35532],[13.93245,58.35533],[13.9316,58.35616],[13.93083,58.35627],[13.9302,58.35677],[13.93031,58.35723],[13.93084,58.35732],[13.93124,58.35798],[13.92819,58.36085],[13.93324,58.36311],[13.93414,58.36452],[13.94583,58.36694],[13.94552,58.36746],[13.94649,58.3681],[13.94663,58.36846],[13.94635,58.36874],[13.94547,58.36832],[13.94519,58.36855],[13.9467,58.36989],[13.94679,58.37023],[13.94636,58.37048],[13.94518,58.37061],[13.94442,58.37043],[13.94432,58.37119],[13.9438,58.37116],[13.94345,58.37089],[13.94311,58.37098],[13.94338,58.37188],[13.94393,58.37188],[13.94414,58.37205],[13.94369,58.37248],[13.94436,58.3728],[13.94444,58.37322],[13.94347,58.3734],[13.94414,58.37462],[13.94313,58.37467],[13.94302,58.37505],[13.94425,58.37503],[13.94388,58.37539],[13.9447,58.37562],[13.94469,58.37735],[13.94364,58.3779],[13.94448,58.37812],[13.9443,58.37835],[13.9436,58.37865],[13.94197,58.37877],[13.94178,58.37906],[13.94218,58.37934],[13.94357,58.37947],[13.94369,58.37968],[13.94303,58.38032],[13.94242,58.38056],[13.94169,58.38046],[13.94166,58.38004],[13.94129,58.37993],[13.94009,58.38053],[13.93948,58.38053],[13.93828,58.38209],[13.93761,58.3815],[13.93706,58.38156],[13.93689,58.38184],[13.93848,58.38315],[13.93853,58.38375],[13.93811,58.38403],[13.93689,58.38384],[13.935,58.38436],[13.93558,58.38592],[13.93344,58.38675],[13.93174,58.38639],[13.93056,58.38581],[13.92931,58.38586],[13.92967,58.38649],[13.92948,58.38672],[13.92659,58.38619],[13.9269,58.38551],[13.92643,58.38506],[13.92601,58.38497],[13.92539,58.38506],[13.92505,58.38574],[13.92377,58.38599],[13.92347,58.38667],[13.92259,58.38674],[13.91986,58.38608],[13.9194,58.38627],[13.91894,58.38701],[13.91797,58.38735],[13.91641,58.3888],[13.9167,58.391],[13.91839,58.3927],[13.91772,58.39399],[13.91559,58.39483],[13.91477,58.39551],[13.91557,58.39718],[13.91567,58.39826],[13.91514,58.40061],[13.91434,58.40197],[13.91242,58.40348],[13.90979,58.40456],[13.90723,58.40511],[13.90341,58.40539],[13.90534,58.40776],[13.90636,58.40955],[13.91078,58.40898],[13.91128,58.40954],[13.91514,58.40952],[13.91583,58.40985],[13.91553,58.41109],[13.91621,58.41144],[13.9177,58.41166],[13.91871,58.41222],[13.91898,58.41293],[13.91835,58.41319],[13.91482,58.4138],[13.91442,58.41372],[13.91364,58.41287],[13.91054,58.41339],[13.91071,58.41464],[13.90611,58.41504],[13.90584,58.41482],[13.90455,58.41524],[13.9043,58.41501],[13.90394,58.4151],[13.90416,58.41535],[13.90321,58.41557],[13.90161,58.41558],[13.90161,58.41593],[13.90061,58.41591],[13.89909,58.41653],[13.89975,58.41733],[13.89828,58.41757],[13.8916,58.41691],[13.88756,58.41796],[13.88563,58.41807],[13.88591,58.41931],[13.88511,58.42113],[13.89563,58.4228],[13.89958,58.42767],[13.90051,58.42973],[13.90171,58.43148],[13.90233,58.43509],[13.90135,58.4372],[13.89899,58.43894],[13.92421,58.44536],[13.92451,58.44487],[13.92514,58.44533],[13.92687,58.44548],[13.93016,58.44524],[13.93085,58.44539],[13.92997,58.44591],[13.94072,58.44712],[13.94091,58.44676],[13.94495,58.44742],[13.94926,58.44789],[13.95404,58.44878],[13.95698,58.44899],[13.96314,58.44994],[13.96732,58.44992],[13.97083,58.45086],[13.97633,58.45151],[13.97922,58.45218],[13.98382,58.45261],[13.98784,58.45267]]]}},{"type":"Feature","id":"1496R009","properties":{"code":"1496R009","name":"Lunden-Trädgårdsstaden"},"geometry":{"type":"Polygon","coordinates":[[[13.8695,58.41808],[13.86962,58.41757],[13.87083,58.41764],[13.87234,58.41805],[13.8743,58.41801],[13.87444,58.41786],[13.87847,58.41812],[13.88241,58.41735],[13.88258,58.41748],[13.88343,58.41742],[13.88398,58.41724],[13.88503,58.4174],[13.88563,58.41807],[13.88756,58.41796],[13.8916,58.41691],[13.89828,58.41757],[13.89975,58.41733],[13.89909,58.41653],[13.90061,58.41591],[13.90161,58.41593],[13.90161,58.41558],[13.90321,58.41557],[13.90416,58.41535],[13.90394,58.4151],[13.9043,58.41501],[13.90455,58.41524],[13.90584,58.41482],[13.90611,58.41504],[13.91071,58.41464],[13.91054,58.41339],[13.91364,58.41287],[13.91442,58.41372],[13.91482,58.4138],[13.91835,58.41319],[13.91898,58.41293],[13.91871,58.41222],[13.9177,58.41166],[13.91621,58.41144],[13.91553,58.41109],[13.91583,58.40985],[13.91514,58.40952],[13.91128,58.40954],[13.91078,58.40898],[13.90636,58.40955],[13.90534,58.40776],[13.90341,58.40539],[13.90653,58.40519],[13.90916,58.40474],[13.91193,58.40374],[13.91368,58.40262],[13.915,58.40097],[13.91561,58.39862],[13.91557,58.3972],[13.91477,58.39551],[13.91377,58.39593],[13.91263,58.39605],[13.91208,58.39586],[13.91136,58.39522],[13.91065,58.39505],[13.90872,58.39563],[13.90701,58.3955],[13.90612,58.39616],[13.90377,58.39572],[13.90338,58.39609],[13.90099,58.39644],[13.90333,58.3971],[13.90236,58.39808],[13.90251,58.39842],[13.89548,58.39787],[13.8958,58.3995],[13.89097,58.40026],[13.88557,58.40061],[13.88725,58.40483],[13.88489,58.40404],[13.88066,58.40325],[13.87955,58.40422],[13.87639,58.40359],[13.87629,58.40391],[13.87507,58.40375],[13.86914,58.40479],[13.87461,58.41057],[13.87406,58.41089],[13.87067,58.41126],[13.86849,58.41132],[13.86807,58.41029],[13.86631,58.41043],[13.86602,58.41031],[13.86567,58.40985],[13.86585,58.40683],[13.85996,58.40663],[13.8577,58.40683],[13.85397,58.40775],[13.86713,58.41401],[13.86893,58.41572],[13.86923,58.41686],[13.869,58.41797],[13.8695,58.41808]]]}},{"type":"Feature","id":"1496R010","properties":{"code":"1496R010","name":"Mariesjö-Östermalm"},"geometry":{"type":"Polygon","coordinates":[[[13.89085,58.39808],[13.89394,58.39806],[13.89561,58.39823],[13.89548,58.39787],[13.90251,58.39842],[13.90236,58.39808],[13.90333,58.3971],[13.90099,58.39644],[13.90338,58.39609],[13.90377,58.39572],[13.90612,58.39616],[13.90701,58.3955],[13.90872,58.39563],[13.91065,58.39505],[13.91136,58.39522],[13.91208,58.39586],[13.91263,58.39605],[13.91377,58.39593],[13.91477,58.39551],[13.91311,58.39389],[13.91091,58.39275],[13.90982,58.39065],[13.90734,58.38894],[13.90507,58.38804],[13.90221,58.38737],[13.90028,58.3871],[13.89768,58.38705],[13.89712,58.38498],[13.89578,58.38341],[13.89487,58.38143],[13.89267,58.3797],[13.89115,58.37903],[13.88912,58.37847],[13.88842,58.37716],[13.8872,58.37603],[13.8874,58.37444],[13.88684,58.37303],[13.88598,58.37205],[13.88435,58.37092],[13.88218,58.37002],[13.87585,58.36833],[13.873,58.36702],[13.86979,58.36635],[13.86709,58.36621],[13.86436,58.36645],[13.86137,58.36711],[13.85848,58.36821],[13.85625,58.36702],[13.85122,58.36502],[13.84777,58.36441],[13.84433,58.3644],[13.8432,58.36345],[13.8395,58.36121],[13.83785,58.36057],[13.83564,58.36004],[13.83383,58.3593],[13.8246,58.36089],[13.82381,58.36166],[13.82387,58.36218],[13.82476,58.36246],[13.82534,58.36309],[13.82646,58.36364],[13.82799,58.36352],[13.82966,58.36301],[13.8313,58.36295],[13.83191,58.36347],[13.83363,58.36599],[13.83673,58.36874],[13.83485,58.3688],[13.83573,58.37052],[13.83758,58.37302],[13.84975,58.38698],[13.85087,58.38794],[13.85284,58.38794],[13.8534,58.38919],[13.85252,58.38977],[13.85451,58.39208],[13.85843,58.39544],[13.86116,58.39667],[13.86979,58.3988],[13.87198,58.39907],[13.87628,58.39913],[13.89085,58.39808]]]}},{"type":"Feature","id":"1496R012","properties":{"code":"1496R012","name":"Ryd barkvägen-Lövängen"},"geometry":{"type":"Polygon","coordinates":[[[13.89118,58.44113],[13.89678,58.43979],[13.899,58.43893],[13.90135,58.4372],[13.90228,58.43546],[13.90231,58.43438],[13.90154,58.43112],[13.90051,58.42973],[13.89981,58.42799],[13.89563,58.4228],[13.88511,58.42113],[13.88484,58.42226],[13.88284,58.41977],[13.87724,58.41972],[13.8771,58.42094],[13.87538,58.42101],[13.88047,58.4274],[13.87491,58.42864],[13.87389,58.42749],[13.86996,58.42839],[13.86928,58.42633],[13.86697,58.42643],[13.86583,58.42633],[13.86723,58.42365],[13.869,58.41797],[13.86914,58.41649],[13.86825,58.41581],[13.86809,58.41539],[13.86716,58.41542],[13.86603,58.41593],[13.86499,58.41602],[13.86127,58.41816],[13.85806,58.41747],[13.8555,58.41738],[13.85408,58.41754],[13.85367,58.41736],[13.85338,58.41748],[13.85344,58.41803],[13.85315,58.4181],[13.85277,58.41801],[13.8524,58.4175],[13.85182,58.41761],[13.85089,58.41728],[13.85051,58.41748],[13.84794,58.41729],[13.84564,58.41675],[13.84566,58.41708],[13.8454,58.41713],[13.84625,58.42066],[13.84736,58.423],[13.84413,58.42346],[13.84398,58.42329],[13.84331,58.42336],[13.8428,58.42233],[13.84169,58.42148],[13.84059,58.42138],[13.83549,58.42587],[13.8348,58.42603],[13.83195,58.42579],[13.83052,58.42498],[13.82956,58.42497],[13.82879,58.42527],[13.82732,58.42525],[13.82128,58.42582],[13.82244,58.42862],[13.82468,58.42992],[13.8276,58.43084],[13.82958,58.43115],[13.83228,58.43124],[13.83437,58.43107],[13.83652,58.43064],[13.83751,58.43172],[13.83922,58.43283],[13.84083,58.4335],[13.84328,58.43411],[13.84599,58.43439],[13.85001,58.43444],[13.85418,58.43409],[13.85745,58.43493],[13.8616,58.43543],[13.86398,58.43705],[13.86771,58.43886],[13.87222,58.44027],[13.87506,58.44087],[13.87717,58.44111],[13.88133,58.44125],[13.88472,58.441],[13.88778,58.4413],[13.89118,58.44113]]]}},{"type":"Feature","id":"1496R013","properties":{"code":"1496R013","name":"Ryds centrum"},"geometry":{"type":"Polygon","coordinates":[[[13.87492,58.42864],[13.88047,58.4274],[13.87538,58.42101],[13.8771,58.42094],[13.87724,58.41972],[13.88284,58.41977],[13.88484,58.42226],[13.8853,58.4203],[13.88594,58.41904],[13.88558,58.41797],[13.88503,58.4174],[13.88398,58.41724],[13.88343,58.41742],[13.88258,58.41748],[13.88241,58.41735],[13.87847,58.41812],[13.87444,58.41786],[13.8743,58.41801],[13.87234,58.41805],[13.87083,58.41764],[13.86962,58.41757],[13.8695,58.41808],[13.869,58.41797],[13.86723,58.42365],[13.86583,58.42633],[13.86697,58.42643],[13.86928,58.42633],[13.86996,58.42839],[13.87389,58.42749],[13.87492,58.42864]]]}},{"type":"Feature","id":"1496R014","properties":{"code":"1496R014","name":"Skultorp-Skultorpsbygden"},"geometry":{"type":"Polygon","coordinates":[[[13.91823,58.38726],[13.91894,58.38701],[13.9194,58.38627],[13.91986,58.38608],[13.92259,58.38674],[13.92347,58.38667],[13.92377,58.38599],[13.92505,58.38574],[13.92561,58.385],[13.92643,58.38506],[13.92682,58.38537],[13.92659,58.38619],[13.92901,58.38669],[13.92962,58.38663],[13.92931,58.38586],[13.93077,58.38585],[13.93174,58.38639],[13.93313,58.38679],[13.93533,58.38611],[13.93558,58.38561],[13.93488,58.38457],[13.935,58.38436],[13.93689,58.38384],[13.93811,58.38403],[13.93859,58.38365],[13.93848,58.38315],[13.93777,58.38275],[13.93694,58.38165],[13.93761,58.3815],[13.93828,58.38209],[13.93948,58.38053],[13.94009,58.38053],[13.94129,58.37993],[13.94166,58.38004],[13.94169,58.38046],[13.94242,58.38056],[13.94303,58.38032],[13.94369,58.37968],[13.94357,58.37947],[13.94218,58.37934],[13.94178,58.37906],[13.94197,58.37877],[13.9436,58.37865],[13.9443,58.37835],[13.94448,58.37812],[13.94364,58.3779],[13.94469,58.37735],[13.9447,58.37562],[13.94388,58.37539],[13.94425,58.37503],[13.94302,58.37505],[13.94313,58.37467],[13.94414,58.37462],[13.94347,58.3734],[13.94444,58.37322],[13.94436,58.3728],[13.94369,58.37248],[13.94414,58.37205],[13.94393,58.37188],[13.94338,58.37188],[13.94311,58.37098],[13.94345,58.37089],[13.9438,58.37116],[13.94432,58.37119],[13.94442,58.37043],[13.94518,58.37061],[13.94636,58.37048],[13.94679,58.37023],[13.9467,58.36989],[13.94519,58.36855],[13.94547,58.36832],[13.94635,58.36874],[13.94663,58.36846],[13.94649,58.3681],[13.94552,58.36746],[13.94583,58.36694],[13.93414,58.36452],[13.93324,58.36311],[13.92819,58.36085],[13.93124,58.35798],[13.93084,58.35732],[13.93031,58.35723],[13.9302,58.35677],[13.93083,58.35627],[13.9316,58.35616],[13.93245,58.35533],[13.93281,58.35532],[13.93358,58.35485],[13.93396,58.35418],[13.9331,58.35385],[13.93333,58.35195],[13.93308,58.35121],[13.9327,58.35124],[13.93267,58.35035],[13.93224,58.34973],[13.93262,58.3484],[13.93582,58.34738],[13.93564,58.34633],[13.93778,58.34514],[13.94031,58.3454],[13.942,58.34482],[13.94234,58.34446],[13.9422,58.34393],[13.94001,58.34276],[13.94097,58.34239],[13.94117,58.33859],[13.94072,58.33669],[13.93973,58.33528],[13.94047,58.33483],[13.94231,58.33482],[13.94326,58.33435],[13.9425,58.33224],[13.94422,58.32841],[13.94332,58.32742],[13.94153,58.3278],[13.94051,58.32714],[13.93868,58.3268],[13.93748,58.32637],[13.93496,58.3263],[13.93098,58.32547],[13.92918,58.32441],[13.92736,58.32258],[13.92737,58.31902],[13.92654,58.3162],[13.92639,58.3145],[13.92716,58.30857],[13.92165,58.31003],[13.91829,58.3117],[13.91577,58.31326],[13.91442,58.31372],[13.90821,58.31469],[13.89464,58.31778],[13.89275,58.318],[13.88876,58.31795],[13.88709,58.31758],[13.88634,58.31824],[13.88576,58.31831],[13.88467,58.31889],[13.88386,58.31961],[13.87607,58.32004],[13.87526,58.31947],[13.87392,58.31901],[13.87427,58.31875],[13.8794,58.31843],[13.87579,58.31768],[13.87534,58.3173],[13.87218,58.31747],[13.87206,58.31699],[13.87018,58.31708],[13.86928,58.31602],[13.86736,58.31614],[13.86623,58.315],[13.86381,58.31345],[13.86081,58.31238],[13.8589,58.30928],[13.83408,58.30805],[13.83425,58.30885],[13.83355,58.30973],[13.82947,58.30956],[13.82946,58.30897],[13.82918,58.30882],[13.82454,58.30825],[13.8204,58.30882],[13.8186,58.30865],[13.8098,58.31019],[13.80502,58.31017],[13.79426,58.30518],[13.79422,58.30405],[13.7922,58.30185],[13.78534,58.3039],[13.78674,58.30539],[13.78693,58.30649],[13.78752,58.30738],[13.78886,58.30872],[13.79001,58.30942],[13.79021,58.30983],[13.78765,58.3109],[13.7846,58.31023],[13.78248,58.31083],[13.77946,58.30853],[13.77903,58.30866],[13.77592,58.30626],[13.77547,58.30629],[13.77483,58.30689],[13.77482,58.30763],[13.77627,58.30987],[13.78035,58.31142],[13.77646,58.31251],[13.77324,58.31011],[13.77239,58.31004],[13.77049,58.30947],[13.77031,58.30868],[13.76949,58.30865],[13.7674,58.30955],[13.76652,58.30903],[13.76555,58.30875],[13.76604,58.30852],[13.76422,58.30847],[13.76044,58.308],[13.75954,58.30857],[13.75667,58.30946],[13.75633,58.30861],[13.75667,58.30801],[13.75082,58.30779],[13.74855,58.30968],[13.74954,58.31095],[13.74777,58.31172],[13.74677,58.31194],[13.74546,58.31186],[13.74504,58.31205],[13.74413,58.31159],[13.74323,58.31068],[13.7395,58.30989],[13.73272,58.30748],[13.7124,58.29758],[13.70049,58.29857],[13.68013,58.30954],[13.67936,58.30845],[13.67914,58.30697],[13.67596,58.30521],[13.67473,58.30544],[13.6737,58.30528],[13.67235,58.30566],[13.67018,58.30668],[13.66765,58.30708],[13.65631,58.30722],[13.65779,58.31044],[13.65916,58.31164],[13.66925,58.31102],[13.67049,58.31288],[13.67062,58.31372],[13.672,58.31367],[13.67368,58.31593],[13.67054,58.31762],[13.6705,58.32037],[13.67131,58.32102],[13.67079,58.32215],[13.67129,58.32326],[13.67061,58.32419],[13.67011,58.32453],[13.66795,58.32376],[13.66411,58.32465],[13.66716,58.3335],[13.6933,58.34805],[13.7157,58.34903],[13.71573,58.34978],[13.72225,58.35187],[13.72021,58.34875],[13.73974,58.34841],[13.74179,58.35806],[13.76688,58.36333],[13.77324,58.36035],[13.76958,58.36606],[13.76945,58.36679],[13.76976,58.36735],[13.77431,58.36761],[13.78135,58.36672],[13.78162,58.36737],[13.80267,58.37733],[13.80291,58.37603],[13.80203,58.37458],[13.8019,58.37287],[13.80258,58.37113],[13.80444,58.3694],[13.80494,58.36783],[13.80449,58.36646],[13.8045,58.3644],[13.80537,58.36218],[13.80861,58.36333],[13.80918,58.36272],[13.81172,58.36245],[13.81312,58.36178],[13.8246,58.36089],[13.83383,58.3593],[13.83564,58.36004],[13.83785,58.36057],[13.8395,58.36121],[13.8432,58.36345],[13.84433,58.3644],[13.84777,58.36441],[13.85122,58.36502],[13.85625,58.36702],[13.85848,58.36821],[13.86137,58.36711],[13.86374,58.36655],[13.86644,58.36624],[13.86915,58.36628],[13.873,58.36702],[13.87585,58.36833],[13.88161,58.36986],[13.88384,58.37066],[13.88564,58.37176],[13.88684,58.37303],[13.8874,58.37444],[13.8872,58.37603],[13.88842,58.37716],[13.88912,58.37847],[13.89115,58.37903],[13.89267,58.3797],[13.89487,58.38143],[13.89578,58.38341],[13.89712,58.38498],[13.89768,58.38705],[13.90028,58.3871],[13.90221,58.38737],[13.90507,58.38804],[13.90734,58.38894],[13.90982,58.39065],[13.91091,58.39275],[13.91311,58.39389],[13.91477,58.39551],[13.91559,58.39483],[13.91772,58.39399],[13.91835,58.39281],[13.9167,58.391],[13.91633,58.38926],[13.91663,58.38852],[13.91823,58.38726]]]}},{"type":"Feature","id":"1496R015","properties":{"code":"1496R015","name":"Skövde centrumkärna"},"geometry":{"type":"Polygon","coordinates":[[[13.85441,58.39627],[13.85843,58.39544],[13.85451,58.39208],[13.85252,58.38977],[13.8534,58.38919],[13.85284,58.38794],[13.85087,58.38794],[13.84975,58.38698],[13.84492,58.38703],[13.84495,58.3881],[13.84177,58.38813],[13.84177,58.38955],[13.84496,58.38951],[13.84498,58.38931],[13.84634,58.38932],[13.84645,58.392],[13.84748,58.39317],[13.8471,58.39351],[13.8487,58.39452],[13.8487,58.39507],[13.84937,58.39553],[13.85321,58.3949],[13.85441,58.39627]]]}},{"type":"Feature","id":"1496R016","properties":{"code":"1496R016","name":"Tidan tätort-Tidan omnejd"},"geometry":{"type":"Polygon","coordinates":[[[14.00081,58.58807],[14.00325,58.58784],[14.00583,58.588],[14.01387,58.58771],[14.0165,58.58726],[14.01927,58.58626],[14.02137,58.58482],[14.02248,58.58313],[14.0226,58.58138],[14.02205,58.58],[14.02252,58.57855],[14.02225,58.57694],[14.02746,58.57622],[14.03039,58.57531],[14.03299,58.57364],[14.03412,58.57193],[14.03403,58.56978],[14.03328,58.56837],[14.03207,58.5671],[14.03174,58.56544],[14.03055,58.56383],[14.02937,58.56296],[14.02739,58.56204],[14.02423,58.56107],[14.02157,58.56057],[14.02216,58.55864],[14.02404,58.55731],[14.02521,58.55551],[14.02524,58.55361],[14.02443,58.5521],[14.02301,58.55084],[14.01934,58.54874],[14.01651,58.54779],[14.01385,58.54738],[14.01108,58.54734],[14.00461,58.54789],[14.00158,58.54877],[13.99892,58.55038],[13.99758,58.55241],[13.99768,58.55431],[13.99574,58.55574],[13.99472,58.55744],[13.99468,58.55888],[13.99532,58.56026],[13.99553,58.5626],[13.99463,58.56416],[13.99442,58.56545],[13.99175,58.56706],[13.99041,58.5691],[13.98999,58.57202],[13.99019,58.57368],[13.98877,58.57512],[13.98817,58.57659],[13.98821,58.57768],[13.98906,58.58026],[13.98842,58.58209],[13.98891,58.58386],[13.99046,58.58548],[13.99341,58.58694],[13.9974,58.5879],[14.00081,58.58807]]]}},{"type":"Feature","id":"1496R017","properties":{"code":"1496R017","name":"Timmersdala-Berg"},"geometry":{"type":"Polygon","coordinates":[[[13.74567,58.57101],[13.75165,58.56895],[13.75028,58.57043],[13.75204,58.57159],[13.75307,58.57145],[13.75353,58.57179],[13.75371,58.57099],[13.75413,58.57077],[13.75239,58.56871],[13.75901,58.56631],[13.75973,58.56686],[13.76966,58.56345],[13.7703,58.56392],[13.77319,58.56391],[13.77404,58.56445],[13.77498,58.56469],[13.77529,58.56525],[13.77487,58.56531],[13.77511,58.56558],[13.77563,58.56568],[13.77594,58.56556],[13.77679,58.56603],[13.77792,58.56783],[13.78221,58.56624],[13.78424,58.56826],[13.77589,58.57061],[13.77384,58.56951],[13.77422,58.56769],[13.7725,58.56746],[13.77067,58.56893],[13.77195,58.57112],[13.77166,58.57219],[13.77232,58.57217],[13.77588,58.57359],[13.77664,58.57368],[13.7775,58.57343],[13.77979,58.57463],[13.78002,58.57655],[13.78224,58.57573],[13.78373,58.57571],[13.78407,58.57508],[13.78671,58.57427],[13.78702,58.5747],[13.78988,58.57419],[13.79072,58.57508],[13.79156,58.57496],[13.79228,58.57533],[13.7939,58.5749],[13.79351,58.57343],[13.79352,58.57175],[13.79277,58.57042],[13.79286,58.56848],[13.78798,58.56284],[13.78727,58.56151],[13.7865,58.5588],[13.78441,58.55633],[13.78282,58.55496],[13.78158,58.55283],[13.78015,58.55191],[13.77889,58.55055],[13.77722,58.54751],[13.77669,58.54719],[13.77281,58.54613],[13.77101,58.54496],[13.76684,58.54337],[13.76494,58.54218],[13.76429,58.54153],[13.76634,58.53926],[13.76984,58.5379],[13.77272,58.53705],[13.77851,58.53601],[13.78063,58.53471],[13.77987,58.53407],[13.78506,58.53174],[13.78682,58.53137],[13.78734,58.53149],[13.78791,58.53192],[13.79301,58.53232],[13.79273,58.53296],[13.80409,58.53287],[13.80387,58.53188],[13.80777,58.53168],[13.80819,58.53125],[13.80663,58.52894],[13.80812,58.52831],[13.80789,58.52656],[13.81069,58.52657],[13.81504,58.52691],[13.81573,58.52836],[13.81713,58.52964],[13.81879,58.52973],[13.82012,58.52949],[13.822,58.53008],[13.82742,58.52845],[13.83025,58.5278],[13.83001,58.52752],[13.83022,58.52726],[13.83153,58.52709],[13.83219,58.52675],[13.8335,58.52667],[13.83402,58.52704],[13.83783,58.52632],[13.83726,58.51499],[13.82767,58.50823],[13.82769,58.50711],[13.82823,58.50649],[13.82822,58.50538],[13.82865,58.50497],[13.82025,58.50347],[13.81945,58.50281],[13.81676,58.50366],[13.81601,58.50171],[13.81513,58.50171],[13.81547,58.501],[13.81527,58.50063],[13.8146,58.50068],[13.81381,58.49931],[13.81108,58.49962],[13.81065,58.49912],[13.8105,58.49756],[13.80991,58.49596],[13.81024,58.49528],[13.80949,58.49434],[13.81217,58.49337],[13.81221,58.4931],[13.8106,58.49121],[13.80983,58.49085],[13.8104,58.47919],[13.81129,58.47796],[13.80855,58.47497],[13.80659,58.47512],[13.80434,58.47436],[13.79336,58.45161],[13.78897,58.44171],[13.77515,58.43804],[13.76517,58.43892],[13.75997,58.43958],[13.75839,58.43828],[13.74924,58.43615],[13.74342,58.43636],[13.74698,58.43949],[13.74656,58.44024],[13.74752,58.4417],[13.74969,58.44298],[13.75183,58.44634],[13.74922,58.44861],[13.74678,58.44988],[13.74651,58.45044],[13.74593,58.45075],[13.74516,58.4507],[13.74307,58.45145],[13.74243,58.45097],[13.74133,58.45099],[13.73953,58.45136],[13.73708,58.45097],[13.73631,58.45102],[13.73549,58.45149],[13.73455,58.45125],[13.73355,58.45187],[13.73358,58.45309],[13.73284,58.45402],[13.73233,58.45433],[13.72985,58.4548],[13.73093,58.45536],[13.72776,58.45809],[13.72565,58.45849],[13.7268,58.45962],[13.72577,58.46027],[13.72369,58.46053],[13.71912,58.46205],[13.71862,58.46181],[13.71823,58.462],[13.71823,58.46252],[13.71247,58.46371],[13.71212,58.46341],[13.71092,58.4634],[13.71001,58.46398],[13.70881,58.4642],[13.70857,58.46419],[13.70781,58.46294],[13.70661,58.46259],[13.7045,58.46152],[13.70471,58.46111],[13.68615,58.46124],[13.68228,58.46155],[13.68146,58.46221],[13.68058,58.46186],[13.67995,58.46238],[13.67576,58.46276],[13.6719,58.46222],[13.67201,58.46268],[13.67138,58.46289],[13.67108,58.46374],[13.66977,58.46403],[13.66811,58.46601],[13.6647,58.46725],[13.66249,58.46773],[13.6621,58.46793],[13.66242,58.46818],[13.66148,58.46879],[13.65941,58.46944],[13.65888,58.46943],[13.65821,58.46974],[13.6566,58.46908],[13.65436,58.46901],[13.64901,58.46755],[13.64794,58.46812],[13.64757,58.47139],[13.64159,58.47119],[13.63783,58.47174],[13.63619,58.47168],[13.63544,58.47198],[13.63531,58.47232],[13.63591,58.47316],[13.63419,58.47364],[13.63412,58.47427],[13.63562,58.47521],[13.63608,58.47772],[13.63669,58.47797],[13.63797,58.47811],[13.63953,58.4789],[13.6399,58.47939],[13.64019,58.48102],[13.63998,58.48183],[13.63765,58.48164],[13.63546,58.48312],[13.632,58.48226],[13.63106,58.48308],[13.62833,58.48315],[13.62711,58.48298],[13.62465,58.48197],[13.62383,58.48087],[13.6231,58.48055],[13.62116,58.48033],[13.62113,58.4807],[13.62255,58.48301],[13.62341,58.48373],[13.62444,58.48417],[13.62406,58.48475],[13.6235,58.48503],[13.63283,58.48965],[13.63767,58.49636],[13.64209,58.51441],[13.65437,58.51756],[13.66225,58.52324],[13.66776,58.5317],[13.66979,58.5316],[13.67185,58.53221],[13.67257,58.53363],[13.66915,58.53396],[13.6764,58.54492],[13.68876,58.55343],[13.69015,58.55206],[13.69385,58.55018],[13.69381,58.54997],[13.69513,58.54987],[13.69784,58.54735],[13.69839,58.54639],[13.69894,58.54737],[13.70189,58.54906],[13.70994,58.54498],[13.71045,58.54504],[13.71196,58.54397],[13.70574,58.5428],[13.716,58.53773],[13.7141,58.54053],[13.71566,58.54089],[13.71648,58.53982],[13.72,58.54101],[13.72036,58.54044],[13.72885,58.54712],[13.72149,58.5494],[13.71948,58.55113],[13.71968,58.5533],[13.72256,58.55283],[13.72389,58.55241],[13.73495,58.55146],[13.7347,58.55712],[13.7295,58.56051],[13.72323,58.56096],[13.72083,58.55941],[13.70567,58.55633],[13.70443,58.55574],[13.70012,58.55859],[13.70012,58.56128],[13.70052,58.5617],[13.70148,58.56205],[13.70177,58.56244],[13.71804,58.56717],[13.72668,58.57024],[13.7308,58.57751],[13.74372,58.57302],[13.74218,58.57219],[13.74495,58.57156],[13.74567,58.57101]]]}},{"type":"Feature","id":"1496R018","properties":{"code":"1496R018","name":"Västra fältet"},"geometry":{"type":"Polygon","coordinates":[[[13.86195,58.40407],[13.86368,58.40352],[13.86431,58.40279],[13.86463,58.4018],[13.86269,58.40068],[13.86145,58.40094],[13.86069,58.40054],[13.85884,58.4008],[13.85796,58.39906],[13.85618,58.39902],[13.8531,58.39932],[13.85226,58.39806],[13.84862,58.3974],[13.84696,58.39762],[13.84852,58.40059],[13.85107,58.40077],[13.85248,58.40106],[13.8536,58.4016],[13.85608,58.40357],[13.85705,58.40403],[13.8597,58.40444],[13.86195,58.40407]]]}}]}