{"type":"FeatureCollection","features":[{"type":"Feature","id":"1497R001","properties":{"code":"1497R001","name":"Hjo landsbygd"},"geometry":{"type":"Polygon","coordinates":[[[14.33046,58.40835],[14.3308,58.40297],[14.33198,58.40106],[14.33465,58.40087],[14.34016,58.40466],[14.34362,58.40565],[14.35454,58.40555],[14.3587,58.40762],[14.36105,58.40748],[14.36092,58.40568],[14.36254,58.40529],[14.36676,58.40539],[14.36984,58.4036],[14.3736,58.40423],[14.37788,58.40441],[14.38098,58.40478],[14.39557,58.40501],[14.39973,58.40574],[14.40769,58.40448],[14.54251,58.37966],[14.52043,58.35596],[14.41774,58.19106],[14.31426,58.13178],[14.22487,58.13556],[14.22264,58.13532],[14.22185,58.13545],[14.21886,58.1353],[14.21711,58.1349],[14.21525,58.13483],[14.21407,58.13506],[14.21167,58.13491],[14.20895,58.13507],[14.20776,58.1353],[14.20568,58.1353],[14.2036,58.1348],[14.20141,58.13451],[14.19952,58.13385],[14.1978,58.13238],[14.19584,58.13241],[14.19578,58.13201],[14.19417,58.1318],[14.19341,58.13266],[14.19211,58.13242],[14.19027,58.13054],[14.18863,58.1304],[14.1878,58.13082],[14.18635,58.13074],[14.18495,58.13134],[14.1842,58.13081],[14.18221,58.13037],[14.18068,58.12961],[14.17658,58.12887],[14.17362,58.12976],[14.17315,58.12964],[14.17204,58.12987],[14.17009,58.12849],[14.16866,58.12835],[14.16796,58.1295],[14.16816,58.12991],[14.15533,58.13031],[14.15192,58.13148],[14.15198,58.13171],[14.15229,58.13173],[14.14715,58.13411],[14.14816,58.13497],[14.14849,58.13687],[14.1473,58.13721],[14.14652,58.1377],[14.14687,58.13831],[14.14648,58.13882],[14.14288,58.13957],[14.14097,58.13925],[14.13956,58.13855],[14.11465,58.15656],[14.11374,58.16542],[14.1151,58.16965],[14.12086,58.18221],[14.1135,58.19971],[14.11141,58.20094],[14.11043,58.20126],[14.11184,58.20182],[14.11428,58.20186],[14.11364,58.20392],[14.1154,58.20617],[14.11885,58.20526],[14.12055,58.20336],[14.12197,58.20297],[14.12772,58.2042],[14.1314,58.20589],[14.13303,58.20806],[14.13644,58.20854],[14.13346,58.21315],[14.12875,58.21269],[14.12871,58.21636],[14.12503,58.21752],[14.12382,58.21825],[14.12298,58.22194],[14.12394,58.22309],[14.12531,58.22387],[14.12612,58.22399],[14.12741,58.22377],[14.13047,58.22382],[14.13019,58.22554],[14.13201,58.22657],[14.13372,58.22814],[14.13472,58.22984],[14.13466,58.23189],[14.13497,58.23215],[14.1407,58.23312],[14.14209,58.23311],[14.14277,58.23287],[14.14374,58.23333],[14.14362,58.23401],[14.14234,58.2346],[14.14163,58.23588],[14.14076,58.23646],[14.13957,58.23671],[14.13953,58.23699],[14.13896,58.23733],[14.13834,58.24018],[14.13965,58.24087],[14.14058,58.24169],[14.14256,58.24227],[14.14742,58.24144],[14.14839,58.24262],[14.15079,58.24457],[14.15059,58.24511],[14.15093,58.24612],[14.15043,58.24719],[14.14873,58.24871],[14.14849,58.24976],[14.14872,58.25115],[14.148,58.25272],[14.14732,58.25325],[14.1481,58.25428],[14.14787,58.25487],[14.14876,58.25637],[14.13611,58.26012],[14.13564,58.25944],[14.13573,58.25791],[14.13292,58.25829],[14.13184,58.25826],[14.1303,58.25857],[14.12876,58.25837],[14.12237,58.25949],[14.11782,58.25953],[14.116,58.25982],[14.11464,58.25974],[14.11419,58.25992],[14.11319,58.25979],[14.11235,58.25996],[14.1118,58.26039],[14.10925,58.26101],[14.1087,58.26077],[14.109,58.26044],[14.10865,58.26],[14.10747,58.25976],[14.10666,58.25913],[14.10619,58.2591],[14.10578,58.25846],[14.10645,58.25789],[14.1065,58.2575],[14.10605,58.25618],[14.10647,58.25601],[14.1067,58.2553],[14.10609,58.25498],[14.10631,58.25436],[14.1058,58.25353],[14.10681,58.25268],[14.10698,58.25215],[14.10647,58.25192],[14.10651,58.25085],[14.10495,58.25083],[14.10368,58.25107],[14.10211,58.25088],[14.09205,58.24953],[14.09004,58.24919],[14.08756,58.24843],[14.08575,58.24967],[14.08482,58.24987],[14.08518,58.25025],[14.08498,58.25089],[14.0854,58.25148],[14.08713,58.25242],[14.08696,58.25309],[14.08724,58.25383],[14.08752,58.25402],[14.08824,58.254],[14.08809,58.25427],[14.08506,58.2558],[14.08498,58.25608],[14.08284,58.25551],[14.07987,58.2526],[14.07794,58.25181],[14.07742,58.25122],[14.07287,58.2533],[14.0733,58.25427],[14.07254,58.25464],[14.064,58.25551],[14.06264,58.25614],[14.0636,58.25778],[14.0629,58.25834],[14.06317,58.25925],[14.06131,58.25896],[14.0612,58.25906],[14.05908,58.25856],[14.05789,58.26184],[14.05176,58.26378],[14.05094,58.26365],[14.05001,58.26308],[14.04886,58.26292],[14.04725,58.26211],[14.04785,58.26157],[14.04752,58.26066],[14.04678,58.25996],[14.04724,58.25893],[14.04716,58.25805],[14.04683,58.25775],[14.04469,58.25707],[14.04234,58.25742],[14.04294,58.25846],[14.02674,58.25859],[14.01863,58.26429],[14.01842,58.26474],[14.0177,58.26524],[14.01788,58.26665],[14.01559,58.26683],[14.01641,58.27013],[14.01742,58.26999],[14.01808,58.27119],[14.02107,58.27256],[14.02064,58.27284],[14.02104,58.27301],[14.02029,58.27342],[14.02126,58.27398],[14.02098,58.27456],[14.02201,58.27498],[14.02291,58.27608],[14.02417,58.27695],[14.02406,58.27719],[13.98677,58.27998],[13.9838,58.27973],[13.98265,58.27942],[13.98258,58.27955],[13.98391,58.2808],[13.98561,58.28177],[13.98716,58.28217],[13.98892,58.28341],[13.99123,58.28373],[13.99205,58.28448],[13.99329,58.28497],[13.99449,58.28586],[13.99478,58.28717],[13.99552,58.28767],[13.99545,58.29015],[13.99582,58.2909],[13.99721,58.2933],[13.99896,58.29539],[13.99967,58.29567],[13.99985,58.29642],[14.00097,58.29768],[14.00402,58.29766],[14.00503,58.29849],[14.00686,58.2986],[14.00718,58.29908],[14.00936,58.30065],[14.01159,58.30157],[14.01215,58.30226],[14.01624,58.30148],[14.01736,58.30092],[14.01821,58.30078],[14.02675,58.30587],[14.02792,58.30817],[14.02743,58.31],[14.02458,58.31197],[14.02446,58.31228],[14.03595,58.31395],[14.03531,58.31468],[14.03767,58.31587],[14.03886,58.31797],[14.048,58.31486],[14.04866,58.3137],[14.05096,58.31364],[14.05223,58.31328],[14.05325,58.31273],[14.05451,58.31145],[14.05373,58.31066],[14.05416,58.31031],[14.057,58.30979],[14.06057,58.31058],[14.0626,58.31178],[14.06236,58.31192],[14.0635,58.3124],[14.06304,58.31275],[14.06614,58.31321],[14.06823,58.3133],[14.07114,58.31313],[14.07363,58.3141],[14.07497,58.31431],[14.07678,58.31618],[14.08596,58.31684],[14.08561,58.31743],[14.08627,58.3183],[14.08698,58.31868],[14.08643,58.31869],[14.08662,58.32209],[14.08735,58.32356],[14.09346,58.3264],[14.09275,58.32722],[14.08841,58.32828],[14.0912,58.33935],[14.09822,58.33849],[14.10617,58.34006],[14.1056,58.33802],[14.10848,58.33765],[14.10784,58.33565],[14.11104,58.33511],[14.11115,58.33496],[14.11157,58.33504],[14.11316,58.3348],[14.11439,58.33533],[14.11461,58.33559],[14.11412,58.33613],[14.11408,58.33667],[14.11569,58.33861],[14.11929,58.33973],[14.1223,58.3422],[14.12249,58.34278],[14.12161,58.34379],[14.12164,58.3443],[14.12262,58.34549],[14.12165,58.34627],[14.11689,58.34747],[14.11625,58.34862],[14.11445,58.34952],[14.11453,58.3503],[14.11503,58.35056],[14.11659,58.35081],[14.11798,58.35075],[14.11905,58.35107],[14.11927,58.35142],[14.11888,58.35246],[14.11907,58.35292],[14.12141,58.35365],[14.12215,58.35552],[14.12497,58.35615],[14.12781,58.35729],[14.13055,58.35787],[14.13085,58.35826],[14.13022,58.35926],[14.12943,58.3595],[14.12803,58.35949],[14.12772,58.36],[14.12791,58.36085],[14.12916,58.36213],[14.12956,58.36294],[14.13023,58.36354],[14.13191,58.36442],[14.13589,58.36575],[14.13711,58.36597],[14.13716,58.365],[14.13665,58.3645],[14.13703,58.36389],[14.13555,58.36278],[14.13707,58.36215],[14.13607,58.36169],[14.13725,58.36135],[14.13702,58.36103],[14.13623,58.36081],[14.13735,58.35975],[14.14029,58.36008],[14.14253,58.36001],[14.14344,58.36092],[14.14457,58.36159],[14.14568,58.36193],[14.14738,58.36309],[14.14784,58.36303],[14.15168,58.36035],[14.14753,58.35664],[14.15281,58.35519],[14.15757,58.35514],[14.15699,58.35327],[14.15738,58.35232],[14.15696,58.35157],[14.16415,58.35137],[14.1639,58.35186],[14.16205,58.35315],[14.16265,58.3549],[14.1636,58.35556],[14.16416,58.35549],[14.16421,58.35602],[14.16475,58.35668],[14.16455,58.35697],[14.16567,58.35791],[14.16787,58.35818],[14.18021,58.35654],[14.18044,58.3567],[14.18337,58.35462],[14.18728,58.35102],[14.1889,58.35108],[14.18903,58.35091],[14.19183,58.35148],[14.1923,58.35175],[14.19107,58.35213],[14.19174,58.35375],[14.19292,58.35444],[14.19278,58.35502],[14.19418,58.35538],[14.1947,58.35523],[14.19558,58.35453],[14.19665,58.35468],[14.19676,58.35514],[14.19861,58.35498],[14.19827,58.35641],[14.19904,58.3581],[14.19846,58.35975],[14.19947,58.3615],[14.2045,58.3638],[14.24088,58.364],[14.24935,58.36665],[14.24927,58.36618],[14.25072,58.36589],[14.25142,58.36623],[14.25302,58.36769],[14.26098,58.37003],[14.2646,58.375],[14.26502,58.38123],[14.26308,58.38255],[14.26086,58.38303],[14.26692,58.38503],[14.26568,58.38745],[14.26171,58.39203],[14.26169,58.39375],[14.26843,58.39795],[14.28813,58.39678],[14.29089,58.39746],[14.29265,58.39676],[14.30115,58.39799],[14.30054,58.39942],[14.3018,58.40105],[14.30038,58.40129],[14.30477,58.40483],[14.30771,58.40582],[14.30996,58.40687],[14.31222,58.4073],[14.31653,58.40655],[14.31807,58.40651],[14.31962,58.40686],[14.32093,58.40756],[14.32149,58.40766],[14.32347,58.40751],[14.32532,58.40702],[14.32715,58.40803],[14.33046,58.40835]],[[14.29057,58.32169],[14.28755,58.32039],[14.28106,58.32044],[14.27854,58.32068],[14.27601,58.32069],[14.27187,58.32015],[14.27002,58.31958],[14.26546,58.31764],[14.26067,58.31505],[14.25934,58.31473],[14.25658,58.31502],[14.25375,58.31493],[14.25117,58.31454],[14.24934,58.31404],[14.24726,58.31314],[14.24487,58.31155],[14.24156,58.31116],[14.23864,58.31025],[14.23676,58.30919],[14.23515,58.30753],[14.23444,58.30578],[14.2348,58.30398],[14.2362,58.30236],[14.23878,58.30093],[14.23916,58.29878],[14.24041,58.29701],[14.24266,58.29552],[14.24735,58.29367],[14.25055,58.29281],[14.2533,58.29248],[14.25238,58.29138],[14.25187,58.28992],[14.25207,58.28854],[14.25265,58.28755],[14.25358,58.28662],[14.25705,58.28419],[14.25882,58.28341],[14.26129,58.28274],[14.26526,58.28231],[14.26747,58.28238],[14.26976,58.28271],[14.27202,58.28254],[14.27407,58.28261],[14.27667,58.283],[14.27957,58.2838],[14.2821,58.28376],[14.28474,58.28407],[14.28808,58.28511],[14.2898,58.28613],[14.29096,58.28735],[14.29204,58.28967],[14.29213,58.29079],[14.295,58.29549],[14.29616,58.29626],[14.29932,58.29679],[14.30194,58.29779],[14.30541,58.30039],[14.30643,58.30218],[14.31277,58.30476],[14.31403,58.30557],[14.31521,58.3068],[14.31582,58.30828],[14.31556,58.31005],[14.31631,58.31176],[14.31742,58.31328],[14.31765,58.31468],[14.31673,58.3167],[14.31446,58.3184],[14.31206,58.31943],[14.30886,58.32022],[14.30744,58.3211],[14.30584,58.32177],[14.30254,58.32265],[14.30057,58.32295],[14.29788,58.32305],[14.29517,58.32279],[14.29057,58.32169]]]}},{"type":"Feature","id":"1497R002","properties":{"code":"1497R002","name":"Hjo norr"},"geometry":{"type":"Polygon","coordinates":[[[14.30641,58.32156],[14.30886,58.32022],[14.3121,58.31941],[14.31446,58.3184],[14.31613,58.31731],[14.3172,58.31604],[14.31762,58.31398],[14.31556,58.31005],[14.31586,58.30864],[14.31542,58.30715],[14.31438,58.30586],[14.31277,58.30476],[14.30643,58.30218],[14.30541,58.30039],[14.30238,58.29804],[14.29932,58.29679],[14.29616,58.29626],[14.295,58.29549],[14.29438,58.29458],[14.29196,58.29595],[14.29062,58.29742],[14.28982,58.29867],[14.28975,58.2999],[14.2905,58.30072],[14.29102,58.30089],[14.29524,58.30144],[14.29057,58.30249],[14.29052,58.30271],[14.28783,58.30364],[14.28663,58.30354],[14.28577,58.30379],[14.2851,58.30378],[14.285,58.30343],[14.28452,58.30318],[14.28233,58.30239],[14.28193,58.30244],[14.27997,58.30397],[14.28004,58.30494],[14.27854,58.30524],[14.27874,58.30549],[14.2782,58.30613],[14.2778,58.30632],[14.2767,58.30629],[14.27584,58.30706],[14.27456,58.30718],[14.27346,58.30789],[14.27029,58.3083],[14.27011,58.30878],[14.26851,58.30877],[14.26804,58.30902],[14.26747,58.30878],[14.26587,58.30883],[14.2636,58.30932],[14.26251,58.30917],[14.26123,58.30933],[14.25946,58.30899],[14.25827,58.30909],[14.25681,58.30864],[14.25595,58.30857],[14.25622,58.30998],[14.2592,58.31475],[14.26067,58.31505],[14.26546,58.31764],[14.27002,58.31958],[14.27187,58.32015],[14.27601,58.32069],[14.27854,58.32068],[14.28106,58.32044],[14.28755,58.32039],[14.29001,58.32152],[14.29391,58.32253],[14.29585,58.32289],[14.29853,58.32306],[14.30062,58.32295],[14.30319,58.3225],[14.30641,58.32156]]]}},{"type":"Feature","id":"1497R003","properties":{"code":"1497R003","name":"Hjo söder"},"geometry":{"type":"Polygon","coordinates":[[[14.25622,58.30998],[14.25595,58.30857],[14.25681,58.30864],[14.25827,58.30909],[14.25946,58.30899],[14.26123,58.30933],[14.26251,58.30917],[14.2636,58.30932],[14.26587,58.30883],[14.26747,58.30878],[14.26804,58.30902],[14.26851,58.30877],[14.27011,58.30878],[14.27034,58.30829],[14.27346,58.30789],[14.27456,58.30718],[14.27584,58.30706],[14.2767,58.30629],[14.2778,58.30632],[14.2782,58.30613],[14.27874,58.30549],[14.27854,58.30524],[14.28004,58.30494],[14.27997,58.30397],[14.28193,58.30244],[14.28233,58.30239],[14.28452,58.30318],[14.285,58.30343],[14.2851,58.30378],[14.28577,58.30379],[14.28663,58.30354],[14.28783,58.30364],[14.29052,58.30271],[14.29057,58.30249],[14.29524,58.30144],[14.29102,58.30089],[14.2905,58.30072],[14.28975,58.2999],[14.28982,58.29867],[14.29062,58.29742],[14.29196,58.29595],[14.29438,58.29458],[14.29213,58.29079],[14.29192,58.28934],[14.29073,58.28704],[14.289,58.28559],[14.28651,58.2845],[14.28344,58.28387],[14.27957,58.2838],[14.27606,58.28288],[14.27337,58.28256],[14.26976,58.28271],[14.26747,58.28238],[14.26456,58.28233],[14.2619,58.28263],[14.25993,58.28305],[14.25661,58.28445],[14.25358,58.28662],[14.25242,58.28787],[14.25189,58.28924],[14.25193,58.29029],[14.25238,58.29138],[14.2533,58.29248],[14.25055,58.29281],[14.24789,58.29348],[14.24266,58.29552],[14.24084,58.29663],[14.23935,58.29837],[14.23878,58.30093],[14.2362,58.30236],[14.23464,58.30434],[14.23459,58.30649],[14.2364,58.30891],[14.23811,58.31001],[14.23973,58.31067],[14.24222,58.31129],[14.24487,58.31155],[14.24726,58.31314],[14.24934,58.31404],[14.25184,58.31466],[14.2544,58.31499],[14.25658,58.31502],[14.2592,58.31475],[14.25622,58.30998]]]}}]}