{"type":"FeatureCollection","features":[{"type":"Feature","id":"1499R001","properties":{"code":"1499R001","name":"Broddetorp"},"geometry":{"type":"Polygon","coordinates":[[[13.76333,58.41907],[13.7648,58.41658],[13.77212,58.41469],[13.76284,58.39448],[13.76004,58.39529],[13.75997,58.39444],[13.75709,58.39425],[13.75678,58.39337],[13.75828,58.39218],[13.76365,58.39324],[13.76356,58.39355],[13.80216,58.37965],[13.80199,58.37941],[13.80266,58.37826],[13.80267,58.37733],[13.78162,58.36737],[13.78135,58.36672],[13.77431,58.36761],[13.76976,58.36735],[13.76945,58.36679],[13.76958,58.36606],[13.77324,58.36035],[13.76688,58.36333],[13.74179,58.35806],[13.73974,58.34841],[13.72021,58.34875],[13.72225,58.35187],[13.71573,58.34978],[13.7157,58.34903],[13.6933,58.34805],[13.66716,58.3335],[13.66411,58.32465],[13.66795,58.32376],[13.67011,58.32453],[13.67061,58.32419],[13.67129,58.32326],[13.67079,58.32215],[13.67131,58.32102],[13.6705,58.32037],[13.67054,58.31762],[13.67368,58.31593],[13.672,58.31367],[13.67062,58.31372],[13.67049,58.31288],[13.66925,58.31102],[13.65916,58.31164],[13.65779,58.31044],[13.65631,58.30722],[13.66765,58.30708],[13.67018,58.30668],[13.67235,58.30566],[13.6737,58.30528],[13.67473,58.30544],[13.67604,58.30519],[13.67713,58.30414],[13.67766,58.30403],[13.67725,58.30241],[13.68066,58.30112],[13.6816,58.30128],[13.68274,58.30057],[13.6835,58.29973],[13.68367,58.29897],[13.68428,58.29822],[13.68431,58.2969],[13.65157,58.30277],[13.64983,58.30147],[13.64799,58.29851],[13.64733,58.29377],[13.64829,58.29026],[13.62515,58.27679],[13.62369,58.27718],[13.62335,58.27796],[13.62348,58.28134],[13.62323,58.28112],[13.6233,58.27728],[13.6224,58.27756],[13.61812,58.27393],[13.6174,58.27194],[13.61639,58.27246],[13.61334,58.27345],[13.60816,58.27426],[13.60815,58.2739],[13.60702,58.27301],[13.60618,58.2714],[13.60355,58.27021],[13.60201,58.26907],[13.60168,58.26828],[13.60058,58.26774],[13.60054,58.26715],[13.6014,58.26643],[13.6008,58.26556],[13.60036,58.26544],[13.59717,58.26259],[13.58963,58.25891],[13.56566,58.26107],[13.5668,58.26161],[13.56714,58.26284],[13.56692,58.26368],[13.56319,58.26442],[13.56186,58.26429],[13.5589,58.26505],[13.55814,58.26564],[13.55533,58.26684],[13.55229,58.26875],[13.54676,58.27003],[13.5446,58.27505],[13.54155,58.27573],[13.54153,58.27653],[13.53717,58.27692],[13.53032,58.27807],[13.52936,58.27813],[13.52778,58.27693],[13.52702,58.27686],[13.52606,58.27706],[13.52296,58.27678],[13.52078,58.27638],[13.51895,58.27564],[13.51767,58.2755],[13.51701,58.27499],[13.51686,58.27402],[13.51634,58.27349],[13.51088,58.27389],[13.50975,58.27329],[13.50673,58.27067],[13.50515,58.26991],[13.50467,58.26954],[13.50514,58.26941],[13.50464,58.26919],[13.50201,58.27044],[13.50153,58.27021],[13.50063,58.26953],[13.49983,58.26796],[13.49865,58.26788],[13.49565,58.26522],[13.49297,58.26789],[13.49417,58.26836],[13.49348,58.26942],[13.49319,58.26969],[13.49101,58.26966],[13.48809,58.27253],[13.48665,58.27452],[13.4909,58.27494],[13.49284,58.27603],[13.51882,58.28749],[13.53246,58.29175],[13.53187,58.29813],[13.54069,58.30457],[13.53854,58.30489],[13.54514,58.3181],[13.56076,58.32359],[13.56045,58.33896],[13.57207,58.34376],[13.59836,58.35196],[13.60179,58.35413],[13.60363,58.35248],[13.61432,58.35092],[13.62113,58.3507],[13.63081,58.34841],[13.63053,58.34763],[13.72288,58.35347],[13.73416,58.3625],[13.66706,58.37002],[13.69644,58.37711],[13.69826,58.37734],[13.72348,58.3771],[13.72471,58.37724],[13.7251,58.3775],[13.72696,58.37798],[13.72732,58.37844],[13.72826,58.37872],[13.73086,58.38089],[13.7328,58.38175],[13.73258,58.38243],[13.73348,58.38289],[13.73385,58.38268],[13.73494,58.38317],[13.73463,58.38337],[13.73607,58.384],[13.73651,58.38465],[13.73704,58.38473],[13.73758,58.38536],[13.73816,58.38525],[13.73894,58.38536],[13.74205,58.38686],[13.74303,58.3874],[13.74263,58.38794],[13.74356,58.3885],[13.74468,58.38869],[13.7458,58.38914],[13.74647,58.38984],[13.74466,58.39115],[13.74258,58.39111],[13.74232,58.3918],[13.74131,58.39292],[13.73992,58.3936],[13.73786,58.39382],[13.73558,58.3935],[13.73527,58.39326],[13.73438,58.39326],[13.73807,58.39749],[13.73456,58.39739],[13.73927,58.40016],[13.73962,58.40125],[13.74071,58.40097],[13.74183,58.4017],[13.74268,58.40184],[13.74427,58.40306],[13.74558,58.40603],[13.75199,58.41287],[13.75679,58.41857],[13.75853,58.41842],[13.76085,58.4186],[13.76195,58.41904],[13.76333,58.41907]]]}},{"type":"Feature","id":"1499R002","properties":{"code":"1499R002","name":"Falköping norra stad"},"geometry":{"type":"Polygon","coordinates":[[[13.57044,58.19296],[13.5706,58.19086],[13.57405,58.19105],[13.57696,58.19076],[13.57948,58.19013],[13.58174,58.18915],[13.58375,58.18758],[13.58476,58.18558],[13.58473,58.18402],[13.58374,58.18231],[13.58417,58.18099],[13.584,58.17952],[13.59045,58.17857],[13.59366,58.17756],[13.59036,58.17705],[13.58831,58.17702],[13.58836,58.17423],[13.58779,58.17253],[13.58613,58.17042],[13.58376,58.16864],[13.58119,58.16964],[13.57831,58.17032],[13.56732,58.17137],[13.55624,58.17367],[13.55532,58.17362],[13.55465,58.17412],[13.55146,58.17532],[13.56264,58.18387],[13.55422,58.18501],[13.55361,58.18363],[13.5494,58.17967],[13.54505,58.18107],[13.54472,58.18184],[13.54392,58.18221],[13.53529,58.18481],[13.53661,58.18622],[13.53457,58.1868],[13.53598,58.18783],[13.53924,58.18932],[13.54014,58.18995],[13.54181,58.19224],[13.54359,58.19386],[13.54497,58.19471],[13.54829,58.19614],[13.55132,58.19698],[13.55392,58.19727],[13.55648,58.19781],[13.55915,58.198],[13.56182,58.19783],[13.56487,58.19722],[13.56755,58.19612],[13.56944,58.19464],[13.57044,58.19296]]]}},{"type":"Feature","id":"1499R003","properties":{"code":"1499R003","name":"Falköping södra stad"},"geometry":{"type":"Polygon","coordinates":[[[13.55644,58.1713],[13.55702,58.16973],[13.56003,58.16922],[13.55844,58.16788],[13.55798,58.16775],[13.5564,58.16478],[13.56539,58.16289],[13.5641,58.1614],[13.56213,58.15536],[13.56485,58.15426],[13.57567,58.15057],[13.57659,58.15048],[13.57624,58.14935],[13.57546,58.14828],[13.57508,58.14659],[13.57361,58.14486],[13.57066,58.14326],[13.5688,58.14271],[13.56615,58.14229],[13.56281,58.14221],[13.56005,58.14243],[13.55734,58.14304],[13.55545,58.1438],[13.55199,58.14414],[13.54869,58.14502],[13.54443,58.14525],[13.5414,58.146],[13.53918,58.14706],[13.53764,58.14826],[13.53673,58.14962],[13.53655,58.15137],[13.53322,58.15148],[13.53061,58.15197],[13.52817,58.15285],[13.52634,58.15396],[13.52523,58.15503],[13.52459,58.1561],[13.5242,58.15789],[13.52432,58.15884],[13.52175,58.15905],[13.5196,58.1595],[13.51731,58.16032],[13.51562,58.16133],[13.53781,58.16727],[13.54109,58.1685],[13.54567,58.17084],[13.5477,58.17032],[13.55644,58.1713]]]}},{"type":"Feature","id":"1499R004","properties":{"code":"1499R004","name":"Falköping västra stad"},"geometry":{"type":"Polygon","coordinates":[[[13.54505,58.18107],[13.5494,58.17967],[13.55156,58.18155],[13.55361,58.18363],[13.55422,58.18501],[13.56264,58.18387],[13.54966,58.17403],[13.54619,58.17115],[13.54109,58.1685],[13.53614,58.16677],[13.51562,58.16133],[13.51439,58.1625],[13.51274,58.16486],[13.51212,58.16707],[13.51259,58.16852],[13.51386,58.17012],[13.51378,58.17165],[13.51448,58.17322],[13.51478,58.17508],[13.51577,58.17645],[13.5175,58.17772],[13.52034,58.1789],[13.52403,58.17956],[13.52484,58.17992],[13.52749,58.18183],[13.52891,58.1833],[13.53393,58.18611],[13.53457,58.1868],[13.53661,58.18622],[13.53529,58.18481],[13.54392,58.18221],[13.54472,58.18184],[13.54505,58.18107]]]}},{"type":"Feature","id":"1499R005","properties":{"code":"1499R005","name":"Falköping östra stad"},"geometry":{"type":"Polygon","coordinates":[[[13.59747,58.17002],[13.59461,58.16693],[13.5917,58.1653],[13.58523,58.16072],[13.58512,58.15877],[13.58449,58.15767],[13.58346,58.15664],[13.58017,58.15455],[13.57853,58.1539],[13.57616,58.15334],[13.57576,58.15304],[13.57644,58.15183],[13.57659,58.15048],[13.57567,58.15057],[13.56485,58.15426],[13.56213,58.15536],[13.5641,58.1614],[13.56539,58.16289],[13.5564,58.16478],[13.55798,58.16775],[13.55844,58.16788],[13.56002,58.16925],[13.55702,58.16973],[13.55644,58.1713],[13.5477,58.17032],[13.54567,58.17084],[13.55146,58.17532],[13.55465,58.17412],[13.55532,58.17362],[13.55624,58.17367],[13.56732,58.17137],[13.57831,58.17032],[13.58119,58.16964],[13.58376,58.16864],[13.58613,58.17042],[13.58779,58.17253],[13.58836,58.17423],[13.58831,58.17702],[13.59036,58.17705],[13.59366,58.17756],[13.59626,58.17588],[13.59782,58.17343],[13.59792,58.17101],[13.59747,58.17002]]]}},{"type":"Feature","id":"1499R006","properties":{"code":"1499R006","name":"Floby"},"geometry":{"type":"Polygon","coordinates":[[[13.35877,58.22224],[13.35302,58.21078],[13.36839,58.20891],[13.36857,58.2091],[13.36935,58.20899],[13.37055,58.20812],[13.37211,58.20805],[13.37269,58.20739],[13.37533,58.20652],[13.37638,58.20637],[13.37887,58.20661],[13.37996,58.20647],[13.37977,58.2062],[13.38038,58.20601],[13.38096,58.20507],[13.37985,58.20396],[13.37806,58.20296],[13.37675,58.20189],[13.37537,58.20167],[13.37498,58.20061],[13.37454,58.2004],[13.37296,58.20029],[13.37205,58.19975],[13.37265,58.19955],[13.37311,58.19965],[13.37394,58.19915],[13.37082,58.19459],[13.37081,58.19338],[13.37013,58.1925],[13.3695,58.19086],[13.36819,58.18927],[13.36499,58.18968],[13.36432,58.18856],[13.36551,58.18845],[13.36732,58.18871],[13.36177,58.17999],[13.35947,58.16413],[13.39135,58.16117],[13.39474,58.15837],[13.39505,58.15836],[13.39682,58.15939],[13.39811,58.16041],[13.39967,58.16028],[13.40047,58.15987],[13.40082,58.15934],[13.40158,58.15902],[13.40076,58.15604],[13.40166,58.15123],[13.4043,58.14905],[13.40514,58.14957],[13.40551,58.15013],[13.40677,58.15012],[13.40738,58.14945],[13.40798,58.14763],[13.41736,58.14014],[13.41865,58.13996],[13.41906,58.14024],[13.42039,58.14045],[13.42289,58.14001],[13.4253,58.14014],[13.42614,58.13974],[13.4284,58.13946],[13.43029,58.1389],[13.43049,58.13856],[13.44747,58.13679],[13.45563,58.13848],[13.45457,58.13738],[13.45715,58.13463],[13.45748,58.1335],[13.45725,58.13236],[13.45969,58.1299],[13.46239,58.12933],[13.46745,58.13205],[13.46824,58.13225],[13.47088,58.13214],[13.48307,58.12861],[13.49234,58.12198],[13.49272,58.12205],[13.49342,58.12119],[13.49158,58.11342],[13.47637,58.11002],[13.47438,58.11027],[13.47674,58.10545],[13.46927,58.10133],[13.45687,58.09374],[13.46566,58.08861],[13.46553,58.0878],[13.46529,58.08794],[13.46235,58.08609],[13.45919,58.08673],[13.4547,58.08329],[13.45742,58.08294],[13.45617,58.0821],[13.4451,58.07516],[13.44332,58.07625],[13.43471,58.07085],[13.43051,58.07089],[13.42819,58.07037],[13.42585,58.07159],[13.42507,58.07164],[13.42448,58.07128],[13.41908,58.06987],[13.41971,58.06846],[13.42112,58.0681],[13.42093,58.06749],[13.42119,58.06723],[13.42245,58.06801],[13.42221,58.06852],[13.42264,58.06853],[13.42248,58.07018],[13.42405,58.07029],[13.42603,58.07002],[13.42639,58.06869],[13.4248,58.06863],[13.42518,58.06817],[13.42463,58.06811],[13.42444,58.06786],[13.42564,58.06764],[13.42669,58.06628],[13.42032,58.06569],[13.42005,58.06628],[13.41945,58.06655],[13.41696,58.06576],[13.41573,58.06635],[13.41457,58.06354],[13.41332,58.05756],[13.41422,58.05758],[13.41408,58.05724],[13.4166,58.05688],[13.41721,58.05827],[13.41961,58.0586],[13.41926,58.05537],[13.42051,58.0546],[13.42013,58.05443],[13.41128,58.05569],[13.41001,58.05372],[13.40907,58.05102],[13.42898,58.04885],[13.42962,58.04842],[13.40933,58.02853],[13.40745,58.02826],[13.40484,58.02924],[13.40371,58.02912],[13.40276,58.02842],[13.40129,58.02831],[13.39931,58.02548],[13.39842,58.0234],[13.39819,58.02044],[13.39939,58.02001],[13.39982,58.01915],[13.39746,58.01539],[13.39575,58.01457],[13.39314,58.01269],[13.38385,58.00853],[13.38126,58.00623],[13.37035,58.00356],[13.35237,58.00594],[13.35043,58.00659],[13.34804,58.00772],[13.3375,58.00273],[13.33421,58.00318],[13.33084,58.00393],[13.32849,58.00949],[13.33355,58.01225],[13.33166,58.01278],[13.33018,58.01276],[13.3296,58.0129],[13.33134,58.01393],[13.33414,58.01504],[13.33545,58.01592],[13.32239,58.02338],[13.3206,58.01864],[13.30912,58.03774],[13.3093,58.04678],[13.31176,58.0495],[13.31281,58.04952],[13.31307,58.0508],[13.31307,58.05143],[13.31215,58.0515],[13.31186,58.05349],[13.30574,58.05427],[13.30452,58.05465],[13.30537,58.05784],[13.30358,58.05833],[13.30592,58.0614],[13.30596,58.06196],[13.29951,58.06326],[13.29931,58.06353],[13.29846,58.06374],[13.29743,58.06475],[13.29568,58.06543],[13.29707,58.06648],[13.2978,58.0675],[13.29735,58.06813],[13.30106,58.06893],[13.30487,58.07151],[13.30634,58.07291],[13.30655,58.0737],[13.30772,58.07424],[13.30544,58.0753],[13.30624,58.07584],[13.30694,58.07714],[13.30784,58.07804],[13.30877,58.07826],[13.30934,58.07889],[13.31069,58.07889],[13.31164,58.07959],[13.31279,58.07977],[13.31362,58.08182],[13.31125,58.08301],[13.30709,58.08441],[13.30392,58.08522],[13.30149,58.08367],[13.29915,58.08174],[13.29669,58.08451],[13.29525,58.08531],[13.28828,58.08658],[13.28878,58.08699],[13.28679,58.08777],[13.28432,58.0865],[13.28443,58.08296],[13.26916,58.08702],[13.25896,58.09287],[13.25229,58.09099],[13.25199,58.09133],[13.25132,58.0912],[13.25087,58.09087],[13.22789,58.08872],[13.21927,58.07542],[13.20839,58.0742],[13.20659,58.07581],[13.20324,58.07551],[13.20236,58.07619],[13.20506,58.07821],[13.20637,58.07964],[13.2082,58.08032],[13.20942,58.0815],[13.21169,58.08172],[13.21643,58.08162],[13.21723,58.0821],[13.21863,58.08249],[13.21763,58.08307],[13.1991,58.08453],[13.20013,58.08782],[13.199,58.08805],[13.19791,58.08912],[13.20724,58.09749],[13.1991,58.10001],[13.20009,58.1007],[13.19991,58.101],[13.20079,58.10154],[13.20114,58.1026],[13.20148,58.10285],[13.20271,58.10212],[13.20356,58.10254],[13.2042,58.10245],[13.20521,58.10281],[13.20595,58.10284],[13.20654,58.10214],[13.20766,58.10224],[13.20687,58.10164],[13.2068,58.10113],[13.2082,58.10093],[13.2092,58.10102],[13.21012,58.10074],[13.21129,58.10108],[13.21165,58.10142],[13.21181,58.10225],[13.21089,58.10256],[13.21086,58.10279],[13.21312,58.10413],[13.21268,58.10465],[13.21175,58.10474],[13.21134,58.10496],[13.20958,58.10362],[13.20848,58.10321],[13.20769,58.10339],[13.20692,58.104],[13.20716,58.10436],[13.20874,58.1048],[13.21005,58.10487],[13.21236,58.10609],[13.21083,58.10675],[13.20788,58.10717],[13.20775,58.10747],[13.20691,58.10793],[13.2057,58.10806],[13.20419,58.10773],[13.20333,58.10792],[13.20217,58.1078],[13.20153,58.10796],[13.20276,58.10919],[13.20643,58.11145],[13.20846,58.11331],[13.21094,58.11441],[13.21244,58.11549],[13.21427,58.11556],[13.21526,58.11621],[13.21705,58.11692],[13.21732,58.11735],[13.2153,58.11976],[13.21425,58.12045],[13.21019,58.12149],[13.21431,58.12572],[13.20302,58.12936],[13.20288,58.12898],[13.20177,58.12827],[13.20285,58.12768],[13.20172,58.12551],[13.2008,58.12514],[13.19966,58.12515],[13.19929,58.12521],[13.19587,58.1285],[13.19116,58.12814],[13.18938,58.12924],[13.2114,58.14284],[13.22568,58.1362],[13.22882,58.14454],[13.22862,58.14479],[13.23,58.14569],[13.2302,58.14635],[13.2313,58.14737],[13.23032,58.14831],[13.22941,58.14873],[13.22855,58.15012],[13.2287,58.15145],[13.22935,58.1523],[13.22871,58.15312],[13.22756,58.15331],[13.22712,58.15362],[13.22706,58.15542],[13.22729,58.15578],[13.22799,58.15602],[13.22796,58.15616],[13.22728,58.15612],[13.22909,58.15843],[13.22977,58.15861],[13.23054,58.15921],[13.23011,58.16056],[13.23094,58.16142],[13.23054,58.1618],[13.23063,58.16236],[13.23312,58.16325],[13.23429,58.1658],[13.23617,58.16691],[13.23597,58.16723],[13.23629,58.16767],[13.23471,58.16803],[13.23405,58.16855],[13.23408,58.1689],[13.23462,58.16928],[13.23624,58.16966],[13.23666,58.17025],[13.23806,58.17098],[13.2398,58.17143],[13.24014,58.17226],[13.24195,58.17289],[13.24317,58.17375],[13.24228,58.17531],[13.24224,58.17615],[13.24143,58.17664],[13.24193,58.17798],[13.24168,58.17866],[13.24288,58.17984],[13.24286,58.18036],[13.24362,58.18113],[13.24397,58.18218],[13.24363,58.18385],[13.24573,58.18529],[13.24691,58.18577],[13.24719,58.18635],[13.24688,58.18657],[13.24566,58.18681],[13.24491,58.18741],[13.24385,58.18763],[13.24421,58.18805],[13.2433,58.18876],[13.2441,58.18961],[13.24562,58.19018],[13.24874,58.1903],[13.25013,58.18953],[13.25038,58.18897],[13.25139,58.1883],[13.25206,58.18885],[13.25231,58.18969],[13.25373,58.19017],[13.25463,58.19027],[13.25579,58.19012],[13.25724,58.18886],[13.2755,58.18999],[13.27947,58.18981],[13.28103,58.18935],[13.28323,58.18966],[13.28418,58.19046],[13.2856,58.19052],[13.3063,58.20197],[13.30672,58.20142],[13.30342,58.20016],[13.30477,58.19874],[13.31068,58.20184],[13.31996,58.20365],[13.31962,58.20492],[13.31574,58.20745],[13.32451,58.21282],[13.3228,58.21321],[13.32252,58.21344],[13.32263,58.21383],[13.32545,58.21569],[13.32957,58.21591],[13.34603,58.2261],[13.35252,58.22315],[13.35877,58.22224]]]}},{"type":"Feature","id":"1499R007","properties":{"code":"1499R007","name":"Gudhem-Torbjörntorp"},"geometry":{"type":"Polygon","coordinates":[[[13.46518,58.27929],[13.46876,58.28039],[13.47439,58.27959],[13.48571,58.27435],[13.48665,58.27452],[13.48809,58.27253],[13.49101,58.26966],[13.49319,58.26969],[13.49348,58.26942],[13.49417,58.26836],[13.49297,58.26789],[13.49565,58.26522],[13.49865,58.26788],[13.49983,58.26796],[13.50063,58.26953],[13.50185,58.27039],[13.50464,58.26919],[13.50514,58.26941],[13.50467,58.26954],[13.50515,58.26991],[13.50673,58.27067],[13.50975,58.27329],[13.51088,58.27389],[13.51634,58.27349],[13.51686,58.27402],[13.51701,58.27499],[13.51767,58.2755],[13.51895,58.27564],[13.52078,58.27638],[13.52296,58.27678],[13.52606,58.27706],[13.52702,58.27686],[13.52778,58.27693],[13.52936,58.27813],[13.53717,58.27692],[13.54153,58.27653],[13.54155,58.27573],[13.5446,58.27505],[13.54676,58.27003],[13.55229,58.26875],[13.55533,58.26684],[13.55814,58.26564],[13.5589,58.26505],[13.56186,58.26429],[13.56319,58.26442],[13.56692,58.26368],[13.56714,58.26284],[13.5668,58.26161],[13.56566,58.26107],[13.58963,58.25891],[13.59204,58.25418],[13.59299,58.24375],[13.59902,58.23675],[13.59794,58.23363],[13.60013,58.23436],[13.60023,58.23347],[13.60154,58.2322],[13.60015,58.23179],[13.60253,58.22951],[13.60099,58.22906],[13.60255,58.2275],[13.60079,58.22362],[13.60171,58.22354],[13.60236,58.22463],[13.60307,58.22453],[13.60489,58.22727],[13.60694,58.22717],[13.60628,58.22796],[13.61022,58.22795],[13.60971,58.22621],[13.61542,58.22581],[13.61566,58.22629],[13.61727,58.22616],[13.61723,58.22571],[13.61998,58.22549],[13.62045,58.2268],[13.62619,58.22637],[13.62591,58.22511],[13.62872,58.22453],[13.62809,58.22401],[13.62702,58.22191],[13.62736,58.22049],[13.6361,58.22467],[13.64056,58.22427],[13.63752,58.21923],[13.6359,58.21497],[13.63346,58.2134],[13.63246,58.21074],[13.63545,58.19747],[13.62865,58.18899],[13.62851,58.1891],[13.58411,58.17991],[13.58417,58.18099],[13.58374,58.18231],[13.58462,58.18369],[13.58483,58.18514],[13.58427,58.18685],[13.58304,58.18827],[13.58079,58.18962],[13.57757,58.19065],[13.57405,58.19105],[13.5706,58.19086],[13.57031,58.1933],[13.5688,58.19527],[13.56601,58.19684],[13.56425,58.19738],[13.56182,58.19783],[13.55915,58.198],[13.55648,58.19781],[13.55392,58.19727],[13.55071,58.19686],[13.54829,58.19614],[13.54398,58.19413],[13.54181,58.19224],[13.54014,58.18995],[13.53924,58.18932],[13.53598,58.18783],[13.53457,58.1868],[13.52572,58.1893],[13.52609,58.19014],[13.52462,58.19071],[13.52182,58.18826],[13.51837,58.1889],[13.52006,58.19089],[13.51812,58.19145],[13.50854,58.19827],[13.51105,58.20119],[13.47465,58.2139],[13.48362,58.21851],[13.48516,58.22145],[13.48054,58.22274],[13.47985,58.22344],[13.47897,58.22374],[13.47791,58.22449],[13.47774,58.22488],[13.47747,58.22476],[13.47747,58.22522],[13.47785,58.22527],[13.47907,58.22649],[13.47876,58.22679],[13.47915,58.22707],[13.47888,58.22803],[13.47773,58.22991],[13.47331,58.22828],[13.46492,58.22797],[13.46384,58.22799],[13.46033,58.22912],[13.45979,58.2295],[13.46169,58.2318],[13.4614,58.23339],[13.46298,58.23572],[13.46369,58.24138],[13.44062,58.24382],[13.42617,58.247],[13.42393,58.24411],[13.42383,58.2434],[13.4226,58.24199],[13.41042,58.24471],[13.41442,58.24959],[13.3892,58.25519],[13.40475,58.276],[13.4356,58.27986],[13.44084,58.28086],[13.46518,58.27929]]]}},{"type":"Feature","id":"1499R008","properties":{"code":"1499R008","name":"Kinnarp-Slutarp-Åsarp"},"geometry":{"type":"Polygon","coordinates":[[[13.53529,58.14284],[13.53942,58.14359],[13.54443,58.14525],[13.54869,58.14502],[13.55199,58.14414],[13.55545,58.1438],[13.55565,58.1437],[13.55403,58.14328],[13.55286,58.14113],[13.55512,58.13932],[13.55465,58.13921],[13.55383,58.13827],[13.55465,58.13799],[13.55607,58.1365],[13.55845,58.13836],[13.57911,58.14175],[13.58135,58.14314],[13.58402,58.14161],[13.59131,58.13864],[13.59127,58.13785],[13.59664,58.13624],[13.59427,58.13365],[13.59337,58.13166],[13.59379,58.13041],[13.58106,58.13356],[13.58089,58.13236],[13.5822,58.1308],[13.58258,58.12982],[13.58233,58.12853],[13.58323,58.12783],[13.58382,58.12762],[13.59291,58.12667],[13.59207,58.1259],[13.58379,58.12668],[13.58129,58.12733],[13.58059,58.12717],[13.57693,58.12767],[13.57329,58.12595],[13.57412,58.1247],[13.56893,58.12102],[13.5661,58.11759],[13.563,58.11911],[13.55446,58.11206],[13.55819,58.11031],[13.55751,58.10975],[13.55906,58.10817],[13.55925,58.10728],[13.56221,58.1052],[13.55844,58.10391],[13.56389,58.09755],[13.55912,58.09454],[13.55973,58.09417],[13.57468,58.09401],[13.57535,58.09379],[13.57649,58.09402],[13.6096,58.09028],[13.61817,58.08772],[13.62696,58.08469],[13.62679,58.08168],[13.6257,58.07953],[13.62683,58.07413],[13.62518,58.07431],[13.62455,58.0741],[13.62394,58.07417],[13.62354,58.07375],[13.62265,58.07395],[13.62215,58.07317],[13.62069,58.07246],[13.61965,58.07121],[13.61883,58.07115],[13.6162,58.07148],[13.61539,58.07119],[13.61445,58.07017],[13.61246,58.07022],[13.6105,58.06976],[13.6086,58.06859],[13.60835,58.06821],[13.60761,58.06808],[13.60712,58.06713],[13.60656,58.06722],[13.60555,58.06686],[13.605,58.06616],[13.60551,58.06595],[13.60517,58.06562],[13.60578,58.06506],[13.60543,58.06449],[13.60727,58.06363],[13.60704,58.06299],[13.60611,58.06284],[13.60602,58.06239],[13.60521,58.06234],[13.60559,58.06199],[13.60512,58.06095],[13.61106,58.05763],[13.6117,58.05813],[13.61396,58.05917],[13.61381,58.0594],[13.61444,58.05957],[13.61618,58.05789],[13.61607,58.05773],[13.61545,58.0576],[13.61517,58.05796],[13.61327,58.05633],[13.61081,58.05687],[13.61014,58.05655],[13.61389,58.05369],[13.61929,58.05463],[13.62197,58.05047],[13.62294,58.04958],[13.62608,58.04975],[13.62732,58.04766],[13.62873,58.04848],[13.63226,58.04916],[13.63091,58.05072],[13.63022,58.0565],[13.63374,58.05692],[13.63669,58.05641],[13.63825,58.05647],[13.63866,58.05619],[13.63895,58.05647],[13.64012,58.05677],[13.64063,58.05726],[13.6428,58.05705],[13.64364,58.05721],[13.64406,58.05712],[13.6446,58.05641],[13.64708,58.05582],[13.64712,58.05522],[13.6465,58.05489],[13.64716,58.05455],[13.64645,58.05445],[13.64669,58.05394],[13.64566,58.05292],[13.64438,58.05231],[13.64453,58.05173],[13.64377,58.0514],[13.64275,58.05131],[13.64231,58.0505],[13.64054,58.05054],[13.6406,58.04988],[13.64037,58.0498],[13.63992,58.04999],[13.6391,58.04958],[13.63897,58.04866],[13.6378,58.04778],[13.63829,58.04741],[13.63839,58.04678],[13.64001,58.04635],[13.63997,58.04589],[13.64057,58.04605],[13.64128,58.04547],[13.64266,58.04541],[13.64212,58.0448],[13.64356,58.04429],[13.64357,58.04402],[13.64338,58.04388],[13.64188,58.04378],[13.64143,58.04343],[13.64152,58.04293],[13.6397,58.04272],[13.6395,58.0422],[13.6389,58.042],[13.63862,58.04154],[13.63685,58.04148],[13.63658,58.04053],[13.63589,58.04033],[13.63596,58.03908],[13.6356,58.03892],[13.63446,58.03891],[13.63339,58.03773],[13.63445,58.03715],[13.63548,58.03738],[13.63595,58.03782],[13.63636,58.03774],[13.63703,58.03674],[13.6368,58.03628],[13.63594,58.03566],[13.6367,58.0347],[13.63633,58.03347],[13.63676,58.03316],[13.63806,58.0331],[13.63937,58.03269],[13.63928,58.0324],[13.63781,58.03188],[13.63803,58.03166],[13.63883,58.03167],[13.63836,58.03103],[13.63872,58.03065],[13.63944,58.03062],[13.63996,58.03119],[13.64256,58.03075],[13.64279,58.03022],[13.64089,58.03032],[13.64209,58.02952],[13.64086,58.02928],[13.64059,58.02896],[13.6413,58.02844],[13.64245,58.02877],[13.64333,58.02874],[13.64337,58.0285],[13.64258,58.02789],[13.64409,58.02704],[13.64378,58.02677],[13.64345,58.02678],[13.64217,58.02712],[13.64264,58.02645],[13.64086,58.02632],[13.6414,58.0258],[13.64128,58.0255],[13.6395,58.02527],[13.64016,58.02484],[13.63976,58.02421],[13.64073,58.02389],[13.64084,58.02358],[13.63972,58.02295],[13.63645,58.02172],[13.63606,58.02071],[13.63756,58.0198],[13.63753,58.01955],[13.6367,58.01879],[13.63651,58.01789],[13.6348,58.01691],[13.63353,58.01656],[13.64605,58.01049],[13.64555,58.00922],[13.64629,58.00792],[13.65035,58.00772],[13.65233,58.00673],[13.65668,58.00529],[13.65573,58.00431],[13.65729,58.00366],[13.65971,58.00299],[13.65801,58.00018],[13.65692,57.99522],[13.65902,57.99258],[13.66269,57.98959],[13.66812,57.9881],[13.66774,57.98718],[13.66659,57.98633],[13.67636,57.97732],[13.67906,57.97902],[13.68132,57.97904],[13.68237,57.97811],[13.68386,57.97768],[13.68461,57.97723],[13.68753,57.977],[13.68866,57.97653],[13.68785,57.97525],[13.68688,57.97484],[13.68697,57.97419],[13.70134,57.96937],[13.71217,57.966],[13.72575,57.93931],[13.72904,57.93125],[13.7142,57.93016],[13.70411,57.9315],[13.69513,57.93183],[13.6771,57.93123],[13.66958,57.93009],[13.65761,57.92697],[13.65746,57.92723],[13.65493,57.92723],[13.65417,57.92777],[13.64887,57.92837],[13.64789,57.92517],[13.64246,57.92371],[13.64065,57.91853],[13.63371,57.91816],[13.628,57.91911],[13.61837,57.91932],[13.60966,57.91561],[13.60487,57.91201],[13.5995,57.91019],[13.59472,57.91375],[13.59175,57.9151],[13.59331,57.91746],[13.59361,57.91912],[13.58963,57.91554],[13.58715,57.91631],[13.59898,57.92684],[13.60337,57.92534],[13.60453,57.92528],[13.60406,57.92827],[13.60515,57.92859],[13.60493,57.92914],[13.61374,57.93025],[13.61293,57.93177],[13.61326,57.93302],[13.61193,57.93338],[13.61189,57.93405],[13.61198,57.93465],[13.61302,57.93548],[13.6136,57.93913],[13.61137,57.94109],[13.6089,57.94864],[13.59557,57.95126],[13.59129,57.95796],[13.59195,57.95846],[13.59192,57.95871],[13.58989,57.96026],[13.57959,57.97417],[13.58108,57.97939],[13.58702,57.98469],[13.5867,57.98532],[13.58817,57.986],[13.58997,57.98722],[13.58985,57.98806],[13.59098,57.98862],[13.59137,57.98931],[13.59163,57.98951],[13.59416,57.99008],[13.59281,57.99053],[13.59201,57.99037],[13.58293,57.99078],[13.57937,57.99531],[13.57217,58.00009],[13.57194,58.00052],[13.56902,58.00195],[13.56354,58.00384],[13.55962,58.00633],[13.5594,58.00666],[13.55811,58.00705],[13.55667,58.00654],[13.55601,58.00468],[13.5522,58.00544],[13.54662,58.0037],[13.54253,58.00853],[13.53738,58.00773],[13.53707,58.00738],[13.53723,58.00717],[13.53614,58.00649],[13.53244,58.00704],[13.52784,58.00848],[13.52509,58.00857],[13.52547,58.00907],[13.5271,58.00989],[13.52725,58.01041],[13.5269,58.0106],[13.52489,58.01093],[13.51584,58.00899],[13.51353,58.00398],[13.51269,58.00409],[13.51182,58.00269],[13.50549,57.99828],[13.48723,57.98353],[13.48594,57.98371],[13.48271,57.98357],[13.48047,57.98328],[13.48262,57.9785],[13.48685,57.97858],[13.48826,57.97498],[13.48887,57.97106],[13.48649,57.9673],[13.47826,57.96755],[13.47371,57.96542],[13.47332,57.96585],[13.46275,57.96631],[13.46001,57.96525],[13.45776,57.96464],[13.45659,57.96405],[13.45215,57.95987],[13.44878,57.95839],[13.44133,57.95944],[13.44338,57.96195],[13.44323,57.96431],[13.43941,57.96838],[13.43819,57.96825],[13.43705,57.96851],[13.43519,57.97028],[13.43542,57.97254],[13.43447,57.97392],[13.43121,57.97735],[13.4314,57.97769],[13.43041,57.97808],[13.43043,57.97872],[13.42979,57.97986],[13.42922,57.98012],[13.42706,57.98261],[13.42563,57.98197],[13.41724,57.98383],[13.41755,57.983],[13.41935,57.98079],[13.41967,57.97986],[13.4183,57.97898],[13.41735,57.97782],[13.39145,57.97872],[13.37471,57.97846],[13.35697,57.98185],[13.35902,57.98614],[13.36131,57.98791],[13.37389,58.00214],[13.37035,58.00356],[13.38126,58.00623],[13.38385,58.00853],[13.39314,58.01269],[13.39575,58.01457],[13.39746,58.01539],[13.39982,58.01915],[13.39939,58.02001],[13.39819,58.02044],[13.39842,58.0234],[13.39931,58.02548],[13.40129,58.02831],[13.40276,58.02842],[13.40371,58.02912],[13.40484,58.02924],[13.40745,58.02826],[13.40933,58.02853],[13.42962,58.04842],[13.42898,58.04885],[13.40907,58.05102],[13.41001,58.05372],[13.41128,58.05569],[13.42013,58.05443],[13.42051,58.0546],[13.41926,58.05537],[13.41961,58.0586],[13.41721,58.05827],[13.4166,58.05688],[13.41408,58.05724],[13.41422,58.05758],[13.41332,58.05756],[13.41457,58.06354],[13.41573,58.06635],[13.41696,58.06576],[13.41945,58.06655],[13.42005,58.06628],[13.42032,58.06569],[13.42669,58.06628],[13.42564,58.06764],[13.42444,58.06786],[13.42463,58.06811],[13.42518,58.06817],[13.4248,58.06863],[13.42639,58.06869],[13.42603,58.07002],[13.42405,58.07029],[13.42248,58.07018],[13.42264,58.06853],[13.42221,58.06852],[13.42245,58.06801],[13.42119,58.06723],[13.42093,58.06749],[13.42112,58.0681],[13.41971,58.06846],[13.41908,58.06987],[13.42448,58.07128],[13.42507,58.07164],[13.42585,58.07159],[13.42819,58.07037],[13.43051,58.07089],[13.43471,58.07085],[13.44332,58.07625],[13.4451,58.07516],[13.45617,58.0821],[13.45742,58.08294],[13.4547,58.08329],[13.45919,58.08673],[13.46235,58.08609],[13.46529,58.08794],[13.46553,58.0878],[13.46566,58.08861],[13.45687,58.09374],[13.46927,58.10133],[13.47674,58.10545],[13.47438,58.11027],[13.47637,58.11002],[13.49158,58.11342],[13.49342,58.12119],[13.48843,58.12768],[13.50232,58.13411],[13.50392,58.13306],[13.50351,58.1262],[13.52398,58.13783],[13.52246,58.13821],[13.52513,58.1416],[13.52413,58.14407],[13.5263,58.14514],[13.52941,58.14586],[13.53357,58.14505],[13.53456,58.14294],[13.53529,58.14284]]]}},{"type":"Feature","id":"1499R009","properties":{"code":"1499R009","name":"Odensberg"},"geometry":{"type":"Polygon","coordinates":[[[13.38313,58.25896],[13.3892,58.25519],[13.41442,58.24959],[13.41042,58.24471],[13.4226,58.24199],[13.42383,58.2434],[13.42393,58.24411],[13.42617,58.247],[13.44062,58.24382],[13.46369,58.24138],[13.46298,58.23572],[13.4614,58.23339],[13.46169,58.2318],[13.45979,58.2295],[13.46033,58.22912],[13.46384,58.22799],[13.46492,58.22797],[13.47331,58.22828],[13.47773,58.22991],[13.47888,58.22803],[13.47915,58.22707],[13.47876,58.22679],[13.47907,58.22649],[13.47785,58.22527],[13.47747,58.22522],[13.47747,58.22476],[13.47774,58.22488],[13.47791,58.22449],[13.47897,58.22374],[13.47985,58.22344],[13.48054,58.22274],[13.48516,58.22145],[13.48362,58.21851],[13.47465,58.2139],[13.51105,58.20119],[13.50854,58.19827],[13.51812,58.19145],[13.52006,58.19089],[13.51837,58.1889],[13.52182,58.18826],[13.52462,58.19071],[13.52609,58.19014],[13.52572,58.1893],[13.53457,58.1868],[13.53393,58.18611],[13.52891,58.1833],[13.52749,58.18183],[13.52484,58.17992],[13.52403,58.17956],[13.52151,58.1792],[13.51909,58.17848],[13.51738,58.17765],[13.51577,58.17645],[13.51461,58.17465],[13.51448,58.17322],[13.51378,58.17165],[13.51386,58.17012],[13.51229,58.16785],[13.51223,58.16595],[13.51439,58.1625],[13.5164,58.16081],[13.51976,58.15945],[13.52175,58.15905],[13.52432,58.15884],[13.52424,58.15755],[13.52475,58.15577],[13.52559,58.15463],[13.52684,58.1536],[13.52881,58.15257],[13.53119,58.15183],[13.53385,58.15142],[13.53655,58.15137],[13.5369,58.14926],[13.53832,58.14764],[13.54087,58.1462],[13.54443,58.14525],[13.53942,58.14359],[13.53542,58.14279],[13.53456,58.14294],[13.53357,58.14505],[13.52941,58.14586],[13.52585,58.14495],[13.52413,58.14407],[13.52513,58.1416],[13.52246,58.13821],[13.52398,58.13783],[13.50351,58.1262],[13.50392,58.13306],[13.50232,58.13411],[13.48843,58.12768],[13.49272,58.12205],[13.49234,58.12198],[13.48307,58.12861],[13.47088,58.13214],[13.46824,58.13225],[13.46745,58.13205],[13.46239,58.12933],[13.45969,58.1299],[13.45725,58.13236],[13.45748,58.1335],[13.45715,58.13463],[13.45457,58.13738],[13.45563,58.13848],[13.44747,58.13679],[13.43049,58.13856],[13.43029,58.1389],[13.4284,58.13946],[13.42614,58.13974],[13.4253,58.14014],[13.42289,58.14001],[13.42039,58.14045],[13.41906,58.14024],[13.41865,58.13996],[13.41736,58.14014],[13.40798,58.14763],[13.40738,58.14945],[13.40677,58.15012],[13.40551,58.15013],[13.40514,58.14957],[13.4043,58.14905],[13.40166,58.15123],[13.40076,58.15604],[13.40158,58.15902],[13.40082,58.15934],[13.40047,58.15987],[13.39967,58.16028],[13.39811,58.16041],[13.39682,58.15939],[13.39505,58.15836],[13.39474,58.15837],[13.39135,58.16117],[13.35947,58.16413],[13.36177,58.17999],[13.36732,58.18871],[13.36551,58.18845],[13.36432,58.18856],[13.36499,58.18968],[13.36819,58.18927],[13.3695,58.19086],[13.37013,58.1925],[13.37081,58.19338],[13.37082,58.19459],[13.37394,58.19915],[13.37311,58.19965],[13.37265,58.19955],[13.37205,58.19975],[13.37296,58.20029],[13.37454,58.2004],[13.37498,58.20061],[13.37537,58.20167],[13.37675,58.20189],[13.37806,58.20296],[13.37895,58.2033],[13.38084,58.2049],[13.38092,58.2054],[13.38038,58.20601],[13.37977,58.2062],[13.37996,58.20647],[13.37887,58.20661],[13.37638,58.20637],[13.37533,58.20652],[13.37269,58.20739],[13.37211,58.20805],[13.37055,58.20812],[13.36935,58.20899],[13.36857,58.2091],[13.36839,58.20891],[13.35302,58.21078],[13.35722,58.21969],[13.35877,58.22224],[13.35252,58.22315],[13.34603,58.2261],[13.34502,58.22689],[13.34466,58.22751],[13.34336,58.22796],[13.33935,58.2305],[13.33823,58.23054],[13.33782,58.23099],[13.33832,58.23173],[13.34077,58.23294],[13.34265,58.23421],[13.34299,58.2342],[13.34427,58.23485],[13.3461,58.23488],[13.3492,58.23548],[13.34968,58.23534],[13.35058,58.23559],[13.35151,58.2355],[13.35231,58.23496],[13.35215,58.23449],[13.35287,58.23388],[13.35436,58.23375],[13.35495,58.23333],[13.35736,58.23307],[13.36981,58.24081],[13.38231,58.25008],[13.37874,58.25205],[13.37871,58.25668],[13.37837,58.25796],[13.38313,58.25896]]]}},{"type":"Feature","id":"1499R010","properties":{"code":"1499R010","name":"Stenstorp"},"geometry":{"type":"Polygon","coordinates":[[[13.77627,58.30987],[13.77482,58.30763],[13.77483,58.30689],[13.77568,58.30621],[13.77903,58.30866],[13.77946,58.30853],[13.78248,58.31083],[13.7846,58.31023],[13.78765,58.3109],[13.79021,58.30983],[13.79001,58.30942],[13.78886,58.30872],[13.78752,58.30738],[13.78693,58.30649],[13.78674,58.30539],[13.78534,58.3039],[13.7922,58.30185],[13.79422,58.30405],[13.79426,58.30518],[13.80502,58.31017],[13.8098,58.31019],[13.8186,58.30865],[13.8204,58.30882],[13.82454,58.30825],[13.82918,58.30882],[13.82946,58.30897],[13.82947,58.30956],[13.83355,58.30973],[13.83425,58.30885],[13.83408,58.30805],[13.8589,58.30928],[13.85676,58.30613],[13.85658,58.30293],[13.85629,58.30292],[13.85657,58.30276],[13.85609,58.29496],[13.85518,58.29438],[13.85652,58.29434],[13.8532,58.29058],[13.85127,58.28545],[13.85129,58.28495],[13.85252,58.28377],[13.85354,58.28362],[13.85326,58.28307],[13.8544,58.28198],[13.85439,58.2813],[13.85399,58.28119],[13.85417,58.28106],[13.8533,58.28032],[13.85444,58.28009],[13.85533,58.2741],[13.85022,58.27097],[13.8538,58.2697],[13.85579,58.27001],[13.85932,58.26916],[13.8663,58.2693],[13.89172,58.26062],[13.89046,58.25818],[13.88605,58.25883],[13.85989,58.26764],[13.85914,58.26662],[13.85732,58.26525],[13.85691,58.26457],[13.85636,58.26448],[13.85739,58.26565],[13.8534,58.26775],[13.85111,58.26748],[13.86169,58.25388],[13.86068,58.25336],[13.86179,58.2526],[13.86157,58.25185],[13.85965,58.25124],[13.85764,58.25112],[13.81723,58.2422],[13.80761,58.24214],[13.80584,58.24269],[13.80265,58.24323],[13.80182,58.24356],[13.79897,58.24298],[13.79835,58.24309],[13.79533,58.24291],[13.79376,58.24229],[13.79093,58.24201],[13.78809,58.24195],[13.78801,58.24208],[13.78441,58.24182],[13.78336,58.24193],[13.78205,58.24158],[13.78304,58.24039],[13.78012,58.23933],[13.77656,58.23839],[13.77326,58.23792],[13.77275,58.23735],[13.77305,58.2368],[13.77151,58.23647],[13.77106,58.23518],[13.76787,58.23503],[13.76763,58.2348],[13.76638,58.23463],[13.76607,58.23443],[13.76456,58.23598],[13.7625,58.23527],[13.76277,58.23417],[13.7623,58.23136],[13.76096,58.23112],[13.75938,58.23033],[13.75704,58.23047],[13.75408,58.22958],[13.754,58.22859],[13.75605,58.22617],[13.75275,58.21782],[13.7514,58.21758],[13.75223,58.21624],[13.75233,58.21393],[13.73907,58.21198],[13.73758,58.21194],[13.73612,58.21216],[13.73576,58.21119],[13.73281,58.20949],[13.72864,58.21008],[13.72559,58.21087],[13.72573,58.21051],[13.72197,58.21149],[13.72114,58.21066],[13.72062,58.21083],[13.71997,58.21105],[13.72081,58.21193],[13.71936,58.21245],[13.71763,58.21383],[13.71782,58.21397],[13.71378,58.21543],[13.71042,58.21696],[13.70827,58.21756],[13.70871,58.21837],[13.70318,58.21932],[13.7002,58.21963],[13.70011,58.21941],[13.69971,58.2195],[13.69849,58.21925],[13.69828,58.21886],[13.69278,58.21931],[13.6923,58.2179],[13.68632,58.21825],[13.6863,58.21763],[13.67346,58.21772],[13.67294,58.21904],[13.67347,58.21932],[13.6735,58.21992],[13.67272,58.22042],[13.67275,58.22139],[13.67227,58.22211],[13.67157,58.22204],[13.6708,58.22223],[13.66989,58.22294],[13.66824,58.2234],[13.6666,58.22435],[13.66359,58.21845],[13.65937,58.21906],[13.65842,58.2182],[13.65834,58.21657],[13.66314,58.21657],[13.66085,58.20833],[13.66037,58.19943],[13.65181,58.19838],[13.64141,58.19794],[13.63748,58.19541],[13.63391,58.19549],[13.63545,58.19747],[13.63246,58.21074],[13.63346,58.2134],[13.6359,58.21497],[13.63752,58.21923],[13.64056,58.22427],[13.6361,58.22467],[13.62736,58.22049],[13.62702,58.22191],[13.62809,58.22401],[13.62872,58.22453],[13.62591,58.22511],[13.62619,58.22637],[13.62045,58.2268],[13.61998,58.22549],[13.61723,58.22571],[13.61727,58.22616],[13.61566,58.22629],[13.61542,58.22581],[13.60971,58.22621],[13.61022,58.22795],[13.60628,58.22796],[13.60694,58.22717],[13.60489,58.22727],[13.60307,58.22453],[13.60236,58.22463],[13.60171,58.22354],[13.60079,58.22362],[13.60255,58.2275],[13.60099,58.22906],[13.60253,58.22951],[13.60015,58.23179],[13.60154,58.2322],[13.60023,58.23347],[13.60013,58.23436],[13.59794,58.23363],[13.59902,58.23675],[13.59299,58.24375],[13.59204,58.25418],[13.58963,58.25891],[13.59717,58.26259],[13.60036,58.26544],[13.6008,58.26556],[13.6014,58.26643],[13.60054,58.26715],[13.60058,58.26774],[13.60168,58.26828],[13.60201,58.26907],[13.60355,58.27021],[13.60618,58.2714],[13.60702,58.27301],[13.60815,58.2739],[13.60816,58.27426],[13.61334,58.27345],[13.61639,58.27246],[13.6174,58.27194],[13.61812,58.27393],[13.6224,58.27756],[13.6233,58.27728],[13.62323,58.28112],[13.62348,58.28134],[13.62335,58.27796],[13.62369,58.27718],[13.62515,58.27679],[13.64829,58.29026],[13.64733,58.29377],[13.64799,58.29851],[13.64983,58.30147],[13.65157,58.30277],[13.68431,58.2969],[13.68428,58.29822],[13.68367,58.29897],[13.6835,58.29973],[13.68274,58.30057],[13.6816,58.30128],[13.68066,58.30112],[13.67725,58.30241],[13.67766,58.30403],[13.67713,58.30414],[13.67675,58.30472],[13.67596,58.30521],[13.67914,58.30697],[13.67936,58.30845],[13.68013,58.30954],[13.70049,58.29857],[13.7124,58.29758],[13.73272,58.30748],[13.7395,58.30989],[13.74323,58.31068],[13.74413,58.31159],[13.74504,58.31205],[13.74546,58.31186],[13.74677,58.31194],[13.74777,58.31172],[13.74954,58.31095],[13.74855,58.30968],[13.75082,58.30779],[13.75667,58.30801],[13.75633,58.30861],[13.75667,58.30946],[13.75954,58.30857],[13.76044,58.308],[13.76422,58.30847],[13.76604,58.30852],[13.76555,58.30875],[13.76652,58.30903],[13.7674,58.30955],[13.76949,58.30865],[13.77031,58.30868],[13.77049,58.30947],[13.77239,58.31004],[13.77324,58.31011],[13.77646,58.31251],[13.78035,58.31142],[13.77627,58.30987]]]}},{"type":"Feature","id":"1499R011","properties":{"code":"1499R011","name":"Vartofta-Kättilstorp"},"geometry":{"type":"Polygon","coordinates":[[[13.6666,58.22435],[13.66824,58.2234],[13.66989,58.22294],[13.6708,58.22223],[13.67157,58.22204],[13.67227,58.22211],[13.67275,58.22139],[13.67272,58.22042],[13.6735,58.21992],[13.67347,58.21932],[13.67294,58.21904],[13.67346,58.21772],[13.6863,58.21763],[13.68632,58.21825],[13.6923,58.2179],[13.69278,58.21931],[13.69828,58.21886],[13.69849,58.21925],[13.69971,58.2195],[13.70011,58.21941],[13.7002,58.21963],[13.70318,58.21932],[13.70871,58.21837],[13.70827,58.21756],[13.71042,58.21696],[13.71378,58.21543],[13.71782,58.21397],[13.71763,58.21383],[13.71936,58.21245],[13.72081,58.21193],[13.71997,58.21105],[13.72062,58.21083],[13.72114,58.21066],[13.72197,58.21149],[13.72573,58.21051],[13.72559,58.21087],[13.72864,58.21008],[13.73281,58.20949],[13.73576,58.21119],[13.73612,58.21216],[13.73758,58.21194],[13.73907,58.21198],[13.75233,58.21393],[13.75223,58.21624],[13.7514,58.21758],[13.75353,58.21788],[13.75509,58.2172],[13.75654,58.21741],[13.75968,58.21448],[13.76148,58.2133],[13.75995,58.21138],[13.75711,58.20684],[13.75504,58.20506],[13.76099,58.20414],[13.7616,58.20388],[13.76352,58.20384],[13.76954,58.20441],[13.7804,58.20671],[13.77391,58.18624],[13.76598,58.1851],[13.76572,58.18457],[13.76472,58.18457],[13.75302,58.17956],[13.75211,58.17961],[13.75193,58.17907],[13.75078,58.17829],[13.74887,58.17887],[13.7465,58.17835],[13.74634,58.17819],[13.7463,58.17768],[13.74671,58.17711],[13.7461,58.17488],[13.74727,58.17417],[13.74965,58.1733],[13.75046,58.17174],[13.75258,58.17091],[13.75644,58.16641],[13.75621,58.16608],[13.75643,58.16579],[13.75692,58.16556],[13.75224,58.16381],[13.75164,58.16289],[13.75067,58.16209],[13.72611,58.14868],[13.71307,58.14406],[13.71516,58.14198],[13.71685,58.14334],[13.71843,58.14389],[13.71888,58.1439],[13.72161,58.14227],[13.72219,58.14188],[13.72183,58.13976],[13.72047,58.13779],[13.72872,58.13404],[13.73133,58.13363],[13.73616,58.13135],[13.75729,58.12493],[13.75823,58.12611],[13.76275,58.12452],[13.76365,58.12399],[13.74632,58.11449],[13.74335,58.11328],[13.74874,58.1091],[13.74155,58.10737],[13.74269,58.10581],[13.74527,58.10431],[13.74628,58.10403],[13.74822,58.10302],[13.74969,58.10154],[13.75043,58.10007],[13.75184,58.09904],[13.75546,58.09816],[13.75969,58.10088],[13.76115,58.10016],[13.76357,58.09846],[13.74534,58.08821],[13.74603,58.08782],[13.74932,58.0872],[13.75235,58.08636],[13.75197,58.0861],[13.75485,58.08489],[13.75508,58.08066],[13.75431,58.07941],[13.75462,58.07883],[13.75176,58.07732],[13.75031,58.07567],[13.75043,58.07478],[13.74975,58.07348],[13.74961,58.07139],[13.75234,58.07097],[13.75836,58.06853],[13.76338,58.06692],[13.76676,58.06638],[13.77205,58.0642],[13.79003,58.05596],[13.77324,58.04824],[13.77097,58.04015],[13.76764,58.03846],[13.76624,58.036],[13.77177,58.02422],[13.76103,58.02616],[13.75851,58.02634],[13.75768,58.02672],[13.75768,58.02722],[13.75554,58.02784],[13.75285,58.02532],[13.76002,58.02333],[13.75986,58.02289],[13.76656,58.02106],[13.76547,58.02056],[13.76484,58.01993],[13.77245,58.01992],[13.77558,58.01133],[13.77383,58.00652],[13.75467,58.00753],[13.75246,58.00849],[13.7506,58.00691],[13.75045,58.00623],[13.74997,58.00621],[13.75051,58.00564],[13.75037,58.00538],[13.75108,58.00459],[13.75159,58.00445],[13.75196,58.00404],[13.7526,58.00423],[13.75753,58.00067],[13.74879,57.9938],[13.74738,57.99445],[13.74387,57.99668],[13.74049,57.99701],[13.73618,57.99831],[13.73318,57.99816],[13.73196,57.99691],[13.73189,57.99466],[13.72975,57.99404],[13.72822,57.99331],[13.72505,57.99132],[13.72067,57.99168],[13.72011,57.9905],[13.72761,57.98853],[13.72673,57.98824],[13.72523,57.9868],[13.72437,57.98647],[13.72337,57.98556],[13.7228,57.98584],[13.72182,57.98469],[13.72151,57.98288],[13.72011,57.98142],[13.71949,57.98119],[13.71959,57.98042],[13.7204,57.97977],[13.7204,57.97906],[13.72127,57.97902],[13.72018,57.97752],[13.72031,57.97685],[13.71962,57.97617],[13.68845,57.97704],[13.68814,57.97683],[13.68461,57.97723],[13.68386,57.97768],[13.68237,57.97811],[13.68139,57.979],[13.68085,57.97911],[13.67906,57.97902],[13.67636,57.97732],[13.66659,57.98633],[13.66774,57.98718],[13.66812,57.9881],[13.66269,57.98959],[13.65902,57.99258],[13.65692,57.99522],[13.65801,58.00018],[13.65971,58.00299],[13.65729,58.00366],[13.65573,58.00431],[13.65668,58.00529],[13.65233,58.00673],[13.65035,58.00772],[13.64629,58.00792],[13.64555,58.00922],[13.64605,58.01049],[13.63353,58.01656],[13.6348,58.01691],[13.63651,58.01789],[13.6367,58.01879],[13.63753,58.01955],[13.63756,58.0198],[13.63606,58.02071],[13.63645,58.02172],[13.63972,58.02295],[13.64084,58.02358],[13.64073,58.02389],[13.63976,58.02421],[13.64016,58.02484],[13.6395,58.02527],[13.64128,58.0255],[13.6414,58.0258],[13.64086,58.02632],[13.64264,58.02645],[13.64217,58.02712],[13.64345,58.02678],[13.64378,58.02677],[13.64409,58.02704],[13.64258,58.02789],[13.64337,58.0285],[13.64333,58.02874],[13.64245,58.02877],[13.6413,58.02844],[13.64059,58.02896],[13.64086,58.02928],[13.64209,58.02952],[13.64089,58.03032],[13.64279,58.03022],[13.64256,58.03075],[13.63996,58.03119],[13.63944,58.03062],[13.63872,58.03065],[13.63836,58.03103],[13.63883,58.03167],[13.63803,58.03166],[13.63781,58.03188],[13.63928,58.0324],[13.63937,58.03269],[13.63806,58.0331],[13.63676,58.03316],[13.63633,58.03347],[13.6367,58.0347],[13.63594,58.03566],[13.6368,58.03628],[13.63703,58.03674],[13.63636,58.03774],[13.63595,58.03782],[13.63548,58.03738],[13.63445,58.03715],[13.63339,58.03773],[13.63446,58.03891],[13.6356,58.03892],[13.63596,58.03908],[13.63589,58.04033],[13.63658,58.04053],[13.63685,58.04148],[13.63862,58.04154],[13.6389,58.042],[13.6395,58.0422],[13.6397,58.04272],[13.64152,58.04293],[13.64143,58.04343],[13.64188,58.04378],[13.64338,58.04388],[13.64357,58.04402],[13.64356,58.04429],[13.64212,58.0448],[13.64266,58.04541],[13.64128,58.04547],[13.64057,58.04605],[13.63997,58.04589],[13.64001,58.04635],[13.63839,58.04678],[13.63829,58.04741],[13.6378,58.04778],[13.63897,58.04866],[13.6391,58.04958],[13.63992,58.04999],[13.64037,58.0498],[13.6406,58.04988],[13.64054,58.05054],[13.64231,58.0505],[13.64275,58.05131],[13.64377,58.0514],[13.64453,58.05173],[13.64438,58.05231],[13.64566,58.05292],[13.64669,58.05394],[13.64645,58.05445],[13.64716,58.05455],[13.6465,58.05489],[13.64712,58.05522],[13.64708,58.05582],[13.6446,58.05641],[13.64406,58.05712],[13.64364,58.05721],[13.6428,58.05705],[13.64063,58.05726],[13.64012,58.05677],[13.63895,58.05647],[13.63866,58.05619],[13.63825,58.05647],[13.63669,58.05641],[13.63374,58.05692],[13.63022,58.0565],[13.63091,58.05072],[13.63226,58.04916],[13.62873,58.04848],[13.62732,58.04766],[13.62608,58.04975],[13.62294,58.04958],[13.62197,58.05047],[13.61929,58.05463],[13.61389,58.05369],[13.61014,58.05655],[13.61081,58.05687],[13.61327,58.05633],[13.61517,58.05796],[13.61545,58.0576],[13.61607,58.05773],[13.61618,58.05789],[13.61444,58.05957],[13.61381,58.0594],[13.61396,58.05917],[13.6117,58.05813],[13.61106,58.05763],[13.60512,58.06095],[13.60559,58.06199],[13.60521,58.06234],[13.60602,58.06239],[13.60611,58.06284],[13.60704,58.06299],[13.60727,58.06363],[13.60543,58.06449],[13.60578,58.06506],[13.60517,58.06562],[13.60551,58.06595],[13.605,58.06616],[13.60555,58.06686],[13.60656,58.06722],[13.60712,58.06713],[13.60761,58.06808],[13.60835,58.06821],[13.6086,58.06859],[13.6105,58.06976],[13.61246,58.07022],[13.61445,58.07017],[13.61539,58.07119],[13.6162,58.07148],[13.61883,58.07115],[13.61965,58.07121],[13.62069,58.07246],[13.62215,58.07317],[13.62265,58.07395],[13.62354,58.07375],[13.62394,58.07417],[13.62455,58.0741],[13.62518,58.07431],[13.62683,58.07413],[13.6257,58.07953],[13.62679,58.08168],[13.62696,58.08469],[13.61817,58.08772],[13.6096,58.09028],[13.57649,58.09402],[13.57535,58.09379],[13.57468,58.09401],[13.55973,58.09417],[13.55912,58.09454],[13.56389,58.09755],[13.55844,58.10391],[13.56221,58.1052],[13.55925,58.10728],[13.55906,58.10817],[13.55751,58.10975],[13.55819,58.11031],[13.55446,58.11206],[13.563,58.11911],[13.5661,58.11759],[13.56893,58.12102],[13.57412,58.1247],[13.57329,58.12595],[13.57693,58.12767],[13.58059,58.12717],[13.58129,58.12733],[13.58379,58.12668],[13.59207,58.1259],[13.59291,58.12667],[13.58382,58.12762],[13.58323,58.12783],[13.58233,58.12853],[13.58258,58.12982],[13.5822,58.1308],[13.58089,58.13236],[13.58106,58.13356],[13.59379,58.13041],[13.59337,58.13166],[13.59427,58.13365],[13.59664,58.13624],[13.59127,58.13785],[13.59131,58.13864],[13.58402,58.14161],[13.58135,58.14314],[13.57911,58.14175],[13.55845,58.13836],[13.55607,58.1365],[13.55465,58.13799],[13.55383,58.13827],[13.55465,58.13921],[13.55512,58.13932],[13.55286,58.14113],[13.55403,58.14328],[13.55565,58.1437],[13.55734,58.14304],[13.55988,58.14246],[13.56216,58.14223],[13.56466,58.14221],[13.56678,58.14236],[13.56939,58.14286],[13.57118,58.14346],[13.57283,58.14431],[13.57484,58.14617],[13.57546,58.14828],[13.5764,58.14971],[13.57654,58.15149],[13.57576,58.15304],[13.57616,58.15334],[13.57853,58.1539],[13.58017,58.15455],[13.58346,58.15664],[13.58449,58.15767],[13.58512,58.15877],[13.58523,58.16072],[13.5917,58.1653],[13.59461,58.16693],[13.59717,58.1696],[13.59795,58.17111],[13.59792,58.1731],[13.59709,58.17485],[13.59593,58.17618],[13.59418,58.17731],[13.59236,58.17806],[13.58983,58.17869],[13.584,58.17952],[13.58411,58.17991],[13.62851,58.1891],[13.62865,58.18899],[13.63391,58.19549],[13.63748,58.19541],[13.64141,58.19794],[13.65181,58.19838],[13.66037,58.19943],[13.66085,58.20833],[13.66314,58.21657],[13.65834,58.21657],[13.65842,58.2182],[13.65937,58.21906],[13.66359,58.21845],[13.66619,58.22385],[13.6666,58.22435]]]}}]}