{"type":"FeatureCollection","features":[{"type":"Feature","id":"1730R001","properties":{"code":"1730R001","name":"Charlottenberg omland"},"geometry":{"type":"Polygon","coordinates":[[[12.44976,60.0403],[12.45121,60.0398],[12.45118,60.03916],[12.45307,60.03863],[12.45329,60.03801],[12.454,60.03765],[12.45418,60.03623],[12.45369,60.0346],[12.45209,60.03427],[12.45196,60.0327],[12.45148,60.03237],[12.46222,60.02503],[12.46162,60.02474],[12.46227,60.02204],[12.46183,60.02174],[12.462,60.02124],[12.46147,60.02085],[12.46166,60.02048],[12.45896,60.02011],[12.4605,60.01829],[12.46058,60.0167],[12.46142,60.01594],[12.46164,60.01506],[12.46266,60.01458],[12.46525,60.0125],[12.46791,60.00932],[12.46386,60.00735],[12.46475,60.00564],[12.46528,60.00302],[12.46586,60.00236],[12.46509,60.00168],[12.46716,59.9991],[12.4667,59.99836],[12.46759,59.99688],[12.46765,59.99625],[12.46848,59.99572],[12.46849,59.99497],[12.46912,59.9944],[12.46912,59.99376],[12.47095,59.99099],[12.47044,59.99039],[12.47124,59.98974],[12.47194,59.98769],[12.47225,59.98759],[12.47288,59.98774],[12.47345,59.98734],[12.47448,59.98719],[12.48148,59.98008],[12.47864,59.96931],[12.47897,59.96539],[12.47786,59.96082],[12.47604,59.95713],[12.47418,59.95169],[12.47561,59.95125],[12.47616,59.95031],[12.47352,59.94814],[12.47174,59.94585],[12.47032,59.94501],[12.47032,59.94444],[12.4697,59.94408],[12.46982,59.9439],[12.46896,59.9437],[12.4688,59.94323],[12.46787,59.94277],[12.46718,59.94187],[12.46554,59.94067],[12.46478,59.93963],[12.46272,59.93915],[12.45792,59.9371],[12.46265,59.93607],[12.4658,59.93474],[12.4717,59.92899],[12.42452,59.91363],[12.44203,59.8907],[12.45115,59.86532],[12.45242,59.86519],[12.45392,59.86471],[12.4552,59.86224],[12.4564,59.86204],[12.45633,59.86157],[12.45553,59.86145],[12.45401,59.86168],[12.45378,59.86208],[12.45241,59.86195],[12.45416,59.85692],[12.45429,59.85347],[12.45626,59.85268],[12.45695,59.85206],[12.45702,59.85089],[12.45663,59.85045],[12.45845,59.84553],[12.46485,59.84051],[12.47741,59.83171],[12.49263,59.81709],[12.49041,59.8131],[12.48975,59.81249],[12.4886,59.80978],[12.47829,59.80806],[12.4731,59.80678],[12.46338,59.80558],[12.4546,59.80309],[12.44914,59.80406],[12.44851,59.80395],[12.44187,59.80267],[12.4398,59.80133],[12.43278,59.79933],[12.4202,59.79735],[12.41563,59.79529],[12.39921,59.78504],[12.3954,59.78388],[12.37927,59.77975],[12.37838,59.77921],[12.37441,59.7801],[12.37082,59.78023],[12.36802,59.77994],[12.36543,59.77938],[12.36254,59.77841],[12.36079,59.77743],[12.35855,59.7779],[12.35636,59.77811],[12.35189,59.77791],[12.34845,59.77711],[12.34555,59.77571],[12.33957,59.77477],[12.33619,59.77346],[12.33494,59.77258],[12.33377,59.77132],[12.33309,59.76992],[12.33298,59.76841],[12.33385,59.76836],[12.33719,59.76744],[12.33773,59.76653],[12.34048,59.76423],[12.34294,59.76111],[12.33851,59.76008],[12.33781,59.75858],[12.3377,59.75756],[12.33897,59.75464],[12.34085,59.75283],[12.34403,59.75149],[12.34818,59.75079],[12.35315,59.75072],[12.35289,59.75002],[12.35041,59.74987],[12.35172,59.74667],[12.35292,59.74537],[12.3447,59.74034],[12.33672,59.73725],[12.33592,59.73678],[12.33522,59.73566],[12.33501,59.7341],[12.33398,59.73303],[12.33387,59.73199],[12.33328,59.73156],[12.3318,59.72906],[12.33252,59.7282],[12.33224,59.72718],[12.33173,59.72625],[12.33039,59.72568],[12.32961,59.72473],[12.32857,59.71985],[12.31459,59.72281],[12.3036,59.73115],[12.2987,59.7333],[12.29701,59.73912],[12.30538,59.75167],[12.30881,59.75424],[12.30952,59.75599],[12.30912,59.7626],[12.30997,59.76382],[12.31023,59.76834],[12.30852,59.77163],[12.3091,59.77227],[12.30719,59.7743],[12.30461,59.78092],[12.30245,59.78278],[12.30007,59.78613],[12.29463,59.79144],[12.28562,59.79605],[12.2737,59.79848],[12.27033,59.80162],[12.26797,59.80559],[12.27405,59.81888],[12.27362,59.82028],[12.27423,59.82114],[12.27253,59.82188],[12.2731,59.82219],[12.27451,59.82248],[12.27491,59.82282],[12.27445,59.82307],[12.27284,59.82336],[12.27244,59.82378],[12.27255,59.82429],[12.27293,59.82444],[12.27452,59.82442],[12.27538,59.82497],[12.27615,59.82512],[12.27701,59.82495],[12.27785,59.82452],[12.27858,59.82447],[12.2789,59.8246],[12.27901,59.82513],[12.27949,59.82519],[12.28095,59.82491],[12.2802,59.82408],[12.28027,59.82361],[12.28118,59.82336],[12.28192,59.8235],[12.28323,59.82456],[12.28331,59.82524],[12.28262,59.82584],[12.28386,59.82675],[12.28399,59.8273],[12.28336,59.8274],[12.28145,59.82693],[12.27986,59.82718],[12.27917,59.82754],[12.27952,59.8278],[12.2819,59.82789],[12.28229,59.8281],[12.28164,59.82842],[12.2787,59.82873],[12.27795,59.82895],[12.27791,59.82937],[12.27935,59.83007],[12.27947,59.83045],[12.27889,59.83046],[12.27638,59.82966],[12.27583,59.82971],[12.27537,59.83004],[12.27447,59.83004],[12.27071,59.83238],[12.2699,59.83194],[12.26907,59.83189],[12.26809,59.83253],[12.26777,59.83247],[12.26761,59.83297],[12.26696,59.83313],[12.26759,59.83329],[12.26705,59.8334],[12.26704,59.83369],[12.26598,59.83382],[12.26575,59.83356],[12.26537,59.8338],[12.26431,59.83333],[12.26293,59.8337],[12.26246,59.83435],[12.26148,59.83445],[12.26058,59.83499],[12.25744,59.83499],[12.25563,59.83549],[12.25398,59.83544],[12.25204,59.83564],[12.25031,59.83555],[12.24779,59.8361],[12.24686,59.83608],[12.24303,59.83679],[12.24162,59.83748],[12.23903,59.83763],[12.23602,59.83848],[12.23331,59.83955],[12.23066,59.84001],[12.22478,59.84172],[12.22325,59.84161],[12.21988,59.84191],[12.20716,59.8495],[12.20609,59.84859],[12.20562,59.84765],[12.20325,59.84764],[12.20226,59.84725],[12.2013,59.8472],[12.19878,59.84596],[12.19719,59.84628],[12.19725,59.84734],[12.19669,59.84821],[12.19616,59.85025],[12.19545,59.85131],[12.19562,59.85235],[12.19477,59.85301],[12.19453,59.8539],[12.19401,59.85428],[12.19331,59.85437],[12.19345,59.85504],[12.19239,59.85726],[12.18328,59.87069],[12.18241,59.87349],[12.18084,59.87613],[12.18111,59.87665],[12.18019,59.87703],[12.18038,59.87731],[12.17987,59.87799],[12.17894,59.87874],[12.15529,59.88675],[12.17429,59.88981],[12.19076,59.90135],[12.231,59.92752],[12.34114,59.96567],[12.39566,60.0156],[12.42485,60.02654],[12.44856,60.03918],[12.44976,60.0403]],[[12.30561,59.90033],[12.30289,59.89985],[12.3,59.8988],[12.29863,59.89797],[12.29661,59.89762],[12.29432,59.89697],[12.29232,59.89606],[12.28779,59.89541],[12.2845,59.89449],[12.28168,59.89287],[12.27857,59.89221],[12.27642,59.89137],[12.27498,59.89052],[12.27381,59.88945],[12.27021,59.88831],[12.26824,59.88726],[12.26654,59.88568],[12.26588,59.8839],[12.26602,59.88278],[12.26744,59.87984],[12.26881,59.87855],[12.27504,59.87457],[12.27814,59.87314],[12.28069,59.87242],[12.28484,59.872],[12.28974,59.87184],[12.29424,59.8708],[12.29664,59.87059],[12.29918,59.8707],[12.30331,59.87138],[12.30692,59.87229],[12.30854,59.873],[12.31096,59.875],[12.31522,59.87498],[12.31911,59.87557],[12.32208,59.87658],[12.32471,59.87838],[12.32656,59.87876],[12.32952,59.87881],[12.33163,59.87904],[12.33485,59.87985],[12.33598,59.88032],[12.34109,59.88436],[12.34179,59.88578],[12.3418,59.88709],[12.34243,59.88841],[12.34225,59.89032],[12.34094,59.89209],[12.3392,59.89326],[12.33678,59.89424],[12.33405,59.89484],[12.3303,59.89509],[12.32807,59.89495],[12.32554,59.89451],[12.321,59.89593],[12.32006,59.89731],[12.31846,59.89854],[12.31631,59.89953],[12.31357,59.90025],[12.31073,59.90058],[12.30832,59.90059],[12.30561,59.90033]]]}},{"type":"Feature","id":"1730R002","properties":{"code":"1730R002","name":"Charlottenberg tätort"},"geometry":{"type":"Polygon","coordinates":[[[12.31073,59.90058],[12.31357,59.90025],[12.31631,59.89953],[12.31846,59.89854],[12.32006,59.89731],[12.321,59.89593],[12.32554,59.89451],[12.32807,59.89495],[12.3303,59.89509],[12.33405,59.89484],[12.33678,59.89424],[12.3392,59.89326],[12.34094,59.89209],[12.34225,59.89032],[12.34243,59.88841],[12.3418,59.88709],[12.34179,59.88578],[12.34044,59.88365],[12.33598,59.88032],[12.33424,59.87964],[12.33097,59.87894],[12.32656,59.87876],[12.32471,59.87838],[12.32208,59.87658],[12.31911,59.87557],[12.31522,59.87498],[12.31096,59.875],[12.30854,59.873],[12.30692,59.87229],[12.30506,59.87174],[12.30126,59.871],[12.29918,59.8707],[12.29664,59.87059],[12.29424,59.8708],[12.28974,59.87184],[12.28484,59.872],[12.28069,59.87242],[12.27814,59.87314],[12.27504,59.87457],[12.27089,59.8771],[12.26744,59.87984],[12.26602,59.88278],[12.26588,59.8839],[12.26654,59.88568],[12.26824,59.88726],[12.27021,59.88831],[12.27381,59.88945],[12.27498,59.89052],[12.27691,59.89161],[12.27857,59.89221],[12.28168,59.89287],[12.2845,59.89449],[12.28779,59.89541],[12.29232,59.89606],[12.29432,59.89697],[12.29661,59.89762],[12.29863,59.89797],[12.3,59.8988],[12.30289,59.89985],[12.30555,59.90032],[12.30832,59.90059],[12.31073,59.90058]]]}},{"type":"Feature","id":"1730R003","properties":{"code":"1730R003","name":"Koppom tätort-Koppom omland"},"geometry":{"type":"Polygon","coordinates":[[[12.04794,59.7738],[12.05316,59.7737],[12.1376,59.76287],[12.16911,59.76077],[12.2742,59.75221],[12.27678,59.75258],[12.29152,59.75346],[12.29307,59.75019],[12.30329,59.74854],[12.29701,59.73912],[12.2987,59.7333],[12.3036,59.73115],[12.31459,59.72281],[12.32859,59.71993],[12.3421,59.71575],[12.34428,59.71204],[12.34477,59.70515],[12.33645,59.70204],[12.336,59.70178],[12.3358,59.7012],[12.3349,59.70061],[12.32659,59.6989],[12.32344,59.69719],[12.32365,59.69521],[12.3191,59.68611],[12.31878,59.67591],[12.30497,59.66153],[12.30582,59.66067],[12.30604,59.66002],[12.30647,59.6599],[12.30812,59.65846],[12.30888,59.65827],[12.30978,59.65687],[12.30862,59.64882],[12.29815,59.6452],[12.27741,59.64476],[12.28474,59.6305],[12.28671,59.62507],[12.29018,59.61844],[12.29183,59.61212],[12.29326,59.6102],[12.29386,59.60993],[12.29606,59.61085],[12.29985,59.61126],[12.30202,59.6085],[12.30403,59.60801],[12.30436,59.60752],[12.30488,59.60731],[12.29523,59.59726],[12.28788,59.58402],[12.28731,59.58194],[12.28651,59.58188],[12.28623,59.58162],[12.28709,59.58113],[12.2858,59.57638],[12.286,59.57516],[12.28521,59.5755],[12.28443,59.5753],[12.28342,59.57543],[12.28208,59.57592],[12.28135,59.57599],[12.28098,59.5764],[12.27986,59.57675],[12.27886,59.57785],[12.27866,59.57951],[12.27746,59.58138],[12.276,59.58105],[12.27536,59.5812],[12.27506,59.58095],[12.27371,59.58107],[12.27411,59.58141],[12.27392,59.5819],[12.27429,59.58261],[12.27421,59.58335],[12.27484,59.58415],[12.27491,59.58501],[12.27487,59.58645],[12.27381,59.58678],[12.2736,59.58702],[12.27413,59.5883],[12.27411,59.58972],[12.27454,59.59016],[12.27404,59.59062],[12.27472,59.59161],[12.27517,59.59161],[12.27559,59.5912],[12.27647,59.5915],[12.27681,59.59268],[12.27427,59.59478],[12.27456,59.59523],[12.27444,59.59628],[12.27339,59.597],[12.27191,59.59892],[12.27145,59.60248],[12.27572,59.60578],[12.26659,59.60539],[12.25485,59.60371],[12.24589,59.60409],[12.23981,59.60486],[12.2398,59.60641],[12.23926,59.60779],[12.23313,59.60976],[12.22871,59.60976],[12.22726,59.6102],[12.22652,59.61071],[12.22596,59.61073],[12.22589,59.61093],[12.2022,59.6134],[12.18438,59.61491],[12.16439,59.61457],[12.15046,59.61124],[12.14819,59.61099],[12.1491,59.6107],[12.14868,59.61024],[12.14949,59.60992],[12.14973,59.60952],[12.14917,59.60941],[12.14816,59.60999],[12.14723,59.60981],[12.14929,59.60884],[12.14904,59.6085],[12.14653,59.6088],[12.14624,59.60851],[12.13243,59.60614],[12.12318,59.60604],[12.11803,59.60637],[12.10271,59.60895],[12.09018,59.61053],[12.08402,59.61107],[12.07244,59.61118],[12.07119,59.61064],[12.07013,59.61283],[12.06567,59.6165],[12.06384,59.61581],[12.06226,59.6156],[12.06033,59.61582],[12.05911,59.61629],[12.05707,59.61532],[12.05128,59.61816],[12.04652,59.62143],[12.03485,59.62749],[12.03235,59.62999],[12.02871,59.63092],[12.02677,59.63252],[12.0256,59.63272],[12.02494,59.63338],[12.02406,59.63348],[12.02298,59.63327],[12.02225,59.63369],[12.02114,59.63348],[12.0209,59.63317],[12.02159,59.63214],[12.02145,59.63172],[12.01949,59.63149],[12.01929,59.63279],[12.0188,59.63292],[12.01871,59.63364],[12.01819,59.63401],[12.01754,59.63394],[12.01694,59.63424],[12.01642,59.63418],[12.01602,59.63536],[12.0153,59.63569],[12.01444,59.63579],[12.01421,59.63627],[12.01461,59.63647],[12.01398,59.63721],[12.01322,59.63752],[12.0112,59.63756],[12.01019,59.63735],[12.00983,59.63764],[12.00848,59.63926],[12.00889,59.64043],[12.00726,59.64309],[12.00731,59.64439],[12.0059,59.6452],[12.00582,59.6464],[12.00373,59.64729],[12.00345,59.64762],[12.00389,59.64853],[12.00558,59.6494],[12.00567,59.64989],[12.00646,59.65068],[12.00694,59.65071],[12.00818,59.65128],[12.0093,59.65141],[12.00696,59.65401],[12.00691,59.65498],[12.00498,59.65545],[12.00313,59.65627],[12.00277,59.65669],[12.00223,59.65662],[12.00278,59.65821],[12.00108,59.65892],[11.99922,59.65915],[12.00034,59.65975],[12.00136,59.65997],[12.00247,59.66078],[12.0036,59.66097],[12.00815,59.66396],[12.00889,59.66458],[12.00927,59.66539],[12.01015,59.66594],[12.01063,59.66682],[12.01222,59.66788],[12.01339,59.66903],[12.01553,59.66955],[12.01548,59.67008],[12.01206,59.67246],[12.0119,59.6738],[12.01038,59.67632],[11.99688,59.67385],[11.99132,59.67259],[11.97937,59.68037],[11.96188,59.69647],[11.95614,59.69996],[11.95241,59.70477],[11.95309,59.70515],[11.95563,59.70548],[11.95531,59.70582],[11.95726,59.70592],[11.95755,59.70602],[11.95751,59.70633],[11.95925,59.7069],[11.96098,59.70717],[11.96108,59.70732],[11.96037,59.70736],[11.96013,59.70755],[11.9612,59.70844],[11.96347,59.70833],[11.96314,59.70915],[11.96335,59.70935],[11.96516,59.70951],[11.96868,59.7109],[11.96835,59.71141],[11.96868,59.71233],[11.97003,59.71242],[11.97174,59.71349],[11.97246,59.71337],[11.97374,59.71346],[11.97382,59.7139],[11.97622,59.71394],[11.97596,59.71497],[11.97674,59.7156],[11.97627,59.7159],[11.97822,59.71777],[11.96488,59.71691],[11.9634,59.71705],[11.95905,59.71634],[11.9573,59.71626],[11.95596,59.71593],[11.95429,59.71596],[11.95468,59.71664],[11.95442,59.71852],[11.94747,59.7232],[11.9401,59.72771],[11.93774,59.72814],[11.93739,59.72872],[11.93571,59.72955],[11.93257,59.73018],[11.93263,59.73056],[11.93387,59.73147],[11.93306,59.73224],[11.93239,59.7338],[11.93258,59.73436],[11.93326,59.73462],[11.93359,59.73506],[11.93223,59.73628],[11.93322,59.73706],[11.93353,59.73873],[11.93295,59.73973],[11.93171,59.74068],[11.92922,59.74184],[11.92749,59.7441],[11.93745,59.74623],[11.94637,59.74755],[11.9532,59.74949],[11.9523,59.75343],[11.95157,59.75458],[11.9518,59.75665],[11.95085,59.75845],[11.95996,59.76094],[11.96613,59.76191],[11.97094,59.76243],[11.97537,59.76249],[11.97944,59.76306],[11.98542,59.76217],[11.99932,59.76156],[12.00335,59.76175],[12.01538,59.76396],[12.02485,59.76665],[12.03738,59.76714],[12.0444,59.76805],[12.0519,59.76842],[12.05128,59.76895],[12.05099,59.77071],[12.05011,59.77125],[12.04978,59.77211],[12.04794,59.7738]]]}},{"type":"Feature","id":"1730R004","properties":{"code":"1730R004","name":"Köla-Skillingmark"},"geometry":{"type":"Polygon","coordinates":[[[11.98522,59.90073],[11.98652,59.89911],[12.03342,59.88891],[12.05346,59.88594],[12.09979,59.89066],[12.12612,59.89394],[12.15529,59.88675],[12.17894,59.87874],[12.18035,59.87738],[12.18019,59.87703],[12.18111,59.87665],[12.18084,59.87613],[12.18241,59.87349],[12.18328,59.87069],[12.19239,59.85726],[12.19345,59.85504],[12.19331,59.85437],[12.19401,59.85428],[12.19453,59.8539],[12.19477,59.85301],[12.19562,59.85235],[12.19545,59.85131],[12.19616,59.85025],[12.19669,59.84821],[12.19725,59.84734],[12.19719,59.84628],[12.19878,59.84596],[12.2013,59.8472],[12.20226,59.84725],[12.20325,59.84764],[12.20562,59.84765],[12.20609,59.84859],[12.20716,59.8495],[12.21988,59.84191],[12.22325,59.84161],[12.22478,59.84172],[12.23066,59.84001],[12.23331,59.83955],[12.23602,59.83848],[12.23903,59.83763],[12.24162,59.83748],[12.24303,59.83679],[12.24686,59.83608],[12.24779,59.8361],[12.25031,59.83555],[12.25204,59.83564],[12.25398,59.83544],[12.25563,59.83549],[12.25744,59.83499],[12.26058,59.83499],[12.26148,59.83445],[12.26246,59.83435],[12.26293,59.8337],[12.26431,59.83333],[12.26537,59.8338],[12.26575,59.83356],[12.26598,59.83382],[12.26704,59.83369],[12.26705,59.8334],[12.26759,59.83329],[12.26696,59.83313],[12.26761,59.83297],[12.26777,59.83247],[12.26809,59.83253],[12.26907,59.83189],[12.2699,59.83194],[12.27071,59.83238],[12.27447,59.83004],[12.27537,59.83004],[12.27583,59.82971],[12.27638,59.82966],[12.27889,59.83046],[12.27947,59.83045],[12.27935,59.83007],[12.27791,59.82937],[12.27795,59.82895],[12.2787,59.82873],[12.28164,59.82842],[12.28229,59.8281],[12.2819,59.82789],[12.27952,59.8278],[12.27917,59.82754],[12.27986,59.82718],[12.28145,59.82693],[12.28336,59.8274],[12.28399,59.8273],[12.28386,59.82675],[12.28262,59.82584],[12.28331,59.82524],[12.28323,59.82456],[12.28192,59.8235],[12.28118,59.82336],[12.28027,59.82361],[12.2802,59.82408],[12.28095,59.82491],[12.27949,59.82519],[12.27901,59.82513],[12.2789,59.8246],[12.27858,59.82447],[12.27785,59.82452],[12.27701,59.82495],[12.27615,59.82512],[12.27538,59.82497],[12.27452,59.82442],[12.27293,59.82444],[12.27255,59.82429],[12.27244,59.82378],[12.27284,59.82336],[12.27445,59.82307],[12.27491,59.82282],[12.27451,59.82248],[12.2731,59.82219],[12.27253,59.82188],[12.27423,59.82114],[12.27362,59.82028],[12.27405,59.81888],[12.26797,59.80559],[12.27033,59.80162],[12.2737,59.79848],[12.28562,59.79605],[12.29463,59.79144],[12.30007,59.78613],[12.30245,59.78278],[12.30461,59.78092],[12.30719,59.7743],[12.3091,59.77227],[12.30852,59.77163],[12.31023,59.76834],[12.30997,59.76382],[12.30912,59.7626],[12.30952,59.75599],[12.30881,59.75424],[12.30538,59.75167],[12.30329,59.74854],[12.29307,59.75019],[12.29152,59.75346],[12.27678,59.75258],[12.2742,59.75221],[12.16911,59.76077],[12.1376,59.76287],[12.05316,59.7737],[12.04793,59.7738],[12.04978,59.77211],[12.05011,59.77125],[12.05099,59.77071],[12.05128,59.76895],[12.0519,59.76842],[12.0444,59.76805],[12.03738,59.76714],[12.02485,59.76665],[12.01538,59.76396],[12.00335,59.76175],[11.99932,59.76156],[11.98542,59.76217],[11.97944,59.76306],[11.97537,59.76249],[11.97094,59.76243],[11.96613,59.76191],[11.95996,59.76094],[11.95085,59.75845],[11.9518,59.75665],[11.95157,59.75458],[11.9523,59.75343],[11.9532,59.74949],[11.94637,59.74755],[11.93745,59.74623],[11.92749,59.7441],[11.92541,59.74568],[11.92508,59.747],[11.92303,59.74994],[11.92309,59.75065],[11.92464,59.75198],[11.92485,59.75279],[11.92537,59.75334],[11.92838,59.75453],[11.93127,59.75628],[11.93309,59.75836],[11.93366,59.76019],[11.93314,59.76088],[11.92992,59.76161],[11.92909,59.76225],[11.9297,59.76278],[11.93132,59.76293],[11.93231,59.76347],[11.93231,59.76419],[11.93168,59.76445],[11.93189,59.7652],[11.93258,59.76573],[11.93282,59.76752],[11.93172,59.7683],[11.93239,59.76986],[11.93223,59.77008],[11.93084,59.77018],[11.93064,59.77052],[11.93061,59.77173],[11.93138,59.77298],[11.93124,59.77443],[11.93003,59.7764],[11.92985,59.77745],[11.92786,59.78006],[11.92769,59.78087],[11.92731,59.78102],[11.92705,59.78264],[11.92584,59.78568],[11.92587,59.78692],[11.9267,59.78883],[11.92698,59.79059],[11.92602,59.794],[11.92405,59.795],[11.92131,59.79594],[11.92013,59.79676],[11.91996,59.79727],[11.91873,59.79749],[11.91832,59.79787],[11.91616,59.79829],[11.91411,59.7995],[11.91321,59.80036],[11.91183,59.80054],[11.91158,59.80089],[11.91097,59.80107],[11.91069,59.80154],[11.90995,59.80153],[11.91004,59.80185],[11.9084,59.80346],[11.90872,59.80365],[11.90837,59.8041],[11.90631,59.80596],[11.9058,59.80679],[11.9054,59.80862],[11.90567,59.80888],[11.90409,59.81162],[11.90301,59.8122],[11.89839,59.81378],[11.89472,59.8158],[11.89427,59.81646],[11.89125,59.81875],[11.88958,59.82146],[11.88863,59.82191],[11.88835,59.82244],[11.8866,59.82303],[11.88638,59.82358],[11.88443,59.825],[11.88122,59.82611],[11.87884,59.82745],[11.87795,59.82765],[11.87522,59.82884],[11.87212,59.82859],[11.87054,59.82877],[11.86993,59.82854],[11.86763,59.8291],[11.86621,59.82922],[11.86527,59.82961],[11.86453,59.82957],[11.86206,59.82998],[11.86025,59.82965],[11.85815,59.82956],[11.8566,59.82973],[11.8552,59.83013],[11.85334,59.83025],[11.85079,59.83252],[11.8413,59.83848],[11.84094,59.83977],[11.83967,59.84101],[11.84061,59.84188],[11.84216,59.84196],[11.84357,59.84227],[11.84944,59.84423],[11.85158,59.84454],[11.85227,59.84424],[11.85378,59.84457],[11.85468,59.84491],[11.8548,59.84528],[11.85769,59.8465],[11.85955,59.84697],[11.8605,59.84702],[11.86182,59.84758],[11.86395,59.84779],[11.86686,59.84911],[11.87028,59.84996],[11.87118,59.85064],[11.8722,59.85091],[11.87512,59.85262],[11.87805,59.85328],[11.87809,59.85355],[11.88293,59.8552],[11.88483,59.85605],[11.88496,59.85642],[11.88664,59.85754],[11.88843,59.85918],[11.8871,59.86053],[11.88611,59.86112],[11.88535,59.86216],[11.88394,59.86273],[11.88377,59.86321],[11.88299,59.86319],[11.88326,59.86378],[11.88284,59.86507],[11.8819,59.86598],[11.88137,59.86708],[11.88141,59.86821],[11.88201,59.8693],[11.88386,59.8707],[11.88415,59.87131],[11.88481,59.87177],[11.8871,59.87226],[11.88985,59.87213],[11.89062,59.87237],[11.89131,59.87236],[11.89212,59.87207],[11.89346,59.8722],[11.89508,59.87121],[11.89673,59.87104],[11.89906,59.87185],[11.90054,59.87214],[11.90213,59.87216],[11.90432,59.87189],[11.90636,59.87233],[11.90786,59.87225],[11.9088,59.87251],[11.90938,59.87205],[11.91275,59.872],[11.91491,59.87231],[11.91789,59.8731],[11.92082,59.87414],[11.9223,59.87521],[11.92259,59.87651],[11.92131,59.87986],[11.92141,59.88087],[11.92344,59.88285],[11.92697,59.88479],[11.9309,59.88613],[11.93441,59.88677],[11.93695,59.88814],[11.93886,59.88853],[11.9404,59.88908],[11.94173,59.89],[11.98522,59.90073]]]}},{"type":"Feature","id":"1730R005","properties":{"code":"1730R005","name":"Åmotfors tätort"},"geometry":{"type":"Polygon","coordinates":[[[12.3716,59.78025],[12.37506,59.78002],[12.37838,59.77921],[12.3769,59.77831],[12.37831,59.77664],[12.37925,59.77454],[12.37923,59.77347],[12.3798,59.77271],[12.37991,59.77152],[12.37954,59.77016],[12.38231,59.76885],[12.37418,59.76351],[12.37612,59.75985],[12.37497,59.75621],[12.37014,59.75659],[12.36893,59.75647],[12.36747,59.75575],[12.36787,59.75541],[12.36635,59.75514],[12.36627,59.75399],[12.36476,59.75373],[12.3636,59.75385],[12.36396,59.75311],[12.35389,59.75271],[12.35315,59.75072],[12.34818,59.75079],[12.34463,59.75133],[12.34227,59.7521],[12.34007,59.7534],[12.33897,59.75464],[12.33797,59.75654],[12.33773,59.75824],[12.33851,59.76008],[12.34294,59.76111],[12.34048,59.76423],[12.33773,59.76653],[12.33719,59.76744],[12.33385,59.76836],[12.33298,59.76841],[12.33322,59.77028],[12.33458,59.77225],[12.33619,59.77346],[12.33831,59.77439],[12.34087,59.77505],[12.34555,59.77571],[12.34775,59.77685],[12.35041,59.77765],[12.35322,59.77805],[12.35568,59.77814],[12.35855,59.7779],[12.36079,59.77743],[12.36307,59.77863],[12.36602,59.77955],[12.36876,59.78004],[12.3716,59.78025]]]}}]}