{"type":"FeatureCollection","features":[{"type":"Feature","id":"1737R001","properties":{"code":"1737R001","name":"Stöllet-Ambjörby-Likenäs"},"geometry":{"type":"Polygon","coordinates":[[[12.97759,60.85484],[13.08164,60.80582],[13.15947,60.7551],[13.16847,60.74215],[13.19732,60.69836],[13.1963,60.69787],[13.19631,60.69707],[13.19725,60.69647],[13.1984,60.69637],[13.19884,60.696],[13.19856,60.69404],[13.1995,60.69326],[13.19984,60.69251],[13.19916,60.69012],[13.20082,60.68879],[13.20076,60.68839],[13.19865,60.68656],[13.19691,60.68609],[13.19418,60.68479],[13.24877,60.68611],[13.27582,60.64445],[13.32414,60.60834],[13.32725,60.60709],[13.328,60.60581],[13.3275,60.60472],[13.33086,60.6013],[13.33143,60.60017],[13.34991,60.58388],[13.42817,60.51703],[13.44202,60.49783],[13.46808,60.45942],[13.54234,60.42247],[13.62169,60.41439],[13.52895,60.38213],[13.48653,60.33504],[13.47829,60.32485],[13.42559,60.29577],[13.42123,60.29274],[13.4216,60.29214],[13.41609,60.2909],[13.41663,60.28973],[13.41987,60.28887],[13.42238,60.28937],[13.42728,60.28856],[13.42808,60.28826],[13.43106,60.28658],[13.43083,60.2864],[13.43121,60.28611],[13.43329,60.2858],[13.43232,60.28451],[13.42945,60.28264],[13.42592,60.28174],[13.42393,60.28018],[13.41959,60.27853],[13.41812,60.27842],[13.41464,60.27863],[13.41239,60.27923],[13.4104,60.28032],[13.40871,60.27966],[13.40811,60.2788],[13.40819,60.27844],[13.4069,60.27761],[13.4071,60.27723],[13.37565,60.25077],[13.37302,60.25112],[13.32814,60.24427],[13.32806,60.24438],[13.26211,60.22023],[13.25935,60.21509],[13.26075,60.21338],[13.2575,60.21212],[13.25405,60.21231],[13.25093,60.21346],[13.24986,60.21358],[13.24511,60.2194],[13.24241,60.22135],[13.23967,60.22456],[13.23527,60.22495],[13.23544,60.22569],[13.23477,60.22632],[13.23322,60.22668],[13.23196,60.22741],[13.22923,60.22812],[13.22848,60.22892],[13.22655,60.22999],[13.22333,60.23063],[13.2219,60.2313],[13.21704,60.23532],[13.21625,60.23746],[13.21587,60.2377],[13.21459,60.23773],[13.21346,60.23831],[13.21162,60.23813],[13.20888,60.23859],[13.20636,60.23809],[13.20579,60.23974],[13.20325,60.24085],[13.20334,60.24162],[13.20183,60.24258],[13.20059,60.24389],[13.199,60.24415],[13.19898,60.2451],[13.19752,60.24584],[13.19708,60.24585],[13.19698,60.24567],[13.19703,60.24363],[13.19604,60.24337],[13.19405,60.24336],[13.19362,60.24322],[13.19311,60.24249],[13.19266,60.24242],[13.19176,60.24285],[13.18938,60.2426],[13.18888,60.24296],[13.18834,60.24289],[13.1877,60.24317],[13.18717,60.24262],[13.18627,60.24243],[13.18625,60.24228],[13.18679,60.24218],[13.18661,60.24192],[13.18691,60.2417],[13.18627,60.24137],[13.18428,60.24122],[13.18329,60.24168],[13.18352,60.24199],[13.18215,60.2422],[13.18138,60.24187],[13.18108,60.24115],[13.18011,60.24123],[13.17969,60.24163],[13.17815,60.24162],[13.17714,60.2412],[13.1761,60.24109],[13.17592,60.24077],[13.17551,60.24074],[13.17347,60.24135],[13.17286,60.24126],[13.17187,60.24086],[13.17169,60.2401],[13.17007,60.23994],[13.16889,60.2392],[13.1677,60.2389],[13.1672,60.23837],[13.16547,60.2379],[13.16491,60.23717],[13.16151,60.23605],[13.15179,60.27674],[13.14941,60.28925],[13.12736,60.33277],[13.1272,60.33334],[13.12799,60.33391],[13.12783,60.33546],[13.12739,60.33574],[13.12672,60.33572],[13.12558,60.33615],[13.12607,60.33624],[13.08142,60.4032],[13.0451,60.44396],[13.04296,60.44476],[13.04362,60.44518],[13.04362,60.44558],[13.04326,60.44576],[13.04172,60.44568],[13.04134,60.44617],[13.04185,60.44674],[13.0406,60.44652],[13.03991,60.44735],[13.03858,60.44778],[13.03834,60.4487],[13.03943,60.44944],[13.03914,60.44981],[13.03823,60.44985],[13.0372,60.44926],[13.0367,60.45034],[13.03826,60.45082],[13.03843,60.45118],[13.03666,60.45187],[13.03496,60.45156],[13.03421,60.45114],[13.03345,60.45118],[13.03302,60.4515],[13.03309,60.45179],[13.03458,60.45197],[13.03476,60.45233],[13.03316,60.45283],[13.03204,60.45354],[13.0322,60.45381],[13.03411,60.45392],[13.03422,60.45491],[13.03363,60.45662],[13.03371,60.45742],[13.03283,60.4579],[13.03151,60.45914],[13.02996,60.45972],[13.02945,60.46024],[13.02946,60.46045],[13.0316,60.4616],[13.03207,60.4623],[13.0313,60.46483],[13.03062,60.46575],[13.03104,60.46689],[13.03083,60.46716],[13.02963,60.46748],[13.02939,60.46772],[13.02979,60.46823],[13.03165,60.46877],[13.03215,60.46941],[13.03193,60.47234],[13.0315,60.4732],[13.03203,60.47511],[13.02971,60.47659],[13.03063,60.47748],[13.03049,60.47823],[13.02795,60.47909],[13.02682,60.48089],[13.02658,60.48345],[13.02549,60.48469],[13.0262,60.48702],[13.02597,60.48757],[13.02644,60.48896],[13.02637,60.49129],[13.02748,60.49272],[13.027,60.49449],[13.02756,60.49503],[13.02981,60.49594],[13.03092,60.49692],[13.03943,60.5151],[12.96225,60.51475],[12.88815,60.50514],[12.88757,60.50525],[12.88738,60.5055],[12.88763,60.5057],[12.88724,60.50606],[12.88588,60.5064],[12.88595,60.50673],[12.8856,60.50676],[12.88567,60.50713],[12.88519,60.50765],[12.88594,60.50799],[12.88596,60.50858],[12.88563,60.50905],[12.8853,60.50904],[12.88462,60.51031],[12.88405,60.51056],[12.88394,60.51139],[12.88314,60.51246],[12.88325,60.51393],[12.88267,60.51487],[12.88214,60.51506],[12.8821,60.51572],[12.88174,60.51594],[12.88128,60.51791],[12.88142,60.53044],[12.89346,60.53145],[12.89735,60.54563],[12.89241,60.55293],[12.9053,60.55747],[12.90905,60.5578],[12.91003,60.55832],[12.90825,60.559],[12.90723,60.5603],[12.90601,60.56048],[12.90518,60.56039],[12.90347,60.56109],[12.90306,60.56203],[12.90187,60.56248],[12.90211,60.56295],[12.90181,60.56342],[12.89932,60.56441],[12.89873,60.5649],[12.89746,60.56474],[12.89602,60.56526],[12.89535,60.56633],[12.89354,60.56678],[12.89211,60.56773],[12.89166,60.56779],[12.89159,60.56894],[12.89069,60.56935],[12.88978,60.57018],[12.88926,60.57025],[12.88831,60.57116],[12.88838,60.57187],[12.88722,60.57209],[12.88571,60.57369],[12.88391,60.57445],[12.88339,60.57499],[12.88263,60.57523],[12.88011,60.57545],[12.8772,60.5763],[12.87582,60.5772],[12.87301,60.57849],[12.87159,60.58073],[12.87048,60.5813],[12.86997,60.58205],[12.869,60.58231],[12.86863,60.58286],[12.86731,60.58357],[12.86538,60.58373],[12.86494,60.58422],[12.8652,60.58434],[12.86306,60.58519],[12.86334,60.58572],[12.86304,60.58649],[12.862,60.58665],[12.86121,60.58746],[12.85999,60.58791],[12.85952,60.58903],[12.85874,60.58937],[12.85917,60.58967],[12.85883,60.59],[12.8589,60.59062],[12.8581,60.59116],[12.85919,60.59189],[12.85993,60.59181],[12.85994,60.59199],[12.85928,60.59224],[12.85837,60.59306],[12.8568,60.59319],[12.85535,60.59444],[12.8548,60.59462],[12.85399,60.59598],[12.85275,60.5964],[12.85249,60.59679],[12.85281,60.59747],[12.85141,60.59791],[12.85044,60.59876],[12.85106,60.59945],[12.85101,60.59989],[12.85147,60.59994],[12.85164,60.60072],[12.85068,60.60131],[12.8512,60.60248],[12.84993,60.60337],[12.85012,60.60387],[12.84936,60.60408],[12.84861,60.60472],[12.84814,60.60594],[12.84667,60.6056],[12.82041,60.63092],[12.81944,60.63067],[12.80109,60.65821],[12.80021,60.65813],[12.79668,60.65881],[12.79486,60.66068],[12.79502,60.66104],[12.79627,60.66192],[12.79617,60.66277],[12.79574,60.66322],[12.79608,60.66367],[12.79521,60.66396],[12.79505,60.66434],[12.79539,60.66464],[12.79449,60.66541],[12.79462,60.66717],[12.79386,60.66761],[12.79261,60.66931],[12.7917,60.66947],[12.79164,60.66984],[12.79217,60.66994],[12.79211,60.67035],[12.79351,60.67033],[12.79332,60.6705],[12.79356,60.67058],[12.79446,60.67048],[12.7965,60.67077],[12.79657,60.67112],[12.79707,60.67119],[12.79697,60.67142],[12.79747,60.67168],[12.79704,60.67203],[12.79767,60.67246],[12.80095,60.67275],[12.80125,60.67315],[12.81564,60.67267],[12.85232,60.68058],[12.87441,60.67976],[12.87747,60.67877],[12.88291,60.68131],[12.89152,60.68812],[12.89147,60.68969],[12.89215,60.69406],[12.89987,60.69458],[12.90128,60.6954],[12.90205,60.69552],[12.90564,60.69735],[12.90752,60.69804],[12.90799,60.69713],[12.9076,60.69544],[12.91584,60.6915],[12.92187,60.68963],[12.92471,60.68987],[12.92598,60.68881],[12.92764,60.68819],[12.9286,60.687],[12.92937,60.68682],[12.93613,60.69035],[12.94847,60.69308],[12.95553,60.6918],[12.96328,60.70684],[12.9596,60.70865],[12.9601,60.72082],[12.9694,60.72445],[12.97085,60.72779],[12.99081,60.73293],[13.00207,60.75005],[13.00028,60.75137],[12.99622,60.75169],[12.97834,60.75383],[12.96532,60.76131],[12.94491,60.76351],[12.93587,60.76412],[12.93199,60.76674],[12.92918,60.76939],[12.95374,60.78279],[12.95428,60.78314],[12.95455,60.78442],[12.95598,60.78539],[12.96124,60.78811],[12.9643,60.79781],[12.96768,60.80128],[12.9782,60.81029],[12.9974,60.81383],[12.97335,60.83564],[12.96722,60.84735],[12.97759,60.85484]]]}},{"type":"Feature","id":"1737R002","properties":{"code":"1737R002","name":"Sysslebäck-Höljes"},"geometry":{"type":"Polygon","coordinates":[[[12.67023,61.056],[12.6987,60.99812],[12.86486,60.91223],[12.96144,60.86254],[12.97759,60.85484],[12.96722,60.84735],[12.97335,60.83564],[12.9974,60.81383],[12.9782,60.81029],[12.96768,60.80128],[12.9643,60.79781],[12.96124,60.78811],[12.95598,60.78539],[12.95455,60.78442],[12.95428,60.78314],[12.95374,60.78279],[12.92918,60.76939],[12.93199,60.76674],[12.93587,60.76412],[12.94491,60.76351],[12.96532,60.76131],[12.97834,60.75383],[12.99622,60.75169],[13.00028,60.75137],[13.00207,60.75005],[12.99081,60.73293],[12.97085,60.72779],[12.9694,60.72445],[12.9601,60.72082],[12.9596,60.70865],[12.96328,60.70684],[12.95553,60.6918],[12.94847,60.69308],[12.93613,60.69035],[12.92937,60.68682],[12.9286,60.687],[12.92764,60.68819],[12.92598,60.68881],[12.92471,60.68987],[12.92187,60.68963],[12.91584,60.6915],[12.9076,60.69544],[12.90799,60.69713],[12.90752,60.69804],[12.90564,60.69735],[12.90205,60.69552],[12.90128,60.6954],[12.89987,60.69458],[12.89215,60.69406],[12.89147,60.68969],[12.89152,60.68812],[12.88291,60.68131],[12.87747,60.67877],[12.87441,60.67976],[12.85232,60.68058],[12.81564,60.67267],[12.80125,60.67315],[12.80095,60.67275],[12.79757,60.67242],[12.79704,60.67203],[12.79747,60.67168],[12.79697,60.67142],[12.79707,60.67119],[12.79657,60.67112],[12.7965,60.67077],[12.79446,60.67048],[12.79356,60.67058],[12.79332,60.6705],[12.79351,60.67033],[12.79205,60.67031],[12.79212,60.6699],[12.79167,60.66988],[12.7435,60.63605],[12.51578,60.60017],[12.51102,60.64246],[12.46106,60.68522],[12.39537,60.73389],[12.34944,60.8179],[12.33449,60.85236],[12.33279,60.89017],[12.28457,60.94383],[12.22399,61.01308],[12.24247,61.01996],[12.2948,61.02715],[12.44761,61.05073],[12.48759,61.05163],[12.54071,61.04929],[12.59804,61.04703],[12.60014,61.04645],[12.61034,61.04654],[12.65168,61.05217],[12.65764,61.0527],[12.66842,61.05506],[12.67023,61.056]]]}},{"type":"Feature","id":"1737R003","properties":{"code":"1737R003","name":"Torsby centrala"},"geometry":{"type":"Polygon","coordinates":[[[12.98545,60.13885],[12.98991,60.13714],[12.99173,60.13728],[12.9935,60.13681],[12.99558,60.13652],[12.99494,60.13564],[13.00722,60.13697],[13.00915,60.13741],[13.00995,60.13781],[13.01102,60.13879],[13.0114,60.14125],[13.01074,60.1429],[13.01585,60.14261],[13.01729,60.14302],[13.01872,60.14267],[13.02024,60.14204],[13.02198,60.14055],[13.02246,60.13855],[13.02695,60.1333],[13.02887,60.13185],[13.02781,60.12807],[13.0167,60.12787],[13.01523,60.12926],[13.01433,60.12974],[13.01262,60.13017],[13.00969,60.1305],[13.00833,60.13034],[13.00849,60.12934],[13.00804,60.12933],[13.00574,60.13019],[13.00507,60.13192],[13.00378,60.13305],[13.00207,60.13266],[12.99524,60.13023],[12.99268,60.13012],[12.98995,60.12951],[12.98718,60.12757],[12.98033,60.12651],[12.9802,60.12675],[12.97723,60.12766],[12.97496,60.128],[12.97264,60.12862],[12.96763,60.13058],[12.96538,60.13211],[12.96436,60.13359],[12.96328,60.13409],[12.96321,60.13467],[12.96695,60.14002],[12.96944,60.14247],[12.97178,60.14421],[12.97673,60.14592],[12.98545,60.13885]]]}},{"type":"Feature","id":"1737R004","properties":{"code":"1737R004","name":"Torsby norra"},"geometry":{"type":"Polygon","coordinates":[[[13.01694,60.17492],[13.0192,60.17483],[13.02397,60.17425],[13.02793,60.17319],[13.03065,60.1716],[13.03393,60.17066],[13.03608,60.16953],[13.03851,60.16752],[13.0392,60.16618],[13.03921,60.16525],[13.04235,60.16422],[13.04543,60.16419],[13.04761,60.16389],[13.05074,60.16299],[13.05479,60.1608],[13.0564,60.15833],[13.05668,60.15413],[13.05493,60.15098],[13.05981,60.14593],[13.0573,60.14451],[13.05503,60.14371],[13.05575,60.14201],[13.05813,60.14031],[13.06138,60.13615],[13.06259,60.1335],[13.06277,60.1323],[13.0638,60.13117],[13.06426,60.13014],[13.06455,60.12729],[13.06433,60.12617],[13.06309,60.12448],[13.06074,60.12299],[13.05756,60.12194],[13.05335,60.12143],[13.05163,60.12003],[13.04873,60.1186],[13.04424,60.11825],[13.04025,60.1158],[13.03269,60.12301],[13.0302,60.12608],[13.02781,60.12807],[13.02887,60.13185],[13.02695,60.1333],[13.02246,60.13855],[13.02198,60.14055],[13.02024,60.14204],[13.01729,60.14302],[13.01585,60.14261],[13.01074,60.1429],[13.0114,60.14125],[13.0112,60.13931],[13.0106,60.1383],[13.00915,60.13741],[13.00722,60.13697],[12.99494,60.13564],[12.99558,60.13652],[12.9935,60.13681],[12.99173,60.13728],[12.98991,60.13714],[12.98545,60.13885],[12.97588,60.14656],[12.98358,60.1494],[12.98148,60.15134],[12.98426,60.15214],[12.98329,60.15448],[12.98321,60.15589],[12.98441,60.15793],[12.98462,60.15903],[12.98416,60.16016],[12.98426,60.16161],[12.98507,60.16297],[12.98612,60.16391],[12.99158,60.16658],[12.99419,60.16713],[12.99836,60.16728],[13.00106,60.16695],[13.00304,60.16646],[13.00507,60.16647],[13.00505,60.16997],[13.00562,60.17105],[13.00697,60.17235],[13.00907,60.17351],[13.01152,60.17431],[13.0143,60.17479],[13.01694,60.17492]]]}},{"type":"Feature","id":"1737R005","properties":{"code":"1737R005","name":"Torsby omland"},"geometry":{"type":"Polygon","coordinates":[[[13.1577,60.25192],[13.16151,60.23605],[13.16491,60.23717],[13.16525,60.23596],[13.16482,60.23528],[13.16497,60.23474],[13.16625,60.234],[13.16565,60.23302],[13.16681,60.23266],[13.16658,60.23145],[13.16699,60.23053],[13.16542,60.23013],[13.16402,60.22939],[13.16388,60.22894],[13.16425,60.22822],[13.16399,60.22786],[13.1652,60.2266],[13.16696,60.22665],[13.16558,60.22621],[13.16483,60.22429],[13.16667,60.21349],[13.17068,60.19172],[13.17717,60.16868],[13.19043,60.16083],[13.19262,60.16155],[13.20233,60.15714],[13.21188,60.15028],[13.21663,60.14766],[13.21541,60.14715],[13.25718,60.12287],[13.22326,60.11626],[13.21359,60.11599],[13.19932,60.10805],[13.183,60.10668],[13.14803,60.08583],[13.13983,60.07719],[13.13439,60.07297],[13.12027,60.06517],[13.10059,60.05854],[13.09766,60.05485],[13.08808,60.05177],[13.08016,60.05606],[13.06718,60.06782],[13.06141,60.07415],[13.05141,60.0817],[13.04407,60.07472],[13.03027,60.06734],[13.00958,60.05904],[12.98285,60.04958],[12.94984,60.04199],[12.94943,60.04219],[12.94862,60.04147],[12.94767,60.04116],[12.94681,60.04152],[12.94634,60.04146],[12.94659,60.04069],[12.94623,60.04063],[12.94532,60.04097],[12.94332,60.04249],[12.94237,60.04215],[12.94019,60.04212],[12.93935,60.04116],[12.93977,60.04016],[12.93898,60.04015],[12.93888,60.04001],[12.93929,60.03861],[12.94049,60.03775],[12.94119,60.0367],[12.94034,60.03355],[12.9393,60.03342],[12.93923,60.03318],[12.9386,60.03311],[12.93742,60.03362],[12.93687,60.0342],[12.9361,60.03429],[12.93576,60.03483],[12.93489,60.0346],[12.93468,60.03389],[12.93425,60.03357],[12.93242,60.03499],[12.93108,60.03557],[12.92978,60.0369],[12.92802,60.03757],[12.92583,60.03884],[12.92453,60.03907],[12.92305,60.0404],[12.92295,60.04138],[12.92242,60.04199],[12.9218,60.04199],[12.92091,60.04168],[12.92042,60.04173],[12.9189,60.04246],[12.91723,60.04214],[12.91618,60.04184],[12.91536,60.04114],[12.91421,60.04131],[12.91061,60.04051],[12.90964,60.03979],[12.91025,60.03901],[12.91006,60.03887],[12.90965,60.03904],[12.90891,60.03961],[12.90931,60.04085],[12.90604,60.04469],[12.90327,60.04598],[12.90202,60.046],[12.90144,60.04619],[12.89916,60.04769],[12.89723,60.04763],[12.89559,60.04811],[12.89436,60.04924],[12.8925,60.05166],[12.8887,60.05387],[12.88739,60.05521],[12.88565,60.05532],[12.88285,60.057],[12.88149,60.05834],[12.88071,60.06052],[12.88028,60.0609],[12.87609,60.06246],[12.87512,60.06333],[12.87273,60.06716],[12.87097,60.06758],[12.87033,60.06899],[12.86768,60.07127],[12.867,60.07425],[12.86101,60.07788],[12.85945,60.0783],[12.85899,60.07951],[12.85818,60.08015],[12.85748,60.08119],[12.85727,60.0824],[12.85686,60.08277],[12.85291,60.08432],[12.85037,60.08476],[12.8487,60.08533],[12.84707,60.0854],[12.84509,60.08594],[12.84172,60.08652],[12.84135,60.08683],[12.84105,60.08799],[12.83935,60.08918],[12.8368,60.09044],[12.83539,60.09092],[12.83368,60.09116],[12.83196,60.09209],[12.83138,60.09292],[12.83161,60.09451],[12.828,60.09613],[12.82451,60.09703],[12.81988,60.09953],[12.81759,60.10213],[12.81369,60.10424],[12.81214,60.10682],[12.80966,60.10832],[12.81012,60.10915],[12.75807,60.09642],[12.75625,60.09746],[12.75646,60.09837],[12.75542,60.09901],[12.75533,60.0995],[12.75429,60.10022],[12.75352,60.10179],[12.74991,60.10356],[12.74617,60.10289],[12.74475,60.10205],[12.74359,60.10267],[12.74331,60.10307],[12.74179,60.1029],[12.74112,60.10235],[12.74125,60.10204],[12.74052,60.10158],[12.74017,60.10077],[12.73947,60.10105],[12.73655,60.10067],[12.73581,60.1009],[12.73441,60.1023],[12.73299,60.10205],[12.73219,60.10124],[12.7331,60.09971],[12.7333,60.0987],[12.73281,60.09854],[12.73195,60.09858],[12.73136,60.09827],[12.73008,60.0993],[12.72788,60.0987],[12.72581,60.0987],[12.72556,60.09931],[12.72451,60.09991],[12.72292,60.10194],[12.72252,60.10202],[12.72197,60.10264],[12.72136,60.10366],[12.72143,60.10448],[12.7208,60.10486],[12.71983,60.10464],[12.71926,60.10428],[12.71821,60.10443],[12.71779,60.10384],[12.71705,60.10341],[12.71672,60.10231],[12.71766,60.10192],[12.71773,60.10113],[12.71692,60.10086],[12.71558,60.10134],[12.7144,60.10093],[12.71384,60.09987],[12.7126,60.0992],[12.71199,60.09822],[12.70951,60.09726],[12.709,60.09717],[12.70837,60.09732],[12.70787,60.09716],[12.70667,60.0961],[12.70535,60.09647],[12.70224,60.09584],[12.6997,60.09625],[12.69911,60.09668],[12.69848,60.09795],[12.69709,60.09806],[12.69627,60.0984],[12.6958,60.0979],[12.69439,60.09783],[12.69365,60.09738],[12.69219,60.09731],[12.69193,60.09667],[12.69113,60.09695],[12.69123,60.09746],[12.69048,60.09805],[12.6896,60.09831],[12.68879,60.09826],[12.68842,60.09759],[12.68729,60.09665],[12.6857,60.09594],[12.68332,60.09613],[12.68305,60.09656],[12.6834,60.0974],[12.63824,60.09549],[12.6113,60.08157],[12.59534,60.0835],[12.58471,60.07842],[12.56626,60.12099],[12.56424,60.12095],[12.56787,60.12847],[12.74879,60.14846],[12.74825,60.14942],[12.74802,60.15454],[12.74238,60.16469],[12.73575,60.18411],[12.72078,60.1908],[12.71679,60.19095],[12.72028,60.19633],[12.77917,60.20186],[12.79031,60.19024],[12.86104,60.17849],[12.92909,60.15299],[12.9671,60.15361],[12.97673,60.14592],[12.97178,60.14421],[12.96944,60.14247],[12.96695,60.14002],[12.96438,60.13606],[12.9635,60.13531],[12.96328,60.13409],[12.96436,60.13359],[12.96538,60.13211],[12.96763,60.13058],[12.97322,60.12844],[12.97723,60.12766],[12.9802,60.12675],[12.98115,60.12549],[12.98192,60.12427],[12.98238,60.12101],[12.98194,60.11991],[12.98164,60.11612],[12.98195,60.11449],[12.98282,60.11276],[12.98276,60.1107],[12.98394,60.10889],[12.98603,60.10746],[12.98476,60.10526],[12.98447,60.10415],[12.98464,60.10292],[12.98547,60.10151],[12.98707,60.10017],[12.98916,60.09914],[12.9917,60.09841],[12.99452,60.09801],[12.99677,60.09795],[12.9991,60.0981],[13.00275,60.09887],[13.00563,60.09856],[13.00911,60.09863],[13.01314,60.09939],[13.01486,60.10004],[13.01684,60.10111],[13.01894,60.10298],[13.01948,60.10437],[13.01935,60.10627],[13.02044,60.10848],[13.02038,60.10956],[13.01987,60.11066],[13.02261,60.1115],[13.02463,60.11256],[13.02607,60.11383],[13.02675,60.11502],[13.02931,60.11652],[13.03076,60.11815],[13.0368,60.11909],[13.04025,60.1158],[13.04424,60.11825],[13.04873,60.1186],[13.05163,60.12003],[13.05335,60.12143],[13.05756,60.12194],[13.06074,60.12299],[13.06341,60.12479],[13.06446,60.12661],[13.06416,60.13048],[13.06277,60.1323],[13.06259,60.1335],[13.06138,60.13615],[13.05813,60.14031],[13.05575,60.14201],[13.05503,60.14371],[13.0573,60.14451],[13.05981,60.14593],[13.05493,60.15098],[13.05668,60.15413],[13.0564,60.15833],[13.05479,60.1608],[13.05074,60.16299],[13.04886,60.16361],[13.04543,60.16419],[13.04235,60.16422],[13.03921,60.16525],[13.0392,60.16618],[13.0385,60.16753],[13.03754,60.16846],[13.03508,60.17013],[13.03281,60.17106],[13.03065,60.1716],[13.02894,60.17273],[13.02665,60.17365],[13.02462,60.17414],[13.02124,60.17462],[13.02119,60.17528],[13.02188,60.17584],[13.02652,60.17663],[13.02767,60.17764],[13.02976,60.18054],[13.03034,60.18184],[13.02878,60.18331],[13.02974,60.1878],[13.03358,60.19106],[13.0326,60.19558],[13.03264,60.19741],[13.0348,60.19883],[13.0509,60.20668],[13.12714,60.22392],[13.1577,60.25192]]]}},{"type":"Feature","id":"1737R006","properties":{"code":"1737R006","name":"Torsby södra"},"geometry":{"type":"Polygon","coordinates":[[[13.00378,60.13305],[13.00507,60.13192],[13.00574,60.13019],[13.00804,60.12933],[13.00849,60.12934],[13.00833,60.13034],[13.00969,60.1305],[13.01262,60.13017],[13.01433,60.12974],[13.01523,60.12926],[13.0167,60.12787],[13.02781,60.12807],[13.0302,60.12608],[13.03269,60.12301],[13.0368,60.11909],[13.03076,60.11815],[13.02931,60.11652],[13.02675,60.11502],[13.02607,60.11383],[13.02463,60.11256],[13.02261,60.1115],[13.01987,60.11066],[13.02044,60.10851],[13.01935,60.10627],[13.0193,60.10367],[13.01807,60.10199],[13.01539,60.1003],[13.01314,60.09939],[13.00983,60.09871],[13.00632,60.09854],[13.00275,60.09887],[12.9991,60.0981],[12.99472,60.098],[12.99108,60.09855],[12.98849,60.09942],[12.98618,60.10081],[12.98477,60.10258],[12.98452,60.10449],[12.98603,60.10746],[12.98394,60.10889],[12.98276,60.1107],[12.98282,60.11276],[12.98195,60.11449],[12.98164,60.11612],[12.98194,60.11991],[12.98238,60.12101],[12.98192,60.12427],[12.98033,60.12651],[12.98718,60.12757],[12.98995,60.12951],[12.99268,60.13012],[12.99524,60.13023],[13.00207,60.13266],[13.00378,60.13305]]]}},{"type":"Feature","id":"1737R007","properties":{"code":"1737R007","name":"Vitsand"},"geometry":{"type":"Polygon","coordinates":[[[12.79164,60.66984],[12.7917,60.66947],[12.79261,60.66931],[12.79386,60.66761],[12.79462,60.66717],[12.79449,60.66541],[12.79539,60.66464],[12.79505,60.66434],[12.79521,60.66396],[12.79608,60.66367],[12.79574,60.66322],[12.79617,60.66277],[12.79627,60.66192],[12.79492,60.66094],[12.79494,60.66053],[12.79668,60.65881],[12.80021,60.65813],[12.80109,60.65821],[12.81944,60.63067],[12.82041,60.63092],[12.84667,60.6056],[12.84814,60.60594],[12.84861,60.60472],[12.84936,60.60408],[12.85012,60.60387],[12.84993,60.60337],[12.8512,60.60248],[12.85068,60.60131],[12.85164,60.60072],[12.85147,60.59994],[12.85101,60.59989],[12.85106,60.59945],[12.85044,60.59876],[12.85141,60.59791],[12.85281,60.59747],[12.85249,60.59679],[12.85275,60.5964],[12.85399,60.59598],[12.8548,60.59462],[12.85535,60.59444],[12.8568,60.59319],[12.85837,60.59306],[12.85928,60.59224],[12.85994,60.59199],[12.85993,60.59181],[12.85919,60.59189],[12.8581,60.59116],[12.8589,60.59062],[12.85883,60.59],[12.85917,60.58967],[12.85874,60.58937],[12.85952,60.58903],[12.85999,60.58791],[12.86121,60.58746],[12.862,60.58665],[12.86304,60.58649],[12.86334,60.58572],[12.86306,60.58519],[12.8652,60.58434],[12.86494,60.58422],[12.86538,60.58373],[12.86731,60.58357],[12.86863,60.58286],[12.869,60.58231],[12.86997,60.58205],[12.87048,60.5813],[12.87159,60.58073],[12.87301,60.57849],[12.87582,60.5772],[12.8772,60.5763],[12.88011,60.57545],[12.88263,60.57523],[12.88339,60.57499],[12.88391,60.57445],[12.88571,60.57369],[12.88722,60.57209],[12.88838,60.57187],[12.88831,60.57116],[12.88926,60.57025],[12.88978,60.57018],[12.89069,60.56935],[12.89159,60.56894],[12.89166,60.56779],[12.89211,60.56773],[12.89354,60.56678],[12.89535,60.56633],[12.89602,60.56526],[12.89746,60.56474],[12.89873,60.5649],[12.89932,60.56441],[12.90181,60.56342],[12.90211,60.56295],[12.90187,60.56248],[12.90306,60.56203],[12.90347,60.56109],[12.90518,60.56039],[12.90601,60.56048],[12.90723,60.5603],[12.90825,60.559],[12.91003,60.55832],[12.90905,60.5578],[12.9053,60.55747],[12.89241,60.55293],[12.89735,60.54563],[12.89346,60.53145],[12.88142,60.53044],[12.88128,60.51791],[12.88174,60.51594],[12.8821,60.51572],[12.88214,60.51506],[12.88267,60.51487],[12.88325,60.51393],[12.88314,60.51246],[12.88394,60.51139],[12.88405,60.51056],[12.88462,60.51031],[12.8853,60.50904],[12.88563,60.50905],[12.88596,60.50858],[12.88594,60.50799],[12.88519,60.50765],[12.88567,60.50713],[12.8856,60.50676],[12.88595,60.50673],[12.88588,60.5064],[12.88724,60.50606],[12.88763,60.5057],[12.88738,60.5055],[12.88757,60.50525],[12.88815,60.50514],[12.96225,60.51475],[13.03943,60.5151],[13.03092,60.49692],[13.02981,60.49594],[13.02756,60.49503],[13.027,60.49449],[13.02748,60.49272],[13.02637,60.49129],[13.02644,60.48896],[13.02597,60.48757],[13.0262,60.48702],[13.02549,60.48469],[13.02658,60.48345],[13.02682,60.48089],[13.02795,60.47909],[13.03049,60.47823],[13.03063,60.47748],[13.02971,60.47659],[13.03203,60.47511],[13.0315,60.4732],[13.03193,60.47234],[13.03215,60.46941],[13.03165,60.46877],[13.02979,60.46823],[13.02939,60.46772],[13.02963,60.46748],[13.03083,60.46716],[13.03104,60.46689],[13.03062,60.46575],[13.03147,60.46441],[13.03206,60.46217],[13.03129,60.46138],[13.02942,60.4604],[13.02996,60.45972],[13.03151,60.45914],[13.03283,60.4579],[13.03371,60.45742],[13.03423,60.45407],[13.03364,60.45379],[13.0322,60.45381],[13.03204,60.45354],[13.03288,60.45296],[13.03478,60.45225],[13.03458,60.45197],[13.03323,60.45185],[13.03302,60.4515],[13.03345,60.45118],[13.03421,60.45114],[13.03496,60.45156],[13.03666,60.45187],[13.03843,60.45118],[13.03826,60.45082],[13.0367,60.45034],[13.0372,60.44926],[13.03823,60.44985],[13.03914,60.44981],[13.03943,60.44944],[13.03834,60.4487],[13.03858,60.44778],[13.03991,60.44735],[13.0406,60.44652],[13.04185,60.44674],[13.04134,60.44617],[13.04172,60.44568],[13.04326,60.44576],[13.04362,60.44558],[13.04362,60.44518],[13.04296,60.44476],[13.0451,60.44396],[13.08142,60.4032],[13.12607,60.33624],[13.12558,60.33615],[13.12672,60.33572],[13.12739,60.33574],[13.12783,60.33546],[13.12799,60.33391],[13.1272,60.33334],[13.12736,60.33277],[13.14941,60.28925],[13.15179,60.27674],[13.1577,60.25192],[13.12714,60.22392],[13.0509,60.20668],[13.0348,60.19883],[13.03264,60.19741],[13.0326,60.19558],[13.03358,60.19106],[13.02974,60.1878],[13.02878,60.18331],[13.03034,60.18184],[13.02897,60.17925],[13.02767,60.17764],[13.02652,60.17663],[13.02188,60.17584],[13.02119,60.17528],[13.02128,60.17455],[13.01762,60.17492],[13.0143,60.17479],[13.01092,60.17415],[13.00841,60.17321],[13.00626,60.17177],[13.00518,60.1703],[13.00507,60.16647],[13.00304,60.16646],[13.00106,60.16695],[12.99836,60.16728],[12.99419,60.16713],[12.99158,60.16658],[12.98656,60.16421],[12.98507,60.16297],[12.98417,60.16124],[12.98416,60.16016],[12.98462,60.15903],[12.98441,60.15793],[12.9833,60.15626],[12.98316,60.15518],[12.98426,60.15214],[12.98148,60.15134],[12.98358,60.1494],[12.97588,60.14656],[12.9671,60.15361],[12.92909,60.15299],[12.86104,60.17849],[12.79031,60.19024],[12.77917,60.20186],[12.78764,60.20266],[12.78816,60.20335],[12.78926,60.20366],[12.79057,60.20481],[12.79142,60.2049],[12.79224,60.20546],[12.79346,60.2054],[12.79437,60.2051],[12.79452,60.20487],[12.79542,60.20473],[12.79682,60.20476],[12.79684,60.20456],[12.79809,60.2039],[12.80036,60.20383],[12.80178,60.20349],[12.80217,60.20297],[12.80309,60.20288],[12.8051,60.20344],[12.80681,60.20341],[12.80695,60.20395],[12.80868,60.20434],[12.80856,60.20485],[12.80899,60.20508],[12.80973,60.205],[12.81047,60.20528],[12.81209,60.20537],[12.8127,60.20579],[12.87188,60.21273],[12.9207,60.24626],[12.89182,60.28164],[12.89244,60.28173],[12.89405,60.28156],[12.89546,60.28088],[12.89088,60.29334],[12.89396,60.31071],[12.89609,60.31004],[12.89008,60.3332],[12.88874,60.33333],[12.88921,60.33431],[12.88901,60.33581],[12.88799,60.33667],[12.88762,60.33758],[12.88548,60.34024],[12.88485,60.33986],[12.88421,60.34018],[12.88296,60.34038],[12.88126,60.33962],[12.8813,60.33872],[12.88074,60.33867],[12.87935,60.33914],[12.87927,60.33953],[12.87812,60.34022],[12.87831,60.34068],[12.8776,60.34151],[12.87647,60.34206],[12.87575,60.34213],[12.87287,60.34165],[12.87516,60.34338],[12.87467,60.34374],[12.87524,60.34545],[12.87486,60.3469],[12.87535,60.3471],[12.87433,60.34796],[12.87472,60.34897],[12.87472,60.34996],[12.87417,60.35072],[12.87452,60.35282],[12.87381,60.35453],[12.87377,60.35575],[12.87432,60.35632],[12.87354,60.35691],[12.87284,60.35857],[12.87132,60.35921],[12.87012,60.36006],[12.87182,60.36144],[12.872,60.36235],[12.87274,60.36299],[12.86926,60.36681],[12.86963,60.37006],[12.86936,60.3707],[12.86854,60.37105],[12.86799,60.37646],[12.83241,60.39758],[12.82721,60.4127],[12.82243,60.42469],[12.81839,60.43324],[12.81387,60.44403],[12.79372,60.49578],[12.60672,60.50055],[12.60688,60.51274],[12.58186,60.55091],[12.54927,60.57491],[12.51578,60.60015],[12.7435,60.63605],[12.79164,60.66984]]]}},{"type":"Feature","id":"1737R008","properties":{"code":"1737R008","name":"Östmark-Lekvattnet"},"geometry":{"type":"Polygon","coordinates":[[[12.60677,60.50055],[12.79372,60.49578],[12.81387,60.44403],[12.81839,60.43324],[12.82243,60.42469],[12.82721,60.4127],[12.83241,60.39758],[12.86799,60.37646],[12.86854,60.37105],[12.86936,60.3707],[12.86963,60.37006],[12.86926,60.36681],[12.87274,60.36299],[12.872,60.36235],[12.87182,60.36144],[12.87012,60.36006],[12.87132,60.35921],[12.87284,60.35857],[12.87354,60.35691],[12.87432,60.35632],[12.87377,60.35575],[12.87381,60.35453],[12.87452,60.35282],[12.87417,60.35072],[12.87472,60.34996],[12.87472,60.34897],[12.87433,60.34796],[12.87535,60.3471],[12.87486,60.3469],[12.87524,60.34545],[12.87467,60.34374],[12.87516,60.34338],[12.87287,60.34165],[12.87575,60.34213],[12.87647,60.34206],[12.8776,60.34151],[12.87831,60.34068],[12.87812,60.34022],[12.87927,60.33953],[12.87935,60.33914],[12.88074,60.33867],[12.8813,60.33872],[12.88126,60.33962],[12.88296,60.34038],[12.88421,60.34018],[12.88485,60.33986],[12.88548,60.34024],[12.88762,60.33758],[12.88799,60.33667],[12.88901,60.33581],[12.88921,60.33431],[12.88874,60.33333],[12.89008,60.3332],[12.89609,60.31004],[12.89396,60.31071],[12.89088,60.29334],[12.89546,60.28088],[12.89405,60.28156],[12.89244,60.28173],[12.89182,60.28164],[12.9207,60.24626],[12.87188,60.21273],[12.8127,60.20579],[12.81209,60.20537],[12.81047,60.20528],[12.80973,60.205],[12.80899,60.20508],[12.80856,60.20485],[12.80868,60.20434],[12.80695,60.20395],[12.80681,60.20341],[12.8051,60.20344],[12.80309,60.20288],[12.80217,60.20297],[12.80178,60.20349],[12.80036,60.20383],[12.79809,60.2039],[12.79684,60.20456],[12.79682,60.20476],[12.79542,60.20473],[12.79452,60.20487],[12.79437,60.2051],[12.79346,60.2054],[12.79224,60.20546],[12.79142,60.2049],[12.79057,60.20481],[12.78926,60.20366],[12.78816,60.20335],[12.78764,60.20266],[12.72028,60.19633],[12.71679,60.19095],[12.72078,60.1908],[12.73575,60.18411],[12.74238,60.16469],[12.74802,60.15454],[12.74825,60.14942],[12.74879,60.14846],[12.56787,60.12847],[12.55663,60.13673],[12.54315,60.13455],[12.52714,60.1309],[12.51566,60.12788],[12.50064,60.09908],[12.54191,60.19338],[12.52502,60.22363],[12.50442,60.28121],[12.4988,60.32365],[12.54529,60.34735],[12.56991,60.37073],[12.60605,60.40593],[12.60677,60.50055]]]}}]}