{"type":"FeatureCollection","features":[{"type":"Feature","id":"1760R002","properties":{"code":"1760R002","name":"Storfors tätorter-Storfors landsbygd"},"geometry":{"type":"Polygon","coordinates":[[[14.29584,59.60583],[14.29991,59.59974],[14.30664,59.59876],[14.29982,59.59764],[14.34395,59.58672],[14.34443,59.58632],[14.34827,59.58701],[14.35052,59.58781],[14.35263,59.587],[14.35553,59.58723],[14.35599,59.58778],[14.35274,59.59086],[14.35584,59.59299],[14.3611,59.59337],[14.3622,59.59182],[14.36578,59.59057],[14.36594,59.59044],[14.3653,59.59018],[14.36562,59.58998],[14.36625,59.59018],[14.36915,59.58772],[14.37025,59.58439],[14.37296,59.58498],[14.37889,59.58481],[14.38166,59.58209],[14.38289,59.58172],[14.38418,59.58161],[14.38514,59.58119],[14.38689,59.58119],[14.38592,59.57966],[14.38624,59.57933],[14.38556,59.5779],[14.3866,59.57727],[14.38765,59.57619],[14.38715,59.57551],[14.38768,59.57515],[14.38769,59.57449],[14.38708,59.57385],[14.38787,59.57358],[14.38763,59.5729],[14.38835,59.57238],[14.38862,59.57135],[14.38964,59.57141],[14.38969,59.57118],[14.38874,59.57104],[14.38976,59.56916],[14.3933,59.56655],[14.39238,59.56037],[14.397,59.56043],[14.39901,59.56196],[14.39845,59.56255],[14.39904,59.56295],[14.39819,59.5636],[14.39857,59.56363],[14.39874,59.56391],[14.39929,59.56358],[14.40004,59.56357],[14.40018,59.56331],[14.40134,59.56334],[14.40216,59.56313],[14.4029,59.56188],[14.40376,59.56182],[14.40549,59.56223],[14.40575,59.56164],[14.40643,59.56127],[14.40846,59.56103],[14.40985,59.55924],[14.4112,59.55907],[14.41121,59.55968],[14.41233,59.56037],[14.41356,59.56077],[14.41396,59.56063],[14.41593,59.56133],[14.41692,59.56252],[14.41679,59.56318],[14.41605,59.56371],[14.41662,59.56462],[14.41703,59.56463],[14.41621,59.56544],[14.41568,59.56556],[14.41595,59.56597],[14.41649,59.56585],[14.41666,59.56602],[14.41567,59.56695],[14.41589,59.56778],[14.41533,59.56802],[14.4161,59.56851],[14.41563,59.56894],[14.41647,59.56919],[14.4157,59.56975],[14.41608,59.5699],[14.41618,59.57043],[14.4159,59.57055],[14.41759,59.57095],[14.41808,59.57057],[14.4186,59.57058],[14.41933,59.57028],[14.42028,59.57067],[14.42148,59.57072],[14.4219,59.57103],[14.42165,59.57146],[14.42423,59.57322],[14.42408,59.57346],[14.42595,59.57453],[14.42668,59.57452],[14.42756,59.57488],[14.42827,59.57484],[14.42899,59.57523],[14.42904,59.5756],[14.42991,59.57548],[14.43046,59.57564],[14.43107,59.5753],[14.43187,59.5752],[14.43216,59.57478],[14.43196,59.57407],[14.43271,59.57367],[14.43352,59.57359],[14.43558,59.57466],[14.43789,59.57485],[14.44233,59.57648],[14.44398,59.57649],[14.44462,59.57749],[14.44615,59.57844],[14.46513,59.57992],[14.47571,59.52906],[14.43575,59.54224],[14.43105,59.53725],[14.4008,59.51857],[14.3908,59.51377],[14.39336,59.51358],[14.39458,59.51269],[14.39537,59.50903],[14.40031,59.50119],[14.41202,59.492],[14.41985,59.48531],[14.42302,59.48452],[14.4254,59.47871],[14.43556,59.46715],[14.43815,59.4629],[14.44146,59.45928],[14.45063,59.45346],[14.45726,59.44787],[14.45885,59.44709],[14.46044,59.44711],[14.46154,59.44641],[14.46157,59.44539],[14.46217,59.44489],[14.4629,59.44444],[14.46527,59.44365],[14.46544,59.44289],[14.46515,59.44207],[14.4656,59.4414],[14.46746,59.44113],[14.46886,59.44055],[14.46932,59.43969],[14.46777,59.43938],[14.46617,59.43795],[14.46483,59.43777],[14.46514,59.43718],[14.46398,59.43669],[14.46332,59.43715],[14.46265,59.43689],[14.46167,59.4372],[14.46131,59.43715],[14.46098,59.43667],[14.46019,59.4366],[14.45926,59.43602],[14.45791,59.43577],[14.45819,59.43526],[14.45735,59.43505],[14.45638,59.43422],[14.45566,59.43422],[14.45485,59.43466],[14.45447,59.43457],[14.45436,59.43437],[14.45506,59.43406],[14.4551,59.43369],[14.45372,59.43363],[14.4531,59.43291],[14.44038,59.4263],[14.44071,59.42503],[14.43774,59.42421],[14.43686,59.42453],[14.43217,59.42216],[14.41702,59.41294],[14.40966,59.41361],[14.39336,59.39504],[14.39015,59.3896],[14.37854,59.38407],[14.37448,59.37625],[14.37681,59.36863],[14.36692,59.36869],[14.36613,59.36926],[14.36561,59.36865],[14.36242,59.36757],[14.36402,59.36745],[14.36449,59.36726],[14.36405,59.36667],[14.36422,59.36574],[14.36463,59.36542],[14.36622,59.36511],[14.36303,59.34888],[14.36138,59.3443],[14.36122,59.34401],[14.36079,59.34403],[14.35683,59.33628],[14.35609,59.33592],[14.35604,59.33494],[14.35539,59.33406],[14.35557,59.33295],[14.35515,59.33196],[14.35326,59.33114],[14.35212,59.33027],[14.3409,59.33352],[14.33996,59.33292],[14.33797,59.33259],[14.33372,59.33041],[14.32845,59.32403],[14.32625,59.31796],[14.31459,59.32045],[14.26512,59.33209],[14.26468,59.33389],[14.2611,59.33799],[14.26151,59.33857],[14.26134,59.33996],[14.25012,59.3477],[14.24951,59.34909],[14.24443,59.34987],[14.24541,59.35394],[14.24462,59.35752],[14.24247,59.35805],[14.23775,59.3578],[14.23032,59.35697],[14.22862,59.35553],[14.22222,59.35752],[14.2193,59.35795],[14.21858,59.35829],[14.21834,59.35814],[14.21843,59.35908],[14.21807,59.35922],[14.21685,59.35922],[14.21624,59.35879],[14.21588,59.35901],[14.21442,59.35865],[14.21191,59.35841],[14.21141,59.36118],[14.21496,59.36935],[14.23125,59.3994],[14.23243,59.40413],[14.24394,59.4113],[14.25177,59.41201],[14.26287,59.42142],[14.25661,59.42692],[14.25046,59.42977],[14.24924,59.43152],[14.24623,59.43906],[14.24006,59.44208],[14.23096,59.44216],[14.22775,59.43675],[14.22791,59.4338],[14.22747,59.43362],[14.22721,59.43302],[14.22755,59.43161],[14.22693,59.42925],[14.22699,59.42762],[14.22611,59.42666],[14.2247,59.42568],[14.22342,59.4251],[14.22083,59.42454],[14.21903,59.4238],[14.21826,59.42337],[14.21792,59.42256],[14.21627,59.4233],[14.21657,59.42401],[14.17749,59.43885],[14.16179,59.44596],[14.15565,59.44025],[14.15396,59.43971],[14.15188,59.43866],[14.14802,59.43565],[14.13653,59.45083],[14.13838,59.4549],[14.13593,59.45678],[14.13631,59.45773],[14.14165,59.46131],[14.1341,59.46274],[14.13206,59.46195],[14.12992,59.46169],[14.12886,59.46191],[14.12897,59.4604],[14.10779,59.4653],[14.1041,59.46689],[14.10318,59.46699],[14.10337,59.4672],[14.07855,59.47788],[14.03481,59.48142],[14.01847,59.48956],[14.01769,59.48795],[14.00621,59.49038],[14.00684,59.49194],[14.00659,59.49356],[14.00769,59.49423],[14.00767,59.49523],[14.00833,59.49523],[14.0083,59.49539],[14.01572,59.49534],[14.01705,59.49575],[14.01704,59.49534],[14.01856,59.49532],[14.0187,59.49591],[14.02072,59.49586],[14.02189,59.49884],[14.01645,59.52973],[14.03054,59.54292],[14.03037,59.55049],[14.03124,59.55346],[14.03054,59.55379],[14.03629,59.56106],[14.06252,59.59121],[14.09711,59.59085],[14.13312,59.59105],[14.14558,59.59079],[14.16047,59.59238],[14.16181,59.59303],[14.16104,59.59796],[14.16127,59.59899],[14.16075,59.59996],[14.16021,59.60009],[14.16354,59.60185],[14.16853,59.60139],[14.17352,59.60713],[14.1788,59.60673],[14.18064,59.60641],[14.18103,59.60578],[14.18259,59.60475],[14.19417,59.60102],[14.19613,59.60114],[14.19685,59.60016],[14.20043,59.59897],[14.20091,59.59859],[14.2038,59.59737],[14.21436,59.59422],[14.2251,59.59552],[14.23079,59.59608],[14.23368,59.5962],[14.23528,59.59033],[14.24727,59.58991],[14.24653,59.59136],[14.25015,59.59294],[14.25333,59.59101],[14.25384,59.58968],[14.27228,59.58905],[14.27295,59.5912],[14.27115,59.59721],[14.27105,59.60109],[14.28668,59.60815],[14.29584,59.60583]],[[14.27451,59.55588],[14.27155,59.55474],[14.27008,59.55377],[14.26873,59.5522],[14.26836,59.55098],[14.2656,59.55011],[14.26208,59.54797],[14.26071,59.5467],[14.25998,59.54501],[14.25918,59.54444],[14.25782,59.54282],[14.2548,59.54105],[14.25177,59.5403],[14.24962,59.5394],[14.24829,59.53852],[14.24677,59.53652],[14.24665,59.5349],[14.24555,59.53292],[14.2454,59.53146],[14.24604,59.52993],[14.24732,59.52862],[14.25142,59.52564],[14.25532,59.52378],[14.25805,59.52299],[14.25874,59.52302],[14.26084,59.52182],[14.26392,59.52097],[14.2671,59.51947],[14.27046,59.51843],[14.27505,59.51798],[14.28274,59.51915],[14.28677,59.52023],[14.28993,59.52087],[14.29328,59.52232],[14.29496,59.52362],[14.29749,59.524],[14.29936,59.52451],[14.29953,59.52461],[14.29856,59.52597],[14.30032,59.52626],[14.30002,59.52643],[14.30203,59.52685],[14.29547,59.53553],[14.29272,59.53815],[14.2954,59.53989],[14.29457,59.54016],[14.29579,59.54117],[14.29448,59.54214],[14.29603,59.54307],[14.29633,59.54439],[14.29464,59.54419],[14.29485,59.54765],[14.29406,59.54992],[14.28983,59.55408],[14.28776,59.55524],[14.28594,59.55588],[14.28391,59.55633],[14.27451,59.55588]]]}},{"type":"Feature","id":"1760R001","properties":{"code":"1760R001","name":"Storfors centralort"},"geometry":{"type":"Polygon","coordinates":[[[14.28391,59.55633],[14.28776,59.55524],[14.28983,59.55408],[14.29406,59.54992],[14.29447,59.54924],[14.29485,59.54765],[14.29464,59.54419],[14.29633,59.54439],[14.29603,59.54307],[14.29448,59.54214],[14.29579,59.54117],[14.29457,59.54016],[14.2954,59.53989],[14.29272,59.53815],[14.29547,59.53553],[14.30203,59.52685],[14.30002,59.52643],[14.30032,59.52626],[14.29856,59.52597],[14.29953,59.52461],[14.29936,59.52451],[14.29749,59.524],[14.29496,59.52362],[14.29328,59.52232],[14.28993,59.52087],[14.28677,59.52023],[14.28274,59.51915],[14.27505,59.51798],[14.27046,59.51843],[14.2677,59.51928],[14.26392,59.52097],[14.26084,59.52182],[14.25874,59.52302],[14.25805,59.52299],[14.25674,59.52329],[14.25201,59.52532],[14.24655,59.5293],[14.2455,59.53102],[14.24545,59.53258],[14.24665,59.5349],[14.24692,59.53688],[14.24829,59.53852],[14.24962,59.5394],[14.25177,59.5403],[14.2548,59.54105],[14.25782,59.54282],[14.25918,59.54444],[14.25998,59.54501],[14.26071,59.5467],[14.26208,59.54797],[14.2656,59.55011],[14.26836,59.55098],[14.26917,59.55286],[14.27097,59.55441],[14.27451,59.55588],[14.28391,59.55633]]]}}]}