{"type":"FeatureCollection","features":[{"type":"Feature","id":"1763R001","properties":{"code":"1763R001","name":"Deje-Dejefors"},"geometry":{"type":"Polygon","coordinates":[[[13.44905,59.62196],[13.46367,59.62221],[13.46782,59.62141],[13.46892,59.62101],[13.47537,59.62059],[13.4775,59.62077],[13.48437,59.62079],[13.48791,59.62051],[13.49101,59.61972],[13.49309,59.61873],[13.49461,59.61751],[13.49595,59.61549],[13.49888,59.6154],[13.50101,59.61509],[13.50408,59.61418],[13.50578,59.61332],[13.51433,59.61145],[13.51173,59.60861],[13.50798,59.60558],[13.51213,59.60426],[13.5141,59.60333],[13.51554,59.60217],[13.51627,59.60109],[13.51786,59.59833],[13.5182,59.59686],[13.518,59.59587],[13.51711,59.59452],[13.51561,59.59337],[13.51295,59.59222],[13.50891,59.59137],[13.50735,59.59034],[13.50423,59.58919],[13.50133,59.58866],[13.49815,59.58846],[13.49719,59.58813],[13.48949,59.58717],[13.48876,59.58722],[13.48512,59.58779],[13.48332,59.58837],[13.48134,59.58937],[13.47965,59.59094],[13.47901,59.59313],[13.4786,59.59341],[13.47281,59.59487],[13.46985,59.59499],[13.4667,59.59555],[13.46444,59.5963],[13.46246,59.59731],[13.45923,59.59806],[13.45558,59.59863],[13.45239,59.59822],[13.44887,59.59831],[13.44617,59.59879],[13.44321,59.5998],[13.44136,59.60086],[13.44034,59.60181],[13.43884,59.60371],[13.43826,59.60499],[13.43714,59.60615],[13.43654,59.60754],[13.43665,59.60951],[13.43752,59.61098],[13.43967,59.61752],[13.44065,59.61885],[13.44182,59.61976],[13.44507,59.62115],[13.44905,59.62196]]]}},{"type":"Feature","id":"1763R002","properties":{"code":"1763R002","name":"Forshaga omland"},"geometry":{"type":"Polygon","coordinates":[[[13.62932,59.81538],[13.62907,59.81429],[13.62791,59.81344],[13.62776,59.81108],[13.62687,59.80955],[13.62635,59.80917],[13.62529,59.80544],[13.62397,59.80372],[13.62378,59.8029],[13.62301,59.8019],[13.62263,59.80002],[13.62168,59.79865],[13.62235,59.79713],[13.62187,59.79676],[13.62184,59.79618],[13.62221,59.79561],[13.62204,59.79449],[13.62246,59.79408],[13.62226,59.7935],[13.62267,59.79329],[13.62225,59.79269],[13.62296,59.79098],[13.62287,59.78824],[13.62161,59.78651],[13.62029,59.78159],[13.62023,59.77955],[13.62203,59.77923],[13.62257,59.7794],[13.62358,59.78199],[13.62409,59.78192],[13.62447,59.78157],[13.62548,59.78161],[13.62604,59.78132],[13.62833,59.78148],[13.62905,59.78168],[13.6301,59.78245],[13.63224,59.78249],[13.63571,59.78292],[13.63711,59.78252],[13.6378,59.7821],[13.63892,59.78188],[13.6399,59.78135],[13.6403,59.78064],[13.64164,59.77985],[13.64171,59.77942],[13.64235,59.7789],[13.64263,59.77888],[13.64281,59.77911],[13.64531,59.77894],[13.64618,59.77921],[13.64631,59.77953],[13.6481,59.77932],[13.64947,59.77889],[13.65142,59.77904],[13.65267,59.77845],[13.65257,59.77812],[13.65295,59.77803],[13.65331,59.77822],[13.65379,59.77803],[13.65466,59.7773],[13.65642,59.77744],[13.65722,59.77734],[13.65736,59.77753],[13.65675,59.77792],[13.65676,59.77819],[13.6581,59.7785],[13.66066,59.77851],[13.66131,59.77829],[13.66154,59.77797],[13.66254,59.77788],[13.66249,59.77753],[13.66406,59.77726],[13.66454,59.77742],[13.66483,59.77716],[13.66624,59.77706],[13.6674,59.77719],[13.66916,59.77701],[13.67156,59.77745],[13.67325,59.77712],[13.67506,59.7764],[13.68283,59.77561],[13.68648,59.77363],[13.6868,59.7725],[13.68501,59.77066],[13.68326,59.76243],[13.68115,59.75696],[13.6777,59.75367],[13.66828,59.75454],[13.66234,59.75422],[13.65724,59.75057],[13.64708,59.73529],[13.63551,59.72375],[13.62592,59.71152],[13.61127,59.69478],[13.59782,59.68125],[13.59429,59.67988],[13.59303,59.67522],[13.59762,59.67318],[13.60091,59.66748],[13.6054,59.66655],[13.61172,59.6632],[13.61527,59.65984],[13.60666,59.65709],[13.59633,59.65523],[13.58636,59.64972],[13.62516,59.61472],[13.62631,59.60917],[13.62527,59.60788],[13.62469,59.60769],[13.62448,59.60522],[13.62388,59.60402],[13.61902,59.60119],[13.61775,59.59899],[13.61784,59.59849],[13.61842,59.59819],[13.61828,59.59707],[13.61925,59.59677],[13.61976,59.59637],[13.62061,59.59634],[13.62087,59.59607],[13.62069,59.59542],[13.62033,59.5952],[13.62026,59.59397],[13.62053,59.59342],[13.62087,59.59333],[13.62148,59.59141],[13.61749,59.58312],[13.62407,59.58042],[13.62506,59.5802],[13.62641,59.57888],[13.6279,59.5785],[13.62829,59.57665],[13.62786,59.57457],[13.6284,59.57444],[13.62833,59.57415],[13.63114,59.57294],[13.63678,59.56883],[13.63542,59.56139],[13.62748,59.5562],[13.62036,59.55234],[13.61954,59.55135],[13.61968,59.55107],[13.61885,59.55034],[13.6174,59.54973],[13.61715,59.54828],[13.61676,59.54777],[13.61581,59.54727],[13.61533,59.54648],[13.61448,59.54657],[13.61363,59.54643],[13.61254,59.54736],[13.61227,59.54824],[13.61079,59.54999],[13.60871,59.55085],[13.60736,59.55273],[13.60589,59.5534],[13.60453,59.5552],[13.59819,59.55624],[13.59588,59.5536],[13.59591,59.55333],[13.59134,59.55001],[13.58603,59.54789],[13.58363,59.54746],[13.58089,59.54771],[13.57673,59.54781],[13.57471,59.54764],[13.57188,59.54655],[13.56609,59.54373],[13.56092,59.5417],[13.55807,59.53514],[13.55274,59.5366],[13.54516,59.53466],[13.54349,59.53504],[13.54645,59.53402],[13.54881,59.53189],[13.54933,59.52913],[13.54843,59.52741],[13.54836,59.52666],[13.54572,59.52489],[13.54459,59.5251],[13.54255,59.52427],[13.54253,59.52404],[13.54372,59.5236],[13.54358,59.52287],[13.54253,59.52302],[13.54383,59.51757],[13.54526,59.51752],[13.54533,59.51682],[13.54427,59.51573],[13.54748,59.49862],[13.54724,59.49857],[13.54747,59.49769],[13.54654,59.49737],[13.54727,59.49674],[13.5125,59.48256],[13.51061,59.48324],[13.50972,59.48277],[13.50936,59.48209],[13.50959,59.48134],[13.50552,59.47975],[13.50486,59.48009],[13.50362,59.47896],[13.49963,59.47732],[13.49186,59.48425],[13.48732,59.48612],[13.48562,59.48699],[13.4849,59.48766],[13.48435,59.48733],[13.48359,59.48766],[13.48452,59.48845],[13.48378,59.488],[13.48304,59.4879],[13.4599,59.49785],[13.44405,59.50451],[13.44239,59.50504],[13.44545,59.50592],[13.44743,59.50696],[13.44881,59.5082],[13.44994,59.50984],[13.4538,59.50894],[13.46338,59.50773],[13.46546,59.50774],[13.46869,59.50814],[13.4723,59.50915],[13.47568,59.50802],[13.48336,59.50676],[13.48615,59.50682],[13.49043,59.50752],[13.49293,59.50829],[13.49559,59.50986],[13.50412,59.51063],[13.50801,59.51167],[13.51041,59.513],[13.51152,59.51405],[13.51225,59.51526],[13.51393,59.51641],[13.51757,59.51713],[13.51872,59.51753],[13.52122,59.51896],[13.52428,59.51972],[13.52661,59.52079],[13.52846,59.52233],[13.52933,59.52426],[13.52898,59.52616],[13.52709,59.52817],[13.52358,59.53001],[13.52142,59.53437],[13.52038,59.53571],[13.51902,59.53671],[13.51961,59.53793],[13.51664,59.53833],[13.51563,59.53811],[13.51409,59.53915],[13.51118,59.53885],[13.50829,59.53884],[13.50526,59.53848],[13.50265,59.53796],[13.49962,59.53848],[13.49813,59.54089],[13.49471,59.54531],[13.49393,59.54687],[13.49386,59.54824],[13.49285,59.55],[13.49049,59.552],[13.48903,59.55285],[13.48652,59.55377],[13.48316,59.55438],[13.48027,59.55446],[13.47626,59.55417],[13.47359,59.55379],[13.4717,59.55329],[13.46909,59.5521],[13.46757,59.55084],[13.46201,59.54817],[13.45846,59.547],[13.45634,59.54557],[13.45535,59.54422],[13.45416,59.54109],[13.4544,59.53968],[13.45554,59.53815],[13.45584,59.53659],[13.4564,59.53583],[13.45556,59.53104],[13.45486,59.52882],[13.45396,59.52742],[13.45291,59.52647],[13.44844,59.52674],[13.44701,59.52628],[13.44587,59.52684],[13.44293,59.52684],[13.4425,59.52653],[13.44419,59.52454],[13.41969,59.51885],[13.41909,59.51818],[13.41721,59.51481],[13.41808,59.51049],[13.42004,59.50849],[13.42206,59.50745],[13.42472,59.50665],[13.43146,59.50566],[13.4354,59.5049],[13.43763,59.50469],[13.43696,59.50254],[13.43428,59.49727],[13.4327,59.49527],[13.42931,59.49202],[13.42134,59.48685],[13.41898,59.48469],[13.39422,59.48877],[13.39371,59.49805],[13.39476,59.50226],[13.39552,59.50373],[13.39779,59.5042],[13.40022,59.50571],[13.39826,59.51116],[13.40472,59.51869],[13.41584,59.51973],[13.42736,59.52274],[13.43145,59.52584],[13.42663,59.52958],[13.42901,59.53319],[13.43126,59.53794],[13.43109,59.53863],[13.43024,59.53908],[13.43035,59.53954],[13.43147,59.54048],[13.43073,59.54124],[13.43043,59.54211],[13.43095,59.54255],[13.43097,59.5431],[13.43157,59.54387],[13.43084,59.5447],[13.43146,59.54538],[13.43132,59.54665],[13.43176,59.54796],[13.43131,59.54825],[13.42596,59.55872],[13.42639,59.55934],[13.4268,59.56156],[13.42795,59.5628],[13.42952,59.56385],[13.42965,59.56675],[13.42925,59.56767],[13.42804,59.56901],[13.42918,59.57126],[13.42845,59.57125],[13.42794,59.57202],[13.42715,59.57207],[13.42437,59.57118],[13.42205,59.57164],[13.4215,59.57219],[13.42072,59.57249],[13.41774,59.57271],[13.41584,59.57365],[13.41601,59.57375],[13.41549,59.57427],[13.41383,59.5747],[13.41291,59.57474],[13.41255,59.57457],[13.41177,59.57503],[13.41051,59.57507],[13.40965,59.5753],[13.40876,59.57513],[13.40794,59.5752],[13.4057,59.57604],[13.40506,59.57591],[13.40451,59.57604],[13.40311,59.5771],[13.40355,59.5776],[13.4032,59.57785],[13.40254,59.57814],[13.40108,59.57832],[13.39884,59.57917],[13.3984,59.57961],[13.39264,59.58269],[13.38967,59.58957],[13.38652,59.59208],[13.38444,59.59421],[13.384,59.59444],[13.3827,59.59432],[13.38149,59.59575],[13.37987,59.59638],[13.37865,59.59767],[13.3776,59.59801],[13.37751,59.59906],[13.37631,59.5999],[13.37692,59.60084],[13.37569,59.6006],[13.36769,59.61088],[13.3724,59.62039],[13.37299,59.62087],[13.37472,59.62148],[13.3919,59.62539],[13.38692,59.6325],[13.38383,59.63594],[13.37933,59.64282],[13.36711,59.65234],[13.35162,59.65681],[13.34385,59.66194],[13.35522,59.66154],[13.36571,59.6617],[13.36522,59.67041],[13.36944,59.67736],[13.36616,59.68467],[13.36934,59.68608],[13.38246,59.6976],[13.38558,59.70351],[13.38301,59.71125],[13.37366,59.72175],[13.3714,59.72752],[13.37637,59.72872],[13.37603,59.73927],[13.37709,59.7422],[13.37676,59.74274],[13.37708,59.74299],[13.37691,59.7447],[13.37875,59.74582],[13.38047,59.74756],[13.38098,59.74907],[13.38059,59.74953],[13.38131,59.75025],[13.38089,59.75127],[13.38139,59.75247],[13.38078,59.75329],[13.3796,59.75372],[13.37868,59.75458],[13.37906,59.75556],[13.37879,59.75601],[13.37921,59.75815],[13.37969,59.75851],[13.38056,59.75845],[13.38043,59.7592],[13.37966,59.76013],[13.37974,59.76048],[13.38009,59.76048],[13.38001,59.76134],[13.38058,59.7619],[13.38021,59.7628],[13.38068,59.7635],[13.37962,59.76399],[13.37948,59.76456],[13.38958,59.75746],[13.40332,59.7531],[13.41314,59.74966],[13.43726,59.74694],[13.43835,59.74846],[13.43978,59.74849],[13.44086,59.74715],[13.44251,59.74655],[13.44414,59.74554],[13.44516,59.74529],[13.44539,59.74487],[13.44637,59.74467],[13.44854,59.74477],[13.44877,59.74797],[13.44934,59.74934],[13.45146,59.75211],[13.45157,59.75303],[13.4509,59.7546],[13.44986,59.75581],[13.44757,59.75775],[13.4473,59.75871],[13.44781,59.76],[13.45075,59.76254],[13.45125,59.76418],[13.45357,59.76379],[13.45488,59.76516],[13.45889,59.76461],[13.45807,59.76332],[13.46051,59.76208],[13.46487,59.76258],[13.46889,59.76832],[13.46762,59.76894],[13.47112,59.77064],[13.47908,59.76757],[13.48108,59.76468],[13.48211,59.76453],[13.4918,59.7679],[13.4966,59.76576],[13.51457,59.77583],[13.54751,59.79483],[13.55084,59.79379],[13.5522,59.7957],[13.55575,59.79782],[13.55935,59.79727],[13.56109,59.79985],[13.56373,59.80143],[13.56598,59.80142],[13.5705,59.79924],[13.59496,59.81254],[13.60015,59.81049],[13.60671,59.80738],[13.62932,59.81538]],[[13.45233,59.62206],[13.44764,59.62176],[13.44388,59.62076],[13.44101,59.61918],[13.43965,59.6175],[13.43752,59.61098],[13.43665,59.60951],[13.43654,59.60754],[13.43714,59.60615],[13.43826,59.60499],[13.43884,59.60371],[13.44034,59.60181],[13.44136,59.60086],[13.44321,59.5998],[13.44617,59.59879],[13.44887,59.59831],[13.45239,59.59822],[13.45558,59.59863],[13.45923,59.59806],[13.46246,59.59731],[13.46444,59.5963],[13.4667,59.59555],[13.46985,59.59499],[13.47281,59.59487],[13.4786,59.59341],[13.47901,59.59313],[13.47965,59.59094],[13.48134,59.58937],[13.48332,59.58837],[13.48512,59.58779],[13.48876,59.58722],[13.48949,59.58717],[13.49719,59.58813],[13.49815,59.58846],[13.50133,59.58866],[13.50423,59.58919],[13.50735,59.59034],[13.50891,59.59137],[13.51295,59.59222],[13.51561,59.59337],[13.51711,59.59452],[13.518,59.59587],[13.5182,59.59686],[13.51786,59.59833],[13.51627,59.60109],[13.51554,59.60217],[13.5141,59.60333],[13.51213,59.60426],[13.50798,59.60558],[13.51173,59.60861],[13.51433,59.61145],[13.50578,59.61332],[13.50408,59.61418],[13.50101,59.61509],[13.49888,59.6154],[13.49595,59.61549],[13.49461,59.61751],[13.49309,59.61873],[13.49045,59.61991],[13.48786,59.62052],[13.48437,59.62079],[13.4775,59.62077],[13.47537,59.62059],[13.46892,59.62101],[13.46782,59.62141],[13.46367,59.62221],[13.45233,59.62206]]]}},{"type":"Feature","id":"1763R003","properties":{"code":"1763R003","name":"Forshaga-Skived"},"geometry":{"type":"Polygon","coordinates":[[[13.49962,59.53848],[13.50265,59.53796],[13.50526,59.53848],[13.50829,59.53884],[13.51118,59.53885],[13.51409,59.53915],[13.51563,59.53811],[13.51664,59.53833],[13.51961,59.53793],[13.51902,59.53671],[13.52038,59.53571],[13.52142,59.53437],[13.52358,59.53001],[13.52525,59.52927],[13.52758,59.52781],[13.52898,59.52616],[13.52934,59.52494],[13.52876,59.52274],[13.52661,59.52079],[13.52428,59.51972],[13.52122,59.51896],[13.51818,59.51733],[13.51393,59.51641],[13.51225,59.51526],[13.51152,59.51405],[13.51041,59.513],[13.50747,59.51147],[13.50346,59.51054],[13.49559,59.50986],[13.49293,59.50829],[13.49043,59.50752],[13.48615,59.50682],[13.48403,59.50674],[13.47942,59.50732],[13.47568,59.50802],[13.4723,59.50915],[13.46869,59.50814],[13.46546,59.50774],[13.46338,59.50773],[13.4538,59.50894],[13.44994,59.50984],[13.44819,59.50755],[13.44545,59.50592],[13.44239,59.50504],[13.44128,59.50532],[13.43789,59.50556],[13.43763,59.50469],[13.4354,59.5049],[13.43146,59.50566],[13.42472,59.50665],[13.42206,59.50745],[13.42004,59.50849],[13.41808,59.51049],[13.41721,59.51481],[13.41969,59.51885],[13.44419,59.52454],[13.4425,59.52653],[13.44293,59.52684],[13.44587,59.52684],[13.44701,59.52628],[13.44844,59.52674],[13.45291,59.52647],[13.45396,59.52742],[13.45521,59.52949],[13.4564,59.53583],[13.45584,59.53659],[13.45554,59.53815],[13.4544,59.53968],[13.45415,59.54075],[13.45431,59.54182],[13.45575,59.5449],[13.45798,59.54675],[13.46012,59.54767],[13.46201,59.54817],[13.46757,59.55084],[13.46909,59.5521],[13.4711,59.55308],[13.47493,59.55402],[13.48162,59.55447],[13.48382,59.5543],[13.48592,59.55393],[13.48903,59.55285],[13.49087,59.55172],[13.49312,59.54968],[13.49386,59.54824],[13.49393,59.54687],[13.49471,59.54531],[13.49813,59.54089],[13.49962,59.53848]]]}}]}