{"type":"FeatureCollection","features":[{"type":"Feature","id":"1764R006","properties":{"code":"1764R006","name":"Slottsbron"},"geometry":{"type":"Polygon","coordinates":[[[13.13125,59.33479],[13.12598,59.32962],[13.12701,59.3283],[13.12734,59.3272],[13.12694,59.32487],[13.12634,59.32384],[13.12404,59.32178],[13.12289,59.32115],[13.12188,59.31944],[13.11798,59.31564],[13.11706,59.31502],[13.11404,59.31374],[13.11373,59.3115],[13.11281,59.31011],[13.11125,59.30888],[13.10968,59.30809],[13.10724,59.30732],[13.1043,59.30686],[13.10124,59.30679],[13.09843,59.30709],[13.09643,59.30755],[13.09311,59.30901],[13.08917,59.30961],[13.08801,59.30996],[13.08397,59.31183],[13.08096,59.31446],[13.07712,59.31414],[13.07383,59.31517],[13.06965,59.31884],[13.06782,59.32714],[13.07083,59.33244],[13.08064,59.3323],[13.08994,59.33043],[13.098,59.33176],[13.10001,59.33134],[13.10888,59.33264],[13.11013,59.3339],[13.12158,59.33475],[13.13125,59.33479]]]}},{"type":"Feature","id":"1764R003","properties":{"code":"1764R003","name":"Karlberg"},"geometry":{"type":"Polygon","coordinates":[[[13.13973,59.37979],[13.14297,59.37909],[13.14516,59.37817],[13.14807,59.3759],[13.14894,59.37452],[13.14913,59.37344],[13.14901,59.37199],[13.1483,59.37062],[13.14692,59.36936],[13.14483,59.36825],[13.14581,59.36713],[13.14273,59.36658],[13.13903,59.36528],[13.13653,59.36398],[13.13446,59.36228],[13.13341,59.36117],[13.13264,59.35966],[13.13142,59.35564],[13.1362,59.35404],[13.13943,59.3526],[13.14252,59.34966],[13.14323,59.34847],[13.14332,59.34676],[13.14237,59.34513],[13.14091,59.34398],[13.13153,59.33906],[13.12881,59.34393],[13.12565,59.34428],[13.12182,59.34361],[13.11979,59.34474],[13.11866,59.34507],[13.11688,59.34517],[13.11531,59.34492],[13.11385,59.34498],[13.11199,59.34529],[13.11077,59.34604],[13.11003,59.34687],[13.1104,59.34788],[13.10956,59.34796],[13.10979,59.34862],[13.10851,59.34875],[13.10862,59.35036],[13.10999,59.35084],[13.11119,59.35059],[13.11388,59.35567],[13.11357,59.35691],[13.11165,59.36088],[13.11169,59.36203],[13.11277,59.36362],[13.11206,59.36394],[13.11037,59.36313],[13.11004,59.36237],[13.10888,59.36173],[13.10659,59.36105],[13.1035,59.35338],[13.09955,59.35425],[13.09404,59.35297],[13.09346,59.35071],[13.09262,59.3489],[13.09139,59.34896],[13.09102,59.3473],[13.08106,59.34872],[13.08637,59.35179],[13.08741,59.35334],[13.09155,59.35723],[13.09461,59.35861],[13.09533,59.36129],[13.09677,59.36427],[13.09635,59.36604],[13.09735,59.36914],[13.09595,59.37001],[13.099,59.3703],[13.09891,59.37191],[13.09955,59.37333],[13.10052,59.37472],[13.10208,59.37587],[13.10414,59.37677],[13.10658,59.37739],[13.10929,59.37767],[13.11327,59.37754],[13.11768,59.3765],[13.11978,59.3765],[13.12384,59.37777],[13.12801,59.37818],[13.13137,59.37947],[13.13401,59.37993],[13.13751,59.38002],[13.13973,59.37979]]]}},{"type":"Feature","id":"1764R004","properties":{"code":"1764R004","name":"Orrby-Grönberg"},"geometry":{"type":"Polygon","coordinates":[[[13.11394,59.35591],[13.11119,59.35059],[13.10999,59.35084],[13.10862,59.35036],[13.10851,59.34875],[13.10979,59.34862],[13.10906,59.34654],[13.10153,59.34668],[13.10116,59.34895],[13.09856,59.34909],[13.09843,59.34875],[13.09791,59.3487],[13.09752,59.34671],[13.09663,59.3467],[13.09678,59.34565],[13.10008,59.34529],[13.10029,59.34508],[13.10104,59.34497],[13.09948,59.34389],[13.10321,59.34296],[13.10237,59.34171],[13.10278,59.34163],[13.10262,59.34086],[13.10318,59.34076],[13.10234,59.33947],[13.10302,59.33932],[13.10143,59.33761],[13.10145,59.33665],[13.09965,59.33649],[13.09965,59.33735],[13.09501,59.3371],[13.09508,59.33721],[13.09435,59.33729],[13.0945,59.33755],[13.09396,59.33761],[13.09298,59.3373],[13.0895,59.33819],[13.08997,59.3387],[13.09167,59.33845],[13.0921,59.33943],[13.0931,59.33939],[13.09304,59.33997],[13.09403,59.34126],[13.09435,59.34217],[13.0941,59.34279],[13.09485,59.34306],[13.09459,59.34343],[13.09585,59.34472],[13.09069,59.34567],[13.09139,59.34896],[13.09262,59.3489],[13.09346,59.35071],[13.09404,59.35297],[13.09955,59.35425],[13.1035,59.35338],[13.10659,59.36105],[13.10888,59.36173],[13.11004,59.36237],[13.11037,59.36313],[13.11206,59.36394],[13.11277,59.36362],[13.11169,59.36203],[13.11165,59.36088],[13.11394,59.35591]]]}},{"type":"Feature","id":"1764R005","properties":{"code":"1764R005","name":"Segmon-Liljedal"},"geometry":{"type":"Polygon","coordinates":[[[13.14204,59.39797],[13.14745,59.3967],[13.14855,59.39678],[13.14897,59.39484],[13.15006,59.39417],[13.15366,59.38723],[13.15511,59.38707],[13.15488,59.38559],[13.15453,59.38551],[13.15612,59.38258],[13.16044,59.38172],[13.16086,59.37887],[13.16007,59.37838],[13.15996,59.37771],[13.16114,59.37725],[13.16055,59.37607],[13.15963,59.37588],[13.1629,59.36912],[13.16205,59.36251],[13.16276,59.35617],[13.16383,59.3556],[13.1636,59.35502],[13.16289,59.35527],[13.16338,59.35174],[13.17529,59.34985],[13.17712,59.34005],[13.16537,59.32514],[13.17692,59.25496],[13.11398,59.25276],[13.07245,59.23661],[13.06552,59.23609],[13.04625,59.23884],[13.03899,59.24416],[13.00349,59.23655],[12.99357,59.23701],[12.96579,59.24152],[12.9441,59.24476],[12.93621,59.24768],[12.91856,59.25039],[12.9173,59.25099],[12.91704,59.25137],[12.91638,59.25415],[12.91674,59.25503],[12.91613,59.25636],[12.9166,59.25772],[12.91495,59.258],[12.91483,59.26058],[12.9153,59.26086],[12.91539,59.26138],[12.91615,59.26139],[12.91713,59.26181],[12.91778,59.26277],[12.91829,59.26306],[12.91977,59.2633],[12.92033,59.26387],[12.92006,59.26643],[12.91853,59.27009],[12.91652,59.2706],[12.91547,59.27137],[12.9147,59.27269],[12.915,59.2738],[12.91576,59.27429],[12.91626,59.27413],[12.9184,59.27476],[12.92163,59.27723],[12.92261,59.27766],[12.93537,59.28097],[12.94488,59.29704],[12.96577,59.3033],[12.97755,59.30452],[12.98061,59.3054],[12.9827,59.30524],[12.98408,59.30553],[12.98881,59.30592],[12.99336,59.30673],[12.99865,59.30663],[13.00244,59.31077],[13.00764,59.32154],[13.00703,59.32493],[13.00856,59.33362],[13.00987,59.33543],[13.00929,59.3385],[13.01062,59.34072],[13.01491,59.34105],[13.02017,59.3433],[13.02787,59.34296],[13.03718,59.34651],[13.04792,59.35273],[13.05093,59.35663],[13.05489,59.36728],[13.06205,59.37205],[13.06914,59.37128],[13.07744,59.37666],[13.08376,59.37881],[13.08496,59.38031],[13.08627,59.38132],[13.08999,59.38239],[13.09153,59.38346],[13.09172,59.38402],[13.09042,59.38548],[13.09087,59.38727],[13.09269,59.38866],[13.09594,59.38983],[13.0962,59.3903],[13.10005,59.39361],[13.105,59.39413],[13.10855,59.39513],[13.11178,59.39517],[13.11909,59.39462],[13.12464,59.39577],[13.12616,59.39686],[13.12669,59.39835],[13.13183,59.39972],[13.1382,59.4],[13.14204,59.39797]],[[13.13406,59.37994],[13.13137,59.37947],[13.12801,59.37818],[13.12384,59.37777],[13.11978,59.3765],[13.11768,59.3765],[13.11327,59.37754],[13.10929,59.37767],[13.10658,59.37739],[13.10414,59.37677],[13.10208,59.37587],[13.10052,59.37472],[13.09955,59.37333],[13.09891,59.37191],[13.099,59.3703],[13.09595,59.37001],[13.09735,59.36914],[13.09635,59.36604],[13.09677,59.36427],[13.09533,59.36129],[13.09461,59.35861],[13.09155,59.35723],[13.0904,59.35632],[13.08741,59.35334],[13.08637,59.35179],[13.08106,59.34872],[13.07892,59.34667],[13.07534,59.34547],[13.07398,59.34464],[13.0727,59.34338],[13.0706,59.3327],[13.07083,59.33244],[13.06782,59.32714],[13.06965,59.31884],[13.07383,59.31517],[13.07712,59.31414],[13.08096,59.31446],[13.08397,59.31183],[13.08801,59.30996],[13.08917,59.30961],[13.09311,59.30901],[13.09643,59.30755],[13.09843,59.30709],[13.10124,59.30679],[13.1043,59.30686],[13.10724,59.30732],[13.10968,59.30809],[13.11125,59.30888],[13.11281,59.31011],[13.11373,59.3115],[13.11404,59.31374],[13.11706,59.31502],[13.11798,59.31564],[13.12188,59.31944],[13.12289,59.32115],[13.12404,59.32178],[13.12634,59.32384],[13.12694,59.32487],[13.12734,59.3272],[13.12701,59.3283],[13.12598,59.32962],[13.13125,59.33479],[13.13153,59.33906],[13.14091,59.34398],[13.14237,59.34513],[13.14332,59.34676],[13.14323,59.34847],[13.14252,59.34966],[13.13987,59.35231],[13.13792,59.35337],[13.13142,59.35564],[13.13264,59.35966],[13.13341,59.36117],[13.13549,59.36324],[13.13764,59.36456],[13.14086,59.36602],[13.14273,59.36658],[13.14581,59.36713],[13.14483,59.36825],[13.14692,59.36936],[13.14853,59.37094],[13.14907,59.37233],[13.14894,59.37452],[13.14807,59.3759],[13.1468,59.37703],[13.14516,59.37817],[13.14301,59.37908],[13.14044,59.37969],[13.13751,59.38002],[13.13406,59.37994]]]}},{"type":"Feature","id":"1764R001","properties":{"code":"1764R001","name":"Borgvik-Värmskog-Skruvstad"},"geometry":{"type":"Polygon","coordinates":[[[12.88508,59.56866],[12.89643,59.56731],[12.90512,59.55668],[12.92032,59.55951],[12.92784,59.55956],[12.93115,59.55621],[12.93426,59.54922],[12.93351,59.5396],[12.94147,59.53397],[12.96294,59.5362],[13.00133,59.5301],[13.00116,59.52966],[13.0017,59.52917],[13.00433,59.52884],[13.00578,59.52919],[13.00722,59.53161],[13.01157,59.53111],[13.01271,59.53082],[13.01615,59.5315],[13.0182,59.53243],[13.0189,59.5323],[13.02066,59.53267],[13.02197,59.53409],[13.02436,59.53565],[13.03092,59.53933],[13.03695,59.54006],[13.04067,59.53574],[13.04235,59.52534],[13.05478,59.52185],[13.06064,59.51878],[13.06379,59.51461],[13.06398,59.51182],[13.06554,59.51072],[13.06636,59.50714],[13.06585,59.5059],[13.0673,59.5048],[13.0693,59.50478],[13.0702,59.50427],[13.0741,59.50416],[13.07518,59.5037],[13.07612,59.50288],[13.0771,59.50098],[13.07685,59.49818],[13.08297,59.49851],[13.09016,59.49712],[13.08999,59.49693],[13.09347,59.49626],[13.0936,59.49641],[13.09813,59.49589],[13.09894,59.49531],[13.10286,59.4942],[13.10356,59.49373],[13.10177,59.49248],[13.09836,59.4919],[13.09704,59.49147],[13.09974,59.48989],[13.10399,59.49238],[13.10443,59.49115],[13.11315,59.48651],[13.1136,59.48489],[13.11418,59.48466],[13.11381,59.48423],[13.11508,59.48377],[13.11625,59.48285],[13.11973,59.48343],[13.12064,59.48289],[13.12118,59.48282],[13.12216,59.48316],[13.12196,59.48334],[13.12271,59.48375],[13.12279,59.48408],[13.12372,59.48408],[13.12443,59.48429],[13.12506,59.48397],[13.12579,59.48405],[13.12666,59.48291],[13.12977,59.48178],[13.13118,59.48065],[13.13261,59.48025],[13.13334,59.47955],[13.13597,59.47887],[13.13989,59.47698],[13.14094,59.47597],[13.14146,59.47485],[13.14217,59.4747],[13.14242,59.47445],[13.16334,59.47012],[13.16009,59.44672],[13.15762,59.43859],[13.15679,59.42629],[13.15355,59.41107],[13.14893,59.4035],[13.14824,59.39748],[13.14855,59.39678],[13.14745,59.3967],[13.14204,59.39797],[13.1382,59.4],[13.13183,59.39972],[13.12669,59.39835],[13.12616,59.39686],[13.12464,59.39577],[13.11909,59.39462],[13.11178,59.39517],[13.10855,59.39513],[13.105,59.39413],[13.10005,59.39361],[13.0962,59.3903],[13.09594,59.38983],[13.09269,59.38866],[13.09087,59.38727],[13.09042,59.38548],[13.09172,59.38402],[13.09153,59.38346],[13.08999,59.38239],[13.08627,59.38132],[13.08496,59.38031],[13.08376,59.37881],[13.07744,59.37666],[13.06914,59.37128],[13.06205,59.37205],[13.05489,59.36728],[13.05093,59.35663],[13.04792,59.35273],[13.03718,59.34651],[13.02787,59.34296],[13.02017,59.3433],[13.01491,59.34105],[13.01062,59.34072],[13.00929,59.3385],[13.00987,59.33543],[13.00856,59.33362],[13.00703,59.32493],[13.00764,59.32154],[13.00244,59.31077],[12.99865,59.30663],[12.99336,59.30673],[12.98881,59.30592],[12.98408,59.30553],[12.9827,59.30524],[12.98061,59.3054],[12.97755,59.30452],[12.96577,59.3033],[12.94488,59.29704],[12.93537,59.28097],[12.92261,59.27766],[12.92041,59.28006],[12.92156,59.28193],[12.9212,59.28323],[12.92015,59.28361],[12.91837,59.28365],[12.91736,59.28327],[12.91675,59.28229],[12.91481,59.28279],[12.91433,59.28227],[12.91458,59.28161],[12.9143,59.28052],[12.91279,59.27997],[12.9109,59.28046],[12.90902,59.27988],[12.90699,59.27991],[12.91027,59.28758],[12.91145,59.29439],[12.91342,59.29944],[12.91528,59.31401],[12.91236,59.32895],[12.91066,59.34087],[12.90304,59.34645],[12.90217,59.34751],[12.90068,59.35461],[12.9008,59.37216],[12.91044,59.37373],[12.911,59.37468],[12.91223,59.37507],[12.91264,59.37585],[12.91165,59.37976],[12.91072,59.38006],[12.90774,59.38357],[12.90751,59.38451],[12.90683,59.38542],[12.90712,59.38628],[12.90814,59.3871],[12.90861,59.38713],[12.90931,59.38796],[12.90987,59.38808],[12.91079,59.38931],[12.9109,59.39031],[12.91292,59.39087],[12.91524,59.39252],[12.91702,59.39415],[12.919,59.39542],[12.91995,59.39565],[12.91973,59.39594],[12.92076,59.39601],[12.92129,59.39649],[12.92283,59.39699],[12.92283,59.39724],[12.92337,59.39749],[12.92466,59.39754],[12.92798,59.39941],[12.92413,59.40237],[12.92155,59.40671],[12.9151,59.41298],[12.89834,59.41945],[12.89364,59.42347],[12.90338,59.43092],[12.90589,59.44095],[12.91003,59.44155],[12.91241,59.44324],[12.91294,59.44651],[12.90633,59.44323],[12.90447,59.44495],[12.89944,59.44462],[12.89125,59.44803],[12.87828,59.43645],[12.87027,59.4344],[12.86828,59.43173],[12.86041,59.43188],[12.84046,59.42987],[12.84301,59.43468],[12.84039,59.44239],[12.8278,59.46291],[12.82358,59.47599],[12.8248,59.47811],[12.82999,59.4925],[12.83051,59.49521],[12.83288,59.49536],[12.834,59.4948],[12.8395,59.49729],[12.85936,59.50477],[12.87325,59.5096],[12.87697,59.5079],[12.87829,59.51043],[12.87701,59.51361],[12.87914,59.51564],[12.87915,59.52057],[12.8759,59.52434],[12.8763,59.52802],[12.88036,59.53247],[12.87846,59.54187],[12.87803,59.54749],[12.88084,59.55267],[12.88508,59.56866]]]}},{"type":"Feature","id":"1764R002","properties":{"code":"1764R002","name":"Gamla Slottsbron"},"geometry":{"type":"Polygon","coordinates":[[[13.09856,59.34909],[13.10116,59.34895],[13.10153,59.34668],[13.10906,59.34654],[13.10956,59.34796],[13.1104,59.34788],[13.11003,59.34687],[13.11077,59.34604],[13.11199,59.34529],[13.11531,59.34492],[13.11688,59.34517],[13.11866,59.34507],[13.11979,59.34474],[13.12182,59.34361],[13.12565,59.34428],[13.12881,59.34393],[13.13153,59.33906],[13.13125,59.33479],[13.12158,59.33475],[13.11013,59.3339],[13.10888,59.33264],[13.10001,59.33134],[13.098,59.33176],[13.08994,59.33043],[13.08064,59.3323],[13.07083,59.33244],[13.0706,59.3327],[13.0727,59.34338],[13.07398,59.34464],[13.07534,59.34547],[13.07892,59.34667],[13.08106,59.34872],[13.09102,59.3473],[13.09069,59.34567],[13.09585,59.34472],[13.09459,59.34343],[13.09485,59.34306],[13.0941,59.34279],[13.09435,59.34217],[13.09403,59.34126],[13.09304,59.33997],[13.0931,59.33939],[13.0921,59.33943],[13.09167,59.33845],[13.08997,59.3387],[13.0895,59.33819],[13.09298,59.3373],[13.09396,59.33761],[13.0945,59.33755],[13.09435,59.33729],[13.09508,59.33721],[13.09501,59.3371],[13.09965,59.33735],[13.09965,59.33649],[13.10145,59.33665],[13.10143,59.33761],[13.10302,59.33932],[13.10234,59.33947],[13.10318,59.34076],[13.10262,59.34086],[13.10278,59.34163],[13.10237,59.34171],[13.10321,59.34296],[13.09948,59.34389],[13.10104,59.34497],[13.10029,59.34508],[13.10008,59.34529],[13.09678,59.34565],[13.09663,59.3467],[13.09752,59.34671],[13.09791,59.3487],[13.09843,59.34875],[13.09856,59.34909]]]}}]}