{"type":"FeatureCollection","features":[{"type":"Feature","id":"1783R001","properties":{"code":"1783R001","name":"Ekshärad tätort"},"geometry":{"type":"Polygon","coordinates":[[[13.49018,60.19153],[13.49793,60.19098],[13.50003,60.19068],[13.50258,60.18999],[13.50511,60.18873],[13.50764,60.18677],[13.50847,60.1858],[13.50999,60.18225],[13.50986,60.17954],[13.51138,60.17822],[13.51252,60.17657],[13.51261,60.17477],[13.51156,60.17261],[13.51263,60.17074],[13.51255,60.1691],[13.51358,60.16849],[13.5152,60.1669],[13.51572,60.16548],[13.51552,60.16406],[13.5149,60.16303],[13.51358,60.16185],[13.51279,60.16029],[13.51092,60.15876],[13.50754,60.15742],[13.50462,60.15667],[13.50189,60.15626],[13.49826,60.15625],[13.49485,60.1568],[13.49249,60.15759],[13.49092,60.15842],[13.48717,60.15952],[13.48529,60.16059],[13.48416,60.16165],[13.48072,60.16187],[13.47726,60.16268],[13.47506,60.16365],[13.47374,60.16455],[13.47224,60.16667],[13.47212,60.16939],[13.47106,60.17106],[13.47097,60.17262],[13.47258,60.17574],[13.47381,60.17681],[13.47603,60.17807],[13.4765,60.17889],[13.4757,60.18007],[13.47544,60.18116],[13.47574,60.18258],[13.47651,60.18376],[13.47983,60.18818],[13.4818,60.18968],[13.4834,60.1904],[13.48589,60.1911],[13.49018,60.19153]]]}},{"type":"Feature","id":"1783R002","properties":{"code":"1783R002","name":"Hagfors nordväst"},"geometry":{"type":"Polygon","coordinates":[[[13.62172,60.41439],[13.66609,60.40443],[13.63155,60.38569],[13.63168,60.37676],[13.60487,60.37205],[13.60656,60.36741],[13.60648,60.36444],[13.61529,60.35767],[13.60669,60.35159],[13.60504,60.34761],[13.60507,60.34612],[13.60678,60.3446],[13.60615,60.34417],[13.60661,60.34344],[13.60591,60.34301],[13.60683,60.34203],[13.60654,60.34139],[13.60592,60.34115],[13.6055,60.34052],[13.60683,60.33974],[13.60672,60.33893],[13.60637,60.33893],[13.60682,60.3386],[13.60639,60.33812],[13.60634,60.33678],[13.60587,60.33594],[13.60499,60.33553],[13.60454,60.33486],[13.60356,60.33478],[13.6033,60.33443],[13.60265,60.33427],[13.60106,60.33332],[13.59949,60.33287],[13.59857,60.33087],[13.59886,60.32998],[13.59818,60.32861],[13.59845,60.32784],[13.59735,60.32733],[13.59708,60.3267],[13.59675,60.32649],[13.59592,60.32643],[13.59416,60.32503],[13.59274,60.32501],[13.59275,60.32445],[13.58991,60.32356],[13.58865,60.32276],[13.58858,60.32209],[13.58919,60.32112],[13.58927,60.32015],[13.58765,60.31778],[13.58916,60.31622],[13.58933,60.31563],[13.5879,60.31566],[13.58648,60.31518],[13.58541,60.31522],[13.58481,60.315],[13.58447,60.31531],[13.58406,60.31534],[13.58296,60.31497],[13.58192,60.31348],[13.58198,60.31309],[13.5814,60.31265],[13.58197,60.31114],[13.58174,60.31061],[13.58039,60.31028],[13.57957,60.30972],[13.57721,60.30968],[13.5788,60.30622],[13.58046,60.30575],[13.58087,60.30442],[13.58014,60.30324],[13.58176,60.30192],[13.58179,60.30036],[13.58499,60.29873],[13.58582,60.29635],[13.59326,60.29496],[13.59541,60.29303],[13.59395,60.29131],[13.59449,60.29002],[13.59613,60.28916],[13.5985,60.28906],[13.5998,60.28783],[13.60214,60.28761],[13.60354,60.28717],[13.60672,60.28926],[13.60743,60.28678],[13.60589,60.28615],[13.60518,60.28468],[13.60596,60.28248],[13.60534,60.28122],[13.60618,60.2806],[13.60608,60.27998],[13.60547,60.27931],[13.60669,60.27721],[13.6066,60.27684],[13.60545,60.27621],[13.60556,60.27549],[13.60663,60.27476],[13.60767,60.27196],[13.60861,60.27167],[13.6093,60.2719],[13.61147,60.27132],[13.61164,60.26997],[13.61255,60.26971],[13.61203,60.26917],[13.61346,60.26867],[13.61356,60.26774],[13.61435,60.26615],[13.61367,60.26528],[13.61375,60.26463],[13.61504,60.26403],[13.61511,60.26367],[13.61457,60.26335],[13.61439,60.26282],[13.61535,60.26182],[13.61471,60.26136],[13.61461,60.26065],[13.61401,60.26002],[13.61448,60.25863],[13.61511,60.25835],[13.61722,60.25806],[13.61839,60.25732],[13.61829,60.25684],[13.61897,60.25611],[13.61885,60.25552],[13.62068,60.2546],[13.62103,60.25289],[13.62054,60.25212],[13.62115,60.25177],[13.6212,60.25126],[13.62189,60.25073],[13.62167,60.24953],[13.62317,60.24738],[13.62287,60.24624],[13.6245,60.24593],[13.62508,60.24558],[13.62622,60.24431],[13.62711,60.24259],[13.62981,60.24045],[13.63138,60.23663],[13.6314,60.23517],[13.63111,60.23481],[13.63194,60.23408],[13.63185,60.23382],[13.63297,60.23234],[13.6318,60.23159],[13.63202,60.23121],[13.6326,60.23111],[13.63312,60.23055],[13.63286,60.22903],[13.63332,60.22714],[13.63395,60.22624],[13.63403,60.22513],[13.63586,60.22411],[13.63503,60.22083],[13.62316,60.22195],[13.62219,60.2199],[13.622,60.2164],[13.62235,60.21558],[13.62366,60.21514],[13.62383,60.21491],[13.62262,60.21439],[13.62255,60.21407],[13.6205,60.21387],[13.62035,60.21507],[13.61693,60.21517],[13.61014,60.21598],[13.60957,60.21478],[13.60769,60.21437],[13.60812,60.21297],[13.60917,60.21351],[13.61079,60.21295],[13.58112,60.20034],[13.58067,60.19962],[13.58187,60.19762],[13.58273,60.19711],[13.58422,60.19704],[13.5836,60.19594],[13.58348,60.1937],[13.58497,60.19337],[13.58486,60.19274],[13.58404,60.19195],[13.58415,60.19131],[13.58483,60.19085],[13.58403,60.19031],[13.58481,60.18923],[13.58418,60.18912],[13.58282,60.18924],[13.58248,60.18896],[13.58325,60.1884],[13.58195,60.18433],[13.58123,60.17983],[13.59205,60.17237],[13.59204,60.17105],[13.57861,60.16335],[13.54711,60.15088],[13.54557,60.15084],[13.54405,60.1504],[13.54325,60.15051],[13.54267,60.1504],[13.54264,60.15008],[13.54378,60.14951],[13.54376,60.14903],[13.54441,60.14823],[13.54487,60.14689],[13.54308,60.14601],[13.53983,60.14262],[13.53829,60.14171],[13.53472,60.14081],[13.53113,60.14077],[13.53027,60.14058],[13.52858,60.1424],[13.52754,60.14221],[13.52877,60.14016],[13.52913,60.13815],[13.5305,60.13828],[13.53153,60.13512],[13.5327,60.13379],[13.53452,60.13263],[13.53085,60.13085],[13.52988,60.13127],[13.52454,60.12991],[13.52587,60.12858],[13.51398,60.12643],[13.52096,60.11072],[13.50984,60.10973],[13.48936,60.1062],[13.47536,60.10222],[13.46712,60.08348],[13.46438,60.08408],[13.46298,60.08266],[13.46298,60.08187],[13.45969,60.08145],[13.4593,60.08003],[13.45838,60.07864],[13.4609,60.07801],[13.44357,60.06097],[13.43218,60.05376],[13.43292,60.05014],[13.43749,60.0471],[13.43953,60.04751],[13.44811,60.03671],[13.35663,60.01933],[13.35696,60.01837],[13.35651,60.01796],[13.35592,60.01792],[13.35544,60.01757],[13.35436,60.01807],[13.32152,60.01186],[13.31842,60.01091],[13.31621,60.01416],[13.31849,60.02382],[13.31306,60.0335],[13.30955,60.03345],[13.30813,60.03366],[13.30776,60.03286],[13.30649,60.03191],[13.30647,60.03153],[13.30053,60.03016],[13.29778,60.03293],[13.28649,60.0358],[13.28552,60.07863],[13.25718,60.12287],[13.21541,60.14715],[13.21663,60.14766],[13.21188,60.15028],[13.20233,60.15714],[13.19262,60.16155],[13.19043,60.16083],[13.17717,60.16868],[13.17068,60.19172],[13.16667,60.21349],[13.16483,60.22429],[13.16558,60.22621],[13.16696,60.22665],[13.1652,60.2266],[13.16399,60.22786],[13.16425,60.22822],[13.16388,60.22894],[13.16402,60.22939],[13.16542,60.23013],[13.16699,60.23053],[13.16658,60.23145],[13.16681,60.23266],[13.16565,60.23302],[13.16625,60.234],[13.16497,60.23474],[13.16482,60.23528],[13.16525,60.23596],[13.16493,60.23723],[13.16547,60.2379],[13.1672,60.23837],[13.1677,60.2389],[13.16889,60.2392],[13.17007,60.23994],[13.17169,60.2401],[13.17196,60.24093],[13.17315,60.24132],[13.17387,60.24126],[13.1742,60.24102],[13.17551,60.24074],[13.17592,60.24077],[13.1761,60.24109],[13.17714,60.2412],[13.17815,60.24162],[13.17969,60.24163],[13.18011,60.24123],[13.18108,60.24115],[13.18138,60.24187],[13.18215,60.2422],[13.18352,60.24199],[13.18329,60.24168],[13.18428,60.24122],[13.18627,60.24137],[13.18691,60.2417],[13.18661,60.24192],[13.18679,60.24218],[13.18625,60.24228],[13.18627,60.24243],[13.18717,60.24262],[13.1877,60.24317],[13.18834,60.24289],[13.18888,60.24296],[13.18938,60.2426],[13.19176,60.24285],[13.19266,60.24242],[13.19311,60.24249],[13.19362,60.24322],[13.19405,60.24336],[13.19604,60.24337],[13.19703,60.24363],[13.19698,60.24567],[13.19708,60.24585],[13.19752,60.24584],[13.19898,60.2451],[13.199,60.24415],[13.20059,60.24389],[13.20183,60.24258],[13.20334,60.24162],[13.20325,60.24085],[13.20579,60.23974],[13.20636,60.23809],[13.20888,60.23859],[13.21162,60.23813],[13.21346,60.23831],[13.21459,60.23773],[13.21587,60.2377],[13.21625,60.23746],[13.21704,60.23532],[13.2219,60.2313],[13.22333,60.23063],[13.22655,60.22999],[13.22848,60.22892],[13.22923,60.22812],[13.23196,60.22741],[13.23322,60.22668],[13.23477,60.22632],[13.23544,60.22569],[13.23527,60.22495],[13.23967,60.22456],[13.24241,60.22135],[13.24511,60.2194],[13.24986,60.21358],[13.25093,60.21346],[13.25405,60.21231],[13.2575,60.21212],[13.26075,60.21338],[13.25935,60.21509],[13.26211,60.22023],[13.32806,60.24438],[13.32814,60.24427],[13.37302,60.25112],[13.37565,60.25077],[13.4071,60.27723],[13.4069,60.27761],[13.40819,60.27844],[13.40811,60.2788],[13.40871,60.27966],[13.4104,60.28032],[13.41239,60.27923],[13.41464,60.27863],[13.41812,60.27842],[13.41959,60.27853],[13.42393,60.28018],[13.42592,60.28174],[13.42945,60.28264],[13.43232,60.28451],[13.43329,60.2858],[13.43121,60.28611],[13.43083,60.2864],[13.43106,60.28658],[13.42808,60.28826],[13.42728,60.28856],[13.42238,60.28937],[13.41987,60.28887],[13.41663,60.28973],[13.41609,60.2909],[13.4216,60.29214],[13.42123,60.29274],[13.42559,60.29577],[13.47829,60.32485],[13.48653,60.33504],[13.52895,60.38213],[13.62172,60.41439]],[[13.48944,60.19152],[13.48526,60.19097],[13.4834,60.1904],[13.48135,60.18942],[13.47983,60.18818],[13.47615,60.18326],[13.47544,60.18114],[13.4757,60.18007],[13.4765,60.17889],[13.47603,60.17807],[13.47381,60.17681],[13.47258,60.17574],[13.47097,60.17262],[13.47106,60.17106],[13.47212,60.16939],[13.47224,60.16667],[13.47374,60.16455],[13.47506,60.16365],[13.47726,60.16268],[13.48072,60.16187],[13.48416,60.16165],[13.48529,60.16059],[13.48717,60.15952],[13.49092,60.15842],[13.49249,60.15759],[13.49485,60.1568],[13.49826,60.15625],[13.50189,60.15626],[13.50462,60.15667],[13.50754,60.15742],[13.51092,60.15876],[13.51279,60.16029],[13.51358,60.16185],[13.5149,60.16303],[13.51552,60.16406],[13.51572,60.16548],[13.5152,60.1669],[13.51358,60.16849],[13.51255,60.1691],[13.51263,60.17074],[13.51156,60.17261],[13.51261,60.17477],[13.51252,60.17657],[13.51138,60.17822],[13.50986,60.17954],[13.50999,60.18225],[13.50847,60.1858],[13.50764,60.18677],[13.50511,60.18873],[13.50258,60.18999],[13.50003,60.19068],[13.49459,60.19126],[13.48944,60.19152]]]}},{"type":"Feature","id":"1783R003","properties":{"code":"1783R003","name":"Hagfors nordöst"},"geometry":{"type":"Polygon","coordinates":[[[13.67083,60.40336],[13.72118,60.36168],[13.72797,60.35573],[13.75098,60.33004],[13.79271,60.28478],[13.7958,60.28191],[13.82797,60.25477],[13.91992,60.20147],[13.99738,60.1567],[14.00995,60.11016],[14.01831,60.08105],[14.01049,60.04402],[13.99317,59.95616],[13.90768,59.93549],[13.87084,59.9393],[13.86873,59.93988],[13.86782,59.93982],[13.86774,59.94015],[13.80156,59.95805],[13.80261,59.96508],[13.80198,59.98576],[13.79244,59.99288],[13.77087,59.9929],[13.76145,60.0039],[13.76648,60.01481],[13.76301,60.02814],[13.76171,60.02812],[13.75954,60.0285],[13.75926,60.02885],[13.75861,60.02888],[13.75773,60.02993],[13.75704,60.03033],[13.75654,60.03036],[13.75581,60.03084],[13.7553,60.03077],[13.75546,60.03143],[13.756,60.03188],[13.75567,60.03239],[13.75406,60.03268],[13.75348,60.0326],[13.75212,60.03287],[13.75068,60.0329],[13.75,60.03336],[13.74897,60.03368],[13.74851,60.03416],[13.74739,60.03444],[13.7477,60.0346],[13.74745,60.03479],[13.74598,60.03526],[13.74542,60.03653],[13.74563,60.03693],[13.74499,60.03717],[13.7442,60.03811],[13.74401,60.0388],[13.74428,60.04002],[13.74307,60.04109],[13.74199,60.04128],[13.74151,60.04176],[13.74145,60.04383],[13.74096,60.04395],[13.74052,60.0446],[13.73991,60.04477],[13.73866,60.04432],[13.73766,60.04461],[13.73724,60.04442],[13.73683,60.04463],[13.73599,60.04625],[13.73627,60.04651],[13.72325,60.04902],[13.72213,60.05187],[13.72221,60.05314],[13.72166,60.05613],[13.71938,60.05902],[13.71678,60.0605],[13.71269,60.06177],[13.71057,60.06207],[13.70705,60.06212],[13.70358,60.06161],[13.69837,60.06005],[13.69528,60.05857],[13.69357,60.05687],[13.69307,60.05465],[13.68906,60.05405],[13.68718,60.05453],[13.68205,60.05526],[13.67342,60.05499],[13.67072,60.05542],[13.66715,60.05548],[13.66504,60.05524],[13.65595,60.05346],[13.65262,60.05641],[13.65013,60.05574],[13.64716,60.05463],[13.64142,60.0587],[13.63645,60.0582],[13.62856,60.06402],[13.63339,60.06433],[13.63274,60.06479],[13.63279,60.06593],[13.59392,60.06383],[13.5879,60.07672],[13.58612,60.07658],[13.58442,60.09758],[13.57399,60.09665],[13.57377,60.09876],[13.57258,60.09867],[13.57125,60.09882],[13.57215,60.10029],[13.57217,60.10237],[13.57168,60.10307],[13.57052,60.10335],[13.56899,60.1032],[13.56828,60.10292],[13.56609,60.10125],[13.56449,60.1004],[13.56384,60.10035],[13.56325,60.10078],[13.56198,60.09994],[13.5549,60.09994],[13.55494,60.10242],[13.55548,60.10476],[13.56109,60.11077],[13.56144,60.11211],[13.56114,60.11333],[13.55946,60.11586],[13.54973,60.11918],[13.54692,60.11957],[13.54544,60.12004],[13.54218,60.12204],[13.54377,60.12337],[13.5488,60.12559],[13.55081,60.12685],[13.55202,60.12862],[13.55274,60.13071],[13.55256,60.13449],[13.5516,60.13489],[13.55018,60.13483],[13.54763,60.13362],[13.54373,60.13241],[13.54021,60.13185],[13.53825,60.1318],[13.53452,60.13263],[13.53344,60.13325],[13.53153,60.13512],[13.5305,60.13828],[13.52913,60.13815],[13.52877,60.14016],[13.52754,60.14221],[13.52858,60.1424],[13.53027,60.14058],[13.53113,60.14077],[13.53421,60.14077],[13.53546,60.14094],[13.53829,60.14171],[13.53941,60.14231],[13.54308,60.14601],[13.54487,60.14689],[13.54441,60.14823],[13.54376,60.14903],[13.54378,60.14951],[13.54264,60.15008],[13.54267,60.1504],[13.54325,60.15051],[13.54405,60.1504],[13.54557,60.15084],[13.54711,60.15088],[13.57861,60.16335],[13.59204,60.17105],[13.59205,60.17237],[13.58123,60.17983],[13.58195,60.18433],[13.58325,60.1884],[13.58248,60.18896],[13.58282,60.18924],[13.58418,60.18912],[13.58481,60.18923],[13.58403,60.19031],[13.58483,60.19085],[13.58415,60.19131],[13.58404,60.19195],[13.58486,60.19274],[13.58497,60.19337],[13.58348,60.1937],[13.5836,60.19594],[13.58422,60.19704],[13.58273,60.19711],[13.58187,60.19762],[13.58067,60.19962],[13.58112,60.20034],[13.61079,60.21295],[13.60917,60.21351],[13.60812,60.21297],[13.60769,60.21437],[13.60957,60.21478],[13.61014,60.21598],[13.61693,60.21517],[13.62035,60.21507],[13.6205,60.21387],[13.62255,60.21407],[13.62262,60.21439],[13.62383,60.21491],[13.62366,60.21514],[13.62235,60.21558],[13.622,60.2164],[13.62219,60.2199],[13.62316,60.22195],[13.63503,60.22083],[13.63586,60.22411],[13.63403,60.22513],[13.63395,60.22624],[13.63332,60.22714],[13.63286,60.22903],[13.63312,60.23055],[13.6326,60.23111],[13.63202,60.23121],[13.6318,60.23159],[13.63297,60.23234],[13.63185,60.23382],[13.63194,60.23408],[13.63111,60.23481],[13.6314,60.23517],[13.63138,60.23663],[13.62981,60.24045],[13.62711,60.24259],[13.62622,60.24431],[13.62508,60.24558],[13.6245,60.24593],[13.62287,60.24624],[13.62317,60.24738],[13.62167,60.24953],[13.62189,60.25073],[13.6212,60.25126],[13.62115,60.25177],[13.62054,60.25212],[13.62103,60.25289],[13.62068,60.2546],[13.61885,60.25552],[13.61897,60.25611],[13.61829,60.25684],[13.61839,60.25732],[13.61722,60.25806],[13.61511,60.25835],[13.61448,60.25863],[13.61401,60.26002],[13.61461,60.26065],[13.61471,60.26136],[13.61535,60.26182],[13.61439,60.26282],[13.61457,60.26335],[13.61511,60.26367],[13.61504,60.26403],[13.61375,60.26463],[13.61367,60.26528],[13.61435,60.26615],[13.61356,60.26774],[13.61346,60.26867],[13.61203,60.26917],[13.61255,60.26971],[13.61164,60.26997],[13.61147,60.27132],[13.6093,60.2719],[13.60861,60.27167],[13.60767,60.27196],[13.60663,60.27476],[13.60556,60.27549],[13.60545,60.27621],[13.6066,60.27684],[13.60669,60.27721],[13.60547,60.27931],[13.60608,60.27998],[13.60618,60.2806],[13.60534,60.28122],[13.60596,60.28248],[13.60518,60.28468],[13.60589,60.28615],[13.60743,60.28678],[13.60672,60.28926],[13.60354,60.28717],[13.60214,60.28761],[13.5998,60.28783],[13.5985,60.28906],[13.59613,60.28916],[13.59449,60.29002],[13.59395,60.29131],[13.59541,60.29303],[13.59326,60.29496],[13.58582,60.29635],[13.58499,60.29873],[13.58179,60.30036],[13.58176,60.30192],[13.58014,60.30324],[13.58087,60.30442],[13.58046,60.30575],[13.5788,60.30622],[13.57721,60.30968],[13.57957,60.30972],[13.58039,60.31028],[13.58174,60.31061],[13.58197,60.31114],[13.5814,60.31265],[13.58198,60.31309],[13.58192,60.31348],[13.58296,60.31497],[13.58406,60.31534],[13.58447,60.31531],[13.58481,60.315],[13.58541,60.31522],[13.58648,60.31518],[13.5879,60.31566],[13.58933,60.31563],[13.58916,60.31622],[13.58765,60.31778],[13.58927,60.32015],[13.58919,60.32112],[13.58858,60.32209],[13.58865,60.32276],[13.58991,60.32356],[13.59275,60.32445],[13.59274,60.32501],[13.59416,60.32503],[13.59592,60.32643],[13.59675,60.32649],[13.59708,60.3267],[13.59735,60.32733],[13.59845,60.32784],[13.59818,60.32861],[13.59886,60.32998],[13.59857,60.33087],[13.59949,60.33287],[13.60106,60.33332],[13.60265,60.33427],[13.6033,60.33443],[13.60356,60.33478],[13.60454,60.33486],[13.60499,60.33553],[13.60587,60.33594],[13.60634,60.33678],[13.60639,60.33812],[13.60682,60.3386],[13.60637,60.33893],[13.60672,60.33893],[13.60683,60.33974],[13.6055,60.34052],[13.60592,60.34115],[13.60654,60.34139],[13.60683,60.34203],[13.60591,60.34301],[13.60661,60.34344],[13.60615,60.34417],[13.60678,60.3446],[13.60507,60.34612],[13.60504,60.34761],[13.60669,60.35159],[13.61529,60.35767],[13.60648,60.36444],[13.60656,60.36741],[13.60487,60.37205],[13.63168,60.37676],[13.63155,60.38569],[13.66609,60.40443],[13.67083,60.40336]]]}},{"type":"Feature","id":"1783R004","properties":{"code":"1783R004","name":"Hagfors sydväst"},"geometry":{"type":"Polygon","coordinates":[[[13.5516,60.13489],[13.55256,60.13449],[13.55291,60.13159],[13.55202,60.12862],[13.55112,60.12723],[13.55005,60.12624],[13.54377,60.12337],[13.54218,60.12204],[13.54544,60.12004],[13.54692,60.11957],[13.54973,60.11918],[13.55946,60.11586],[13.56114,60.11333],[13.56144,60.11211],[13.56109,60.11077],[13.55548,60.10476],[13.55487,60.10131],[13.55502,60.09745],[13.55601,60.09528],[13.5573,60.09368],[13.5576,60.09146],[13.55834,60.08951],[13.56071,60.08778],[13.56458,60.08571],[13.56501,60.08357],[13.56309,60.08012],[13.56264,60.07835],[13.56449,60.07409],[13.56468,60.0726],[13.56427,60.06818],[13.56373,60.06702],[13.5627,60.06597],[13.56128,60.06513],[13.55899,60.06472],[13.55657,60.06485],[13.55552,60.06432],[13.55247,60.06152],[13.55226,60.06054],[13.55278,60.05975],[13.55221,60.05977],[13.55276,60.05938],[13.55254,60.05938],[13.55321,60.05848],[13.5527,60.05828],[13.55406,60.0573],[13.55512,60.05691],[13.55592,60.05548],[13.56042,60.05288],[13.5604,60.05261],[13.56405,60.0514],[13.57581,60.04684],[13.57893,60.04534],[13.58117,60.04394],[13.58505,60.04042],[13.58836,60.03496],[13.5882,60.0348],[13.58891,60.03403],[13.5905,60.03401],[13.59103,60.03327],[13.59327,60.03302],[13.59858,60.03311],[13.60129,60.02671],[13.60123,60.02501],[13.60916,60.01786],[13.6005,60.01706],[13.59506,60.01608],[13.59279,60.01603],[13.58845,60.01554],[13.58215,60.01539],[13.57832,60.01447],[13.57495,60.01275],[13.57362,60.01149],[13.57302,60.00864],[13.57331,60.00797],[13.57446,60.00662],[13.57716,60.00501],[13.57904,60.00352],[13.57704,60.00208],[13.57597,60.00063],[13.57554,59.9989],[13.57622,59.99284],[13.58465,59.98985],[13.58756,59.98911],[13.59167,59.98842],[13.59619,59.98831],[13.59901,59.98863],[13.60176,59.98923],[13.60465,59.99031],[13.607,59.99193],[13.60913,59.99379],[13.61078,60.00087],[13.6174,60.00244],[13.62119,59.99425],[13.62704,59.98753],[13.62952,59.98143],[13.63716,59.97443],[13.64138,59.96808],[13.64439,59.95926],[13.64626,59.9583],[13.64918,59.95743],[13.65149,59.95464],[13.65174,59.9517],[13.6607,59.943],[13.662,59.94042],[13.66634,59.93651],[13.66745,59.93331],[13.66419,59.93286],[13.65905,59.9313],[13.63679,59.92211],[13.63189,59.91061],[13.6309,59.906],[13.64046,59.8744],[13.595,59.85509],[13.5931,59.85481],[13.59276,59.85501],[13.59242,59.85495],[13.59202,59.85461],[13.58983,59.85394],[13.58835,59.85395],[13.58646,59.85325],[13.58302,59.85325],[13.57759,59.85225],[13.57443,59.8522],[13.57005,59.85179],[13.5692,59.85158],[13.5679,59.85291],[13.5673,59.85294],[13.56741,59.85314],[13.56702,59.85326],[13.56739,59.85378],[13.56667,59.85396],[13.56636,59.85507],[13.5574,59.85532],[13.55799,59.85652],[13.55668,59.85915],[13.55542,59.86051],[13.55352,59.86199],[13.55123,59.86308],[13.55026,59.86378],[13.55033,59.86489],[13.55125,59.86613],[13.55754,59.87002],[13.55746,59.87164],[13.55679,59.87229],[13.55408,59.87285],[13.54544,59.87299],[13.53711,59.87384],[13.53346,59.87468],[13.52918,59.87599],[13.52677,59.87643],[13.5255,59.87532],[13.52337,59.87579],[13.52267,59.87552],[13.52245,59.87404],[13.52113,59.87395],[13.52128,59.87289],[13.52104,59.87263],[13.51959,59.87297],[13.51917,59.87358],[13.51841,59.87356],[13.51813,59.8732],[13.51855,59.87271],[13.51846,59.87238],[13.51753,59.87187],[13.51562,59.87163],[13.51498,59.87218],[13.51373,59.87243],[13.51402,59.87358],[13.51191,59.87491],[13.51148,59.87572],[13.51231,59.87631],[13.51131,59.87653],[13.50907,59.87765],[13.50777,59.87802],[13.5082,59.87837],[13.50739,59.87866],[13.50664,59.88003],[13.50684,59.88133],[13.50643,59.88209],[13.50666,59.88236],[13.43175,59.87061],[13.41038,59.86798],[13.39364,59.87368],[13.39378,59.87327],[13.39341,59.87263],[13.39114,59.87092],[13.38998,59.86963],[13.38862,59.86907],[13.38683,59.86866],[13.38557,59.86699],[13.38373,59.866],[13.38251,59.86616],[13.38341,59.87136],[13.38344,59.8745],[13.38483,59.88146],[13.3851,59.88829],[13.38461,59.88841],[13.38715,59.89234],[13.38537,59.91105],[13.38322,59.92617],[13.3481,59.9389],[13.3465,59.94128],[13.34621,59.94255],[13.3422,59.94538],[13.34184,59.94701],[13.34091,59.94773],[13.34104,59.94907],[13.33997,59.95121],[13.33952,59.95256],[13.33959,59.9535],[13.33821,59.95605],[13.33751,59.95844],[13.338,59.96041],[13.33747,59.96113],[13.33615,59.96204],[13.3362,59.96382],[13.33659,59.96421],[13.33576,59.96516],[13.33461,59.96843],[13.33459,59.97071],[13.33418,59.97106],[13.33384,59.97271],[13.33339,59.97307],[13.33331,59.97398],[13.33215,59.97571],[13.33218,59.97649],[13.33143,59.97753],[13.33181,59.97983],[13.33129,59.98234],[13.3317,59.98369],[13.33145,59.98575],[13.33229,59.98749],[13.33171,59.9877],[13.33128,59.9875],[13.32923,59.98782],[13.32843,59.98928],[13.32844,59.99073],[13.31978,59.99445],[13.31824,59.99762],[13.31928,60.00963],[13.31842,60.01091],[13.32152,60.01186],[13.35436,60.01807],[13.35544,60.01757],[13.35592,60.01792],[13.35651,60.01796],[13.35696,60.01837],[13.35663,60.01933],[13.44811,60.03671],[13.43953,60.04751],[13.43749,60.0471],[13.43292,60.05014],[13.43218,60.05376],[13.44357,60.06097],[13.4609,60.07801],[13.45838,60.07864],[13.4593,60.08003],[13.45969,60.08145],[13.46298,60.08187],[13.46298,60.08266],[13.46438,60.08408],[13.46712,60.08348],[13.47536,60.10222],[13.48936,60.1062],[13.50984,60.10973],[13.52096,60.11072],[13.51398,60.12643],[13.52587,60.12858],[13.52454,60.12991],[13.52988,60.13127],[13.53085,60.13085],[13.53452,60.13263],[13.53825,60.1318],[13.54021,60.13185],[13.54373,60.13241],[13.54763,60.13362],[13.54972,60.13472],[13.5516,60.13489]]]}},{"type":"Feature","id":"1783R005","properties":{"code":"1783R005","name":"Hagfors sydöst"},"geometry":{"type":"Polygon","coordinates":[[[13.57123,60.10324],[13.57204,60.10281],[13.57217,60.10237],[13.57215,60.10029],[13.57125,60.09882],[13.57258,60.09867],[13.57377,60.09876],[13.57399,60.09665],[13.58442,60.09758],[13.58612,60.07658],[13.5879,60.07672],[13.59392,60.06383],[13.63279,60.06593],[13.63274,60.06479],[13.63339,60.06433],[13.62856,60.06402],[13.63645,60.0582],[13.64142,60.0587],[13.64716,60.05463],[13.65013,60.05574],[13.65262,60.05641],[13.65595,60.05346],[13.65279,60.05242],[13.65222,60.04752],[13.6524,60.04669],[13.65319,60.04679],[13.65377,60.04598],[13.65551,60.04451],[13.65619,60.04294],[13.65777,60.04133],[13.66024,60.04],[13.66303,60.03915],[13.66446,60.03752],[13.66691,60.03594],[13.6644,60.03413],[13.66355,60.03273],[13.66339,60.03156],[13.6621,60.03047],[13.66092,60.02879],[13.66048,60.0277],[13.66051,60.02642],[13.65962,60.02447],[13.65987,60.023],[13.66083,60.02164],[13.66241,60.02046],[13.6647,60.01946],[13.66472,60.01916],[13.66455,60.01881],[13.66207,60.01801],[13.6597,60.01664],[13.65783,60.01484],[13.65712,60.01312],[13.65736,60.01168],[13.65851,60.00984],[13.65965,60.00878],[13.66309,60.0066],[13.66532,60.00572],[13.66814,60.00509],[13.67174,60.00397],[13.67438,60.00347],[13.67656,60.00327],[13.67939,60.00332],[13.68222,60.00375],[13.68647,60.00396],[13.68912,60.00454],[13.69184,60.00569],[13.69308,60.00658],[13.69419,60.00792],[13.69491,60.00975],[13.69477,60.0112],[13.69581,60.01343],[13.69895,60.01407],[13.7018,60.01531],[13.70378,60.01564],[13.70675,60.01651],[13.70899,60.01763],[13.71231,60.01985],[13.7135,60.02081],[13.71565,60.02337],[13.71616,60.02446],[13.7162,60.02583],[13.7172,60.02699],[13.71829,60.02802],[13.72047,60.029],[13.72218,60.0303],[13.72312,60.03169],[13.72348,60.03329],[13.72696,60.03489],[13.7291,60.03675],[13.72971,60.03851],[13.72925,60.04088],[13.72786,60.04252],[13.72471,60.04453],[13.7239,60.04632],[13.72325,60.04902],[13.73627,60.04651],[13.73599,60.04625],[13.73701,60.04451],[13.73746,60.0444],[13.73766,60.04461],[13.73839,60.04429],[13.73991,60.04477],[13.74052,60.0446],[13.74096,60.04395],[13.74145,60.04383],[13.74151,60.04176],[13.74199,60.04128],[13.74307,60.04109],[13.74428,60.04002],[13.74401,60.0388],[13.7442,60.03811],[13.74499,60.03717],[13.74563,60.03693],[13.74542,60.03653],[13.74598,60.03526],[13.74745,60.03479],[13.7477,60.0346],[13.74739,60.03444],[13.74851,60.03416],[13.74897,60.03368],[13.75,60.03336],[13.75068,60.0329],[13.75212,60.03287],[13.75348,60.0326],[13.75406,60.03268],[13.75567,60.03239],[13.756,60.03188],[13.75546,60.03143],[13.7553,60.03077],[13.75581,60.03084],[13.75654,60.03036],[13.75704,60.03033],[13.75773,60.02993],[13.75861,60.02888],[13.75926,60.02885],[13.75954,60.0285],[13.76171,60.02812],[13.76301,60.02814],[13.76648,60.01481],[13.76145,60.0039],[13.77087,59.9929],[13.79244,59.99288],[13.80198,59.98576],[13.80261,59.96508],[13.80156,59.95805],[13.86774,59.94015],[13.86782,59.93982],[13.86873,59.93988],[13.87084,59.9393],[13.90768,59.93549],[13.90789,59.89246],[13.90425,59.89245],[13.90336,59.89041],[13.90704,59.88691],[13.90463,59.884],[13.90616,59.88105],[13.90452,59.8791],[13.9007,59.87741],[13.90031,59.87702],[13.89829,59.87389],[13.89803,59.8726],[13.89684,59.87026],[13.89451,59.86991],[13.89354,59.86911],[13.86557,59.8688],[13.86182,59.86858],[13.86044,59.86787],[13.856,59.86717],[13.85638,59.86521],[13.85743,59.86338],[13.85816,59.85832],[13.85864,59.85784],[13.8598,59.85511],[13.86072,59.85447],[13.86184,59.85054],[13.86287,59.84973],[13.86276,59.84947],[13.86385,59.84841],[13.86411,59.84714],[13.86537,59.84513],[13.86585,59.84499],[13.86581,59.84471],[13.86379,59.84386],[13.86286,59.84293],[13.86107,59.84199],[13.86081,59.84157],[13.861,59.84053],[13.86046,59.84015],[13.86036,59.83952],[13.86097,59.839],[13.86062,59.83751],[13.86129,59.83717],[13.86129,59.83613],[13.86077,59.83571],[13.86077,59.83521],[13.86433,59.82856],[13.86115,59.82705],[13.86087,59.82051],[13.86379,59.81515],[13.86337,59.81433],[13.86277,59.81397],[13.86339,59.81358],[13.86401,59.81399],[13.86526,59.81383],[13.86568,59.81392],[13.86586,59.81421],[13.86556,59.81463],[13.86742,59.81496],[13.86882,59.81505],[13.87151,59.81474],[13.87335,59.81546],[13.87508,59.81545],[13.87815,59.81399],[13.87894,59.81327],[13.88119,59.81237],[13.8818,59.81251],[13.88226,59.81305],[13.88466,59.81412],[13.88992,59.81157],[13.89009,59.81032],[13.89064,59.80963],[13.89175,59.80895],[13.89354,59.80696],[13.89291,59.80685],[13.89316,59.80647],[13.89381,59.80659],[13.89394,59.80596],[13.89555,59.80542],[13.89607,59.80591],[13.89746,59.80594],[13.89764,59.80625],[13.89828,59.80637],[13.89965,59.80627],[13.90069,59.80677],[13.90175,59.80666],[13.90307,59.80627],[13.90449,59.80533],[13.90543,59.80411],[13.906,59.80208],[13.90568,59.80047],[13.90677,59.79983],[13.9086,59.79975],[13.91019,59.79942],[13.91134,59.79842],[13.9133,59.79753],[13.8293,59.78129],[13.80985,59.77829],[13.80787,59.78058],[13.80494,59.78007],[13.80529,59.77982],[13.80647,59.77957],[13.80723,59.77789],[13.78189,59.774],[13.73234,59.76726],[13.69741,59.76833],[13.6868,59.7725],[13.68648,59.77363],[13.68283,59.77561],[13.67506,59.7764],[13.67325,59.77712],[13.67156,59.77745],[13.66916,59.77701],[13.6674,59.77719],[13.66624,59.77706],[13.66483,59.77716],[13.66454,59.77742],[13.66406,59.77726],[13.66249,59.77753],[13.66254,59.77788],[13.66154,59.77797],[13.66131,59.77829],[13.66066,59.77851],[13.65713,59.77839],[13.65672,59.77804],[13.65728,59.77766],[13.65722,59.77734],[13.65642,59.77744],[13.65466,59.7773],[13.65379,59.77803],[13.65331,59.77822],[13.65295,59.77803],[13.65257,59.77812],[13.65267,59.77845],[13.65142,59.77904],[13.64947,59.77889],[13.6481,59.77932],[13.64631,59.77953],[13.64618,59.77921],[13.64531,59.77894],[13.64281,59.77911],[13.64251,59.77888],[13.64171,59.77942],[13.64164,59.77985],[13.6403,59.78064],[13.6399,59.78135],[13.63892,59.78188],[13.6378,59.7821],[13.63711,59.78252],[13.63571,59.78292],[13.63224,59.78249],[13.6301,59.78245],[13.62905,59.78168],[13.62833,59.78148],[13.62604,59.78132],[13.62548,59.78161],[13.62447,59.78157],[13.62409,59.78192],[13.62358,59.78199],[13.62257,59.7794],[13.62203,59.77923],[13.62023,59.77955],[13.62029,59.78159],[13.62161,59.78651],[13.62287,59.78824],[13.62296,59.79098],[13.62225,59.79269],[13.62267,59.79329],[13.62226,59.7935],[13.62246,59.79408],[13.62204,59.79449],[13.62221,59.79561],[13.62184,59.79618],[13.62187,59.79676],[13.62235,59.79713],[13.62168,59.79865],[13.62263,59.80002],[13.62301,59.8019],[13.62378,59.8029],[13.62397,59.80372],[13.62529,59.80544],[13.62635,59.80917],[13.62687,59.80955],[13.62776,59.81108],[13.62795,59.81352],[13.62907,59.81429],[13.62932,59.81538],[13.62991,59.81555],[13.61778,59.81908],[13.63538,59.86079],[13.64046,59.8744],[13.6309,59.906],[13.63189,59.91061],[13.63679,59.92211],[13.65905,59.9313],[13.66419,59.93286],[13.66745,59.93331],[13.66634,59.93651],[13.662,59.94042],[13.6607,59.943],[13.65174,59.9517],[13.65149,59.95464],[13.64918,59.95743],[13.64626,59.9583],[13.64439,59.95926],[13.64138,59.96808],[13.63716,59.97443],[13.62952,59.98143],[13.62704,59.98753],[13.62119,59.99425],[13.6174,60.00244],[13.63458,60.00628],[13.63709,60.00881],[13.63774,60.01068],[13.63722,60.01246],[13.63585,60.01397],[13.63296,60.0157],[13.63387,60.01733],[13.636,60.01903],[13.63697,60.02042],[13.6373,60.022],[13.63695,60.02607],[13.63842,60.02796],[13.63871,60.0299],[13.64236,60.03275],[13.64363,60.03442],[13.64389,60.03659],[13.64295,60.03827],[13.64052,60.03995],[13.63737,60.04103],[13.63259,60.04164],[13.62858,60.04244],[13.62428,60.04243],[13.62089,60.0418],[13.6176,60.04057],[13.61546,60.03914],[13.61385,60.03711],[13.61266,60.03704],[13.60776,60.03737],[13.6042,60.0372],[13.59937,60.03593],[13.59569,60.03303],[13.59327,60.03302],[13.59103,60.03327],[13.5905,60.03401],[13.58891,60.03403],[13.5882,60.0348],[13.58836,60.03496],[13.58505,60.04042],[13.58117,60.04394],[13.57893,60.04534],[13.57581,60.04684],[13.56405,60.0514],[13.5604,60.05261],[13.56042,60.05288],[13.55592,60.05548],[13.55512,60.05691],[13.55406,60.0573],[13.5527,60.05828],[13.55321,60.05848],[13.55254,60.05938],[13.55276,60.05938],[13.55221,60.05977],[13.55278,60.05975],[13.55226,60.06054],[13.55247,60.06152],[13.55552,60.06432],[13.55657,60.06485],[13.55899,60.06472],[13.56128,60.06513],[13.5627,60.06597],[13.56373,60.06702],[13.56427,60.06818],[13.56468,60.0726],[13.56449,60.07409],[13.56264,60.07835],[13.56309,60.08012],[13.56484,60.08301],[13.56481,60.08524],[13.56415,60.08603],[13.56071,60.08778],[13.55834,60.08951],[13.5576,60.09146],[13.5573,60.09368],[13.55601,60.09528],[13.55502,60.09745],[13.5549,60.09994],[13.56198,60.09994],[13.56325,60.10078],[13.56384,60.10035],[13.56449,60.1004],[13.56609,60.10125],[13.56828,60.10292],[13.56964,60.10332],[13.57123,60.10324]]]}},{"type":"Feature","id":"1783R006","properties":{"code":"1783R006","name":"Hagfors tätort"},"geometry":{"type":"Polygon","coordinates":[[[13.72166,60.05613],[13.72221,60.05314],[13.72213,60.05187],[13.72471,60.04453],[13.72786,60.04252],[13.72941,60.04052],[13.72967,60.03814],[13.72855,60.0361],[13.72696,60.03489],[13.72348,60.03329],[13.72312,60.03169],[13.72247,60.03061],[13.7209,60.02926],[13.71829,60.02802],[13.7172,60.02699],[13.7162,60.02583],[13.71616,60.02446],[13.71565,60.02337],[13.7135,60.02081],[13.71231,60.01985],[13.70899,60.01763],[13.70675,60.01651],[13.70378,60.01564],[13.7018,60.01531],[13.69895,60.01407],[13.69581,60.01343],[13.69477,60.0112],[13.69491,60.00975],[13.69419,60.00792],[13.69308,60.00658],[13.69184,60.00569],[13.68847,60.00436],[13.68509,60.0038],[13.68222,60.00375],[13.68007,60.00338],[13.67724,60.00324],[13.67444,60.00346],[13.67174,60.00397],[13.66814,60.00509],[13.66532,60.00572],[13.66305,60.00661],[13.65923,60.00912],[13.65736,60.01168],[13.65717,60.01346],[13.65841,60.01549],[13.66053,60.01722],[13.66261,60.01823],[13.66455,60.01881],[13.66472,60.01916],[13.6647,60.01946],[13.66241,60.02046],[13.66083,60.02164],[13.65987,60.023],[13.65962,60.02447],[13.66051,60.02642],[13.66048,60.0277],[13.66092,60.02879],[13.6621,60.03047],[13.66339,60.03156],[13.66355,60.03273],[13.6644,60.03413],[13.66691,60.03594],[13.66446,60.03752],[13.66303,60.03915],[13.66024,60.04],[13.65777,60.04133],[13.65619,60.04294],[13.65551,60.04451],[13.65377,60.04598],[13.65319,60.04679],[13.6524,60.04669],[13.65222,60.04752],[13.65279,60.05242],[13.65595,60.05346],[13.66504,60.05524],[13.66715,60.05548],[13.67072,60.05542],[13.67342,60.05499],[13.68205,60.05526],[13.68718,60.05453],[13.68906,60.05405],[13.69307,60.05465],[13.69357,60.05687],[13.69478,60.05821],[13.69662,60.05935],[13.69837,60.06005],[13.70358,60.06161],[13.70705,60.06212],[13.71057,60.06207],[13.71269,60.06177],[13.71678,60.0605],[13.71938,60.05902],[13.72166,60.05613]]]}},{"type":"Feature","id":"1783R007","properties":{"code":"1783R007","name":"Råda-Uddeholm"},"geometry":{"type":"Polygon","coordinates":[[[13.62711,60.04253],[13.62929,60.04236],[13.63259,60.04164],[13.63609,60.04128],[13.63943,60.04041],[13.64228,60.03888],[13.64322,60.03795],[13.64389,60.03661],[13.64376,60.03478],[13.64301,60.03342],[13.63871,60.0299],[13.63842,60.02796],[13.63695,60.02607],[13.6373,60.022],[13.63697,60.02042],[13.636,60.01903],[13.63387,60.01733],[13.63296,60.0157],[13.63585,60.01397],[13.63722,60.01246],[13.63774,60.01068],[13.63709,60.00881],[13.63458,60.00628],[13.61078,60.00087],[13.60933,59.99412],[13.607,59.99193],[13.60462,59.99029],[13.60176,59.98923],[13.59901,59.98863],[13.59619,59.98831],[13.59235,59.98835],[13.58756,59.98911],[13.58465,59.98985],[13.57622,59.99284],[13.57554,59.9989],[13.57597,60.00063],[13.57704,60.00208],[13.57904,60.00352],[13.57716,60.00501],[13.57446,60.00662],[13.57331,60.00797],[13.57302,60.00864],[13.57362,60.01149],[13.57495,60.01275],[13.57719,60.01399],[13.57888,60.01467],[13.58149,60.01529],[13.5857,60.01558],[13.58845,60.01554],[13.59279,60.01603],[13.59506,60.01608],[13.6005,60.01706],[13.60916,60.01786],[13.60123,60.02501],[13.60129,60.02671],[13.59858,60.03311],[13.59569,60.03303],[13.59991,60.03614],[13.6042,60.0372],[13.6056,60.03733],[13.61385,60.03711],[13.61546,60.03914],[13.61819,60.04084],[13.62222,60.04212],[13.62428,60.04243],[13.62711,60.04253]]]}}]}