{"type":"FeatureCollection","features":[{"type":"Feature","id":"1785R001","properties":{"code":"1785R001","name":"Annelund-Billerud-Lugnadal"},"geometry":{"type":"Polygon","coordinates":[[[12.90038,59.15382],[12.90449,59.15331],[12.90682,59.15278],[12.90914,59.15192],[12.91272,59.15153],[12.91439,59.15113],[12.9163,59.15047],[12.91822,59.1495],[12.92168,59.14983],[12.92183,59.14862],[12.92049,59.14691],[12.91938,59.14709],[12.91823,59.14695],[12.91757,59.14646],[12.91762,59.14528],[12.91851,59.14364],[12.9217,59.1401],[12.92215,59.13875],[12.92181,59.13686],[12.92344,59.13623],[12.92105,59.13575],[12.91523,59.13577],[12.91223,59.13555],[12.90018,59.13211],[12.89158,59.13012],[12.88999,59.13595],[12.88585,59.13612],[12.88597,59.13827],[12.88542,59.13925],[12.884,59.14046],[12.88306,59.14173],[12.88268,59.14378],[12.88328,59.14515],[12.88634,59.14914],[12.88988,59.15165],[12.89202,59.15259],[12.89388,59.1531],[12.89691,59.15362],[12.90038,59.15382]]]}},{"type":"Feature","id":"1785R002","properties":{"code":"1785R002","name":"Höglunda-Hermes-Norelund"},"geometry":{"type":"Polygon","coordinates":[[[12.88999,59.13595],[12.89158,59.13012],[12.90018,59.13211],[12.90979,59.13495],[12.91048,59.13438],[12.91081,59.13336],[12.90993,59.13306],[12.91053,59.13252],[12.9099,59.13208],[12.90661,59.12564],[12.90704,59.12453],[12.87921,59.1179],[12.87657,59.12011],[12.87552,59.12175],[12.87544,59.12317],[12.87592,59.12466],[12.87488,59.12593],[12.87425,59.12736],[12.87464,59.12959],[12.87663,59.13158],[12.8788,59.13266],[12.88129,59.13339],[12.88536,59.13408],[12.88585,59.13612],[12.88999,59.13595]]]}},{"type":"Feature","id":"1785R003","properties":{"code":"1785R003","name":"Långserud-Gillberga-Nysäter"},"geometry":{"type":"Polygon","coordinates":[[[12.89125,59.44803],[12.89944,59.44462],[12.90447,59.44495],[12.90633,59.44323],[12.91294,59.44651],[12.91241,59.44324],[12.91003,59.44155],[12.90589,59.44095],[12.90338,59.43092],[12.89364,59.42347],[12.89834,59.41945],[12.9151,59.41298],[12.92155,59.40671],[12.92413,59.40237],[12.92798,59.39941],[12.92466,59.39754],[12.92337,59.39749],[12.92283,59.39724],[12.92283,59.39699],[12.92129,59.39649],[12.92076,59.39601],[12.91973,59.39594],[12.91995,59.39565],[12.919,59.39542],[12.91702,59.39415],[12.91524,59.39252],[12.91292,59.39087],[12.9109,59.39031],[12.91079,59.38931],[12.90987,59.38808],[12.90931,59.38796],[12.90861,59.38713],[12.90814,59.3871],[12.90712,59.38628],[12.90683,59.38542],[12.90751,59.38451],[12.90774,59.38357],[12.91072,59.38006],[12.91165,59.37976],[12.91264,59.37585],[12.91223,59.37507],[12.911,59.37468],[12.91044,59.37373],[12.9008,59.37216],[12.90068,59.35461],[12.90217,59.34751],[12.90304,59.34645],[12.91066,59.34087],[12.91236,59.32895],[12.91528,59.31401],[12.91342,59.29944],[12.91145,59.29439],[12.91027,59.28758],[12.90699,59.27991],[12.90902,59.27988],[12.9109,59.28046],[12.91279,59.27997],[12.9143,59.28052],[12.91458,59.28161],[12.91433,59.28227],[12.91481,59.28279],[12.91675,59.28229],[12.91736,59.28327],[12.91837,59.28365],[12.92015,59.28361],[12.9212,59.28323],[12.92156,59.28193],[12.92041,59.28006],[12.92264,59.27767],[12.92163,59.27723],[12.9184,59.27476],[12.91626,59.27413],[12.91598,59.2743],[12.91557,59.27421],[12.91539,59.27389],[12.915,59.2738],[12.91469,59.27277],[12.91566,59.27114],[12.91652,59.2706],[12.91853,59.27009],[12.92006,59.26643],[12.92033,59.26387],[12.91977,59.2633],[12.91829,59.26306],[12.91778,59.26277],[12.91713,59.26181],[12.91615,59.26139],[12.91539,59.26138],[12.9153,59.26086],[12.91483,59.26058],[12.91495,59.258],[12.9166,59.25772],[12.91613,59.25636],[12.91674,59.25503],[12.91638,59.25415],[12.91704,59.25137],[12.9173,59.25099],[12.91868,59.25037],[12.9113,59.24919],[12.90462,59.24762],[12.89587,59.24652],[12.89183,59.24643],[12.8813,59.24852],[12.87597,59.24879],[12.86348,59.24708],[12.8275,59.24834],[12.8152,59.24741],[12.81199,59.24763],[12.81228,59.24813],[12.81212,59.2485],[12.81027,59.24963],[12.80915,59.25499],[12.80826,59.25583],[12.80563,59.2568],[12.8049,59.25739],[12.804,59.25966],[12.80221,59.26131],[12.77985,59.25806],[12.77342,59.25419],[12.77331,59.25551],[12.77009,59.25544],[12.77012,59.25584],[12.76767,59.25687],[12.76718,59.25751],[12.76806,59.25801],[12.76279,59.25841],[12.76041,59.25634],[12.76136,59.25539],[12.76108,59.25497],[12.75804,59.25326],[12.75994,59.25133],[12.76099,59.25214],[12.76204,59.25261],[12.76391,59.25083],[12.75182,59.24582],[12.74295,59.24125],[12.73864,59.24327],[12.73335,59.24619],[12.73093,59.24672],[12.7273,59.24804],[12.72565,59.24805],[12.72363,59.24733],[12.72267,59.24812],[12.71808,59.24798],[12.70034,59.2528],[12.69335,59.25343],[12.68557,59.25083],[12.66794,59.23877],[12.65916,59.2316],[12.64878,59.21908],[12.64565,59.21281],[12.62532,59.20819],[12.62389,59.2043],[12.6198,59.20361],[12.61112,59.20724],[12.61282,59.21081],[12.61637,59.22406],[12.6139,59.22822],[12.61501,59.23252],[12.61199,59.23559],[12.61126,59.23764],[12.5992,59.25291],[12.60405,59.26012],[12.59861,59.26337],[12.59854,59.26754],[12.58856,59.27778],[12.58601,59.28096],[12.58954,59.28906],[12.58297,59.3087],[12.46382,59.31051],[12.46252,59.31339],[12.46572,59.31888],[12.46482,59.32661],[12.45809,59.33585],[12.4655,59.34323],[12.46955,59.35488],[12.47293,59.35951],[12.47755,59.36128],[12.48149,59.37158],[12.46868,59.37438],[12.44987,59.38173],[12.45035,59.38246],[12.44988,59.3831],[12.45029,59.38368],[12.45001,59.38469],[12.45213,59.38477],[12.45713,59.3835],[12.46019,59.38353],[12.46147,59.38332],[12.46253,59.38363],[12.46402,59.38371],[12.46527,59.38476],[12.46628,59.38692],[12.46993,59.39233],[12.48533,59.39899],[12.50376,59.41079],[12.50748,59.41225],[12.50914,59.41532],[12.51319,59.41291],[12.51415,59.41025],[12.51509,59.40948],[12.51904,59.40308],[12.55473,59.38938],[12.55868,59.38727],[12.59975,59.38485],[12.60542,59.38639],[12.60738,59.38638],[12.60862,59.38593],[12.60912,59.38639],[12.61013,59.38852],[12.6117,59.38975],[12.61284,59.39041],[12.61421,59.3907],[12.6149,59.3918],[12.61725,59.39196],[12.61884,59.39279],[12.61931,59.39468],[12.62191,59.39606],[12.62085,59.3978],[12.62152,59.40028],[12.62459,59.39972],[12.62888,59.39727],[12.62999,59.39602],[12.6334,59.39509],[12.63619,59.39271],[12.63839,59.39221],[12.64187,59.3907],[12.64548,59.39039],[12.66434,59.39371],[12.6749,59.39258],[12.69153,59.39268],[12.70417,59.39002],[12.72654,59.39292],[12.75047,59.39908],[12.77213,59.40206],[12.79166,59.40965],[12.79962,59.40545],[12.80545,59.40996],[12.80716,59.41067],[12.80925,59.41102],[12.81434,59.41241],[12.832,59.42489],[12.84046,59.42987],[12.86041,59.43188],[12.86828,59.43173],[12.87027,59.4344],[12.87828,59.43645],[12.89125,59.44803]]]}},{"type":"Feature","id":"1785R004","properties":{"code":"1785R004","name":"Olof Trätälja-Villan-Flå"},"geometry":{"type":"Polygon","coordinates":[[[12.92392,59.13464],[12.92581,59.13366],[12.92663,59.13366],[12.92725,59.1326],[12.92566,59.12987],[12.9244,59.12884],[12.9245,59.12791],[12.92533,59.1275],[12.92634,59.12492],[12.92618,59.12411],[12.92311,59.12195],[12.92225,59.12107],[12.91961,59.11665],[12.91874,59.11477],[12.91894,59.11448],[12.92019,59.11391],[12.92039,59.11293],[12.91758,59.11086],[12.91601,59.11005],[12.9135,59.11033],[12.91029,59.11104],[12.90697,59.11234],[12.90442,59.11254],[12.90202,59.11297],[12.89983,59.11257],[12.89627,59.11235],[12.89351,59.11246],[12.89151,59.11278],[12.88711,59.11424],[12.88556,59.11497],[12.88409,59.11606],[12.88126,59.11685],[12.87921,59.1179],[12.90704,59.12453],[12.90661,59.12564],[12.9099,59.13208],[12.91053,59.13252],[12.90993,59.13306],[12.91081,59.13336],[12.91048,59.13438],[12.90979,59.13495],[12.91223,59.13555],[12.91375,59.13571],[12.9196,59.13567],[12.92105,59.13575],[12.92344,59.13623],[12.92392,59.13464]]]}},{"type":"Feature","id":"1785R005","properties":{"code":"1785R005","name":"Rolfserud-Tingvalla-Treabackarna"},"geometry":{"type":"Polygon","coordinates":[[[12.95687,59.15355],[12.95996,59.15313],[12.96145,59.15273],[12.96335,59.15208],[12.9653,59.15103],[12.96707,59.14912],[12.96759,59.14639],[12.96974,59.14498],[12.97092,59.14331],[12.97106,59.14124],[12.97149,59.14001],[12.97094,59.13786],[12.96877,59.13562],[12.96644,59.13417],[12.96471,59.13271],[12.96232,59.13153],[12.96221,59.13557],[12.95081,59.13517],[12.94885,59.1387],[12.9474,59.13911],[12.94681,59.13971],[12.94579,59.13995],[12.94563,59.14044],[12.94478,59.14059],[12.94424,59.13988],[12.94371,59.13978],[12.9432,59.13858],[12.93419,59.13341],[12.93374,59.13268],[12.92725,59.1326],[12.92663,59.13366],[12.92581,59.13366],[12.92392,59.13464],[12.92344,59.13623],[12.92181,59.13686],[12.92215,59.13875],[12.9217,59.1401],[12.91851,59.14364],[12.91762,59.14528],[12.91757,59.14646],[12.91823,59.14695],[12.91938,59.14709],[12.92049,59.14691],[12.92183,59.14862],[12.92168,59.14983],[12.92437,59.14984],[12.92766,59.14939],[12.93138,59.1503],[12.93506,59.15061],[12.9378,59.15158],[12.93977,59.15196],[12.94256,59.15216],[12.94638,59.15184],[12.95199,59.15328],[12.95476,59.15357],[12.95687,59.15355]]]}},{"type":"Feature","id":"1785R006","properties":{"code":"1785R006","name":"Rudsbyn-Svanskog"},"geometry":{"type":"Polygon","coordinates":[[[12.58297,59.3087],[12.58954,59.28906],[12.58601,59.28096],[12.58856,59.27778],[12.59854,59.26754],[12.59861,59.26337],[12.60405,59.26012],[12.5992,59.25291],[12.61126,59.23764],[12.61199,59.23559],[12.61501,59.23252],[12.6139,59.22822],[12.61637,59.22406],[12.61282,59.21081],[12.61112,59.20724],[12.6198,59.20361],[12.62389,59.2043],[12.62532,59.20819],[12.64565,59.21281],[12.64199,59.20543],[12.64275,59.20082],[12.64318,59.1873],[12.64974,59.18594],[12.63493,59.18095],[12.63097,59.17752],[12.62978,59.17585],[12.62827,59.17494],[12.62638,59.17227],[12.62397,59.17167],[12.62418,59.17021],[12.62457,59.1696],[12.62436,59.16866],[12.62505,59.16662],[12.62924,59.16619],[12.63008,59.16434],[12.62458,59.16113],[12.62276,59.15937],[12.62052,59.1557],[12.618,59.1536],[12.61902,59.1417],[12.61112,59.13738],[12.60298,59.1334],[12.59806,59.1302],[12.58889,59.1289],[12.58921,59.12823],[12.59078,59.12718],[12.59109,59.12667],[12.59092,59.12563],[12.59129,59.12549],[12.59143,59.12499],[12.59111,59.12428],[12.5917,59.12373],[12.59153,59.12312],[12.59048,59.12204],[12.59047,59.12077],[12.5903,59.12056],[12.58848,59.12009],[12.58371,59.11803],[12.58164,59.11456],[12.5819,59.11342],[12.57785,59.11202],[12.57511,59.11189],[12.57298,59.11425],[12.56804,59.11497],[12.56339,59.11499],[12.56092,59.11867],[12.55946,59.11953],[12.55844,59.12088],[12.55539,59.12219],[12.55072,59.12309],[12.54939,59.12423],[12.54744,59.12467],[12.54764,59.12553],[12.54736,59.12578],[12.54306,59.12564],[12.54096,59.12589],[12.53912,59.12537],[12.53828,59.12541],[12.5171,59.13077],[12.49344,59.12605],[12.48627,59.1274],[12.47757,59.12767],[12.46216,59.1304],[12.45742,59.13216],[12.46849,59.14019],[12.46581,59.14114],[12.4623,59.14317],[12.45795,59.14458],[12.46066,59.1528],[12.46019,59.15264],[12.45916,59.15281],[12.45876,59.15312],[12.45909,59.1534],[12.4583,59.15393],[12.45736,59.15425],[12.45617,59.15431],[12.45596,59.15445],[12.45626,59.155],[12.45517,59.15522],[12.45342,59.15636],[12.45297,59.1569],[12.45211,59.15729],[12.45146,59.15729],[12.45148,59.15783],[12.45026,59.15834],[12.4482,59.1583],[12.44681,59.15912],[12.44308,59.15997],[12.4358,59.16126],[12.43435,59.16216],[12.43324,59.16225],[12.43124,59.16176],[12.42316,59.16347],[12.41508,59.1691],[12.41915,59.17214],[12.42039,59.17494],[12.434,59.17538],[12.44205,59.17358],[12.45452,59.17369],[12.45462,59.17427],[12.45562,59.17478],[12.45587,59.17577],[12.45721,59.17656],[12.45745,59.17731],[12.45813,59.178],[12.46044,59.17922],[12.46061,59.18048],[12.46247,59.18181],[12.4587,59.19285],[12.45379,59.19388],[12.45111,59.19382],[12.44848,59.19426],[12.44013,59.19448],[12.43827,59.19348],[12.43294,59.19337],[12.42909,59.19301],[12.42474,59.19304],[12.42242,59.19261],[12.4237,59.19658],[12.42393,59.20034],[12.42312,59.20962],[12.42793,59.21934],[12.42769,59.22011],[12.42819,59.22253],[12.43677,59.22279],[12.44454,59.22856],[12.44093,59.25073],[12.45086,59.24781],[12.45801,59.24745],[12.46237,59.24839],[12.46411,59.24824],[12.46574,59.24853],[12.4674,59.24823],[12.46768,59.24843],[12.46875,59.24859],[12.47124,59.24817],[12.47167,59.24833],[12.47382,59.24825],[12.47441,59.24929],[12.47523,59.24932],[12.47559,59.24905],[12.47592,59.24923],[12.47537,59.25029],[12.47534,59.2521],[12.47424,59.25259],[12.47449,59.25325],[12.47382,59.2538],[12.47446,59.25451],[12.47466,59.25538],[12.47409,59.25696],[12.47435,59.25752],[12.47373,59.25827],[12.47425,59.25914],[12.47369,59.26146],[12.47456,59.26249],[12.47411,59.26749],[12.4701,59.26771],[12.4713,59.26965],[12.46933,59.27038],[12.46817,59.27156],[12.46563,59.27174],[12.46463,59.27279],[12.46257,59.27412],[12.46086,59.2785],[12.46015,59.27894],[12.46189,59.28012],[12.46227,59.28077],[12.46203,59.28111],[12.46277,59.28161],[12.46286,59.28239],[12.46329,59.28287],[12.46301,59.28353],[12.46482,59.28517],[12.4647,59.28581],[12.46341,59.28721],[12.46337,59.2877],[12.46509,59.29285],[12.46762,59.29351],[12.46988,59.29465],[12.46864,59.29521],[12.46768,59.29809],[12.46902,59.29943],[12.47074,59.30049],[12.46603,59.30564],[12.46382,59.31051],[12.58297,59.3087]]]}},{"type":"Feature","id":"1785R007","properties":{"code":"1785R007","name":"Sundstorp-Sund-Tuvan"},"geometry":{"type":"Polygon","coordinates":[[[12.94563,59.14044],[12.94579,59.13995],[12.94681,59.13971],[12.9474,59.13911],[12.94885,59.1387],[12.95081,59.13517],[12.96221,59.13557],[12.96225,59.1294],[12.95538,59.12493],[12.95383,59.12449],[12.95188,59.12187],[12.94865,59.1199],[12.94611,59.11908],[12.94347,59.11866],[12.93971,59.11858],[12.93696,59.11879],[12.93314,59.11865],[12.93155,59.11876],[12.92864,59.11461],[12.92554,59.11204],[12.92351,59.11108],[12.92103,59.11039],[12.9183,59.11006],[12.91601,59.11005],[12.91758,59.11086],[12.92039,59.11293],[12.92019,59.11391],[12.91894,59.11448],[12.91874,59.11477],[12.91961,59.11665],[12.92225,59.12107],[12.92311,59.12195],[12.92618,59.12411],[12.92634,59.12492],[12.92533,59.1275],[12.9245,59.12791],[12.9244,59.12884],[12.92566,59.12987],[12.92725,59.1326],[12.93374,59.13268],[12.93419,59.13341],[12.9432,59.13858],[12.94371,59.13978],[12.94424,59.13988],[12.94478,59.14059],[12.94563,59.14044]]]}},{"type":"Feature","id":"1785R008","properties":{"code":"1785R008","name":"Värmlandsnäs"},"geometry":{"type":"Polygon","coordinates":[[[12.97058,59.12868],[12.98036,59.1282],[12.98481,59.12736],[12.98497,59.127],[12.98715,59.1266],[12.98751,59.12683],[12.99171,59.12602],[12.99681,59.12535],[12.99578,59.11652],[12.99365,59.11229],[12.99468,59.11033],[12.99633,59.105],[12.99823,59.10066],[13.00776,59.09119],[13.01894,59.09319],[13.02193,59.09335],[13.02549,59.09341],[13.03469,59.09247],[13.03518,59.09267],[13.03642,59.09255],[13.03673,59.09235],[13.04569,59.09197],[13.06112,59.09408],[13.06171,59.0944],[13.06279,59.09449],[13.06284,59.09463],[13.06825,59.09521],[13.06902,59.09491],[13.07189,59.0953],[13.08302,59.09826],[13.08363,59.09791],[13.08581,59.09905],[13.09469,59.10153],[13.09552,59.10084],[13.09529,59.10077],[13.09528,59.09978],[13.09551,59.09934],[13.09741,59.09849],[13.09822,59.09846],[13.10638,59.09146],[13.10581,59.0913],[13.10599,59.09086],[13.10695,59.09096],[13.10898,59.08916],[13.11335,59.09089],[13.13591,59.09698],[13.15285,59.09568],[13.15757,59.09504],[13.1624,59.09408],[13.1636,59.09396],[13.16378,59.09408],[13.16769,59.09358],[13.17509,59.09399],[13.18364,59.09453],[13.18817,59.09513],[13.18999,59.09519],[13.19277,59.09562],[13.19274,59.09589],[13.19887,59.09651],[13.21884,59.10076],[13.46904,59.11658],[13.58881,59.05933],[13.42422,58.95939],[13.33854,58.8124],[13.42508,58.74594],[13.2532,58.72533],[13.1795,58.75557],[13.15144,58.75522],[12.89963,58.81427],[12.78237,59.02366],[12.78433,59.02674],[12.79199,59.02718],[12.85029,59.03483],[12.85283,59.04139],[12.86142,59.06719],[12.87126,59.06857],[12.8944,59.07586],[12.90134,59.08543],[12.90405,59.09033],[12.90327,59.09523],[12.90263,59.09611],[12.90318,59.09822],[12.9055,59.10184],[12.90548,59.10376],[12.90589,59.10455],[12.91601,59.11005],[12.9183,59.11006],[12.92103,59.11039],[12.92351,59.11108],[12.92554,59.11204],[12.92864,59.11461],[12.93155,59.11876],[12.93314,59.11865],[12.93696,59.11879],[12.94143,59.11857],[12.94347,59.11866],[12.94611,59.11908],[12.94865,59.1199],[12.95116,59.1213],[12.9525,59.12253],[12.95383,59.12449],[12.95538,59.12493],[12.96225,59.1294],[12.966,59.12907],[12.96775,59.13007],[12.97058,59.12868]]]}},{"type":"Feature","id":"1785R009","properties":{"code":"1785R009","name":"Västra Kila-Tveta"},"geometry":{"type":"Polygon","coordinates":[[[12.80234,59.26123],[12.804,59.25966],[12.8049,59.25739],[12.80563,59.2568],[12.80826,59.25583],[12.80915,59.25499],[12.81027,59.24963],[12.81184,59.24875],[12.81228,59.24813],[12.81098,59.24626],[12.81116,59.24548],[12.8159,59.24182],[12.8222,59.24225],[12.82934,59.23253],[12.83405,59.22793],[12.83682,59.21687],[12.84376,59.21211],[12.84323,59.20449],[12.85315,59.19772],[12.86181,59.19445],[12.8674,59.18926],[12.88239,59.18164],[12.89011,59.17517],[12.88989,59.17507],[12.89935,59.17025],[12.90424,59.16736],[12.917,59.15487],[12.91908,59.15406],[12.92066,59.15191],[12.92168,59.14983],[12.91822,59.1495],[12.9163,59.15047],[12.91439,59.15113],[12.91272,59.15153],[12.90914,59.15192],[12.90682,59.15278],[12.90251,59.15367],[12.89971,59.15383],[12.89691,59.15362],[12.89202,59.15259],[12.88942,59.15137],[12.88797,59.15013],[12.88634,59.14914],[12.88306,59.14481],[12.88264,59.14344],[12.88289,59.14206],[12.884,59.14046],[12.88542,59.13925],[12.88597,59.13827],[12.88536,59.13408],[12.88129,59.13339],[12.8788,59.13266],[12.87663,59.13158],[12.87464,59.12959],[12.87425,59.12736],[12.87488,59.12593],[12.87592,59.12466],[12.87539,59.12246],[12.87582,59.12107],[12.87657,59.12011],[12.88022,59.11732],[12.88185,59.11664],[12.88409,59.11606],[12.88655,59.11447],[12.89086,59.11294],[12.89287,59.11255],[12.8956,59.11235],[12.89917,59.1125],[12.90202,59.11297],[12.90442,59.11254],[12.90697,59.11234],[12.91029,59.11104],[12.9135,59.11033],[12.91601,59.11005],[12.90589,59.10455],[12.90548,59.10376],[12.9055,59.10184],[12.90318,59.09822],[12.90263,59.09611],[12.90327,59.09523],[12.90405,59.09033],[12.90134,59.08543],[12.8944,59.07586],[12.87126,59.06857],[12.86142,59.06719],[12.85283,59.04139],[12.85029,59.03483],[12.79199,59.02718],[12.78433,59.02674],[12.78237,59.02366],[12.77195,59.04239],[12.77014,59.04382],[12.77289,59.05805],[12.76859,59.06436],[12.76271,59.09723],[12.76315,59.10781],[12.756,59.11286],[12.75558,59.11408],[12.75359,59.11708],[12.75431,59.12173],[12.75497,59.12363],[12.75499,59.12617],[12.75582,59.12788],[12.75519,59.12884],[12.75455,59.13085],[12.75043,59.13397],[12.74567,59.1364],[12.73808,59.14144],[12.72509,59.1457],[12.71426,59.15085],[12.71059,59.15378],[12.69544,59.17077],[12.68996,59.17138],[12.67007,59.17819],[12.66814,59.17812],[12.66659,59.17763],[12.66561,59.17782],[12.66474,59.17775],[12.66047,59.1762],[12.65449,59.17633],[12.65548,59.18611],[12.64974,59.18594],[12.64318,59.1873],[12.64275,59.20082],[12.64199,59.20543],[12.64878,59.21908],[12.65916,59.2316],[12.66794,59.23877],[12.68557,59.25083],[12.69335,59.25343],[12.70034,59.2528],[12.71808,59.24798],[12.72267,59.24812],[12.72363,59.24733],[12.72565,59.24805],[12.7273,59.24804],[12.73093,59.24672],[12.73335,59.24619],[12.73864,59.24327],[12.74295,59.24125],[12.75182,59.24582],[12.76391,59.25083],[12.76204,59.25261],[12.76099,59.25214],[12.75994,59.25133],[12.75804,59.25326],[12.76108,59.25497],[12.76136,59.25539],[12.76041,59.25634],[12.76279,59.25841],[12.76806,59.25801],[12.76718,59.25751],[12.76767,59.25687],[12.77012,59.25584],[12.77009,59.25544],[12.77331,59.25551],[12.77342,59.25419],[12.77985,59.25806],[12.80234,59.26123]]]}},{"type":"Feature","id":"1785R010","properties":{"code":"1785R010","name":"Östra Kila-Värmlandsbro-Södra Ny"},"geometry":{"type":"Polygon","coordinates":[[[13.17692,59.25496],[13.46904,59.11658],[13.21884,59.10076],[13.19887,59.09651],[13.19274,59.09589],[13.19277,59.09562],[13.18999,59.09519],[13.18817,59.09513],[13.18364,59.09453],[13.17509,59.09399],[13.16769,59.09358],[13.16378,59.09408],[13.1636,59.09396],[13.1624,59.09408],[13.15757,59.09504],[13.15285,59.09568],[13.13591,59.09698],[13.11335,59.09089],[13.10898,59.08916],[13.10695,59.09096],[13.10599,59.09086],[13.10581,59.0913],[13.10638,59.09146],[13.09822,59.09846],[13.09741,59.09849],[13.09551,59.09934],[13.09528,59.09978],[13.09529,59.10077],[13.09552,59.10084],[13.09469,59.10153],[13.08581,59.09905],[13.08363,59.09791],[13.08302,59.09826],[13.07189,59.0953],[13.06902,59.09491],[13.06825,59.09521],[13.06284,59.09463],[13.06279,59.09449],[13.06171,59.0944],[13.06112,59.09408],[13.04569,59.09197],[13.03673,59.09235],[13.03642,59.09255],[13.03518,59.09267],[13.03469,59.09247],[13.02549,59.09341],[13.02193,59.09335],[13.01894,59.09319],[13.00776,59.09119],[12.99823,59.10066],[12.99633,59.105],[12.99468,59.11033],[12.99365,59.11229],[12.99578,59.11652],[12.99681,59.12535],[12.99171,59.12602],[12.98751,59.12683],[12.98715,59.1266],[12.98497,59.127],[12.98481,59.12736],[12.98036,59.1282],[12.97084,59.12857],[12.96775,59.13007],[12.966,59.12907],[12.96225,59.1294],[12.96232,59.13153],[12.96429,59.13244],[12.96644,59.13417],[12.96877,59.13562],[12.97071,59.13753],[12.97149,59.1393],[12.97077,59.14364],[12.96974,59.14498],[12.96759,59.14639],[12.96724,59.14876],[12.9657,59.15073],[12.9639,59.15184],[12.96088,59.15291],[12.95758,59.1535],[12.95548,59.15359],[12.95199,59.15328],[12.94638,59.15184],[12.94256,59.15216],[12.93977,59.15196],[12.9378,59.15158],[12.93506,59.15061],[12.93138,59.1503],[12.92766,59.14939],[12.92437,59.14984],[12.92168,59.14983],[12.92066,59.15191],[12.91908,59.15406],[12.917,59.15487],[12.90424,59.16736],[12.89935,59.17025],[12.88989,59.17507],[12.89011,59.17517],[12.88239,59.18164],[12.8674,59.18926],[12.86181,59.19445],[12.85315,59.19772],[12.84323,59.20449],[12.84376,59.21211],[12.83682,59.21687],[12.83405,59.22793],[12.82934,59.23253],[12.8222,59.24225],[12.8159,59.24182],[12.81116,59.24548],[12.81093,59.24582],[12.81124,59.24678],[12.81199,59.24763],[12.8152,59.24741],[12.8275,59.24834],[12.86348,59.24708],[12.87597,59.24879],[12.8813,59.24852],[12.89183,59.24643],[12.89587,59.24652],[12.90462,59.24762],[12.9113,59.24919],[12.91868,59.25037],[12.93621,59.24768],[12.9441,59.24476],[12.96579,59.24152],[12.99357,59.23701],[13.00349,59.23655],[13.03899,59.24416],[13.04625,59.23884],[13.06552,59.23609],[13.07245,59.23661],[13.11398,59.25276],[13.17692,59.25496]]]}}]}