{"type":"FeatureCollection","features":[{"type":"Feature","id":"1814R001","properties":{"code":"1814R001","name":"Fjugesta västra"},"geometry":{"type":"Polygon","coordinates":[[[14.86046,59.19171],[14.86383,59.19161],[14.86612,59.18982],[14.86688,59.1889],[14.86396,59.18671],[14.86674,59.18559],[14.86576,59.18432],[14.86632,59.18394],[14.87115,59.18407],[14.87547,59.18495],[14.87649,59.18571],[14.87746,59.18582],[14.88117,59.18234],[14.88051,59.18085],[14.88067,59.18029],[14.87889,59.18058],[14.87844,59.18048],[14.87884,59.18005],[14.8784,59.17976],[14.8786,59.17954],[14.87792,59.17922],[14.878,59.17878],[14.87733,59.17875],[14.87703,59.17854],[14.87708,59.17796],[14.87657,59.17793],[14.87597,59.17761],[14.87547,59.17665],[14.87358,59.17603],[14.87253,59.17532],[14.87237,59.17445],[14.87166,59.17419],[14.87202,59.17359],[14.87091,59.17325],[14.87032,59.17284],[14.87056,59.17268],[14.87008,59.17246],[14.86901,59.17226],[14.86902,59.17196],[14.86682,59.17127],[14.86746,59.16977],[14.86873,59.16813],[14.86691,59.16777],[14.86482,59.16804],[14.86504,59.16975],[14.86388,59.17005],[14.86252,59.17008],[14.86194,59.16903],[14.86055,59.16867],[14.85572,59.16925],[14.85348,59.16908],[14.8524,59.16749],[14.85003,59.16815],[14.84796,59.16906],[14.84795,59.16733],[14.8472,59.16599],[14.84874,59.16482],[14.84955,59.16378],[14.85064,59.16142],[14.85078,59.1603],[14.85016,59.15837],[14.85048,59.15719],[14.85023,59.15582],[14.84884,59.15283],[14.84743,59.15144],[14.84501,59.15014],[14.84255,59.1494],[14.83875,59.14885],[14.83584,59.14882],[14.83191,59.1493],[14.82983,59.14973],[14.82609,59.14936],[14.82228,59.14963],[14.81844,59.15069],[14.81688,59.15148],[14.81547,59.15257],[14.81103,59.15256],[14.80839,59.15298],[14.80656,59.15352],[14.80479,59.1543],[14.80315,59.15545],[14.8021,59.15676],[14.80163,59.15816],[14.8018,59.15958],[14.80242,59.16073],[14.8057,59.1639],[14.80715,59.16474],[14.8101,59.166],[14.8162,59.1676],[14.81761,59.16873],[14.81956,59.16966],[14.82361,59.17107],[14.82654,59.17163],[14.82855,59.17273],[14.83151,59.17361],[14.83497,59.17399],[14.83929,59.17376],[14.84255,59.17312],[14.8449,59.17219],[14.84448,59.17436],[14.84465,59.17574],[14.84549,59.17705],[14.84693,59.17821],[14.84754,59.17934],[14.84647,59.18228],[14.8464,59.18341],[14.8481,59.18789],[14.84988,59.18943],[14.85251,59.1906],[14.85699,59.19156],[14.86046,59.19171]]]}},{"type":"Feature","id":"1814R002","properties":{"code":"1814R002","name":"Fjugesta östra"},"geometry":{"type":"Polygon","coordinates":[[[14.86383,59.19161],[14.867,59.19121],[14.86947,59.19048],[14.87164,59.18941],[14.87303,59.18824],[14.87425,59.18796],[14.87792,59.18944],[14.88113,59.19014],[14.88466,59.19029],[14.88923,59.1899],[14.89119,59.18944],[14.8934,59.18858],[14.89475,59.18775],[14.89603,59.18649],[14.89689,59.18416],[14.89666,59.18162],[14.89464,59.17855],[14.89475,59.1771],[14.89431,59.17569],[14.89256,59.17391],[14.89352,59.17192],[14.89503,59.17065],[14.89591,59.16892],[14.89583,59.1675],[14.89526,59.16639],[14.895,59.16358],[14.89421,59.16219],[14.89236,59.16071],[14.89025,59.15976],[14.88772,59.15911],[14.88547,59.15876],[14.88333,59.15863],[14.88058,59.15879],[14.87859,59.15914],[14.87619,59.1599],[14.87401,59.16113],[14.87158,59.16161],[14.86983,59.16221],[14.86791,59.16324],[14.86663,59.16438],[14.86356,59.16466],[14.85741,59.16564],[14.85508,59.16638],[14.85325,59.16733],[14.8524,59.16749],[14.85348,59.16908],[14.85572,59.16925],[14.86055,59.16867],[14.86194,59.16903],[14.86255,59.17009],[14.86392,59.17005],[14.86504,59.16975],[14.86482,59.16804],[14.86513,59.16794],[14.86691,59.16777],[14.86873,59.16813],[14.86746,59.16977],[14.86682,59.17127],[14.86902,59.17196],[14.86901,59.17226],[14.87008,59.17246],[14.87056,59.17268],[14.87032,59.17284],[14.87091,59.17325],[14.87202,59.17359],[14.87166,59.17419],[14.87237,59.17445],[14.87253,59.17532],[14.87358,59.17603],[14.87547,59.17665],[14.87597,59.17761],[14.87657,59.17793],[14.87708,59.17796],[14.87703,59.17854],[14.87733,59.17875],[14.878,59.17878],[14.87792,59.17922],[14.8786,59.17954],[14.8784,59.17976],[14.87884,59.18005],[14.87844,59.18048],[14.87889,59.18058],[14.88067,59.18029],[14.88051,59.18085],[14.88117,59.18234],[14.87746,59.18582],[14.87649,59.18571],[14.87547,59.18495],[14.87115,59.18407],[14.86639,59.18393],[14.86576,59.18432],[14.86674,59.18559],[14.86396,59.18671],[14.86688,59.1889],[14.86612,59.18982],[14.86383,59.19161]]]}},{"type":"Feature","id":"1814R003","properties":{"code":"1814R003","name":"Lekeberg norra landsbygd"},"geometry":{"type":"Polygon","coordinates":[[[14.78771,59.33271],[14.7895,59.33248],[14.78997,59.33264],[14.79065,59.33232],[14.7926,59.33035],[14.79349,59.32878],[14.79575,59.32775],[14.79611,59.32681],[14.79829,59.32401],[14.79822,59.32337],[14.799,59.32244],[14.80003,59.32188],[14.79975,59.32135],[14.80014,59.32123],[14.79994,59.32075],[14.80247,59.32087],[14.80267,59.32107],[14.80223,59.32124],[14.80254,59.3219],[14.80321,59.32207],[14.80365,59.32259],[14.80442,59.32241],[14.80488,59.32252],[14.80492,59.32225],[14.80526,59.32217],[14.80887,59.32234],[14.80995,59.32174],[14.81164,59.3212],[14.81102,59.32085],[14.81213,59.32044],[14.81214,59.32012],[14.81298,59.32014],[14.8146,59.31961],[14.81466,59.31891],[14.81523,59.31838],[14.81707,59.31817],[14.81757,59.31706],[14.81815,59.3173],[14.81862,59.31721],[14.81915,59.31756],[14.82085,59.31688],[14.82152,59.31639],[14.82193,59.31649],[14.82235,59.3163],[14.82208,59.31619],[14.82243,59.31554],[14.82313,59.31567],[14.82341,59.31497],[14.82399,59.31489],[14.82459,59.31439],[14.82495,59.31434],[14.82552,59.31487],[14.8263,59.31479],[14.82693,59.31422],[14.82752,59.31431],[14.83157,59.31257],[14.83309,59.31264],[14.83392,59.31243],[14.8342,59.31191],[14.83548,59.31124],[14.83773,59.31127],[14.83874,59.31339],[14.8398,59.3139],[14.84052,59.31397],[14.84545,59.31351],[14.84921,59.31336],[14.85229,59.3116],[14.85424,59.30943],[14.85637,59.30851],[14.86136,59.30482],[14.86578,59.30195],[14.87394,59.29851],[14.87772,59.29835],[14.88119,59.29978],[14.89243,59.29436],[14.90087,59.28218],[14.90039,59.28066],[14.90079,59.2752],[14.90279,59.27312],[14.90995,59.27465],[14.9122,59.27422],[14.91299,59.27296],[14.91314,59.27185],[14.9135,59.27156],[14.91336,59.27118],[14.91443,59.27084],[14.91508,59.27021],[14.91951,59.26978],[14.91908,59.26723],[14.92374,59.25952],[14.92583,59.25936],[14.9264,59.25893],[14.92725,59.2588],[14.92808,59.25727],[14.92803,59.25496],[14.9277,59.25454],[14.9254,59.25539],[14.92339,59.25586],[14.92126,59.25613],[14.91668,59.25634],[14.91439,59.2569],[14.91146,59.25725],[14.90793,59.25721],[14.90443,59.25659],[14.9021,59.25574],[14.90026,59.25462],[14.89895,59.2532],[14.89843,59.2519],[14.89541,59.25089],[14.89325,59.24949],[14.89206,59.24781],[14.8914,59.24512],[14.89034,59.24633],[14.88859,59.24746],[14.88638,59.24832],[14.88441,59.24877],[14.87873,59.24931],[14.87652,59.24936],[14.87352,59.2491],[14.87075,59.24845],[14.86854,59.24752],[14.86562,59.24563],[14.86442,59.24393],[14.86432,59.24214],[14.86216,59.24124],[14.86074,59.24031],[14.8584,59.23771],[14.85792,59.2366],[14.85786,59.23542],[14.85911,59.23164],[14.86048,59.23004],[14.86264,59.2288],[14.86595,59.22606],[14.86794,59.22513],[14.87032,59.22448],[14.87295,59.22415],[14.87517,59.22413],[14.88113,59.22477],[14.88489,59.22573],[14.88747,59.22717],[14.88995,59.22719],[14.89253,59.22562],[14.89486,59.22478],[14.89771,59.22423],[14.90122,59.22409],[14.90402,59.22439],[14.90637,59.22496],[14.90927,59.22479],[14.91229,59.22501],[14.91626,59.22602],[14.91845,59.22712],[14.92018,59.22871],[14.92227,59.22945],[14.92378,59.23027],[14.92529,59.23157],[14.92721,59.23218],[14.92919,59.23317],[14.93063,59.23441],[14.93146,59.23599],[14.93271,59.23579],[14.93596,59.23392],[14.93558,59.23371],[14.93764,59.23223],[14.94108,59.23164],[14.94347,59.2294],[14.94545,59.22819],[14.94804,59.22774],[14.94601,59.22724],[14.95301,59.21522],[14.95085,59.21427],[14.94885,59.21449],[14.94823,59.21437],[14.94683,59.2129],[14.94362,59.21101],[14.94377,59.2095],[14.9422,59.20945],[14.94118,59.20919],[14.94042,59.2086],[14.93862,59.20799],[14.9369,59.20678],[14.93454,59.20626],[14.93348,59.20536],[14.92944,59.2051],[14.9283,59.20529],[14.94516,59.19073],[14.94844,59.18892],[14.9462,59.18575],[14.9377,59.18626],[14.93808,59.18465],[14.93414,59.18443],[14.93614,59.17807],[14.93416,59.17615],[14.93025,59.17581],[14.93007,59.17511],[14.92874,59.1749],[14.92404,59.17266],[14.91977,59.16277],[14.91667,59.16303],[14.91638,59.16066],[14.91595,59.15991],[14.91234,59.16016],[14.91375,59.16326],[14.89513,59.1648],[14.89526,59.16639],[14.89592,59.16784],[14.89583,59.16926],[14.89503,59.17065],[14.89352,59.17192],[14.89256,59.17391],[14.89384,59.17503],[14.89449,59.17606],[14.89464,59.17855],[14.89652,59.18126],[14.89693,59.18382],[14.89603,59.18649],[14.89475,59.18775],[14.8934,59.18858],[14.89119,59.18944],[14.88923,59.1899],[14.88718,59.19015],[14.88321,59.1903],[14.88049,59.19005],[14.87854,59.18963],[14.87425,59.18796],[14.87303,59.18824],[14.87164,59.18941],[14.86961,59.19043],[14.8676,59.19106],[14.86491,59.19153],[14.85836,59.19168],[14.85566,59.19134],[14.85255,59.19061],[14.84944,59.18913],[14.84837,59.18821],[14.84751,59.18686],[14.84638,59.18296],[14.84754,59.17934],[14.84693,59.17821],[14.84549,59.17705],[14.84465,59.17574],[14.84448,59.17436],[14.8449,59.17219],[14.84255,59.17312],[14.83924,59.17376],[14.83497,59.17399],[14.8309,59.17348],[14.82851,59.17271],[14.82654,59.17163],[14.82361,59.17107],[14.81903,59.16945],[14.81761,59.16873],[14.8162,59.1676],[14.8101,59.166],[14.80667,59.1645],[14.80498,59.16332],[14.80199,59.16006],[14.80162,59.15887],[14.80181,59.15743],[14.80281,59.15577],[14.80479,59.1543],[14.80716,59.15331],[14.81046,59.15262],[14.81008,59.15189],[14.80916,59.15134],[14.80773,59.15137],[14.80736,59.15098],[14.80762,59.15064],[14.80742,59.15044],[14.80626,59.15041],[14.80532,59.15067],[14.80397,59.15007],[14.80148,59.15086],[14.79978,59.14966],[14.80096,59.14969],[14.80118,59.14919],[14.80069,59.14883],[14.80102,59.14854],[14.79791,59.14698],[14.79804,59.14561],[14.7956,59.14489],[14.79505,59.14418],[14.79343,59.1431],[14.79051,59.14232],[14.78897,59.14138],[14.78695,59.1418],[14.78626,59.1424],[14.78421,59.14244],[14.78102,59.14167],[14.77934,59.14059],[14.77436,59.13969],[14.77367,59.1397],[14.77304,59.13999],[14.77233,59.13993],[14.77063,59.13916],[14.76946,59.13913],[14.76811,59.13867],[14.76673,59.13886],[14.76508,59.13849],[14.76425,59.13783],[14.76243,59.13724],[14.76123,59.13608],[14.76137,59.13567],[14.76192,59.13535],[14.76183,59.13499],[14.76147,59.13472],[14.76104,59.13475],[14.7604,59.1341],[14.76133,59.13337],[14.76187,59.13359],[14.76322,59.13339],[14.76398,59.13192],[14.76259,59.13191],[14.76257,59.13152],[14.73238,59.12432],[14.73232,59.13106],[14.73017,59.13345],[14.74487,59.14673],[14.7418,59.14806],[14.72475,59.14436],[14.72269,59.14647],[14.7225,59.1495],[14.72415,59.1518],[14.7277,59.15248],[14.73169,59.15272],[14.73672,59.15242],[14.73822,59.15205],[14.74043,59.15304],[14.7434,59.15388],[14.74724,59.15582],[14.75046,59.15906],[14.75244,59.1601],[14.75177,59.16162],[14.75271,59.16468],[14.75204,59.16585],[14.7513,59.16874],[14.75383,59.17182],[14.7501,59.17533],[14.74441,59.17512],[14.741,59.17849],[14.7365,59.1781],[14.73421,59.17951],[14.73277,59.17982],[14.72862,59.17747],[14.7248,59.17651],[14.72039,59.18063],[14.71302,59.17883],[14.70699,59.18514],[14.70644,59.18669],[14.71599,59.1887],[14.72058,59.194],[14.72313,59.19605],[14.71699,59.19886],[14.69839,59.20546],[14.69812,59.2058],[14.69797,59.20728],[14.69882,59.20739],[14.70894,59.20526],[14.70675,59.21531],[14.70575,59.22429],[14.70829,59.23021],[14.70896,59.2307],[14.71013,59.23108],[14.71095,59.23222],[14.7097,59.23256],[14.71083,59.25729],[14.7233,59.26115],[14.72462,59.25837],[14.72562,59.25764],[14.76628,59.25917],[14.76039,59.27262],[14.76265,59.28059],[14.76234,59.28068],[14.76281,59.28115],[14.76345,59.28111],[14.7641,59.28078],[14.76499,59.27954],[14.77315,59.27898],[14.77508,59.28148],[14.77417,59.28308],[14.77112,59.28496],[14.76906,59.29123],[14.76556,59.29503],[14.76509,59.29778],[14.7632,59.29932],[14.76382,59.30235],[14.75491,59.30853],[14.7484,59.31525],[14.75384,59.31798],[14.75442,59.31875],[14.75425,59.31974],[14.75508,59.32068],[14.75588,59.32047],[14.75661,59.32055],[14.75735,59.32007],[14.75748,59.31914],[14.75837,59.31868],[14.75896,59.31879],[14.75893,59.31962],[14.75945,59.32041],[14.75892,59.32079],[14.76173,59.32093],[14.76373,59.31997],[14.7648,59.31987],[14.7662,59.31835],[14.76779,59.31781],[14.76766,59.3175],[14.7684,59.31753],[14.76792,59.31715],[14.76836,59.31706],[14.76949,59.31727],[14.7696,59.31711],[14.76906,59.31665],[14.77075,59.31688],[14.77111,59.31672],[14.77142,59.31681],[14.77014,59.31875],[14.77085,59.31885],[14.77039,59.31912],[14.77032,59.31963],[14.77067,59.32009],[14.77103,59.32003],[14.77073,59.32055],[14.77132,59.32073],[14.77159,59.32108],[14.77114,59.32161],[14.77136,59.32233],[14.7721,59.32235],[14.7719,59.32282],[14.77442,59.32359],[14.77551,59.32331],[14.7767,59.32428],[14.77654,59.32534],[14.77719,59.32574],[14.77716,59.32597],[14.77803,59.32602],[14.77856,59.32534],[14.77923,59.32547],[14.78083,59.32498],[14.78162,59.32557],[14.78202,59.32562],[14.78179,59.32672],[14.78259,59.3275],[14.78352,59.32741],[14.78372,59.32715],[14.78522,59.32749],[14.78561,59.32729],[14.78629,59.3274],[14.78718,59.32706],[14.78774,59.3271],[14.78792,59.32787],[14.7867,59.32835],[14.78522,59.33033],[14.78461,59.33035],[14.7845,59.33072],[14.78519,59.33153],[14.7849,59.33184],[14.78512,59.33251],[14.78646,59.33243],[14.78771,59.33271]]]}},{"type":"Feature","id":"1814R004","properties":{"code":"1814R004","name":"Lekeberg södra landsbygd"},"geometry":{"type":"Polygon","coordinates":[[[15.02164,59.19842],[15.02262,59.19912],[15.02852,59.1975],[15.02534,59.19513],[15.03131,59.19266],[15.0337,59.19098],[15.03696,59.18919],[15.03978,59.18799],[15.0409,59.1863],[15.04361,59.17325],[15.04828,59.16647],[15.05036,59.16685],[15.05084,59.16636],[15.04977,59.16534],[15.04949,59.16399],[15.04963,59.16249],[15.05034,59.16091],[15.04949,59.15989],[15.04734,59.15903],[15.04649,59.15667],[15.04955,59.15699],[15.05049,59.15633],[15.05257,59.15671],[15.05362,59.15627],[15.05519,59.15516],[15.05423,59.15313],[15.05486,59.15224],[15.0431,59.13601],[15.03066,59.13194],[15.013,59.12884],[14.9932,59.12573],[14.99321,59.12627],[14.99384,59.12722],[14.99258,59.12819],[14.99048,59.12801],[14.98035,59.12946],[14.96079,59.12757],[14.96155,59.12474],[14.95655,59.12463],[14.95668,59.1241],[14.95574,59.12423],[14.95517,59.12401],[14.9552,59.12365],[14.95389,59.12337],[14.95414,59.12307],[14.9539,59.12267],[14.95421,59.12247],[14.95381,59.12192],[14.95461,59.12163],[14.95362,59.12128],[14.95425,59.12107],[14.95418,59.1206],[14.95318,59.1206],[14.95179,59.12005],[14.95146,59.11967],[14.9487,59.11986],[14.94777,59.12017],[14.94572,59.11922],[14.94438,59.11774],[14.94305,59.11675],[14.94337,59.11615],[14.94195,59.11586],[14.94206,59.11518],[14.94161,59.11518],[14.94105,59.11548],[14.94037,59.11523],[14.93977,59.11536],[14.93938,59.11497],[14.93863,59.11525],[14.93799,59.11497],[14.93783,59.11463],[14.93831,59.1137],[14.93811,59.11354],[14.93716,59.11349],[14.93676,59.11251],[14.93624,59.11221],[14.93679,59.11154],[14.93558,59.11088],[14.93506,59.11098],[14.93487,59.11068],[14.93425,59.11049],[14.9349,59.11016],[14.93447,59.10971],[14.93517,59.10968],[14.93553,59.10937],[14.93475,59.10913],[14.93512,59.10881],[14.93457,59.10871],[14.93474,59.10825],[14.9343,59.10818],[14.9342,59.10774],[14.93452,59.10713],[14.93418,59.10677],[14.93427,59.10625],[14.93495,59.10593],[14.93457,59.10569],[14.93389,59.10561],[14.9338,59.10522],[14.93328,59.10524],[14.93284,59.10499],[14.93243,59.10501],[14.93217,59.10536],[14.93177,59.10536],[14.93102,59.10394],[14.93067,59.10234],[14.9296,59.10121],[14.9295,59.10091],[14.9299,59.10068],[14.92939,59.10018],[14.92983,59.09977],[14.92917,59.0994],[14.92958,59.09858],[14.92898,59.09794],[14.92871,59.09644],[14.92799,59.09531],[14.92933,59.09213],[14.92478,59.0887],[14.92276,59.08472],[14.91269,59.08633],[14.90572,59.08796],[14.89877,59.08677],[14.8938,59.08555],[14.88139,59.08467],[14.87656,59.0851],[14.87686,59.08644],[14.87642,59.08693],[14.8756,59.08706],[14.87582,59.08832],[14.87126,59.08796],[14.87145,59.0864],[14.87009,59.08519],[14.86665,59.08461],[14.86555,59.08411],[14.863,59.08347],[14.8622,59.08429],[14.86179,59.0842],[14.86085,59.0838],[14.85938,59.08259],[14.85927,59.08215],[14.85363,59.08052],[14.84799,59.08091],[14.84767,59.08235],[14.83622,59.08338],[14.83144,59.08024],[14.8232,59.08029],[14.82267,59.07726],[14.81215,59.07654],[14.80911,59.07653],[14.80846,59.07382],[14.80227,59.07385],[14.80332,59.07063],[14.80191,59.06514],[14.79627,59.06469],[14.796,59.06513],[14.78989,59.0642],[14.78776,59.06243],[14.78342,59.06062],[14.77873,59.05281],[14.77226,59.05033],[14.77207,59.0499],[14.76835,59.0485],[14.76713,59.0481],[14.76661,59.04825],[14.72965,59.03449],[14.70437,59.02553],[14.698,59.0254],[14.70969,59.04229],[14.71231,59.04914],[14.71873,59.05894],[14.72032,59.07803],[14.72746,59.09927],[14.74181,59.12655],[14.76257,59.13152],[14.76259,59.13191],[14.76398,59.13192],[14.76322,59.13339],[14.76187,59.13359],[14.76133,59.13337],[14.76042,59.13418],[14.76104,59.13475],[14.76147,59.13472],[14.76183,59.13499],[14.76192,59.13535],[14.76137,59.13567],[14.76123,59.13608],[14.76243,59.13724],[14.76425,59.13783],[14.76469,59.1383],[14.76551,59.13864],[14.76673,59.13886],[14.76811,59.13867],[14.76946,59.13913],[14.77088,59.13922],[14.77196,59.13987],[14.77304,59.13999],[14.77367,59.1397],[14.77436,59.13969],[14.77934,59.14059],[14.78102,59.14167],[14.78421,59.14244],[14.78626,59.1424],[14.78695,59.1418],[14.78897,59.14138],[14.79051,59.14232],[14.79343,59.1431],[14.79505,59.14418],[14.7956,59.14489],[14.79804,59.14561],[14.79791,59.14698],[14.80102,59.14854],[14.80069,59.14883],[14.80118,59.14919],[14.80096,59.14969],[14.79978,59.14966],[14.80148,59.15086],[14.80397,59.15007],[14.80532,59.15067],[14.80607,59.15043],[14.80722,59.15041],[14.80762,59.15064],[14.80736,59.15098],[14.8076,59.15128],[14.80818,59.15146],[14.80916,59.15134],[14.81008,59.15189],[14.81046,59.15262],[14.81247,59.15248],[14.81547,59.15257],[14.81688,59.15148],[14.81897,59.15048],[14.82103,59.14988],[14.82378,59.14945],[14.82676,59.14938],[14.82983,59.14973],[14.83448,59.14894],[14.83803,59.1488],[14.84138,59.14917],[14.84501,59.15014],[14.84704,59.15117],[14.84859,59.15251],[14.85044,59.15651],[14.85016,59.15837],[14.85074,59.15996],[14.85064,59.16142],[14.84928,59.1642],[14.8472,59.16599],[14.84795,59.16733],[14.84796,59.16906],[14.85059,59.16796],[14.85325,59.16733],[14.85508,59.16638],[14.85738,59.16565],[14.86356,59.16466],[14.86663,59.16438],[14.86791,59.16324],[14.86987,59.16219],[14.87162,59.1616],[14.87401,59.16113],[14.87569,59.16013],[14.87736,59.15948],[14.88058,59.15879],[14.88333,59.15863],[14.88547,59.15876],[14.8884,59.15925],[14.89079,59.15996],[14.89279,59.16097],[14.89421,59.16219],[14.895,59.16358],[14.89513,59.1648],[14.91375,59.16326],[14.91234,59.16016],[14.91595,59.15991],[14.91638,59.16066],[14.91667,59.16303],[14.91977,59.16277],[14.92404,59.17266],[14.92874,59.1749],[14.93007,59.17511],[14.93025,59.17581],[14.93416,59.17615],[14.93614,59.17807],[14.93414,59.18443],[14.93808,59.18465],[14.9377,59.18626],[14.9462,59.18575],[14.94844,59.18892],[14.94687,59.18977],[14.95191,59.19013],[14.95185,59.18979],[14.95225,59.1897],[14.95758,59.19304],[14.97604,59.19485],[14.98681,59.19529],[14.9891,59.195],[14.98938,59.19574],[14.98913,59.19895],[15.00181,59.19902],[15.00183,59.20031],[15.02164,59.19842]]]}},{"type":"Feature","id":"1814R005","properties":{"code":"1814R005","name":"Lekeberg-Lanna"},"geometry":{"type":"Polygon","coordinates":[[[14.91079,59.25729],[14.91439,59.2569],[14.91668,59.25634],[14.92126,59.25613],[14.92339,59.25586],[14.9254,59.25539],[14.9277,59.25454],[14.92711,59.2541],[14.92649,59.25204],[14.9287,59.25084],[14.92869,59.24977],[14.92802,59.2485],[14.92898,59.24577],[14.93009,59.24477],[14.9311,59.24498],[14.93078,59.24527],[14.93147,59.24556],[14.93209,59.24519],[14.93252,59.2454],[14.93357,59.24344],[14.93178,59.24319],[14.93219,59.24263],[14.9309,59.2426],[14.9307,59.24194],[14.93018,59.24198],[14.92999,59.24221],[14.92846,59.2422],[14.92851,59.24275],[14.92835,59.2422],[14.92712,59.24219],[14.92703,59.24075],[14.92571,59.23817],[14.92675,59.2377],[14.92725,59.23856],[14.92805,59.23886],[14.93097,59.2385],[14.9321,59.23738],[14.93027,59.23648],[14.93146,59.23599],[14.93088,59.23473],[14.92961,59.23347],[14.92773,59.23239],[14.92529,59.23157],[14.92418,59.23054],[14.92276,59.22968],[14.92018,59.22871],[14.91885,59.22739],[14.91743,59.22653],[14.91494,59.22558],[14.91229,59.22501],[14.90927,59.22479],[14.90637,59.22496],[14.90273,59.2242],[14.89836,59.22416],[14.89625,59.22445],[14.89372,59.22514],[14.89205,59.22586],[14.88995,59.22719],[14.88747,59.22717],[14.88544,59.22596],[14.8831,59.22516],[14.87654,59.22423],[14.87229,59.2242],[14.8697,59.22461],[14.86794,59.22513],[14.86551,59.22635],[14.86264,59.2288],[14.86086,59.22976],[14.85981,59.23066],[14.85879,59.23234],[14.85858,59.23375],[14.85786,59.23542],[14.85821,59.23738],[14.85999,59.23962],[14.86172,59.24098],[14.86432,59.24214],[14.86442,59.24393],[14.86597,59.24593],[14.86902,59.24776],[14.87149,59.24867],[14.87482,59.24927],[14.87806,59.24935],[14.88377,59.24887],[14.88695,59.24814],[14.88955,59.24691],[14.8914,59.24512],[14.89205,59.24778],[14.89292,59.24916],[14.89541,59.25089],[14.89843,59.2519],[14.89925,59.25362],[14.90105,59.25517],[14.90314,59.25617],[14.9052,59.25678],[14.90793,59.25721],[14.91079,59.25729]]]}},{"type":"Feature","id":"1814R006","properties":{"code":"1814R006","name":"Mullhyttan-Mullhyttan omnejd"},"geometry":{"type":"Polygon","coordinates":[[[14.64361,59.26051],[14.66908,59.24168],[14.68289,59.23806],[14.71095,59.23222],[14.71013,59.23108],[14.70896,59.2307],[14.70829,59.23021],[14.70575,59.22429],[14.70675,59.21531],[14.70894,59.20526],[14.69882,59.20739],[14.69797,59.20728],[14.69812,59.2058],[14.69839,59.20546],[14.71699,59.19886],[14.72313,59.19605],[14.72058,59.194],[14.71599,59.1887],[14.70644,59.18669],[14.70699,59.18514],[14.71302,59.17883],[14.72039,59.18063],[14.7248,59.17651],[14.72862,59.17747],[14.73277,59.17982],[14.73421,59.17951],[14.7365,59.1781],[14.741,59.17849],[14.74448,59.1751],[14.7501,59.17533],[14.75383,59.17182],[14.7513,59.16874],[14.75204,59.16585],[14.75271,59.16468],[14.75177,59.16162],[14.75244,59.1601],[14.75046,59.15906],[14.74724,59.15582],[14.7434,59.15388],[14.74043,59.15304],[14.73822,59.15205],[14.73672,59.15242],[14.73169,59.15272],[14.73005,59.15269],[14.72622,59.15225],[14.72415,59.1518],[14.7225,59.1495],[14.72269,59.14647],[14.72475,59.14436],[14.7418,59.14806],[14.74487,59.14673],[14.73017,59.13345],[14.73232,59.13106],[14.73238,59.12432],[14.69507,59.11506],[14.68938,59.11391],[14.6894,59.11469],[14.6843,59.11495],[14.68437,59.11543],[14.68093,59.11862],[14.66662,59.11901],[14.66449,59.10956],[14.6511,59.11002],[14.63835,59.10707],[14.62399,59.10559],[14.57835,59.09961],[14.57707,59.10036],[14.57635,59.10052],[14.57501,59.10178],[14.57348,59.10231],[14.57219,59.11448],[14.59055,59.11495],[14.59327,59.12127],[14.57558,59.1213],[14.57618,59.12187],[14.57819,59.12271],[14.58037,59.12464],[14.58252,59.12518],[14.58455,59.12528],[14.58608,59.12587],[14.58469,59.1271],[14.58498,59.12792],[14.58536,59.12797],[14.58585,59.12897],[14.58663,59.1295],[14.58682,59.13095],[14.58627,59.13148],[14.586,59.1325],[14.58634,59.13314],[14.58645,59.13486],[14.58717,59.13561],[14.58628,59.13655],[14.58498,59.1368],[14.58344,59.13678],[14.58246,59.13706],[14.58112,59.13706],[14.58119,59.13758],[14.58063,59.13848],[14.58085,59.13884],[14.58057,59.13931],[14.58067,59.14055],[14.57814,59.14071],[14.57882,59.14468],[14.56812,59.14656],[14.56524,59.15908],[14.56207,59.15968],[14.55828,59.16576],[14.56391,59.16655],[14.56066,59.19389],[14.561,59.19456],[14.56054,59.19469],[14.56039,59.19631],[14.56105,59.19678],[14.56103,59.19704],[14.56028,59.19728],[14.56067,59.19766],[14.55999,59.19779],[14.55599,59.22653],[14.55615,59.22748],[14.57642,59.22871],[14.59795,59.22974],[14.61512,59.246],[14.62456,59.25578],[14.62509,59.25604],[14.64361,59.26051]]]}}]}