{"type":"FeatureCollection","features":[{"type":"Feature","id":"1864R001","properties":{"code":"1864R001","name":"Kopparberg City"},"geometry":{"type":"Polygon","coordinates":[[[14.99697,59.88415],[14.99931,59.8806],[15.00191,59.88009],[15.00364,59.87905],[15.00597,59.87818],[15.01038,59.87785],[15.01139,59.87722],[15.01273,59.87679],[15.01747,59.87734],[15.01921,59.87514],[15.0238,59.87386],[15.02532,59.87212],[15.02358,59.87116],[15.02216,59.86955],[15.02029,59.86913],[15.01883,59.86921],[15.01833,59.86871],[15.01745,59.86851],[15.01687,59.86819],[15.01688,59.86795],[15.01569,59.86734],[15.0121,59.86769],[15.01156,59.86792],[15.01088,59.86886],[15.00944,59.86952],[15.00906,59.87016],[15.00826,59.87053],[15.00553,59.87105],[15.00373,59.87115],[15.00166,59.87192],[15.00069,59.87278],[14.99916,59.87318],[14.99833,59.87319],[14.99626,59.87369],[14.99444,59.87372],[14.99385,59.87348],[14.99234,59.87342],[14.99184,59.87354],[14.99159,59.8742],[14.99092,59.8744],[14.99048,59.87426],[14.99023,59.87355],[14.98874,59.874],[14.98892,59.87435],[14.98863,59.87471],[14.98669,59.87573],[14.9857,59.87547],[14.9845,59.87563],[14.98237,59.87493],[14.9799,59.8745],[14.97855,59.87498],[14.97809,59.8755],[14.97847,59.87654],[14.97657,59.87715],[14.9743,59.87909],[14.97327,59.87959],[14.97834,59.88124],[14.98044,59.88138],[14.98175,59.88056],[14.98174,59.88033],[14.98242,59.88005],[14.98263,59.87948],[14.98355,59.8791],[14.98529,59.87895],[14.98482,59.87969],[14.9862,59.88043],[14.98899,59.8794],[14.99049,59.88026],[14.99439,59.88417],[14.99583,59.88455],[14.99697,59.88415]]]}},{"type":"Feature","id":"1864R002","properties":{"code":"1864R002","name":"Kopparberg Yttre-Bångbro"},"geometry":{"type":"Polygon","coordinates":[[[14.9719,59.89533],[14.97521,59.89493],[14.9777,59.8942],[14.97964,59.89324],[14.98158,59.89169],[14.98421,59.8903],[14.98679,59.88984],[14.98915,59.88906],[14.99067,59.88826],[14.9921,59.88706],[14.99475,59.8867],[14.99731,59.88739],[15.00107,59.8879],[15.00545,59.89038],[15.00921,59.89139],[15.0116,59.89165],[15.014,59.89166],[15.01685,59.89136],[15.01888,59.89089],[15.02167,59.88975],[15.02344,59.88846],[15.02443,59.8871],[15.02469,59.88524],[15.02621,59.88343],[15.02715,59.88091],[15.02704,59.87945],[15.02584,59.87765],[15.02364,59.87617],[15.02667,59.87469],[15.03155,59.87477],[15.03571,59.87418],[15.03993,59.87418],[15.04206,59.8748],[15.04427,59.87517],[15.04717,59.87532],[15.04939,59.87519],[15.05214,59.87471],[15.05636,59.8735],[15.05801,59.87275],[15.05972,59.8715],[15.06242,59.87037],[15.06406,59.86917],[15.06676,59.86778],[15.0683,59.86653],[15.06924,59.86538],[15.06973,59.86383],[15.06928,59.86204],[15.06803,59.86062],[15.06568,59.85923],[15.06796,59.85752],[15.06892,59.85554],[15.07299,59.85288],[15.07427,59.85076],[15.07411,59.84814],[15.07348,59.84676],[15.07218,59.8455],[15.07064,59.8446],[15.07022,59.84345],[15.06907,59.84211],[15.06634,59.84041],[15.06205,59.8391],[15.05819,59.83862],[15.05377,59.83888],[15.05002,59.83989],[15.04787,59.84102],[15.04639,59.84236],[15.04565,59.84379],[15.04577,59.84572],[15.04525,59.84647],[15.0428,59.8467],[15.0371,59.84779],[15.03473,59.84864],[15.03278,59.8498],[15.03069,59.85161],[15.02855,59.85398],[15.028,59.85539],[15.02811,59.85661],[15.02385,59.8567],[15.02009,59.85757],[15.01726,59.85906],[15.01577,59.86082],[15.01124,59.86191],[15.00759,59.86381],[15.00535,59.86345],[15.00225,59.86333],[14.99939,59.86359],[14.99671,59.86421],[14.99305,59.86239],[14.98992,59.86154],[14.98354,59.86107],[14.98,59.86121],[14.97542,59.86211],[14.97227,59.86356],[14.97037,59.86555],[14.97001,59.86696],[14.97022,59.86808],[14.96734,59.86814],[14.96464,59.86857],[14.96219,59.86933],[14.96031,59.87024],[14.95876,59.87145],[14.95721,59.87376],[14.957,59.87486],[14.95729,59.87641],[14.95473,59.87977],[14.95412,59.8811],[14.95392,59.88253],[14.95428,59.88393],[14.95535,59.88528],[14.95708,59.88645],[14.95696,59.88778],[14.9573,59.88884],[14.95931,59.89149],[14.96044,59.89244],[14.96239,59.89347],[14.96597,59.8947],[14.96851,59.89519],[14.9719,59.89533]],[[14.99463,59.88422],[14.99325,59.88319],[14.99049,59.88026],[14.98899,59.8794],[14.9862,59.88043],[14.98482,59.87969],[14.98529,59.87895],[14.98355,59.8791],[14.98263,59.87948],[14.98242,59.88005],[14.98174,59.88033],[14.98175,59.88056],[14.98044,59.88138],[14.97834,59.88124],[14.97327,59.87959],[14.9743,59.87909],[14.97657,59.87715],[14.97847,59.87654],[14.97809,59.8755],[14.97855,59.87498],[14.9799,59.8745],[14.98237,59.87493],[14.9845,59.87563],[14.9857,59.87547],[14.98669,59.87573],[14.98863,59.87471],[14.98892,59.87435],[14.98874,59.874],[14.99023,59.87355],[14.99048,59.87426],[14.99092,59.8744],[14.99159,59.8742],[14.99184,59.87354],[14.99234,59.87342],[14.99385,59.87348],[14.99444,59.87372],[14.99626,59.87369],[14.99833,59.87319],[14.99916,59.87318],[15.00069,59.87278],[15.00166,59.87192],[15.00373,59.87115],[15.00553,59.87105],[15.00826,59.87053],[15.00906,59.87016],[15.00944,59.86952],[15.01088,59.86886],[15.01156,59.86792],[15.0121,59.86769],[15.01569,59.86734],[15.01688,59.86795],[15.01687,59.86819],[15.01745,59.86851],[15.01833,59.86871],[15.01883,59.86921],[15.02029,59.86913],[15.02216,59.86955],[15.02358,59.87116],[15.02532,59.87212],[15.0238,59.87386],[15.01921,59.87514],[15.01747,59.87734],[15.01273,59.87679],[15.01139,59.87722],[15.01038,59.87785],[15.00597,59.87818],[15.00364,59.87905],[15.00191,59.88009],[14.99931,59.8806],[14.99697,59.88415],[14.99583,59.88455],[14.99463,59.88422]]]}},{"type":"Feature","id":"1864R003","properties":{"code":"1864R003","name":"Ljusnarsberg Yttre"},"geometry":{"type":"Polygon","coordinates":[[[14.80766,60.11093],[14.85001,60.10457],[14.8507,60.10419],[14.8511,60.10358],[14.85098,60.10306],[14.85143,60.1026],[14.85044,60.10179],[14.848,60.10248],[14.84629,60.10263],[14.8432,60.1023],[14.84224,60.10194],[14.84172,60.10055],[14.84209,60.09909],[14.84264,60.09854],[14.84255,60.09802],[14.84203,60.09758],[14.84044,60.09707],[14.8399,60.09565],[14.84037,60.09488],[14.84083,60.09476],[14.84064,60.09438],[14.83996,60.09442],[14.83986,60.09417],[14.83916,60.09392],[14.83832,60.09406],[14.83776,60.09379],[14.83691,60.09283],[14.83737,60.09253],[14.83653,60.09205],[14.83662,60.09189],[14.83872,60.09129],[14.83839,60.09088],[14.83894,60.09062],[14.8394,60.08948],[14.83818,60.08836],[14.84298,60.08408],[14.8457,60.08279],[14.85942,60.08178],[14.88727,60.06378],[14.89129,60.05723],[14.89723,60.05439],[14.90478,60.05134],[14.91738,60.0527],[14.93883,60.04873],[15.00222,60.05608],[15.00522,60.05639],[15.00571,60.05626],[15.00606,60.05666],[15.00745,60.05696],[15.00772,60.05672],[15.01343,60.05739],[15.03404,60.03918],[15.04622,60.04285],[15.04763,60.04948],[15.07768,60.04112],[15.12546,60.00842],[15.17782,60.00392],[15.20542,60.00178],[15.21771,59.98769],[15.22843,59.97613],[15.21345,59.95522],[15.20585,59.94231],[15.19425,59.94574],[15.19325,59.94637],[15.19191,59.94648],[15.19067,59.94632],[15.19093,59.94602],[15.19094,59.94396],[15.19188,59.94247],[15.18884,59.94113],[15.19249,59.93777],[15.19503,59.93891],[15.19546,59.9386],[15.19634,59.93691],[15.19833,59.93541],[15.20043,59.9349],[15.20161,59.93487],[15.19436,59.92253],[15.19173,59.92188],[15.19045,59.92111],[15.19041,59.92082],[15.1863,59.92193],[15.18555,59.92164],[15.1865,59.92088],[15.18674,59.9197],[15.18924,59.91766],[15.19024,59.91601],[15.19131,59.91521],[15.19003,59.91516],[15.177,59.89501],[15.17865,59.89548],[15.18143,59.89522],[15.18174,59.89465],[15.18249,59.89526],[15.18242,59.89486],[15.18165,59.89447],[15.1768,59.89468],[15.16801,59.88068],[15.16884,59.8797],[15.16869,59.87855],[15.16797,59.87818],[15.16624,59.87779],[15.16457,59.875],[15.16414,59.87241],[15.16391,59.87214],[15.16304,59.87198],[15.16297,59.87054],[15.16153,59.87029],[15.16148,59.86867],[15.1609,59.86698],[15.16034,59.86635],[15.15889,59.8656],[15.14762,59.84514],[15.14704,59.84501],[15.14743,59.84471],[15.14698,59.84389],[15.14628,59.84379],[15.14324,59.83746],[15.1449,59.83766],[15.14559,59.83756],[15.14538,59.83631],[15.14647,59.83445],[15.1456,59.83417],[15.14359,59.83428],[15.14264,59.83491],[15.14213,59.83483],[15.11449,59.82779],[15.11378,59.8272],[15.11399,59.82665],[15.11487,59.82584],[15.11336,59.82541],[15.11218,59.82605],[15.11075,59.82594],[15.10794,59.82444],[15.10551,59.8227],[15.10314,59.82453],[15.09964,59.82616],[15.09607,59.82382],[15.09601,59.82302],[15.09518,59.82183],[15.09532,59.82111],[15.09262,59.8195],[15.09384,59.81833],[15.09564,59.81788],[15.0933,59.81723],[15.09331,59.81534],[15.08568,59.81027],[15.08495,59.80946],[15.08182,59.80863],[15.08321,59.80742],[15.08388,59.80624],[15.08461,59.80285],[15.09035,59.80353],[15.09253,59.80251],[15.09503,59.80168],[15.09518,59.80075],[15.0959,59.79997],[15.09603,59.79794],[15.09548,59.79663],[15.09482,59.79269],[15.09541,59.79091],[15.09658,59.78991],[15.09665,59.78912],[15.09738,59.78812],[15.09798,59.78792],[15.09801,59.78715],[15.0984,59.78689],[15.0969,59.78706],[15.09672,59.78765],[15.07092,59.78134],[15.06303,59.78092],[15.05793,59.77961],[15.05665,59.78049],[15.05479,59.78013],[15.0536,59.78012],[15.0531,59.78071],[15.0303,59.78022],[14.98689,59.77559],[14.97059,59.7743],[14.94146,59.77169],[14.9054,59.76809],[14.90491,59.76867],[14.90422,59.76866],[14.90213,59.76937],[14.90093,59.77058],[14.89954,59.77146],[14.8993,59.77271],[14.89955,59.77364],[14.9011,59.77398],[14.87485,59.81135],[14.86008,59.84952],[14.85261,59.86381],[14.85094,59.86548],[14.8515,59.86563],[14.85219,59.86636],[14.85259,59.86623],[14.85217,59.86588],[14.85238,59.86578],[14.85338,59.86598],[14.85353,59.8663],[14.85279,59.86671],[14.85282,59.86693],[14.85187,59.86722],[14.85137,59.86706],[14.85145,59.86678],[14.85025,59.8667],[14.84966,59.86646],[14.84919,59.86581],[14.84764,59.86628],[14.84629,59.86596],[14.84585,59.86614],[14.84531,59.86585],[14.84447,59.86579],[14.84419,59.86591],[14.84439,59.86617],[14.84384,59.86619],[14.84217,59.8657],[14.84232,59.86546],[14.84311,59.86562],[14.8426,59.86458],[14.84081,59.86481],[14.84068,59.86514],[14.83958,59.86549],[14.8397,59.86504],[14.83852,59.86449],[14.83797,59.86458],[14.83851,59.86502],[14.8377,59.86553],[14.83637,59.86582],[14.83557,59.86577],[14.83508,59.86684],[14.83408,59.8663],[14.83337,59.86651],[14.83337,59.86741],[14.83361,59.86747],[14.83403,59.86701],[14.83511,59.86726],[14.83556,59.86757],[14.83469,59.86774],[14.83409,59.86829],[14.81883,59.8832],[14.81108,59.89038],[14.81372,59.8905],[14.81462,59.89298],[14.81418,59.89296],[14.813,59.89087],[14.81193,59.89132],[14.81014,59.89128],[14.80602,59.89505],[14.80699,59.8948],[14.80814,59.89541],[14.80875,59.89652],[14.80793,59.89758],[14.80705,59.89822],[14.80598,59.89824],[14.8052,59.89872],[14.80488,59.89903],[14.80535,59.89957],[14.80512,59.89989],[14.80351,59.8997],[14.80291,59.89984],[14.80162,59.90089],[14.80081,59.90233],[14.80018,59.90256],[14.79991,59.90237],[14.80013,59.90162],[14.80091,59.90083],[14.80053,59.89989],[14.78905,59.90989],[14.78085,59.91569],[14.7736,59.92178],[14.77073,59.9404],[14.75647,59.97733],[14.75339,59.99898],[14.75195,59.99938],[14.75212,60.00093],[14.75132,60.00229],[14.75117,60.00391],[14.75033,60.00496],[14.75049,60.0057],[14.75024,60.00604],[14.75059,60.00606],[14.74932,60.00809],[14.75175,60.00817],[14.75149,60.00987],[14.73734,60.08175],[14.77001,60.09504],[14.80766,60.11093]],[[14.97054,59.89534],[14.96785,59.8951],[14.96597,59.8947],[14.96239,59.89347],[14.96041,59.89242],[14.95904,59.89118],[14.9573,59.88884],[14.95696,59.88778],[14.95708,59.88645],[14.95535,59.88528],[14.95413,59.8836],[14.95392,59.8825],[14.95423,59.88076],[14.95729,59.87641],[14.957,59.87483],[14.95736,59.87343],[14.95876,59.87145],[14.96031,59.87024],[14.96219,59.86933],[14.96464,59.86857],[14.96734,59.86814],[14.97022,59.86808],[14.97001,59.86696],[14.97037,59.86555],[14.97227,59.86356],[14.97542,59.86211],[14.98,59.86121],[14.98354,59.86107],[14.98992,59.86154],[14.99305,59.86239],[14.99671,59.86421],[14.99939,59.86359],[15.00225,59.86333],[15.00535,59.86345],[15.00759,59.86381],[15.01124,59.86191],[15.01577,59.86082],[15.01726,59.85906],[15.02009,59.85757],[15.02385,59.8567],[15.02811,59.85661],[15.028,59.85539],[15.02855,59.85398],[15.03069,59.85161],[15.03278,59.8498],[15.03473,59.84864],[15.0371,59.84779],[15.0428,59.8467],[15.04525,59.84647],[15.04577,59.84572],[15.04565,59.84379],[15.04639,59.84236],[15.04787,59.84102],[15.05002,59.83989],[15.05377,59.83888],[15.05819,59.83862],[15.06205,59.8391],[15.06634,59.84041],[15.06907,59.84211],[15.07022,59.84345],[15.07064,59.8446],[15.07218,59.8455],[15.07348,59.84676],[15.07411,59.84814],[15.07427,59.85076],[15.07299,59.85288],[15.06892,59.85554],[15.06796,59.85752],[15.06568,59.85923],[15.06803,59.86062],[15.06928,59.86204],[15.06973,59.86383],[15.06924,59.86538],[15.0683,59.86653],[15.06676,59.86778],[15.06406,59.86917],[15.06242,59.87037],[15.05972,59.8715],[15.05801,59.87275],[15.05636,59.8735],[15.05214,59.87471],[15.04939,59.87519],[15.04717,59.87532],[15.04427,59.87517],[15.04206,59.8748],[15.03993,59.87418],[15.03571,59.87418],[15.03155,59.87477],[15.02667,59.87469],[15.02364,59.87617],[15.02584,59.87765],[15.02704,59.87945],[15.02715,59.88091],[15.02621,59.88343],[15.02469,59.88524],[15.02443,59.8871],[15.02344,59.88846],[15.02167,59.88975],[15.01888,59.89089],[15.01685,59.89136],[15.014,59.89166],[15.0116,59.89165],[15.00921,59.89139],[15.00545,59.89038],[15.00107,59.8879],[14.99731,59.88739],[14.99475,59.8867],[14.9921,59.88706],[14.99067,59.88826],[14.98915,59.88906],[14.98679,59.88984],[14.98421,59.8903],[14.98158,59.89169],[14.97921,59.89351],[14.97715,59.8944],[14.97392,59.89515],[14.97054,59.89534]]]}}]}