{"type":"FeatureCollection","features":[{"type":"Feature","id":"1880R027","properties":{"code":"1880R027","name":"Tybble"},"geometry":{"type":"Polygon","coordinates":[[[15.23841,59.25944],[15.24007,59.25918],[15.24092,59.25923],[15.24124,59.25901],[15.24138,59.25584],[15.2419,59.25465],[15.23869,59.25434],[15.23306,59.2516],[15.23193,59.25144],[15.2304,59.25152],[15.23053,59.25537],[15.22905,59.25721],[15.23841,59.25944]]]}},{"type":"Feature","id":"1880R028","properties":{"code":"1880R028","name":"Varberga-Oxhagen"},"geometry":{"type":"Polygon","coordinates":[[[15.17381,59.29041],[15.17759,59.28888],[15.18404,59.2857],[15.1815,59.28201],[15.17931,59.2762],[15.17611,59.27682],[15.17316,59.27712],[15.1695,59.27718],[15.16879,59.27913],[15.16883,59.28217],[15.16332,59.28438],[15.16251,59.28679],[15.16519,59.2904],[15.17113,59.29032],[15.17332,59.28991],[15.17381,59.29041]]]}},{"type":"Feature","id":"1880R029","properties":{"code":"1880R029","name":"Vivalla"},"geometry":{"type":"Polygon","coordinates":[[[15.19527,59.29401],[15.18193,59.29563],[15.18046,59.29597],[15.17536,59.30156],[15.17957,59.30357],[15.18199,59.30394],[15.19391,59.30477],[15.19718,59.29502],[15.19657,59.29429],[15.19527,59.29401]]]}},{"type":"Feature","id":"1880R030","properties":{"code":"1880R030","name":"Västhaga-Solhaga"},"geometry":{"type":"Polygon","coordinates":[[[15.17931,59.2762],[15.17808,59.27277],[15.17477,59.26718],[15.17141,59.26738],[15.16894,59.26832],[15.16631,59.26861],[15.16315,59.26924],[15.16233,59.26909],[15.1604,59.26746],[15.16039,59.26644],[15.15996,59.26556],[15.15825,59.26462],[15.15723,59.26451],[15.15553,59.26489],[15.15432,59.2643],[15.15353,59.26414],[15.15275,59.26424],[15.15157,59.26539],[15.15222,59.2662],[15.15239,59.26713],[15.15333,59.26738],[15.15401,59.26797],[15.1535,59.26869],[15.15213,59.26898],[15.14905,59.26846],[15.14762,59.26851],[15.14729,59.26749],[15.14462,59.26639],[15.14472,59.2652],[15.14156,59.26438],[15.13545,59.2653],[15.13791,59.27439],[15.14499,59.27315],[15.14719,59.27323],[15.15033,59.27396],[15.15333,59.27521],[15.15501,59.27563],[15.167,59.27698],[15.1695,59.27718],[15.17316,59.27712],[15.17611,59.27682],[15.17931,59.2762]]]}},{"type":"Feature","id":"1880R031","properties":{"code":"1880R031","name":"Örebro city"},"geometry":{"type":"Polygon","coordinates":[[[15.23602,59.27457],[15.23934,59.27365],[15.23507,59.27371],[15.22976,59.27282],[15.22672,59.2734],[15.22515,59.27267],[15.22154,59.27274],[15.21968,59.27331],[15.21562,59.26835],[15.20708,59.27021],[15.20807,59.27142],[15.205,59.27212],[15.20852,59.27528],[15.21168,59.27946],[15.23602,59.27457]]]}},{"type":"Feature","id":"1880R001","properties":{"code":"1880R001","name":"Adolfsberg"},"geometry":{"type":"Polygon","coordinates":[[[15.2419,59.25465],[15.23874,59.24945],[15.23491,59.24453],[15.23205,59.23795],[15.22761,59.23051],[15.22464,59.23332],[15.22346,59.23708],[15.22086,59.23641],[15.21853,59.23614],[15.21672,59.23445],[15.21348,59.23301],[15.2119,59.23121],[15.21216,59.22839],[15.2117,59.22696],[15.21056,59.22563],[15.20834,59.22429],[15.20475,59.22323],[15.20282,59.22229],[15.20095,59.2217],[15.19825,59.22122],[15.19522,59.2211],[15.19241,59.22136],[15.18973,59.22199],[15.18736,59.22299],[15.18552,59.22433],[15.18221,59.22511],[15.18268,59.22322],[15.18217,59.22048],[15.18085,59.2188],[15.17849,59.21738],[15.17788,59.21451],[15.17367,59.21516],[15.17241,59.21672],[15.16975,59.23024],[15.16832,59.23036],[15.17068,59.24288],[15.17251,59.24512],[15.17817,59.24987],[15.17981,59.24978],[15.18101,59.24786],[15.18067,59.24706],[15.18497,59.24736],[15.18614,59.2484],[15.18688,59.24952],[15.18883,59.25062],[15.18932,59.25123],[15.19145,59.25095],[15.19522,59.25096],[15.19687,59.25058],[15.19851,59.2498],[15.1986,59.24953],[15.20079,59.24925],[15.20242,59.24787],[15.2053,59.24745],[15.20864,59.24779],[15.21239,59.24879],[15.21876,59.24909],[15.21933,59.24849],[15.22442,59.24925],[15.22556,59.24949],[15.22611,59.24983],[15.22739,59.24935],[15.22944,59.24939],[15.2304,59.25152],[15.23193,59.25144],[15.23306,59.2516],[15.23869,59.25434],[15.2419,59.25465]]]}},{"type":"Feature","id":"1880R002","properties":{"code":"1880R002","name":"Almby-Ormesta"},"geometry":{"type":"Polygon","coordinates":[[[15.24083,59.26505],[15.2428,59.26378],[15.24351,59.26403],[15.24444,59.26405],[15.2443,59.26137],[15.24989,59.26175],[15.28479,59.26144],[15.2845,59.26079],[15.28628,59.25885],[15.28723,59.25647],[15.28979,59.25561],[15.29216,59.25414],[15.29329,59.2528],[15.29421,59.25065],[15.29419,59.24885],[15.29278,59.24684],[15.29376,59.2452],[15.29392,59.24346],[15.2954,59.24095],[15.29543,59.23921],[15.29426,59.23721],[15.29174,59.23558],[15.28948,59.23482],[15.28707,59.23433],[15.28494,59.23407],[15.28266,59.23402],[15.27841,59.23456],[15.27651,59.23513],[15.27444,59.23611],[15.27184,59.25058],[15.26588,59.25016],[15.26069,59.24947],[15.25932,59.24955],[15.25812,59.24988],[15.25679,59.25066],[15.25537,59.25103],[15.25431,59.25112],[15.25234,59.25055],[15.25168,59.25056],[15.2399,59.2514],[15.2419,59.25465],[15.24138,59.25584],[15.24124,59.25901],[15.23372,59.26513],[15.2411,59.26596],[15.24083,59.26505]]]}},{"type":"Feature","id":"1880R003","properties":{"code":"1880R003","name":"Baronbackarna"},"geometry":{"type":"Polygon","coordinates":[[[15.21401,59.29496],[15.21288,59.29333],[15.21314,59.29194],[15.2127,59.28917],[15.21541,59.28721],[15.21585,59.28582],[15.20428,59.28709],[15.20431,59.28833],[15.20288,59.28825],[15.20091,59.28871],[15.19932,59.28869],[15.19759,59.28824],[15.19365,59.28855],[15.19382,59.28909],[15.18851,59.29],[15.19084,59.29138],[15.19589,59.29289],[15.20331,59.29413],[15.21401,59.29496]]]}},{"type":"Feature","id":"1880R004","properties":{"code":"1880R004","name":"Brickebacken"},"geometry":{"type":"Polygon","coordinates":[[[15.22901,59.22846],[15.22518,59.22833],[15.22627,59.22945],[15.22774,59.23041],[15.22795,59.23116],[15.23205,59.23795],[15.23345,59.24117],[15.24569,59.24206],[15.24718,59.23836],[15.24843,59.23239],[15.24693,59.23217],[15.24621,59.2307],[15.2414,59.23039],[15.22901,59.22846]]]}},{"type":"Feature","id":"1880R005","properties":{"code":"1880R005","name":"Brickeberg-Norra Bro"},"geometry":{"type":"Polygon","coordinates":[[[15.2399,59.2514],[15.25234,59.25055],[15.25431,59.25112],[15.25537,59.25103],[15.25679,59.25066],[15.25812,59.24988],[15.25932,59.24955],[15.26069,59.24947],[15.26588,59.25016],[15.27184,59.25058],[15.27444,59.23611],[15.27147,59.23854],[15.26873,59.24229],[15.2668,59.24333],[15.26494,59.24499],[15.26392,59.24682],[15.26402,59.24534],[15.26341,59.24398],[15.26395,59.2424],[15.26426,59.23876],[15.26369,59.23661],[15.26392,59.23593],[15.26569,59.23511],[15.26739,59.23382],[15.26834,59.23244],[15.2686,59.23131],[15.26798,59.22879],[15.26834,59.22752],[15.26826,59.22631],[15.26699,59.22351],[15.26657,59.22118],[15.26737,59.21998],[15.26783,59.21786],[15.26753,59.21636],[15.26683,59.21529],[15.26762,59.21411],[15.26788,59.21304],[15.26779,59.21049],[15.26707,59.20893],[15.26721,59.20688],[15.26648,59.20535],[15.26605,59.20335],[15.26514,59.20218],[15.26384,59.20115],[15.26076,59.19964],[15.2583,59.19881],[15.25566,59.19826],[15.25283,59.19806],[15.24899,59.19835],[15.24585,59.19916],[15.24078,59.20185],[15.2391,59.20303],[15.23791,59.20473],[15.23774,59.20637],[15.23569,59.20826],[15.23451,59.21105],[15.23479,59.21319],[15.23644,59.215],[15.23536,59.21621],[15.2349,59.21726],[15.23479,59.21895],[15.23512,59.22001],[15.23038,59.22087],[15.22726,59.22218],[15.22609,59.22305],[15.22504,59.22431],[15.22444,59.22625],[15.22518,59.22833],[15.22901,59.22846],[15.2414,59.23039],[15.24621,59.2307],[15.24693,59.23217],[15.24843,59.23239],[15.24718,59.23836],[15.24569,59.24206],[15.23345,59.24117],[15.23491,59.24453],[15.23874,59.24945],[15.2399,59.2514]]]}},{"type":"Feature","id":"1880R006","properties":{"code":"1880R006","name":"Brunnsgärdet-Lindhult-Nasta"},"geometry":{"type":"Polygon","coordinates":[[[15.17477,59.26718],[15.16932,59.26119],[15.17789,59.26316],[15.18529,59.26414],[15.19648,59.26522],[15.17145,59.24404],[15.17068,59.24288],[15.16832,59.23036],[15.1593,59.23156],[15.15086,59.23147],[15.15078,59.23214],[15.14082,59.23215],[15.14087,59.23411],[15.13518,59.23413],[15.13355,59.23398],[15.13481,59.23521],[15.13457,59.23705],[15.13543,59.23899],[15.1381,59.24113],[15.14059,59.24239],[15.14207,59.24398],[15.14371,59.24519],[15.14358,59.24681],[15.14228,59.24885],[15.14225,59.25019],[15.14268,59.25142],[15.1411,59.253],[15.14056,59.25451],[15.13776,59.25573],[15.1363,59.25689],[15.13543,59.25832],[15.13244,59.25959],[15.13076,59.26076],[15.12959,59.26241],[15.12955,59.2643],[15.13046,59.26432],[15.13149,59.26398],[15.13251,59.26239],[15.13508,59.26167],[15.13598,59.26175],[15.13885,59.26263],[15.13953,59.2633],[15.14156,59.26438],[15.14472,59.2652],[15.14462,59.26639],[15.14729,59.26749],[15.14762,59.26851],[15.14905,59.26846],[15.15213,59.26898],[15.1535,59.26869],[15.15401,59.26797],[15.15333,59.26738],[15.15239,59.26713],[15.15222,59.2662],[15.15157,59.26539],[15.15275,59.26424],[15.15353,59.26414],[15.15432,59.2643],[15.15553,59.26489],[15.15723,59.26451],[15.15825,59.26462],[15.15996,59.26556],[15.16039,59.26644],[15.1604,59.26746],[15.16233,59.26909],[15.16315,59.26924],[15.16631,59.26861],[15.16894,59.26832],[15.17141,59.26738],[15.17477,59.26718]]]}},{"type":"Feature","id":"1880R007","properties":{"code":"1880R007","name":"Ekeby-Almby-Hidingsta-Stora Mellösa"},"geometry":{"type":"Polygon","coordinates":[[[15.53786,59.30683],[15.55252,59.30304],[15.55252,59.30334],[15.65257,59.27703],[15.69168,59.27053],[15.72654,59.2234],[15.64508,59.19737],[15.64732,59.18785],[15.61849,59.18498],[15.61336,59.18772],[15.61082,59.18752],[15.60925,59.18641],[15.58837,59.18364],[15.58215,59.18517],[15.57758,59.18539],[15.57359,59.18583],[15.57294,59.19012],[15.57048,59.18989],[15.55777,59.18673],[15.55036,59.18782],[15.54852,59.18878],[15.54566,59.18907],[15.53732,59.195],[15.53206,59.19631],[15.49942,59.19515],[15.49246,59.19442],[15.47755,59.1881],[15.46244,59.18392],[15.46234,59.18506],[15.45871,59.18511],[15.45788,59.18498],[15.45669,59.18445],[15.45548,59.18435],[15.45535,59.18518],[15.45438,59.18533],[15.45314,59.18503],[15.45199,59.18573],[15.45146,59.1858],[15.45051,59.18557],[15.44951,59.18483],[15.44794,59.18535],[15.44798,59.18426],[15.44737,59.18416],[15.44587,59.18426],[15.44563,59.18414],[15.43701,59.18528],[15.4247,59.18199],[15.4228,59.18044],[15.42346,59.17411],[15.40196,59.17365],[15.37811,59.1752],[15.37032,59.17775],[15.35832,59.17921],[15.3566,59.18333],[15.33146,59.18453],[15.3255,59.18437],[15.32374,59.18371],[15.32424,59.18344],[15.32389,59.18301],[15.32434,59.1827],[15.32279,59.18191],[15.31896,59.18125],[15.31756,59.18075],[15.31277,59.18096],[15.31141,59.18136],[15.30969,59.18135],[15.30837,59.18114],[15.30775,59.18139],[15.30675,59.18234],[15.30551,59.18253],[15.30462,59.18288],[15.30509,59.18367],[15.30491,59.18395],[15.3034,59.18449],[15.30235,59.18456],[15.30117,59.18564],[15.30131,59.18605],[15.30189,59.18641],[15.30167,59.18711],[15.30124,59.18719],[15.30006,59.18685],[15.29916,59.18688],[15.29819,59.18742],[15.29809,59.18809],[15.29581,59.18827],[15.29513,59.18808],[15.29496,59.18743],[15.29305,59.18772],[15.29235,59.18714],[15.29156,59.18707],[15.29103,59.18755],[15.28975,59.18746],[15.28905,59.18817],[15.2878,59.18806],[15.2871,59.18887],[15.2845,59.18924],[15.28376,59.18889],[15.2832,59.18804],[15.28286,59.18816],[15.28284,59.18893],[15.28226,59.1891],[15.28158,59.18909],[15.28076,59.18853],[15.2802,59.1888],[15.27948,59.18878],[15.27919,59.18858],[15.27971,59.18764],[15.27734,59.18547],[15.26211,59.18191],[15.26121,59.18247],[15.25762,59.18115],[15.25223,59.17789],[15.24882,59.17685],[15.23784,59.17538],[15.23088,59.172],[15.22962,59.17164],[15.2047,59.18055],[15.20324,59.17992],[15.20023,59.18216],[15.18354,59.18207],[15.17153,59.17598],[15.17221,59.17791],[15.17196,59.1795],[15.1713,59.18057],[15.16988,59.18181],[15.16962,59.18314],[15.16883,59.18437],[15.16672,59.18624],[15.16607,59.18903],[15.16651,59.19077],[15.16739,59.19169],[15.17106,59.19279],[15.17258,59.19361],[15.17384,59.19463],[15.17504,59.19671],[15.17634,59.19798],[15.17698,59.19964],[15.1785,59.20159],[15.17884,59.20337],[15.1783,59.20493],[15.17849,59.20615],[15.17823,59.20722],[15.17727,59.20858],[15.17534,59.20995],[15.17602,59.21265],[15.17738,59.21382],[15.17806,59.21487],[15.17849,59.21738],[15.18085,59.2188],[15.18217,59.22048],[15.18268,59.22322],[15.18221,59.22511],[15.18552,59.22433],[15.18691,59.22324],[15.18847,59.22245],[15.19037,59.2218],[15.19241,59.22136],[15.19674,59.22111],[15.1989,59.2213],[15.20155,59.22186],[15.20468,59.2232],[15.2083,59.22427],[15.21056,59.22563],[15.21149,59.22663],[15.21211,59.22802],[15.2119,59.23121],[15.21348,59.23301],[15.21672,59.23445],[15.21853,59.23614],[15.22086,59.23641],[15.22346,59.23708],[15.22464,59.23332],[15.22774,59.23041],[15.22554,59.22876],[15.22454,59.22704],[15.22465,59.22507],[15.22609,59.22305],[15.2277,59.22192],[15.2298,59.22104],[15.23512,59.22001],[15.23479,59.21895],[15.2349,59.21726],[15.23536,59.21621],[15.23644,59.215],[15.23479,59.21319],[15.23451,59.21105],[15.23569,59.20826],[15.23774,59.20637],[15.23778,59.20516],[15.23824,59.20406],[15.23992,59.20237],[15.24419,59.19989],[15.24585,59.19916],[15.24899,59.19835],[15.25216,59.19806],[15.25566,59.19826],[15.25912,59.19905],[15.26294,59.20064],[15.26505,59.20209],[15.26635,59.20401],[15.26648,59.20535],[15.26721,59.20688],[15.26707,59.20893],[15.26783,59.21083],[15.26783,59.21341],[15.26683,59.21529],[15.26769,59.2168],[15.26778,59.2183],[15.26736,59.22],[15.26657,59.22118],[15.26699,59.22351],[15.26826,59.22631],[15.26834,59.22752],[15.26798,59.22879],[15.2686,59.23131],[15.26834,59.23244],[15.26739,59.23382],[15.26569,59.23511],[15.26392,59.23593],[15.26369,59.23661],[15.26426,59.23876],[15.26395,59.2424],[15.26341,59.24398],[15.26402,59.24534],[15.26392,59.24682],[15.26492,59.24502],[15.2668,59.24333],[15.26873,59.24229],[15.27214,59.23791],[15.27486,59.23587],[15.27841,59.23456],[15.28113,59.23412],[15.28407,59.23403],[15.28643,59.23423],[15.28948,59.23482],[15.29174,59.23558],[15.29355,59.23661],[15.29481,59.23783],[15.29534,59.23887],[15.2954,59.24095],[15.29392,59.24346],[15.29376,59.2452],[15.29278,59.24684],[15.29385,59.24809],[15.29428,59.24919],[15.29392,59.25145],[15.29308,59.25313],[15.2917,59.25451],[15.28979,59.25561],[15.28723,59.25647],[15.28628,59.25885],[15.2845,59.26079],[15.28487,59.26177],[15.28487,59.26338],[15.28442,59.26453],[15.28439,59.26642],[15.28361,59.26781],[15.28127,59.26956],[15.27816,59.27068],[15.27615,59.27108],[15.27072,59.27163],[15.2679,59.27156],[15.26575,59.27126],[15.26488,59.2718],[15.26462,59.27234],[15.26507,59.27338],[15.26967,59.27408],[15.273,59.2752],[15.27501,59.27659],[15.27607,59.2782],[15.28175,59.27799],[15.28719,59.28446],[15.37764,59.27894],[15.37718,59.28174],[15.40487,59.28278],[15.41014,59.28265],[15.4182,59.28326],[15.42144,59.28405],[15.42504,59.28423],[15.46867,59.28142],[15.49763,59.27987],[15.53786,59.30683]]]}},{"type":"Feature","id":"1880R008","properties":{"code":"1880R008","name":"Eklunda-Sörby"},"geometry":{"type":"Polygon","coordinates":[[[15.22652,59.26887],[15.22908,59.26646],[15.23227,59.26604],[15.23372,59.26513],[15.24092,59.25923],[15.24007,59.25918],[15.23824,59.25947],[15.22905,59.25721],[15.22679,59.25702],[15.22013,59.25733],[15.21982,59.25633],[15.21722,59.25695],[15.21591,59.25557],[15.21242,59.25538],[15.21219,59.25672],[15.21359,59.25705],[15.21448,59.25761],[15.21073,59.25852],[15.20939,59.26303],[15.20882,59.26329],[15.21193,59.26466],[15.21599,59.26606],[15.22149,59.2667],[15.22142,59.26703],[15.22449,59.26714],[15.22602,59.26896],[15.22652,59.26887]]]}},{"type":"Feature","id":"1880R009","properties":{"code":"1880R009","name":"Ervalla-Ölmbrotorp"},"geometry":{"type":"Polygon","coordinates":[[[15.20082,59.52373],[15.21453,59.51496],[15.22175,59.51564],[15.22129,59.51659],[15.22178,59.51746],[15.22212,59.51933],[15.22754,59.51992],[15.23021,59.52045],[15.22905,59.51811],[15.23148,59.50801],[15.26349,59.50625],[15.27565,59.50537],[15.27877,59.50159],[15.2761,59.49184],[15.27394,59.48706],[15.27277,59.48526],[15.27346,59.48351],[15.27384,59.48346],[15.27325,59.48069],[15.27444,59.47841],[15.27585,59.47165],[15.27593,59.46801],[15.27705,59.46054],[15.27958,59.44758],[15.27934,59.44733],[15.27956,59.44592],[15.28093,59.44545],[15.29143,59.44863],[15.29505,59.44659],[15.29878,59.44943],[15.29935,59.44941],[15.30114,59.44986],[15.30289,59.44893],[15.30445,59.44733],[15.30489,59.44623],[15.31055,59.44328],[15.31648,59.43898],[15.3183,59.43846],[15.31896,59.43809],[15.31917,59.43699],[15.31785,59.4351],[15.31807,59.43369],[15.31926,59.43284],[15.36377,59.42839],[15.35713,59.41323],[15.34991,59.39309],[15.35294,59.39244],[15.35492,59.38921],[15.35263,59.38684],[15.34383,59.38444],[15.34301,59.37873],[15.34604,59.37809],[15.34507,59.37649],[15.3489,59.37196],[15.33908,59.36216],[15.32354,59.35876],[15.29988,59.35484],[15.27781,59.34997],[15.27369,59.3337],[15.25048,59.33233],[15.24396,59.33257],[15.24367,59.33382],[15.243,59.33486],[15.2453,59.3364],[15.24674,59.33769],[15.24771,59.33988],[15.24767,59.3435],[15.24705,59.34572],[15.24711,59.34754],[15.24651,59.34893],[15.24561,59.3499],[15.24386,59.35104],[15.2393,59.35297],[15.23797,59.35434],[15.23525,59.35589],[15.23345,59.3573],[15.23137,59.35828],[15.2295,59.35887],[15.22576,59.35945],[15.22226,59.35949],[15.21828,59.35975],[15.21481,59.35939],[15.21196,59.35862],[15.2099,59.35766],[15.20726,59.35592],[15.2053,59.35414],[15.20339,59.35098],[15.20324,59.34824],[15.20378,59.34682],[15.20576,59.3445],[15.20581,59.34301],[15.20631,59.34186],[15.20806,59.34015],[15.20738,59.33878],[15.20738,59.33731],[15.20787,59.33617],[15.20896,59.33492],[15.20951,59.33321],[15.212,59.33009],[15.21607,59.32761],[15.21434,59.3262],[15.21016,59.32556],[15.20417,59.32329],[15.20225,59.32227],[15.20087,59.32101],[15.20009,59.31927],[15.20055,59.31665],[15.202,59.3129],[15.20391,59.3111],[15.20212,59.311],[15.20137,59.31233],[15.20012,59.31342],[15.1996,59.31479],[15.19976,59.3159],[15.19944,59.31717],[15.19845,59.31855],[15.19726,59.31949],[15.19522,59.32052],[15.19274,59.32125],[15.19053,59.32161],[15.18767,59.32174],[15.18456,59.32147],[15.18196,59.32087],[15.17831,59.32096],[15.17552,59.32071],[15.17299,59.32012],[15.17053,59.31912],[15.16881,59.31795],[15.16783,59.31682],[15.16428,59.30925],[15.16181,59.30944],[15.15699,59.3127],[15.15486,59.31366],[15.15233,59.3143],[15.1489,59.31461],[15.14475,59.31425],[15.14219,59.3137],[15.14038,59.31309],[15.13768,59.31144],[15.1368,59.31042],[15.13631,59.30923],[15.13388,59.31006],[15.13033,59.31063],[15.1267,59.3106],[15.12316,59.30999],[15.12082,59.30915],[15.11885,59.30796],[15.11763,59.30663],[15.11708,59.3052],[15.11729,59.30355],[15.11852,59.30171],[15.11807,59.30011],[15.11856,59.29844],[15.11711,59.29728],[15.11639,59.29626],[15.11589,59.29509],[15.11589,59.29367],[15.11658,59.2923],[15.11757,59.29132],[15.11935,59.29023],[15.12137,59.28947],[15.11948,59.28744],[15.11912,59.28633],[15.11922,59.28507],[15.10868,59.28327],[15.10361,59.29233],[15.0983,59.30547],[15.09744,59.3187],[15.09658,59.32042],[15.09722,59.32319],[15.09942,59.32573],[15.10107,59.33025],[15.101,59.33693],[15.11423,59.34221],[15.12198,59.34457],[15.12558,59.34654],[15.13408,59.34637],[15.13542,59.35242],[15.15202,59.36212],[15.14446,59.36643],[15.14697,59.37515],[15.15238,59.37632],[15.16069,59.38135],[15.15441,59.39302],[15.15402,59.39548],[15.15288,59.39806],[15.14997,59.4013],[15.14758,59.40166],[15.13848,59.41017],[15.13955,59.41085],[15.14103,59.41494],[15.14205,59.41545],[15.14448,59.41621],[15.14613,59.41639],[15.14541,59.41676],[15.14409,59.41698],[15.1401,59.41718],[15.13351,59.43131],[15.13995,59.4449],[15.14161,59.44398],[15.14314,59.44376],[15.14525,59.44577],[15.15095,59.44639],[15.15052,59.44737],[15.14854,59.44923],[15.14949,59.45064],[15.1493,59.45237],[15.1503,59.45322],[15.14861,59.45438],[15.14926,59.45553],[15.14918,59.45595],[15.14897,59.45613],[15.14791,59.45617],[15.14749,59.45637],[15.14773,59.45674],[15.14658,59.45722],[15.1463,59.45821],[15.14504,59.45917],[15.14527,59.45958],[15.14659,59.46015],[15.14862,59.46166],[15.14908,59.46257],[15.14876,59.46285],[15.14818,59.46287],[15.14573,59.4622],[15.14489,59.46234],[15.14446,59.46389],[15.14476,59.4664],[15.14235,59.46717],[15.14213,59.46753],[15.14251,59.46781],[15.14405,59.46799],[15.14434,59.46874],[15.14611,59.46912],[15.14691,59.4699],[15.14692,59.47023],[15.14428,59.47128],[15.14398,59.47233],[15.14457,59.47325],[15.14522,59.47341],[15.14694,59.4733],[15.14757,59.47368],[15.14512,59.47559],[15.1449,59.47612],[15.14535,59.47683],[15.14653,59.47758],[15.14732,59.47896],[15.14827,59.47974],[15.14899,59.48123],[15.14765,59.48258],[15.14809,59.48316],[15.14944,59.48376],[15.14968,59.48409],[15.14969,59.48462],[15.14873,59.48544],[15.14875,59.48577],[15.1505,59.48656],[15.15083,59.48698],[15.14811,59.48835],[15.14729,59.48951],[15.14755,59.48995],[15.14813,59.49009],[15.14865,59.48974],[15.14886,59.48908],[15.14951,59.48913],[15.14936,59.49008],[15.15065,59.49135],[15.15167,59.49342],[15.15147,59.49415],[15.1511,59.49439],[15.15016,59.49464],[15.14871,59.49461],[15.14836,59.49511],[15.14925,59.49671],[15.14914,59.49783],[15.15021,59.4991],[15.14933,59.50075],[15.14973,59.50107],[15.15162,59.50136],[15.15205,59.50227],[15.15119,59.50278],[15.14971,59.50284],[15.14887,59.50422],[15.14703,59.50467],[15.14664,59.5052],[15.14851,59.50639],[15.14791,59.50705],[15.14833,59.50822],[15.15007,59.50921],[15.15319,59.50762],[15.15901,59.50655],[15.16029,59.50749],[15.16486,59.50832],[15.16378,59.50988],[15.16374,59.51081],[15.16854,59.51072],[15.17508,59.51417],[15.17585,59.51608],[15.17536,59.51666],[15.1766,59.51729],[15.184,59.51961],[15.1867,59.51979],[15.19034,59.52035],[15.19314,59.52133],[15.19523,59.52165],[15.19768,59.52232],[15.20021,59.52353],[15.20082,59.52373]]]}},{"type":"Feature","id":"1880R010","properties":{"code":"1880R010","name":"Garphyttan-Närkes Kil"},"geometry":{"type":"Polygon","coordinates":[[[15.06584,59.4693],[15.06614,59.46628],[15.07343,59.45354],[15.07298,59.44621],[15.069,59.43246],[15.07264,59.43373],[15.07553,59.43365],[15.08868,59.43161],[15.10809,59.43477],[15.10854,59.43577],[15.10938,59.43645],[15.10971,59.4376],[15.10825,59.43826],[15.10776,59.43937],[15.10873,59.43962],[15.10893,59.44017],[15.10859,59.44042],[15.11368,59.44199],[15.12008,59.44285],[15.12786,59.44453],[15.13517,59.44502],[15.13971,59.44509],[15.13987,59.44482],[15.13351,59.43131],[15.1401,59.41718],[15.14409,59.41698],[15.14541,59.41676],[15.14613,59.41639],[15.14448,59.41621],[15.14205,59.41545],[15.14103,59.41494],[15.13955,59.41085],[15.13848,59.41017],[15.14758,59.40166],[15.14997,59.4013],[15.15288,59.39806],[15.15402,59.39548],[15.15441,59.39302],[15.16069,59.38135],[15.15238,59.37632],[15.14697,59.37515],[15.14446,59.36643],[15.15202,59.36212],[15.13542,59.35242],[15.13408,59.34637],[15.12558,59.34654],[15.12198,59.34457],[15.11423,59.34221],[15.101,59.33693],[15.10107,59.33025],[15.09942,59.32573],[15.09722,59.32319],[15.09658,59.32042],[15.09744,59.3187],[15.0983,59.30547],[15.10361,59.29233],[15.10868,59.28327],[15.11922,59.28507],[15.12027,59.28269],[15.12261,59.2808],[15.12694,59.27895],[15.13062,59.27803],[15.13577,59.27637],[15.13537,59.27536],[15.13413,59.27387],[15.13377,59.27264],[15.13408,59.2709],[15.13518,59.26953],[15.13512,59.26854],[15.13334,59.26778],[15.13109,59.26635],[15.13017,59.26544],[15.12955,59.2643],[15.12873,59.2653],[15.12692,59.26567],[15.12425,59.26526],[15.12088,59.26544],[15.11711,59.26581],[15.1151,59.26625],[15.11381,59.26628],[15.11218,59.26601],[15.11042,59.26668],[15.10891,59.26661],[15.1079,59.26508],[15.10805,59.26461],[15.10496,59.2659],[15.09788,59.26547],[15.09841,59.26785],[15.07093,59.26944],[15.07102,59.26916],[15.06521,59.26951],[15.0641,59.26978],[15.06361,59.26857],[15.06395,59.26215],[15.05851,59.26199],[15.05552,59.26081],[15.02244,59.25052],[15.02181,59.25109],[15.02009,59.25142],[15.01904,59.25131],[15.01396,59.25271],[15.01051,59.25388],[15.00937,59.253],[15.00887,59.25178],[15.00769,59.25106],[15.00565,59.2506],[15.00516,59.251],[15.00166,59.24995],[15.00006,59.25058],[14.99902,59.25075],[14.99905,59.25393],[14.99748,59.25394],[14.98883,59.25754],[14.98656,59.25073],[14.98138,59.25109],[14.98388,59.2528],[14.98512,59.2547],[14.9851,59.25663],[14.98367,59.25864],[14.98609,59.26095],[14.98804,59.26176],[14.9898,59.26292],[14.991,59.26432],[14.99145,59.26569],[14.99337,59.26637],[14.995,59.26722],[14.9987,59.26802],[15.00168,59.26952],[15.00454,59.27011],[15.00675,59.27097],[15.00811,59.2718],[15.0094,59.27297],[15.01102,59.27587],[15.01105,59.27729],[15.01067,59.27831],[15.0087,59.28085],[15.0071,59.28204],[15.005,59.28297],[15.00241,59.28362],[15.00082,59.28539],[14.99783,59.2869],[14.99596,59.2874],[14.99308,59.28786],[14.98887,59.28804],[14.9849,59.28741],[14.98207,59.28631],[14.98009,59.28484],[14.97912,59.28316],[14.97584,59.2818],[14.97464,59.28091],[14.97347,59.27951],[14.97016,59.27867],[14.96795,59.27761],[14.96467,59.27691],[14.96158,59.2755],[14.95814,59.27313],[14.9574,59.27209],[14.95706,59.27087],[14.95582,59.26945],[14.95317,59.26921],[14.95072,59.26867],[14.94781,59.26769],[14.94569,59.26667],[14.94342,59.26485],[14.94266,59.26311],[14.94289,59.26157],[14.94069,59.25999],[14.93973,59.25837],[14.93662,59.25801],[14.93409,59.25732],[14.93135,59.25595],[14.92958,59.25411],[14.92841,59.25427],[14.9277,59.25454],[14.92809,59.25513],[14.92808,59.25727],[14.92725,59.2588],[14.9264,59.25893],[14.92583,59.25936],[14.92374,59.25952],[14.91908,59.26723],[14.91951,59.26978],[14.91508,59.27021],[14.91443,59.27084],[14.91336,59.27118],[14.9135,59.27156],[14.91314,59.27185],[14.91299,59.27296],[14.9122,59.27422],[14.90995,59.27465],[14.90279,59.27312],[14.90079,59.2752],[14.90039,59.28066],[14.90087,59.28218],[14.89243,59.29436],[14.88119,59.29978],[14.87772,59.29835],[14.87394,59.29851],[14.86578,59.30195],[14.86136,59.30482],[14.85637,59.30851],[14.85424,59.30943],[14.85229,59.3116],[14.84921,59.31336],[14.84545,59.31351],[14.84052,59.31397],[14.8398,59.3139],[14.83874,59.31339],[14.83773,59.31127],[14.83548,59.31124],[14.8342,59.31191],[14.83392,59.31243],[14.83309,59.31264],[14.83157,59.31257],[14.82752,59.31431],[14.82693,59.31422],[14.8263,59.31479],[14.82552,59.31487],[14.82495,59.31434],[14.82459,59.31439],[14.82399,59.31489],[14.82341,59.31497],[14.82313,59.31567],[14.82243,59.31554],[14.82208,59.31619],[14.82235,59.3163],[14.82193,59.31649],[14.82152,59.31639],[14.82085,59.31688],[14.81915,59.31756],[14.81862,59.31721],[14.81815,59.3173],[14.81757,59.31706],[14.81707,59.31817],[14.81523,59.31838],[14.81466,59.31891],[14.8146,59.31961],[14.81298,59.32014],[14.81214,59.32012],[14.81213,59.32044],[14.81102,59.32085],[14.81164,59.3212],[14.80995,59.32174],[14.80887,59.32234],[14.80526,59.32217],[14.80492,59.32225],[14.80488,59.32252],[14.80442,59.32241],[14.80365,59.32259],[14.80321,59.32207],[14.80254,59.3219],[14.80223,59.32124],[14.80267,59.32107],[14.80247,59.32087],[14.79994,59.32075],[14.80014,59.32123],[14.79975,59.32135],[14.80003,59.32188],[14.799,59.32244],[14.79822,59.32337],[14.79829,59.32401],[14.79611,59.32681],[14.79575,59.32775],[14.79349,59.32878],[14.7926,59.33035],[14.79065,59.33232],[14.78885,59.3331],[14.78782,59.33401],[14.78754,59.33534],[14.78796,59.33586],[14.78793,59.33637],[14.78545,59.33871],[14.78434,59.34043],[14.7809,59.34353],[14.78255,59.34991],[14.77748,59.35385],[14.7752,59.3542],[14.77438,59.35398],[14.77379,59.35334],[14.77181,59.35363],[14.77052,59.35599],[14.76985,59.35654],[14.76994,59.35743],[14.76925,59.35818],[14.76827,59.35848],[14.76829,59.35934],[14.76774,59.3597],[14.76735,59.3608],[14.76665,59.36116],[14.76412,59.36413],[14.76453,59.36498],[14.76383,59.36556],[14.76351,59.36756],[14.76296,59.3765],[14.76143,59.3797],[14.76293,59.38019],[14.76139,59.38187],[14.76064,59.38478],[14.76493,59.3861],[14.77191,59.38623],[14.7739,59.38667],[14.7769,59.3863],[14.77865,59.3863],[14.78124,59.38667],[14.78258,59.3864],[14.78287,59.38658],[14.78842,59.38701],[14.78854,59.3868],[14.79096,59.38698],[14.80984,59.38134],[14.8324,59.37281],[14.84638,59.37403],[14.86914,59.37477],[14.89555,59.37651],[14.91576,59.38116],[14.9279,59.3827],[14.93113,59.38331],[14.9393,59.39887],[14.94253,59.40184],[14.94977,59.40736],[14.95569,59.41063],[14.96049,59.41426],[14.96949,59.41412],[14.97462,59.41313],[14.97911,59.41202],[14.97915,59.41289],[14.97418,59.41624],[14.97815,59.41738],[14.98934,59.42172],[14.99894,59.42232],[14.99752,59.42441],[14.99855,59.42894],[14.99664,59.4318],[14.99693,59.43394],[14.99624,59.43477],[14.99749,59.44142],[14.99775,59.44468],[14.99821,59.44524],[14.99951,59.45163],[14.99418,59.45252],[14.99751,59.45605],[15.00013,59.45832],[15.0037,59.46446],[15.00526,59.46509],[15.01189,59.46577],[15.02294,59.46848],[15.02319,59.46826],[15.02372,59.46832],[15.02363,59.46865],[15.04122,59.47277],[15.0494,59.47211],[15.06001,59.46957],[15.06584,59.4693]]]}},{"type":"Feature","id":"1880R011","properties":{"code":"1880R011","name":"Glanshammar"},"geometry":{"type":"Polygon","coordinates":[[[15.46604,59.43278],[15.46676,59.43278],[15.46769,59.43248],[15.47096,59.43242],[15.47289,59.43203],[15.47394,59.43112],[15.4749,59.4293],[15.47897,59.42772],[15.48053,59.42688],[15.4823,59.42529],[15.48458,59.42207],[15.48558,59.42125],[15.48727,59.42043],[15.49675,59.41837],[15.49863,59.41824],[15.50145,59.41869],[15.50321,59.41688],[15.50576,59.41528],[15.50648,59.41403],[15.50765,59.41314],[15.50964,59.41099],[15.51056,59.41055],[15.51043,59.41038],[15.5115,59.40937],[15.51382,59.40851],[15.51505,59.40758],[15.516,59.40629],[15.51598,59.40586],[15.50117,59.40383],[15.47574,59.39846],[15.47372,59.39779],[15.47603,59.38907],[15.48904,59.38911],[15.49717,59.38757],[15.49891,59.38666],[15.51662,59.38492],[15.51678,59.38533],[15.51839,59.38516],[15.51804,59.38476],[15.52085,59.38412],[15.52696,59.38063],[15.53465,59.37666],[15.53781,59.37563],[15.54887,59.37463],[15.55895,59.37311],[15.56114,59.37393],[15.56291,59.37305],[15.56255,59.37253],[15.56396,59.37234],[15.5649,59.3692],[15.56691,59.36946],[15.56772,59.36918],[15.5682,59.36831],[15.57393,59.36894],[15.57623,59.36945],[15.57946,59.36968],[15.58291,59.36966],[15.58674,59.37129],[15.59093,59.37277],[15.5948,59.37386],[15.59988,59.37494],[15.59938,59.37322],[15.60408,59.37025],[15.60118,59.36923],[15.59958,59.36837],[15.59996,59.36682],[15.60015,59.36733],[15.61257,59.36331],[15.61306,59.35977],[15.61605,59.35797],[15.61923,59.35255],[15.61808,59.35149],[15.61651,59.34847],[15.61452,59.34769],[15.63255,59.33536],[15.63532,59.33395],[15.63477,59.32211],[15.63103,59.32021],[15.63179,59.31655],[15.63092,59.31553],[15.62955,59.31489],[15.62799,59.3133],[15.6077,59.28873],[15.55252,59.30334],[15.55252,59.30304],[15.53786,59.30683],[15.49763,59.27987],[15.46867,59.28142],[15.42504,59.28423],[15.42144,59.28405],[15.4182,59.28326],[15.41014,59.28265],[15.40487,59.28278],[15.37718,59.28174],[15.37764,59.27894],[15.28719,59.28446],[15.28175,59.27799],[15.27607,59.2782],[15.27616,59.27968],[15.27534,59.28133],[15.27437,59.28223],[15.27127,59.28428],[15.2683,59.28548],[15.26192,59.28756],[15.25849,59.28799],[15.2547,59.28789],[15.25429,59.28912],[15.25317,59.29045],[15.25117,59.29181],[15.24914,59.29272],[15.24947,59.29306],[15.25198,59.29382],[15.25527,59.29543],[15.25673,59.29667],[15.25752,59.29803],[15.25754,59.29981],[15.25675,59.3012],[15.25445,59.30304],[15.25175,59.30429],[15.25262,59.30537],[15.25307,59.30677],[15.25265,59.30944],[15.25316,59.31094],[15.25289,59.31387],[15.2548,59.31506],[15.25595,59.31638],[15.25645,59.3177],[15.25646,59.3188],[15.2577,59.31987],[15.25848,59.32106],[15.25871,59.32286],[15.25749,59.32501],[15.2548,59.32677],[15.25301,59.32742],[15.25089,59.32791],[15.24874,59.32818],[15.24602,59.32822],[15.24301,59.3301],[15.2438,59.3315],[15.24396,59.33257],[15.25048,59.33233],[15.27369,59.3337],[15.27781,59.34997],[15.29988,59.35484],[15.32354,59.35876],[15.33908,59.36216],[15.3489,59.37196],[15.34507,59.37649],[15.34604,59.37809],[15.34301,59.37873],[15.34383,59.38444],[15.35263,59.38684],[15.35492,59.38921],[15.35294,59.39244],[15.34991,59.39309],[15.35713,59.41323],[15.36377,59.42839],[15.39285,59.43115],[15.40654,59.42369],[15.40758,59.42333],[15.41987,59.42148],[15.42395,59.42384],[15.4264,59.42477],[15.42987,59.42477],[15.43459,59.42532],[15.43815,59.42687],[15.44073,59.42709],[15.44303,59.42685],[15.44543,59.42753],[15.4486,59.42777],[15.44831,59.42702],[15.45055,59.42712],[15.45216,59.42647],[15.45499,59.42688],[15.4564,59.42644],[15.45935,59.42645],[15.45918,59.42855],[15.45791,59.42975],[15.45775,59.43066],[15.4602,59.4312],[15.46138,59.43008],[15.46346,59.42966],[15.46376,59.43099],[15.46357,59.43124],[15.46255,59.43157],[15.46158,59.43251],[15.4616,59.43284],[15.46357,59.43359],[15.46604,59.43278]]]}},{"type":"Feature","id":"1880R012","properties":{"code":"1880R012","name":"Hagaby-Ringstorp"},"geometry":{"type":"Polygon","coordinates":[[[15.25265,59.30944],[15.25293,59.30606],[15.25175,59.30429],[15.25402,59.3033],[15.25646,59.30151],[15.25753,59.29984],[15.25761,59.29837],[15.25673,59.29667],[15.25527,59.29543],[15.25198,59.29382],[15.24947,59.29306],[15.24914,59.29272],[15.25117,59.29181],[15.25317,59.29045],[15.25429,59.28912],[15.2547,59.28789],[15.25751,59.28802],[15.25982,59.28789],[15.26266,59.28738],[15.26484,59.28667],[15.2607,59.28578],[15.24746,59.28587],[15.24152,59.28543],[15.24204,59.28733],[15.24169,59.28776],[15.23452,59.28756],[15.23374,59.28726],[15.231,59.28692],[15.22781,59.28674],[15.22713,59.28686],[15.22655,59.28673],[15.22583,59.28541],[15.22283,59.28591],[15.22255,59.28533],[15.22121,59.2852],[15.22057,59.2827],[15.22013,59.28217],[15.21953,59.28233],[15.21685,59.28409],[15.2159,59.28429],[15.21648,59.28494],[15.21585,59.28506],[15.21541,59.28721],[15.2127,59.28917],[15.21314,59.29194],[15.21288,59.29333],[15.21405,59.29501],[15.21413,59.29608],[15.2138,59.29821],[15.21276,59.29959],[15.21361,59.30151],[15.21328,59.30262],[15.21232,59.30369],[15.21212,59.30482],[15.21146,59.30538],[15.22873,59.30814],[15.23224,59.30801],[15.2322,59.30701],[15.23962,59.30665],[15.24206,59.30682],[15.24191,59.30824],[15.24044,59.30819],[15.24029,59.30919],[15.24422,59.30953],[15.24691,59.31476],[15.25376,59.31433],[15.25289,59.31387],[15.2528,59.31343],[15.25316,59.31131],[15.25265,59.30944]]]}},{"type":"Feature","id":"1880R013","properties":{"code":"1880R013","name":"Holmen-Hjärsta"},"geometry":{"type":"Polygon","coordinates":[[[15.19741,59.28825],[15.19932,59.28869],[15.20091,59.28871],[15.20288,59.28825],[15.20431,59.28833],[15.20428,59.28709],[15.21585,59.28582],[15.21585,59.28506],[15.21648,59.28494],[15.21168,59.27946],[15.20712,59.28049],[15.20854,59.28129],[15.20695,59.28145],[15.20468,59.2815],[15.20477,59.28056],[15.19549,59.28081],[15.19261,59.28171],[15.18771,59.28422],[15.18404,59.2857],[15.18679,59.28876],[15.18851,59.29],[15.19382,59.28909],[15.19365,59.28855],[15.19741,59.28825]]]}},{"type":"Feature","id":"1880R024","properties":{"code":"1880R024","name":"Rosta-Örnsro"},"geometry":{"type":"Polygon","coordinates":[[[15.20081,59.27722],[15.20059,59.27345],[15.20104,59.27233],[15.20183,59.27173],[15.20354,59.27248],[15.20516,59.27225],[15.19648,59.26522],[15.18529,59.26414],[15.17789,59.26316],[15.16932,59.26119],[15.17206,59.2639],[15.17477,59.26718],[15.17808,59.27277],[15.17931,59.2762],[15.19238,59.27479],[15.19563,59.2746],[15.19587,59.27733],[15.20081,59.27722]]]}},{"type":"Feature","id":"1880R025","properties":{"code":"1880R025","name":"Rynninge-Grenadjärstaden"},"geometry":{"type":"Polygon","coordinates":[[[15.24204,59.28733],[15.24152,59.28543],[15.24746,59.28587],[15.2607,59.28578],[15.25737,59.28273],[15.254,59.28207],[15.24568,59.27899],[15.24322,59.27852],[15.23933,59.27834],[15.2369,59.27792],[15.23581,59.27789],[15.23344,59.27892],[15.23263,59.27959],[15.22837,59.28084],[15.22879,59.28179],[15.22961,59.28263],[15.22955,59.28334],[15.23231,59.28422],[15.23206,59.28506],[15.22951,59.28561],[15.22888,59.28678],[15.23374,59.28726],[15.23452,59.28756],[15.24169,59.28776],[15.24204,59.28733]]]}},{"type":"Feature","id":"1880R026","properties":{"code":"1880R026","name":"Sörbyängen"},"geometry":{"type":"Polygon","coordinates":[[[15.22013,59.25733],[15.22296,59.25709],[15.22679,59.25702],[15.22905,59.25721],[15.23053,59.25537],[15.2304,59.25152],[15.22944,59.24939],[15.22739,59.24935],[15.22611,59.24983],[15.22556,59.24949],[15.22442,59.24925],[15.21933,59.24849],[15.21876,59.24909],[15.21945,59.25153],[15.21459,59.25176],[15.21448,59.25428],[15.21722,59.25695],[15.21982,59.25633],[15.22013,59.25733]]]}},{"type":"Feature","id":"1880R014","properties":{"code":"1880R014","name":"Hovsta"},"geometry":{"type":"Polygon","coordinates":[[[15.21968,59.35974],[15.22743,59.35928],[15.2295,59.35887],[15.23189,59.35806],[15.23345,59.3573],[15.23525,59.35589],[15.23715,59.35491],[15.2393,59.35297],[15.24389,59.35102],[15.24624,59.34927],[15.24712,59.34751],[15.24705,59.34572],[15.24767,59.3435],[15.24766,59.33954],[15.24645,59.33738],[15.243,59.33486],[15.24367,59.33382],[15.24396,59.33257],[15.23939,59.33274],[15.23863,59.33344],[15.23851,59.33439],[15.23195,59.33493],[15.22243,59.33991],[15.21784,59.33982],[15.21791,59.33899],[15.2073,59.33795],[15.20806,59.34015],[15.20631,59.34186],[15.20581,59.34301],[15.20576,59.3445],[15.20378,59.34682],[15.20324,59.34824],[15.20339,59.35098],[15.20505,59.35379],[15.20723,59.3559],[15.2099,59.35766],[15.21196,59.35862],[15.21419,59.35926],[15.21685,59.35967],[15.21968,59.35974]]]}},{"type":"Feature","id":"1880R015","properties":{"code":"1880R015","name":"Ladugårdsängen"},"geometry":{"type":"Polygon","coordinates":[[[15.19899,59.25837],[15.20028,59.25727],[15.21021,59.25773],[15.21073,59.25852],[15.21448,59.25761],[15.21359,59.25705],[15.21219,59.25672],[15.21242,59.25538],[15.21591,59.25557],[15.21448,59.25428],[15.21459,59.25176],[15.21945,59.25153],[15.21876,59.24909],[15.21239,59.24879],[15.20864,59.24779],[15.2053,59.24745],[15.20242,59.24787],[15.20079,59.24925],[15.1986,59.24953],[15.19851,59.2498],[15.19687,59.25058],[15.19522,59.25096],[15.19145,59.25095],[15.18932,59.25123],[15.18883,59.25062],[15.18688,59.24952],[15.18614,59.2484],[15.18497,59.24736],[15.18067,59.24706],[15.18101,59.24786],[15.17981,59.24978],[15.17817,59.24987],[15.19274,59.262],[15.19758,59.2606],[15.19529,59.25864],[15.19899,59.25837]]]}},{"type":"Feature","id":"1880R016","properties":{"code":"1880R016","name":"Latorp-Täby-Vintrosa"},"geometry":{"type":"Polygon","coordinates":[[[14.98499,59.25436],[14.98355,59.2525],[14.98138,59.25109],[14.98656,59.25073],[14.98883,59.25754],[14.99748,59.25394],[14.99905,59.25393],[14.99902,59.25075],[15.00006,59.25058],[15.00166,59.24995],[15.00516,59.251],[15.00565,59.2506],[15.00769,59.25106],[15.00887,59.25178],[15.00937,59.253],[15.01051,59.25388],[15.01396,59.25271],[15.01904,59.25131],[15.02009,59.25142],[15.02181,59.25109],[15.02244,59.25052],[15.05552,59.26081],[15.05851,59.26199],[15.06395,59.26215],[15.06361,59.26857],[15.0641,59.26978],[15.06521,59.26951],[15.07102,59.26916],[15.07093,59.26944],[15.09841,59.26785],[15.09788,59.26547],[15.10496,59.2659],[15.10805,59.26461],[15.1079,59.26508],[15.10891,59.26661],[15.11042,59.26668],[15.11218,59.26601],[15.11381,59.26628],[15.1151,59.26625],[15.11711,59.26581],[15.12088,59.26544],[15.12425,59.26526],[15.12692,59.26567],[15.12873,59.2653],[15.12955,59.2643],[15.12942,59.26309],[15.12973,59.26208],[15.13076,59.26076],[15.13244,59.25959],[15.13543,59.25832],[15.1363,59.25689],[15.13776,59.25573],[15.14056,59.25451],[15.1411,59.253],[15.14268,59.25142],[15.14222,59.24919],[15.14274,59.2478],[15.14358,59.24681],[15.14371,59.24519],[15.14207,59.24398],[15.14059,59.24239],[15.13851,59.2414],[15.13642,59.23997],[15.13514,59.23857],[15.13456,59.23699],[15.13481,59.23521],[15.13298,59.23325],[15.13157,59.23024],[15.13192,59.22677],[15.12941,59.22501],[15.12742,59.22168],[15.12575,59.22022],[15.12502,59.21881],[15.12471,59.21615],[15.12317,59.21474],[15.12228,59.21335],[15.12201,59.21125],[15.12217,59.20857],[15.12318,59.20673],[15.12498,59.20531],[15.12764,59.20413],[15.13062,59.20346],[15.1302,59.2019],[15.13025,59.20059],[15.13092,59.19925],[15.13262,59.19778],[15.13294,59.1951],[15.13248,59.19384],[15.13253,59.19279],[15.13311,59.19145],[15.13409,59.19036],[15.13414,59.18922],[15.13459,59.18819],[15.13585,59.18681],[15.13879,59.18486],[15.14214,59.18343],[15.14287,59.18185],[15.14453,59.18035],[15.1446,59.1794],[15.13571,59.1768],[15.13335,59.1766],[15.13211,59.17666],[15.12459,59.17737],[15.1131,59.17663],[15.11072,59.17688],[15.09884,59.17968],[15.09674,59.18059],[15.09028,59.17714],[15.08436,59.17499],[15.06688,59.17152],[15.05521,59.17331],[15.0538,59.17258],[15.05452,59.16973],[15.05036,59.16685],[15.04828,59.16647],[15.04361,59.17325],[15.0409,59.1863],[15.03978,59.18799],[15.03696,59.18919],[15.0337,59.19098],[15.03131,59.19266],[15.02534,59.19513],[15.02852,59.1975],[15.02262,59.19912],[15.02164,59.19842],[15.00183,59.20031],[15.00181,59.19902],[14.98913,59.19895],[14.98938,59.19574],[14.9891,59.195],[14.98681,59.19529],[14.97604,59.19485],[14.95758,59.19304],[14.95225,59.1897],[14.95185,59.18979],[14.95191,59.19013],[14.94687,59.18977],[14.94516,59.19073],[14.9283,59.20529],[14.92944,59.2051],[14.93348,59.20536],[14.93454,59.20626],[14.9369,59.20678],[14.93862,59.20799],[14.94042,59.2086],[14.94118,59.20919],[14.9422,59.20945],[14.94377,59.2095],[14.94362,59.21101],[14.94683,59.2129],[14.94823,59.21437],[14.94885,59.21449],[14.95085,59.21427],[14.95301,59.21522],[14.94601,59.22724],[14.94804,59.22774],[14.94545,59.22819],[14.94347,59.2294],[14.94108,59.23164],[14.93764,59.23223],[14.93558,59.23371],[14.93596,59.23392],[14.93271,59.23579],[14.93173,59.23588],[14.93027,59.23648],[14.9321,59.23738],[14.93097,59.2385],[14.92805,59.23886],[14.92725,59.23856],[14.92675,59.2377],[14.92571,59.23817],[14.92703,59.24075],[14.92712,59.24219],[14.92835,59.2422],[14.92851,59.24275],[14.92846,59.2422],[14.92999,59.24221],[14.93018,59.24198],[14.9307,59.24194],[14.9309,59.2426],[14.93219,59.24263],[14.93178,59.24319],[14.93357,59.24344],[14.93252,59.2454],[14.93209,59.24519],[14.93147,59.24556],[14.93078,59.24527],[14.9311,59.24498],[14.93009,59.24477],[14.92898,59.24577],[14.92802,59.2485],[14.92869,59.24977],[14.9287,59.25084],[14.92649,59.25204],[14.92711,59.2541],[14.9277,59.25454],[14.92958,59.25411],[14.93135,59.25595],[14.93282,59.25679],[14.93465,59.25751],[14.93725,59.25812],[14.93973,59.25837],[14.94069,59.25999],[14.94289,59.26157],[14.94264,59.26274],[14.94283,59.26381],[14.94439,59.26581],[14.94687,59.26727],[14.9497,59.26837],[14.95312,59.2692],[14.95582,59.26945],[14.95706,59.27087],[14.95741,59.27211],[14.95845,59.27343],[14.96248,59.276],[14.96525,59.27708],[14.96795,59.27761],[14.97087,59.27891],[14.97347,59.27951],[14.97464,59.28091],[14.97584,59.2818],[14.97912,59.28316],[14.98043,59.28517],[14.9831,59.28679],[14.9868,59.28781],[14.99098,59.28805],[14.99534,59.28753],[14.99841,59.28668],[15.00082,59.28539],[15.00241,59.28362],[15.005,59.28297],[15.00713,59.28202],[15.0087,59.28085],[15.01067,59.27831],[15.01105,59.27729],[15.01102,59.27587],[15.0094,59.27297],[15.00811,59.2718],[15.00675,59.27097],[15.00454,59.27011],[15.00168,59.26952],[14.9987,59.26802],[14.995,59.26722],[14.99337,59.26637],[14.99145,59.26569],[14.991,59.26432],[14.9898,59.26292],[14.98804,59.26176],[14.98609,59.26095],[14.98367,59.25864],[14.9851,59.25663],[14.98499,59.25436]]]}},{"type":"Feature","id":"1880R017","properties":{"code":"1880R017","name":"Lillån"},"geometry":{"type":"Polygon","coordinates":[[[15.24301,59.3301],[15.24602,59.32822],[15.25025,59.32802],[15.25358,59.32724],[15.25631,59.32595],[15.2583,59.32396],[15.25875,59.32252],[15.25843,59.32096],[15.2577,59.31987],[15.25646,59.3188],[15.25637,59.31737],[15.25574,59.31606],[15.254,59.31448],[15.25376,59.31433],[15.24691,59.31476],[15.24422,59.30953],[15.24029,59.30919],[15.24044,59.30819],[15.24191,59.30824],[15.24206,59.30682],[15.23962,59.30665],[15.2322,59.30701],[15.23224,59.30801],[15.22873,59.30814],[15.21151,59.30539],[15.21139,59.30596],[15.21191,59.30666],[15.21324,59.30772],[15.21412,59.30887],[15.214,59.30971],[15.2125,59.31077],[15.21214,59.31164],[15.21125,59.31222],[15.21008,59.31457],[15.20945,59.31503],[15.20871,59.31514],[15.20868,59.3156],[15.2061,59.31578],[15.20575,59.31615],[15.20383,59.31604],[15.2023,59.31667],[15.20281,59.31707],[15.20185,59.31753],[15.20214,59.31785],[15.20018,59.31811],[15.20009,59.31856],[15.20064,59.32068],[15.2027,59.32256],[15.20711,59.32453],[15.20941,59.32534],[15.21138,59.32584],[15.21434,59.3262],[15.21607,59.32761],[15.21336,59.32912],[15.21108,59.331],[15.20933,59.33354],[15.20896,59.33492],[15.20768,59.3365],[15.2073,59.33795],[15.21791,59.33899],[15.21784,59.33982],[15.22243,59.33991],[15.23195,59.33493],[15.23851,59.33439],[15.23863,59.33344],[15.23939,59.33274],[15.24396,59.33257],[15.2438,59.3315],[15.24301,59.3301]]]}},{"type":"Feature","id":"1880R018","properties":{"code":"1880R018","name":"Lundby"},"geometry":{"type":"Polygon","coordinates":[[[15.1941,59.3209],[15.19683,59.31975],[15.19882,59.31815],[15.19963,59.31669],[15.1996,59.31479],[15.20006,59.31355],[15.20137,59.31233],[15.20212,59.311],[15.20391,59.3111],[15.20254,59.31222],[15.20182,59.31323],[15.20025,59.31816],[15.20214,59.31785],[15.20185,59.31753],[15.20281,59.31707],[15.2023,59.31667],[15.20383,59.31604],[15.20575,59.31615],[15.2061,59.31578],[15.20868,59.3156],[15.20871,59.31514],[15.20945,59.31503],[15.21008,59.31457],[15.21125,59.31222],[15.21214,59.31164],[15.2125,59.31077],[15.214,59.30971],[15.21412,59.30887],[15.21139,59.30596],[15.21146,59.30538],[15.21212,59.30482],[15.21232,59.30369],[15.21328,59.30262],[15.21361,59.30151],[15.21276,59.29959],[15.2138,59.29821],[15.21405,59.29501],[15.20331,59.29413],[15.19589,59.29289],[15.19527,59.29401],[15.19657,59.29429],[15.19718,59.29502],[15.19391,59.30477],[15.18199,59.30394],[15.17957,59.30357],[15.17536,59.30156],[15.17261,59.30205],[15.17211,59.31134],[15.16981,59.3187],[15.17299,59.32012],[15.17692,59.32088],[15.18196,59.32087],[15.18521,59.32156],[15.18834,59.32174],[15.1913,59.32151],[15.1941,59.3209]]]}},{"type":"Feature","id":"1880R019","properties":{"code":"1880R019","name":"Marieberg-Mosås"},"geometry":{"type":"Polygon","coordinates":[[[15.14082,59.23215],[15.15078,59.23214],[15.15086,59.23147],[15.1593,59.23156],[15.16975,59.23024],[15.17241,59.21672],[15.17367,59.21516],[15.17788,59.21451],[15.17602,59.21265],[15.17534,59.20995],[15.17727,59.20858],[15.17823,59.20722],[15.17849,59.20615],[15.1783,59.20493],[15.17884,59.20337],[15.1785,59.20159],[15.17698,59.19964],[15.17634,59.19798],[15.17504,59.19671],[15.17384,59.19463],[15.17258,59.19361],[15.17106,59.19279],[15.16739,59.19169],[15.16651,59.19077],[15.16607,59.18903],[15.16672,59.18624],[15.16883,59.18437],[15.16962,59.18314],[15.16988,59.18181],[15.1713,59.18057],[15.17196,59.1795],[15.17222,59.17803],[15.1719,59.17662],[15.17153,59.17598],[15.1607,59.1705],[15.15622,59.16972],[15.1426,59.17044],[15.15264,59.17814],[15.15806,59.17848],[15.15721,59.181],[15.15776,59.18215],[15.14945,59.1816],[15.14476,59.18104],[15.14453,59.18035],[15.14435,59.18047],[15.14287,59.18185],[15.14214,59.18343],[15.13879,59.18486],[15.13585,59.18681],[15.13459,59.18819],[15.13414,59.18922],[15.13409,59.19036],[15.13311,59.19145],[15.13253,59.19279],[15.13248,59.19384],[15.13294,59.1951],[15.13262,59.19778],[15.13092,59.19925],[15.13025,59.20059],[15.1302,59.2019],[15.13062,59.20346],[15.12764,59.20413],[15.12498,59.20531],[15.12318,59.20673],[15.12219,59.20846],[15.12201,59.21125],[15.12228,59.21335],[15.12317,59.21474],[15.12471,59.21615],[15.12502,59.21881],[15.12575,59.22022],[15.12742,59.22168],[15.12941,59.22501],[15.13192,59.22677],[15.13157,59.23024],[15.13355,59.23398],[15.13518,59.23413],[15.14087,59.23411],[15.14082,59.23215]]]}},{"type":"Feature","id":"1880R020","properties":{"code":"1880R020","name":"Markbacken-Västra Mark"},"geometry":{"type":"Polygon","coordinates":[[[15.20112,59.28067],[15.20081,59.27722],[15.19587,59.27733],[15.19563,59.2746],[15.19238,59.27479],[15.17931,59.2762],[15.1815,59.28201],[15.18404,59.2857],[15.18771,59.28422],[15.19261,59.28171],[15.19549,59.28081],[15.20112,59.28067]]]}},{"type":"Feature","id":"1880R021","properties":{"code":"1880R021","name":"Mellringe-Björkhaga"},"geometry":{"type":"Polygon","coordinates":[[[15.17211,59.31134],[15.17261,59.30205],[15.16216,59.30389],[15.15552,59.304],[15.17381,59.29041],[15.17332,59.28991],[15.17113,59.29032],[15.16519,59.2904],[15.16251,59.28679],[15.16332,59.28438],[15.16883,59.28217],[15.16879,59.27913],[15.1695,59.27718],[15.15501,59.27563],[15.15333,59.27521],[15.15033,59.27396],[15.14719,59.27323],[15.14499,59.27315],[15.13791,59.27439],[15.13545,59.2653],[15.14156,59.26438],[15.13953,59.2633],[15.13885,59.26263],[15.13598,59.26175],[15.13508,59.26167],[15.13251,59.26239],[15.13149,59.26398],[15.13046,59.26432],[15.12955,59.2643],[15.13017,59.26544],[15.13109,59.26635],[15.13334,59.26778],[15.13512,59.26854],[15.13518,59.26953],[15.13408,59.2709],[15.13377,59.27264],[15.13413,59.27387],[15.13537,59.27536],[15.13577,59.27637],[15.13062,59.27803],[15.12638,59.27914],[15.12261,59.2808],[15.12092,59.28198],[15.11986,59.28334],[15.1191,59.28599],[15.11971,59.28784],[15.12137,59.28947],[15.11935,59.29023],[15.11795,59.29103],[15.11687,59.29196],[15.11601,59.29331],[15.11583,59.29475],[15.11639,59.29626],[15.11711,59.29728],[15.11856,59.29844],[15.11807,59.30011],[15.11852,59.30171],[15.11744,59.30322],[15.11707,59.30441],[15.11714,59.30554],[15.11786,59.30696],[15.11896,59.30804],[15.12082,59.30915],[15.12316,59.30999],[15.12584,59.31051],[15.12879,59.31069],[15.13118,59.31055],[15.13388,59.31006],[15.13631,59.30923],[15.13737,59.31114],[15.13987,59.31287],[15.14279,59.31385],[15.1475,59.31458],[15.15099,59.31449],[15.15425,59.31385],[15.15696,59.31272],[15.16181,59.30944],[15.16428,59.30925],[15.16783,59.31682],[15.16981,59.3187],[15.17211,59.31134]]]}},{"type":"Feature","id":"1880R022","properties":{"code":"1880R022","name":"Nya Hjärsta-Nyponlunden"},"geometry":{"type":"Polygon","coordinates":[[[15.18679,59.28876],[15.18404,59.2857],[15.17759,59.28888],[15.17381,59.29041],[15.15552,59.304],[15.16216,59.30389],[15.17536,59.30156],[15.18046,59.29597],[15.18193,59.29563],[15.19527,59.294],[15.19589,59.29289],[15.19084,59.29138],[15.18851,59.29],[15.18679,59.28876]]]}},{"type":"Feature","id":"1880R023","properties":{"code":"1880R023","name":"Näsby-Norra Ormesta"},"geometry":{"type":"Polygon","coordinates":[[[15.27499,59.27657],[15.27347,59.27545],[15.27144,59.27456],[15.26904,59.27396],[15.26507,59.27338],[15.26462,59.27234],[15.26488,59.2718],[15.26575,59.27126],[15.2679,59.27156],[15.27,59.27165],[15.2762,59.27107],[15.27903,59.27045],[15.28127,59.26956],[15.2833,59.26815],[15.28426,59.26679],[15.28442,59.26453],[15.28491,59.26301],[15.28479,59.26144],[15.24989,59.26175],[15.2443,59.26137],[15.24444,59.26405],[15.24351,59.26403],[15.2428,59.26378],[15.24083,59.26505],[15.2411,59.26596],[15.24038,59.26825],[15.24188,59.27319],[15.24548,59.27255],[15.24641,59.27397],[15.25102,59.2767],[15.2537,59.27649],[15.25743,59.27666],[15.25883,59.27822],[15.2657,59.27899],[15.27035,59.27841],[15.27607,59.2782],[15.27499,59.27657]]]}},{"type":"Feature","id":"1880R032","properties":{"code":"1880R032","name":"Örebro norr-CV"},"geometry":{"type":"Polygon","coordinates":[[[15.22655,59.28673],[15.22888,59.28678],[15.22951,59.28561],[15.23206,59.28506],[15.23231,59.28422],[15.22955,59.28334],[15.22961,59.28263],[15.22879,59.28179],[15.22837,59.28084],[15.23263,59.27959],[15.23344,59.27892],[15.23581,59.27789],[15.2369,59.27792],[15.23933,59.27834],[15.24322,59.27852],[15.24568,59.27899],[15.254,59.28207],[15.25737,59.28273],[15.2607,59.28578],[15.26484,59.28667],[15.27078,59.28451],[15.27437,59.28223],[15.27596,59.28035],[15.27607,59.2782],[15.27035,59.27841],[15.2657,59.27899],[15.25883,59.27822],[15.25743,59.27666],[15.2537,59.27649],[15.25102,59.2767],[15.24641,59.27397],[15.24548,59.27255],[15.23934,59.27365],[15.23602,59.27457],[15.21168,59.27946],[15.2159,59.28429],[15.21685,59.28409],[15.21953,59.28233],[15.22013,59.28217],[15.22057,59.2827],[15.22121,59.2852],[15.22255,59.28533],[15.22283,59.28591],[15.22583,59.28541],[15.22655,59.28673]]]}},{"type":"Feature","id":"1880R033","properties":{"code":"1880R033","name":"Örebro söder"},"geometry":{"type":"Polygon","coordinates":[[[15.21021,59.25773],[15.20028,59.25727],[15.19899,59.25837],[15.19529,59.25864],[15.19758,59.2606],[15.19274,59.262],[15.205,59.27212],[15.20807,59.27142],[15.20708,59.27021],[15.22142,59.26703],[15.22149,59.2667],[15.21599,59.26606],[15.21193,59.26466],[15.20882,59.26329],[15.20939,59.26303],[15.21033,59.26036],[15.21073,59.25852],[15.21021,59.25773]]]}},{"type":"Feature","id":"1880R034","properties":{"code":"1880R034","name":"Örebro väster"},"geometry":{"type":"Polygon","coordinates":[[[15.20854,59.28129],[15.20712,59.28049],[15.21168,59.27946],[15.20852,59.27528],[15.20516,59.27225],[15.20354,59.27248],[15.20183,59.27173],[15.20104,59.27233],[15.20059,59.27345],[15.20112,59.28067],[15.20477,59.28056],[15.20468,59.2815],[15.20854,59.28129]]]}},{"type":"Feature","id":"1880R035","properties":{"code":"1880R035","name":"Örebro öster"},"geometry":{"type":"Polygon","coordinates":[[[15.24188,59.27319],[15.24038,59.26825],[15.2411,59.26596],[15.23372,59.26513],[15.23227,59.26604],[15.22908,59.26646],[15.22652,59.26887],[15.22602,59.26896],[15.22449,59.26714],[15.22166,59.26698],[15.21562,59.26835],[15.21968,59.27331],[15.22154,59.27274],[15.22515,59.27267],[15.22672,59.2734],[15.22976,59.27282],[15.23507,59.27371],[15.23934,59.27365],[15.24188,59.27319]]]}},{"type":"Feature","id":"1880R036","properties":{"code":"1880R036","name":"Östernärke"},"geometry":{"type":"Polygon","coordinates":[[[15.76204,59.19792],[15.76909,59.18372],[15.79821,59.13698],[15.78792,59.13692],[15.78773,59.13663],[15.78786,59.13346],[15.7976,59.12288],[15.79084,59.12137],[15.79234,59.11688],[15.79082,59.11679],[15.7895,59.11531],[15.78995,59.11303],[15.79425,59.10971],[15.79012,59.10856],[15.78014,59.10499],[15.77663,59.10436],[15.77303,59.10578],[15.77037,59.10643],[15.76701,59.10617],[15.75989,59.10494],[15.75561,59.1058],[15.73526,59.10582],[15.73523,59.10423],[15.73344,59.10314],[15.72932,59.10542],[15.71712,59.10174],[15.71429,59.102],[15.71235,59.10148],[15.70727,59.10101],[15.70574,59.10018],[15.70124,59.09599],[15.70108,59.09445],[15.70357,59.09247],[15.70523,59.09194],[15.70779,59.0887],[15.70954,59.08777],[15.71258,59.08804],[15.71612,59.0849],[15.71051,59.07742],[15.70356,59.07652],[15.70121,59.07247],[15.68413,59.06519],[15.67191,59.06414],[15.63991,59.05411],[15.64008,59.05396],[15.63953,59.05303],[15.64109,59.05164],[15.64117,59.05107],[15.64079,59.05066],[15.64147,59.0501],[15.64255,59.04983],[15.64256,59.04922],[15.64153,59.04854],[15.63858,59.04796],[15.63734,59.04723],[15.63657,59.04713],[15.63681,59.0454],[15.63833,59.04322],[15.63229,59.03679],[15.63348,59.03533],[15.64098,59.03453],[15.6395,59.0326],[15.6334,59.03126],[15.63287,59.0295],[15.62968,59.02819],[15.62828,59.02451],[15.62567,59.02451],[15.62457,59.02522],[15.62346,59.02513],[15.62003,59.02467],[15.61905,59.02439],[15.61871,59.02388],[15.61773,59.02367],[15.61735,59.02327],[15.61667,59.02304],[15.61667,59.02258],[15.61733,59.02231],[15.61857,59.02227],[15.61946,59.02108],[15.62066,59.02007],[15.62063,59.01893],[15.61979,59.01855],[15.61986,59.01798],[15.62067,59.01732],[15.62119,59.01567],[15.62631,59.01318],[15.63112,59.01128],[15.63462,59.01117],[15.63607,59.01141],[15.63995,59.0126],[15.64341,59.01287],[15.64641,59.01263],[15.64784,59.01153],[15.64965,59.0113],[15.65182,59.01232],[15.65304,59.01242],[15.65492,59.01206],[15.65572,59.01155],[15.65643,59.0107],[15.65599,59.01014],[15.65262,59.00934],[15.65165,59.00867],[15.65201,59.00772],[15.654,59.00559],[15.6546,59.00456],[15.65449,58.99971],[15.65342,58.99866],[15.65122,58.99816],[15.65031,58.99614],[15.66531,58.98203],[15.68763,58.98197],[15.68754,58.98091],[15.68187,58.97525],[15.67766,58.97419],[15.6578,58.97502],[15.64158,58.97392],[15.63868,58.97554],[15.63849,58.97587],[15.63764,58.97614],[15.63639,58.97851],[15.63512,58.97946],[15.63448,58.97965],[15.63464,58.98],[15.63299,58.98132],[15.63004,58.98294],[15.62908,58.98318],[15.60306,58.96828],[15.59035,58.95955],[15.58064,58.95961],[15.55356,58.95619],[15.5528,58.95964],[15.55156,58.96215],[15.55124,58.96353],[15.54882,58.96646],[15.54828,58.96743],[15.54824,58.96818],[15.54764,58.96847],[15.54664,58.9703],[15.54336,58.97317],[15.52125,58.98139],[15.51768,58.98293],[15.49878,58.98833],[15.49017,58.99193],[15.47932,58.99802],[15.47561,59.00194],[15.46032,59.00173],[15.44094,59.01357],[15.43914,59.01367],[15.43774,59.01355],[15.43683,59.01424],[15.43603,59.01698],[15.46398,59.01848],[15.471,59.02955],[15.47128,59.03452],[15.47095,59.0354],[15.46258,59.04182],[15.46117,59.05212],[15.45913,59.06091],[15.46713,59.06382],[15.46861,59.0668],[15.46691,59.06844],[15.46616,59.06879],[15.46664,59.06986],[15.46435,59.07102],[15.4615,59.07312],[15.46073,59.07394],[15.46716,59.08008],[15.45796,59.08528],[15.45223,59.08947],[15.45,59.09359],[15.43209,59.10145],[15.42403,59.10422],[15.42288,59.1048],[15.4225,59.10593],[15.42602,59.10591],[15.42615,59.1091],[15.42179,59.11268],[15.41815,59.11163],[15.41615,59.1155],[15.41206,59.12065],[15.40963,59.12335],[15.40633,59.12611],[15.40539,59.12747],[15.40645,59.12939],[15.40582,59.13147],[15.4067,59.13378],[15.40397,59.13688],[15.40344,59.13796],[15.40502,59.13879],[15.40643,59.13901],[15.40594,59.14391],[15.40513,59.14617],[15.40202,59.14761],[15.39793,59.14697],[15.39411,59.14751],[15.38893,59.14935],[15.37904,59.1546],[15.37277,59.15436],[15.36147,59.17178],[15.35832,59.17921],[15.37032,59.17775],[15.37811,59.1752],[15.40196,59.17365],[15.42346,59.17411],[15.4228,59.18044],[15.4247,59.18199],[15.43701,59.18528],[15.44563,59.18414],[15.44587,59.18426],[15.44737,59.18416],[15.44798,59.18426],[15.44794,59.18535],[15.44951,59.18483],[15.45051,59.18557],[15.45146,59.1858],[15.45199,59.18573],[15.45314,59.18503],[15.45438,59.18533],[15.45535,59.18518],[15.45548,59.18435],[15.45669,59.18445],[15.45788,59.18498],[15.45871,59.18511],[15.46234,59.18506],[15.46244,59.18392],[15.47755,59.1881],[15.49246,59.19442],[15.49942,59.19515],[15.53206,59.19631],[15.53732,59.195],[15.54566,59.18907],[15.54852,59.18878],[15.55036,59.18782],[15.55777,59.18673],[15.57048,59.18989],[15.57294,59.19012],[15.57359,59.18583],[15.57758,59.18539],[15.58215,59.18517],[15.58837,59.18364],[15.60925,59.18641],[15.61082,59.18752],[15.61336,59.18772],[15.61849,59.18498],[15.64732,59.18785],[15.64508,59.19737],[15.72654,59.2234],[15.79817,59.23052],[15.76204,59.19792]]]}}]}