{"type":"FeatureCollection","features":[{"type":"Feature","id":"1881R001","properties":{"code":"1881R001","name":"Haga-Djupadal-Åsen"},"geometry":{"type":"Polygon","coordinates":[[[15.15803,59.15221],[15.15812,59.15056],[15.15742,59.14907],[15.15809,59.14757],[15.15782,59.1456],[15.1588,59.14297],[15.16044,59.14145],[15.1612,59.13906],[15.16243,59.13669],[15.16664,59.13477],[15.1683,59.13323],[15.16953,59.13035],[15.16892,59.12798],[15.17039,59.12719],[15.17531,59.12825],[15.17756,59.1284],[15.17974,59.12834],[15.18078,59.1285],[15.18165,59.12774],[15.18238,59.12796],[15.18546,59.12699],[15.18736,59.12551],[15.17592,59.12226],[15.17241,59.12166],[15.17157,59.12211],[15.16981,59.12225],[15.16745,59.12213],[15.16613,59.12189],[15.16631,59.12116],[15.1654,59.12109],[15.16136,59.12267],[15.15792,59.1235],[15.15648,59.12367],[15.15156,59.12363],[15.14815,59.12411],[15.14556,59.12471],[15.14601,59.12588],[15.14566,59.12941],[15.14729,59.1295],[15.14651,59.13049],[15.14295,59.13031],[15.14228,59.1316],[15.1415,59.12922],[15.13015,59.12865],[15.12923,59.12799],[15.12732,59.12564],[15.12687,59.12599],[15.12583,59.12606],[15.11697,59.12533],[15.11325,59.1255],[15.10768,59.12522],[15.10657,59.12671],[15.124,59.13527],[15.12523,59.1349],[15.12674,59.1355],[15.13057,59.13436],[15.13488,59.13422],[15.13522,59.13475],[15.13632,59.13462],[15.1437,59.1356],[15.15004,59.15211],[15.15202,59.15196],[15.15197,59.15279],[15.1526,59.15314],[15.15282,59.15424],[15.15383,59.15487],[15.15549,59.15505],[15.15722,59.15362],[15.15803,59.15221]]]}},{"type":"Feature","id":"1881R002","properties":{"code":"1881R002","name":"Kumla centrum-Fylsta-Via"},"geometry":{"type":"Polygon","coordinates":[[[15.14228,59.1316],[15.14295,59.13031],[15.14651,59.13049],[15.14729,59.1295],[15.14566,59.12941],[15.14601,59.12588],[15.14564,59.12416],[15.14553,59.12399],[15.14355,59.12399],[15.14349,59.12167],[15.1421,59.12207],[15.1417,59.12163],[15.13898,59.12167],[15.13212,59.10155],[15.1265,59.10116],[15.1163,59.10087],[15.11455,59.10171],[15.1134,59.10257],[15.11235,59.10389],[15.11146,59.10637],[15.11136,59.10887],[15.11169,59.11021],[15.11089,59.11292],[15.10859,59.11455],[15.10746,59.11615],[15.10729,59.11752],[15.10816,59.1221],[15.10775,59.12332],[15.10768,59.12522],[15.11325,59.1255],[15.11697,59.12533],[15.12583,59.12606],[15.12687,59.12599],[15.12732,59.12564],[15.12923,59.12799],[15.13015,59.12865],[15.1415,59.12922],[15.14228,59.1316]]]}},{"type":"Feature","id":"1881R003","properties":{"code":"1881R003","name":"Kumla omland"},"geometry":{"type":"Polygon","coordinates":[[[15.2878,59.18806],[15.28905,59.18817],[15.28975,59.18746],[15.29103,59.18755],[15.29178,59.18706],[15.29258,59.18725],[15.293,59.18772],[15.29496,59.18743],[15.29513,59.18808],[15.29581,59.18827],[15.29792,59.18814],[15.29819,59.18742],[15.29916,59.18688],[15.30006,59.18685],[15.30124,59.18719],[15.30167,59.18711],[15.30189,59.18641],[15.30131,59.18605],[15.30117,59.18564],[15.30235,59.18456],[15.3034,59.18449],[15.30491,59.18395],[15.30509,59.18367],[15.30468,59.18283],[15.30675,59.18234],[15.30798,59.18124],[15.30861,59.18113],[15.30969,59.18135],[15.31141,59.18136],[15.31277,59.18096],[15.31756,59.18075],[15.31896,59.18125],[15.32279,59.18191],[15.32434,59.1827],[15.32389,59.18301],[15.32424,59.18344],[15.32374,59.18371],[15.3255,59.18437],[15.33146,59.18453],[15.3566,59.18333],[15.35858,59.17862],[15.35458,59.17912],[15.34967,59.17677],[15.35399,59.17589],[15.35568,59.17494],[15.34548,59.17021],[15.35001,59.16763],[15.33376,59.15991],[15.33181,59.15925],[15.32923,59.15781],[15.32999,59.15719],[15.32792,59.15615],[15.32208,59.15436],[15.31956,59.15329],[15.32204,59.15138],[15.32287,59.14889],[15.31898,59.14371],[15.31412,59.14396],[15.30938,59.14316],[15.30868,59.14189],[15.30896,59.14127],[15.30838,59.14007],[15.30634,59.13975],[15.3065,59.1395],[15.30416,59.13899],[15.30383,59.13828],[15.30294,59.13752],[15.30133,59.13751],[15.29762,59.1367],[15.29649,59.13663],[15.28475,59.1337],[15.29063,59.1326],[15.2992,59.13145],[15.29851,59.13133],[15.29801,59.13086],[15.29601,59.12319],[15.29732,59.12373],[15.2987,59.11821],[15.29661,59.11819],[15.29668,59.11751],[15.29988,59.11314],[15.29968,59.10878],[15.29103,59.1095],[15.29001,59.10937],[15.28995,59.10871],[15.28608,59.10908],[15.28781,59.10526],[15.28618,59.10314],[15.27983,59.10381],[15.28052,59.10273],[15.27552,59.10359],[15.268,59.1026],[15.26808,59.10206],[15.27645,59.08934],[15.27794,59.08645],[15.27525,59.08443],[15.27462,59.08311],[15.27593,59.08026],[15.27486,59.07946],[15.27438,59.07873],[15.27425,59.07688],[15.27376,59.07642],[15.27431,59.07471],[15.27581,59.07277],[15.27701,59.07032],[15.2758,59.0695],[15.27472,59.06964],[15.2747,59.07038],[15.27342,59.07197],[15.27235,59.07276],[15.27102,59.0728],[15.26799,59.0708],[15.26662,59.06879],[15.26743,59.06792],[15.26732,59.06713],[15.26765,59.06659],[15.26666,59.06611],[15.2664,59.06564],[15.26193,59.06335],[15.26138,59.06357],[15.25922,59.06375],[15.25764,59.06491],[15.25607,59.06995],[15.25423,59.07154],[15.25491,59.07183],[15.25529,59.07244],[15.2554,59.07355],[15.25589,59.07426],[15.25562,59.07492],[15.25632,59.07538],[15.25295,59.07583],[15.2532,59.07685],[15.25192,59.07824],[15.25187,59.07957],[15.25122,59.08019],[15.25054,59.08249],[15.24935,59.08325],[15.2492,59.084],[15.24861,59.08463],[15.24687,59.08559],[15.246,59.08687],[15.23955,59.08695],[15.23944,59.08819],[15.23851,59.08857],[15.2365,59.08834],[15.2343,59.0885],[15.23416,59.08865],[15.22462,59.0896],[15.20891,59.0898],[15.20837,59.09076],[15.20791,59.09104],[15.20041,59.09127],[15.19863,59.08998],[15.18948,59.09012],[15.18698,59.0903],[15.18462,59.09022],[15.18151,59.08981],[15.18179,59.08902],[15.18148,59.08796],[15.17528,59.08686],[15.17538,59.08754],[15.17581,59.08787],[15.17353,59.08791],[15.17319,59.09103],[15.17626,59.09413],[15.1762,59.09593],[15.17315,59.10037],[15.17271,59.10198],[15.16759,59.10324],[15.16463,59.10366],[15.16344,59.10426],[15.16651,59.10621],[15.16855,59.10713],[15.17044,59.10862],[15.17208,59.10953],[15.17235,59.1105],[15.17198,59.11197],[15.17168,59.11268],[15.17071,59.11292],[15.17009,59.11357],[15.16761,59.11454],[15.16745,59.11556],[15.1663,59.1165],[15.16687,59.11731],[15.16626,59.11764],[15.16683,59.11845],[15.16322,59.11924],[15.16301,59.1209],[15.16631,59.12116],[15.16613,59.12189],[15.16745,59.12213],[15.16981,59.12225],[15.17157,59.12211],[15.17241,59.12166],[15.17592,59.12226],[15.18736,59.12551],[15.18546,59.12699],[15.18238,59.12796],[15.18165,59.12774],[15.18078,59.1285],[15.17974,59.12834],[15.17756,59.1284],[15.17531,59.12825],[15.17039,59.12719],[15.16892,59.12798],[15.16953,59.13035],[15.1683,59.13323],[15.16664,59.13477],[15.16243,59.13669],[15.1612,59.13906],[15.16044,59.14145],[15.1588,59.14297],[15.15782,59.1456],[15.15809,59.14757],[15.15742,59.14907],[15.15812,59.15056],[15.15803,59.15221],[15.15722,59.15362],[15.15577,59.15487],[15.15427,59.15569],[15.1519,59.15651],[15.14968,59.15695],[15.14698,59.15715],[15.14443,59.15815],[15.14175,59.16016],[15.13887,59.16137],[15.13559,59.16201],[15.13263,59.16214],[15.13104,59.163],[15.12939,59.16361],[15.1269,59.16415],[15.12489,59.16433],[15.1222,59.16427],[15.11943,59.16384],[15.11703,59.16318],[15.11504,59.16225],[15.1122,59.16029],[15.11123,59.15933],[15.11052,59.15793],[15.1105,59.15662],[15.10703,59.15591],[15.10436,59.15472],[15.10234,59.15287],[15.10178,59.15108],[15.10215,59.14941],[15.1049,59.14544],[15.10803,59.14311],[15.11122,59.1419],[15.11005,59.14001],[15.11011,59.13837],[15.10827,59.13527],[15.10692,59.1344],[15.10573,59.13312],[15.10516,59.13134],[15.1063,59.12727],[15.10789,59.12479],[15.10775,59.12332],[15.10816,59.1221],[15.10735,59.11649],[15.10828,59.11486],[15.11089,59.11292],[15.11169,59.11021],[15.11136,59.10887],[15.11146,59.10637],[15.11235,59.10389],[15.1134,59.10257],[15.11455,59.10171],[15.1163,59.10087],[15.1265,59.10116],[15.13212,59.10155],[15.12675,59.08496],[15.133,59.08494],[15.1315,59.08149],[15.12852,59.08019],[15.12761,59.07756],[15.12376,59.07719],[15.12584,59.08311],[15.12165,59.08384],[15.10382,59.07943],[15.10401,59.07974],[15.09709,59.08072],[15.09848,59.08347],[15.0909,59.08443],[15.09065,59.08393],[15.08542,59.08471],[15.08564,59.08524],[15.08346,59.08556],[15.08322,59.08508],[15.08058,59.08543],[15.08013,59.08363],[15.0749,59.08425],[15.07538,59.08152],[15.06986,59.0764],[15.06667,59.07661],[15.06715,59.07814],[15.06284,59.07839],[15.06394,59.07689],[15.06338,59.07317],[15.06059,59.06819],[15.04803,59.06773],[15.0485,59.06867],[15.04816,59.0696],[15.04449,59.0691],[15.0442,59.06817],[15.0387,59.06623],[15.03773,59.06492],[15.03526,59.06485],[15.03364,59.06536],[15.0337,59.06479],[15.03081,59.06366],[15.02723,59.06154],[15.02894,59.06088],[15.02934,59.0558],[15.02537,59.05264],[15.02376,59.05261],[15.02375,59.05155],[15.0275,59.05258],[15.03156,59.05427],[15.03521,59.05537],[15.03481,59.05492],[15.03972,59.05581],[15.04048,59.05174],[15.03907,59.05169],[15.03709,59.05133],[15.03353,59.05024],[15.02895,59.04935],[15.02198,59.04725],[15.01773,59.04661],[15.01653,59.04839],[15.01495,59.04807],[15.0144,59.04874],[15.01235,59.04953],[15.00623,59.05075],[15.00532,59.05155],[15.00426,59.05348],[14.99806,59.0538],[14.99773,59.05559],[14.99459,59.05629],[14.99558,59.05738],[14.99538,59.05836],[14.99609,59.05875],[14.99601,59.05925],[14.99168,59.05884],[14.99024,59.05739],[14.98811,59.05747],[14.98567,59.0588],[14.98528,59.05977],[14.98714,59.06007],[14.9836,59.0631],[14.9858,59.06374],[14.98468,59.06473],[14.98372,59.06778],[14.98451,59.06845],[14.9851,59.06832],[14.99056,59.07245],[14.98747,59.07374],[14.98587,59.07469],[14.98371,59.0753],[14.97937,59.07777],[14.97145,59.07781],[14.96855,59.07725],[14.9629,59.07842],[14.95567,59.07726],[14.94594,59.07599],[14.94123,59.07469],[14.94053,59.07422],[14.93678,59.07328],[14.9348,59.07349],[14.92845,59.07475],[14.91801,59.07519],[14.92449,59.0883],[14.92933,59.09213],[14.92807,59.09483],[14.92805,59.09555],[14.92871,59.09644],[14.92898,59.09794],[14.92958,59.09858],[14.92917,59.0994],[14.92983,59.09977],[14.92939,59.10018],[14.9299,59.10068],[14.9295,59.10091],[14.9296,59.10121],[14.93067,59.10234],[14.93102,59.10394],[14.93177,59.10536],[14.93217,59.10536],[14.93243,59.10501],[14.93284,59.10499],[14.93328,59.10524],[14.9338,59.10522],[14.93389,59.10561],[14.93457,59.10569],[14.93495,59.10593],[14.93427,59.10625],[14.93418,59.10677],[14.93452,59.10713],[14.9342,59.10774],[14.9343,59.10818],[14.93474,59.10825],[14.93457,59.10871],[14.93512,59.10881],[14.93475,59.10913],[14.93553,59.10937],[14.93517,59.10968],[14.93447,59.10971],[14.9349,59.11016],[14.93425,59.11049],[14.93487,59.11068],[14.93506,59.11098],[14.93558,59.11088],[14.93679,59.11154],[14.93624,59.11221],[14.93676,59.11251],[14.93716,59.11349],[14.93811,59.11354],[14.93831,59.1137],[14.93783,59.11463],[14.93822,59.11515],[14.93863,59.11525],[14.93938,59.11497],[14.93977,59.11536],[14.94037,59.11523],[14.94105,59.11548],[14.94161,59.11518],[14.94206,59.11518],[14.94195,59.11586],[14.94337,59.11615],[14.94305,59.11675],[14.94597,59.1194],[14.94777,59.12017],[14.9487,59.11986],[14.95146,59.11967],[14.95179,59.12005],[14.95318,59.1206],[14.95418,59.1206],[14.95425,59.12107],[14.95362,59.12128],[14.95461,59.12163],[14.95381,59.12192],[14.95421,59.12247],[14.9539,59.12267],[14.95414,59.12307],[14.95389,59.12337],[14.9552,59.12365],[14.95517,59.12401],[14.95574,59.12423],[14.95668,59.1241],[14.95655,59.12463],[14.96155,59.12474],[14.96079,59.12757],[14.98035,59.12946],[14.99048,59.12801],[14.99258,59.12819],[14.99384,59.12722],[14.99321,59.12627],[14.9932,59.12573],[15.013,59.12884],[15.03066,59.13194],[15.0431,59.13601],[15.05486,59.15224],[15.05423,59.15313],[15.05519,59.15516],[15.05362,59.15627],[15.05257,59.15671],[15.05049,59.15633],[15.04955,59.15699],[15.04649,59.15667],[15.04734,59.15903],[15.04949,59.15989],[15.05034,59.16091],[15.04963,59.16249],[15.04949,59.16399],[15.04977,59.16534],[15.05084,59.16636],[15.05036,59.16685],[15.05452,59.16973],[15.0538,59.17258],[15.05521,59.17331],[15.06688,59.17152],[15.08436,59.17499],[15.09028,59.17714],[15.09674,59.18059],[15.09884,59.17968],[15.11179,59.17673],[15.11435,59.17666],[15.12459,59.17737],[15.13335,59.1766],[15.13571,59.1768],[15.13715,59.17711],[15.13905,59.17787],[15.14014,59.17804],[15.1446,59.1794],[15.14476,59.18104],[15.14945,59.1816],[15.15776,59.18215],[15.15721,59.181],[15.15806,59.17848],[15.15264,59.17814],[15.1426,59.17044],[15.15622,59.16972],[15.1607,59.1705],[15.18354,59.18207],[15.20023,59.18216],[15.20324,59.17992],[15.2047,59.18055],[15.22962,59.17164],[15.23088,59.172],[15.23784,59.17538],[15.24882,59.17685],[15.25223,59.17789],[15.25762,59.18115],[15.26121,59.18247],[15.26211,59.18191],[15.27734,59.18547],[15.27971,59.18764],[15.27919,59.18858],[15.27948,59.18878],[15.2802,59.1888],[15.28076,59.18853],[15.28158,59.18909],[15.28226,59.1891],[15.28284,59.18893],[15.28286,59.18816],[15.2832,59.18804],[15.28376,59.18889],[15.2845,59.18924],[15.2871,59.18887],[15.2878,59.18806]]]}},{"type":"Feature","id":"1881R004","properties":{"code":"1881R004","name":"Kumlaby-Korsta-Sannahed"},"geometry":{"type":"Polygon","coordinates":[[[15.14815,59.12411],[15.15156,59.12363],[15.15648,59.12367],[15.15792,59.1235],[15.16136,59.12267],[15.1654,59.12109],[15.16301,59.1209],[15.16322,59.11924],[15.16683,59.11845],[15.16626,59.11764],[15.16687,59.11731],[15.1663,59.1165],[15.16745,59.11556],[15.16748,59.11468],[15.16805,59.1143],[15.17009,59.11357],[15.17071,59.11292],[15.17176,59.11258],[15.17235,59.1105],[15.17208,59.10953],[15.17044,59.10862],[15.16855,59.10713],[15.16651,59.10621],[15.16344,59.10426],[15.16463,59.10366],[15.16759,59.10324],[15.17271,59.10198],[15.17315,59.10037],[15.1762,59.09593],[15.17626,59.09413],[15.17319,59.09103],[15.17353,59.08791],[15.16109,59.08813],[15.16137,59.08744],[15.15966,59.08727],[15.15801,59.08547],[15.15709,59.08301],[15.15455,59.08084],[15.15297,59.08005],[15.14554,59.07717],[15.14199,59.07504],[15.13659,59.07232],[15.13192,59.07464],[15.12888,59.07355],[15.1215,59.0732],[15.123,59.07496],[15.12376,59.07719],[15.12761,59.07756],[15.12852,59.08019],[15.1315,59.08149],[15.133,59.08494],[15.12675,59.08496],[15.13898,59.12167],[15.1417,59.12163],[15.1421,59.12207],[15.14349,59.12167],[15.14355,59.12399],[15.14553,59.12399],[15.14556,59.12471],[15.14815,59.12411]]]}},{"type":"Feature","id":"1881R005","properties":{"code":"1881R005","name":"Oppegård-Skogstorp-Smedstorp"},"geometry":{"type":"Polygon","coordinates":[[[15.12939,59.16361],[15.13263,59.16214],[15.13623,59.16193],[15.13887,59.16137],[15.14175,59.16016],[15.14443,59.15815],[15.14698,59.15715],[15.14904,59.15703],[15.15173,59.15655],[15.15375,59.15591],[15.15549,59.15505],[15.15383,59.15487],[15.15282,59.15424],[15.1526,59.15314],[15.15197,59.15279],[15.15202,59.15196],[15.15004,59.15211],[15.1437,59.1356],[15.13632,59.13462],[15.13522,59.13475],[15.13488,59.13422],[15.13057,59.13436],[15.12674,59.1355],[15.12523,59.1349],[15.124,59.13527],[15.10657,59.12671],[15.10525,59.13063],[15.10526,59.13207],[15.10625,59.13378],[15.10827,59.13527],[15.11011,59.13837],[15.11005,59.14001],[15.11122,59.1419],[15.10915,59.14258],[15.10759,59.14337],[15.1043,59.14608],[15.10189,59.15011],[15.10187,59.15182],[15.10257,59.15319],[15.10394,59.15446],[15.10586,59.15548],[15.10825,59.15624],[15.1105,59.15662],[15.11064,59.1583],[15.11183,59.15997],[15.11502,59.16224],[15.11759,59.16337],[15.12154,59.1642],[15.12556,59.16429],[15.12939,59.16361]]]}}]}