{"type":"FeatureCollection","features":[{"type":"Feature","id":"1882R001","properties":{"code":"1882R001","name":"Askersund omland norr"},"geometry":{"type":"Polygon","coordinates":[[[15.04986,59.02532],[15.09168,59.02214],[15.09449,59.01979],[15.09403,59.01974],[15.0945,59.01754],[15.09638,59.0149],[15.09258,59.00272],[15.16415,58.99956],[15.16733,58.99322],[15.16035,58.98103],[15.15994,58.97974],[15.15198,58.97128],[15.15166,58.97038],[15.16214,58.96139],[15.14743,58.94548],[15.14818,58.94429],[15.16996,58.9414],[15.17341,58.93768],[15.17207,58.93303],[15.15123,58.93026],[15.14822,58.9302],[15.14453,58.9332],[15.14321,58.9419],[15.13793,58.94086],[15.12402,58.93976],[15.12357,58.93803],[15.124,58.93259],[15.12549,58.93192],[15.12794,58.93],[15.12522,58.92872],[15.1243,58.92678],[15.12586,58.92505],[15.1336,58.92589],[15.13577,58.92557],[15.13922,58.92231],[15.13947,58.91791],[15.15525,58.91193],[15.15153,58.90853],[15.14997,58.8955],[15.1391,58.89517],[15.13238,58.89355],[15.12603,58.89324],[15.12286,58.89357],[15.11609,58.88861],[15.11131,58.88037],[15.10363,58.87572],[15.11146,58.86853],[15.09504,58.85687],[15.09392,58.85749],[15.09327,58.85755],[15.09291,58.858],[15.09225,58.85813],[15.09207,58.85846],[15.09116,58.85892],[15.0898,58.85894],[15.08804,58.85952],[15.08584,58.85984],[15.08616,58.86087],[15.08506,58.86195],[15.08292,58.8629],[15.08107,58.86422],[15.0787,58.86513],[15.07879,58.86545],[15.07813,58.86594],[15.07768,58.86616],[15.0772,58.8661],[15.07616,58.86663],[15.07266,58.86746],[15.07099,58.86818],[15.07044,58.86867],[15.06983,58.86876],[15.06943,58.86902],[15.06948,58.86956],[15.06766,58.87093],[15.06744,58.87138],[15.06681,58.87168],[15.06625,58.87298],[15.06532,58.87297],[15.06465,58.87274],[15.06416,58.87327],[15.06374,58.87331],[15.06378,58.87351],[15.06325,58.8735],[15.06346,58.87369],[15.06311,58.87372],[15.06315,58.87389],[15.06261,58.87377],[15.06199,58.8742],[15.06116,58.87428],[15.05996,58.87471],[15.05861,58.87403],[15.05807,58.87463],[15.05769,58.8747],[15.0578,58.87496],[15.05665,58.87526],[15.05642,58.87636],[15.0551,58.87722],[15.05343,58.87732],[15.05292,58.87699],[15.05214,58.87719],[15.05136,58.87702],[15.05015,58.88357],[15.03846,58.89621],[15.03778,58.89726],[15.03614,58.89852],[15.03951,58.8998],[15.03833,58.90185],[15.02784,58.90598],[15.01617,58.90466],[15.0155,58.90442],[15.01415,58.9045],[15.01357,58.90371],[15.01361,58.90189],[15.00335,58.9017],[15.00151,58.90128],[15.00109,58.9019],[14.99835,58.90204],[14.99608,58.90131],[14.99333,58.89973],[14.993,58.89977],[14.98329,58.89702],[14.96329,58.89545],[14.96381,58.89499],[14.96337,58.89484],[14.96204,58.89516],[14.96172,58.89372],[14.96414,58.89238],[14.96764,58.89157],[14.96753,58.89097],[14.96795,58.89031],[14.96735,58.88992],[14.96796,58.88794],[14.9676,58.88779],[14.96736,58.88669],[14.96853,58.88698],[14.96806,58.88622],[14.96638,58.88666],[14.96069,58.88513],[14.95915,58.88675],[14.95608,58.88908],[14.95475,58.89075],[14.95347,58.89167],[14.95173,58.89249],[14.94928,58.89331],[14.94604,58.89383],[14.94264,58.8938],[14.93888,58.89306],[14.93727,58.89373],[14.93513,58.89557],[14.9331,58.89677],[14.93049,58.89784],[14.92928,58.899],[14.92853,58.90185],[14.92775,58.90321],[14.92634,58.90443],[14.92434,58.90545],[14.9217,58.90624],[14.91834,58.90665],[14.91519,58.90654],[14.91132,58.90589],[14.90769,58.9065],[14.90301,58.90649],[14.90436,58.90689],[14.90918,58.90918],[14.91365,58.90969],[14.92164,58.91313],[14.9282,58.9127],[14.93007,58.91187],[14.93826,58.91283],[14.94461,58.91798],[14.95677,58.91602],[14.96192,58.91753],[14.97635,58.9189],[14.97578,58.91983],[14.97469,58.92032],[14.97662,58.92116],[14.97795,58.92137],[14.97852,58.92165],[14.97947,58.92165],[14.98042,58.9219],[14.98073,58.92235],[14.98003,58.92267],[14.97977,58.92877],[14.97706,58.93342],[14.97381,58.93578],[14.97121,58.93991],[14.98186,58.94181],[14.99271,58.94192],[14.99559,58.9421],[14.99524,58.94232],[14.99443,58.94241],[14.99398,58.94287],[14.99345,58.94298],[14.99299,58.94378],[14.99095,58.94502],[14.99051,58.94568],[14.99009,58.94716],[14.99008,58.9479],[14.99042,58.94828],[14.98944,58.94945],[14.99065,58.95036],[14.99045,58.95086],[14.98966,58.9514],[14.99016,58.95193],[14.98917,58.95238],[14.98887,58.953],[14.98317,58.95516],[14.97606,58.95704],[14.97245,58.96045],[14.97782,58.96616],[14.98806,58.96427],[14.99254,58.96387],[15.00225,58.96899],[14.99889,58.97203],[15.00105,58.97464],[14.99408,58.97614],[14.9892,58.97816],[14.98398,58.97942],[14.98242,58.98029],[14.98134,58.98375],[14.98636,58.98644],[14.9857,58.98765],[14.97812,58.99558],[14.97681,58.99983],[14.97714,59.00099],[14.97626,59.00146],[14.97522,59.00164],[14.96952,59.00165],[14.96968,59.00318],[14.96944,59.00363],[14.97079,59.00433],[14.97125,59.00501],[14.97053,59.00721],[14.96126,59.01034],[14.97123,59.01116],[14.97134,59.01174],[14.97234,59.0122],[14.97256,59.01255],[14.97433,59.01253],[14.97489,59.01229],[14.9755,59.01229],[14.99717,59.01766],[14.99713,59.01666],[14.99759,59.01645],[14.99851,59.01647],[14.99922,59.01613],[15.0001,59.01477],[14.99996,59.01649],[15.00287,59.01622],[15.03476,59.02366],[15.04255,59.02621],[15.04986,59.02532]],[[15.05054,59.01273],[15.04733,59.01257],[15.04471,59.01206],[15.0396,59.01054],[15.03672,59.00899],[15.03551,59.00768],[15.03487,59.00565],[15.03342,59.0037],[15.03327,59.00222],[15.03251,59.00095],[15.03163,58.99703],[15.03245,58.99518],[15.03374,58.99371],[15.0352,58.99254],[15.03717,58.9916],[15.04046,58.99065],[15.03942,58.98321],[15.04053,58.9806],[15.04338,58.97742],[15.04625,58.97586],[15.04802,58.97534],[15.05046,58.97493],[15.05191,58.9742],[15.05425,58.97345],[15.05623,58.9731],[15.05903,58.9729],[15.06183,58.97292],[15.06453,58.97331],[15.06691,58.97402],[15.06821,58.97463],[15.07224,58.97533],[15.07403,58.97596],[15.07644,58.97734],[15.07889,58.97831],[15.08181,58.9788],[15.08601,58.98003],[15.08824,58.9809],[15.08994,58.98201],[15.09124,58.98367],[15.09161,58.98498],[15.09117,58.98835],[15.09047,58.9902],[15.0897,58.99121],[15.07657,59.00274],[15.07508,59.00345],[15.07289,59.00631],[15.0713,59.0075],[15.06976,59.00824],[15.06738,59.00895],[15.06538,59.00927],[15.06314,59.00939],[15.06101,59.01091],[15.05819,59.01195],[15.05554,59.01242],[15.05054,59.01273]]]}},{"type":"Feature","id":"1882R002","properties":{"code":"1882R002","name":"Askersund omland söder"},"geometry":{"type":"Polygon","coordinates":[[[14.97227,58.85372],[14.9769,58.85207],[14.97886,58.8498],[14.98882,58.84951],[14.98894,58.85004],[14.99028,58.84923],[14.99167,58.84582],[14.9921,58.84294],[14.9901,58.84032],[14.98817,58.83897],[14.99033,58.83477],[14.99571,58.83318],[15.00272,58.82591],[15.00259,58.82518],[15.00639,58.82367],[15.01372,58.82228],[15.01855,58.8241],[15.02493,58.82583],[15.02788,58.82517],[15.04056,58.82783],[15.04256,58.82916],[15.04709,58.828],[15.04749,58.82747],[15.04925,58.82139],[15.04685,58.82019],[15.04928,58.81842],[15.04748,58.81602],[15.05451,58.81282],[15.05536,58.81129],[15.05451,58.81038],[15.05402,58.80654],[15.05542,58.80481],[15.05419,58.8021],[15.04722,58.79421],[15.04796,58.79227],[15.04536,58.79055],[15.05271,58.778],[15.05117,58.77525],[15.0399,58.77241],[15.03694,58.7687],[15.02906,58.76062],[15.03811,58.7586],[15.06022,58.75133],[15.06525,58.75056],[15.06456,58.74901],[15.05366,58.73825],[15.0488,58.72446],[15.04923,58.72222],[15.04111,58.71298],[15.03454,58.70429],[15.02899,58.70528],[15.02392,58.70504],[15.01911,58.70452],[15.01158,58.70558],[15.00394,58.6957],[15.00165,58.69649],[14.99547,58.69443],[14.99238,58.69193],[14.98811,58.691],[14.98428,58.6896],[14.98393,58.68909],[14.98127,58.68897],[14.97876,58.6882],[14.97778,58.68769],[14.97518,58.68709],[14.97247,58.68542],[14.97246,58.6834],[14.96949,58.68328],[14.9638,58.68948],[14.96103,58.69009],[14.95548,58.69295],[14.9362,58.69482],[14.93338,58.69637],[14.92922,58.69682],[14.81272,58.66677],[14.80665,58.66505],[14.77882,58.64617],[14.71939,58.68485],[14.71436,58.68805],[14.7109,58.68985],[14.7096,58.69082],[14.70911,58.69085],[14.70781,58.69227],[14.70709,58.69218],[14.70517,58.69255],[14.70267,58.69421],[14.70269,58.69543],[14.70347,58.69632],[14.69967,58.69618],[14.69893,58.69663],[14.69892,58.69711],[14.6981,58.69797],[14.69812,58.69899],[14.69918,58.69966],[14.69885,58.70023],[14.69933,58.70067],[14.69848,58.70109],[14.69806,58.70178],[14.69817,58.70209],[14.69732,58.70324],[14.69742,58.70426],[14.69588,58.70475],[14.69506,58.70571],[14.6953,58.70645],[14.69324,58.70842],[14.69269,58.70964],[14.69182,58.71033],[14.69168,58.71089],[14.68919,58.71256],[14.69223,58.7149],[14.69093,58.71625],[14.6897,58.71662],[14.69048,58.71811],[14.69105,58.71863],[14.69199,58.71903],[14.69245,58.71958],[14.6937,58.71971],[14.69409,58.72059],[14.69487,58.72069],[14.69571,58.72108],[14.69511,58.72261],[14.69249,58.72628],[14.69123,58.74012],[14.69142,58.74364],[14.69206,58.74378],[14.69348,58.74367],[14.69389,58.74443],[14.69457,58.74443],[14.69542,58.74493],[14.69644,58.74465],[14.69682,58.74412],[14.69809,58.74431],[14.69912,58.74424],[14.70134,58.74583],[14.70178,58.74556],[14.70152,58.74501],[14.70047,58.7444],[14.70064,58.74362],[14.70037,58.74317],[14.70174,58.74138],[14.70639,58.74077],[14.7074,58.74082],[14.70765,58.74142],[14.70716,58.74235],[14.70722,58.74294],[14.70792,58.74365],[14.70849,58.7437],[14.7091,58.74282],[14.71049,58.74181],[14.7118,58.7413],[14.71218,58.74097],[14.71383,58.74054],[14.71396,58.7401],[14.71587,58.7398],[14.71653,58.73921],[14.71718,58.73917],[14.71789,58.73776],[14.71775,58.73707],[14.71798,58.73693],[14.71959,58.73707],[14.7198,58.73653],[14.71958,58.73632],[14.72092,58.73593],[14.72105,58.73619],[14.72156,58.73615],[14.72137,58.73639],[14.72218,58.7371],[14.72289,58.73713],[14.72541,58.73869],[14.72641,58.73892],[14.72692,58.73957],[14.72655,58.73965],[14.72451,58.74312],[14.72908,58.7443],[14.73083,58.74416],[14.73242,58.745],[14.74192,58.74385],[14.74299,58.74415],[14.74351,58.74453],[14.7459,58.7445],[14.74763,58.748],[14.7466,58.75016],[14.75131,58.75173],[14.75406,58.75332],[14.75748,58.75305],[14.75881,58.75597],[14.75682,58.75993],[14.76222,58.76265],[14.7602,58.76388],[14.76091,58.76584],[14.76013,58.76691],[14.76263,58.76761],[14.7625,58.76792],[14.76294,58.76801],[14.76456,58.76911],[14.7645,58.77005],[14.76633,58.7705],[14.7677,58.77057],[14.76696,58.77252],[14.76508,58.77234],[14.76559,58.77361],[14.76467,58.77397],[14.76241,58.7743],[14.76183,58.77397],[14.76122,58.77413],[14.7613,58.77439],[14.76078,58.7747],[14.75926,58.77459],[14.75777,58.78387],[14.7564,58.7844],[14.75596,58.7851],[14.75413,58.78616],[14.75399,58.78654],[14.75337,58.78673],[14.75338,58.78702],[14.75186,58.78798],[14.7518,58.78835],[14.75305,58.78831],[14.75735,58.7876],[14.76134,58.78529],[14.76324,58.78564],[14.7655,58.78676],[14.76916,58.78547],[14.77053,58.7853],[14.77151,58.78549],[14.77198,58.78534],[14.77343,58.78562],[14.77382,58.78603],[14.77496,58.7861],[14.77531,58.78637],[14.77521,58.78486],[14.77563,58.78464],[14.77664,58.78456],[14.77647,58.78398],[14.77859,58.78406],[14.7791,58.7833],[14.78194,58.78157],[14.78353,58.78148],[14.78439,58.78167],[14.78395,58.78198],[14.78565,58.78734],[14.77579,58.78642],[14.77512,58.78859],[14.7886,58.79021],[14.79465,58.78697],[14.79452,58.78672],[14.79533,58.78629],[14.79558,58.7851],[14.79589,58.78491],[14.80163,58.78501],[14.80312,58.78544],[14.80351,58.78624],[14.80461,58.78684],[14.80611,58.78813],[14.80681,58.78834],[14.80721,58.78973],[14.80904,58.79076],[14.81102,58.79126],[14.81222,58.79044],[14.81266,58.79114],[14.81213,58.79149],[14.8123,58.79263],[14.81111,58.79332],[14.80899,58.79375],[14.80745,58.79465],[14.80763,58.79547],[14.80711,58.79601],[14.80696,58.79679],[14.8073,58.79829],[14.80673,58.79877],[14.80682,58.79985],[14.8064,58.80033],[14.8055,58.80012],[14.80476,58.80017],[14.80404,58.80058],[14.80303,58.80043],[14.80302,58.8014],[14.80262,58.80203],[14.80447,58.80287],[14.80564,58.80556],[14.80544,58.80625],[14.80578,58.80696],[14.80621,58.80721],[14.80627,58.80849],[14.80583,58.8089],[14.80586,58.80959],[14.80508,58.80964],[14.80459,58.80946],[14.80227,58.80978],[14.80004,58.80955],[14.79865,58.80987],[14.79853,58.81015],[14.79636,58.81078],[14.7956,58.81122],[14.79483,58.81092],[14.79429,58.81016],[14.79365,58.81002],[14.79335,58.80969],[14.79242,58.80956],[14.79076,58.80855],[14.78975,58.80882],[14.78956,58.80904],[14.78732,58.80899],[14.78421,58.8094],[14.78374,58.80968],[14.78122,58.80846],[14.77955,58.80816],[14.77887,58.80842],[14.77468,58.8168],[14.79241,58.81909],[14.79186,58.82228],[14.79291,58.8224],[14.79619,58.8215],[14.79718,58.81969],[14.81019,58.8214],[14.81137,58.81992],[14.81339,58.81889],[14.8136,58.81829],[14.81399,58.81807],[14.81424,58.81672],[14.81715,58.81368],[14.8174,58.81231],[14.81805,58.81131],[14.81905,58.81071],[14.82016,58.80943],[14.81836,58.80665],[14.82065,58.80467],[14.82245,58.80399],[14.8244,58.80242],[14.82456,58.80178],[14.82406,58.80151],[14.82396,58.80102],[14.82514,58.79873],[14.82476,58.79781],[14.82523,58.79723],[14.82423,58.79661],[14.82499,58.79607],[14.82522,58.79499],[14.8263,58.7941],[14.82689,58.79287],[14.82687,58.7916],[14.828,58.79111],[14.82864,58.79057],[14.8285,58.79],[14.82677,58.78939],[14.82565,58.78933],[14.82398,58.78862],[14.82378,58.78805],[14.82302,58.7878],[14.82271,58.78736],[14.82446,58.7855],[14.81921,58.78058],[14.82399,58.78047],[14.83144,58.78156],[14.83354,58.78374],[14.83804,58.78375],[14.84184,58.78642],[14.85125,58.79229],[14.85595,58.79393],[14.85788,58.79233],[14.86612,58.79221],[14.86698,58.78939],[14.86101,58.78335],[14.86705,58.78334],[14.8766,58.78597],[14.87812,58.79146],[14.87692,58.7951],[14.88651,58.79529],[14.88693,58.79902],[14.89283,58.80035],[14.90365,58.80528],[14.91391,58.80564],[14.92613,58.81017],[14.92144,58.81731],[14.92109,58.81877],[14.92207,58.82049],[14.92475,58.82217],[14.92302,58.82942],[14.92736,58.83664],[14.93103,58.84091],[14.93869,58.84486],[14.93904,58.848],[14.94246,58.84722],[14.94735,58.84502],[14.94994,58.84421],[14.95671,58.84058],[14.95713,58.83844],[14.96724,58.83992],[14.96949,58.84466],[14.96553,58.84954],[14.97077,58.85365],[14.97227,58.85372]]]}},{"type":"Feature","id":"1882R003","properties":{"code":"1882R003","name":"Askersund omland väster"},"geometry":{"type":"Polygon","coordinates":[[[14.88622,59.01147],[14.88806,59.00929],[14.88854,59.01042],[14.89014,59.01044],[14.89004,59.00902],[14.8958,59.0095],[14.89479,59.01123],[14.90376,59.0104],[14.90618,59.00938],[14.90909,59.00866],[14.91082,59.00597],[14.91335,59.00629],[14.92395,59.00566],[14.93959,59.00253],[14.95506,59.00168],[14.95707,59.00103],[14.95891,59.00175],[14.95934,59.00216],[14.95927,59.00471],[14.95868,59.00641],[14.95944,59.00723],[14.95909,59.00745],[14.95902,59.00818],[14.96026,59.00952],[14.96039,59.01029],[14.96126,59.01034],[14.97053,59.00721],[14.97125,59.00501],[14.97079,59.00433],[14.96944,59.00363],[14.96968,59.00318],[14.96952,59.00165],[14.97522,59.00164],[14.97626,59.00146],[14.97714,59.00099],[14.97681,58.99983],[14.97812,58.99558],[14.9857,58.98765],[14.98636,58.98644],[14.98134,58.98375],[14.98242,58.98029],[14.98398,58.97942],[14.9892,58.97816],[14.99408,58.97614],[15.00105,58.97464],[14.99889,58.97203],[15.00225,58.96899],[14.99254,58.96387],[14.98806,58.96427],[14.97782,58.96616],[14.97245,58.96045],[14.97606,58.95704],[14.98317,58.95516],[14.98887,58.953],[14.98917,58.95238],[14.99016,58.95193],[14.98966,58.9514],[14.99045,58.95086],[14.99065,58.95036],[14.98944,58.94945],[14.99042,58.94828],[14.99008,58.9479],[14.99009,58.94716],[14.99051,58.94568],[14.99095,58.94502],[14.99299,58.94378],[14.99345,58.94298],[14.99398,58.94287],[14.99443,58.94241],[14.99524,58.94232],[14.99559,58.9421],[14.99271,58.94192],[14.98186,58.94181],[14.97121,58.93991],[14.97381,58.93578],[14.97706,58.93342],[14.97977,58.92877],[14.98003,58.92267],[14.98073,58.92235],[14.98042,58.9219],[14.97947,58.92165],[14.97852,58.92165],[14.97795,58.92137],[14.97662,58.92116],[14.97469,58.92032],[14.97578,58.91983],[14.97635,58.9189],[14.96192,58.91753],[14.95677,58.91602],[14.94461,58.91798],[14.93826,58.91283],[14.93007,58.91187],[14.9282,58.9127],[14.92164,58.91313],[14.91365,58.90969],[14.90918,58.90918],[14.90436,58.90689],[14.90301,58.90649],[14.8965,58.9061],[14.89672,58.90551],[14.8953,58.90509],[14.8953,58.90415],[14.8938,58.90246],[14.8932,58.89995],[14.89323,58.89865],[14.89262,58.89722],[14.89053,58.89678],[14.88879,58.89618],[14.88328,58.89346],[14.88214,58.8926],[14.88002,58.89027],[14.87896,58.8884],[14.87943,58.88593],[14.885,58.88432],[14.88725,58.88396],[14.88554,58.87929],[14.88578,58.87682],[14.88673,58.87515],[14.88598,58.87336],[14.88617,58.8719],[14.88705,58.87051],[14.88894,58.86901],[14.89158,58.86783],[14.89428,58.8672],[14.89637,58.86736],[14.90197,58.87124],[14.90616,58.8733],[14.9075,58.87203],[14.93427,58.87894],[14.93631,58.87696],[14.93991,58.87678],[14.9426,58.87628],[14.94581,58.87535],[14.94796,58.87505],[14.95079,58.87499],[14.95494,58.8756],[14.95729,58.87642],[14.95879,58.87723],[14.95996,58.87818],[14.96093,58.87956],[14.96122,58.88351],[14.9595,58.88482],[14.96638,58.88666],[14.96806,58.88622],[14.96853,58.88698],[14.96947,58.88722],[14.97293,58.88687],[14.97375,58.88716],[14.97718,58.88682],[14.97995,58.87739],[14.98229,58.87461],[14.98315,58.87423],[14.98355,58.87351],[14.98453,58.87293],[14.98543,58.87296],[14.98612,58.87253],[14.98652,58.87276],[14.98759,58.87254],[14.98699,58.87056],[14.98599,58.86925],[14.98596,58.86798],[14.9872,58.86352],[14.98786,58.86341],[14.98787,58.86287],[14.98872,58.86269],[14.98835,58.86245],[14.9878,58.86258],[14.98745,58.86242],[14.99105,58.8614],[14.9898,58.86023],[14.98892,58.85795],[14.9894,58.85652],[14.99029,58.85519],[14.98882,58.84951],[14.97886,58.8498],[14.9769,58.85207],[14.97227,58.85372],[14.97077,58.85365],[14.96553,58.84954],[14.96949,58.84466],[14.96724,58.83992],[14.95713,58.83844],[14.95671,58.84058],[14.94994,58.84421],[14.94735,58.84502],[14.94246,58.84722],[14.93904,58.848],[14.93869,58.84486],[14.93103,58.84091],[14.92736,58.83664],[14.92302,58.82942],[14.92475,58.82217],[14.92207,58.82049],[14.92109,58.81877],[14.92144,58.81731],[14.92613,58.81017],[14.91391,58.80564],[14.90365,58.80528],[14.89283,58.80035],[14.88693,58.79902],[14.88651,58.79529],[14.87692,58.7951],[14.87812,58.79146],[14.8766,58.78597],[14.86705,58.78334],[14.86101,58.78335],[14.86698,58.78939],[14.86612,58.79221],[14.85788,58.79233],[14.85595,58.79393],[14.85125,58.79229],[14.84184,58.78642],[14.83804,58.78375],[14.83354,58.78374],[14.83144,58.78156],[14.82399,58.78047],[14.81921,58.78058],[14.82446,58.7855],[14.82271,58.78736],[14.82302,58.7878],[14.82378,58.78805],[14.82398,58.78862],[14.82565,58.78933],[14.82677,58.78939],[14.8285,58.79],[14.82864,58.79057],[14.828,58.79111],[14.82687,58.7916],[14.82689,58.79287],[14.8263,58.7941],[14.82522,58.79499],[14.82499,58.79607],[14.82423,58.79661],[14.82523,58.79723],[14.82476,58.79781],[14.82514,58.79873],[14.82396,58.80102],[14.82406,58.80151],[14.82456,58.80178],[14.8244,58.80242],[14.82245,58.80399],[14.82065,58.80467],[14.81836,58.80665],[14.82016,58.80943],[14.81905,58.81071],[14.81805,58.81131],[14.8174,58.81231],[14.81715,58.81368],[14.81424,58.81672],[14.81399,58.81807],[14.8136,58.81829],[14.81339,58.81889],[14.81137,58.81992],[14.81019,58.8214],[14.79718,58.81969],[14.79619,58.8215],[14.79291,58.8224],[14.79186,58.82228],[14.79241,58.81909],[14.77468,58.8168],[14.77887,58.80842],[14.77955,58.80816],[14.78122,58.80846],[14.78374,58.80968],[14.78421,58.8094],[14.78732,58.80899],[14.78956,58.80904],[14.78975,58.80882],[14.79076,58.80855],[14.79242,58.80956],[14.79335,58.80969],[14.79365,58.81002],[14.79429,58.81016],[14.79483,58.81092],[14.7956,58.81122],[14.79636,58.81078],[14.79853,58.81015],[14.79865,58.80987],[14.80004,58.80955],[14.80227,58.80978],[14.80459,58.80946],[14.80508,58.80964],[14.80586,58.80959],[14.80583,58.8089],[14.80627,58.80849],[14.80621,58.80721],[14.80578,58.80696],[14.80544,58.80625],[14.80564,58.80556],[14.80447,58.80287],[14.80262,58.80203],[14.80302,58.8014],[14.80303,58.80043],[14.80404,58.80058],[14.80476,58.80017],[14.8055,58.80012],[14.8064,58.80033],[14.80682,58.79985],[14.80673,58.79877],[14.8073,58.79829],[14.80696,58.79679],[14.80711,58.79601],[14.80763,58.79547],[14.80745,58.79465],[14.80899,58.79375],[14.81111,58.79332],[14.8123,58.79263],[14.81213,58.79149],[14.81266,58.79114],[14.81222,58.79044],[14.81102,58.79126],[14.80904,58.79076],[14.80721,58.78973],[14.80681,58.78834],[14.80611,58.78813],[14.80461,58.78684],[14.80351,58.78624],[14.80312,58.78544],[14.80163,58.78501],[14.79589,58.78491],[14.79558,58.7851],[14.79533,58.78629],[14.79452,58.78672],[14.79465,58.78697],[14.7886,58.79021],[14.77512,58.78859],[14.77579,58.78642],[14.78565,58.78734],[14.78395,58.78198],[14.78439,58.78167],[14.78353,58.78148],[14.78194,58.78157],[14.7791,58.7833],[14.77859,58.78406],[14.77647,58.78398],[14.77664,58.78456],[14.77563,58.78464],[14.77521,58.78486],[14.77531,58.78637],[14.77496,58.7861],[14.77382,58.78603],[14.77343,58.78562],[14.77198,58.78534],[14.77151,58.78549],[14.77053,58.7853],[14.76916,58.78547],[14.7655,58.78676],[14.76324,58.78564],[14.76134,58.78529],[14.75735,58.7876],[14.75305,58.78831],[14.7518,58.78835],[14.75186,58.78798],[14.75338,58.78702],[14.75337,58.78673],[14.75399,58.78654],[14.75413,58.78616],[14.75596,58.7851],[14.7564,58.7844],[14.75777,58.78387],[14.75926,58.77459],[14.76078,58.7747],[14.7613,58.77439],[14.76122,58.77413],[14.76183,58.77397],[14.76241,58.7743],[14.76467,58.77397],[14.76559,58.77361],[14.76508,58.77234],[14.76696,58.77252],[14.7677,58.77057],[14.76633,58.7705],[14.7645,58.77005],[14.76456,58.76911],[14.76294,58.76801],[14.7625,58.76792],[14.76263,58.76761],[14.76013,58.76691],[14.76091,58.76584],[14.7602,58.76388],[14.76222,58.76265],[14.75682,58.75993],[14.75881,58.75597],[14.75748,58.75305],[14.75406,58.75332],[14.75131,58.75173],[14.7466,58.75016],[14.74763,58.748],[14.7459,58.7445],[14.74351,58.74453],[14.74299,58.74415],[14.74192,58.74385],[14.73242,58.745],[14.73083,58.74416],[14.72908,58.7443],[14.72451,58.74312],[14.72655,58.73965],[14.72692,58.73957],[14.72641,58.73892],[14.72541,58.73869],[14.72289,58.73713],[14.72218,58.7371],[14.72137,58.73639],[14.72156,58.73615],[14.72105,58.73619],[14.72092,58.73593],[14.72052,58.73597],[14.71958,58.73632],[14.7198,58.73653],[14.71959,58.73707],[14.71798,58.73693],[14.71775,58.73707],[14.71789,58.73776],[14.71718,58.73917],[14.71653,58.73921],[14.71587,58.7398],[14.71396,58.7401],[14.71383,58.74054],[14.71218,58.74097],[14.7118,58.7413],[14.71049,58.74181],[14.7091,58.74282],[14.70849,58.7437],[14.70792,58.74365],[14.70722,58.74294],[14.70716,58.74235],[14.70765,58.74142],[14.7074,58.74082],[14.70639,58.74077],[14.70174,58.74138],[14.70037,58.74317],[14.70064,58.74362],[14.70047,58.7444],[14.70152,58.74501],[14.70178,58.74556],[14.70134,58.74583],[14.69912,58.74424],[14.69809,58.74431],[14.69682,58.74412],[14.69644,58.74465],[14.69542,58.74493],[14.69457,58.74443],[14.69389,58.74443],[14.69348,58.74367],[14.69206,58.74378],[14.69144,58.74365],[14.69119,58.74231],[14.68485,58.75032],[14.68039,58.76568],[14.68302,58.77318],[14.67703,58.78605],[14.67304,58.78789],[14.66739,58.79092],[14.66085,58.79525],[14.65355,58.79939],[14.6469,58.80125],[14.64444,58.80357],[14.64362,58.80513],[14.64133,58.80805],[14.64119,58.81118],[14.64049,58.81308],[14.6389,58.81493],[14.63543,58.81646],[14.6344,58.81853],[14.63359,58.8191],[14.63377,58.81956],[14.6325,58.82465],[14.6313,58.82764],[14.62986,58.82853],[14.63005,58.82948],[14.63331,58.83113],[14.63058,58.8303],[14.63036,58.83099],[14.63114,58.83124],[14.63011,58.83134],[14.62851,58.83197],[14.62751,58.83242],[14.62679,58.83308],[14.62729,58.83407],[14.62714,58.8344],[14.62842,58.83478],[14.62948,58.83482],[14.63016,58.83572],[14.63108,58.83639],[14.63846,58.83806],[14.63884,58.83902],[14.64468,58.84627],[14.64662,58.84908],[14.64457,58.85206],[14.64452,58.85571],[14.64579,58.86263],[14.64596,58.86289],[14.64675,58.86301],[14.64676,58.86344],[14.64768,58.86419],[14.64782,58.86464],[14.64915,58.86515],[14.64989,58.86579],[14.6488,58.86902],[14.65061,58.87338],[14.65287,58.87484],[14.64778,58.87958],[14.64652,58.88424],[14.64648,58.88673],[14.64601,58.88912],[14.64659,58.88963],[14.64963,58.89057],[14.65091,58.89071],[14.67277,58.88862],[14.67783,58.8891],[14.68205,58.88771],[14.68571,58.8885],[14.69188,58.88874],[14.69446,58.8934],[14.70207,58.89748],[14.71943,58.90331],[14.72143,58.9033],[14.72387,58.90476],[14.72563,58.9066],[14.73313,58.90637],[14.73348,58.91081],[14.73547,58.91114],[14.77213,58.93218],[14.77135,58.93335],[14.77659,58.93641],[14.77924,58.93617],[14.78557,58.93989],[14.77533,58.94538],[14.77371,58.94501],[14.77185,58.94302],[14.77022,58.94196],[14.76945,58.94188],[14.765,58.95097],[14.75105,58.95606],[14.75059,58.95609],[14.74752,58.95516],[14.74457,58.95485],[14.74416,58.95445],[14.74368,58.95454],[14.74375,58.95524],[14.74328,58.9554],[14.74341,58.95648],[14.74175,58.95747],[14.74069,58.9578],[14.7409,58.95839],[14.73935,58.9604],[14.7393,58.96162],[14.73818,58.96231],[14.73694,58.96372],[14.73332,58.96524],[14.73278,58.96566],[14.7348,58.96712],[14.73637,58.96711],[14.72677,58.97403],[14.72679,58.97453],[14.72633,58.97485],[14.72568,58.9749],[14.72544,58.97516],[14.75898,58.97886],[14.76203,58.98353],[14.76709,58.98445],[14.77411,58.97982],[14.77588,58.98004],[14.77666,58.98055],[14.78557,58.98135],[14.7858,58.98152],[14.80025,58.98296],[14.801,58.98176],[14.80915,58.98273],[14.81447,58.98427],[14.82131,58.98495],[14.82737,58.98579],[14.82945,58.98696],[14.82998,58.98689],[14.83071,58.98722],[14.83176,58.98707],[14.83284,58.98657],[14.83407,58.98676],[14.83589,58.98726],[14.83583,58.98758],[14.83658,58.98804],[14.83919,58.98869],[14.84202,58.98867],[14.84267,58.98893],[14.84329,58.98965],[14.84619,58.99022],[14.84772,58.99015],[14.85026,58.98774],[14.85098,58.98795],[14.85286,58.98793],[14.85494,58.98826],[14.85584,58.98853],[14.85697,58.98994],[14.86055,58.99104],[14.86412,58.99413],[14.8646,58.99644],[14.86682,58.99663],[14.87183,59.00106],[14.87341,59.00591],[14.87827,59.00777],[14.8785,59.00885],[14.88363,59.01073],[14.88372,59.01063],[14.88622,59.01147]]]}},{"type":"Feature","id":"1882R004","properties":{"code":"1882R004","name":"Askersund omland öster"},"geometry":{"type":"Polygon","coordinates":[[[15.16751,58.99294],[15.16677,58.99206],[15.16729,58.99049],[15.16728,58.98898],[15.16822,58.98666],[15.16801,58.98268],[15.16524,58.97911],[15.16426,58.9786],[15.16339,58.97743],[15.16365,58.97679],[15.16241,58.97602],[15.1625,58.97574],[15.17413,58.97354],[15.18587,58.97385],[15.20336,58.97948],[15.21824,58.97931],[15.233,58.9686],[15.25247,58.95669],[15.25471,58.95607],[15.25805,58.95656],[15.26159,58.94719],[15.28475,58.95021],[15.28698,58.94859],[15.29234,58.93969],[15.30677,58.92974],[15.31195,58.92855],[15.31516,58.92404],[15.31924,58.9217],[15.32191,58.9197],[15.32268,58.91939],[15.32437,58.91899],[15.32615,58.91956],[15.32786,58.91965],[15.33287,58.91783],[15.33464,58.91379],[15.33443,58.91297],[15.33371,58.91266],[15.334,58.91178],[15.33364,58.9111],[15.33369,58.91029],[15.33491,58.90963],[15.33347,58.9088],[15.33374,58.90818],[15.33328,58.90622],[15.3322,58.90426],[15.32521,58.9031],[15.32289,58.89934],[15.32449,58.89871],[15.32306,58.8948],[15.32073,58.89284],[15.32711,58.89105],[15.33209,58.88833],[15.33277,58.88639],[15.33361,58.88533],[15.33441,58.88497],[15.3355,58.88521],[15.33691,58.88189],[15.3364,58.88075],[15.3364,58.87944],[15.33746,58.87746],[15.33795,58.87367],[15.33929,58.87163],[15.34448,58.86901],[15.34211,58.86664],[15.3397,58.86601],[15.34412,58.8415],[15.34759,58.82921],[15.3398,58.83535],[15.32642,58.85032],[15.32527,58.85929],[15.3235,58.85858],[15.32187,58.85848],[15.31653,58.85702],[15.30979,58.85551],[15.30835,58.8545],[15.30668,58.85456],[15.305,58.85361],[15.30398,58.85267],[15.30305,58.85266],[15.30182,58.85215],[15.30023,58.85202],[15.29634,58.84995],[15.29518,58.84979],[15.29317,58.85004],[15.29269,58.85072],[15.29082,58.85114],[15.28914,58.85199],[15.2879,58.85525],[15.27543,58.86322],[15.26282,58.86514],[15.25694,58.85849],[15.25559,58.85155],[15.25617,58.84977],[15.2542,58.84877],[15.25407,58.84795],[15.25251,58.84775],[15.25165,58.84844],[15.24974,58.84813],[15.24997,58.84884],[15.24696,58.84792],[15.24595,58.84734],[15.24618,58.84715],[15.24541,58.84583],[15.24153,58.84392],[15.2406,58.84308],[15.24095,58.84189],[15.24064,58.84153],[15.24196,58.84167],[15.24208,58.84151],[15.2425,58.84154],[15.24196,58.84213],[15.24208,58.84245],[15.24264,58.84269],[15.24218,58.84317],[15.24264,58.84353],[15.24362,58.84377],[15.24452,58.84447],[15.24683,58.84174],[15.24696,58.83834],[15.24602,58.83846],[15.24512,58.83946],[15.24526,58.83963],[15.24424,58.83957],[15.24336,58.83991],[15.24307,58.84058],[15.24249,58.83994],[15.2406,58.84038],[15.24066,58.84134],[15.21901,58.84275],[15.22158,58.83527],[15.22099,58.83151],[15.21809,58.82727],[15.20376,58.81688],[15.19826,58.81473],[15.18805,58.8128],[15.16743,58.81066],[15.13812,58.82065],[15.13482,58.81224],[15.13559,58.81115],[15.12793,58.79645],[15.12514,58.79558],[15.12203,58.79371],[15.12055,58.79273],[15.12009,58.79179],[15.11907,58.79084],[15.12159,58.78984],[15.12271,58.78902],[15.12291,58.78969],[15.13206,58.78886],[15.13252,58.78705],[15.12512,58.78644],[15.12334,58.78333],[15.1218,58.78348],[15.12096,58.78047],[15.11961,58.78076],[15.11752,58.77632],[15.11666,58.77634],[15.1151,58.7702],[15.10873,58.77077],[15.10682,58.76781],[15.09843,58.76914],[15.09768,58.76883],[15.0964,58.7689],[15.09584,58.76824],[15.09467,58.768],[15.09509,58.767],[15.09469,58.76631],[15.09503,58.76623],[15.09545,58.76639],[15.09801,58.76578],[15.09307,58.76189],[15.08836,58.76649],[15.08365,58.76673],[15.06695,58.75436],[15.06525,58.75056],[15.06022,58.75133],[15.03811,58.7586],[15.02906,58.76062],[15.03694,58.7687],[15.0399,58.77241],[15.05117,58.77525],[15.05271,58.778],[15.04536,58.79055],[15.04796,58.79227],[15.04722,58.79421],[15.05419,58.8021],[15.05542,58.80481],[15.05402,58.80654],[15.05451,58.81038],[15.05536,58.81129],[15.05451,58.81282],[15.04748,58.81602],[15.04928,58.81842],[15.04685,58.82019],[15.04925,58.82139],[15.04749,58.82747],[15.04709,58.828],[15.04256,58.82916],[15.04056,58.82783],[15.02788,58.82517],[15.02493,58.82583],[15.01855,58.8241],[15.01372,58.82228],[15.00639,58.82367],[15.00259,58.82518],[15.00272,58.82591],[14.99571,58.83318],[14.99033,58.83477],[14.98817,58.83897],[14.9901,58.84032],[14.9921,58.84294],[14.99167,58.84582],[14.99028,58.84923],[14.98894,58.85004],[14.99029,58.85519],[14.9894,58.85652],[14.98892,58.85795],[14.9898,58.86023],[14.99105,58.8614],[14.98745,58.86242],[14.9878,58.86258],[14.98835,58.86245],[14.98872,58.86269],[14.98787,58.86287],[14.98786,58.86341],[14.9872,58.86352],[14.98596,58.86798],[14.98599,58.86925],[14.98699,58.87056],[14.98759,58.87254],[14.98652,58.87276],[14.98612,58.87253],[14.98543,58.87296],[14.98453,58.87293],[14.98355,58.87351],[14.98315,58.87423],[14.98229,58.87461],[14.97995,58.87739],[14.97718,58.88682],[14.97375,58.88716],[14.97293,58.88687],[14.96947,58.88722],[14.96736,58.88669],[14.9676,58.88779],[14.96796,58.88794],[14.96735,58.88992],[14.96795,58.89031],[14.96753,58.89097],[14.96764,58.89157],[14.96414,58.89238],[14.96172,58.89372],[14.96204,58.89516],[14.96337,58.89484],[14.96381,58.89499],[14.96329,58.89545],[14.98329,58.89702],[14.993,58.89977],[14.99333,58.89973],[14.99608,58.90131],[14.99835,58.90204],[15.00109,58.9019],[15.00151,58.90128],[15.00335,58.9017],[15.01361,58.90189],[15.01357,58.90371],[15.01415,58.9045],[15.0155,58.90442],[15.01617,58.90466],[15.02784,58.90598],[15.03833,58.90185],[15.03951,58.8998],[15.03614,58.89852],[15.03778,58.89726],[15.03846,58.89621],[15.05015,58.88357],[15.05136,58.87702],[15.05214,58.87719],[15.05292,58.87699],[15.05343,58.87732],[15.0551,58.87722],[15.05642,58.87636],[15.05665,58.87526],[15.0578,58.87496],[15.05769,58.8747],[15.05807,58.87463],[15.05861,58.87403],[15.05996,58.87471],[15.06116,58.87428],[15.06199,58.8742],[15.06261,58.87377],[15.06315,58.87389],[15.06311,58.87372],[15.06346,58.87369],[15.06325,58.8735],[15.06378,58.87351],[15.06374,58.87331],[15.06416,58.87327],[15.06465,58.87274],[15.06532,58.87297],[15.06625,58.87298],[15.06681,58.87168],[15.06744,58.87138],[15.06766,58.87093],[15.06948,58.86956],[15.06943,58.86902],[15.06983,58.86876],[15.07044,58.86867],[15.07099,58.86818],[15.07266,58.86746],[15.07616,58.86663],[15.0772,58.8661],[15.07768,58.86616],[15.07813,58.86594],[15.07879,58.86545],[15.0787,58.86513],[15.08107,58.86422],[15.08292,58.8629],[15.08506,58.86195],[15.08616,58.86087],[15.08584,58.85984],[15.08804,58.85952],[15.0898,58.85894],[15.09116,58.85892],[15.09207,58.85846],[15.09225,58.85813],[15.09291,58.858],[15.09327,58.85755],[15.09392,58.85749],[15.09504,58.85687],[15.11146,58.86853],[15.10363,58.87572],[15.11131,58.88037],[15.11609,58.88861],[15.12286,58.89357],[15.12603,58.89324],[15.13238,58.89355],[15.1391,58.89517],[15.14997,58.8955],[15.15153,58.90853],[15.15525,58.91193],[15.13947,58.91791],[15.13922,58.92231],[15.13577,58.92557],[15.1336,58.92589],[15.12586,58.92505],[15.1243,58.92678],[15.12522,58.92872],[15.12794,58.93],[15.12549,58.93192],[15.124,58.93259],[15.12357,58.93803],[15.12402,58.93976],[15.13793,58.94086],[15.14321,58.9419],[15.14453,58.9332],[15.14822,58.9302],[15.15123,58.93026],[15.17207,58.93303],[15.17341,58.93768],[15.16996,58.9414],[15.14818,58.94429],[15.14743,58.94548],[15.16214,58.96139],[15.15166,58.97038],[15.15198,58.97128],[15.15994,58.97974],[15.16035,58.98103],[15.16733,58.99322],[15.16751,58.99294]]]}},{"type":"Feature","id":"1882R005","properties":{"code":"1882R005","name":"Askersund stad"},"geometry":{"type":"Polygon","coordinates":[[[14.92298,58.90591],[14.92542,58.90496],[14.92747,58.90352],[14.92841,58.90219],[14.92928,58.899],[14.93049,58.89784],[14.9331,58.89677],[14.93513,58.89557],[14.93727,58.89373],[14.93888,58.89306],[14.94264,58.8938],[14.94533,58.89387],[14.94739,58.89369],[14.94928,58.89331],[14.95173,58.89249],[14.95429,58.89113],[14.95608,58.88908],[14.95915,58.88675],[14.96069,58.88513],[14.9595,58.88482],[14.96122,58.88351],[14.96098,58.88206],[14.96121,58.88069],[14.96049,58.87881],[14.95879,58.87723],[14.95609,58.87595],[14.95274,58.87517],[14.94928,58.87498],[14.94581,58.87535],[14.9426,58.87628],[14.93991,58.87678],[14.93631,58.87696],[14.93427,58.87894],[14.9075,58.87203],[14.90616,58.8733],[14.90197,58.87124],[14.89637,58.86736],[14.89428,58.8672],[14.89291,58.86746],[14.8905,58.86823],[14.88894,58.86901],[14.88745,58.87012],[14.88656,58.87115],[14.88598,58.87336],[14.88673,58.87515],[14.88578,58.87682],[14.88554,58.87929],[14.88725,58.88396],[14.885,58.88432],[14.87943,58.88593],[14.87896,58.8884],[14.87975,58.88995],[14.88214,58.8926],[14.88372,58.89372],[14.88932,58.89639],[14.89262,58.89722],[14.89323,58.89865],[14.8932,58.89995],[14.8938,58.90246],[14.8953,58.90415],[14.8953,58.90509],[14.89672,58.90551],[14.8965,58.9061],[14.90618,58.90656],[14.90917,58.90633],[14.91132,58.90589],[14.91454,58.90647],[14.91763,58.90667],[14.9204,58.90647],[14.92298,58.90591]]]}},{"type":"Feature","id":"1882R006","properties":{"code":"1882R006","name":"Åsbro"},"geometry":{"type":"Polygon","coordinates":[[[15.05106,59.01273],[15.05554,59.01242],[15.05819,59.01195],[15.06101,59.01091],[15.06314,59.00939],[15.06538,59.00927],[15.06738,59.00895],[15.06976,59.00824],[15.07133,59.00748],[15.07289,59.00631],[15.07508,59.00345],[15.07657,59.00274],[15.0897,58.99121],[15.09047,58.9902],[15.09117,58.98835],[15.09161,58.98498],[15.09124,58.98367],[15.08994,58.98201],[15.08824,58.9809],[15.08601,58.98003],[15.08181,58.9788],[15.07889,58.97831],[15.07644,58.97734],[15.07403,58.97596],[15.07224,58.97533],[15.06821,58.97463],[15.06691,58.97402],[15.06453,58.97331],[15.06183,58.97292],[15.05903,58.9729],[15.05623,58.9731],[15.05425,58.97345],[15.05191,58.9742],[15.05046,58.97493],[15.04802,58.97534],[15.04625,58.97586],[15.04338,58.97742],[15.04053,58.9806],[15.03942,58.98321],[15.04046,58.99065],[15.03717,58.9916],[15.0352,58.99254],[15.03374,58.99371],[15.03245,58.99518],[15.03163,58.99703],[15.03251,59.00095],[15.03327,59.00222],[15.03342,59.0037],[15.03487,59.00565],[15.03551,59.00768],[15.03672,59.00899],[15.0396,59.01054],[15.04471,59.01206],[15.04798,59.01264],[15.05106,59.01273]]]}}]}