{"type":"FeatureCollection","features":[{"type":"Feature","id":"1884R005","properties":{"code":"1884R005","name":"Nora södra centrum"},"geometry":{"type":"Polygon","coordinates":[[[15.0205,59.52326],[15.02189,59.52302],[15.02416,59.52195],[15.02452,59.5215],[15.02497,59.52143],[15.02593,59.5218],[15.02656,59.52167],[15.02669,59.52145],[15.02715,59.52151],[15.02761,59.52198],[15.02838,59.52204],[15.03294,59.52122],[15.03306,59.52134],[15.03373,59.52107],[15.04148,59.52079],[15.04463,59.52074],[15.04926,59.52236],[15.04629,59.51143],[15.03947,59.51419],[15.03746,59.51225],[15.03627,59.51168],[15.02754,59.50874],[15.02158,59.50752],[15.0199,59.50806],[15.01635,59.50849],[15.00393,59.50803],[15.00094,59.50812],[14.99253,59.50917],[14.99333,59.50991],[14.99557,59.51055],[14.99809,59.51032],[14.99997,59.51155],[15.00061,59.5139],[15.00525,59.51491],[15.00541,59.51594],[15.00642,59.51671],[15.0068,59.51752],[15.00933,59.51841],[15.01178,59.52154],[15.01589,59.52233],[15.01718,59.52294],[15.01764,59.52291],[15.01899,59.52329],[15.0205,59.52326]]]}},{"type":"Feature","id":"1884R001","properties":{"code":"1884R001","name":"Esstorp-Fibbetorp"},"geometry":{"type":"Polygon","coordinates":[[[15.01259,59.53428],[15.01487,59.53348],[15.01545,59.53309],[15.01652,59.53315],[15.01716,59.53098],[15.01701,59.53059],[15.01853,59.52937],[15.02197,59.5286],[15.02497,59.52883],[15.02846,59.52758],[15.03111,59.52563],[15.03299,59.52516],[15.03414,59.52455],[15.03495,59.52454],[15.03583,59.52341],[15.03869,59.52213],[15.03847,59.52091],[15.03373,59.52107],[15.03306,59.52134],[15.03294,59.52122],[15.02838,59.52204],[15.02761,59.52198],[15.02715,59.52151],[15.02669,59.52145],[15.02656,59.52167],[15.02593,59.5218],[15.02497,59.52143],[15.02452,59.5215],[15.02416,59.52195],[15.02189,59.52302],[15.0205,59.52326],[15.01899,59.52329],[15.01764,59.52291],[15.01718,59.52294],[15.01589,59.52233],[15.01178,59.52154],[15.00933,59.51841],[15.0068,59.51752],[15.00642,59.51671],[15.00541,59.51594],[15.00525,59.51491],[15.00061,59.5139],[14.99877,59.51796],[14.99373,59.52387],[14.99564,59.52562],[15.00024,59.52844],[15.00079,59.5301],[15.00163,59.52998],[15.00302,59.5309],[15.0036,59.53089],[15.00354,59.53225],[15.00784,59.53409],[15.01259,59.53428]]]}},{"type":"Feature","id":"1884R002","properties":{"code":"1884R002","name":"Nora landsbygd norr"},"geometry":{"type":"Polygon","coordinates":[[[14.90085,59.72199],[14.91018,59.71878],[14.93339,59.7179],[14.93469,59.71085],[14.93586,59.70966],[14.94863,59.70961],[14.94832,59.71104],[14.95299,59.71185],[14.95997,59.70273],[14.95944,59.701],[14.95974,59.69867],[14.96101,59.69563],[14.96053,59.69467],[14.96129,59.69299],[14.96302,59.69065],[14.96253,59.68469],[14.96325,59.68252],[14.96283,59.68118],[14.96339,59.6808],[14.96361,59.68028],[14.96538,59.67951],[14.96564,59.67914],[14.96478,59.67843],[14.96473,59.67784],[14.96437,59.67755],[14.96638,59.66204],[14.97134,59.6543],[14.97518,59.64612],[14.9763,59.64104],[14.97663,59.6371],[14.99602,59.63355],[15.00119,59.62101],[15.00236,59.61668],[15.00332,59.61508],[15.00444,59.6143],[15.00307,59.61364],[15.00418,59.61206],[15.00612,59.61077],[15.00607,59.61043],[15.00366,59.60914],[15.00114,59.60728],[15.00162,59.60674],[15.00074,59.58414],[15.03276,59.58911],[15.05688,59.59058],[15.06329,59.59093],[15.09008,59.59022],[15.10341,59.59025],[15.10352,59.58852],[15.10189,59.58693],[15.10095,59.58464],[15.09984,59.58354],[15.09997,59.58243],[15.09966,59.58198],[15.09997,59.58122],[15.1084,59.57987],[15.11554,59.58007],[15.12103,59.57977],[15.12494,59.58022],[15.13059,59.57633],[15.14033,59.57011],[15.15265,59.56433],[15.16091,59.56091],[15.16653,59.55765],[15.17241,59.55481],[15.17114,59.55334],[15.16862,59.55172],[15.16594,59.55031],[15.16336,59.54962],[15.16122,59.54865],[15.16367,59.54733],[15.15656,59.54567],[15.15481,59.54496],[15.14992,59.54501],[15.14913,59.5448],[15.15058,59.54346],[15.1503,59.54175],[15.14774,59.53984],[15.14633,59.53706],[15.14668,59.53691],[15.14643,59.53646],[15.14673,59.53639],[15.14644,59.53609],[15.14693,59.53544],[15.14669,59.53515],[15.14717,59.53503],[15.14719,59.53466],[15.14761,59.53454],[15.14698,59.53405],[15.14791,59.53394],[15.14789,59.53363],[15.14747,59.53351],[15.1479,59.53321],[15.14897,59.53324],[15.14872,59.53284],[15.14914,59.53274],[15.14886,59.53249],[15.14959,59.53236],[15.14911,59.53214],[15.14833,59.53233],[15.14794,59.53206],[15.14933,59.53122],[15.1489,59.53102],[15.14879,59.53062],[15.15004,59.5301],[15.1492,59.52953],[15.14828,59.52988],[15.14813,59.52961],[15.15066,59.52869],[15.15053,59.52846],[15.15126,59.52818],[15.15124,59.52799],[15.15242,59.52769],[15.15245,59.52734],[15.15208,59.52712],[15.15231,59.52649],[15.15099,59.52648],[15.15058,59.5263],[15.15044,59.52563],[15.15087,59.52494],[15.14963,59.52454],[15.15014,59.524],[15.15104,59.52371],[15.15095,59.52332],[15.15151,59.52264],[15.15173,59.52198],[15.15127,59.52149],[15.1516,59.52119],[15.15119,59.5209],[15.15201,59.52084],[15.15516,59.51992],[15.15574,59.51998],[15.1565,59.51964],[15.15808,59.51941],[15.15894,59.51874],[15.15959,59.51861],[15.15908,59.51827],[15.15974,59.51811],[15.15943,59.51785],[15.16083,59.51788],[15.16064,59.51743],[15.16105,59.51728],[15.16171,59.51747],[15.16214,59.51733],[15.1618,59.51701],[15.16067,59.51683],[15.16087,59.51653],[15.16005,59.51622],[15.15995,59.51588],[15.15931,59.51595],[15.15836,59.5155],[15.15893,59.51516],[15.15879,59.51453],[15.15756,59.51472],[15.15704,59.51429],[15.15528,59.51388],[15.15528,59.51336],[15.15605,59.51307],[15.15585,59.51248],[15.15619,59.51219],[15.15673,59.51221],[15.15796,59.51288],[15.15844,59.51263],[15.15852,59.51208],[15.15756,59.51139],[15.15797,59.50991],[15.15753,59.50929],[15.15699,59.50903],[15.15614,59.50894],[15.15521,59.50927],[15.1545,59.50983],[15.15365,59.51003],[15.15007,59.50921],[15.14833,59.50822],[15.14791,59.50705],[15.14851,59.50639],[15.14693,59.5055],[15.14664,59.50508],[15.14368,59.50511],[15.1438,59.50547],[15.13424,59.50827],[15.13013,59.50884],[15.12693,59.50335],[15.11262,59.50626],[15.10478,59.50599],[15.09814,59.50623],[15.0801,59.50592],[15.07959,59.50753],[15.08225,59.51051],[15.08142,59.51276],[15.06742,59.51227],[15.05586,59.50832],[15.04629,59.51143],[15.04926,59.52236],[15.06048,59.52892],[15.04598,59.53981],[15.04246,59.54553],[15.03647,59.54543],[15.03528,59.54586],[15.03374,59.54566],[15.03287,59.54618],[15.03133,59.54615],[15.03029,59.54668],[15.02936,59.54655],[15.02567,59.54436],[15.02159,59.54258],[15.01977,59.54106],[15.01904,59.53963],[15.0147,59.53923],[15.01123,59.53931],[15.00853,59.53898],[15.00612,59.53833],[15.0035,59.53715],[15.00021,59.53601],[14.99776,59.53761],[14.99425,59.53916],[14.99166,59.53981],[14.98884,59.54011],[14.98575,59.54004],[14.98077,59.53932],[14.9777,59.53842],[14.97563,59.53733],[14.97224,59.53789],[14.96917,59.53799],[14.96529,59.53846],[14.96323,59.53844],[14.96058,59.53812],[14.95804,59.53743],[14.956,59.53647],[14.95278,59.53361],[14.95118,59.53076],[14.95119,59.52934],[14.95174,59.52817],[14.94712,59.52805],[14.93892,59.527],[14.93735,59.52734],[14.93622,59.53031],[14.93607,59.53184],[14.92313,59.53568],[14.91912,59.53419],[14.91466,59.5366],[14.91419,59.53763],[14.91287,59.53799],[14.90758,59.53606],[14.90597,59.53621],[14.90389,59.53743],[14.89777,59.53658],[14.89492,59.53533],[14.88347,59.53658],[14.88067,59.53924],[14.87208,59.54206],[14.87,59.54254],[14.86764,59.55265],[14.84683,59.55393],[14.83252,59.54784],[14.81065,59.56113],[14.81076,59.56139],[14.79203,59.5802],[14.7864,59.58381],[14.78573,59.58836],[14.78443,59.59037],[14.78349,59.59058],[14.78306,59.59089],[14.78206,59.59039],[14.77627,59.59706],[14.7723,59.59705],[14.77022,59.59567],[14.75358,59.59768],[14.75349,59.59833],[14.75212,59.59829],[14.75202,59.59787],[14.74899,59.59821],[14.72943,59.58447],[14.71643,59.58618],[14.69895,59.59718],[14.70774,59.60063],[14.71419,59.60166],[14.71748,59.60373],[14.73627,59.61334],[14.73886,59.61565],[14.75553,59.61979],[14.75993,59.62344],[14.77442,59.63695],[14.77338,59.6494],[14.77198,59.65609],[14.76516,59.66256],[14.75858,59.66822],[14.74955,59.67239],[14.7461,59.67546],[14.72528,59.697],[14.72307,59.70607],[14.72738,59.70491],[14.75877,59.69835],[14.77138,59.698],[14.7769,59.70068],[14.79034,59.69856],[14.79232,59.69839],[14.79243,59.69823],[14.81749,59.69434],[14.81849,59.6944],[14.82834,59.69827],[14.83969,59.70547],[14.84465,59.7072],[14.85081,59.70655],[14.85817,59.71065],[14.86878,59.71356],[14.87113,59.71305],[14.8719,59.71264],[14.8755,59.71246],[14.88975,59.72841],[14.90085,59.72199]]]}},{"type":"Feature","id":"1884R003","properties":{"code":"1884R003","name":"Nora landsbygd söder"},"geometry":{"type":"Polygon","coordinates":[[[14.75358,59.59768],[14.77022,59.59567],[14.7723,59.59705],[14.77627,59.59706],[14.78206,59.59039],[14.78306,59.59089],[14.78349,59.59058],[14.78443,59.59037],[14.78573,59.58836],[14.7864,59.58381],[14.79203,59.5802],[14.81076,59.56139],[14.81065,59.56113],[14.83252,59.54784],[14.84683,59.55393],[14.86764,59.55265],[14.87,59.54254],[14.87208,59.54206],[14.88067,59.53924],[14.88347,59.53658],[14.89492,59.53533],[14.89777,59.53658],[14.90389,59.53743],[14.90597,59.53621],[14.90758,59.53606],[14.91287,59.53799],[14.91419,59.53763],[14.91466,59.5366],[14.91912,59.53419],[14.92313,59.53568],[14.93607,59.53184],[14.93622,59.53031],[14.93735,59.52734],[14.93764,59.52721],[14.93892,59.527],[14.94712,59.52805],[14.95174,59.52817],[14.95327,59.5267],[14.95524,59.52565],[14.95767,59.52489],[14.96156,59.52429],[14.96239,59.52309],[14.96404,59.52179],[14.96118,59.52105],[14.95881,59.51995],[14.95523,59.51982],[14.95154,59.51896],[14.95115,59.51876],[14.95104,59.51728],[14.94957,59.51769],[14.94778,59.51586],[14.94899,59.5136],[14.94246,59.50419],[14.95523,59.5],[14.95578,59.49848],[14.95567,59.49789],[14.9579,59.49443],[14.96068,59.49474],[14.96261,59.49519],[14.96903,59.49584],[14.97194,59.49584],[14.97413,59.49605],[14.97701,59.49666],[14.97896,59.49743],[14.98886,59.49531],[14.98657,59.49427],[14.98476,59.49274],[14.98404,59.49134],[14.98405,59.48988],[14.98291,59.48847],[14.98256,59.48704],[14.98311,59.4853],[14.98435,59.48398],[14.98666,59.48267],[14.98961,59.48174],[14.99232,59.48131],[15.00278,59.48071],[15.00439,59.48102],[15.01297,59.48366],[15.01587,59.48522],[15.01759,59.4868],[15.01834,59.48907],[15.02044,59.49254],[15.02056,59.49478],[15.02107,59.49529],[15.02685,59.49657],[15.02986,59.49609],[15.0321,59.49517],[15.03459,59.49453],[15.04219,59.49371],[15.04437,59.49369],[15.0471,59.49398],[15.04903,59.49443],[15.05132,59.49525],[15.05336,59.49627],[15.05482,59.49751],[15.0568,59.50178],[15.06009,59.50587],[15.05586,59.50832],[15.06742,59.51227],[15.08142,59.51276],[15.08225,59.51051],[15.07959,59.50753],[15.0801,59.50592],[15.09814,59.50623],[15.10478,59.50599],[15.11262,59.50626],[15.12693,59.50335],[15.13013,59.50884],[15.13424,59.50827],[15.1438,59.50547],[15.14368,59.50511],[15.14664,59.50508],[15.14745,59.50449],[15.14887,59.50422],[15.14971,59.50284],[15.15119,59.50278],[15.15205,59.50227],[15.15162,59.50136],[15.14973,59.50107],[15.14933,59.50075],[15.15021,59.4991],[15.14914,59.49783],[15.14925,59.49671],[15.14836,59.49511],[15.14871,59.49461],[15.15016,59.49464],[15.1511,59.49439],[15.15147,59.49415],[15.15167,59.49342],[15.15065,59.49135],[15.14936,59.49008],[15.14951,59.48913],[15.14886,59.48908],[15.14865,59.48974],[15.14813,59.49009],[15.14755,59.48995],[15.14729,59.48951],[15.14811,59.48835],[15.15083,59.48698],[15.1505,59.48656],[15.14875,59.48577],[15.14873,59.48544],[15.14969,59.48462],[15.14968,59.48409],[15.14944,59.48376],[15.14809,59.48316],[15.14765,59.48258],[15.14899,59.48123],[15.14827,59.47974],[15.14732,59.47896],[15.14653,59.47758],[15.14535,59.47683],[15.1449,59.47612],[15.14512,59.47559],[15.14757,59.47368],[15.14694,59.4733],[15.14522,59.47341],[15.14457,59.47325],[15.14398,59.47233],[15.14428,59.47128],[15.14692,59.47023],[15.14691,59.4699],[15.14611,59.46912],[15.14434,59.46874],[15.14405,59.46799],[15.14251,59.46781],[15.14213,59.46753],[15.14235,59.46717],[15.14476,59.4664],[15.14446,59.46389],[15.14489,59.46234],[15.14573,59.4622],[15.14818,59.46287],[15.14876,59.46285],[15.14908,59.46257],[15.14862,59.46166],[15.14659,59.46015],[15.14527,59.45958],[15.14504,59.45917],[15.1463,59.45821],[15.14658,59.45722],[15.14773,59.45674],[15.14749,59.45637],[15.14791,59.45617],[15.14897,59.45613],[15.14918,59.45595],[15.14926,59.45553],[15.14861,59.45438],[15.1503,59.45322],[15.1493,59.45237],[15.14949,59.45064],[15.14854,59.44923],[15.15052,59.44737],[15.15095,59.44639],[15.14525,59.44577],[15.14314,59.44376],[15.14161,59.44398],[15.13987,59.44482],[15.13971,59.44509],[15.13517,59.44502],[15.12786,59.44453],[15.12008,59.44285],[15.11368,59.44199],[15.10859,59.44042],[15.10893,59.44017],[15.10873,59.43962],[15.10777,59.43939],[15.10825,59.43826],[15.10971,59.4376],[15.10938,59.43645],[15.10854,59.43577],[15.10809,59.43477],[15.08868,59.43161],[15.07553,59.43365],[15.07264,59.43373],[15.069,59.43246],[15.07298,59.44621],[15.07343,59.45354],[15.06614,59.46628],[15.06584,59.4693],[15.06001,59.46957],[15.0494,59.47211],[15.04122,59.47277],[15.02363,59.46865],[15.02372,59.46832],[15.02319,59.46826],[15.02294,59.46848],[15.01189,59.46577],[15.00526,59.46509],[15.0037,59.46446],[15.00013,59.45832],[14.99751,59.45605],[14.99418,59.45252],[14.99951,59.45163],[14.99821,59.44524],[14.99775,59.44468],[14.99749,59.44142],[14.99624,59.43477],[14.99693,59.43394],[14.99664,59.4318],[14.99855,59.42894],[14.99752,59.42441],[14.99894,59.42232],[14.98934,59.42172],[14.97815,59.41738],[14.97418,59.41624],[14.97915,59.41289],[14.97911,59.41202],[14.97462,59.41313],[14.96949,59.41412],[14.96049,59.41426],[14.95569,59.41063],[14.94977,59.40736],[14.94253,59.40184],[14.9393,59.39887],[14.93113,59.38331],[14.9279,59.3827],[14.91576,59.38116],[14.89555,59.37651],[14.86914,59.37477],[14.84638,59.37403],[14.8324,59.37281],[14.80984,59.38134],[14.79135,59.38691],[14.78854,59.3868],[14.78842,59.38701],[14.78287,59.38658],[14.78258,59.3864],[14.78124,59.38667],[14.77865,59.3863],[14.7769,59.3863],[14.7739,59.38667],[14.77191,59.38623],[14.76493,59.3861],[14.76064,59.38478],[14.76139,59.38187],[14.76293,59.38019],[14.76143,59.3797],[14.76296,59.3765],[14.76351,59.36756],[14.76383,59.36556],[14.76453,59.36498],[14.76412,59.36413],[14.76665,59.36116],[14.76735,59.3608],[14.76774,59.3597],[14.76829,59.35934],[14.76827,59.35848],[14.76925,59.35818],[14.7697,59.35768],[14.73324,59.37479],[14.73419,59.37716],[14.7329,59.37703],[14.73139,59.37637],[14.71985,59.38704],[14.69358,59.40973],[14.68189,59.41975],[14.68101,59.41971],[14.68087,59.41996],[14.68093,59.42056],[14.68156,59.42082],[14.68868,59.42076],[14.69189,59.42275],[14.70172,59.43094],[14.70242,59.43316],[14.71064,59.43818],[14.71865,59.4522],[14.72248,59.45707],[14.72098,59.46336],[14.71853,59.46482],[14.7149,59.47087],[14.70959,59.47611],[14.70991,59.48232],[14.71359,59.48522],[14.71315,59.4872],[14.71084,59.48943],[14.71363,59.49305],[14.71427,59.49485],[14.72097,59.49997],[14.72875,59.50171],[14.73015,59.50306],[14.73053,59.50487],[14.72895,59.50536],[14.72756,59.50551],[14.72732,59.50722],[14.73703,59.50971],[14.73866,59.50973],[14.74004,59.50875],[14.74035,59.50896],[14.74046,59.50944],[14.73482,59.51786],[14.73292,59.51952],[14.73204,59.5199],[14.73124,59.51987],[14.73037,59.51921],[14.72978,59.5192],[14.72725,59.52035],[14.72448,59.52111],[14.71466,59.52736],[14.71386,59.52724],[14.71159,59.52774],[14.70957,59.52779],[14.70892,59.52803],[14.7081,59.52877],[14.70726,59.52866],[14.70661,59.52895],[14.70524,59.52841],[14.70472,59.52855],[14.70472,59.53025],[14.70081,59.53015],[14.6998,59.52919],[14.69919,59.52914],[14.69782,59.52949],[14.69663,59.52901],[14.6953,59.5292],[14.69455,59.53027],[14.69408,59.53044],[14.68933,59.53021],[14.67048,59.52732],[14.66035,59.52914],[14.65635,59.53442],[14.65304,59.53389],[14.65218,59.53222],[14.64841,59.53293],[14.64663,59.53309],[14.64561,59.53347],[14.64387,59.53379],[14.64315,59.53382],[14.64202,59.53346],[14.64061,59.53367],[14.63948,59.53406],[14.63834,59.53475],[14.63638,59.53532],[14.63691,59.53618],[14.6359,59.53664],[14.63551,59.53638],[14.63329,59.53699],[14.63289,59.53656],[14.62984,59.53656],[14.62408,59.55826],[14.66233,59.57342],[14.68008,59.58691],[14.6805,59.58776],[14.68097,59.58807],[14.68169,59.58812],[14.6873,59.59231],[14.68727,59.59251],[14.68805,59.59278],[14.68825,59.5933],[14.69012,59.5938],[14.6926,59.59408],[14.69299,59.59456],[14.69397,59.59459],[14.69522,59.59525],[14.69552,59.59598],[14.6964,59.59616],[14.69895,59.59718],[14.71643,59.58618],[14.72943,59.58447],[14.74899,59.59821],[14.75202,59.59787],[14.75212,59.59829],[14.75349,59.59833],[14.75358,59.59768]]]}},{"type":"Feature","id":"1884R004","properties":{"code":"1884R004","name":"Nora norra centrum"},"geometry":{"type":"Polygon","coordinates":[[[15.03133,59.54615],[15.03287,59.54618],[15.03374,59.54566],[15.03528,59.54586],[15.03647,59.54543],[15.04246,59.54553],[15.04598,59.53981],[15.06048,59.52892],[15.04926,59.52236],[15.04463,59.52074],[15.03847,59.52091],[15.03869,59.52213],[15.03583,59.52341],[15.03495,59.52454],[15.03414,59.52455],[15.03299,59.52516],[15.03111,59.52563],[15.02846,59.52758],[15.02497,59.52883],[15.02197,59.5286],[15.01853,59.52937],[15.01701,59.53059],[15.01716,59.53098],[15.01961,59.53172],[15.02107,59.53393],[15.02091,59.53546],[15.01734,59.53573],[15.01056,59.53881],[15.01068,59.53927],[15.0147,59.53923],[15.01904,59.53963],[15.02004,59.54137],[15.02207,59.54286],[15.02567,59.54436],[15.02936,59.54655],[15.03029,59.54668],[15.03133,59.54615]]]}},{"type":"Feature","id":"1884R006","properties":{"code":"1884R006","name":"Pershyttan-Hitorp"},"geometry":{"type":"Polygon","coordinates":[[[15.03947,59.51419],[15.04629,59.51143],[15.05586,59.50832],[15.06009,59.50587],[15.0568,59.50178],[15.05482,59.49751],[15.05289,59.49598],[15.05021,59.49483],[15.04778,59.49411],[15.0457,59.49379],[15.04291,59.49368],[15.03459,59.49453],[15.0321,59.49517],[15.02986,59.49609],[15.02685,59.49657],[15.02107,59.49529],[15.02056,59.49478],[15.02044,59.49254],[15.01834,59.48907],[15.01759,59.4868],[15.01587,59.48522],[15.01413,59.48418],[15.01242,59.48347],[15.00439,59.48102],[15.00278,59.48071],[14.99161,59.48139],[14.98895,59.48191],[14.98615,59.48289],[14.98435,59.48398],[14.98335,59.48496],[14.98265,59.48633],[14.98265,59.48777],[14.98312,59.48882],[14.98405,59.48988],[14.98404,59.49134],[14.98476,59.49274],[14.98657,59.49427],[14.98886,59.49531],[14.97896,59.49743],[14.98489,59.50443],[14.98496,59.50536],[14.98564,59.50618],[14.98656,59.50692],[14.988,59.50752],[14.98952,59.50936],[14.99253,59.50917],[15.00094,59.50812],[15.00393,59.50803],[15.01635,59.50849],[15.0199,59.50806],[15.02158,59.50752],[15.02754,59.50874],[15.03627,59.51168],[15.03746,59.51225],[15.03947,59.51419]]]}},{"type":"Feature","id":"1884R007","properties":{"code":"1884R007","name":"Ås-Gyttorp"},"geometry":{"type":"Polygon","coordinates":[[[14.98865,59.54012],[14.99166,59.53981],[14.99425,59.53916],[14.99776,59.53761],[15.00021,59.53601],[15.00669,59.53852],[15.00853,59.53898],[15.01068,59.53927],[15.01056,59.53881],[15.01734,59.53573],[15.02091,59.53546],[15.02107,59.53393],[15.01961,59.53172],[15.01716,59.53098],[15.01652,59.53315],[15.01545,59.53309],[15.01487,59.53348],[15.01259,59.53428],[15.00784,59.53409],[15.00354,59.53225],[15.0036,59.53089],[15.00302,59.5309],[15.00163,59.52998],[15.00079,59.5301],[15.00024,59.52844],[14.99564,59.52562],[14.99373,59.52387],[14.99877,59.51796],[15.00061,59.5139],[14.99997,59.51155],[14.99809,59.51032],[14.99557,59.51055],[14.99333,59.50991],[14.99253,59.50917],[14.98952,59.50936],[14.988,59.50752],[14.98656,59.50692],[14.98564,59.50618],[14.98496,59.50536],[14.98489,59.50443],[14.97896,59.49743],[14.97829,59.49709],[14.97642,59.49649],[14.97413,59.49605],[14.97194,59.49584],[14.96903,59.49584],[14.96261,59.49519],[14.96068,59.49474],[14.9579,59.49443],[14.95567,59.49789],[14.95578,59.49848],[14.95523,59.5],[14.94246,59.50419],[14.94899,59.5136],[14.94778,59.51586],[14.94957,59.51769],[14.95104,59.51728],[14.95115,59.51876],[14.95154,59.51896],[14.95523,59.51982],[14.95881,59.51995],[14.96118,59.52105],[14.96404,59.52179],[14.96239,59.52309],[14.96156,59.52429],[14.95904,59.52461],[14.95638,59.52524],[14.9542,59.52614],[14.95251,59.5273],[14.95145,59.52864],[14.9511,59.53005],[14.9513,59.53112],[14.95226,59.53295],[14.95483,59.53561],[14.956,59.53647],[14.95804,59.53743],[14.96058,59.53812],[14.96323,59.53844],[14.96529,59.53846],[14.96917,59.53799],[14.97224,59.53789],[14.97563,59.53733],[14.9777,59.53842],[14.98015,59.53919],[14.98509,59.53997],[14.98865,59.54012]]]}}]}