{"type":"FeatureCollection","features":[{"type":"Feature","id":"1885R004","properties":{"code":"1885R004","name":"Frövi tätort"},"geometry":{"type":"Polygon","coordinates":[[[15.36807,59.48347],[15.37316,59.48272],[15.37694,59.48333],[15.37725,59.48315],[15.37786,59.48324],[15.3787,59.48172],[15.37992,59.48031],[15.38105,59.47938],[15.38445,59.47747],[15.40551,59.46963],[15.40318,59.4691],[15.39763,59.46835],[15.39775,59.46749],[15.39637,59.46586],[15.40243,59.46576],[15.40341,59.46477],[15.40411,59.46481],[15.40479,59.46308],[15.40226,59.46337],[15.40087,59.46137],[15.40179,59.46087],[15.39943,59.45963],[15.39895,59.458],[15.39769,59.45657],[15.39487,59.45499],[15.3922,59.45422],[15.39227,59.45401],[15.38054,59.44967],[15.36795,59.45832],[15.36223,59.45617],[15.35794,59.45576],[15.35554,59.45693],[15.35503,59.45794],[15.3487,59.45724],[15.34864,59.45815],[15.34691,59.46023],[15.34416,59.46156],[15.34109,59.46185],[15.33809,59.46262],[15.33524,59.46416],[15.33342,59.46605],[15.33289,59.46838],[15.33167,59.46951],[15.33111,59.4705],[15.33102,59.4722],[15.33153,59.47374],[15.33226,59.47475],[15.33382,59.47596],[15.33644,59.4771],[15.34139,59.47813],[15.34126,59.48039],[15.3424,59.48205],[15.3453,59.48047],[15.34712,59.48031],[15.36807,59.48347]]]}},{"type":"Feature","id":"1885R005","properties":{"code":"1885R005","name":"Lindesberg landsbygd"},"geometry":{"type":"Polygon","coordinates":[[[14.96649,59.68415],[14.97256,59.68207],[14.97818,59.67541],[14.98786,59.67039],[14.9922,59.6689],[14.99444,59.66766],[14.99898,59.66643],[15.00327,59.66468],[15.01746,59.66119],[15.02953,59.66164],[15.03309,59.65851],[15.03801,59.65271],[15.04079,59.65063],[15.0413,59.64981],[15.04156,59.64465],[15.04459,59.64471],[15.04757,59.64196],[15.0484,59.63984],[15.04963,59.63986],[15.05587,59.63873],[15.0608,59.63854],[15.06474,59.63789],[15.06983,59.63752],[15.07715,59.63181],[15.08193,59.62766],[15.08435,59.62958],[15.09195,59.6314],[15.09439,59.63151],[15.09528,59.63195],[15.09562,59.6325],[15.09667,59.63283],[15.10111,59.63264],[15.10308,59.63298],[15.11374,59.63608],[15.12282,59.63915],[15.12278,59.64007],[15.12484,59.64125],[15.12803,59.64444],[15.13106,59.64359],[15.13325,59.6414],[15.13368,59.64184],[15.13571,59.64209],[15.13881,59.64327],[15.14032,59.64469],[15.14149,59.64773],[15.14145,59.65182],[15.13895,59.65888],[15.13999,59.65934],[15.15888,59.67279],[15.18327,59.66021],[15.2028,59.63419],[15.20246,59.63194],[15.20317,59.63065],[15.20513,59.6303],[15.20558,59.62869],[15.20933,59.62553],[15.21042,59.62426],[15.20646,59.62197],[15.20185,59.6206],[15.19631,59.61924],[15.1948,59.61871],[15.19228,59.61744],[15.19143,59.61791],[15.1909,59.61734],[15.18927,59.61761],[15.18882,59.61665],[15.18668,59.61446],[15.18407,59.61387],[15.18185,59.61296],[15.17489,59.61226],[15.17231,59.61284],[15.16845,59.6141],[15.16511,59.61451],[15.16166,59.61438],[15.15843,59.6137],[15.15489,59.61204],[15.15178,59.60924],[15.15093,59.60738],[15.15099,59.6062],[15.15147,59.60509],[15.15203,59.60436],[15.15629,59.60333],[15.15469,59.59999],[15.17732,59.59625],[15.18027,59.59091],[15.18587,59.58375],[15.18646,59.58357],[15.18972,59.583],[15.19338,59.58295],[15.19602,59.58332],[15.202,59.58464],[15.20615,59.58507],[15.20914,59.586],[15.22431,59.58629],[15.22374,59.58344],[15.22115,59.58251],[15.21858,59.58006],[15.21942,59.577],[15.21808,59.57708],[15.21734,59.57654],[15.21639,59.57562],[15.21569,59.57428],[15.21564,59.57092],[15.21707,59.56848],[15.21669,59.56663],[15.21774,59.56448],[15.21756,59.56354],[15.21641,59.56189],[15.21622,59.56048],[15.21727,59.5584],[15.21929,59.55691],[15.2227,59.55567],[15.22683,59.555],[15.23173,59.5551],[15.23385,59.55543],[15.23597,59.55602],[15.23892,59.55641],[15.24211,59.55741],[15.2445,59.55883],[15.24555,59.55994],[15.24618,59.56137],[15.2461,59.56283],[15.24549,59.564],[15.24708,59.56547],[15.24775,59.56692],[15.24753,59.57009],[15.24629,59.57228],[15.24735,59.57392],[15.24745,59.57553],[15.24815,59.57742],[15.25105,59.57801],[15.25439,59.57932],[15.2563,59.58081],[15.25717,59.58226],[15.26165,59.58294],[15.26492,59.58419],[15.26648,59.58533],[15.26911,59.58811],[15.27162,59.5891],[15.27341,59.59024],[15.27459,59.59158],[15.27508,59.59312],[15.27497,59.59475],[15.27402,59.59645],[15.27302,59.59737],[15.27005,59.59922],[15.26828,59.59995],[15.2657,59.6006],[15.26268,59.60091],[15.25998,59.60085],[15.25444,59.60307],[15.25565,59.60515],[15.25812,59.60659],[15.25958,59.60861],[15.25975,59.61005],[15.25949,59.6111],[15.25779,59.61309],[15.254,59.61507],[15.25289,59.61612],[15.25157,59.61692],[15.24919,59.61786],[15.24674,59.61848],[15.2413,59.61901],[15.23851,59.61904],[15.23504,59.61857],[15.23192,59.61749],[15.23001,59.61863],[15.22755,59.62088],[15.23036,59.62527],[15.22998,59.62598],[15.2319,59.62643],[15.23664,59.62637],[15.23757,59.62622],[15.24331,59.62795],[15.24734,59.62618],[15.24813,59.62639],[15.25267,59.62667],[15.25369,59.62704],[15.25385,59.62859],[15.25528,59.62992],[15.26651,59.62662],[15.27212,59.62844],[15.27636,59.62836],[15.29523,59.63211],[15.2953,59.63236],[15.30614,59.63866],[15.30462,59.63964],[15.31538,59.64855],[15.32166,59.64563],[15.32429,59.64615],[15.32804,59.6493],[15.32806,59.65012],[15.34261,59.65599],[15.34297,59.65759],[15.35932,59.66203],[15.36444,59.65554],[15.37148,59.64579],[15.38233,59.63498],[15.38317,59.61825],[15.38668,59.5969],[15.38679,59.59131],[15.39774,59.57638],[15.39474,59.57371],[15.36533,59.57524],[15.3656,59.57494],[15.36513,59.57387],[15.36373,59.57233],[15.36494,59.57129],[15.36502,59.57067],[15.35738,59.57108],[15.34872,59.56324],[15.34972,59.56196],[15.34878,59.56052],[15.34375,59.556],[15.34355,59.55082],[15.33912,59.54994],[15.33614,59.55022],[15.32322,59.54757],[15.3132,59.55187],[15.31792,59.55953],[15.31517,59.56073],[15.31485,59.56356],[15.31234,59.56762],[15.31895,59.57112],[15.31055,59.57034],[15.30961,59.57006],[15.30795,59.57062],[15.30945,59.57399],[15.30493,59.5744],[15.30367,59.57542],[15.30493,59.57776],[15.29523,59.57613],[15.29365,59.57604],[15.29263,59.57525],[15.29135,59.57241],[15.28358,59.57131],[15.28327,59.56818],[15.28555,59.56471],[15.2896,59.5647],[15.29064,59.56105],[15.29006,59.56037],[15.28885,59.5603],[15.28756,59.55897],[15.28456,59.55728],[15.27609,59.55401],[15.27442,59.55227],[15.27029,59.55177],[15.26468,59.54824],[15.26449,59.5472],[15.26504,59.54629],[15.26501,59.54211],[15.25504,59.53905],[15.25251,59.53844],[15.25141,59.53682],[15.24243,59.53537],[15.24163,59.53426],[15.23809,59.53248],[15.23504,59.52952],[15.2339,59.52695],[15.22821,59.52852],[15.22628,59.52808],[15.21385,59.53049],[15.2095,59.53103],[15.20618,59.53056],[15.20336,59.52702],[15.21814,59.52393],[15.2294,59.52028],[15.22754,59.51992],[15.22212,59.51933],[15.22178,59.51746],[15.22129,59.51659],[15.22175,59.51564],[15.21453,59.51496],[15.20082,59.52373],[15.1981,59.52247],[15.19587,59.5218],[15.19314,59.52133],[15.18958,59.52018],[15.184,59.51961],[15.17625,59.51714],[15.17536,59.51666],[15.17585,59.51608],[15.17508,59.51417],[15.16854,59.51072],[15.16374,59.51081],[15.16378,59.50988],[15.16486,59.50832],[15.16029,59.50749],[15.15901,59.50655],[15.15319,59.50762],[15.15007,59.50921],[15.15365,59.51003],[15.1545,59.50983],[15.15521,59.50927],[15.15614,59.50894],[15.15699,59.50903],[15.15753,59.50929],[15.15797,59.50991],[15.15756,59.51139],[15.15852,59.51208],[15.15844,59.51263],[15.15796,59.51288],[15.15673,59.51221],[15.15619,59.51219],[15.15585,59.51248],[15.15605,59.51307],[15.15528,59.51336],[15.15528,59.51388],[15.15704,59.51429],[15.15756,59.51472],[15.15879,59.51453],[15.15893,59.51516],[15.15836,59.5155],[15.15931,59.51595],[15.15995,59.51588],[15.16005,59.51622],[15.16087,59.51653],[15.16067,59.51683],[15.1618,59.51701],[15.16214,59.51733],[15.16171,59.51747],[15.16105,59.51728],[15.16064,59.51743],[15.16083,59.51788],[15.15943,59.51785],[15.15974,59.51811],[15.15908,59.51827],[15.15959,59.51861],[15.15894,59.51874],[15.15808,59.51941],[15.1565,59.51964],[15.15574,59.51998],[15.15516,59.51992],[15.15201,59.52084],[15.15119,59.5209],[15.1516,59.52119],[15.15127,59.52149],[15.15173,59.52198],[15.15151,59.52264],[15.15095,59.52332],[15.15104,59.52371],[15.15014,59.524],[15.14963,59.52454],[15.15087,59.52494],[15.15044,59.52563],[15.15058,59.5263],[15.15099,59.52648],[15.15231,59.52649],[15.15208,59.52712],[15.15245,59.52734],[15.15242,59.52769],[15.15124,59.52799],[15.15126,59.52818],[15.15053,59.52846],[15.15066,59.52869],[15.14813,59.52961],[15.14828,59.52988],[15.1492,59.52953],[15.15004,59.5301],[15.14879,59.53062],[15.1489,59.53102],[15.14933,59.53122],[15.14794,59.53206],[15.14833,59.53233],[15.14911,59.53214],[15.14959,59.53236],[15.14886,59.53249],[15.14914,59.53274],[15.14872,59.53284],[15.14897,59.53324],[15.1479,59.53321],[15.14747,59.53351],[15.14789,59.53363],[15.14791,59.53394],[15.14698,59.53405],[15.14761,59.53454],[15.14719,59.53466],[15.14717,59.53503],[15.14669,59.53515],[15.14693,59.53544],[15.14644,59.53609],[15.14673,59.53639],[15.14643,59.53646],[15.14668,59.53691],[15.14633,59.53706],[15.14774,59.53984],[15.1503,59.54175],[15.15058,59.54346],[15.14913,59.5448],[15.14992,59.54501],[15.15481,59.54496],[15.15656,59.54567],[15.16367,59.54733],[15.16122,59.54865],[15.16336,59.54962],[15.16594,59.55031],[15.16862,59.55172],[15.17114,59.55334],[15.17241,59.55481],[15.16653,59.55765],[15.16091,59.56091],[15.15265,59.56433],[15.14033,59.57011],[15.13059,59.57633],[15.12494,59.58022],[15.12103,59.57977],[15.11554,59.58007],[15.1084,59.57987],[15.09997,59.58122],[15.09966,59.58198],[15.09997,59.58243],[15.09984,59.58354],[15.10095,59.58464],[15.10189,59.58693],[15.10352,59.58852],[15.10341,59.59025],[15.09008,59.59022],[15.06329,59.59093],[15.05688,59.59058],[15.03276,59.58911],[15.00074,59.58414],[15.00162,59.60674],[15.00114,59.60728],[15.00366,59.60914],[15.00607,59.61043],[15.00612,59.61077],[15.00418,59.61206],[15.00307,59.61364],[15.00444,59.6143],[15.00332,59.61508],[15.00236,59.61668],[15.00119,59.62101],[14.99602,59.63355],[14.97663,59.6371],[14.9763,59.64104],[14.97518,59.64612],[14.97134,59.6543],[14.96638,59.66204],[14.96437,59.67755],[14.96473,59.67784],[14.96478,59.67843],[14.96564,59.67914],[14.96538,59.67951],[14.96361,59.68028],[14.96339,59.6808],[14.96286,59.6811],[14.96325,59.68252],[14.96253,59.68469],[14.96275,59.68624],[14.96649,59.68415]]]}},{"type":"Feature","id":"1885R001","properties":{"code":"1885R001","name":"Fellingsbro landsbygd"},"geometry":{"type":"Polygon","coordinates":[[[15.70696,59.53533],[15.70893,59.53047],[15.7134,59.52575],[15.71376,59.52461],[15.71727,59.51936],[15.71965,59.51135],[15.71974,59.50752],[15.70366,59.50305],[15.70137,59.49944],[15.69693,59.49823],[15.69058,59.49612],[15.69055,59.4957],[15.69111,59.49531],[15.69068,59.49496],[15.69114,59.49404],[15.69068,59.49387],[15.69102,59.49331],[15.69041,59.49291],[15.6905,59.49259],[15.6892,59.49249],[15.68974,59.4916],[15.68925,59.49058],[15.68864,59.49032],[15.68891,59.48982],[15.68871,59.48945],[15.68805,59.489],[15.68865,59.48818],[15.68952,59.48758],[15.68908,59.48716],[15.68952,59.48689],[15.68942,59.48649],[15.69027,59.48508],[15.69006,59.48383],[15.68896,59.48197],[15.68871,59.48049],[15.68642,59.47869],[15.68653,59.478],[15.68548,59.47742],[15.71283,59.4758],[15.7138,59.46541],[15.71472,59.46221],[15.71411,59.45913],[15.71533,59.45642],[15.71574,59.45047],[15.72167,59.44418],[15.72643,59.43832],[15.72738,59.43589],[15.72979,59.43132],[15.73025,59.42861],[15.7302,59.42203],[15.7315,59.41783],[15.73063,59.41387],[15.731,59.40994],[15.73016,59.40857],[15.7249,59.40902],[15.72376,59.4093],[15.72227,59.41015],[15.7212,59.41039],[15.7189,59.41033],[15.71555,59.40936],[15.71288,59.40892],[15.71048,59.40928],[15.70642,59.40913],[15.70536,59.40982],[15.70474,59.40992],[15.70294,59.40944],[15.70094,59.40956],[15.69839,59.40926],[15.69098,59.40755],[15.68529,59.40664],[15.68165,59.40643],[15.67865,59.40597],[15.67234,59.40627],[15.67003,59.40607],[15.66402,59.40436],[15.66066,59.40403],[15.65407,59.40399],[15.65214,59.40362],[15.64871,59.40332],[15.64526,59.40376],[15.63894,59.4053],[15.63697,59.4054],[15.63041,59.40486],[15.62672,59.40384],[15.62437,59.39704],[15.60397,59.39655],[15.60106,59.37897],[15.59988,59.37494],[15.5948,59.37386],[15.59093,59.37277],[15.58674,59.37129],[15.58291,59.36966],[15.57946,59.36968],[15.57623,59.36945],[15.57393,59.36894],[15.5682,59.36831],[15.56772,59.36918],[15.56691,59.36946],[15.5649,59.3692],[15.56396,59.37234],[15.56255,59.37253],[15.56291,59.37305],[15.56114,59.37393],[15.55895,59.37311],[15.54887,59.37463],[15.53781,59.37563],[15.53465,59.37666],[15.52696,59.38063],[15.52085,59.38412],[15.51804,59.38476],[15.51839,59.38516],[15.51678,59.38533],[15.51662,59.38492],[15.49891,59.38666],[15.49717,59.38757],[15.48904,59.38911],[15.47603,59.38907],[15.47372,59.39779],[15.47574,59.39846],[15.50117,59.40383],[15.51598,59.40586],[15.516,59.40629],[15.51505,59.40758],[15.51382,59.40851],[15.5115,59.40937],[15.51043,59.41038],[15.51056,59.41055],[15.50964,59.41099],[15.50765,59.41314],[15.50648,59.41403],[15.50576,59.41528],[15.50321,59.41688],[15.50145,59.41869],[15.49863,59.41824],[15.49635,59.41843],[15.48782,59.42026],[15.48639,59.42081],[15.48458,59.42207],[15.48162,59.42603],[15.47937,59.42755],[15.47509,59.42916],[15.47394,59.43112],[15.47289,59.43203],[15.47244,59.43437],[15.47172,59.43605],[15.47234,59.43803],[15.47244,59.43965],[15.47313,59.44102],[15.47254,59.44228],[15.47306,59.44347],[15.47085,59.44631],[15.4708,59.44692],[15.47154,59.44731],[15.4735,59.44716],[15.47578,59.44795],[15.47542,59.44907],[15.47652,59.44985],[15.47672,59.45052],[15.47588,59.45177],[15.47624,59.45233],[15.476,59.45263],[15.47647,59.45324],[15.47887,59.45387],[15.47913,59.45462],[15.48079,59.45596],[15.48345,59.45631],[15.48803,59.45789],[15.48875,59.45832],[15.48881,59.45888],[15.48813,59.46022],[15.48535,59.46113],[15.48496,59.46251],[15.48508,59.46424],[15.48398,59.46658],[15.48353,59.46837],[15.48217,59.47037],[15.48216,59.47189],[15.47983,59.47522],[15.47737,59.47646],[15.47751,59.47711],[15.47667,59.4778],[15.47536,59.47817],[15.47405,59.48212],[15.47087,59.48413],[15.46636,59.48949],[15.46296,59.49105],[15.45977,59.49318],[15.45886,59.49329],[15.45742,59.49304],[15.45681,59.49338],[15.45636,59.4952],[15.45698,59.49596],[15.45672,59.49609],[15.45696,59.49615],[15.45691,59.49668],[15.45715,59.49672],[15.45633,59.49952],[15.4566,59.50018],[15.45403,59.50448],[15.45445,59.50489],[15.4544,59.50524],[15.4532,59.50631],[15.45061,59.50635],[15.44982,59.50651],[15.44859,59.50882],[15.45623,59.50932],[15.46171,59.50672],[15.46043,59.5049],[15.45969,59.50318],[15.46043,59.50244],[15.47833,59.49977],[15.48081,59.50222],[15.47964,59.505],[15.48022,59.50622],[15.48777,59.51084],[15.4949,59.51165],[15.49768,59.51401],[15.51294,59.51243],[15.51454,59.51278],[15.50546,59.52024],[15.51394,59.52179],[15.51749,59.52647],[15.51506,59.52999],[15.51808,59.53281],[15.5354,59.53172],[15.53704,59.52889],[15.53195,59.52571],[15.5346,59.51875],[15.52907,59.51454],[15.52905,59.51403],[15.53715,59.51371],[15.54839,59.5105],[15.55233,59.51057],[15.55829,59.51216],[15.56494,59.5107],[15.57961,59.51219],[15.58034,59.51336],[15.58556,59.51763],[15.59027,59.51832],[15.59396,59.5183],[15.60135,59.51605],[15.61127,59.51645],[15.6231,59.51249],[15.63939,59.52138],[15.64968,59.52254],[15.66311,59.5251],[15.67229,59.52943],[15.67322,59.53477],[15.68193,59.5367],[15.68291,59.53396],[15.68791,59.53533],[15.69589,59.53691],[15.70475,59.53894],[15.70696,59.53533]],[[15.58655,59.45594],[15.5837,59.4557],[15.58054,59.45492],[15.57802,59.45367],[15.57613,59.45208],[15.57533,59.45034],[15.57538,59.44926],[15.57591,59.4481],[15.57558,59.44632],[15.57593,59.44515],[15.57689,59.44388],[15.57562,59.44367],[15.57408,59.44367],[15.57102,59.44417],[15.56783,59.44523],[15.5651,59.44562],[15.5623,59.44566],[15.55953,59.44533],[15.55547,59.44412],[15.55311,59.4428],[15.5515,59.44082],[15.55136,59.43901],[15.55306,59.4352],[15.55466,59.43359],[15.55785,59.43205],[15.5618,59.43124],[15.56422,59.42957],[15.56608,59.42884],[15.56836,59.42827],[15.56869,59.42711],[15.5695,59.42595],[15.57105,59.42472],[15.57262,59.42393],[15.57567,59.42302],[15.57927,59.42249],[15.58285,59.42232],[15.58661,59.42265],[15.59158,59.42111],[15.59422,59.42077],[15.59694,59.42078],[15.60015,59.42122],[15.60838,59.42335],[15.611,59.42456],[15.61259,59.42589],[15.61341,59.42729],[15.61352,59.42876],[15.61312,59.42994],[15.61223,59.43106],[15.61147,59.43529],[15.61263,59.43632],[15.61346,59.43772],[15.61363,59.43894],[15.61335,59.44038],[15.61261,59.44171],[15.611,59.44305],[15.61146,59.44486],[15.61079,59.44671],[15.60774,59.44981],[15.60654,59.45065],[15.60364,59.45184],[15.60118,59.45343],[15.59883,59.45424],[15.59615,59.45473],[15.59354,59.45485],[15.58998,59.45573],[15.58655,59.45594]]]}},{"type":"Feature","id":"1885R002","properties":{"code":"1885R002","name":"Fellingsbro tätort"},"geometry":{"type":"Polygon","coordinates":[[[15.58789,59.45592],[15.59067,59.45562],[15.59354,59.45485],[15.59686,59.45464],[15.59942,59.45408],[15.60167,59.4532],[15.60364,59.45184],[15.60654,59.45065],[15.60774,59.44981],[15.61079,59.44671],[15.61146,59.44486],[15.611,59.44305],[15.61261,59.44171],[15.61335,59.44038],[15.61363,59.43894],[15.61346,59.43772],[15.61263,59.43632],[15.61147,59.43529],[15.61223,59.43106],[15.61312,59.42994],[15.61352,59.42876],[15.61341,59.42729],[15.61259,59.42589],[15.611,59.42456],[15.60838,59.42335],[15.60015,59.42122],[15.59694,59.42078],[15.59422,59.42077],[15.59158,59.42111],[15.58661,59.42265],[15.58285,59.42232],[15.57927,59.42249],[15.57567,59.42302],[15.57262,59.42393],[15.57105,59.42472],[15.5695,59.42595],[15.56869,59.42711],[15.56836,59.42827],[15.56608,59.42884],[15.56422,59.42957],[15.5618,59.43124],[15.55785,59.43205],[15.55466,59.43359],[15.55306,59.4352],[15.55136,59.43901],[15.5515,59.44082],[15.55311,59.4428],[15.55547,59.44412],[15.55953,59.44533],[15.5623,59.44566],[15.5651,59.44562],[15.56783,59.44523],[15.57102,59.44417],[15.57408,59.44367],[15.57562,59.44367],[15.57689,59.44388],[15.57564,59.44593],[15.57591,59.4481],[15.57532,59.44963],[15.57553,59.45107],[15.57642,59.45242],[15.57848,59.45396],[15.58115,59.45512],[15.5844,59.45579],[15.58789,59.45592]]]}},{"type":"Feature","id":"1885R003","properties":{"code":"1885R003","name":"Frövi landsbygd"},"geometry":{"type":"Polygon","coordinates":[[[15.44718,59.63998],[15.46226,59.63918],[15.4743,59.63947],[15.49369,59.63861],[15.52098,59.63355],[15.54595,59.62862],[15.55846,59.62774],[15.56509,59.62704],[15.57193,59.62728],[15.58482,59.62831],[15.60398,59.63099],[15.61569,59.63047],[15.6188,59.62644],[15.61997,59.62229],[15.621,59.61714],[15.62174,59.60764],[15.6224,59.60204],[15.62321,59.59823],[15.63439,59.59604],[15.63535,59.59657],[15.63664,59.59124],[15.63674,59.58936],[15.63594,59.58578],[15.63545,59.57957],[15.63223,59.57105],[15.62633,59.57372],[15.62667,59.56176],[15.62642,59.55022],[15.63047,59.52891],[15.62849,59.52006],[15.63939,59.52138],[15.6231,59.51249],[15.61127,59.51645],[15.60135,59.51605],[15.59396,59.5183],[15.59027,59.51832],[15.58556,59.51763],[15.58034,59.51336],[15.57961,59.51219],[15.56494,59.5107],[15.55829,59.51216],[15.55233,59.51057],[15.54839,59.5105],[15.53715,59.51371],[15.52905,59.51403],[15.52907,59.51454],[15.5346,59.51875],[15.53195,59.52571],[15.53704,59.52889],[15.5354,59.53172],[15.51808,59.53281],[15.51506,59.52999],[15.51749,59.52647],[15.51394,59.52179],[15.50546,59.52024],[15.51454,59.51278],[15.51294,59.51243],[15.49768,59.51401],[15.4949,59.51165],[15.48777,59.51084],[15.48022,59.50622],[15.47964,59.505],[15.48081,59.50222],[15.47833,59.49977],[15.46043,59.50244],[15.45969,59.50318],[15.46043,59.5049],[15.46171,59.50672],[15.45623,59.50932],[15.44859,59.50882],[15.44982,59.50651],[15.45061,59.50635],[15.4532,59.50631],[15.4544,59.50524],[15.45445,59.50489],[15.45403,59.50448],[15.4566,59.50018],[15.45633,59.49952],[15.45715,59.49672],[15.45691,59.49668],[15.45696,59.49615],[15.45672,59.49609],[15.45698,59.49596],[15.45635,59.4951],[15.45695,59.49323],[15.45742,59.49304],[15.45886,59.49329],[15.45977,59.49318],[15.46296,59.49105],[15.46636,59.48949],[15.47087,59.48413],[15.47405,59.48212],[15.47446,59.48027],[15.47542,59.47811],[15.47667,59.4778],[15.47751,59.47711],[15.47737,59.47646],[15.47957,59.47541],[15.48016,59.47486],[15.4806,59.47386],[15.48216,59.47189],[15.48217,59.47037],[15.48353,59.46837],[15.48398,59.46658],[15.48508,59.46424],[15.48496,59.46251],[15.48535,59.46113],[15.48822,59.46016],[15.48889,59.4585],[15.48828,59.45799],[15.48393,59.45645],[15.482,59.45602],[15.48089,59.456],[15.47913,59.45462],[15.47887,59.45387],[15.47647,59.45324],[15.476,59.45263],[15.47624,59.45233],[15.47588,59.45177],[15.47672,59.45052],[15.47652,59.44985],[15.47542,59.44907],[15.47578,59.44795],[15.4735,59.44716],[15.47154,59.44731],[15.4708,59.44692],[15.47085,59.44631],[15.47306,59.44347],[15.47254,59.44228],[15.47313,59.44102],[15.47244,59.43965],[15.47234,59.43803],[15.47172,59.43605],[15.47244,59.43437],[15.47289,59.43203],[15.47096,59.43242],[15.46769,59.43248],[15.46676,59.43278],[15.46558,59.43283],[15.46357,59.43359],[15.46188,59.43301],[15.46151,59.43266],[15.46275,59.4314],[15.46357,59.43124],[15.46376,59.43099],[15.46346,59.42966],[15.46138,59.43008],[15.4602,59.4312],[15.45913,59.43107],[15.45842,59.43069],[15.45797,59.43074],[15.45769,59.43059],[15.45791,59.42975],[15.45918,59.42855],[15.45935,59.42645],[15.4564,59.42644],[15.45499,59.42688],[15.45216,59.42647],[15.45055,59.42712],[15.44831,59.42702],[15.4486,59.42777],[15.44543,59.42753],[15.44303,59.42685],[15.44073,59.42709],[15.43815,59.42687],[15.43459,59.42532],[15.42987,59.42477],[15.4264,59.42477],[15.42395,59.42384],[15.41987,59.42148],[15.40758,59.42333],[15.40654,59.42369],[15.39285,59.43115],[15.36377,59.42839],[15.31926,59.43284],[15.31807,59.43369],[15.31785,59.4351],[15.31917,59.43699],[15.31896,59.43809],[15.3183,59.43846],[15.31648,59.43898],[15.31055,59.44328],[15.30489,59.44623],[15.30445,59.44733],[15.30289,59.44893],[15.30114,59.44986],[15.29935,59.44941],[15.29878,59.44943],[15.29505,59.44659],[15.29143,59.44863],[15.28093,59.44545],[15.2798,59.44578],[15.27943,59.44624],[15.27958,59.44758],[15.27705,59.46054],[15.27539,59.47417],[15.27444,59.47841],[15.27325,59.48069],[15.27384,59.48346],[15.27346,59.48351],[15.27277,59.48526],[15.27394,59.48706],[15.2761,59.49184],[15.27877,59.50159],[15.27565,59.50537],[15.26349,59.50625],[15.23148,59.50801],[15.22905,59.51811],[15.23021,59.52045],[15.2294,59.52028],[15.21814,59.52393],[15.20336,59.52702],[15.20618,59.53056],[15.2095,59.53103],[15.21385,59.53049],[15.22628,59.52808],[15.22821,59.52852],[15.2339,59.52695],[15.23504,59.52952],[15.23809,59.53248],[15.24163,59.53426],[15.24243,59.53537],[15.25141,59.53682],[15.25251,59.53844],[15.25504,59.53905],[15.26501,59.54211],[15.26504,59.54629],[15.26449,59.5472],[15.26468,59.54824],[15.27029,59.55177],[15.27442,59.55227],[15.27609,59.55401],[15.28456,59.55728],[15.28756,59.55897],[15.28885,59.5603],[15.29006,59.56037],[15.29064,59.56105],[15.2896,59.5647],[15.28555,59.56471],[15.28327,59.56818],[15.28358,59.57131],[15.29135,59.57241],[15.29263,59.57525],[15.29365,59.57604],[15.29523,59.57613],[15.30493,59.57776],[15.30367,59.57542],[15.30493,59.5744],[15.30945,59.57399],[15.30795,59.57062],[15.30961,59.57006],[15.31055,59.57034],[15.31895,59.57112],[15.31234,59.56762],[15.31485,59.56356],[15.31517,59.56073],[15.31792,59.55953],[15.3132,59.55187],[15.32322,59.54757],[15.33614,59.55022],[15.33912,59.54994],[15.34355,59.55082],[15.34375,59.556],[15.34878,59.56052],[15.34972,59.56196],[15.34872,59.56324],[15.35738,59.57108],[15.36502,59.57067],[15.36494,59.57129],[15.36373,59.57233],[15.36513,59.57387],[15.3656,59.57494],[15.36533,59.57524],[15.39474,59.57371],[15.39774,59.57638],[15.38679,59.59131],[15.41547,59.59149],[15.41615,59.59316],[15.41704,59.59332],[15.41428,59.59634],[15.41528,59.59773],[15.41684,59.59856],[15.4175,59.59865],[15.41843,59.59851],[15.42067,59.59748],[15.42154,59.59733],[15.42207,59.59743],[15.42236,59.59765],[15.42191,59.59824],[15.42244,59.60008],[15.42196,59.60107],[15.42078,59.60181],[15.41995,59.60299],[15.4184,59.60444],[15.41784,59.60638],[15.41701,59.60733],[15.41658,59.60936],[15.41525,59.61003],[15.41364,59.61169],[15.41284,59.61187],[15.40996,59.61143],[15.40967,59.61465],[15.40887,59.61551],[15.41053,59.61655],[15.41303,59.61703],[15.41923,59.61285],[15.42426,59.61332],[15.42572,59.61386],[15.42663,59.61309],[15.42746,59.61284],[15.42792,59.61297],[15.42842,59.61382],[15.42897,59.61366],[15.42928,59.61323],[15.42977,59.61319],[15.43134,59.61489],[15.43099,59.61659],[15.43016,59.61713],[15.42426,59.61898],[15.42468,59.62028],[15.42379,59.62058],[15.42406,59.62156],[15.42319,59.62253],[15.42398,59.62281],[15.42589,59.62269],[15.42647,59.62303],[15.4252,59.62485],[15.42619,59.62601],[15.42509,59.62848],[15.42542,59.62992],[15.42621,59.63107],[15.42789,59.63218],[15.42864,59.63235],[15.42977,59.63205],[15.43048,59.63208],[15.43286,59.63309],[15.43291,59.63332],[15.43114,59.63433],[15.42985,59.63456],[15.43003,59.63527],[15.43168,59.63508],[15.43391,59.63566],[15.43693,59.63595],[15.43602,59.63717],[15.43687,59.63833],[15.43734,59.63855],[15.43933,59.63877],[15.44284,59.64071],[15.44718,59.63998]],[[15.36807,59.48347],[15.34712,59.48031],[15.3453,59.48047],[15.3424,59.48205],[15.34126,59.48039],[15.34139,59.47813],[15.33713,59.4773],[15.33475,59.47645],[15.3326,59.47507],[15.33153,59.47374],[15.33096,59.47186],[15.33101,59.47084],[15.33167,59.46951],[15.33289,59.46838],[15.33342,59.46605],[15.33524,59.46416],[15.33756,59.46283],[15.34109,59.46185],[15.34416,59.46156],[15.34691,59.46023],[15.34864,59.45815],[15.3487,59.45724],[15.35503,59.45794],[15.35554,59.45693],[15.35794,59.45576],[15.36223,59.45617],[15.36795,59.45832],[15.38054,59.44967],[15.39227,59.45401],[15.3922,59.45422],[15.39487,59.45499],[15.39769,59.45657],[15.39895,59.458],[15.39943,59.45963],[15.40179,59.46087],[15.40087,59.46137],[15.40226,59.46337],[15.40479,59.46308],[15.40411,59.46481],[15.40341,59.46477],[15.40243,59.46576],[15.39637,59.46586],[15.39775,59.46749],[15.39763,59.46835],[15.40318,59.4691],[15.40551,59.46963],[15.38445,59.47747],[15.38105,59.47938],[15.37992,59.48031],[15.3787,59.48172],[15.37786,59.48324],[15.37725,59.48315],[15.37694,59.48333],[15.37316,59.48272],[15.36807,59.48347]]]}},{"type":"Feature","id":"1885R006","properties":{"code":"1885R006","name":"Lindesberg nordöstra"},"geometry":{"type":"Polygon","coordinates":[[[15.21597,59.62571],[15.22023,59.62513],[15.22453,59.62352],[15.2262,59.62244],[15.22771,59.62058],[15.22907,59.61967],[15.23001,59.61863],[15.23192,59.61749],[15.23381,59.61824],[15.23566,59.6187],[15.23784,59.61899],[15.24059,59.61906],[15.24539,59.61867],[15.24737,59.61836],[15.24998,59.61758],[15.25204,59.61667],[15.254,59.61507],[15.25692,59.61365],[15.25818,59.61278],[15.2593,59.61148],[15.25971,59.6104],[15.25967,59.60895],[15.25902,59.60754],[15.25772,59.60628],[15.25565,59.60515],[15.25444,59.60307],[15.25998,59.60085],[15.26421,59.60081],[15.26829,59.59994],[15.26647,59.5984],[15.26515,59.59891],[15.26259,59.59805],[15.25769,59.5979],[15.25175,59.59823],[15.25022,59.59852],[15.24545,59.6018],[15.24364,59.60362],[15.24221,59.6043],[15.24089,59.60581],[15.23988,59.6058],[15.23953,59.60671],[15.23787,59.6088],[15.23623,59.60726],[15.23653,59.60614],[15.23525,59.60589],[15.23575,59.60393],[15.23707,59.60141],[15.23699,59.6008],[15.23648,59.60025],[15.23462,59.60029],[15.23046,59.59997],[15.22923,59.60018],[15.22667,59.60147],[15.2252,59.60167],[15.22337,59.60163],[15.22347,59.60288],[15.22218,59.60722],[15.22292,59.60937],[15.2227,59.61102],[15.2232,59.61221],[15.22263,59.61325],[15.22369,59.61443],[15.22343,59.61476],[15.22108,59.61576],[15.22023,59.61697],[15.21788,59.61831],[15.21775,59.61964],[15.21864,59.61975],[15.21863,59.62048],[15.21744,59.62107],[15.2153,59.62136],[15.21464,59.62174],[15.21465,59.62212],[15.21554,59.6229],[15.21532,59.62344],[15.21216,59.62413],[15.21133,59.6239],[15.21086,59.62394],[15.21042,59.62426],[15.21242,59.62557],[15.21597,59.62571]]]}},{"type":"Feature","id":"1885R007","properties":{"code":"1885R007","name":"Lindesberg norra"},"geometry":{"type":"Polygon","coordinates":[[[15.21042,59.62426],[15.21133,59.6239],[15.21216,59.62413],[15.21532,59.62344],[15.21554,59.6229],[15.21465,59.62212],[15.21464,59.62174],[15.2153,59.62136],[15.21744,59.62107],[15.21863,59.62048],[15.21864,59.61975],[15.21775,59.61964],[15.21788,59.61831],[15.22023,59.61697],[15.22108,59.61576],[15.22343,59.61476],[15.22369,59.61443],[15.22263,59.61325],[15.2232,59.61221],[15.2227,59.61102],[15.22292,59.60937],[15.22218,59.60722],[15.22234,59.60656],[15.21743,59.60719],[15.21917,59.60343],[15.21892,59.60275],[15.21915,59.60215],[15.21864,59.60205],[15.21847,59.60273],[15.21794,59.6031],[15.21546,59.60344],[15.21307,59.60177],[15.20161,59.60657],[15.2001,59.6076],[15.19208,59.61666],[15.19142,59.61706],[15.1948,59.61871],[15.19631,59.61924],[15.20185,59.6206],[15.20646,59.62197],[15.21042,59.62426]]]}},{"type":"Feature","id":"1885R008","properties":{"code":"1885R008","name":"Lindesberg sydöstra"},"geometry":{"type":"Polygon","coordinates":[[[15.23787,59.6088],[15.23988,59.6058],[15.24089,59.60581],[15.24221,59.6043],[15.24364,59.60362],[15.24545,59.6018],[15.25022,59.59852],[15.25175,59.59823],[15.25769,59.5979],[15.26259,59.59805],[15.26515,59.59891],[15.26647,59.5984],[15.26829,59.59994],[15.27051,59.59897],[15.27302,59.59737],[15.27437,59.59599],[15.27497,59.59475],[15.27503,59.59268],[15.27412,59.59094],[15.27209,59.58934],[15.26911,59.58811],[15.26536,59.58445],[15.26393,59.5837],[15.26165,59.58294],[15.25717,59.58226],[15.2563,59.58081],[15.25439,59.57932],[15.25222,59.57837],[15.24814,59.57736],[15.244,59.57944],[15.24087,59.5817],[15.23626,59.58414],[15.23616,59.58469],[15.23624,59.58773],[15.23918,59.58791],[15.24094,59.58826],[15.24388,59.58969],[15.24477,59.58993],[15.24647,59.58974],[15.24721,59.59049],[15.24961,59.59169],[15.24745,59.59364],[15.24707,59.59436],[15.2447,59.59439],[15.24061,59.59288],[15.23944,59.59276],[15.23883,59.59228],[15.2377,59.5924],[15.23495,59.59223],[15.23217,59.5924],[15.23061,59.59193],[15.22478,59.59889],[15.22315,59.59833],[15.22293,59.59856],[15.2233,59.59944],[15.22292,59.60074],[15.22337,59.60163],[15.2252,59.60167],[15.22667,59.60147],[15.22923,59.60018],[15.23046,59.59997],[15.23462,59.60029],[15.23648,59.60025],[15.23699,59.6008],[15.23707,59.60141],[15.23575,59.60393],[15.23525,59.60589],[15.23653,59.60614],[15.23623,59.60726],[15.23787,59.6088]]]}},{"type":"Feature","id":"1885R009","properties":{"code":"1885R009","name":"Lindesberg södra"},"geometry":{"type":"Polygon","coordinates":[[[15.22479,59.59888],[15.23061,59.59193],[15.23217,59.5924],[15.23495,59.59223],[15.2377,59.5924],[15.23883,59.59228],[15.23944,59.59276],[15.24061,59.59288],[15.2447,59.59439],[15.24707,59.59436],[15.24745,59.59364],[15.24961,59.59169],[15.24721,59.59049],[15.24647,59.58974],[15.24477,59.58993],[15.24388,59.58969],[15.24094,59.58826],[15.23918,59.58791],[15.23624,59.58773],[15.23626,59.58414],[15.24087,59.5817],[15.244,59.57944],[15.24814,59.57736],[15.24745,59.57553],[15.24735,59.57392],[15.24629,59.57228],[15.24753,59.57009],[15.2478,59.56729],[15.24708,59.56547],[15.24549,59.564],[15.24623,59.56205],[15.24576,59.56026],[15.24373,59.55827],[15.24088,59.55694],[15.23829,59.55629],[15.23597,59.55602],[15.23304,59.55528],[15.23021,59.55499],[15.22689,59.555],[15.2248,59.55522],[15.2221,59.55582],[15.22032,59.55642],[15.21758,59.55809],[15.21655,59.55941],[15.21622,59.56048],[15.21641,59.56189],[15.21756,59.56354],[15.21774,59.56448],[15.21669,59.56663],[15.21707,59.56848],[15.21564,59.57092],[15.21569,59.57428],[15.21639,59.57562],[15.21734,59.57654],[15.21808,59.57708],[15.21942,59.577],[15.21858,59.58006],[15.22115,59.58251],[15.22374,59.58344],[15.22431,59.58629],[15.22305,59.59235],[15.21985,59.59421],[15.21974,59.59457],[15.22093,59.59653],[15.22087,59.59763],[15.22293,59.59856],[15.22315,59.59833],[15.22479,59.59888]]]}},{"type":"Feature","id":"1885R010","properties":{"code":"1885R010","name":"Lindesberg västra"},"geometry":{"type":"Polygon","coordinates":[[[15.19228,59.61744],[15.19142,59.61706],[15.19208,59.61666],[15.19874,59.60902],[15.20072,59.60711],[15.20161,59.60657],[15.21307,59.60177],[15.21546,59.60344],[15.21762,59.60322],[15.21847,59.60273],[15.21864,59.60205],[15.21915,59.60215],[15.21892,59.60275],[15.21917,59.60343],[15.21743,59.60719],[15.22234,59.60656],[15.22352,59.60249],[15.22292,59.60074],[15.22327,59.59899],[15.22301,59.5986],[15.22087,59.59763],[15.22093,59.59653],[15.21974,59.59457],[15.21985,59.59421],[15.22305,59.59235],[15.22431,59.58629],[15.20914,59.586],[15.20615,59.58507],[15.202,59.58464],[15.19474,59.58309],[15.19131,59.58291],[15.18772,59.58328],[15.18587,59.58375],[15.18027,59.59091],[15.17732,59.59625],[15.15469,59.59999],[15.15629,59.60333],[15.15203,59.60436],[15.15113,59.60575],[15.15093,59.60738],[15.15155,59.60892],[15.15245,59.60995],[15.15478,59.61196],[15.15678,59.61307],[15.16029,59.61416],[15.16444,59.61453],[15.16845,59.6141],[15.17231,59.61284],[15.17489,59.61226],[15.18185,59.61296],[15.18407,59.61387],[15.18668,59.61446],[15.18882,59.61665],[15.18927,59.61761],[15.1909,59.61734],[15.19143,59.61791],[15.19228,59.61744]]]}},{"type":"Feature","id":"1885R011","properties":{"code":"1885R011","name":"Storå landsbygd"},"geometry":{"type":"Polygon","coordinates":[[[15.27985,59.94263],[15.33135,59.90863],[15.35526,59.89399],[15.35481,59.88986],[15.35659,59.88817],[15.35789,59.8876],[15.35795,59.88681],[15.3588,59.88605],[15.35968,59.88589],[15.36168,59.88452],[15.36104,59.8817],[15.36023,59.88087],[15.36045,59.88054],[15.36192,59.87977],[15.36281,59.87995],[15.36361,59.87951],[15.36439,59.8786],[15.36465,59.87713],[15.37057,59.87502],[15.37136,59.87387],[15.3792,59.87753],[15.43135,59.84918],[15.43272,59.84911],[15.43378,59.84878],[15.43428,59.84926],[15.43787,59.84993],[15.44069,59.8499],[15.4412,59.85005],[15.44178,59.84906],[15.44076,59.84705],[15.44016,59.84662],[15.44044,59.84552],[15.44002,59.84457],[15.4407,59.8446],[15.44135,59.84437],[15.44108,59.84394],[15.45697,59.83531],[15.44787,59.83128],[15.44795,59.82444],[15.45611,59.82108],[15.43902,59.80853],[15.4397,59.8067],[15.4389,59.80506],[15.43813,59.80457],[15.43653,59.80444],[15.43521,59.80441],[15.43469,59.80488],[15.43436,59.80394],[15.43291,59.80408],[15.42687,59.7996],[15.42873,59.79881],[15.42866,59.79789],[15.42817,59.79696],[15.42588,59.79556],[15.43602,59.79569],[15.43767,59.79719],[15.4401,59.79782],[15.44247,59.79643],[15.44254,59.79574],[15.5054,59.79607],[15.5121,59.78751],[15.5124,59.77726],[15.51461,59.77677],[15.52161,59.76873],[15.53142,59.76089],[15.53077,59.76081],[15.53116,59.76064],[15.53097,59.76046],[15.52995,59.76042],[15.52981,59.76025],[15.52898,59.76016],[15.52915,59.7596],[15.52821,59.75907],[15.52845,59.75839],[15.52817,59.75806],[15.52858,59.75715],[15.52805,59.75678],[15.52759,59.75707],[15.52735,59.75696],[15.52807,59.75613],[15.52672,59.75548],[15.526,59.75476],[15.52571,59.75438],[15.5259,59.75337],[15.5268,59.75312],[15.53862,59.73931],[15.54873,59.72962],[15.55323,59.7259],[15.55397,59.72361],[15.55061,59.72112],[15.54506,59.7175],[15.54909,59.70231],[15.55168,59.70306],[15.55163,59.70271],[15.55048,59.70209],[15.55104,59.70158],[15.55065,59.70128],[15.55131,59.70103],[15.55112,59.70087],[15.55164,59.70054],[15.55165,59.70007],[15.53842,59.69055],[15.52893,59.69016],[15.53284,59.68658],[15.52454,59.67693],[15.52576,59.66945],[15.52671,59.666],[15.51254,59.65256],[15.51506,59.64233],[15.51637,59.64092],[15.52098,59.63355],[15.49369,59.63861],[15.4743,59.63947],[15.46226,59.63918],[15.44718,59.63998],[15.44284,59.64071],[15.43933,59.63877],[15.4371,59.63851],[15.43602,59.63717],[15.43693,59.63595],[15.43391,59.63566],[15.43168,59.63508],[15.43023,59.63533],[15.4298,59.63504],[15.42985,59.63456],[15.43084,59.63447],[15.43291,59.63332],[15.43269,59.63291],[15.43186,59.63277],[15.43048,59.63208],[15.42977,59.63205],[15.42864,59.63235],[15.42789,59.63218],[15.42621,59.63107],[15.42542,59.62992],[15.42509,59.62848],[15.42619,59.62601],[15.4252,59.62485],[15.42647,59.62303],[15.42589,59.62269],[15.42398,59.62281],[15.4232,59.62259],[15.42406,59.62156],[15.42379,59.62058],[15.42468,59.62028],[15.42426,59.61898],[15.43016,59.61713],[15.43099,59.61659],[15.43134,59.61489],[15.43006,59.61339],[15.42955,59.61315],[15.42842,59.61382],[15.42792,59.61297],[15.42746,59.61284],[15.42663,59.61309],[15.42572,59.61386],[15.42426,59.61332],[15.41923,59.61285],[15.41303,59.61703],[15.41053,59.61655],[15.40887,59.61551],[15.40967,59.61465],[15.40996,59.61143],[15.41284,59.61187],[15.41364,59.61169],[15.41525,59.61003],[15.41658,59.60936],[15.41701,59.60733],[15.41784,59.60638],[15.4184,59.60444],[15.41995,59.60299],[15.42078,59.60181],[15.42196,59.60107],[15.42244,59.60008],[15.42191,59.59824],[15.42236,59.59765],[15.42207,59.59743],[15.42154,59.59733],[15.42067,59.59748],[15.41843,59.59851],[15.4175,59.59865],[15.41684,59.59856],[15.41528,59.59773],[15.41428,59.59634],[15.41704,59.59332],[15.41615,59.59316],[15.41547,59.59149],[15.38679,59.59131],[15.38668,59.5969],[15.38317,59.61825],[15.38233,59.63498],[15.37148,59.64579],[15.36444,59.65554],[15.35932,59.66203],[15.34297,59.65759],[15.34261,59.65599],[15.32806,59.65012],[15.32804,59.6493],[15.32429,59.64615],[15.32166,59.64563],[15.31538,59.64855],[15.30462,59.63964],[15.30614,59.63866],[15.2953,59.63236],[15.29523,59.63211],[15.27636,59.62836],[15.27212,59.62844],[15.26651,59.62662],[15.25528,59.62992],[15.25385,59.62859],[15.25369,59.62704],[15.25267,59.62667],[15.24813,59.62639],[15.24734,59.62618],[15.24331,59.62795],[15.23757,59.62622],[15.23664,59.62637],[15.2319,59.62643],[15.22998,59.62598],[15.23036,59.62527],[15.22755,59.62088],[15.22652,59.62214],[15.225,59.62327],[15.22212,59.62454],[15.21962,59.62527],[15.21616,59.62571],[15.21242,59.62557],[15.21042,59.62426],[15.20933,59.62553],[15.20558,59.62869],[15.20513,59.6303],[15.20317,59.63065],[15.20246,59.63194],[15.2028,59.63419],[15.18327,59.66021],[15.15888,59.67279],[15.13999,59.65934],[15.13895,59.65888],[15.14145,59.65182],[15.14149,59.64773],[15.14032,59.64469],[15.13881,59.64327],[15.13571,59.64209],[15.13368,59.64184],[15.13325,59.6414],[15.13106,59.64359],[15.12803,59.64444],[15.12484,59.64125],[15.12278,59.64007],[15.12282,59.63915],[15.11374,59.63608],[15.10308,59.63298],[15.10111,59.63264],[15.09667,59.63283],[15.09562,59.6325],[15.09528,59.63195],[15.09439,59.63151],[15.09195,59.6314],[15.08435,59.62958],[15.08193,59.62766],[15.07715,59.63181],[15.06983,59.63752],[15.06474,59.63789],[15.0608,59.63854],[15.05587,59.63873],[15.04963,59.63986],[15.0484,59.63984],[15.04757,59.64196],[15.04459,59.64471],[15.04156,59.64465],[15.0413,59.64981],[15.04079,59.65063],[15.03801,59.65271],[15.03309,59.65851],[15.02953,59.66164],[15.01746,59.66119],[15.00327,59.66468],[14.99898,59.66643],[14.99444,59.66766],[14.9922,59.6689],[14.98786,59.67039],[14.97818,59.67541],[14.97256,59.68207],[14.96649,59.68415],[14.96275,59.68624],[14.96302,59.69065],[14.96129,59.69299],[14.96053,59.69467],[14.96101,59.69563],[14.95974,59.69867],[14.95944,59.701],[14.95997,59.70273],[14.94552,59.72194],[14.93815,59.72952],[14.93045,59.73865],[14.91149,59.74727],[14.9087,59.75469],[14.90764,59.76485],[14.9054,59.76809],[14.94146,59.77169],[14.97059,59.7743],[14.98689,59.77559],[15.0303,59.78022],[15.0531,59.78071],[15.0536,59.78012],[15.05479,59.78013],[15.05665,59.78049],[15.05793,59.77961],[15.06303,59.78092],[15.07092,59.78134],[15.09672,59.78765],[15.0969,59.78706],[15.0984,59.78689],[15.09801,59.78715],[15.09798,59.78792],[15.09738,59.78812],[15.09665,59.78912],[15.09658,59.78991],[15.09541,59.79091],[15.09482,59.79269],[15.09548,59.79663],[15.09603,59.79794],[15.0959,59.79997],[15.09518,59.80075],[15.09503,59.80168],[15.09253,59.80251],[15.09035,59.80353],[15.08461,59.80285],[15.08388,59.80624],[15.08321,59.80742],[15.08182,59.80863],[15.08495,59.80946],[15.08568,59.81027],[15.09331,59.81534],[15.0933,59.81723],[15.09564,59.81788],[15.09384,59.81833],[15.09262,59.8195],[15.09532,59.82111],[15.09518,59.82183],[15.09601,59.82302],[15.09607,59.82382],[15.09964,59.82616],[15.10314,59.82453],[15.10551,59.8227],[15.10794,59.82444],[15.11075,59.82594],[15.11218,59.82605],[15.11336,59.82541],[15.11487,59.82584],[15.11399,59.82665],[15.11378,59.8272],[15.11449,59.82779],[15.14213,59.83483],[15.14264,59.83491],[15.14359,59.83428],[15.1456,59.83417],[15.14647,59.83445],[15.14538,59.83631],[15.14559,59.83756],[15.1449,59.83766],[15.14324,59.83746],[15.14628,59.84379],[15.14698,59.84389],[15.14743,59.84471],[15.14704,59.84501],[15.14762,59.84514],[15.15889,59.8656],[15.16034,59.86635],[15.1609,59.86698],[15.16148,59.86867],[15.16153,59.87029],[15.16297,59.87054],[15.16304,59.87198],[15.16391,59.87214],[15.16414,59.87241],[15.16457,59.875],[15.16624,59.87779],[15.16797,59.87818],[15.16869,59.87855],[15.16884,59.8797],[15.16801,59.88068],[15.1768,59.89468],[15.18165,59.89447],[15.18242,59.89486],[15.18249,59.89526],[15.18174,59.89465],[15.18143,59.89522],[15.17865,59.89548],[15.177,59.89501],[15.19003,59.91516],[15.19131,59.91521],[15.19024,59.91601],[15.18924,59.91766],[15.18674,59.9197],[15.1865,59.92088],[15.18555,59.92164],[15.1863,59.92193],[15.19041,59.92082],[15.19045,59.92111],[15.19173,59.92188],[15.19436,59.92253],[15.20161,59.93487],[15.20043,59.9349],[15.19833,59.93541],[15.19634,59.93691],[15.19546,59.9386],[15.19503,59.93891],[15.19249,59.93777],[15.18884,59.94113],[15.19188,59.94247],[15.19094,59.94396],[15.19093,59.94602],[15.19067,59.94632],[15.19191,59.94648],[15.19325,59.94637],[15.19425,59.94574],[15.20585,59.94231],[15.21345,59.95522],[15.22843,59.97613],[15.24278,59.96661],[15.27985,59.94263]],[[15.12864,59.72755],[15.12661,59.72727],[15.12351,59.72752],[15.12061,59.72745],[15.11784,59.72703],[15.11574,59.72642],[15.11319,59.72516],[15.11177,59.72388],[15.11091,59.72225],[15.11106,59.72035],[15.10966,59.71912],[15.10686,59.71897],[15.10418,59.71845],[15.10091,59.71712],[15.09161,59.71551],[15.08756,59.71525],[15.0849,59.71464],[15.08214,59.71344],[15.08018,59.71174],[15.07765,59.71115],[15.07546,59.71025],[15.07414,59.70941],[15.07293,59.70821],[15.07019,59.70702],[15.06834,59.70547],[15.06757,59.70375],[15.06774,59.70231],[15.06879,59.70063],[15.07044,59.69934],[15.07255,59.69836],[15.07572,59.69756],[15.07854,59.69731],[15.08147,59.69744],[15.08181,59.69637],[15.08296,59.69486],[15.08333,59.69229],[15.08014,59.69122],[15.07662,59.689],[15.07531,59.68699],[15.07531,59.68457],[15.07661,59.68227],[15.07902,59.68054],[15.07917,59.67887],[15.08091,59.67621],[15.08329,59.67467],[15.08705,59.67349],[15.09141,59.6731],[15.09507,59.67344],[15.09934,59.67231],[15.10343,59.67207],[15.10611,59.67236],[15.108,59.67279],[15.11124,59.67419],[15.11265,59.67537],[15.11353,59.67712],[15.11491,59.67845],[15.11558,59.68058],[15.11684,59.68243],[15.12484,59.68752],[15.13114,59.6898],[15.1338,59.69655],[15.13221,59.7008],[15.14728,59.70323],[15.14821,59.70322],[15.15145,59.70223],[15.15482,59.70187],[15.16868,59.70273],[15.1735,59.70403],[15.17544,59.70512],[15.17679,59.70641],[15.17753,59.70871],[15.17706,59.71086],[15.17614,59.71243],[15.17516,59.71333],[15.17311,59.7145],[15.16932,59.71606],[15.16453,59.71937],[15.16346,59.72066],[15.16335,59.72193],[15.16257,59.72329],[15.1611,59.72453],[15.15912,59.72558],[15.15655,59.72644],[15.15309,59.72705],[15.14877,59.72712],[15.14464,59.72648],[15.13709,59.72668],[15.13289,59.72751],[15.12864,59.72755]]]}},{"type":"Feature","id":"1885R012","properties":{"code":"1885R012","name":"Storå tätort"},"geometry":{"type":"Polygon","coordinates":[[[15.13431,59.72731],[15.13709,59.72668],[15.14464,59.72648],[15.14877,59.72712],[15.15309,59.72705],[15.15655,59.72644],[15.15962,59.72534],[15.16151,59.72426],[15.16257,59.72329],[15.16335,59.72193],[15.16346,59.72066],[15.16453,59.71937],[15.16932,59.71606],[15.17311,59.7145],[15.17516,59.71333],[15.17614,59.71243],[15.17706,59.71086],[15.17753,59.70871],[15.17707,59.70682],[15.17654,59.70609],[15.17544,59.70512],[15.17297,59.70381],[15.16802,59.70265],[15.15482,59.70187],[15.15145,59.70223],[15.14821,59.70322],[15.14728,59.70323],[15.13221,59.7008],[15.1338,59.69655],[15.13114,59.6898],[15.12484,59.68752],[15.11684,59.68243],[15.11558,59.68058],[15.11491,59.67845],[15.11353,59.67712],[15.11265,59.67537],[15.1108,59.67392],[15.10736,59.67262],[15.10477,59.67217],[15.10271,59.67206],[15.0987,59.67242],[15.09507,59.67344],[15.09073,59.67311],[15.08643,59.67362],[15.08329,59.67467],[15.08175,59.67555],[15.0806,59.67652],[15.07916,59.67889],[15.07902,59.68054],[15.07733,59.68162],[15.07634,59.68258],[15.07525,59.68491],[15.07541,59.68733],[15.07662,59.689],[15.08014,59.69122],[15.08333,59.69229],[15.08296,59.69486],[15.08181,59.69637],[15.08147,59.69744],[15.07781,59.69734],[15.0744,59.69782],[15.07146,59.6988],[15.06947,59.7],[15.06826,59.70129],[15.06756,59.70302],[15.06774,59.70443],[15.06863,59.70581],[15.07064,59.70728],[15.07293,59.70821],[15.07414,59.70941],[15.07546,59.71025],[15.07765,59.71115],[15.08018,59.71174],[15.08214,59.71344],[15.08495,59.71466],[15.08756,59.71525],[15.09161,59.71551],[15.10091,59.71712],[15.10418,59.71845],[15.10686,59.71897],[15.10966,59.71912],[15.11106,59.72035],[15.11091,59.72225],[15.11204,59.7242],[15.11407,59.72568],[15.11646,59.72667],[15.11911,59.72727],[15.12196,59.72753],[15.12661,59.72727],[15.13077,59.72763],[15.13431,59.72731]]]}}]}