{"type":"FeatureCollection","features":[{"type":"Feature","id":"1904R001","properties":{"code":"1904R001","name":"Skinnskatteberg centralort"},"geometry":{"type":"Polygon","coordinates":[[[15.70888,59.84647],[15.70896,59.84511],[15.70717,59.84437],[15.71216,59.84117],[15.71361,59.83959],[15.71396,59.83752],[15.71305,59.83584],[15.71368,59.83316],[15.71541,59.83252],[15.71848,59.83092],[15.72049,59.82951],[15.72153,59.82787],[15.72249,59.82381],[15.72477,59.82256],[15.72591,59.82165],[15.72684,59.82031],[15.72709,59.81887],[15.7266,59.81744],[15.72533,59.81606],[15.72191,59.81403],[15.71948,59.81291],[15.71813,59.811],[15.71587,59.80948],[15.71293,59.80845],[15.70881,59.80764],[15.70593,59.80733],[15.70368,59.80728],[15.70082,59.80755],[15.69373,59.81226],[15.68871,59.81827],[15.68677,59.81884],[15.68519,59.81904],[15.68314,59.81876],[15.67044,59.81975],[15.66906,59.82053],[15.66593,59.82158],[15.66414,59.82267],[15.66316,59.82366],[15.66072,59.82732],[15.66042,59.82911],[15.66139,59.83122],[15.66576,59.8357],[15.67205,59.83958],[15.67407,59.8405],[15.67787,59.84156],[15.68075,59.84205],[15.68311,59.84223],[15.69029,59.84155],[15.69173,59.84002],[15.69801,59.84061],[15.70213,59.84044],[15.69735,59.84645],[15.70752,59.84659],[15.70888,59.84647]]]}},{"type":"Feature","id":"1904R002","properties":{"code":"1904R002","name":"Skinnskatteberg ytterområden"},"geometry":{"type":"Polygon","coordinates":[[[15.53123,59.95716],[15.60198,59.94806],[15.60315,59.94667],[15.60547,59.9449],[15.60647,59.94361],[15.60745,59.94285],[15.60927,59.94192],[15.61217,59.94086],[15.61466,59.93903],[15.61568,59.93794],[15.62183,59.93567],[15.62346,59.93414],[15.62559,59.9343],[15.62531,59.93527],[15.62589,59.93586],[15.65869,59.93937],[15.68175,59.93792],[15.70021,59.92029],[15.70381,59.91594],[15.70251,59.91574],[15.70089,59.91261],[15.70191,59.91204],[15.70234,59.91032],[15.70329,59.91028],[15.71537,59.90748],[15.71645,59.90759],[15.71664,59.90707],[15.72228,59.90527],[15.72867,59.90761],[15.73036,59.90856],[15.73052,59.90965],[15.7324,59.91065],[15.73507,59.91103],[15.74486,59.91169],[15.74451,59.91029],[15.7462,59.90548],[15.74846,59.90612],[15.75255,59.90588],[15.75358,59.90445],[15.75411,59.90448],[15.75677,59.90537],[15.75698,59.90633],[15.75793,59.90661],[15.75862,59.90746],[15.76087,59.90859],[15.76306,59.90805],[15.764,59.90758],[15.76601,59.90604],[15.76678,59.90509],[15.7662,59.90362],[15.76771,59.90134],[15.76889,59.90026],[15.76896,59.89962],[15.76871,59.89915],[15.76791,59.89887],[15.75963,59.89764],[15.76133,59.89672],[15.76208,59.89548],[15.76309,59.89515],[15.76452,59.89488],[15.76896,59.89503],[15.76576,59.89235],[15.76314,59.88505],[15.76458,59.88419],[15.77175,59.88102],[15.80672,59.8903],[15.81983,59.89221],[15.82037,59.8917],[15.86401,59.89507],[15.89359,59.87445],[15.92089,59.8548],[15.92234,59.85471],[15.92337,59.85487],[15.92404,59.85472],[15.92461,59.85389],[15.92527,59.8537],[15.92549,59.85339],[15.92911,59.85211],[15.92917,59.85194],[15.92986,59.85211],[15.93088,59.85206],[15.93227,59.85246],[15.9329,59.85295],[15.93498,59.85313],[15.93776,59.8538],[15.93807,59.85353],[15.93879,59.85351],[15.93934,59.85323],[15.94025,59.85241],[15.94032,59.85143],[15.93963,59.85041],[15.93979,59.85024],[15.94071,59.85028],[15.94147,59.85005],[15.94274,59.8484],[15.94293,59.84735],[15.9411,59.8468],[15.94545,59.83755],[15.95013,59.83301],[15.96365,59.82204],[15.97049,59.81548],[15.97916,59.80552],[15.98346,59.79299],[15.98986,59.77067],[15.99208,59.76261],[15.99333,59.75404],[15.99535,59.73675],[15.99675,59.72767],[15.99659,59.71322],[15.97344,59.69436],[15.97182,59.68564],[15.96486,59.66636],[15.9645,59.661],[15.95788,59.66032],[15.95046,59.66536],[15.93848,59.66345],[15.93794,59.66447],[15.93682,59.6651],[15.93687,59.66549],[15.93647,59.66552],[15.93645,59.66616],[15.93543,59.66652],[15.93536,59.6671],[15.93449,59.66749],[15.93443,59.66801],[15.90581,59.6689],[15.90035,59.66688],[15.8996,59.66638],[15.89518,59.66486],[15.89254,59.66425],[15.8914,59.66328],[15.86562,59.65364],[15.86538,59.64804],[15.86313,59.64474],[15.86325,59.64231],[15.85518,59.64152],[15.84752,59.64165],[15.84467,59.64186],[15.8409,59.6389],[15.837,59.63394],[15.82073,59.63167],[15.8198,59.63157],[15.8198,59.63175],[15.81804,59.63141],[15.81712,59.63157],[15.81569,59.63148],[15.8155,59.63119],[15.81506,59.63115],[15.81462,59.63156],[15.81551,59.63189],[15.81717,59.63322],[15.81704,59.63394],[15.81797,59.63513],[15.81713,59.6356],[15.81638,59.63645],[15.81627,59.6372],[15.81693,59.63844],[15.81689,59.63906],[15.8156,59.6411],[15.81549,59.64238],[15.81512,59.64283],[15.81285,59.64403],[15.81282,59.64431],[15.81342,59.64466],[15.81324,59.64504],[15.81216,59.64529],[15.81095,59.6453],[15.80873,59.64624],[15.80792,59.64639],[15.80698,59.64704],[15.80721,59.64783],[15.79248,59.64825],[15.77446,59.64814],[15.77182,59.64951],[15.77147,59.6495],[15.77015,59.65259],[15.77012,59.65332],[15.76932,59.65382],[15.76768,59.65432],[15.76655,59.65509],[15.76717,59.65626],[15.76758,59.65634],[15.76762,59.65793],[15.76578,59.65746],[15.7644,59.65794],[15.76312,59.66011],[15.76183,59.66088],[15.75962,59.66324],[15.75992,59.66333],[15.75999,59.66386],[15.76184,59.66459],[15.76337,59.6663],[15.76162,59.66715],[15.76135,59.66796],[15.76034,59.66879],[15.76008,59.66963],[15.75821,59.67113],[15.75736,59.67173],[15.75515,59.67241],[15.75431,59.67404],[15.75473,59.67474],[15.75444,59.67716],[15.75384,59.67749],[15.75308,59.67852],[15.75341,59.67863],[15.75296,59.67901],[15.75229,59.67888],[15.75115,59.67958],[15.75021,59.67953],[15.74995,59.67984],[15.75132,59.68076],[15.74996,59.68192],[15.75031,59.68248],[15.74936,59.68288],[15.74796,59.68276],[15.74596,59.68304],[15.74574,59.68335],[15.74435,59.68406],[15.74165,59.68471],[15.74095,59.68513],[15.74065,59.68516],[15.73807,59.6836],[15.72677,59.68559],[15.68028,59.68475],[15.68248,59.68095],[15.67521,59.67995],[15.66989,59.68172],[15.66689,59.68179],[15.66247,59.68283],[15.64682,59.68299],[15.64542,59.68373],[15.60717,59.69756],[15.55037,59.69917],[15.55165,59.70007],[15.55164,59.70054],[15.55112,59.70087],[15.55131,59.70103],[15.55065,59.70128],[15.55104,59.70158],[15.55048,59.70209],[15.55163,59.70271],[15.55168,59.70306],[15.54909,59.70231],[15.54506,59.7175],[15.55061,59.72112],[15.55397,59.72361],[15.55323,59.7259],[15.54873,59.72962],[15.53862,59.73931],[15.5268,59.75312],[15.5259,59.75337],[15.52571,59.75438],[15.526,59.75476],[15.52672,59.75548],[15.52807,59.75613],[15.52735,59.75696],[15.52759,59.75707],[15.52805,59.75678],[15.52858,59.75715],[15.52817,59.75806],[15.52845,59.75839],[15.52821,59.75907],[15.52915,59.7596],[15.52898,59.76016],[15.52981,59.76025],[15.52995,59.76042],[15.53097,59.76046],[15.53116,59.76064],[15.53077,59.76081],[15.53142,59.76089],[15.52161,59.76873],[15.51461,59.77677],[15.5124,59.77726],[15.5121,59.78751],[15.5054,59.79607],[15.44254,59.79574],[15.44247,59.79643],[15.4401,59.79782],[15.43767,59.79719],[15.43602,59.79569],[15.42588,59.79556],[15.42817,59.79696],[15.42866,59.79789],[15.42873,59.79881],[15.42687,59.7996],[15.43291,59.80408],[15.43436,59.80394],[15.43469,59.80488],[15.43521,59.80441],[15.43653,59.80444],[15.43813,59.80457],[15.4389,59.80506],[15.4397,59.8067],[15.43902,59.80853],[15.45611,59.82108],[15.44795,59.82444],[15.44787,59.83128],[15.45697,59.83531],[15.44108,59.84394],[15.44135,59.84437],[15.4407,59.8446],[15.44002,59.84457],[15.44044,59.84552],[15.44016,59.84662],[15.44076,59.84705],[15.44178,59.84906],[15.4412,59.85005],[15.44069,59.8499],[15.43787,59.84993],[15.43428,59.84926],[15.43378,59.84878],[15.43272,59.84911],[15.43135,59.84918],[15.42224,59.85415],[15.43624,59.86885],[15.43528,59.87063],[15.43596,59.8715],[15.43675,59.87162],[15.43852,59.87118],[15.46045,59.89466],[15.46249,59.89381],[15.4647,59.89369],[15.46565,59.89337],[15.46699,59.89349],[15.47603,59.89583],[15.47722,59.89648],[15.47696,59.89686],[15.47743,59.89706],[15.47866,59.89688],[15.47858,59.89652],[15.48,59.89643],[15.48063,59.89815],[15.48258,59.89936],[15.48308,59.89895],[15.48502,59.89873],[15.48661,59.89801],[15.48703,59.89797],[15.48779,59.89829],[15.48752,59.89972],[15.48896,59.90053],[15.48874,59.90135],[15.48943,59.9022],[15.48929,59.90255],[15.48622,59.90329],[15.48563,59.90309],[15.48505,59.90244],[15.48337,59.90268],[15.48325,59.90314],[15.48239,59.9035],[15.48052,59.90526],[15.48085,59.90583],[15.48217,59.90611],[15.48245,59.90657],[15.48189,59.90744],[15.48105,59.90804],[15.47999,59.90833],[15.47964,59.90879],[15.47865,59.9091],[15.47584,59.90945],[15.47346,59.9094],[15.47339,59.9097],[15.47486,59.91012],[15.47587,59.91064],[15.47797,59.91027],[15.47963,59.91033],[15.47938,59.91423],[15.49649,59.92688],[15.4994,59.92709],[15.50102,59.92802],[15.49929,59.93019],[15.49795,59.93137],[15.49686,59.93174],[15.49528,59.93304],[15.4939,59.93352],[15.49297,59.93604],[15.53123,59.95716]],[[15.69735,59.84645],[15.70213,59.84044],[15.69801,59.84061],[15.69173,59.84002],[15.69029,59.84155],[15.68311,59.84223],[15.6801,59.84197],[15.67603,59.84111],[15.67251,59.83983],[15.66576,59.8357],[15.66115,59.8309],[15.66049,59.82945],[15.66048,59.82799],[15.66344,59.82332],[15.66593,59.82158],[15.66906,59.82053],[15.67044,59.81975],[15.68314,59.81876],[15.68519,59.81904],[15.68677,59.81884],[15.68871,59.81827],[15.69373,59.81226],[15.70082,59.80755],[15.70368,59.80728],[15.70593,59.80733],[15.70881,59.80764],[15.71276,59.80841],[15.71468,59.80898],[15.71647,59.8098],[15.71843,59.81131],[15.71948,59.81291],[15.72403,59.81519],[15.72577,59.81644],[15.72693,59.81813],[15.72705,59.8196],[15.72646,59.82099],[15.72556,59.82197],[15.72249,59.82381],[15.72153,59.82787],[15.72049,59.82951],[15.71848,59.83092],[15.71541,59.83252],[15.71368,59.83316],[15.71305,59.83584],[15.71396,59.83752],[15.71361,59.83959],[15.71216,59.84117],[15.70717,59.84437],[15.70896,59.84511],[15.70888,59.84647],[15.70752,59.84659],[15.69735,59.84645]]]}}]}