{"type":"FeatureCollection","features":[{"type":"Feature","id":"1907R001","properties":{"code":"1907R001","name":"Bruket"},"geometry":{"type":"Polygon","coordinates":[[[16.21427,59.72869],[16.21577,59.72792],[16.21774,59.72741],[16.21933,59.72735],[16.22055,59.71672],[16.21989,59.71469],[16.22678,59.71484],[16.22868,59.71446],[16.228,59.71346],[16.22867,59.70846],[16.22099,59.70799],[16.22076,59.70837],[16.21925,59.70864],[16.22052,59.70019],[16.21784,59.69085],[16.21602,59.69286],[16.21363,59.69456],[16.21224,59.69608],[16.20462,59.69658],[16.19234,59.70187],[16.19103,59.70704],[16.19141,59.70873],[16.19282,59.71028],[16.1946,59.71131],[16.19681,59.71208],[16.20223,59.71516],[16.20274,59.71821],[16.2042,59.71984],[16.20708,59.72131],[16.21014,59.72203],[16.21106,59.7232],[16.21078,59.72498],[16.20903,59.72857],[16.21427,59.72869]]]}},{"type":"Feature","id":"1907R002","properties":{"code":"1907R002","name":"Dalskogen"},"geometry":{"type":"Polygon","coordinates":[[[16.23227,59.72762],[16.23565,59.72703],[16.24131,59.72508],[16.24318,59.72398],[16.24814,59.72019],[16.25016,59.7183],[16.25265,59.71532],[16.2531,59.71361],[16.2526,59.71178],[16.25376,59.7097],[16.24577,59.70898],[16.24068,59.7088],[16.24067,59.70893],[16.23993,59.7089],[16.23992,59.70866],[16.23712,59.70856],[16.23704,59.70874],[16.22867,59.70846],[16.228,59.71346],[16.22868,59.71446],[16.22678,59.71484],[16.21989,59.71469],[16.22055,59.71672],[16.21917,59.72854],[16.22425,59.72813],[16.22512,59.7283],[16.22587,59.72802],[16.22756,59.72801],[16.23157,59.72881],[16.23227,59.72762]]]}},{"type":"Feature","id":"1907R003","properties":{"code":"1907R003","name":"Ramnäs"},"geometry":{"type":"Polygon","coordinates":[[[16.18612,59.78542],[16.19201,59.7831],[16.19237,59.78467],[16.19465,59.78459],[16.19928,59.78377],[16.20468,59.78212],[16.2067,59.78108],[16.20819,59.77974],[16.2114,59.77849],[16.21316,59.77732],[16.21458,59.77546],[16.21498,59.77374],[16.21871,59.77104],[16.21953,59.77019],[16.22231,59.76899],[16.22364,59.76883],[16.22703,59.76801],[16.22919,59.76703],[16.23047,59.76611],[16.23159,59.76476],[16.23203,59.76317],[16.23151,59.76139],[16.2302,59.75997],[16.22716,59.75835],[16.22207,59.75703],[16.21637,59.75617],[16.21219,59.75491],[16.20964,59.7544],[16.2095,59.75494],[16.20605,59.75523],[16.20679,59.75926],[16.19905,59.76001],[16.18421,59.76101],[16.18507,59.7626],[16.18719,59.76423],[16.18593,59.76562],[16.18387,59.76607],[16.18111,59.76716],[16.17945,59.76836],[16.17608,59.77011],[16.17491,59.7714],[16.17014,59.77248],[16.16687,59.77387],[16.16512,59.77513],[16.1641,59.77648],[16.15784,59.7796],[16.16075,59.78016],[16.16152,59.78052],[16.16489,59.78405],[16.17215,59.78541],[16.17475,59.78504],[16.17672,59.78433],[16.18104,59.7837],[16.1819,59.78413],[16.18275,59.78599],[16.18353,59.78666],[16.18612,59.78542]]]}},{"type":"Feature","id":"1907R004","properties":{"code":"1907R004","name":"Skogslund"},"geometry":{"type":"Polygon","coordinates":[[[16.25484,59.70914],[16.25702,59.7072],[16.25772,59.70486],[16.24416,59.70455],[16.24407,59.70498],[16.24247,59.70497],[16.23086,59.70212],[16.22935,59.70197],[16.22783,59.70215],[16.22517,59.70282],[16.22421,59.7027],[16.22273,59.7032],[16.22017,59.70294],[16.21925,59.70864],[16.22076,59.70837],[16.22099,59.70799],[16.22867,59.70846],[16.23704,59.70874],[16.23712,59.70856],[16.23992,59.70866],[16.23993,59.7089],[16.24067,59.70893],[16.24068,59.7088],[16.24577,59.70898],[16.25376,59.7097],[16.25484,59.70914]]]}},{"type":"Feature","id":"1907R005","properties":{"code":"1907R005","name":"Stavtorpet"},"geometry":{"type":"Polygon","coordinates":[[[16.25772,59.70479],[16.2582,59.70126],[16.2588,59.70001],[16.25891,59.69888],[16.2584,59.69736],[16.25754,59.69632],[16.25676,59.69327],[16.25699,59.69014],[16.25592,59.68945],[16.2494,59.68677],[16.24243,59.68435],[16.23733,59.68481],[16.23257,59.68569],[16.22557,59.68731],[16.21994,59.68965],[16.218,59.69071],[16.22046,59.6995],[16.22017,59.70294],[16.22273,59.7032],[16.22421,59.7027],[16.22517,59.70282],[16.22783,59.70215],[16.22935,59.70197],[16.23086,59.70212],[16.24247,59.70497],[16.24407,59.70498],[16.24416,59.70455],[16.25772,59.70479]]]}},{"type":"Feature","id":"1907R006","properties":{"code":"1907R006","name":"Surahammars landsbygd"},"geometry":{"type":"Polygon","coordinates":[[[16.11254,59.9103],[16.11448,59.9103],[16.1152,59.90943],[16.10979,59.90718],[16.10987,59.90754],[16.10938,59.90772],[16.1076,59.90715],[16.10745,59.90622],[16.1045,59.90496],[16.1105,59.8964],[16.11535,59.89082],[16.12075,59.88737],[16.1223,59.88197],[16.15044,59.87383],[16.16404,59.86469],[16.20635,59.85144],[16.21541,59.8394],[16.21587,59.83253],[16.21564,59.8247],[16.21712,59.81652],[16.22174,59.81219],[16.22722,59.80823],[16.23331,59.80281],[16.2423,59.80172],[16.25477,59.79395],[16.26858,59.78154],[16.28257,59.77438],[16.2876,59.76554],[16.29272,59.76374],[16.28451,59.75239],[16.28091,59.7503],[16.2891,59.74559],[16.28715,59.73626],[16.28574,59.73409],[16.28981,59.73172],[16.29111,59.72737],[16.29791,59.7237],[16.29534,59.72133],[16.2952,59.72037],[16.29613,59.72011],[16.29502,59.71916],[16.2946,59.71661],[16.29638,59.71445],[16.29541,59.71423],[16.29485,59.71383],[16.29499,59.71221],[16.29444,59.71122],[16.30402,59.70384],[16.31077,59.70101],[16.28975,59.6952],[16.28095,59.69406],[16.278,59.68888],[16.27783,59.68817],[16.27939,59.68817],[16.27668,59.68136],[16.26991,59.67713],[16.26778,59.6772],[16.26838,59.67944],[16.26396,59.67992],[16.26366,59.6788],[16.25721,59.66697],[16.24556,59.66222],[16.231,59.66194],[16.2145,59.66035],[16.20079,59.66079],[16.19957,59.66101],[16.19788,59.66063],[16.19218,59.66033],[16.19208,59.65957],[16.18542,59.65764],[16.18543,59.65998],[16.18615,59.66053],[16.18577,59.66055],[16.18645,59.66168],[16.18786,59.66157],[16.18879,59.66189],[16.18876,59.66266],[16.18815,59.66315],[16.18346,59.66389],[16.1834,59.66365],[16.18289,59.6636],[16.18403,59.66309],[16.1848,59.66221],[16.18394,59.6611],[16.17989,59.65959],[16.17754,59.66004],[16.1766,59.66139],[16.17712,59.66292],[16.17141,59.66174],[16.17104,59.66283],[16.16982,59.66413],[16.16881,59.66384],[16.16845,59.66303],[16.16939,59.66292],[16.16895,59.66283],[16.16717,59.66328],[16.16595,59.664],[16.16361,59.66422],[16.16198,59.66398],[16.16056,59.66228],[16.15465,59.66446],[16.14851,59.66291],[16.1432,59.66189],[16.13604,59.6596],[16.13367,59.66233],[16.12311,59.66052],[16.12314,59.65709],[16.11316,59.6566],[16.11267,59.65475],[16.1101,59.65463],[16.02814,59.66041],[16.02417,59.66415],[16.01078,59.67157],[15.99659,59.71322],[15.99675,59.72767],[15.99208,59.76261],[15.98346,59.79299],[15.97916,59.80552],[15.97049,59.81548],[15.96365,59.82204],[15.95013,59.83301],[15.94545,59.83755],[15.9411,59.8468],[15.94293,59.84735],[15.94274,59.8484],[15.94147,59.85005],[15.95188,59.85147],[15.95973,59.85208],[15.97639,59.86014],[15.98606,59.86236],[16.00364,59.86213],[16.018,59.8691],[16.02367,59.87065],[16.02542,59.87233],[16.02953,59.86941],[16.03198,59.86374],[16.03353,59.85874],[16.03734,59.85627],[16.04075,59.85577],[16.04487,59.85585],[16.04509,59.85639],[16.04613,59.85691],[16.0472,59.85696],[16.04794,59.85788],[16.05236,59.85996],[16.06131,59.86622],[16.06538,59.86735],[16.06485,59.86899],[16.07224,59.87378],[16.07054,59.87681],[16.07265,59.87782],[16.07142,59.87949],[16.07166,59.8801],[16.0726,59.88008],[16.07245,59.88081],[16.07003,59.88182],[16.06824,59.88228],[16.06622,59.8825],[16.06316,59.8825],[16.0613,59.88225],[16.05719,59.88302],[16.05504,59.88308],[16.05198,59.88288],[16.04964,59.88336],[16.04742,59.88356],[16.04511,59.88355],[16.04227,59.88322],[16.04025,59.88273],[16.03794,59.8818],[16.03586,59.88034],[16.03504,59.88032],[16.0362,59.88264],[16.04028,59.88664],[16.04748,59.89245],[16.05192,59.89575],[16.05422,59.89707],[16.05883,59.89728],[16.06291,59.89828],[16.06772,59.89815],[16.07315,59.89982],[16.0949,59.90966],[16.11154,59.91025],[16.11195,59.91054],[16.11254,59.9103]],[[16.18353,59.78666],[16.18275,59.78599],[16.1819,59.78413],[16.18104,59.7837],[16.17672,59.78433],[16.17475,59.78504],[16.17215,59.78541],[16.16489,59.78405],[16.16152,59.78052],[16.16075,59.78016],[16.15784,59.7796],[16.1641,59.77648],[16.16512,59.77513],[16.16687,59.77387],[16.17014,59.77248],[16.17491,59.7714],[16.17608,59.77011],[16.17945,59.76836],[16.18111,59.76716],[16.18387,59.76607],[16.18593,59.76562],[16.18719,59.76423],[16.18507,59.7626],[16.18421,59.76101],[16.19905,59.76001],[16.20679,59.75926],[16.20605,59.75523],[16.2095,59.75494],[16.20964,59.7544],[16.21219,59.75491],[16.21637,59.75617],[16.22207,59.75703],[16.22716,59.75835],[16.22983,59.75969],[16.23151,59.76139],[16.23203,59.76317],[16.23159,59.76476],[16.23047,59.76611],[16.22823,59.76752],[16.22703,59.76801],[16.22364,59.76883],[16.22231,59.76899],[16.21953,59.77019],[16.21871,59.77104],[16.21498,59.77374],[16.21458,59.77546],[16.21386,59.77662],[16.2114,59.77849],[16.20819,59.77974],[16.2067,59.78108],[16.20468,59.78212],[16.19928,59.78377],[16.19541,59.78451],[16.19237,59.78467],[16.19201,59.7831],[16.18612,59.78542],[16.18353,59.78666]],[[16.22756,59.72801],[16.22587,59.72802],[16.22512,59.7283],[16.22425,59.72813],[16.21917,59.72854],[16.21933,59.72735],[16.2184,59.72734],[16.21577,59.72792],[16.21406,59.72876],[16.20903,59.72857],[16.21078,59.72498],[16.21106,59.7232],[16.21014,59.72203],[16.20766,59.72149],[16.20602,59.72088],[16.20385,59.71955],[16.20274,59.71821],[16.20223,59.71516],[16.19681,59.71208],[16.19364,59.71083],[16.19186,59.70938],[16.19113,59.70806],[16.19103,59.70704],[16.19215,59.7023],[16.19234,59.70187],[16.20462,59.69658],[16.21224,59.69608],[16.21363,59.69456],[16.21602,59.69286],[16.218,59.69071],[16.21994,59.68965],[16.22557,59.68731],[16.23528,59.68512],[16.24243,59.68435],[16.2494,59.68677],[16.25592,59.68945],[16.25699,59.69014],[16.25676,59.69327],[16.25754,59.69632],[16.2584,59.69736],[16.25891,59.69888],[16.2588,59.70001],[16.2582,59.70126],[16.25753,59.7061],[16.25671,59.70761],[16.25526,59.70888],[16.25364,59.70975],[16.25296,59.7109],[16.2526,59.71178],[16.25303,59.71282],[16.25303,59.71421],[16.25214,59.71606],[16.24814,59.72019],[16.24318,59.72398],[16.24131,59.72508],[16.23709,59.72659],[16.23565,59.72703],[16.23227,59.72762],[16.23157,59.72881],[16.22756,59.72801]]]}},{"type":"Feature","id":"1907R007","properties":{"code":"1907R007","name":"Virsbo"},"geometry":{"type":"Polygon","coordinates":[[[16.04964,59.88336],[16.05198,59.88288],[16.05504,59.88308],[16.05719,59.88302],[16.0613,59.88225],[16.06316,59.8825],[16.06622,59.8825],[16.06824,59.88228],[16.07079,59.88158],[16.07245,59.88081],[16.07263,59.88039],[16.0726,59.88008],[16.07166,59.8801],[16.07142,59.87949],[16.07265,59.87782],[16.07054,59.87681],[16.07224,59.87378],[16.06485,59.86899],[16.06538,59.86735],[16.06131,59.86622],[16.05236,59.85996],[16.04794,59.85788],[16.0472,59.85696],[16.04613,59.85691],[16.04509,59.85639],[16.04487,59.85585],[16.04075,59.85577],[16.03734,59.85627],[16.03353,59.85874],[16.03198,59.86374],[16.02953,59.86941],[16.02542,59.87233],[16.02873,59.8755],[16.03307,59.87612],[16.03504,59.88032],[16.03586,59.88034],[16.03861,59.88212],[16.04227,59.88322],[16.04511,59.88355],[16.04742,59.88356],[16.04964,59.88336]]]}}]}