{"type":"FeatureCollection","features":[{"type":"Feature","id":"1960R001","properties":{"code":"1960R001","name":"Granhammar-Torpa"},"geometry":{"type":"Polygon","coordinates":[[[16.22821,59.46166],[16.22791,59.45493],[16.24325,59.45714],[16.25426,59.45246],[16.24881,59.44021],[16.24755,59.42622],[16.24846,59.42219],[16.24696,59.42079],[16.24514,59.41565],[16.24898,59.41187],[16.24968,59.40954],[16.25351,59.40996],[16.25859,59.40846],[16.26078,59.40868],[16.26098,59.40898],[16.26179,59.40902],[16.26251,59.40938],[16.27018,59.40598],[16.29072,59.39898],[16.30668,59.39939],[16.30658,59.39918],[16.29958,59.39757],[16.28417,59.3948],[16.2802,59.39319],[16.27785,59.38935],[16.27365,59.38853],[16.27263,59.3813],[16.2729,59.37634],[16.27051,59.36775],[16.26904,59.36512],[16.26648,59.36195],[16.26163,59.36187],[16.25156,59.36097],[16.23561,59.35997],[16.2225,59.36117],[16.21033,59.35996],[16.20201,59.35819],[16.19569,59.35454],[16.18519,59.35218],[16.18525,59.35204],[16.18116,59.35204],[16.17867,59.35225],[16.17768,59.3525],[16.17636,59.3525],[16.17598,59.35213],[16.17605,59.35097],[16.17509,59.34996],[16.17101,59.34905],[16.16975,59.35029],[16.16534,59.34975],[16.1655,59.34931],[16.16046,59.34771],[16.15978,59.34659],[16.15893,59.34631],[16.15792,59.34624],[16.15703,59.34632],[16.15484,59.3472],[16.15259,59.34765],[16.15181,59.34741],[16.14892,59.34755],[16.14611,59.34715],[16.14371,59.34744],[16.14213,59.34839],[16.14169,59.3484],[16.13513,59.34778],[16.1209,59.35001],[16.10343,59.35054],[16.07232,59.35197],[16.05923,59.35818],[16.06279,59.3595],[16.0623,59.36049],[16.0494,59.36422],[16.04664,59.3639],[16.03513,59.36926],[16.0187,59.36496],[16.02002,59.36418],[16.01924,59.36374],[16.01781,59.36388],[16.01566,59.36371],[16.0147,59.36391],[15.99644,59.35954],[15.99504,59.36045],[15.99344,59.36197],[15.99333,59.36384],[15.99271,59.36482],[15.99402,59.36574],[15.99445,59.36794],[15.99725,59.3676],[15.9783,59.3954],[15.97549,59.39525],[15.96764,59.40252],[15.96521,59.4024],[15.96227,59.40391],[15.9629,59.40507],[15.96045,59.40985],[15.96171,59.41006],[15.96448,59.40979],[15.9658,59.40991],[15.96894,59.41071],[15.96846,59.41149],[15.97872,59.41139],[15.98388,59.41193],[15.98621,59.41262],[15.99292,59.41576],[15.99579,59.41674],[15.99901,59.41739],[16.00222,59.41739],[16.01115,59.41617],[16.01555,59.41617],[16.01748,59.41657],[16.02494,59.41941],[16.03338,59.422],[16.03694,59.42358],[16.03822,59.42371],[16.04371,59.42355],[16.0466,59.42316],[16.05062,59.42196],[16.05471,59.42142],[16.062,59.42252],[16.06104,59.42122],[16.05927,59.41967],[16.0585,59.41828],[16.05846,59.41683],[16.05912,59.41545],[16.06091,59.41388],[16.06321,59.41267],[16.06491,59.41207],[16.06967,59.40912],[16.06876,59.40862],[16.06933,59.40848],[16.0685,59.40753],[16.07112,59.40721],[16.07159,59.40585],[16.07271,59.40459],[16.07398,59.40374],[16.07611,59.40283],[16.0799,59.40206],[16.08194,59.40196],[16.08463,59.40209],[16.08727,59.40161],[16.09028,59.40131],[16.09399,59.40151],[16.09589,59.40186],[16.09864,59.40278],[16.1013,59.40288],[16.10342,59.40319],[16.10711,59.4044],[16.10879,59.4054],[16.10996,59.40646],[16.11412,59.40717],[16.11714,59.40808],[16.1191,59.40916],[16.1211,59.41097],[16.12548,59.41174],[16.1381,59.41325],[16.14316,59.41411],[16.15804,59.41742],[16.16255,59.41811],[16.16233,59.41886],[16.16178,59.41917],[16.15728,59.41993],[16.1581,59.42252],[16.15724,59.42462],[16.15779,59.42835],[16.15905,59.42986],[16.15882,59.4313],[16.16653,59.45094],[16.19213,59.45094],[16.20573,59.4547],[16.218,59.46013],[16.22186,59.46261],[16.22695,59.46731],[16.22821,59.46166]]]}},{"type":"Feature","id":"1960R002","properties":{"code":"1960R002","name":"Kungsör centrala"},"geometry":{"type":"Polygon","coordinates":[[[16.08985,59.42695],[16.09051,59.42612],[16.09349,59.42573],[16.09887,59.42626],[16.09893,59.42557],[16.09952,59.42558],[16.09977,59.42471],[16.10048,59.42475],[16.10066,59.42397],[16.10361,59.4221],[16.10421,59.41938],[16.10255,59.41918],[16.10304,59.41834],[16.09673,59.41815],[16.0965,59.41937],[16.09468,59.41954],[16.09457,59.41989],[16.09104,59.42032],[16.0906,59.42036],[16.09034,59.42009],[16.08814,59.42065],[16.08568,59.42231],[16.08615,59.42247],[16.08543,59.4233],[16.08391,59.42387],[16.08215,59.42356],[16.08132,59.42486],[16.08286,59.42492],[16.08985,59.42695]]]}},{"type":"Feature","id":"1960R003","properties":{"code":"1960R003","name":"Kungsör norra"},"geometry":{"type":"Polygon","coordinates":[[[16.15015,59.44094],[16.15743,59.43499],[16.15919,59.43225],[16.15882,59.4313],[16.15905,59.42986],[16.15779,59.42835],[16.15724,59.42462],[16.15799,59.42322],[16.15808,59.42217],[16.15728,59.41993],[16.1235,59.42513],[16.12199,59.42264],[16.12112,59.42193],[16.11965,59.42124],[16.11712,59.42072],[16.11002,59.42018],[16.10658,59.4194],[16.10421,59.41938],[16.10357,59.42216],[16.10066,59.42397],[16.10048,59.42475],[16.09977,59.42471],[16.09952,59.42558],[16.09893,59.42557],[16.09887,59.42626],[16.09349,59.42573],[16.09051,59.42612],[16.08985,59.42695],[16.08286,59.42492],[16.07874,59.42465],[16.07125,59.42351],[16.06876,59.42292],[16.062,59.42252],[16.06518,59.42454],[16.06894,59.42618],[16.07383,59.43331],[16.074,59.43506],[16.07522,59.43668],[16.07893,59.43889],[16.08206,59.43993],[16.08569,59.4404],[16.08712,59.44042],[16.09143,59.43994],[16.09279,59.43958],[16.11361,59.43929],[16.12409,59.43873],[16.13998,59.44158],[16.15015,59.44094]]]}},{"type":"Feature","id":"1960R004","properties":{"code":"1960R004","name":"Kungsör södra"},"geometry":{"type":"Polygon","coordinates":[[[16.1235,59.42513],[16.15949,59.41962],[16.16178,59.41917],[16.16233,59.41886],[16.16255,59.41811],[16.15804,59.41742],[16.14316,59.41411],[16.1381,59.41325],[16.12548,59.41174],[16.1211,59.41097],[16.11948,59.40944],[16.11768,59.40832],[16.11544,59.40748],[16.10996,59.40646],[16.10815,59.40497],[16.10538,59.40371],[16.10195,59.40296],[16.09864,59.40278],[16.09464,59.40161],[16.09028,59.40131],[16.08727,59.40161],[16.08463,59.40209],[16.08194,59.40196],[16.07921,59.40214],[16.07669,59.40266],[16.07449,59.40348],[16.07208,59.40519],[16.07112,59.40721],[16.0685,59.40753],[16.06933,59.40848],[16.06876,59.40862],[16.06967,59.40912],[16.06491,59.41207],[16.06321,59.41267],[16.06091,59.41388],[16.0597,59.4148],[16.0587,59.41613],[16.0585,59.41828],[16.05927,59.41967],[16.06104,59.42122],[16.062,59.42252],[16.06876,59.42292],[16.07125,59.42351],[16.07874,59.42465],[16.08132,59.42486],[16.08215,59.42356],[16.08391,59.42387],[16.08543,59.4233],[16.08615,59.42247],[16.08568,59.42231],[16.08814,59.42065],[16.09034,59.42009],[16.0906,59.42036],[16.09104,59.42032],[16.09457,59.41989],[16.09468,59.41954],[16.0965,59.41937],[16.09673,59.41815],[16.10304,59.41834],[16.10255,59.41918],[16.10421,59.41938],[16.10658,59.4194],[16.11002,59.42018],[16.11868,59.42096],[16.12006,59.42139],[16.12157,59.42224],[16.1235,59.42513]]]}},{"type":"Feature","id":"1960R005","properties":{"code":"1960R005","name":"Valskog-Kungs Barkarö"},"geometry":{"type":"Polygon","coordinates":[[[15.93585,59.49054],[15.93901,59.48985],[15.93986,59.48932],[15.93897,59.48855],[15.93928,59.4864],[15.93764,59.48523],[15.93684,59.48377],[15.93717,59.48219],[15.93811,59.4815],[15.93868,59.48045],[15.93963,59.48017],[15.94264,59.47993],[15.94344,59.47934],[15.94447,59.47935],[15.94597,59.47838],[15.94831,59.47762],[15.95129,59.47439],[15.95484,59.47155],[15.95761,59.4704],[15.95914,59.47049],[15.96055,59.46952],[15.9622,59.4689],[15.96385,59.46894],[15.96554,59.46957],[15.9656,59.47003],[15.9666,59.47097],[15.96947,59.47229],[15.96963,59.47292],[15.97102,59.47342],[15.97207,59.47437],[15.97492,59.47514],[15.9759,59.47472],[15.97669,59.47488],[15.9776,59.47554],[15.97761,59.47643],[15.97986,59.4769],[15.98082,59.47697],[15.98246,59.4763],[15.98406,59.47607],[15.98605,59.47671],[15.98845,59.47662],[15.98916,59.47675],[15.9908,59.47712],[15.99227,59.47776],[15.9939,59.47779],[15.99536,59.47722],[15.99673,59.47719],[15.99973,59.47774],[16.00393,59.4793],[16.00535,59.47958],[16.00781,59.47915],[16.01082,59.47806],[16.01173,59.4779],[16.01487,59.47805],[16.01667,59.47741],[16.0187,59.47725],[16.02041,59.47687],[16.02498,59.47709],[16.03003,59.4782],[16.03181,59.47821],[16.03618,59.47715],[16.03811,59.47694],[16.0406,59.47622],[16.04309,59.47578],[16.04523,59.47508],[16.04661,59.47417],[16.05109,59.47301],[16.05246,59.47218],[16.05463,59.4714],[16.05548,59.47078],[16.0563,59.47062],[16.06203,59.47024],[16.06865,59.46938],[16.06972,59.46952],[16.07066,59.46996],[16.07073,59.4711],[16.08442,59.47191],[16.10794,59.45924],[16.11304,59.45897],[16.12944,59.45869],[16.16653,59.45094],[16.15919,59.43225],[16.15743,59.43499],[16.15015,59.44094],[16.13998,59.44158],[16.12409,59.43873],[16.11361,59.43929],[16.09279,59.43958],[16.09143,59.43994],[16.08779,59.4404],[16.08569,59.4404],[16.08206,59.43993],[16.08013,59.43938],[16.07893,59.43889],[16.07522,59.43668],[16.074,59.43506],[16.07383,59.43331],[16.06894,59.42618],[16.06518,59.42454],[16.062,59.42252],[16.05471,59.42142],[16.05062,59.42196],[16.04745,59.42297],[16.04526,59.42341],[16.0373,59.42365],[16.03617,59.42332],[16.03338,59.422],[16.02494,59.41941],[16.02092,59.41778],[16.01632,59.4163],[16.014,59.41607],[16.01223,59.41609],[16.00829,59.41645],[16.00222,59.41739],[15.99901,59.41739],[15.99579,59.41674],[15.99292,59.41576],[15.98621,59.41262],[15.98388,59.41193],[15.97872,59.41139],[15.96921,59.41153],[15.96469,59.41065],[15.96165,59.41076],[15.9543,59.41024],[15.94789,59.40896],[15.94182,59.40687],[15.93662,59.40534],[15.93135,59.40437],[15.92944,59.40582],[15.92744,59.40782],[15.92599,59.41131],[15.92485,59.41302],[15.92872,59.41362],[15.92818,59.41486],[15.92612,59.41758],[15.9239,59.41804],[15.92089,59.41948],[15.91789,59.41902],[15.91587,59.4189],[15.91605,59.41916],[15.91582,59.4193],[15.90436,59.4216],[15.89859,59.42128],[15.89618,59.42201],[15.89365,59.4221],[15.8924,59.42234],[15.89053,59.42184],[15.88987,59.42184],[15.88903,59.42325],[15.88713,59.42417],[15.88566,59.42451],[15.88462,59.42588],[15.883,59.42718],[15.88156,59.42769],[15.88086,59.42868],[15.8791,59.42929],[15.87879,59.42986],[15.87817,59.43014],[15.87857,59.43068],[15.8781,59.43128],[15.8795,59.43166],[15.88037,59.43332],[15.88018,59.43417],[15.87917,59.43503],[15.8811,59.43568],[15.87973,59.43619],[15.88018,59.43701],[15.87908,59.43779],[15.87906,59.4384],[15.87739,59.43949],[15.87754,59.43995],[15.87651,59.44027],[15.87602,59.44085],[15.87612,59.44215],[15.87507,59.44296],[15.87512,59.44408],[15.87338,59.44461],[15.87313,59.44527],[15.87145,59.44627],[15.87167,59.44736],[15.87017,59.45004],[15.86776,59.45792],[15.87061,59.45914],[15.87404,59.45985],[15.88324,59.46108],[15.89458,59.46428],[15.89926,59.46509],[15.90101,59.46874],[15.90452,59.47383],[15.90667,59.47456],[15.907,59.47459],[15.90757,59.47331],[15.9088,59.47364],[15.90911,59.47336],[15.90949,59.47336],[15.91161,59.47078],[15.90959,59.4701],[15.91094,59.4687],[15.91285,59.46962],[15.91549,59.46768],[15.91932,59.4692],[15.92271,59.47111],[15.92512,59.47214],[15.92819,59.47251],[15.9281,59.47293],[15.92891,59.47414],[15.932,59.47498],[15.93077,59.47645],[15.93019,59.47665],[15.92906,59.47651],[15.92805,59.47724],[15.92606,59.47942],[15.9257,59.48041],[15.92593,59.48041],[15.92594,59.48121],[15.92707,59.48111],[15.92615,59.48328],[15.92677,59.48215],[15.92747,59.48227],[15.92699,59.48335],[15.93124,59.48368],[15.93069,59.48386],[15.93349,59.48446],[15.93221,59.48545],[15.93154,59.48983],[15.93371,59.49006],[15.93465,59.49048],[15.93585,59.49054]]]}}]}