{"type":"FeatureCollection","features":[{"type":"Feature","id":"1962R004","properties":{"code":"1962R004","name":"Norberg östra"},"geometry":{"type":"Polygon","coordinates":[[[15.97286,60.0809],[15.97351,60.0782],[15.97459,60.07619],[15.97412,60.07402],[15.97224,60.07224],[15.97173,60.07072],[15.97014,60.06912],[15.96763,60.06784],[15.96561,60.06716],[15.96327,60.06664],[15.96283,60.06626],[15.96287,60.06422],[15.96127,60.0615],[15.95966,60.05989],[15.95756,60.05876],[15.95737,60.05654],[15.95693,60.05546],[15.95575,60.05417],[15.95441,60.0533],[15.95367,60.05133],[15.95185,60.04974],[15.94919,60.04855],[15.94593,60.04782],[15.93582,60.04743],[15.93224,60.04771],[15.92582,60.04945],[15.92486,60.04933],[15.92983,60.05163],[15.92987,60.052],[15.92866,60.05301],[15.92982,60.05381],[15.92883,60.05467],[15.92635,60.05493],[15.92516,60.05538],[15.92528,60.05598],[15.92497,60.05643],[15.92631,60.0569],[15.92532,60.05761],[15.92574,60.05813],[15.92461,60.0592],[15.92479,60.06024],[15.92439,60.06048],[15.92314,60.06051],[15.92289,60.06101],[15.92326,60.06169],[15.92587,60.06216],[15.92371,60.06465],[15.92323,60.06661],[15.92563,60.06744],[15.92622,60.06748],[15.92774,60.06855],[15.92889,60.06876],[15.93523,60.07171],[15.93625,60.07272],[15.93679,60.07445],[15.94015,60.07397],[15.94273,60.07389],[15.94744,60.07461],[15.94885,60.07467],[15.95427,60.07438],[15.9634,60.07498],[15.96699,60.07999],[15.96738,60.0802],[15.97187,60.08053],[15.97286,60.0809]]]}},{"type":"Feature","id":"1962R001","properties":{"code":"1962R001","name":"Norberg norra"},"geometry":{"type":"Polygon","coordinates":[[[15.91968,60.11793],[15.92186,60.11772],[15.92447,60.11715],[15.92839,60.11602],[15.93099,60.11479],[15.93269,60.11322],[15.93333,60.11142],[15.93487,60.1106],[15.93632,60.10935],[15.93696,60.10832],[15.9372,60.10719],[15.93798,60.10664],[15.94107,60.10553],[15.9431,60.10413],[15.94653,60.10332],[15.94916,60.10207],[15.95101,60.10036],[15.95176,60.09806],[15.95382,60.09677],[15.95619,60.09422],[15.9594,60.09295],[15.96115,60.0918],[15.96255,60.08979],[15.96263,60.08802],[15.96221,60.08674],[15.96292,60.08586],[15.96605,60.08499],[15.96988,60.0833],[15.97193,60.08192],[15.97286,60.0809],[15.97187,60.08053],[15.96738,60.0802],[15.96699,60.07999],[15.9634,60.07498],[15.95427,60.07438],[15.94885,60.07467],[15.94744,60.07461],[15.94273,60.07389],[15.94015,60.07397],[15.93446,60.07471],[15.93207,60.07467],[15.9287,60.07433],[15.92705,60.07405],[15.92484,60.07335],[15.9176,60.07061],[15.91612,60.06933],[15.91561,60.06814],[15.91036,60.06782],[15.90991,60.0744],[15.91183,60.07493],[15.91375,60.0759],[15.91589,60.07657],[15.91575,60.07799],[15.91613,60.0791],[15.91693,60.08015],[15.91834,60.0813],[15.9178,60.08444],[15.91825,60.08583],[15.91958,60.08746],[15.91966,60.09056],[15.9186,60.09236],[15.91876,60.09407],[15.91814,60.09521],[15.91646,60.0971],[15.91614,60.09877],[15.91335,60.10155],[15.91254,60.10271],[15.91027,60.10453],[15.9081,60.10908],[15.90697,60.11051],[15.90669,60.11229],[15.90784,60.11436],[15.90958,60.1157],[15.91105,60.1165],[15.91474,60.11761],[15.91683,60.11788],[15.91968,60.11793]]]}},{"type":"Feature","id":"1962R002","properties":{"code":"1962R002","name":"Norberg omland"},"geometry":{"type":"Polygon","coordinates":[[[15.97012,60.18657],[15.97085,60.18601],[15.97278,60.18544],[15.97402,60.18577],[15.97396,60.1862],[15.98469,60.18502],[15.99808,60.18554],[16.00394,60.18424],[16.0024,60.18295],[16.00259,60.18253],[16.00485,60.18213],[16.00506,60.18322],[16.00567,60.18388],[16.01691,60.18145],[16.02395,60.18215],[16.02911,60.17428],[16.03363,60.17057],[16.03823,60.16417],[16.04322,60.16123],[16.04634,60.15396],[16.05188,60.14861],[16.05701,60.14706],[16.07129,60.14597],[16.07762,60.14499],[16.09682,60.14295],[16.11613,60.14153],[16.13221,60.13863],[16.16387,60.1203],[16.16035,60.11601],[16.16117,60.11263],[16.1418,60.0925],[16.15079,60.09029],[16.15992,60.08887],[16.18152,60.08449],[16.18694,60.06681],[16.18726,60.06683],[16.18802,60.06753],[16.18748,60.06785],[16.18903,60.06959],[16.19163,60.06884],[16.19218,60.06841],[16.19225,60.06737],[16.19107,60.06734],[16.19098,60.0669],[16.19001,60.06673],[16.18935,60.0661],[16.18963,60.06581],[16.18911,60.06521],[16.1875,60.06462],[16.18629,60.06317],[16.18903,60.0628],[16.19091,60.06302],[16.19229,60.06017],[16.18874,60.05943],[16.19083,60.05185],[16.1917,60.05097],[16.19121,60.05049],[16.19489,60.03697],[16.19785,60.03532],[16.19657,60.02931],[16.1955,60.02935],[16.19305,60.03008],[16.19048,60.02951],[16.18924,60.02898],[16.18779,60.02876],[16.18762,60.02917],[16.18607,60.02977],[16.1857,60.03145],[16.18499,60.03225],[16.18517,60.03292],[16.18461,60.03342],[16.18263,60.03287],[16.18228,60.03375],[16.18158,60.03382],[16.18089,60.03461],[16.17975,60.03483],[16.17875,60.03459],[16.17961,60.03567],[16.17843,60.03556],[16.17796,60.03585],[16.17711,60.03601],[16.17632,60.03513],[16.17653,60.03483],[16.17757,60.03463],[16.17704,60.03358],[16.17715,60.03315],[16.1794,60.03039],[16.18042,60.02947],[16.18405,60.02792],[16.18256,60.02735],[16.18231,60.02642],[16.18406,60.02397],[16.18438,60.02265],[16.18565,60.02051],[16.18721,60.01876],[16.18739,60.01745],[16.18086,60.01984],[16.18859,60.00814],[16.18913,60.00448],[16.19176,60.00098],[16.19745,59.99547],[16.20625,59.99186],[16.17167,59.99001],[16.16253,59.99095],[16.15294,59.99047],[16.14532,59.99077],[16.1481,59.98735],[16.14881,59.9838],[16.14838,59.98353],[16.14896,59.98323],[16.14919,59.9821],[16.14482,59.97495],[16.14312,59.97363],[16.14296,59.97314],[16.14342,59.97273],[16.14218,59.97144],[16.14271,59.97064],[16.14188,59.97043],[16.14795,59.96654],[16.15557,59.96481],[16.1631,59.96058],[16.14354,59.94979],[16.13061,59.94931],[16.121,59.94183],[16.09242,59.93666],[16.07292,59.95982],[16.07548,59.96031],[16.06624,59.97265],[16.05978,59.98528],[16.0593,59.98546],[16.05845,59.98685],[16.05476,59.99083],[16.05068,59.99237],[16.0462,59.99143],[16.03659,59.99084],[16.02244,59.98473],[16.01641,59.98476],[16.01587,59.98421],[16.0141,59.98352],[16.00959,59.98363],[16.0074,59.98408],[16.00556,59.9838],[16.0052,59.98358],[16.00423,59.98363],[16.00315,59.985],[16.00217,59.98523],[15.99944,59.9849],[15.99867,59.98451],[15.99792,59.98364],[15.99704,59.9834],[15.99418,59.98367],[15.99086,59.98359],[15.99113,59.98544],[15.98063,59.99591],[15.97757,59.9978],[15.9778,59.99893],[15.97356,60.00314],[15.9737,60.00325],[15.97349,60.0034],[15.97238,60.00344],[15.97034,60.00446],[15.96859,60.00419],[15.96763,60.00448],[15.96643,60.00447],[15.96563,60.00411],[15.96413,60.0043],[15.96354,60.0048],[15.96073,60.00486],[15.95482,60.00376],[15.94936,60.00336],[15.93894,60.00575],[15.91883,60.00233],[15.9125,60.00478],[15.91326,60.00786],[15.8895,60.01261],[15.88477,60.01247],[15.88087,60.01458],[15.88086,60.01613],[15.88123,60.01698],[15.88192,60.01754],[15.88156,60.0182],[15.88185,60.01952],[15.88155,60.01986],[15.88023,60.02028],[15.87952,60.0213],[15.87896,60.0211],[15.87808,60.02122],[15.87705,60.021],[15.87676,60.02117],[15.87659,60.02238],[15.87737,60.02391],[15.87715,60.02479],[15.87814,60.02546],[15.87685,60.0261],[15.87632,60.02689],[15.87662,60.02762],[15.87241,60.03597],[15.8702,60.03489],[15.85795,60.04743],[15.8191,60.0286],[15.79968,60.04389],[15.7975,60.04274],[15.78819,60.04033],[15.78592,60.04039],[15.78343,60.04423],[15.78221,60.0445],[15.77835,60.0427],[15.77566,60.04246],[15.77174,60.04168],[15.7689,60.04088],[15.76667,60.04124],[15.76559,60.04114],[15.76436,60.0423],[15.76355,60.04243],[15.76302,60.04227],[15.76332,60.0413],[15.75945,60.04189],[15.74782,60.02273],[15.73839,60.01998],[15.7354,60.02196],[15.73428,60.0217],[15.73089,60.02301],[15.73188,60.02552],[15.72973,60.02728],[15.73112,60.02797],[15.73152,60.02883],[15.73077,60.02879],[15.73101,60.02956],[15.72896,60.03048],[15.72738,60.03038],[15.72702,60.0306],[15.72631,60.03054],[15.72467,60.03087],[15.71942,60.02928],[15.71848,60.02985],[15.71271,60.02906],[15.71177,60.02914],[15.71071,60.02994],[15.70808,60.02955],[15.69849,60.0334],[15.69687,60.03385],[15.69491,60.03546],[15.69155,60.03976],[15.69099,60.04009],[15.68234,60.05199],[15.69613,60.04762],[15.69623,60.04664],[15.6986,60.04485],[15.70202,60.04466],[15.70318,60.04521],[15.70412,60.04537],[15.70657,60.0451],[15.70851,60.04984],[15.7068,60.05148],[15.70828,60.05238],[15.70744,60.05306],[15.70701,60.05388],[15.70741,60.05428],[15.70716,60.05494],[15.70771,60.0556],[15.70891,60.05615],[15.70763,60.05752],[15.72242,60.0633],[15.72275,60.06521],[15.72201,60.06567],[15.7223,60.06617],[15.72191,60.06664],[15.72225,60.06732],[15.72211,60.06815],[15.72315,60.06887],[15.72291,60.06936],[15.7233,60.06983],[15.72184,60.07108],[15.72279,60.07256],[15.7234,60.07281],[15.724,60.07376],[15.73808,60.08006],[15.73273,60.08216],[15.72315,60.08116],[15.72153,60.08122],[15.71768,60.08179],[15.71608,60.08171],[15.7123,60.08194],[15.71922,60.09123],[15.72093,60.09345],[15.72673,60.09338],[15.72689,60.09374],[15.72849,60.09461],[15.7297,60.09658],[15.73032,60.09688],[15.7318,60.09699],[15.73257,60.09724],[15.73412,60.0984],[15.73521,60.09885],[15.74221,60.10036],[15.74677,60.10048],[15.74774,60.10025],[15.7465,60.10217],[15.74761,60.10664],[15.74999,60.10796],[15.75085,60.10807],[15.7518,60.10794],[15.7477,60.11126],[15.75994,60.11571],[15.765,60.13063],[15.75204,60.12969],[15.73891,60.13035],[15.72636,60.1283],[15.72609,60.12987],[15.72654,60.13427],[15.7265,60.13787],[15.72537,60.14491],[15.74874,60.14684],[15.75279,60.14627],[15.75697,60.14618],[15.75727,60.14641],[15.76704,60.14809],[15.77434,60.15304],[15.77595,60.15288],[15.79294,60.16452],[15.79983,60.17669],[15.80142,60.17748],[15.83637,60.1721],[15.88198,60.1663],[15.90718,60.16899],[15.92657,60.17232],[15.94626,60.18498],[15.94888,60.1852],[15.94892,60.18489],[15.9505,60.18458],[15.95602,60.184],[15.95846,60.18349],[15.96161,60.18423],[15.96587,60.18276],[15.96867,60.18427],[15.96753,60.18529],[15.96752,60.18612],[15.96698,60.18655],[15.96859,60.18671],[15.97012,60.18657]],[[15.91831,60.11795],[15.91405,60.11747],[15.91055,60.11626],[15.90856,60.11498],[15.90753,60.11403],[15.90665,60.11192],[15.90697,60.11051],[15.9081,60.10908],[15.91005,60.10485],[15.91094,60.10382],[15.91254,60.10271],[15.91335,60.10155],[15.91614,60.09877],[15.91646,60.0971],[15.91814,60.09521],[15.91876,60.09407],[15.9186,60.09236],[15.91966,60.09056],[15.91958,60.08746],[15.91825,60.08583],[15.9178,60.08444],[15.91834,60.0813],[15.91693,60.08015],[15.91613,60.0791],[15.91575,60.07799],[15.91589,60.07657],[15.91375,60.0759],[15.91183,60.07493],[15.90898,60.07405],[15.90857,60.07426],[15.90976,60.07574],[15.91015,60.07726],[15.9094,60.08007],[15.90862,60.08107],[15.90694,60.08247],[15.90494,60.08348],[15.90312,60.08406],[15.89859,60.08473],[15.89501,60.08473],[15.89156,60.08417],[15.88869,60.08311],[15.88694,60.08196],[15.88567,60.08029],[15.88467,60.07951],[15.88237,60.07856],[15.8806,60.07739],[15.87915,60.07528],[15.8792,60.07347],[15.88017,60.07185],[15.88207,60.0702],[15.88454,60.06908],[15.88524,60.06759],[15.88668,60.06627],[15.88428,60.06495],[15.88299,60.06364],[15.88239,60.06221],[15.88248,60.06017],[15.88333,60.05882],[15.88442,60.05789],[15.88631,60.05681],[15.88802,60.05614],[15.89202,60.05535],[15.89631,60.05536],[15.89987,60.05478],[15.9033,60.05473],[15.90482,60.05372],[15.90642,60.05301],[15.90976,60.05213],[15.9115,60.05108],[15.91316,60.05043],[15.91629,60.04967],[15.91841,60.04936],[15.92187,60.04922],[15.92582,60.04945],[15.93092,60.04798],[15.93434,60.04748],[15.94521,60.04774],[15.9479,60.04819],[15.94976,60.04874],[15.95267,60.05032],[15.95391,60.05169],[15.95441,60.0533],[15.95575,60.05417],[15.95694,60.05549],[15.95737,60.05654],[15.95756,60.05876],[15.96004,60.06017],[15.96133,60.0616],[15.96287,60.06422],[15.96283,60.06626],[15.96327,60.06664],[15.9662,60.06733],[15.96873,60.0683],[15.97122,60.07005],[15.97193,60.07107],[15.97224,60.07224],[15.9739,60.0737],[15.97456,60.07507],[15.97451,60.07656],[15.97351,60.0782],[15.97323,60.08024],[15.97229,60.08159],[15.97038,60.08303],[15.96605,60.08499],[15.96292,60.08586],[15.96221,60.08674],[15.96263,60.08802],[15.96255,60.08979],[15.96115,60.0918],[15.9594,60.09295],[15.95619,60.09422],[15.95382,60.09677],[15.95176,60.09806],[15.95101,60.10036],[15.94916,60.10207],[15.94653,60.10332],[15.9431,60.10413],[15.94107,60.10553],[15.93798,60.10664],[15.9372,60.10719],[15.93696,60.10832],[15.93632,60.10935],[15.93487,60.1106],[15.93333,60.11142],[15.93269,60.11322],[15.93099,60.11479],[15.92839,60.11602],[15.92382,60.11733],[15.92115,60.11782],[15.91831,60.11795]]]}},{"type":"Feature","id":"1962R003","properties":{"code":"1962R003","name":"Norberg västra"},"geometry":{"type":"Polygon","coordinates":[[[15.89716,60.0848],[15.90111,60.08446],[15.90434,60.0837],[15.90694,60.08247],[15.90893,60.08074],[15.9097,60.07937],[15.91015,60.07729],[15.90976,60.07574],[15.90857,60.07426],[15.90898,60.07405],[15.90991,60.0744],[15.91036,60.06782],[15.91561,60.06814],[15.91612,60.06933],[15.9176,60.07061],[15.92705,60.07405],[15.9334,60.07474],[15.93679,60.07445],[15.93625,60.07272],[15.93523,60.07171],[15.92889,60.06876],[15.92774,60.06855],[15.92622,60.06748],[15.92563,60.06744],[15.92323,60.06661],[15.92371,60.06465],[15.92587,60.06216],[15.92326,60.06169],[15.92289,60.06101],[15.92314,60.06051],[15.92439,60.06048],[15.92479,60.06024],[15.92461,60.0592],[15.92574,60.05813],[15.92532,60.05761],[15.92631,60.0569],[15.92497,60.05643],[15.92528,60.05598],[15.92516,60.05538],[15.92635,60.05493],[15.92883,60.05467],[15.92982,60.05381],[15.92866,60.05301],[15.92987,60.052],[15.92983,60.05163],[15.92486,60.04933],[15.92255,60.04921],[15.91909,60.0493],[15.91698,60.04954],[15.91439,60.05009],[15.91201,60.05085],[15.90976,60.05213],[15.90588,60.05322],[15.9033,60.05473],[15.89987,60.05478],[15.89631,60.05536],[15.8927,60.0553],[15.88926,60.0558],[15.88579,60.05707],[15.88401,60.05819],[15.88304,60.05916],[15.88231,60.06091],[15.88279,60.06331],[15.88428,60.06495],[15.88668,60.06627],[15.88524,60.06759],[15.88454,60.06908],[15.88207,60.0702],[15.88017,60.07185],[15.8791,60.07381],[15.87947,60.07604],[15.88148,60.07804],[15.88512,60.07983],[15.88694,60.08196],[15.88869,60.08311],[15.89092,60.08399],[15.89286,60.08445],[15.89716,60.0848]]]}}]}