{"type":"FeatureCollection","features":[{"type":"Feature","id":"1981R001","properties":{"code":"1981R001","name":"Sala centralt"},"geometry":{"type":"Polygon","coordinates":[[[16.61187,59.92205],[16.61221,59.92182],[16.6154,59.92146],[16.61701,59.92099],[16.61803,59.91969],[16.61921,59.91886],[16.6206,59.91833],[16.62224,59.91668],[16.62362,59.91572],[16.62425,59.9148],[16.62531,59.9142],[16.61958,59.91366],[16.60991,59.91233],[16.60499,59.91335],[16.60433,59.91256],[16.60262,59.91284],[16.60395,59.91433],[16.60226,59.91467],[16.60382,59.91664],[16.60262,59.91688],[16.59925,59.91666],[16.59864,59.91586],[16.59328,59.91566],[16.59323,59.91621],[16.59242,59.91632],[16.59321,59.91782],[16.5946,59.91934],[16.59656,59.92016],[16.59943,59.91962],[16.60033,59.92067],[16.60288,59.9221],[16.60393,59.92218],[16.60468,59.92202],[16.60504,59.92254],[16.6081,59.92281],[16.61187,59.92205]]]}},{"type":"Feature","id":"1981R002","properties":{"code":"1981R002","name":"Sala omland norra"},"geometry":{"type":"Polygon","coordinates":[[[16.71647,60.1849],[16.72392,60.17681],[16.72429,60.17606],[16.72386,60.17584],[16.72616,60.17299],[16.72712,60.17327],[16.73068,60.16949],[16.73363,60.16564],[16.73319,60.16418],[16.73305,60.16177],[16.73431,60.16054],[16.7346,60.15749],[16.73514,60.15635],[16.73786,60.15401],[16.73895,60.15262],[16.73861,60.15216],[16.73907,60.1511],[16.73803,60.14912],[16.73809,60.14811],[16.7394,60.14685],[16.73985,60.14586],[16.7473,60.13594],[16.7275,60.12087],[16.73524,60.11773],[16.73218,60.11544],[16.73231,60.11259],[16.72863,60.11105],[16.70516,60.10896],[16.71417,60.08937],[16.69197,60.08334],[16.6938,60.08134],[16.69508,60.0804],[16.69997,60.07757],[16.70097,60.07615],[16.70313,60.07408],[16.70743,60.07171],[16.71753,60.05746],[16.71168,60.05618],[16.72747,60.04337],[16.72803,60.04104],[16.72768,60.03632],[16.72682,60.03222],[16.72406,60.02504],[16.72276,60.0196],[16.72131,60.01622],[16.71813,60.01316],[16.71836,60.01234],[16.71638,60.01132],[16.71618,60.01086],[16.71822,60.00827],[16.71928,60.00756],[16.71901,60.00618],[16.72008,60.00619],[16.72008,60.0055],[16.72112,60.00507],[16.72227,60.00502],[16.72269,60.00466],[16.72278,60.00379],[16.72245,60.00314],[16.72365,60.00124],[16.72679,60.00097],[16.7337,60.00202],[16.734,59.9971],[16.73525,59.99322],[16.73492,59.99095],[16.73428,59.9893],[16.73667,59.98709],[16.73667,59.98529],[16.73823,59.98287],[16.74122,59.98067],[16.74295,59.97975],[16.75013,59.977],[16.7551,59.97633],[16.76167,59.97503],[16.77434,59.97431],[16.7892,59.96576],[16.7839,59.96329],[16.78414,59.96316],[16.78348,59.96285],[16.78361,59.96205],[16.77767,59.96301],[16.77748,59.96379],[16.77779,59.96394],[16.77729,59.96431],[16.77716,59.96525],[16.77648,59.96516],[16.77613,59.96448],[16.77661,59.96345],[16.77659,59.96247],[16.77538,59.96243],[16.77425,59.96335],[16.77165,59.96381],[16.77141,59.96275],[16.7706,59.96228],[16.76935,59.96032],[16.76514,59.95643],[16.76283,59.95485],[16.7614,59.95335],[16.76136,59.95115],[16.76185,59.95014],[16.76306,59.9492],[16.76503,59.9491],[16.76619,59.94944],[16.7678,59.94945],[16.76913,59.9499],[16.7694,59.95017],[16.76913,59.95067],[16.76947,59.95097],[16.7688,59.95128],[16.76863,59.95188],[16.77133,59.95241],[16.77186,59.95308],[16.77311,59.95301],[16.77363,59.95348],[16.77326,59.953],[16.77392,59.95296],[16.7745,59.95353],[16.77419,59.95354],[16.77515,59.95388],[16.77591,59.95492],[16.77679,59.95533],[16.77815,59.95439],[16.77959,59.95431],[16.781,59.95341],[16.78223,59.95335],[16.78409,59.95273],[16.78537,59.95143],[16.78553,59.95052],[16.78628,59.95],[16.78714,59.94792],[16.79145,59.9459],[16.79071,59.94253],[16.79159,59.94254],[16.79211,59.94285],[16.79387,59.94482],[16.79371,59.94587],[16.79433,59.94587],[16.79686,59.93059],[16.79925,59.92029],[16.79841,59.9188],[16.79884,59.91874],[16.79922,59.91892],[16.80007,59.91404],[16.80212,59.90868],[16.78712,59.9055],[16.77778,59.90571],[16.77306,59.89427],[16.77786,59.89005],[16.77787,59.8897],[16.77965,59.88835],[16.77942,59.88706],[16.78147,59.88411],[16.78134,59.88393],[16.78089,59.88392],[16.78326,59.8798],[16.78264,59.87419],[16.78075,59.8721],[16.78189,59.87151],[16.77993,59.86615],[16.77876,59.86601],[16.77496,59.86608],[16.76685,59.86646],[16.76645,59.86614],[16.7663,59.86464],[16.76559,59.86391],[16.7604,59.86119],[16.75393,59.86017],[16.74043,59.85911],[16.73643,59.8597],[16.73312,59.85839],[16.73011,59.8533],[16.72395,59.85443],[16.71372,59.85494],[16.71017,59.85504],[16.70381,59.85466],[16.69746,59.85462],[16.67341,59.84924],[16.67296,59.85005],[16.67252,59.85029],[16.66988,59.85057],[16.66872,59.85088],[16.66737,59.85201],[16.66466,59.85657],[16.66368,59.85872],[16.66312,59.86142],[16.6624,59.86309],[16.66111,59.86422],[16.66146,59.86476],[16.66286,59.86561],[16.66439,59.86758],[16.66449,59.86933],[16.6639,59.87103],[16.66271,59.87218],[16.66127,59.8742],[16.65905,59.87829],[16.6575,59.87953],[16.6578,59.88097],[16.65462,59.88404],[16.65377,59.88521],[16.6528,59.88562],[16.65147,59.88585],[16.64689,59.88838],[16.64387,59.88878],[16.64224,59.89057],[16.639,59.89277],[16.63599,59.89361],[16.63351,59.89484],[16.63282,59.89659],[16.63134,59.8974],[16.62924,59.89908],[16.62741,59.89997],[16.62661,59.90108],[16.62542,59.90186],[16.62537,59.90206],[16.62697,59.90324],[16.62918,59.90297],[16.63206,59.90296],[16.63476,59.90329],[16.63721,59.90396],[16.63964,59.90518],[16.64245,59.90782],[16.64294,59.90891],[16.64335,59.91178],[16.64272,59.9138],[16.64381,59.91539],[16.64401,59.91727],[16.64344,59.91869],[16.64088,59.92166],[16.64018,59.92333],[16.64245,59.9245],[16.64405,59.9261],[16.64583,59.92963],[16.64577,59.93127],[16.64618,59.93327],[16.64534,59.93538],[16.64398,59.93668],[16.64264,59.93753],[16.63979,59.9386],[16.63662,59.93915],[16.63453,59.94022],[16.6316,59.94107],[16.63243,59.94332],[16.6322,59.94483],[16.63063,59.94676],[16.62933,59.94757],[16.62743,59.94836],[16.6272,59.9494],[16.62783,59.95225],[16.62773,59.95338],[16.62693,59.95487],[16.62549,59.95615],[16.62347,59.9572],[16.62144,59.95787],[16.6187,59.95838],[16.61579,59.95853],[16.61345,59.95838],[16.61067,59.9579],[16.60525,59.95599],[16.60228,59.95381],[16.60112,59.9518],[16.59885,59.95122],[16.59711,59.95051],[16.59531,59.94936],[16.59427,59.94825],[16.59366,59.94682],[16.59384,59.94519],[16.59322,59.94302],[16.59466,59.93958],[16.59199,59.93919],[16.58913,59.9383],[16.58655,59.93874],[16.5825,59.93902],[16.5792,59.93998],[16.57615,59.94042],[16.56961,59.94239],[16.56618,59.94286],[16.56397,59.94287],[16.5612,59.94256],[16.55852,59.94187],[16.55537,59.94135],[16.55298,59.94054],[16.55115,59.93959],[16.55006,59.93872],[16.54914,59.93743],[16.5489,59.93635],[16.54587,59.93582],[16.54299,59.93478],[16.54089,59.93333],[16.5398,59.93163],[16.53967,59.9294],[16.53996,59.92834],[16.54096,59.92698],[16.54248,59.92588],[16.54417,59.9213],[16.54427,59.91977],[16.54558,59.91793],[16.54467,59.9162],[16.54213,59.91449],[16.53952,59.91508],[16.53665,59.91532],[16.53353,59.91519],[16.53123,59.91481],[16.53046,59.91632],[16.52904,59.91596],[16.5218,59.92573],[16.52095,59.92544],[16.51989,59.92595],[16.52036,59.92712],[16.52027,59.92792],[16.51972,59.92822],[16.51984,59.92853],[16.4958,59.95863],[16.49645,59.95863],[16.49694,59.9593],[16.49521,59.96049],[16.49502,59.96125],[16.49726,59.96508],[16.4957,59.96595],[16.49239,59.96698],[16.4872,59.96674],[16.487,59.96783],[16.4832,59.97102],[16.48387,59.97138],[16.48397,59.97207],[16.48281,59.97275],[16.48235,59.97333],[16.48144,59.97344],[16.47991,59.97398],[16.47894,59.97468],[16.47893,59.97559],[16.47814,59.97587],[16.47746,59.97587],[16.47703,59.97611],[16.47734,59.97632],[16.47683,59.97765],[16.4758,59.97866],[16.47486,59.97844],[16.47343,59.97866],[16.47248,59.97791],[16.46864,59.97779],[16.46571,59.97993],[16.46402,59.98027],[16.46272,59.98003],[16.461,59.97866],[16.45976,59.97908],[16.45982,59.97963],[16.45862,59.98049],[16.45539,59.98078],[16.455,59.98111],[16.45511,59.98142],[16.45612,59.98191],[16.45622,59.98286],[16.457,59.98353],[16.43576,59.9968],[16.42361,60.00486],[16.40033,59.99014],[16.40382,59.98757],[16.40391,59.98689],[16.40279,59.98658],[16.40236,59.98676],[16.40211,59.98723],[16.4026,59.98776],[16.40236,59.98819],[16.40151,59.98866],[16.40078,59.98942],[16.39979,59.98954],[16.39967,59.98974],[16.39609,59.98745],[16.39724,59.98334],[16.39848,59.98371],[16.39901,59.97652],[16.40297,59.96358],[16.40347,59.9544],[16.4034,59.94684],[16.40429,59.94647],[16.40346,59.94595],[16.40312,59.93987],[16.40147,59.93696],[16.40088,59.93653],[16.39942,59.93622],[16.4002,59.93474],[16.39804,59.93111],[16.40164,59.92423],[16.40221,59.92459],[16.40372,59.92435],[16.40424,59.92244],[16.40408,59.91933],[16.39951,59.91499],[16.39863,59.91087],[16.3992,59.90972],[16.39324,59.90708],[16.39075,59.90696],[16.38491,59.90743],[16.38254,59.90889],[16.37823,59.91036],[16.37631,59.91073],[16.37454,59.9104],[16.36415,59.90528],[16.35302,59.8993],[16.34836,59.89742],[16.3469,59.89706],[16.34705,59.89688],[16.34498,59.89609],[16.34492,59.89531],[16.34547,59.89476],[16.34568,59.89391],[16.34478,59.8931],[16.34513,59.89249],[16.34444,59.89112],[16.34308,59.89095],[16.34228,59.89056],[16.34179,59.89054],[16.34033,59.89098],[16.3368,59.89281],[16.32856,59.89427],[16.3255,59.89423],[16.32463,59.89405],[16.32264,59.8926],[16.32118,59.89197],[16.32065,59.89144],[16.31935,59.8908],[16.31924,59.89027],[16.31829,59.88972],[16.31802,59.88963],[16.31608,59.89012],[16.31476,59.89005],[16.31278,59.88727],[16.30765,59.89017],[16.30783,59.89064],[16.30722,59.89154],[16.30798,59.89246],[16.30743,59.89358],[16.3073,59.89527],[16.29667,59.89907],[16.29602,59.89872],[16.29588,59.89911],[16.29517,59.89903],[16.29047,59.89807],[16.29005,59.89785],[16.29012,59.89671],[16.29167,59.89561],[16.28455,59.89242],[16.27716,59.88822],[16.2718,59.88052],[16.26876,59.87758],[16.25832,59.87095],[16.23968,59.86202],[16.2328,59.85752],[16.20628,59.85146],[16.16404,59.86469],[16.15044,59.87383],[16.1223,59.88197],[16.12075,59.88737],[16.11535,59.89082],[16.1105,59.8964],[16.1045,59.90496],[16.10745,59.90622],[16.1076,59.90715],[16.10938,59.90772],[16.10987,59.90754],[16.10979,59.90718],[16.1152,59.90943],[16.11397,59.9109],[16.11349,59.91085],[16.11303,59.91109],[16.11298,59.91141],[16.11337,59.91162],[16.09242,59.93666],[16.121,59.94183],[16.13061,59.94931],[16.14354,59.94979],[16.1631,59.96058],[16.15557,59.96481],[16.14795,59.96654],[16.14188,59.97043],[16.14271,59.97064],[16.14218,59.97144],[16.14342,59.97273],[16.14296,59.97314],[16.14312,59.97363],[16.14482,59.97495],[16.14919,59.9821],[16.14896,59.98323],[16.14838,59.98353],[16.14881,59.9838],[16.1481,59.98735],[16.14532,59.99077],[16.15294,59.99047],[16.16253,59.99095],[16.17167,59.99001],[16.20625,59.99186],[16.19745,59.99547],[16.19176,60.00098],[16.18913,60.00448],[16.18859,60.00814],[16.18086,60.01984],[16.18739,60.01745],[16.18721,60.01876],[16.18565,60.02051],[16.18438,60.02265],[16.18406,60.02397],[16.18231,60.02642],[16.18256,60.02735],[16.18405,60.02792],[16.18042,60.02947],[16.1794,60.03039],[16.17715,60.03315],[16.17704,60.03358],[16.17757,60.03463],[16.17653,60.03483],[16.17632,60.03513],[16.17711,60.03601],[16.17796,60.03585],[16.17843,60.03556],[16.17961,60.03567],[16.17875,60.03459],[16.17975,60.03483],[16.18089,60.03461],[16.18158,60.03382],[16.18228,60.03375],[16.18263,60.03287],[16.18461,60.03342],[16.18517,60.03292],[16.18499,60.03225],[16.1857,60.03145],[16.18607,60.02977],[16.18762,60.02917],[16.18779,60.02876],[16.18924,60.02898],[16.19048,60.02951],[16.19305,60.03008],[16.1955,60.02935],[16.19657,60.02931],[16.19785,60.03532],[16.19489,60.03697],[16.19121,60.05049],[16.1917,60.05097],[16.19083,60.05185],[16.18874,60.05943],[16.19229,60.06017],[16.19091,60.06302],[16.18903,60.0628],[16.18629,60.06317],[16.1875,60.06462],[16.18911,60.06521],[16.18963,60.06581],[16.18935,60.0661],[16.19001,60.06673],[16.19098,60.0669],[16.19107,60.06734],[16.19225,60.06737],[16.19226,60.06817],[16.19163,60.06884],[16.18903,60.06959],[16.18748,60.06785],[16.18802,60.06753],[16.18726,60.06683],[16.18694,60.06681],[16.18413,60.076],[16.19335,60.07605],[16.19428,60.07587],[16.19523,60.07537],[16.19569,60.07548],[16.19654,60.07527],[16.19753,60.0753],[16.19851,60.07589],[16.20054,60.07592],[16.20272,60.07422],[16.20361,60.07381],[16.206,60.07321],[16.20606,60.07276],[16.20759,60.07276],[16.21238,60.07455],[16.21163,60.07588],[16.21793,60.07584],[16.21797,60.07546],[16.21876,60.0754],[16.22034,60.07592],[16.22092,60.07661],[16.22049,60.07697],[16.21944,60.07667],[16.2181,60.08032],[16.22267,60.08252],[16.22414,60.08217],[16.22818,60.07892],[16.24593,60.07867],[16.24642,60.07808],[16.24647,60.07703],[16.26456,60.07347],[16.27152,60.07325],[16.27581,60.07338],[16.27571,60.07359],[16.27627,60.0739],[16.27782,60.07406],[16.2807,60.07326],[16.28848,60.07339],[16.28817,60.07049],[16.28901,60.0702],[16.2887,60.06993],[16.29415,60.0705],[16.29358,60.07058],[16.29284,60.07159],[16.29142,60.07183],[16.29212,60.07338],[16.29314,60.07333],[16.2936,60.07297],[16.29418,60.07294],[16.29459,60.07339],[16.29524,60.07341],[16.31849,60.07357],[16.31852,60.07331],[16.3204,60.07331],[16.3203,60.07309],[16.32172,60.07311],[16.32145,60.07456],[16.3233,60.07454],[16.32087,60.07758],[16.32067,60.07881],[16.33204,60.0801],[16.33879,60.07757],[16.34064,60.07816],[16.34243,60.07746],[16.34898,60.07641],[16.34891,60.07522],[16.35137,60.07517],[16.35279,60.07546],[16.35294,60.08139],[16.35953,60.08081],[16.36461,60.08114],[16.3647,60.08062],[16.36832,60.07974],[16.37468,60.07951],[16.37593,60.07986],[16.3784,60.07992],[16.38027,60.08019],[16.37906,60.08154],[16.37798,60.0819],[16.37799,60.08235],[16.37844,60.0826],[16.3833,60.08084],[16.3872,60.08141],[16.38601,60.08309],[16.38931,60.08503],[16.3893,60.08524],[16.38749,60.08624],[16.38564,60.08674],[16.38562,60.08815],[16.38482,60.08888],[16.38521,60.08941],[16.38721,60.0897],[16.38743,60.09091],[16.38925,60.0912],[16.40369,60.0887],[16.40625,60.09027],[16.40564,60.09062],[16.40527,60.09151],[16.40457,60.09166],[16.4046,60.09186],[16.40544,60.09192],[16.4064,60.0917],[16.40743,60.09189],[16.40793,60.09219],[16.4043,60.10221],[16.43807,60.12477],[16.4575,60.12872],[16.46286,60.13087],[16.47677,60.13219],[16.48876,60.1339],[16.48877,60.13342],[16.49029,60.13306],[16.49088,60.13348],[16.49269,60.13357],[16.49293,60.13389],[16.49249,60.13412],[16.49289,60.13458],[16.49501,60.13489],[16.50285,60.13683],[16.53895,60.13739],[16.53477,60.14497],[16.53524,60.14669],[16.53461,60.1482],[16.53608,60.1501],[16.53865,60.15119],[16.53857,60.15139],[16.53719,60.15205],[16.53523,60.15229],[16.53473,60.15272],[16.53316,60.15325],[16.52703,60.16462],[16.5275,60.16749],[16.53187,60.16818],[16.53656,60.1714],[16.54178,60.17261],[16.54359,60.17513],[16.5538,60.17272],[16.55476,60.17332],[16.56764,60.17538],[16.5816,60.17983],[16.59408,60.1809],[16.60013,60.17969],[16.60733,60.18146],[16.62486,60.18369],[16.63232,60.18481],[16.63711,60.18494],[16.6472,60.18418],[16.65117,60.18583],[16.65257,60.18894],[16.65657,60.19033],[16.66217,60.19067],[16.66923,60.19213],[16.67359,60.19334],[16.68267,60.19369],[16.69768,60.19501],[16.70479,60.19509],[16.70503,60.19472],[16.70664,60.19431],[16.70686,60.19263],[16.71005,60.18911],[16.71119,60.18715],[16.71264,60.18628],[16.71647,60.1849]]]}},{"type":"Feature","id":"1981R003","properties":{"code":"1981R003","name":"Sala omland södra"},"geometry":{"type":"Polygon","coordinates":[[[16.43576,59.9968],[16.457,59.98353],[16.45622,59.98286],[16.45612,59.98191],[16.45511,59.98142],[16.455,59.98111],[16.45539,59.98078],[16.45862,59.98049],[16.45982,59.97963],[16.45976,59.97908],[16.461,59.97866],[16.46272,59.98003],[16.46402,59.98027],[16.46571,59.97993],[16.46864,59.97779],[16.47248,59.97791],[16.47343,59.97866],[16.47486,59.97844],[16.4758,59.97866],[16.47683,59.97765],[16.47734,59.97632],[16.47703,59.97611],[16.47746,59.97587],[16.47814,59.97587],[16.47893,59.97559],[16.47894,59.97468],[16.47991,59.97398],[16.48144,59.97344],[16.48235,59.97333],[16.48281,59.97275],[16.48397,59.97207],[16.48387,59.97138],[16.4832,59.97102],[16.487,59.96783],[16.4872,59.96674],[16.49239,59.96698],[16.4957,59.96595],[16.49726,59.96508],[16.49502,59.96125],[16.49521,59.96049],[16.49694,59.9593],[16.49645,59.95863],[16.4958,59.95863],[16.51984,59.92853],[16.51972,59.92822],[16.52027,59.92792],[16.52036,59.92712],[16.51989,59.92595],[16.52095,59.92544],[16.5218,59.92573],[16.52904,59.91596],[16.53046,59.91632],[16.53123,59.91481],[16.52876,59.91408],[16.52669,59.91304],[16.52513,59.9117],[16.52432,59.91025],[16.52425,59.90878],[16.52543,59.90674],[16.52566,59.9048],[16.52665,59.90347],[16.52782,59.90257],[16.52989,59.90157],[16.53283,59.90075],[16.5347,59.89936],[16.53766,59.89818],[16.53971,59.89773],[16.54208,59.89747],[16.54493,59.89675],[16.54838,59.89646],[16.55114,59.89662],[16.55313,59.89698],[16.55489,59.8975],[16.55851,59.89899],[16.56011,59.89979],[16.56292,59.90168],[16.56467,59.9036],[16.56762,59.90469],[16.57097,59.90465],[16.57401,59.90504],[16.5767,59.90462],[16.58039,59.90374],[16.58319,59.90355],[16.58584,59.9037],[16.59016,59.90268],[16.59396,59.90251],[16.59622,59.9007],[16.59938,59.89943],[16.60208,59.89887],[16.60458,59.89867],[16.60898,59.89758],[16.61175,59.8973],[16.61534,59.89746],[16.61922,59.89836],[16.62216,59.89983],[16.62399,59.90139],[16.62537,59.90206],[16.62672,59.90097],[16.62741,59.89997],[16.62924,59.89908],[16.63016,59.89822],[16.633,59.89644],[16.63351,59.89484],[16.63599,59.89361],[16.639,59.89277],[16.64224,59.89057],[16.64387,59.88878],[16.64689,59.88838],[16.65147,59.88585],[16.6528,59.88562],[16.65377,59.88521],[16.65462,59.88404],[16.65767,59.88111],[16.65791,59.88072],[16.6575,59.87953],[16.65905,59.87829],[16.66127,59.8742],[16.66271,59.87218],[16.6639,59.87103],[16.66449,59.86933],[16.66439,59.86758],[16.66286,59.86561],[16.66146,59.86476],[16.66111,59.86422],[16.6624,59.86309],[16.66312,59.86142],[16.66368,59.85872],[16.66466,59.85657],[16.66793,59.85138],[16.66959,59.85061],[16.67266,59.85024],[16.67341,59.84924],[16.69746,59.85462],[16.70381,59.85466],[16.71017,59.85504],[16.71372,59.85494],[16.72395,59.85443],[16.73011,59.8533],[16.73312,59.85839],[16.73643,59.8597],[16.74043,59.85911],[16.75393,59.86017],[16.7604,59.86119],[16.76559,59.86391],[16.7663,59.86464],[16.76645,59.86614],[16.76685,59.86646],[16.77496,59.86608],[16.77876,59.86601],[16.77993,59.86615],[16.78189,59.87151],[16.78075,59.8721],[16.78264,59.87419],[16.78326,59.8798],[16.78089,59.88392],[16.78134,59.88393],[16.78147,59.88411],[16.77942,59.88706],[16.77965,59.88835],[16.77787,59.8897],[16.77786,59.89005],[16.79901,59.8815],[16.79978,59.879],[16.80057,59.87427],[16.80051,59.86962],[16.81455,59.86707],[16.82234,59.86497],[16.82962,59.86421],[16.82911,59.863],[16.83177,59.86275],[16.83713,59.86155],[16.83655,59.85994],[16.81775,59.85217],[16.81292,59.85176],[16.80101,59.8441],[16.81356,59.83756],[16.8151,59.83844],[16.8163,59.83855],[16.81809,59.83647],[16.81637,59.83535],[16.80978,59.833],[16.80985,59.82616],[16.80258,59.82603],[16.79991,59.82485],[16.80461,59.82045],[16.81121,59.81993],[16.81016,59.81945],[16.80804,59.81571],[16.80377,59.81382],[16.8035,59.8134],[16.80044,59.81428],[16.8002,59.81416],[16.79708,59.81531],[16.79446,59.81556],[16.79265,59.81519],[16.78869,59.81178],[16.78715,59.81127],[16.78712,59.81088],[16.78391,59.81039],[16.78396,59.80977],[16.78507,59.80871],[16.78589,59.8084],[16.78621,59.80752],[16.78792,59.80773],[16.7886,59.80672],[16.77433,59.80521],[16.77112,59.80401],[16.7693,59.80216],[16.76707,59.8028],[16.76651,59.80239],[16.76526,59.80248],[16.76439,59.80125],[16.76496,59.80004],[16.76501,59.79798],[16.76555,59.79787],[16.76394,59.79623],[16.76175,59.79564],[16.7579,59.79334],[16.75282,59.79144],[16.7535,59.79107],[16.73691,59.78141],[16.73615,59.7798],[16.72896,59.77676],[16.72791,59.77889],[16.72752,59.77901],[16.72558,59.7789],[16.72416,59.77945],[16.72266,59.7809],[16.72241,59.78213],[16.72146,59.78258],[16.72007,59.78282],[16.71419,59.78323],[16.71323,59.7832],[16.71242,59.78285],[16.71144,59.78292],[16.71074,59.78305],[16.71,59.78377],[16.7094,59.78396],[16.70845,59.78383],[16.70699,59.78323],[16.70632,59.78327],[16.70394,59.78398],[16.70112,59.78566],[16.69646,59.78746],[16.69594,59.78793],[16.69355,59.78863],[16.68537,59.78938],[16.68031,59.79079],[16.6776,59.79131],[16.6759,59.78945],[16.67464,59.78966],[16.66815,59.78842],[16.66368,59.78664],[16.66348,59.78182],[16.68164,59.77191],[16.67735,59.77049],[16.67463,59.77179],[16.66969,59.77039],[16.66998,59.77003],[16.64733,59.76336],[16.64744,59.76295],[16.65152,59.76131],[16.65134,59.76051],[16.65171,59.76022],[16.65124,59.75976],[16.65357,59.75734],[16.65312,59.75651],[16.65387,59.75618],[16.65405,59.75577],[16.65509,59.7553],[16.64569,59.75718],[16.6366,59.75872],[16.61464,59.75947],[16.60972,59.76058],[16.61016,59.76072],[16.60811,59.76291],[16.60249,59.76358],[16.60166,59.76403],[16.60028,59.7661],[16.59509,59.76527],[16.59282,59.76557],[16.59234,59.76806],[16.58951,59.76799],[16.58665,59.76852],[16.58776,59.77135],[16.59129,59.77346],[16.59303,59.77394],[16.57534,59.78935],[16.58783,59.79156],[16.5933,59.78927],[16.5985,59.78989],[16.59795,59.79089],[16.59879,59.79157],[16.60046,59.79204],[16.60028,59.79228],[16.59973,59.79285],[16.59666,59.7947],[16.59535,59.79517],[16.59302,59.79644],[16.5927,59.79708],[16.59086,59.79717],[16.58939,59.79788],[16.5885,59.79774],[16.58775,59.79735],[16.58707,59.79784],[16.5861,59.79788],[16.58471,59.79728],[16.58403,59.79782],[16.58286,59.79743],[16.58141,59.7981],[16.5806,59.79746],[16.58025,59.79744],[16.57937,59.79769],[16.57917,59.79821],[16.57869,59.79845],[16.57759,59.79783],[16.5766,59.79777],[16.57686,59.79816],[16.57647,59.7986],[16.57597,59.79868],[16.57619,59.79828],[16.57543,59.79812],[16.57486,59.79829],[16.57454,59.79877],[16.57397,59.79817],[16.572,59.79826],[16.57073,59.79861],[16.56988,59.79829],[16.56259,59.79767],[16.5479,59.81112],[16.53046,59.8199],[16.52277,59.8174],[16.51986,59.81764],[16.51518,59.81767],[16.515,59.81869],[16.51642,59.81912],[16.50662,59.82254],[16.47328,59.83891],[16.46894,59.83775],[16.46863,59.83872],[16.4691,59.83888],[16.45851,59.84363],[16.45536,59.84555],[16.4553,59.84605],[16.45204,59.84547],[16.45125,59.84517],[16.44815,59.84313],[16.44762,59.84194],[16.44961,59.83931],[16.42988,59.83382],[16.42241,59.83028],[16.41056,59.82406],[16.40328,59.82132],[16.39178,59.81832],[16.37681,59.81371],[16.36916,59.8166],[16.35593,59.82286],[16.35225,59.82317],[16.35071,59.82204],[16.34717,59.82116],[16.3462,59.82003],[16.3486,59.81289],[16.35722,59.80781],[16.35381,59.79957],[16.34073,59.79288],[16.30562,59.78674],[16.29082,59.77979],[16.28257,59.77438],[16.26858,59.78154],[16.25477,59.79395],[16.2423,59.80172],[16.23331,59.80281],[16.22722,59.80823],[16.22174,59.81219],[16.21712,59.81652],[16.21564,59.8247],[16.21587,59.83253],[16.21541,59.8394],[16.20628,59.85146],[16.2328,59.85752],[16.23968,59.86202],[16.25832,59.87095],[16.26876,59.87758],[16.2718,59.88052],[16.27716,59.88822],[16.28455,59.89242],[16.29167,59.89561],[16.29012,59.89671],[16.29005,59.89785],[16.29047,59.89807],[16.29517,59.89903],[16.29588,59.89911],[16.29602,59.89872],[16.29667,59.89907],[16.3073,59.89527],[16.30743,59.89358],[16.30798,59.89246],[16.30722,59.89154],[16.30783,59.89064],[16.30765,59.89017],[16.31278,59.88727],[16.31476,59.89005],[16.31608,59.89012],[16.31802,59.88963],[16.31829,59.88972],[16.31924,59.89027],[16.31935,59.8908],[16.32065,59.89144],[16.32118,59.89197],[16.32264,59.8926],[16.32463,59.89405],[16.3255,59.89423],[16.32856,59.89427],[16.3368,59.89281],[16.34033,59.89098],[16.34179,59.89054],[16.34228,59.89056],[16.34308,59.89095],[16.34444,59.89112],[16.34513,59.89249],[16.34478,59.8931],[16.34568,59.89391],[16.34547,59.89476],[16.34492,59.89531],[16.34498,59.89609],[16.34705,59.89688],[16.3469,59.89706],[16.34836,59.89742],[16.35302,59.8993],[16.36415,59.90528],[16.37454,59.9104],[16.37631,59.91073],[16.37823,59.91036],[16.38254,59.90889],[16.38491,59.90743],[16.39075,59.90696],[16.39324,59.90708],[16.3992,59.90972],[16.39863,59.91087],[16.39951,59.91499],[16.40408,59.91933],[16.40423,59.92299],[16.40372,59.92435],[16.40221,59.92459],[16.40164,59.92423],[16.39804,59.93111],[16.4002,59.93474],[16.39942,59.93622],[16.40088,59.93653],[16.40147,59.93696],[16.40312,59.93987],[16.40346,59.94595],[16.40429,59.94647],[16.4034,59.94684],[16.40347,59.9544],[16.40297,59.96358],[16.39901,59.97652],[16.39848,59.98371],[16.39724,59.98334],[16.39609,59.98745],[16.39967,59.98974],[16.39979,59.98954],[16.40078,59.98942],[16.40151,59.98866],[16.40236,59.98819],[16.4026,59.98776],[16.40211,59.98723],[16.40236,59.98676],[16.40279,59.98658],[16.40391,59.98689],[16.40382,59.98757],[16.40033,59.99014],[16.42361,60.00486],[16.43576,59.9968]]]}},{"type":"Feature","id":"1981R004","properties":{"code":"1981R004","name":"Sala stad övriga"},"geometry":{"type":"Polygon","coordinates":[[[16.64215,59.93776],[16.64359,59.93696],[16.64507,59.93569],[16.64596,59.93434],[16.64618,59.93327],[16.64577,59.93127],[16.64583,59.92963],[16.64405,59.9261],[16.64245,59.9245],[16.64018,59.92333],[16.64088,59.92166],[16.64344,59.91869],[16.64401,59.91727],[16.64381,59.91539],[16.64272,59.9138],[16.64335,59.91178],[16.64294,59.90891],[16.64245,59.90782],[16.64005,59.90548],[16.63775,59.90417],[16.63542,59.90344],[16.63274,59.90301],[16.62986,59.90293],[16.62697,59.90324],[16.62562,59.90221],[16.62399,59.90139],[16.62216,59.89983],[16.61861,59.89816],[16.61669,59.89767],[16.61395,59.89733],[16.61175,59.8973],[16.60898,59.89758],[16.60458,59.89867],[16.60143,59.89897],[16.5988,59.8996],[16.59565,59.90104],[16.59396,59.90251],[16.59016,59.90268],[16.58584,59.9037],[16.58319,59.90355],[16.58039,59.90374],[16.5767,59.90462],[16.57401,59.90504],[16.57097,59.90465],[16.56762,59.90469],[16.56467,59.9036],[16.56294,59.9017],[16.56011,59.89979],[16.55546,59.89772],[16.55374,59.89713],[16.55117,59.89663],[16.54697,59.89651],[16.54426,59.89687],[16.54208,59.89747],[16.53889,59.89788],[16.53691,59.89841],[16.5347,59.89936],[16.53283,59.90075],[16.52932,59.9018],[16.52701,59.90315],[16.52566,59.9048],[16.52543,59.90674],[16.52452,59.908],[16.5242,59.90913],[16.5245,59.91072],[16.52582,59.9124],[16.52876,59.91408],[16.53065,59.91468],[16.53287,59.9151],[16.53733,59.9153],[16.53952,59.91508],[16.54213,59.91449],[16.54467,59.9162],[16.54558,59.91793],[16.54427,59.91977],[16.54417,59.9213],[16.54248,59.92588],[16.54067,59.92729],[16.53982,59.92867],[16.53971,59.93124],[16.54031,59.93265],[16.54161,59.93394],[16.54352,59.93503],[16.54587,59.93582],[16.5489,59.93635],[16.54931,59.93777],[16.55038,59.93902],[16.55205,59.9401],[16.55472,59.94118],[16.56185,59.94267],[16.56612,59.94286],[16.56961,59.94239],[16.57615,59.94042],[16.5792,59.93998],[16.5825,59.93902],[16.58655,59.93874],[16.58913,59.9383],[16.59199,59.93919],[16.59466,59.93958],[16.59339,59.94223],[16.59322,59.94336],[16.59384,59.94519],[16.59374,59.94716],[16.59521,59.94927],[16.59761,59.95074],[16.60112,59.9518],[16.60228,59.95381],[16.60388,59.95516],[16.60575,59.95622],[16.61129,59.95804],[16.61422,59.95846],[16.61716,59.9585],[16.62019,59.95815],[16.62278,59.95747],[16.62507,59.95641],[16.62693,59.95487],[16.62761,59.95371],[16.62785,59.95259],[16.6272,59.9494],[16.62743,59.94836],[16.62933,59.94757],[16.63063,59.94676],[16.6322,59.94483],[16.63243,59.94332],[16.6316,59.94107],[16.63453,59.94022],[16.63662,59.93915],[16.63979,59.9386],[16.64215,59.93776]],[[16.58611,59.91732],[16.58691,59.91105],[16.58649,59.90979],[16.58811,59.90965],[16.5883,59.90984],[16.58903,59.90966],[16.59302,59.90941],[16.59689,59.90958],[16.59732,59.90974],[16.59749,59.91041],[16.5973,59.91066],[16.59567,59.91085],[16.59348,59.91058],[16.59244,59.91284],[16.59173,59.91344],[16.59242,59.91632],[16.59323,59.91621],[16.59328,59.91566],[16.59864,59.91586],[16.59925,59.91666],[16.60262,59.91688],[16.60382,59.91664],[16.60226,59.91467],[16.60395,59.91433],[16.60262,59.91284],[16.60433,59.91256],[16.60499,59.91335],[16.60991,59.91233],[16.61958,59.91366],[16.62531,59.9142],[16.62425,59.9148],[16.62362,59.91572],[16.62224,59.91668],[16.6206,59.91833],[16.61921,59.91886],[16.61803,59.91969],[16.61701,59.92099],[16.61418,59.92164],[16.61321,59.92248],[16.61137,59.92336],[16.60407,59.92498],[16.59997,59.92497],[16.59183,59.92663],[16.59098,59.92663],[16.58932,59.92617],[16.58872,59.92573],[16.58477,59.92476],[16.58391,59.92432],[16.58272,59.9228],[16.58828,59.92181],[16.58657,59.91933],[16.58611,59.91732]]]}},{"type":"Feature","id":"1981R005","properties":{"code":"1981R005","name":"Åkra-Jakobsberg-Bryggeriet"},"geometry":{"type":"Polygon","coordinates":[[[16.59997,59.92497],[16.60407,59.92498],[16.61053,59.92362],[16.61292,59.92265],[16.61418,59.92164],[16.61221,59.92182],[16.61187,59.92205],[16.6081,59.92281],[16.60504,59.92254],[16.60468,59.92202],[16.60393,59.92218],[16.60288,59.9221],[16.60204,59.92177],[16.60115,59.92098],[16.60033,59.92067],[16.59943,59.91962],[16.59656,59.92016],[16.59524,59.91964],[16.59437,59.91915],[16.59299,59.91749],[16.59173,59.91344],[16.59244,59.91284],[16.59348,59.91058],[16.59567,59.91085],[16.5973,59.91066],[16.59732,59.90974],[16.59689,59.90958],[16.59441,59.9094],[16.58995,59.90958],[16.5883,59.90984],[16.58811,59.90965],[16.58649,59.90979],[16.58691,59.91105],[16.58611,59.91732],[16.58657,59.91933],[16.58828,59.92181],[16.58272,59.9228],[16.58391,59.92432],[16.58477,59.92476],[16.58872,59.92573],[16.58932,59.92617],[16.59098,59.92663],[16.59183,59.92663],[16.59997,59.92497]]]}}]}