{"type":"FeatureCollection","features":[{"type":"Feature","id":"1982R002","properties":{"code":"1982R002","name":"Per Ols"},"geometry":{"type":"Polygon","coordinates":[[[15.83252,60.01098],[15.83567,60.00957],[15.83359,60.00865],[15.83178,60.00721],[15.83017,60.00723],[15.82792,60.00583],[15.8278,60.00601],[15.82578,60.00494],[15.82505,60.00498],[15.82452,60.00479],[15.82093,60.00304],[15.82093,60.00266],[15.81967,60.00147],[15.81961,60.00076],[15.81918,60.00026],[15.81675,59.99752],[15.81582,59.99722],[15.814,59.9986],[15.81696,60.0022],[15.81783,60.00263],[15.81505,60.00266],[15.811,60.00366],[15.80993,60.00332],[15.80974,60.00362],[15.80925,60.00364],[15.81017,60.00541],[15.80606,60.00597],[15.80549,60.00648],[15.80606,60.00724],[15.80623,60.00845],[15.80737,60.00979],[15.80799,60.0097],[15.80862,60.0091],[15.80925,60.00928],[15.8098,60.00978],[15.8106,60.00971],[15.81581,60.00734],[15.82228,60.00947],[15.82965,60.0107],[15.83252,60.01098]]]}},{"type":"Feature","id":"1982R003","properties":{"code":"1982R003","name":"Västanfors västra-Hedkärra"},"geometry":{"type":"Polygon","coordinates":[[[15.76827,60.00632],[15.76964,60.00608],[15.76944,60.00529],[15.77327,60.00214],[15.77322,60.0017],[15.77381,60.0013],[15.77417,60.00138],[15.77499,60.0007],[15.77984,60.00018],[15.78394,60.00164],[15.78622,60.00056],[15.78649,60.00005],[15.78755,59.9996],[15.78763,59.99887],[15.78963,59.99665],[15.7923,59.9962],[15.79656,59.99476],[15.80123,59.99371],[15.80164,59.99468],[15.80572,59.99344],[15.80577,59.99283],[15.80699,59.99286],[15.80798,59.9917],[15.81007,59.99082],[15.81119,59.99065],[15.81353,59.99075],[15.81341,59.9914],[15.81463,59.99156],[15.82083,59.99135],[15.82375,59.99109],[15.82493,59.98867],[15.825,59.98792],[15.82416,59.98587],[15.82269,59.98612],[15.82172,59.9833],[15.82217,59.98311],[15.82446,59.98056],[15.82741,59.97973],[15.83126,59.98027],[15.83395,59.98002],[15.84575,59.97956],[15.84709,59.97899],[15.84174,59.97749],[15.83825,59.97714],[15.83373,59.97695],[15.83115,59.977],[15.82695,59.97737],[15.82499,59.9778],[15.82258,59.97867],[15.82006,59.97818],[15.81824,59.97803],[15.81708,59.97754],[15.8177,59.9758],[15.81739,59.97437],[15.81669,59.97335],[15.81521,59.97214],[15.81278,59.97063],[15.81012,59.96945],[15.80488,59.96793],[15.80195,59.96735],[15.79683,59.96694],[15.79172,59.96736],[15.78796,59.9684],[15.78524,59.97008],[15.78564,59.96758],[15.78437,59.96551],[15.78168,59.96385],[15.78021,59.96265],[15.77632,59.96072],[15.77316,59.95847],[15.77159,59.95767],[15.76977,59.95703],[15.76714,59.9565],[15.76433,59.95632],[15.76189,59.95644],[15.75999,59.95576],[15.75544,59.95475],[15.75302,59.95455],[15.75002,59.95465],[15.74663,59.95526],[15.74363,59.95642],[15.74153,59.958],[15.7405,59.96007],[15.74099,59.96266],[15.74227,59.96436],[15.74452,59.96575],[15.75015,59.96795],[15.74635,59.97011],[15.74426,59.97228],[15.74367,59.97332],[15.74353,59.97477],[15.7441,59.97616],[15.7451,59.97725],[15.74684,59.9784],[15.7497,59.97947],[15.75323,59.98013],[15.75611,59.98027],[15.75956,59.97995],[15.76331,59.97883],[15.76983,59.97774],[15.77236,59.97709],[15.77495,59.97587],[15.77664,59.97445],[15.77893,59.97402],[15.78079,59.97343],[15.78231,59.9727],[15.78414,59.97143],[15.78363,59.97284],[15.78376,59.97451],[15.78287,59.97634],[15.77917,59.97956],[15.77813,59.98091],[15.7778,59.98232],[15.77814,59.98426],[15.77929,59.98642],[15.78231,59.98883],[15.78433,59.98987],[15.7884,59.99133],[15.78448,59.99266],[15.78249,59.99372],[15.7804,59.99524],[15.77685,59.99529],[15.77409,59.99574],[15.77178,59.99583],[15.76971,59.99613],[15.76664,59.99704],[15.76386,59.99869],[15.76286,59.99969],[15.76219,60.00104],[15.75922,60.00374],[15.75847,60.00488],[15.76827,60.00632]]]}},{"type":"Feature","id":"1982R004","properties":{"code":"1982R004","name":"Västanfors östra-Meling"},"geometry":{"type":"Polygon","coordinates":[[[15.80196,60.0274],[15.80531,60.02683],[15.80815,60.02579],[15.81083,60.02426],[15.81232,60.02264],[15.81273,60.02123],[15.81257,60.02013],[15.81126,60.01805],[15.80904,60.01659],[15.80963,60.01544],[15.8136,60.01518],[15.81686,60.01445],[15.82706,60.01622],[15.83135,60.01664],[15.83424,60.0166],[15.83697,60.01621],[15.83999,60.01532],[15.84211,60.01438],[15.84371,60.01318],[15.84478,60.01147],[15.84473,60.00969],[15.84344,60.00672],[15.84111,60.00484],[15.8447,60.00223],[15.84581,60.00092],[15.84624,59.99948],[15.84614,59.99714],[15.84565,59.99596],[15.84469,59.99485],[15.84724,59.99238],[15.84868,59.99004],[15.85075,59.98843],[15.85164,59.98632],[15.85118,59.98462],[15.85136,59.98282],[15.85092,59.98177],[15.84934,59.98016],[15.84709,59.97899],[15.84575,59.97956],[15.83395,59.98002],[15.83126,59.98027],[15.82741,59.97973],[15.82446,59.98056],[15.82217,59.98311],[15.82172,59.9833],[15.82269,59.98612],[15.82416,59.98587],[15.825,59.98792],[15.82493,59.98867],[15.82375,59.99109],[15.82083,59.99135],[15.81673,59.99146],[15.81927,59.9927],[15.81809,59.99467],[15.82191,59.9953],[15.82302,59.99527],[15.82331,59.99569],[15.82283,59.99592],[15.82404,59.99657],[15.82471,59.99645],[15.82486,59.99661],[15.82595,59.99673],[15.8257,59.99744],[15.82614,59.99796],[15.8255,59.99937],[15.82451,59.99966],[15.821,59.99977],[15.8197,60.00056],[15.81967,60.00147],[15.82093,60.00266],[15.82093,60.00304],[15.82216,60.00369],[15.82505,60.00498],[15.82578,60.00494],[15.8266,60.00524],[15.8271,60.00569],[15.8278,60.00601],[15.82792,60.00583],[15.83017,60.00723],[15.83178,60.00721],[15.83359,60.00865],[15.83567,60.00957],[15.83252,60.01098],[15.82965,60.0107],[15.82228,60.00947],[15.81581,60.00734],[15.8106,60.00971],[15.8098,60.00978],[15.80925,60.00928],[15.80862,60.0091],[15.80707,60.01044],[15.8054,60.00986],[15.80492,60.01026],[15.8032,60.00979],[15.80355,60.0094],[15.80249,60.00917],[15.802,60.00953],[15.8014,60.00944],[15.80074,60.01057],[15.80065,60.01146],[15.79943,60.01142],[15.79945,60.01068],[15.79907,60.01072],[15.79837,60.01121],[15.79764,60.01121],[15.79749,60.01181],[15.79672,60.01231],[15.79849,60.01403],[15.7983,60.01482],[15.79722,60.0151],[15.79641,60.015],[15.79641,60.01618],[15.79437,60.0162],[15.79429,60.0164],[15.7981,60.01951],[15.80281,60.02081],[15.80045,60.02203],[15.79858,60.0224],[15.79826,60.02284],[15.8003,60.02484],[15.80018,60.02506],[15.79948,60.0252],[15.79936,60.02625],[15.80121,60.02674],[15.80196,60.0274]]]}},{"type":"Feature","id":"1982R005","properties":{"code":"1982R005","name":"Åvestbo-Ängelsberg-Ulvsbo"},"geometry":{"type":"Polygon","coordinates":[[[15.85795,60.04743],[15.8702,60.03489],[15.87241,60.03597],[15.87662,60.02762],[15.87632,60.02689],[15.87685,60.0261],[15.87814,60.02546],[15.87715,60.02479],[15.87737,60.02391],[15.87659,60.02238],[15.87676,60.02117],[15.87705,60.021],[15.87808,60.02122],[15.87896,60.0211],[15.87952,60.0213],[15.88023,60.02028],[15.88155,60.01986],[15.88185,60.01952],[15.88156,60.0182],[15.88192,60.01754],[15.88123,60.01698],[15.88086,60.01613],[15.88087,60.01458],[15.88477,60.01247],[15.8895,60.01261],[15.91326,60.00786],[15.9125,60.00478],[15.91883,60.00233],[15.93894,60.00575],[15.94936,60.00336],[15.95482,60.00376],[15.96073,60.00486],[15.96354,60.0048],[15.96413,60.0043],[15.96563,60.00411],[15.96643,60.00447],[15.96763,60.00448],[15.96859,60.00419],[15.97034,60.00446],[15.97238,60.00344],[15.97349,60.0034],[15.9737,60.00325],[15.97356,60.00314],[15.9778,59.99893],[15.97757,59.9978],[15.98063,59.99591],[15.99113,59.98544],[15.99086,59.98359],[15.99418,59.98367],[15.99704,59.9834],[15.99792,59.98364],[15.99867,59.98451],[15.99944,59.9849],[16.00217,59.98523],[16.00315,59.985],[16.00423,59.98363],[16.0052,59.98358],[16.00556,59.9838],[16.0074,59.98408],[16.00959,59.98363],[16.0141,59.98352],[16.01587,59.98421],[16.01641,59.98476],[16.02244,59.98473],[16.03659,59.99084],[16.0462,59.99143],[16.05068,59.99237],[16.05508,59.99066],[16.05681,59.9884],[16.05845,59.98685],[16.0593,59.98546],[16.05978,59.98528],[16.06624,59.97265],[16.07548,59.96031],[16.07292,59.95982],[16.11337,59.91162],[16.11298,59.91141],[16.11303,59.91109],[16.11349,59.91085],[16.11397,59.9109],[16.11448,59.9103],[16.11254,59.9103],[16.11195,59.91054],[16.11154,59.91025],[16.0949,59.90966],[16.07315,59.89982],[16.06772,59.89815],[16.06291,59.89828],[16.05883,59.89728],[16.05422,59.89707],[16.05192,59.89575],[16.04748,59.89245],[16.04028,59.88664],[16.0362,59.88264],[16.03307,59.87612],[16.02873,59.8755],[16.02367,59.87065],[16.018,59.8691],[16.00364,59.86213],[15.98606,59.86236],[15.97639,59.86014],[15.95973,59.85208],[15.95188,59.85147],[15.94147,59.85005],[15.94071,59.85028],[15.93979,59.85024],[15.93963,59.85041],[15.94032,59.85143],[15.94025,59.85241],[15.93911,59.85339],[15.93807,59.85353],[15.93776,59.8538],[15.93498,59.85313],[15.9329,59.85295],[15.93227,59.85246],[15.93088,59.85206],[15.92986,59.85211],[15.92935,59.85192],[15.92549,59.85339],[15.92527,59.8537],[15.92461,59.85389],[15.92404,59.85472],[15.92337,59.85487],[15.92234,59.85471],[15.92089,59.8548],[15.89359,59.87445],[15.86401,59.89507],[15.82037,59.8917],[15.81983,59.89221],[15.80672,59.8903],[15.77175,59.88102],[15.76458,59.88419],[15.76314,59.88505],[15.76576,59.89235],[15.76896,59.89503],[15.76452,59.89488],[15.76309,59.89515],[15.76208,59.89548],[15.76133,59.89672],[15.75963,59.89764],[15.76791,59.89887],[15.76871,59.89915],[15.76896,59.89962],[15.76889,59.90026],[15.76771,59.90134],[15.7662,59.90362],[15.76678,59.90509],[15.76601,59.90604],[15.764,59.90758],[15.76306,59.90805],[15.76087,59.90859],[15.75862,59.90746],[15.75793,59.90661],[15.75698,59.90633],[15.75677,59.90537],[15.75411,59.90448],[15.75358,59.90445],[15.75255,59.90588],[15.74846,59.90612],[15.7462,59.90548],[15.74451,59.91029],[15.74486,59.91169],[15.73507,59.91103],[15.7324,59.91065],[15.73052,59.90965],[15.73036,59.90856],[15.72867,59.90761],[15.72228,59.90527],[15.71664,59.90707],[15.71645,59.90759],[15.71537,59.90748],[15.70329,59.91028],[15.70234,59.91032],[15.70191,59.91204],[15.70089,59.91261],[15.70251,59.91574],[15.70381,59.91594],[15.70021,59.92029],[15.68175,59.93792],[15.6779,59.94054],[15.67751,59.94542],[15.6857,59.94822],[15.6926,59.94778],[15.70547,59.96036],[15.70438,59.96477],[15.70936,59.96568],[15.71073,59.96518],[15.7147,59.96866],[15.71761,59.97245],[15.71923,59.97324],[15.71954,59.97373],[15.71939,59.97394],[15.71867,59.97401],[15.71612,59.97485],[15.7158,59.97524],[15.71525,59.9752],[15.71524,59.97553],[15.71451,59.97553],[15.71428,59.97603],[15.7149,59.97657],[15.71548,59.97661],[15.71532,59.97705],[15.7162,59.97754],[15.71709,59.97994],[15.71694,59.98115],[15.71366,59.98438],[15.7135,59.98522],[15.71366,59.98631],[15.71686,59.98856],[15.71429,59.99596],[15.71441,60.00015],[15.70625,60.00654],[15.70685,60.00806],[15.70301,60.01089],[15.70155,60.01275],[15.69983,60.01341],[15.69877,60.01426],[15.6986,60.01536],[15.7007,60.01594],[15.70262,60.01613],[15.70498,60.01566],[15.70539,60.01582],[15.7062,60.01689],[15.7095,60.01643],[15.71548,60.01785],[15.73089,60.02301],[15.73428,60.0217],[15.7354,60.02196],[15.73839,60.01998],[15.74782,60.02273],[15.75945,60.04189],[15.76332,60.0413],[15.76302,60.04227],[15.76355,60.04243],[15.76436,60.0423],[15.76559,60.04114],[15.76667,60.04124],[15.7689,60.04088],[15.77174,60.04168],[15.77566,60.04246],[15.77835,60.0427],[15.78221,60.0445],[15.78343,60.04423],[15.78592,60.04039],[15.78819,60.04033],[15.7975,60.04274],[15.79968,60.04389],[15.8191,60.0286],[15.85795,60.04743]],[[15.79955,60.02749],[15.79505,60.02697],[15.78911,60.02509],[15.78679,60.02374],[15.78557,60.0225],[15.78356,60.02122],[15.78243,60.01986],[15.78171,60.01959],[15.77924,60.02033],[15.77651,60.02072],[15.77339,60.02079],[15.77059,60.02056],[15.76795,60.01998],[15.76572,60.01909],[15.76401,60.01796],[15.7631,60.01696],[15.76253,60.01557],[15.76247,60.01357],[15.76096,60.01167],[15.76056,60.01006],[15.75933,60.00908],[15.75853,60.00803],[15.7581,60.00642],[15.75896,60.00405],[15.76219,60.00104],[15.76317,59.99932],[15.7656,59.99753],[15.76903,59.99628],[15.77685,59.99529],[15.7804,59.99524],[15.78249,59.99372],[15.78448,59.99266],[15.7884,59.99133],[15.78433,59.98987],[15.78231,59.98883],[15.77929,59.98642],[15.77814,59.98426],[15.7778,59.98232],[15.77813,59.98091],[15.77917,59.97956],[15.78287,59.97634],[15.78376,59.97451],[15.78363,59.97284],[15.78414,59.97143],[15.78231,59.9727],[15.78079,59.97343],[15.77893,59.97402],[15.77664,59.97445],[15.77495,59.97587],[15.77236,59.97709],[15.76983,59.97774],[15.76331,59.97883],[15.75961,59.97994],[15.75679,59.98025],[15.75323,59.98013],[15.7497,59.97947],[15.74734,59.97864],[15.74549,59.97757],[15.74436,59.9765],[15.7436,59.97511],[15.74357,59.97369],[15.74426,59.97228],[15.746,59.97041],[15.74726,59.96947],[15.74968,59.96835],[15.75015,59.96795],[15.74452,59.96575],[15.74263,59.96465],[15.74116,59.96302],[15.74049,59.96018],[15.74104,59.95863],[15.74265,59.95702],[15.74531,59.95567],[15.74851,59.95485],[15.75166,59.95455],[15.75526,59.95472],[15.75938,59.9556],[15.76189,59.95644],[15.76433,59.95632],[15.76714,59.9565],[15.76977,59.95703],[15.77159,59.95767],[15.77316,59.95847],[15.77632,59.96072],[15.78021,59.96265],[15.78168,59.96385],[15.78437,59.96551],[15.78564,59.96758],[15.78524,59.97008],[15.78796,59.9684],[15.79172,59.96736],[15.79688,59.96694],[15.80265,59.96746],[15.80549,59.96809],[15.81012,59.96945],[15.81278,59.97063],[15.81562,59.97241],[15.81671,59.97337],[15.81754,59.97473],[15.81766,59.97615],[15.81708,59.97754],[15.81824,59.97803],[15.82006,59.97818],[15.82258,59.97867],[15.8256,59.97764],[15.829,59.97715],[15.83304,59.97694],[15.84042,59.97731],[15.84311,59.97776],[15.84738,59.9791],[15.84934,59.98016],[15.8507,59.98144],[15.85142,59.98319],[15.85118,59.98462],[15.85164,59.98632],[15.8514,59.9874],[15.85044,59.98876],[15.84868,59.99004],[15.84724,59.99238],[15.84469,59.99485],[15.84565,59.99596],[15.84614,59.99714],[15.84624,59.99948],[15.84581,60.00092],[15.8447,60.00223],[15.84111,60.00484],[15.84344,60.00672],[15.84482,60.01003],[15.84465,60.01184],[15.84336,60.0135],[15.8416,60.01465],[15.83887,60.01568],[15.83633,60.01633],[15.83351,60.01665],[15.83067,60.0166],[15.8264,60.01613],[15.81686,60.01445],[15.8136,60.01518],[15.80963,60.01544],[15.80904,60.01659],[15.81126,60.01805],[15.81258,60.02016],[15.81262,60.02192],[15.81185,60.02331],[15.80996,60.02482],[15.80653,60.02647],[15.80309,60.02726],[15.79955,60.02749]]]}},{"type":"Feature","id":"1982R001","properties":{"code":"1982R001","name":"Fagersta centrum"},"geometry":{"type":"Polygon","coordinates":[[[15.7981,60.01951],[15.79429,60.0164],[15.79437,60.0162],[15.79641,60.01618],[15.79641,60.015],[15.79722,60.0151],[15.7983,60.01482],[15.79849,60.01403],[15.79672,60.01231],[15.79749,60.01181],[15.79739,60.01136],[15.79837,60.01121],[15.79907,60.01072],[15.79945,60.01068],[15.79943,60.01142],[15.80065,60.01146],[15.80074,60.01057],[15.8014,60.00944],[15.802,60.00953],[15.80249,60.00917],[15.80355,60.0094],[15.8032,60.00979],[15.80492,60.01026],[15.8054,60.00986],[15.80707,60.01044],[15.8077,60.00982],[15.80737,60.00979],[15.80612,60.00823],[15.80606,60.00724],[15.80549,60.00648],[15.80583,60.00606],[15.81017,60.00541],[15.80925,60.00374],[15.80974,60.00362],[15.80993,60.00332],[15.811,60.00366],[15.81505,60.00266],[15.81783,60.00263],[15.81696,60.0022],[15.814,59.9986],[15.81582,59.99722],[15.81675,59.99752],[15.81961,60.00076],[15.82054,59.99994],[15.82121,59.99971],[15.82451,59.99966],[15.8255,59.99937],[15.82614,59.99796],[15.8257,59.99744],[15.82584,59.99664],[15.82486,59.99661],[15.82471,59.99645],[15.82404,59.99657],[15.82283,59.99592],[15.82331,59.99569],[15.82302,59.99527],[15.82191,59.9953],[15.81809,59.99467],[15.81927,59.9927],[15.81673,59.99146],[15.81463,59.99156],[15.81341,59.9914],[15.81353,59.99075],[15.81119,59.99065],[15.80953,59.99097],[15.80798,59.9917],[15.80699,59.99286],[15.80577,59.99283],[15.80572,59.99344],[15.80164,59.99468],[15.80123,59.99371],[15.79656,59.99476],[15.7923,59.9962],[15.78963,59.99665],[15.78763,59.99887],[15.78755,59.9996],[15.78649,60.00005],[15.78622,60.00056],[15.78394,60.00164],[15.77984,60.00018],[15.77499,60.0007],[15.77417,60.00138],[15.77381,60.0013],[15.77322,60.0017],[15.77327,60.00214],[15.76944,60.00529],[15.76964,60.00608],[15.76827,60.00632],[15.75847,60.00488],[15.75811,60.00607],[15.75833,60.0076],[15.75905,60.00877],[15.76056,60.01006],[15.76096,60.01167],[15.76247,60.01357],[15.76253,60.01557],[15.76289,60.01663],[15.76437,60.01825],[15.76733,60.01977],[15.77125,60.02065],[15.77504,60.02079],[15.77855,60.02046],[15.78171,60.01959],[15.78243,60.01986],[15.78356,60.02122],[15.78557,60.0225],[15.78679,60.02374],[15.78967,60.02533],[15.79573,60.02711],[15.79881,60.02747],[15.80196,60.0274],[15.80121,60.02674],[15.79936,60.02625],[15.79948,60.0252],[15.80018,60.02506],[15.8003,60.02484],[15.79826,60.02284],[15.79858,60.0224],[15.80045,60.02203],[15.80281,60.02081],[15.7981,60.01951]]]}}]}