{"type":"FeatureCollection","features":[{"type":"Feature","id":"1983R001","properties":{"code":"1983R001","name":"Kolsva"},"geometry":{"type":"Polygon","coordinates":[[[15.83443,59.61243],[15.84054,59.60971],[15.84401,59.61018],[15.84834,59.61032],[15.85058,59.61077],[15.85335,59.611],[15.85548,59.61093],[15.85931,59.61046],[15.86188,59.61074],[15.86477,59.6107],[15.86755,59.61031],[15.86966,59.60972],[15.87182,59.60875],[15.87311,59.60782],[15.8743,59.60642],[15.87472,59.60454],[15.87368,59.60237],[15.87162,59.60081],[15.87341,59.59845],[15.87384,59.59701],[15.87353,59.59546],[15.87228,59.59379],[15.87255,59.59334],[15.87449,59.59255],[15.87596,59.59164],[15.87929,59.59086],[15.88158,59.58981],[15.88351,59.58822],[15.88439,59.58637],[15.88421,59.58475],[15.8831,59.58311],[15.87986,59.58031],[15.87832,59.5795],[15.87622,59.57876],[15.87418,59.5783],[15.87116,59.578],[15.86894,59.57804],[15.8666,59.57832],[15.8636,59.5783],[15.85953,59.57898],[15.85589,59.58049],[15.84952,59.58024],[15.84606,59.58064],[15.84303,59.58155],[15.84071,59.58289],[15.83931,59.58455],[15.83899,59.58603],[15.83715,59.58642],[15.83401,59.58577],[15.83123,59.58558],[15.82706,59.58598],[15.82348,59.58713],[15.81794,59.59033],[15.81646,59.59208],[15.81619,59.59385],[15.81472,59.59493],[15.81387,59.59596],[15.81335,59.59775],[15.81379,59.59929],[15.81596,59.60154],[15.81616,59.60306],[15.8173,59.60463],[15.81664,59.60638],[15.81657,59.6077],[15.81712,59.60904],[15.81802,59.61005],[15.8202,59.61142],[15.82292,59.61242],[15.82554,59.613],[15.82898,59.61323],[15.83181,59.61301],[15.83443,59.61243]]]}},{"type":"Feature","id":"1983R002","properties":{"code":"1983R002","name":"Köping centrala"},"geometry":{"type":"Polygon","coordinates":[[[16.00018,59.52151],[15.99898,59.52112],[15.99807,59.52133],[15.99733,59.52121],[15.99621,59.52062],[15.99538,59.52054],[15.99497,59.52029],[15.99546,59.5192],[15.99447,59.51888],[15.99825,59.51605],[15.99531,59.51461],[15.99567,59.51433],[15.99448,59.51396],[15.99701,59.5121],[15.99403,59.51118],[15.99334,59.51059],[15.99189,59.51168],[15.99055,59.51228],[15.98826,59.51082],[15.98238,59.51306],[15.98228,59.51371],[15.98333,59.51377],[15.98798,59.51645],[15.9894,59.51652],[15.99113,59.51704],[15.99241,59.51781],[15.99265,59.51887],[15.99195,59.51957],[15.99195,59.51995],[15.99244,59.52086],[15.99309,59.5211],[15.99352,59.5218],[15.99641,59.52268],[15.99714,59.52317],[15.99788,59.52335],[15.99949,59.52263],[16.00018,59.52151]]]}},{"type":"Feature","id":"1983R003","properties":{"code":"1983R003","name":"Köping nordväst"},"geometry":{"type":"Polygon","coordinates":[[[15.99765,59.53799],[15.99335,59.53605],[15.99382,59.53563],[15.9928,59.53532],[15.99259,59.53463],[15.99286,59.53388],[15.99205,59.53368],[15.99245,59.53329],[15.99231,59.53267],[15.99129,59.53253],[15.99074,59.53222],[15.99055,59.53173],[15.98837,59.53169],[15.98796,59.53143],[15.98806,59.53115],[15.98905,59.53062],[15.98885,59.53005],[15.98957,59.52996],[15.98998,59.52901],[15.99073,59.52883],[15.99139,59.5284],[15.99152,59.52801],[15.9908,59.52768],[15.99143,59.52737],[15.99113,59.52567],[15.99151,59.52542],[15.99218,59.52542],[15.9924,59.52519],[15.99201,59.52437],[15.98813,59.52422],[15.98993,59.52159],[15.99222,59.5205],[15.99195,59.51957],[15.99265,59.51887],[15.99241,59.51781],[15.99113,59.51704],[15.9894,59.51652],[15.98798,59.51645],[15.98333,59.51377],[15.98228,59.51371],[15.98238,59.51306],[15.97856,59.51484],[15.97418,59.51756],[15.97234,59.51805],[15.97205,59.51843],[15.96975,59.51867],[15.96903,59.51928],[15.96776,59.51947],[15.96384,59.51929],[15.96305,59.51954],[15.96338,59.51995],[15.96332,59.52094],[15.96275,59.52234],[15.96046,59.52344],[15.96123,59.52366],[15.96188,59.52475],[15.96346,59.52628],[15.96612,59.52811],[15.9679,59.52887],[15.97058,59.52956],[15.97407,59.53079],[15.97408,59.53241],[15.97484,59.53382],[15.97638,59.53517],[15.97841,59.53621],[15.98088,59.53697],[15.98365,59.53738],[15.98626,59.53747],[15.98916,59.53723],[15.9912,59.53773],[15.99334,59.53802],[15.99765,59.53799]]]}},{"type":"Feature","id":"1983R008","properties":{"code":"1983R008","name":"Skogsborg"},"geometry":{"type":"Polygon","coordinates":[[[16.01306,59.52961],[16.02002,59.52873],[16.02376,59.52905],[16.02723,59.52958],[16.02901,59.52941],[16.02984,59.52795],[16.02998,59.52638],[16.02964,59.52497],[16.02862,59.52362],[16.02891,59.52307],[16.03109,59.52175],[16.03236,59.52046],[16.03294,59.51904],[16.03278,59.51757],[16.03451,59.51665],[16.0356,59.51576],[16.03882,59.51511],[16.04124,59.51415],[16.04264,59.51327],[16.04371,59.51224],[16.02287,59.51355],[16.02123,59.51393],[16.01376,59.51485],[16.01418,59.51507],[16.01105,59.51711],[16.0028,59.52197],[16.00201,59.52216],[16.00143,59.52275],[16.00063,59.52298],[16.00024,59.52402],[15.99966,59.52457],[16.00004,59.5255],[15.99929,59.52689],[16.00096,59.52855],[15.99948,59.52995],[16.01306,59.52961]]]}},{"type":"Feature","id":"1983R004","properties":{"code":"1983R004","name":"Köping sydväst"},"geometry":{"type":"Polygon","coordinates":[[[15.96305,59.51954],[15.96384,59.51929],[15.96776,59.51947],[15.96903,59.51928],[15.96975,59.51867],[15.96594,59.51737],[15.96317,59.51548],[15.96647,59.51417],[15.96932,59.51252],[15.9704,59.51212],[15.97031,59.51122],[15.97089,59.51069],[15.96961,59.51098],[15.96828,59.51014],[15.96943,59.50962],[15.96834,59.5089],[15.96891,59.50809],[15.97081,59.50775],[15.97217,59.50832],[15.97305,59.50746],[15.97386,59.50744],[15.97488,59.50769],[15.97564,59.50836],[15.9754,59.50885],[15.9824,59.51284],[15.98238,59.51306],[15.98826,59.51082],[15.99055,59.51228],[15.99189,59.51168],[15.99331,59.5106],[15.99303,59.5093],[15.99245,59.50895],[15.99335,59.50827],[15.99073,59.50796],[15.98952,59.50744],[15.98831,59.50637],[15.98898,59.49742],[15.99281,59.4969],[15.98955,59.4924],[15.98924,59.49289],[15.98622,59.49307],[15.983,59.49379],[15.98082,59.49471],[15.9792,59.49586],[15.97723,59.49629],[15.9753,59.49698],[15.97017,59.49513],[15.96695,59.49441],[15.96278,59.49427],[15.95935,59.49477],[15.957,59.49554],[15.95499,59.49654],[15.95351,59.49764],[15.95199,59.49959],[15.94987,59.50066],[15.94659,59.50083],[15.94336,59.50155],[15.94118,59.50247],[15.93923,59.50396],[15.93766,59.5068],[15.9376,59.50858],[15.93884,59.51058],[15.94197,59.51338],[15.94392,59.51439],[15.94643,59.51515],[15.94808,59.51639],[15.94987,59.51725],[15.95155,59.51886],[15.95412,59.52013],[15.95577,59.52143],[15.96046,59.52344],[15.96275,59.52234],[15.96332,59.52094],[15.96338,59.51995],[15.96305,59.51954]]]}},{"type":"Feature","id":"1983R005","properties":{"code":"1983R005","name":"Köping västra omland"},"geometry":{"type":"Polygon","coordinates":[[[15.66755,59.68176],[15.66989,59.68172],[15.67521,59.67995],[15.68248,59.68095],[15.68028,59.68475],[15.72494,59.68558],[15.72677,59.68559],[15.73807,59.6836],[15.74065,59.68516],[15.74095,59.68513],[15.74165,59.68471],[15.74435,59.68406],[15.74608,59.683],[15.74796,59.68276],[15.74895,59.68291],[15.74995,59.68275],[15.75031,59.68248],[15.74995,59.68215],[15.75007,59.68176],[15.75132,59.68076],[15.74995,59.67984],[15.75021,59.67953],[15.75115,59.67958],[15.75229,59.67888],[15.75296,59.67901],[15.75341,59.67863],[15.75308,59.67852],[15.75384,59.67749],[15.75444,59.67716],[15.75473,59.67474],[15.75431,59.67404],[15.75515,59.67241],[15.75736,59.67173],[15.75821,59.67113],[15.76008,59.66963],[15.76034,59.66879],[15.76135,59.66796],[15.76162,59.66715],[15.76337,59.6663],[15.76184,59.66459],[15.75999,59.66386],[15.75992,59.66333],[15.75962,59.66324],[15.76183,59.66088],[15.76312,59.66011],[15.7644,59.65794],[15.76578,59.65746],[15.76762,59.65793],[15.76758,59.65634],[15.76717,59.65626],[15.76655,59.65509],[15.76768,59.65432],[15.76932,59.65382],[15.77012,59.65332],[15.77015,59.65259],[15.77147,59.6495],[15.77182,59.64951],[15.77446,59.64814],[15.79248,59.64825],[15.80721,59.64783],[15.80698,59.64704],[15.80792,59.64639],[15.80873,59.64624],[15.81095,59.6453],[15.81216,59.64529],[15.81324,59.64504],[15.81342,59.64466],[15.81282,59.64431],[15.81285,59.64403],[15.81512,59.64283],[15.81549,59.64238],[15.8156,59.6411],[15.81689,59.63906],[15.81693,59.63844],[15.81627,59.6372],[15.81638,59.63645],[15.81713,59.6356],[15.81797,59.63513],[15.81704,59.63394],[15.81717,59.63322],[15.81551,59.63189],[15.81462,59.63156],[15.81506,59.63115],[15.8155,59.63119],[15.81569,59.63148],[15.81712,59.63157],[15.81804,59.63141],[15.8198,59.63175],[15.8198,59.63157],[15.82073,59.63167],[15.837,59.63394],[15.83651,59.62813],[15.84354,59.61958],[15.84801,59.61606],[15.85192,59.61093],[15.84834,59.61032],[15.84401,59.61018],[15.84054,59.60971],[15.83443,59.61243],[15.83181,59.61301],[15.82903,59.61323],[15.82484,59.61289],[15.8208,59.61168],[15.81837,59.61034],[15.81676,59.60838],[15.81658,59.60672],[15.8173,59.60463],[15.81616,59.60306],[15.81596,59.60154],[15.81422,59.59994],[15.81358,59.59886],[15.81336,59.5974],[15.81368,59.59629],[15.81472,59.59493],[15.81619,59.59385],[15.81646,59.59208],[15.8176,59.59063],[15.81943,59.58936],[15.82456,59.58668],[15.8277,59.58586],[15.8305,59.58559],[15.83401,59.58577],[15.83715,59.58642],[15.83899,59.58603],[15.83931,59.58455],[15.84034,59.58321],[15.84197,59.58205],[15.84416,59.58113],[15.84606,59.58064],[15.84884,59.58027],[15.85589,59.58049],[15.85835,59.57936],[15.86082,59.57866],[15.86403,59.5764],[15.86261,59.57493],[15.86297,59.57277],[15.86568,59.57089],[15.86797,59.56988],[15.87077,59.56698],[15.87116,59.56583],[15.87246,59.56478],[15.87329,59.56355],[15.87445,59.56249],[15.87485,59.56142],[15.88426,59.56339],[15.88566,59.5628],[15.88708,59.56158],[15.89095,59.55896],[15.89219,59.55745],[15.89176,59.55704],[15.89004,59.55635],[15.88989,59.55563],[15.89027,59.55428],[15.89081,59.5533],[15.89317,59.55181],[15.89326,59.55133],[15.89187,59.54906],[15.8904,59.54772],[15.8903,59.54676],[15.89041,59.54626],[15.89142,59.54553],[15.89159,59.54491],[15.89292,59.54338],[15.89242,59.54263],[15.89225,59.54149],[15.89111,59.54112],[15.88942,59.54012],[15.89001,59.53919],[15.89084,59.53873],[15.89027,59.5376],[15.88819,59.53685],[15.88686,59.5372],[15.88569,59.53626],[15.88593,59.53532],[15.88677,59.5343],[15.88653,59.53323],[15.8876,59.53128],[15.88744,59.53061],[15.88869,59.52964],[15.88963,59.52716],[15.89116,59.52565],[15.90325,59.52853],[15.90296,59.52914],[15.90794,59.53082],[15.91503,59.5303],[15.91251,59.5332],[15.91227,59.53423],[15.91168,59.53484],[15.92047,59.53755],[15.92592,59.53946],[15.93178,59.53638],[15.93308,59.53516],[15.93698,59.53268],[15.9417,59.53053],[15.94626,59.52916],[15.9467,59.5291],[15.94704,59.52939],[15.95377,59.52667],[15.95526,59.52502],[15.95544,59.52432],[15.95928,59.52404],[15.96046,59.52344],[15.95577,59.52143],[15.95412,59.52013],[15.95155,59.51886],[15.94987,59.51725],[15.94808,59.51639],[15.94643,59.51515],[15.94392,59.51439],[15.94197,59.51338],[15.93854,59.51024],[15.93772,59.50892],[15.93751,59.50751],[15.93895,59.5043],[15.94118,59.50247],[15.94332,59.50156],[15.94526,59.50106],[15.9473,59.50075],[15.94987,59.50066],[15.95199,59.49959],[15.95351,59.49764],[15.95547,59.49627],[15.95871,59.49494],[15.96206,59.49432],[15.96552,59.49427],[15.96828,59.49463],[15.97341,59.49621],[15.9753,59.49698],[15.97723,59.49629],[15.9792,59.49586],[15.98082,59.49471],[15.983,59.49379],[15.98622,59.49307],[15.98924,59.49289],[15.98955,59.4924],[15.99281,59.4969],[15.98898,59.49742],[15.98831,59.50637],[15.98952,59.50744],[15.99073,59.50796],[15.99335,59.50827],[15.99245,59.50895],[15.99303,59.5093],[15.99331,59.5106],[15.99403,59.51118],[15.99701,59.5121],[15.99448,59.51396],[15.99665,59.51465],[15.99812,59.51488],[15.99948,59.5148],[16.00121,59.51392],[16.00257,59.51383],[16.0131,59.51464],[16.01376,59.51485],[16.02123,59.51393],[16.02287,59.51355],[16.04788,59.51199],[16.04954,59.50914],[16.05249,59.50967],[16.05358,59.50834],[16.05395,59.50723],[16.05341,59.50512],[16.05282,59.50457],[16.05288,59.50329],[16.05338,59.50222],[16.05268,59.50148],[16.05055,59.50015],[16.05016,59.49885],[16.04963,59.49427],[16.05159,59.49111],[16.05388,59.49096],[16.08442,59.47191],[16.07073,59.4711],[16.07066,59.46996],[16.06972,59.46952],[16.06819,59.46937],[16.06203,59.47024],[16.05567,59.4707],[16.05463,59.4714],[16.05246,59.47218],[16.05109,59.47301],[16.04661,59.47417],[16.04523,59.47508],[16.04309,59.47578],[16.0406,59.47622],[16.03811,59.47694],[16.03618,59.47715],[16.03181,59.47821],[16.03003,59.4782],[16.02498,59.47709],[16.02041,59.47687],[16.0187,59.47725],[16.01667,59.47741],[16.01487,59.47805],[16.01173,59.4779],[16.01082,59.47806],[16.00781,59.47915],[16.00535,59.47958],[16.00393,59.4793],[15.99973,59.47774],[15.99673,59.47719],[15.99536,59.47722],[15.99362,59.47782],[15.99227,59.47776],[15.9908,59.47712],[15.98845,59.47662],[15.98688,59.47678],[15.98571,59.47666],[15.98406,59.47607],[15.98246,59.4763],[15.9806,59.477],[15.97802,59.47658],[15.97749,59.47628],[15.9776,59.47554],[15.97723,59.47511],[15.9759,59.47472],[15.97492,59.47514],[15.97207,59.47437],[15.97102,59.47342],[15.96963,59.47292],[15.96947,59.47229],[15.9666,59.47097],[15.9656,59.47003],[15.96554,59.46957],[15.96385,59.46894],[15.9622,59.4689],[15.96055,59.46952],[15.95914,59.47049],[15.95761,59.4704],[15.95484,59.47155],[15.95129,59.47439],[15.94831,59.47762],[15.94597,59.47838],[15.94447,59.47935],[15.94344,59.47934],[15.94264,59.47993],[15.93963,59.48017],[15.93868,59.48045],[15.93811,59.4815],[15.93717,59.48219],[15.93684,59.48377],[15.93764,59.48523],[15.93928,59.4864],[15.93897,59.48855],[15.9398,59.48911],[15.93982,59.48942],[15.93926,59.48977],[15.9372,59.49034],[15.93492,59.49051],[15.93371,59.49006],[15.93154,59.48983],[15.93221,59.48545],[15.93349,59.48446],[15.93069,59.48386],[15.93124,59.48368],[15.92699,59.48335],[15.92747,59.48227],[15.92677,59.48215],[15.92615,59.48328],[15.92707,59.48111],[15.92594,59.48121],[15.92593,59.48041],[15.9257,59.48041],[15.92606,59.47942],[15.92805,59.47724],[15.92906,59.47651],[15.93019,59.47665],[15.93077,59.47645],[15.932,59.47498],[15.92891,59.47414],[15.9281,59.47293],[15.92819,59.47251],[15.92512,59.47214],[15.92271,59.47111],[15.91932,59.4692],[15.91549,59.46768],[15.91285,59.46962],[15.91094,59.4687],[15.90959,59.4701],[15.91161,59.47078],[15.90949,59.47336],[15.90911,59.47336],[15.9088,59.47364],[15.90757,59.47331],[15.907,59.47459],[15.90667,59.47456],[15.90452,59.47383],[15.90101,59.46874],[15.89926,59.46509],[15.89458,59.46428],[15.88324,59.46108],[15.87404,59.45985],[15.87061,59.45914],[15.86776,59.45792],[15.85418,59.45312],[15.84189,59.44976],[15.83225,59.44763],[15.82946,59.4514],[15.8287,59.4536],[15.82357,59.46355],[15.82093,59.46836],[15.82029,59.46888],[15.82077,59.4691],[15.81859,59.47003],[15.81787,59.47062],[15.81599,59.47077],[15.81457,59.4711],[15.81395,59.47216],[15.81282,59.47276],[15.81216,59.47361],[15.81143,59.47406],[15.81076,59.47413],[15.81095,59.47428],[15.81015,59.47462],[15.80977,59.47523],[15.8079,59.4756],[15.80462,59.47769],[15.79351,59.48628],[15.79426,59.48674],[15.79227,59.48995],[15.78894,59.49288],[15.78738,59.49236],[15.78744,59.49317],[15.78681,59.49345],[15.78611,59.49351],[15.78666,59.49411],[15.78604,59.49452],[15.78568,59.49516],[15.78466,59.49548],[15.78468,59.49584],[15.78391,59.4961],[15.78335,59.49686],[15.78296,59.49698],[15.783,59.49726],[15.78229,59.49714],[15.7814,59.49754],[15.78688,59.49867],[15.78823,59.50047],[15.78797,59.50097],[15.78045,59.50636],[15.76842,59.51096],[15.76672,59.51338],[15.7617,59.51658],[15.75083,59.53219],[15.73316,59.54526],[15.73779,59.52465],[15.7134,59.52575],[15.70893,59.53047],[15.70696,59.53533],[15.70475,59.53894],[15.69589,59.53691],[15.68791,59.53533],[15.68291,59.53396],[15.68193,59.5367],[15.67322,59.53477],[15.67229,59.52943],[15.66311,59.5251],[15.64968,59.52254],[15.62849,59.52006],[15.63047,59.52891],[15.62642,59.55022],[15.62667,59.56176],[15.62633,59.57372],[15.63223,59.57105],[15.63545,59.57957],[15.63594,59.58578],[15.63674,59.58936],[15.63664,59.59124],[15.63535,59.59657],[15.63439,59.59604],[15.62321,59.59823],[15.6224,59.60204],[15.62174,59.60764],[15.621,59.61714],[15.61997,59.62229],[15.6188,59.62644],[15.61569,59.63047],[15.60398,59.63099],[15.58482,59.62831],[15.57193,59.62728],[15.56509,59.62704],[15.55846,59.62774],[15.54595,59.62862],[15.52105,59.63343],[15.51637,59.64092],[15.51506,59.64233],[15.51254,59.65256],[15.52671,59.666],[15.52576,59.66945],[15.52454,59.67693],[15.53284,59.68658],[15.52893,59.69016],[15.53842,59.69055],[15.55037,59.69917],[15.60717,59.69756],[15.64542,59.68373],[15.64682,59.68299],[15.66247,59.68283],[15.66755,59.68176]]]}},{"type":"Feature","id":"1983R006","properties":{"code":"1983R006","name":"Köping östra omland"},"geometry":{"type":"Polygon","coordinates":[[[16.02814,59.66041],[16.1101,59.65463],[16.11267,59.65475],[16.11339,59.65391],[16.11231,59.65278],[16.11015,59.64462],[16.09923,59.64125],[16.09599,59.6398],[16.09153,59.64348],[16.08944,59.6434],[16.08324,59.64108],[16.08377,59.63941],[16.08064,59.63879],[16.08088,59.63499],[16.07836,59.63425],[16.07691,59.63196],[16.07728,59.6298],[16.07443,59.62793],[16.07499,59.61707],[16.07453,59.61606],[16.07725,59.61135],[16.08143,59.61],[16.08137,59.60899],[16.08069,59.60891],[16.08049,59.60748],[16.08214,59.6059],[16.08227,59.60428],[16.08544,59.6029],[16.09128,59.60377],[16.09316,59.60292],[16.09782,59.60361],[16.10713,59.60247],[16.10685,59.6004],[16.1136,59.59784],[16.11579,59.59742],[16.11842,59.59717],[16.12129,59.59475],[16.12231,59.59461],[16.12329,59.59313],[16.12674,59.59041],[16.12664,59.58909],[16.12753,59.58658],[16.12582,59.58527],[16.1254,59.58428],[16.1256,59.58399],[16.12514,59.58348],[16.12339,59.58353],[16.11911,59.5803],[16.12545,59.57945],[16.13251,59.57826],[16.14307,59.57062],[16.14552,59.56859],[16.15198,59.56192],[16.15671,59.55905],[16.15869,59.55744],[16.16825,59.55091],[16.17084,59.54447],[16.17656,59.54216],[16.17743,59.5351],[16.18164,59.53569],[16.20073,59.53685],[16.20828,59.53779],[16.21337,59.53428],[16.21551,59.53228],[16.22011,59.52924],[16.21991,59.52916],[16.22065,59.52893],[16.22383,59.52696],[16.22493,59.52758],[16.22604,59.52783],[16.23084,59.52221],[16.23101,59.5219],[16.23077,59.52182],[16.23586,59.5166],[16.22902,59.51231],[16.21836,59.5],[16.21296,59.49859],[16.21351,59.49778],[16.21054,59.49428],[16.21227,59.49275],[16.21354,59.49093],[16.21311,59.4906],[16.20902,59.48258],[16.20397,59.47936],[16.20289,59.47835],[16.19988,59.46905],[16.21048,59.46671],[16.22337,59.46781],[16.22695,59.46731],[16.22186,59.46261],[16.218,59.46013],[16.20573,59.4547],[16.19213,59.45094],[16.16653,59.45094],[16.12944,59.45869],[16.11304,59.45897],[16.10794,59.45924],[16.08442,59.47191],[16.05388,59.49096],[16.05159,59.49111],[16.04963,59.49427],[16.05055,59.50015],[16.05268,59.50148],[16.05338,59.50222],[16.05288,59.50329],[16.05282,59.50457],[16.05341,59.50512],[16.054,59.5069],[16.05292,59.50936],[16.05249,59.50967],[16.04954,59.50914],[16.04788,59.51199],[16.04371,59.51224],[16.04264,59.51327],[16.04124,59.51415],[16.03882,59.51511],[16.0356,59.51576],[16.03451,59.51665],[16.03278,59.51757],[16.03294,59.51904],[16.03236,59.52046],[16.03109,59.52175],[16.02891,59.52307],[16.02862,59.52362],[16.02946,59.52464],[16.02995,59.52604],[16.02992,59.52758],[16.02933,59.529],[16.02724,59.53083],[16.02434,59.53204],[16.02386,59.53406],[16.0224,59.53569],[16.02053,59.53678],[16.01822,59.53758],[16.0141,59.53837],[16.01102,59.53851],[16.0087,59.53836],[16.00661,59.538],[16.00462,59.53742],[16.00292,59.53669],[15.99934,59.53775],[15.99564,59.5381],[15.99202,59.53787],[15.98916,59.53723],[15.98693,59.53745],[15.98459,59.53745],[15.98233,59.53723],[15.98027,59.53682],[15.97726,59.53569],[15.9752,59.53422],[15.97408,59.53241],[15.97407,59.53079],[15.97058,59.52956],[15.9679,59.52887],[15.96612,59.52811],[15.96346,59.52628],[15.96188,59.52475],[15.96123,59.52366],[15.96046,59.52344],[15.95928,59.52404],[15.95544,59.52432],[15.95526,59.52502],[15.95377,59.52667],[15.94704,59.52939],[15.9467,59.5291],[15.94626,59.52916],[15.9417,59.53053],[15.93698,59.53268],[15.93308,59.53516],[15.93178,59.53638],[15.92592,59.53946],[15.92047,59.53755],[15.91168,59.53484],[15.91227,59.53423],[15.91251,59.5332],[15.91503,59.5303],[15.90794,59.53082],[15.90296,59.52914],[15.90325,59.52853],[15.89116,59.52565],[15.8898,59.5269],[15.88877,59.52952],[15.88733,59.53085],[15.8876,59.53128],[15.88653,59.53323],[15.88677,59.5343],[15.88593,59.53532],[15.88569,59.53626],[15.88686,59.5372],[15.88819,59.53685],[15.89027,59.5376],[15.89084,59.53873],[15.89001,59.53919],[15.88942,59.54012],[15.89111,59.54112],[15.89225,59.54149],[15.89242,59.54263],[15.89292,59.54338],[15.89159,59.54491],[15.89142,59.54553],[15.89041,59.54626],[15.8903,59.54676],[15.8904,59.54772],[15.89187,59.54906],[15.89326,59.55133],[15.89317,59.55181],[15.89081,59.5533],[15.88989,59.55563],[15.89015,59.55646],[15.89189,59.55711],[15.8921,59.55776],[15.89059,59.55928],[15.88708,59.56158],[15.88566,59.5628],[15.88426,59.56339],[15.87485,59.56142],[15.87445,59.56249],[15.87329,59.56355],[15.87246,59.56478],[15.87116,59.56583],[15.87077,59.56698],[15.86797,59.56988],[15.86568,59.57089],[15.86297,59.57277],[15.86261,59.57493],[15.86403,59.5764],[15.86082,59.57866],[15.86355,59.57831],[15.8666,59.57832],[15.86894,59.57804],[15.87116,59.578],[15.87481,59.57841],[15.87763,59.57922],[15.88027,59.58058],[15.88341,59.58343],[15.88435,59.58525],[15.88418,59.58714],[15.88318,59.58859],[15.88146,59.58989],[15.87872,59.59104],[15.87596,59.59164],[15.87449,59.59255],[15.87255,59.59334],[15.87228,59.59379],[15.87353,59.59546],[15.87384,59.59701],[15.87341,59.59845],[15.87162,59.60081],[15.87368,59.60237],[15.87472,59.60454],[15.8743,59.60642],[15.87276,59.60811],[15.87021,59.60952],[15.86628,59.61054],[15.86255,59.61076],[15.85931,59.61046],[15.85548,59.61093],[15.85192,59.61093],[15.84801,59.61606],[15.84354,59.61958],[15.83651,59.62813],[15.837,59.63394],[15.8409,59.6389],[15.84467,59.64186],[15.84752,59.64165],[15.85518,59.64152],[15.86325,59.64231],[15.86313,59.64474],[15.86538,59.64804],[15.86562,59.65364],[15.8914,59.66328],[15.89254,59.66425],[15.89518,59.66486],[15.8996,59.66638],[15.90035,59.66688],[15.90581,59.6689],[15.93443,59.66801],[15.93449,59.66749],[15.93536,59.6671],[15.93543,59.66652],[15.93645,59.66616],[15.93647,59.66552],[15.93687,59.66549],[15.93682,59.6651],[15.93794,59.66447],[15.93848,59.66345],[15.95046,59.66536],[15.95788,59.66032],[15.9645,59.661],[15.96486,59.66636],[15.97182,59.68564],[15.97344,59.69436],[15.99659,59.71322],[16.01078,59.67157],[16.02417,59.66415],[16.02814,59.66041]]]}},{"type":"Feature","id":"1983R007","properties":{"code":"1983R007","name":"Nibblesbacke"},"geometry":{"type":"Polygon","coordinates":[[[15.97205,59.51843],[15.97234,59.51805],[15.97418,59.51756],[15.97856,59.51484],[15.98238,59.51306],[15.9824,59.51284],[15.9754,59.50885],[15.97564,59.50836],[15.97516,59.50784],[15.97351,59.50742],[15.97305,59.50746],[15.97217,59.50832],[15.97081,59.50775],[15.96891,59.50809],[15.96834,59.5089],[15.96943,59.50962],[15.96828,59.51014],[15.96961,59.51098],[15.97089,59.51069],[15.97031,59.51122],[15.9704,59.51212],[15.96932,59.51252],[15.96647,59.51417],[15.96317,59.51548],[15.96594,59.51737],[15.96746,59.51794],[15.96975,59.51867],[15.97205,59.51843]]]}},{"type":"Feature","id":"1983R009","properties":{"code":"1983R009","name":"Östanås-Johannisdal"},"geometry":{"type":"Polygon","coordinates":[[[16.02057,59.53676],[16.0224,59.53569],[16.0234,59.53473],[16.02415,59.53337],[16.02434,59.53204],[16.02724,59.53083],[16.02901,59.52941],[16.02723,59.52958],[16.02376,59.52905],[16.02002,59.52873],[16.01306,59.52961],[15.99948,59.52995],[16.00096,59.52855],[15.99929,59.52689],[16.00004,59.5255],[15.99966,59.52457],[16.00024,59.52402],[16.00063,59.52298],[16.00143,59.52275],[16.00201,59.52216],[16.0028,59.52197],[16.00958,59.51802],[16.01418,59.51507],[16.0131,59.51464],[16.00257,59.51383],[16.00121,59.51392],[15.99948,59.5148],[15.99873,59.51489],[15.99752,59.51482],[15.99567,59.51433],[15.99531,59.51461],[15.99825,59.51605],[15.99447,59.51888],[15.99546,59.5192],[15.99497,59.52029],[15.99538,59.52054],[15.99621,59.52062],[15.99733,59.52121],[15.99807,59.52133],[15.99898,59.52112],[16.00018,59.52151],[15.99949,59.52263],[15.99788,59.52335],[15.99714,59.52317],[15.99641,59.52268],[15.99352,59.5218],[15.99309,59.5211],[15.99244,59.52086],[15.99222,59.5205],[15.98993,59.52159],[15.98813,59.52422],[15.99201,59.52437],[15.9924,59.52519],[15.99218,59.52542],[15.99151,59.52542],[15.99113,59.52567],[15.99143,59.52737],[15.9908,59.52768],[15.99152,59.52801],[15.99139,59.5284],[15.99073,59.52883],[15.98998,59.52901],[15.98957,59.52996],[15.98885,59.53005],[15.98905,59.53062],[15.98806,59.53115],[15.98796,59.53143],[15.98837,59.53169],[15.99055,59.53173],[15.99074,59.53222],[15.99129,59.53253],[15.99231,59.53267],[15.99245,59.53329],[15.99205,59.53368],[15.99286,59.53388],[15.99259,59.53463],[15.9928,59.53532],[15.99382,59.53563],[15.99335,59.53605],[15.99765,59.53799],[16.00057,59.53748],[16.00292,59.53669],[16.00484,59.5375],[16.00741,59.53816],[16.01024,59.53849],[16.01258,59.53849],[16.01475,59.53828],[16.01756,59.53774],[16.02057,59.53676]]]}}]}