{"type":"FeatureCollection","features":[{"type":"Feature","id":"2023R001","properties":{"code":"2023R001","name":"Limedsforsen-Lima-Rörbäcksnäs"},"geometry":{"type":"Polygon","coordinates":[[[13.00761,61.21592],[13.07019,61.07706],[13.1543,61.05888],[13.32581,61.0221],[13.54263,61.03158],[13.5594,60.99845],[13.59226,60.94027],[13.59542,60.93396],[13.58811,60.93372],[13.59335,60.92234],[13.60175,60.92272],[13.61285,60.90224],[13.61085,60.86107],[13.54105,60.82872],[13.43717,60.79408],[13.38882,60.78468],[13.31543,60.7712],[13.24995,60.75958],[13.15941,60.75514],[13.08164,60.80582],[13.00624,60.84123],[12.96144,60.86254],[12.86486,60.91223],[12.6987,60.99812],[12.67023,61.056],[12.67123,61.05652],[12.6814,61.05954],[12.68258,61.06122],[12.69483,61.10143],[12.70703,61.14327],[12.79035,61.19705],[12.79816,61.2081],[13.00761,61.21592]]]}},{"type":"Feature","id":"2023R002","properties":{"code":"2023R002","name":"Malungs nordöstra tätort"},"geometry":{"type":"Polygon","coordinates":[[[13.66935,60.71572],[13.67223,60.71555],[13.67499,60.71502],[13.67872,60.71367],[13.68099,60.71242],[13.68211,60.71215],[13.68571,60.71199],[13.68783,60.71169],[13.6907,60.71091],[13.69597,60.70998],[13.69825,60.70916],[13.69972,60.70833],[13.70327,60.70805],[13.70738,60.70711],[13.71064,60.70578],[13.71183,60.7049],[13.71279,60.70375],[13.7155,60.70293],[13.71754,60.70184],[13.72061,60.70127],[13.72317,60.70034],[13.72652,60.70049],[13.72954,60.70019],[13.72489,60.69555],[13.73493,60.6924],[13.73607,60.69132],[13.73542,60.6909],[13.73315,60.69028],[13.72521,60.68854],[13.7206,60.68562],[13.71508,60.68313],[13.71402,60.68308],[13.71031,60.68146],[13.70068,60.68707],[13.70021,60.68707],[13.69285,60.69152],[13.6808,60.69624],[13.67497,60.69895],[13.66879,60.70048],[13.66039,60.702],[13.65831,60.70261],[13.64916,60.70213],[13.63845,60.70502],[13.64172,60.70586],[13.64504,60.70629],[13.64832,60.70649],[13.64863,60.70771],[13.64934,60.70874],[13.65086,60.70995],[13.6524,60.71072],[13.65648,60.71205],[13.659,60.71256],[13.66086,60.7139],[13.66368,60.71499],[13.66642,60.71554],[13.66935,60.71572]]]}},{"type":"Feature","id":"2023R003","properties":{"code":"2023R003","name":"Malungs omland"},"geometry":{"type":"Polygon","coordinates":[[[13.92952,60.86023],[13.94909,60.85378],[13.97874,60.84322],[14.01627,60.80385],[13.97817,60.76441],[13.95881,60.74348],[13.94343,60.73469],[13.96006,60.7187],[14.00566,60.68791],[14.00696,60.68108],[14.01077,60.66591],[14.02046,60.62175],[13.99196,60.58751],[13.98045,60.58668],[13.95404,60.58433],[13.93004,60.57563],[13.89921,60.56223],[13.9036,60.55109],[13.90337,60.54118],[13.90359,60.50519],[13.90459,60.50477],[13.90602,60.50329],[13.90727,60.50081],[13.90745,60.49898],[13.90877,60.49591],[13.90959,60.49236],[13.91123,60.49045],[13.91155,60.49041],[13.90476,60.45747],[13.90491,60.45663],[13.9147,60.4299],[13.92988,60.39243],[13.94172,60.35816],[13.94774,60.29021],[13.94152,60.26664],[13.93846,60.26465],[13.94066,60.26235],[13.9443,60.25588],[13.94781,60.25453],[13.94963,60.25221],[13.95992,60.24371],[13.96336,60.23963],[13.96535,60.23835],[13.96581,60.23758],[13.96595,60.23638],[13.96787,60.23539],[13.96906,60.23398],[13.97028,60.23348],[13.97123,60.23163],[13.97449,60.23046],[13.97507,60.22985],[13.97622,60.22931],[13.97612,60.22864],[13.97837,60.22734],[13.98443,60.22106],[13.9848,60.21889],[13.98587,60.21848],[13.98808,60.21808],[13.98884,60.21766],[13.9931,60.21393],[13.99369,60.21257],[13.9961,60.21079],[14.00181,60.20396],[14.00567,60.19764],[14.01193,60.19111],[13.96552,60.1752],[13.91992,60.20147],[13.82797,60.25477],[13.7958,60.28191],[13.79271,60.28478],[13.75098,60.33004],[13.72797,60.35573],[13.72118,60.36168],[13.67083,60.40336],[13.62172,60.41439],[13.54234,60.42247],[13.46808,60.45942],[13.44202,60.49783],[13.42817,60.51703],[13.34991,60.58388],[13.33143,60.60017],[13.33086,60.6013],[13.3275,60.60472],[13.328,60.60581],[13.32725,60.60709],[13.32414,60.60834],[13.27582,60.64445],[13.24877,60.68611],[13.19418,60.68479],[13.19691,60.68609],[13.19865,60.68656],[13.20076,60.68839],[13.20082,60.68879],[13.19916,60.69012],[13.19984,60.69251],[13.1995,60.69326],[13.19856,60.69404],[13.19884,60.696],[13.1984,60.69637],[13.19725,60.69647],[13.19631,60.69707],[13.1963,60.69787],[13.19732,60.69836],[13.16847,60.74215],[13.15941,60.75514],[13.24995,60.75958],[13.31543,60.7712],[13.365,60.78025],[13.38882,60.78468],[13.43717,60.79408],[13.54105,60.82872],[13.61085,60.86107],[13.62124,60.86193],[13.63108,60.86249],[13.65308,60.86313],[13.67474,60.86399],[13.73498,60.86363],[13.74402,60.86332],[13.76482,60.86401],[13.77895,60.86404],[13.79275,60.8634],[13.80962,60.86476],[13.82433,60.86495],[13.83645,60.86486],[13.8588,60.86583],[13.88577,60.8665],[13.9069,60.86728],[13.92952,60.86023]],[[13.6686,60.71571],[13.6657,60.71543],[13.66308,60.71481],[13.66083,60.71388],[13.659,60.71256],[13.65648,60.71205],[13.65188,60.71049],[13.64934,60.70874],[13.64863,60.70771],[13.64832,60.70649],[13.64504,60.70629],[13.64106,60.70574],[13.63845,60.70502],[13.63616,60.70394],[13.63433,60.70238],[13.63355,60.70051],[13.6338,60.699],[13.63565,60.69606],[13.63806,60.6943],[13.64105,60.69323],[13.6452,60.6926],[13.64931,60.69265],[13.65153,60.69153],[13.65406,60.69079],[13.65685,60.6904],[13.65948,60.69034],[13.66098,60.68956],[13.66482,60.6881],[13.6675,60.68619],[13.67121,60.68474],[13.67421,60.68257],[13.6765,60.6817],[13.67867,60.68121],[13.67991,60.6803],[13.68081,60.67909],[13.68208,60.67809],[13.68316,60.67642],[13.686,60.67408],[13.68518,60.67291],[13.68486,60.67147],[13.68529,60.67007],[13.68608,60.66906],[13.68908,60.66689],[13.69141,60.666],[13.69428,60.6654],[13.69689,60.66342],[13.6999,60.66221],[13.70031,60.66107],[13.70147,60.65973],[13.70417,60.65796],[13.7064,60.65699],[13.70741,60.65547],[13.70967,60.65394],[13.70991,60.65236],[13.71122,60.6507],[13.71301,60.64955],[13.71536,60.64866],[13.71532,60.64691],[13.71613,60.64552],[13.7179,60.64396],[13.72043,60.64277],[13.72164,60.64094],[13.72274,60.63996],[13.72581,60.63844],[13.7293,60.63762],[13.73386,60.63741],[13.73776,60.63791],[13.74148,60.63919],[13.74397,60.64106],[13.74474,60.64248],[13.74478,60.64434],[13.74562,60.64581],[13.7456,60.64741],[13.74813,60.64749],[13.75099,60.64791],[13.75298,60.64846],[13.7552,60.64944],[13.75691,60.65063],[13.75779,60.65158],[13.7584,60.65348],[13.75972,60.65541],[13.75976,60.65683],[13.75929,60.65791],[13.75821,60.65924],[13.75707,60.66008],[13.75639,60.6616],[13.755,60.66302],[13.75513,60.66472],[13.75386,60.66693],[13.75432,60.66933],[13.75389,60.67127],[13.75329,60.67231],[13.75165,60.67403],[13.75365,60.67492],[13.75593,60.67639],[13.75703,60.67769],[13.75742,60.67906],[13.7571,60.68043],[13.75609,60.68172],[13.75442,60.68286],[13.75222,60.68379],[13.75299,60.68522],[13.75308,60.68634],[13.75198,60.68852],[13.74939,60.69038],[13.74456,60.69504],[13.74259,60.69608],[13.73984,60.69691],[13.73734,60.69794],[13.73008,60.7001],[13.72652,60.70049],[13.72317,60.70034],[13.72061,60.70127],[13.71754,60.70184],[13.7155,60.70293],[13.71279,60.70375],[13.71183,60.7049],[13.71064,60.70578],[13.70738,60.70711],[13.70327,60.70805],[13.69972,60.70833],[13.69825,60.70916],[13.69597,60.70998],[13.6907,60.71091],[13.68783,60.71169],[13.68502,60.71205],[13.68267,60.71207],[13.68099,60.71242],[13.67872,60.71367],[13.67431,60.71519],[13.67155,60.71562],[13.6686,60.71571]]]}},{"type":"Feature","id":"2023R004","properties":{"code":"2023R004","name":"Malungs sydöstra tätort"},"geometry":{"type":"Polygon","coordinates":[[[13.72954,60.70019],[13.73733,60.69795],[13.73984,60.69691],[13.74199,60.6963],[13.74498,60.69473],[13.74939,60.69038],[13.75116,60.68924],[13.75225,60.6882],[13.75289,60.68712],[13.7531,60.686],[13.75222,60.68379],[13.75442,60.68286],[13.75607,60.68174],[13.75691,60.68076],[13.75741,60.6794],[13.75719,60.67802],[13.75626,60.67669],[13.75465,60.6755],[13.75165,60.67403],[13.75329,60.67231],[13.75389,60.67127],[13.75432,60.66933],[13.75386,60.66693],[13.75513,60.66472],[13.755,60.66302],[13.75639,60.6616],[13.75707,60.66008],[13.75852,60.65893],[13.75931,60.65788],[13.75982,60.65648],[13.75959,60.65505],[13.7584,60.65348],[13.75817,60.65225],[13.75754,60.65126],[13.7552,60.64944],[13.75298,60.64846],[13.75099,60.64791],[13.74813,60.64749],[13.7456,60.64741],[13.74562,60.64581],[13.74478,60.64434],[13.74474,60.64248],[13.74397,60.64106],[13.74148,60.63919],[13.73975,60.63846],[13.73765,60.63789],[13.73686,60.64164],[13.73673,60.64444],[13.73555,60.64678],[13.73337,60.64882],[13.73249,60.65095],[13.73324,60.65563],[13.73315,60.65798],[13.73229,60.65932],[13.73073,60.66025],[13.72984,60.66133],[13.729,60.66724],[13.72792,60.66759],[13.72487,60.66713],[13.72171,60.66709],[13.71988,60.66838],[13.72009,60.67065],[13.71952,60.6725],[13.71703,60.67453],[13.71138,60.68083],[13.71031,60.68146],[13.71402,60.68308],[13.71508,60.68313],[13.7206,60.68562],[13.72521,60.68854],[13.73315,60.69028],[13.73542,60.6909],[13.73607,60.69132],[13.73493,60.6924],[13.72489,60.69555],[13.72954,60.70019]]]}},{"type":"Feature","id":"2023R005","properties":{"code":"2023R005","name":"Malungs västra tätort"},"geometry":{"type":"Polygon","coordinates":[[[13.63845,60.70502],[13.64916,60.70213],[13.65831,60.70261],[13.66039,60.702],[13.66879,60.70048],[13.67497,60.69895],[13.6808,60.69624],[13.69285,60.69152],[13.70021,60.68707],[13.70068,60.68707],[13.71138,60.68083],[13.71703,60.67453],[13.71952,60.6725],[13.72009,60.67065],[13.71988,60.66838],[13.72171,60.66709],[13.72487,60.66713],[13.72792,60.66759],[13.729,60.66724],[13.72984,60.66133],[13.73073,60.66025],[13.73229,60.65932],[13.73315,60.65798],[13.73324,60.65563],[13.73249,60.65095],[13.73337,60.64882],[13.73555,60.64678],[13.73673,60.64444],[13.73686,60.64164],[13.73765,60.63789],[13.73316,60.63739],[13.7293,60.63762],[13.72581,60.63844],[13.72274,60.63996],[13.72164,60.64094],[13.72043,60.64277],[13.7179,60.64396],[13.71613,60.64552],[13.71532,60.64691],[13.71536,60.64866],[13.71301,60.64955],[13.71122,60.6507],[13.70991,60.65236],[13.70967,60.65394],[13.70741,60.65547],[13.7064,60.65699],[13.70417,60.65796],[13.70147,60.65973],[13.70031,60.66107],[13.6999,60.66221],[13.69689,60.66342],[13.69428,60.6654],[13.69141,60.666],[13.68908,60.66689],[13.68608,60.66906],[13.68529,60.67007],[13.68486,60.67147],[13.68518,60.67291],[13.686,60.67408],[13.68316,60.67642],[13.68208,60.67809],[13.68081,60.67909],[13.67991,60.6803],[13.67867,60.68121],[13.6765,60.6817],[13.67421,60.68257],[13.67121,60.68474],[13.6675,60.68619],[13.66482,60.6881],[13.66098,60.68956],[13.65948,60.69034],[13.65685,60.6904],[13.65406,60.69079],[13.65153,60.69153],[13.64931,60.69265],[13.64589,60.69256],[13.64168,60.69308],[13.63915,60.69382],[13.6367,60.69511],[13.63537,60.6964],[13.6338,60.699],[13.63355,60.70047],[13.63386,60.70163],[13.63574,60.70367],[13.63845,60.70502]]]}},{"type":"Feature","id":"2023R006","properties":{"code":"2023R006","name":"Transtrand-Sälen-Sörsjön"},"geometry":{"type":"Polygon","coordinates":[[[13.09837,61.52175],[13.18128,61.43403],[13.19825,61.41655],[13.1988,61.41647],[13.19905,61.41615],[13.19996,61.4163],[13.20127,61.41614],[13.20154,61.415],[13.20246,61.41399],[13.20371,61.41358],[13.20628,61.4111],[13.215,61.40466],[13.21737,61.40503],[13.21855,61.40477],[13.21832,61.40445],[13.21932,61.40454],[13.21933,61.4038],[13.21991,61.40297],[13.22087,61.40284],[13.22128,61.40219],[13.22195,61.40189],[13.22146,61.40149],[13.22178,61.40096],[13.22281,61.40059],[13.22294,61.40033],[13.22242,61.40001],[13.22236,61.39964],[13.22346,61.39958],[13.22294,61.39923],[13.22339,61.39877],[13.22389,61.39885],[13.22422,61.39866],[13.22427,61.39809],[13.22492,61.39778],[13.225,61.39721],[13.22536,61.39708],[13.22505,61.39676],[13.22529,61.39639],[13.22617,61.39626],[13.22575,61.39606],[13.22609,61.39563],[13.22679,61.39531],[13.22691,61.39492],[13.22756,61.39479],[13.22754,61.39443],[13.22795,61.39449],[13.22829,61.39381],[13.22888,61.39386],[13.22961,61.39344],[13.22951,61.39316],[13.2315,61.39296],[13.23192,61.39264],[13.23164,61.3923],[13.23194,61.39199],[13.23162,61.39191],[13.23192,61.39162],[13.23135,61.39135],[13.23187,61.39118],[13.23173,61.39086],[13.23213,61.39063],[13.23217,61.39021],[13.23385,61.39002],[13.23348,61.38977],[13.23375,61.38963],[13.23505,61.38968],[13.23582,61.3895],[13.23621,61.38898],[13.23593,61.38841],[13.23684,61.38788],[13.23737,61.38783],[13.23886,61.38671],[13.23883,61.38635],[13.23955,61.38587],[13.23925,61.38502],[13.23998,61.38378],[13.2397,61.38301],[13.23816,61.38123],[13.23805,61.37995],[13.23866,61.37857],[13.23796,61.37822],[13.23795,61.37789],[13.23884,61.37766],[13.23796,61.37735],[13.23854,61.37711],[13.23904,61.37716],[13.23939,61.37656],[13.24034,61.37628],[13.24003,61.37578],[13.2405,61.3755],[13.24032,61.37527],[13.24136,61.37499],[13.24107,61.37442],[13.24194,61.37371],[13.24269,61.37386],[13.24354,61.37272],[13.24364,61.37202],[13.24427,61.37195],[13.24467,61.37159],[13.24603,61.37122],[13.24596,61.37103],[13.24489,61.37106],[13.24452,61.3705],[13.25229,61.36366],[13.35311,61.28723],[13.36416,61.26978],[13.38443,61.23186],[13.38718,61.22668],[13.39392,61.21049],[13.43914,61.14875],[13.43998,61.14763],[13.51342,61.09238],[13.54263,61.03158],[13.32581,61.0221],[13.1543,61.05888],[13.07019,61.07706],[13.00761,61.21592],[12.79816,61.2081],[12.83383,61.25846],[12.8531,61.30812],[12.87085,61.3565],[12.93614,61.40267],[12.97464,61.43022],[13.07422,61.50206],[13.09837,61.52175]]]}}]}