{"type":"FeatureCollection","features":[{"type":"Feature","id":"2029R006","properties":{"code":"2029R006","name":"Åkerö-Västanvik-Häradsbygden"},"geometry":{"type":"Polygon","coordinates":[[[14.94832,60.7542],[14.95153,60.75385],[14.95661,60.75268],[14.96697,60.73239],[14.96802,60.72937],[14.97164,60.72632],[14.98051,60.72786],[14.98567,60.72933],[14.98825,60.72981],[14.99102,60.72978],[14.99956,60.72852],[15.00338,60.72828],[15.00942,60.72845],[15.01316,60.72932],[15.01645,60.72964],[15.01905,60.72978],[15.02154,60.72966],[15.02307,60.72902],[15.02998,60.72048],[15.03208,60.71541],[15.04034,60.71338],[15.05525,60.7059],[15.05837,60.70513],[15.06365,60.70604],[15.06608,60.70939],[15.06951,60.70997],[15.07338,60.70896],[15.07326,60.70887],[15.07601,60.70787],[15.07793,60.70668],[15.07914,60.70535],[15.07965,60.70381],[15.07936,60.70235],[15.07834,60.70098],[15.07652,60.69969],[15.07362,60.69851],[15.07106,60.69689],[15.06873,60.696],[15.06671,60.69547],[15.06615,60.69468],[15.06989,60.69052],[15.07376,60.69228],[15.07778,60.69325],[15.08293,60.69364],[15.08837,60.69332],[15.08955,60.69484],[15.09121,60.69594],[15.09486,60.69749],[15.09747,60.69817],[15.10003,60.69848],[15.10457,60.69669],[15.09863,60.6937],[15.09656,60.69205],[15.09155,60.69044],[15.0884,60.68988],[15.08525,60.68955],[15.07831,60.69015],[15.07604,60.69007],[15.0757,60.68929],[15.07655,60.68779],[15.07707,60.6851],[15.07587,60.684],[15.0742,60.68418],[15.07497,60.68305],[15.07447,60.68161],[15.07127,60.67889],[15.07082,60.67824],[15.07052,60.67652],[15.07196,60.67382],[15.07134,60.67089],[15.07068,60.66984],[15.06578,60.67143],[15.06308,60.67323],[15.06229,60.67429],[15.06193,60.67544],[15.06205,60.67675],[15.06265,60.67795],[15.06086,60.67749],[15.05745,60.67697],[15.05312,60.67694],[15.04556,60.67764],[15.0421,60.6786],[15.03997,60.67957],[15.03838,60.68078],[15.03736,60.68248],[15.03446,60.68439],[15.03319,60.68569],[15.03262,60.68745],[15.03317,60.68962],[15.03289,60.69134],[15.03053,60.69294],[15.02946,60.69502],[15.02652,60.69593],[15.02338,60.6975],[15.01963,60.6981],[15.01669,60.6992],[15.01497,60.70034],[15.01362,60.70182],[15.01306,60.70324],[15.01323,60.70461],[15.01077,60.70517],[15.00908,60.7058],[15.00766,60.70658],[15.00648,60.70757],[15.00162,60.70754],[14.99706,60.70795],[14.99443,60.7078],[14.9905,60.70787],[14.98624,60.70852],[14.98473,60.70761],[14.98296,60.7069],[14.98078,60.70631],[14.97858,60.70597],[14.97471,60.70587],[14.96936,60.70652],[14.96733,60.70701],[14.96452,60.70809],[14.96277,60.70925],[14.96157,60.71082],[14.95821,60.71199],[14.9564,60.71284],[14.95503,60.71369],[14.95391,60.71479],[14.95154,60.71556],[14.94704,60.71664],[14.94385,60.71801],[14.93959,60.71785],[14.93545,60.71848],[14.93283,60.71935],[14.93083,60.72038],[14.92915,60.72196],[14.92857,60.72373],[14.92893,60.72516],[14.93028,60.7267],[14.92896,60.72832],[14.92858,60.72975],[14.92895,60.73116],[14.93006,60.73252],[14.92977,60.73414],[14.93045,60.73577],[14.92979,60.73671],[14.92779,60.73762],[14.92549,60.73909],[14.92386,60.74091],[14.9235,60.7427],[14.92385,60.74381],[14.92478,60.74501],[14.92441,60.74645],[14.92477,60.7479],[14.92554,60.74896],[14.9284,60.75154],[14.92987,60.75234],[14.93223,60.75317],[14.93794,60.75404],[14.94832,60.7542]]]}},{"type":"Feature","id":"2029R001","properties":{"code":"2029R001","name":"Insjön-Tunsta"},"geometry":{"type":"Polygon","coordinates":[[[15.12288,60.68978],[15.12314,60.68876],[15.12293,60.68727],[15.12129,60.6849],[15.12346,60.68367],[15.1248,60.68238],[15.12544,60.68099],[15.12546,60.67948],[15.1248,60.67807],[15.12347,60.6768],[15.12098,60.6754],[15.11901,60.67464],[15.11896,60.67301],[15.1176,60.67105],[15.11724,60.6691],[15.11801,60.66746],[15.11799,60.6663],[15.11745,60.66508],[15.11812,60.66297],[15.11766,60.66132],[15.11696,60.6603],[15.11547,60.65908],[15.11395,60.6583],[15.11154,60.65752],[15.10943,60.65712],[15.10642,60.65693],[15.10332,60.65648],[15.0994,60.6565],[15.09623,60.65626],[15.09399,60.65635],[15.09123,60.65678],[15.08663,60.65824],[15.08335,60.65991],[15.0821,60.6608],[15.08116,60.66187],[15.08064,60.66305],[15.07787,60.66572],[15.07736,60.66682],[15.07735,60.66825],[15.07649,60.66896],[15.0736,60.66928],[15.07068,60.66984],[15.07134,60.67089],[15.07196,60.67382],[15.07052,60.67652],[15.07082,60.67824],[15.07127,60.67889],[15.07447,60.68161],[15.07497,60.68305],[15.0742,60.68418],[15.07587,60.684],[15.07707,60.6851],[15.07655,60.68779],[15.0757,60.68929],[15.07604,60.69007],[15.07831,60.69015],[15.08525,60.68955],[15.08757,60.68977],[15.09155,60.69044],[15.09656,60.69205],[15.09863,60.6937],[15.10457,60.69669],[15.10003,60.69848],[15.10213,60.69855],[15.10587,60.69848],[15.10856,60.69811],[15.1104,60.69762],[15.1143,60.69619],[15.11574,60.69545],[15.12121,60.69165],[15.12288,60.68978]]]}},{"type":"Feature","id":"2029R002","properties":{"code":"2029R002","name":"Käringberget"},"geometry":{"type":"Polygon","coordinates":[[[14.98065,60.75797],[14.98337,60.75673],[14.9852,60.75513],[14.9863,60.75503],[14.98912,60.75098],[14.99329,60.74639],[14.99482,60.74643],[14.99528,60.74563],[14.99642,60.74477],[15.00027,60.74411],[15.00038,60.7384],[14.99991,60.73836],[14.99769,60.73725],[14.99554,60.73675],[14.99237,60.73484],[14.9835,60.73154],[14.96697,60.73239],[14.95661,60.75268],[14.95648,60.75484],[14.95729,60.75634],[14.95836,60.75735],[14.95781,60.75767],[14.96744,60.75773],[14.97371,60.75607],[14.97759,60.75645],[14.98065,60.75797]]]}},{"type":"Feature","id":"2029R003","properties":{"code":"2029R003","name":"Noret-Ullvi-Rönnäs"},"geometry":{"type":"Polygon","coordinates":[[[15.01682,60.76032],[15.02042,60.75989],[15.02384,60.75899],[15.02604,60.75806],[15.02772,60.75687],[15.0289,60.75526],[15.02932,60.75416],[15.0289,60.75198],[15.02929,60.75068],[15.0291,60.74939],[15.0333,60.74929],[15.03911,60.74822],[15.0421,60.74718],[15.04442,60.74566],[15.04539,60.74436],[15.04566,60.74296],[15.04521,60.74157],[15.04382,60.74011],[15.04469,60.73863],[15.04472,60.737],[15.04626,60.73559],[15.04714,60.73377],[15.04717,60.73196],[15.04785,60.73051],[15.0478,60.72885],[15.04929,60.72818],[15.05186,60.72649],[15.05341,60.72456],[15.05562,60.72532],[15.05838,60.72583],[15.06326,60.72604],[15.06536,60.72586],[15.06756,60.72543],[15.07198,60.72673],[15.07419,60.72704],[15.07718,60.72711],[15.07944,60.72692],[15.08168,60.72651],[15.08491,60.72552],[15.08714,60.72441],[15.08954,60.72405],[15.09216,60.7233],[15.0945,60.72216],[15.09786,60.72118],[15.10053,60.71989],[15.10206,60.71864],[15.1041,60.71562],[15.10432,60.71382],[15.10304,60.71138],[15.10126,60.70983],[15.09862,60.7086],[15.09467,60.70764],[15.0903,60.70747],[15.08665,60.70796],[15.08371,60.70891],[15.07922,60.70976],[15.07352,60.7089],[15.06951,60.70997],[15.06608,60.70939],[15.06365,60.70604],[15.05837,60.70513],[15.05525,60.7059],[15.04034,60.71338],[15.03208,60.71541],[15.02998,60.72048],[15.02307,60.72902],[15.02154,60.72966],[15.01905,60.72978],[15.01645,60.72964],[15.01316,60.72932],[15.00942,60.72845],[15.00338,60.72828],[14.99956,60.72852],[14.99102,60.72978],[14.98825,60.72981],[14.98567,60.72933],[14.98051,60.72786],[14.97164,60.72632],[14.96802,60.72937],[14.96697,60.73239],[14.9835,60.73154],[14.99237,60.73484],[14.99554,60.73675],[14.99769,60.73725],[14.99991,60.73836],[15.00038,60.7384],[15.00027,60.74411],[14.99642,60.74477],[14.99528,60.74563],[14.99482,60.74643],[14.99329,60.74639],[14.98912,60.75098],[14.9863,60.75503],[14.98812,60.75472],[14.99131,60.7555],[14.99344,60.75579],[14.9957,60.75588],[14.99811,60.75573],[15.00164,60.75681],[15.00599,60.7588],[15.00806,60.75947],[15.01155,60.76006],[15.01682,60.76032]]]}},{"type":"Feature","id":"2029R004","properties":{"code":"2029R004","name":"Siljansnäs-Leksand väst"},"geometry":{"type":"Polygon","coordinates":[[[14.88105,60.90666],[14.8837,60.90618],[14.88474,60.90619],[14.88595,60.90655],[14.88756,60.90491],[14.88726,60.90187],[14.88584,60.89913],[14.88699,60.89772],[14.88618,60.8974],[14.88623,60.89704],[14.88764,60.89558],[14.88882,60.89558],[14.88936,60.89507],[14.8926,60.89331],[14.90046,60.89256],[14.90204,60.89155],[14.90398,60.89159],[14.9055,60.89142],[14.90619,60.89157],[14.90713,60.89136],[14.90831,60.89137],[14.90896,60.89069],[14.91083,60.89028],[14.91223,60.88898],[14.90871,60.88865],[14.90623,60.88864],[14.90627,60.88603],[14.91343,60.88668],[14.91353,60.88655],[14.91426,60.88662],[14.91438,60.88592],[14.91684,60.88288],[14.91655,60.88267],[14.91165,60.88169],[14.90976,60.88017],[14.90787,60.88017],[14.90571,60.88049],[14.89543,60.87969],[14.89304,60.88459],[14.89032,60.88432],[14.89351,60.87697],[14.88009,60.87602],[14.88326,60.87328],[14.89331,60.87523],[14.89338,60.87364],[14.89862,60.87156],[14.90245,60.87448],[14.89756,60.87729],[14.89969,60.87741],[14.90158,60.87796],[14.90277,60.87763],[14.90511,60.87771],[14.90498,60.87662],[14.9056,60.87602],[14.90855,60.87568],[14.90921,60.87548],[14.90892,60.87527],[14.91165,60.87463],[14.91136,60.87441],[14.91179,60.87428],[14.91394,60.87422],[14.91554,60.87545],[14.9162,60.87507],[14.91665,60.87506],[14.91791,60.87567],[14.9198,60.87478],[14.92105,60.87487],[14.92166,60.87472],[14.92232,60.87434],[14.92337,60.87271],[14.92427,60.87253],[14.92504,60.87198],[14.92492,60.87177],[14.92736,60.87004],[14.9307,60.86941],[14.93058,60.86882],[14.93115,60.86871],[14.93278,60.86913],[14.93596,60.87096],[14.93917,60.87068],[14.94221,60.87116],[14.94406,60.8712],[14.9588,60.85276],[14.93614,60.84229],[14.94803,60.81334],[14.94199,60.79918],[14.94685,60.78369],[14.9493,60.76589],[14.95526,60.75974],[14.95584,60.75765],[14.95781,60.75767],[14.95836,60.75735],[14.95729,60.75634],[14.95659,60.75517],[14.95637,60.754],[14.95661,60.75268],[14.95469,60.75301],[14.95219,60.75372],[14.94901,60.75416],[14.93869,60.75407],[14.93651,60.75392],[14.93291,60.75334],[14.92987,60.75234],[14.92797,60.75123],[14.92526,60.74864],[14.92443,60.74679],[14.92478,60.74501],[14.92359,60.74314],[14.9237,60.74124],[14.92436,60.74016],[14.92549,60.73909],[14.92779,60.73762],[14.92979,60.73671],[14.93045,60.73577],[14.92977,60.73414],[14.93006,60.73252],[14.92916,60.73151],[14.92861,60.7301],[14.92896,60.72832],[14.93028,60.7267],[14.92914,60.72551],[14.92866,60.72446],[14.92866,60.72304],[14.92915,60.72196],[14.9313,60.72009],[14.9348,60.71866],[14.9389,60.7179],[14.94109,60.71782],[14.94385,60.71801],[14.94704,60.71664],[14.95154,60.71556],[14.95391,60.71479],[14.95503,60.71369],[14.9564,60.71284],[14.95821,60.71199],[14.96157,60.71082],[14.96277,60.70925],[14.96452,60.70809],[14.96678,60.70719],[14.96931,60.70653],[14.97471,60.70587],[14.97858,60.70597],[14.98078,60.70631],[14.98296,60.7069],[14.98473,60.70761],[14.98624,60.70852],[14.9905,60.70787],[14.99443,60.7078],[14.99706,60.70795],[15.00162,60.70754],[15.00648,60.70757],[15.00766,60.70658],[15.00908,60.7058],[15.01077,60.70517],[15.01323,60.70461],[15.01306,60.70324],[15.01362,60.70182],[15.01497,60.70034],[15.01669,60.6992],[15.01963,60.6981],[15.02338,60.6975],[15.02652,60.69593],[15.02946,60.69502],[15.03053,60.69294],[15.03289,60.69134],[15.03317,60.68962],[15.03262,60.68745],[15.03319,60.68569],[15.03446,60.68439],[15.03736,60.68248],[15.03838,60.68078],[15.03997,60.67957],[15.0421,60.6786],[15.04556,60.67764],[15.05312,60.67694],[15.05745,60.67697],[15.06086,60.67749],[15.06265,60.67795],[15.06205,60.67675],[15.062,60.67506],[15.0628,60.67354],[15.06425,60.67227],[15.06631,60.67121],[15.07055,60.66987],[15.0736,60.66928],[15.07649,60.66896],[15.07735,60.66825],[15.07736,60.66682],[15.07787,60.66572],[15.08064,60.66305],[15.08116,60.66187],[15.08243,60.66053],[15.07772,60.65546],[15.06094,60.64606],[15.05944,60.64478],[15.05819,60.64303],[15.05775,60.6415],[15.05775,60.6383],[15.07022,60.63802],[15.06752,60.63539],[15.06783,60.63387],[15.06687,60.63178],[15.06423,60.6303],[15.06356,60.6291],[15.06179,60.62823],[15.06023,60.62587],[15.05847,60.62501],[15.05625,60.62315],[15.05607,60.62339],[15.05115,60.6238],[15.04551,60.62393],[15.04525,60.62252],[15.04327,60.61902],[15.03803,60.61271],[15.03782,60.61175],[15.0385,60.61072],[15.03787,60.60913],[15.03463,60.6064],[15.03408,60.60465],[15.03318,60.60371],[15.03208,60.60359],[15.0295,60.60418],[15.0257,60.60634],[15.02419,60.60671],[15.02305,60.60644],[15.0213,60.60529],[15.01653,60.60406],[15.01822,60.60344],[15.01755,60.60278],[15.01409,60.60337],[15.01228,60.60267],[15.01141,60.60106],[15.01033,60.59756],[15.01156,60.59539],[15.01036,60.59507],[15.00702,60.59233],[15.00543,60.59252],[15.00435,60.5923],[15.00402,60.59201],[15.00476,60.59093],[15.00458,60.59075],[14.99189,60.58515],[14.93963,60.56105],[14.93626,60.5601],[14.93511,60.55897],[14.93237,60.55766],[14.91551,60.5499],[14.91496,60.54994],[14.91373,60.54904],[14.90054,60.54306],[14.89238,60.54186],[14.82999,60.55015],[14.79008,60.55644],[14.73805,60.55904],[14.70821,60.56113],[14.62829,60.5598],[14.5751,60.56705],[14.53587,60.57217],[14.38573,60.65137],[14.36342,60.69251],[14.41297,60.69392],[14.44836,60.71708],[14.46662,60.72937],[14.50954,60.74366],[14.54515,60.75653],[14.61401,60.79359],[14.64413,60.81082],[14.66154,60.82026],[14.69356,60.82801],[14.85756,60.87997],[14.87015,60.88789],[14.86682,60.89523],[14.86779,60.89537],[14.86695,60.89629],[14.87558,60.90357],[14.87621,60.90375],[14.87799,60.90382],[14.87785,60.90408],[14.87647,60.90431],[14.87996,60.90722],[14.88105,60.90666]]]}},{"type":"Feature","id":"2029R005","properties":{"code":"2029R005","name":"Tällberg-Leksand öst"},"geometry":{"type":"Polygon","coordinates":[[[15.61116,60.87555],[15.61518,60.87483],[15.61526,60.87516],[15.6157,60.87513],[15.61592,60.87487],[15.61787,60.87515],[15.61895,60.87484],[15.6204,60.87327],[15.62161,60.87273],[15.62254,60.87176],[15.62419,60.871],[15.62682,60.87027],[15.62759,60.86976],[15.62764,60.86773],[15.62926,60.86679],[15.62955,60.86649],[15.62933,60.86574],[15.62991,60.86543],[15.61962,60.86227],[15.6371,60.84984],[15.62284,60.84424],[15.62525,60.8421],[15.55508,60.82215],[15.54532,60.81915],[15.54108,60.83941],[15.52203,60.83903],[15.52545,60.83699],[15.52508,60.8366],[15.52514,60.83604],[15.52632,60.83501],[15.52747,60.83463],[15.52798,60.8347],[15.52917,60.83504],[15.52951,60.83508],[15.53113,60.83481],[15.53091,60.83465],[15.53186,60.83338],[15.53189,60.83224],[15.53239,60.83183],[15.53363,60.83043],[15.53151,60.83245],[15.52869,60.83307],[15.53146,60.8325],[15.53184,60.83265],[15.53116,60.83428],[15.53027,60.83484],[15.52948,60.83505],[15.52747,60.83443],[15.52682,60.83472],[15.52647,60.83402],[15.52573,60.83416],[15.52538,60.83353],[15.52463,60.83352],[15.52446,60.833],[15.52344,60.83335],[15.52241,60.83297],[15.5207,60.83303],[15.52281,60.83077],[15.53007,60.83071],[15.53178,60.82783],[15.53431,60.82611],[15.5365,60.82363],[15.53677,60.82287],[15.52794,60.82078],[15.5332,60.81574],[15.50144,60.80665],[15.50009,60.80694],[15.49798,60.80625],[15.49746,60.80544],[15.4915,60.8039],[15.45916,60.79456],[15.44658,60.80163],[15.43825,60.79788],[15.435,60.79772],[15.43364,60.79714],[15.43291,60.7964],[15.43117,60.7971],[15.42644,60.79802],[15.42451,60.79594],[15.42424,60.79452],[15.42482,60.79418],[15.38971,60.79651],[15.37974,60.79536],[15.37839,60.79538],[15.37468,60.79585],[15.37404,60.79634],[15.37382,60.79701],[15.37288,60.79742],[15.37031,60.79705],[15.36909,60.79708],[15.36897,60.79625],[15.37001,60.79519],[15.37147,60.79504],[15.37015,60.79449],[15.37128,60.79457],[15.37405,60.79393],[15.37717,60.79349],[15.37982,60.79381],[15.38068,60.7941],[15.37954,60.79079],[15.37624,60.78999],[15.37524,60.78907],[15.373,60.78913],[15.37202,60.78854],[15.37218,60.78802],[15.37059,60.78636],[15.37027,60.78543],[15.36963,60.78524],[15.36888,60.7846],[15.36759,60.78302],[15.36628,60.78025],[15.36023,60.78109],[15.35644,60.7794],[15.339,60.76528],[15.33558,60.75772],[15.32791,60.75991],[15.32761,60.75842],[15.32242,60.75635],[15.32468,60.75592],[15.32823,60.75205],[15.3584,60.74042],[15.35075,60.73999],[15.3503,60.74065],[15.34929,60.74067],[15.34863,60.73987],[15.33185,60.73893],[15.33239,60.73989],[15.33178,60.74068],[15.33308,60.74113],[15.33402,60.74281],[15.33273,60.74305],[15.32837,60.74448],[15.32539,60.74247],[15.32467,60.74161],[15.32458,60.74068],[15.32357,60.73976],[15.32291,60.73843],[15.28955,60.73654],[15.28513,60.73132],[15.28789,60.72918],[15.28099,60.727],[15.27833,60.72595],[15.27628,60.72373],[15.27061,60.72119],[15.26802,60.71909],[15.26747,60.71895],[15.26662,60.71801],[15.26693,60.71739],[15.26674,60.7169],[15.26428,60.71549],[15.26217,60.71618],[15.26151,60.7167],[15.25873,60.71707],[15.25789,60.71684],[15.25696,60.71608],[15.25943,60.7145],[15.26634,60.71142],[15.26733,60.71189],[15.27105,60.71203],[15.27295,60.71201],[15.27506,60.7117],[15.27711,60.70738],[15.27858,60.70757],[15.2785,60.70794],[15.27889,60.70804],[15.2794,60.70805],[15.27971,60.70769],[15.29205,60.70916],[15.28992,60.70743],[15.28497,60.70627],[15.28507,60.70325],[15.28452,60.70273],[15.28572,60.70067],[15.28602,60.69777],[15.29666,60.70007],[15.29862,60.7003],[15.30045,60.69981],[15.30302,60.69975],[15.30365,60.69986],[15.30422,60.70033],[15.31823,60.70184],[15.31417,60.70474],[15.31351,60.70563],[15.31432,60.705],[15.31613,60.70536],[15.31589,60.70565],[15.31497,60.70569],[15.314,60.70544],[15.31342,60.70574],[15.3176,60.70642],[15.3194,60.70406],[15.32041,60.70401],[15.32925,60.70573],[15.3275,60.70776],[15.33984,60.70967],[15.33957,60.71083],[15.3411,60.71087],[15.34187,60.71061],[15.34281,60.71104],[15.34448,60.7113],[15.34957,60.71165],[15.35526,60.71646],[15.35962,60.71671],[15.36955,60.71456],[15.36996,60.71431],[15.36966,60.71377],[15.37052,60.71318],[15.37406,60.71261],[15.37725,60.71271],[15.38084,60.71218],[15.3846,60.71063],[15.38861,60.70932],[15.3891,60.70843],[15.39024,60.7077],[15.39212,60.70785],[15.39349,60.70839],[15.39488,60.70825],[15.39669,60.70773],[15.39708,60.70753],[15.3958,60.70722],[15.39573,60.70649],[15.39481,60.70599],[15.39452,60.7051],[15.39486,60.70479],[15.39531,60.70499],[15.39609,60.70494],[15.39593,60.70456],[15.39651,60.70425],[15.39651,60.70379],[15.39605,60.7038],[15.39571,60.70352],[15.39624,60.70256],[15.39671,60.70214],[15.39858,60.70156],[15.3982,60.69976],[15.39695,60.6992],[15.3975,60.69649],[15.40507,60.69082],[15.40741,60.68982],[15.40816,60.6898],[15.40875,60.68937],[15.41121,60.68932],[15.41161,60.68948],[15.41163,60.68936],[15.41279,60.68925],[15.41662,60.68951],[15.42643,60.68745],[15.42086,60.67906],[15.41904,60.67892],[15.41747,60.679],[15.41659,60.67839],[15.41646,60.67767],[15.41729,60.67657],[15.41866,60.6757],[15.41618,60.67218],[15.40212,60.66188],[15.32062,60.63528],[15.30318,60.62698],[15.29316,60.62718],[15.29327,60.62697],[15.29013,60.62675],[15.28908,60.62726],[15.24111,60.6282],[15.2405,60.62798],[15.23985,60.62822],[15.23898,60.62823],[15.23238,60.627],[15.23172,60.62805],[15.23067,60.62817],[15.22968,60.62735],[15.22999,60.62663],[15.18722,60.61909],[15.17704,60.62008],[15.15719,60.625],[15.13501,60.63024],[15.1176,60.63532],[15.11727,60.63584],[15.11586,60.63605],[15.11551,60.63592],[15.11456,60.63618],[15.11454,60.63666],[15.11414,60.63695],[15.11356,60.63702],[15.11325,60.63661],[15.11267,60.63679],[15.10496,60.63693],[15.09205,60.63745],[15.05775,60.6383],[15.05775,60.6415],[15.05819,60.64303],[15.05944,60.64478],[15.06094,60.64606],[15.07772,60.65546],[15.08243,60.66053],[15.08613,60.65848],[15.08832,60.65761],[15.09192,60.65663],[15.09548,60.65627],[15.0994,60.6565],[15.10332,60.65648],[15.11015,60.65723],[15.1134,60.65809],[15.11629,60.65967],[15.11748,60.66099],[15.11808,60.66262],[15.11808,60.6637],[15.11745,60.66508],[15.11799,60.6663],[15.11801,60.66746],[15.11724,60.6691],[15.1176,60.67105],[15.11896,60.67301],[15.11901,60.67464],[15.12098,60.6754],[15.12347,60.6768],[15.1248,60.67807],[15.12546,60.67948],[15.12544,60.68099],[15.1248,60.68238],[15.12346,60.68367],[15.12129,60.6849],[15.12293,60.68727],[15.12314,60.68876],[15.12288,60.68978],[15.12159,60.69136],[15.11481,60.69596],[15.10919,60.69797],[15.10724,60.69834],[15.10447,60.69853],[15.09949,60.69844],[15.09544,60.69768],[15.09075,60.69568],[15.08918,60.69448],[15.08837,60.69332],[15.08293,60.69364],[15.07778,60.69325],[15.07376,60.69228],[15.06989,60.69052],[15.06618,60.69462],[15.06671,60.69547],[15.07054,60.69666],[15.07362,60.69851],[15.07711,60.70003],[15.0789,60.7016],[15.0796,60.70312],[15.07937,60.70492],[15.07827,60.70638],[15.07601,60.70787],[15.07326,60.70887],[15.07922,60.70976],[15.08371,60.70891],[15.08665,60.70796],[15.08954,60.70752],[15.0932,60.70749],[15.09674,60.70802],[15.10029,60.7093],[15.10278,60.71107],[15.10432,60.71382],[15.10388,60.71604],[15.10176,60.71895],[15.09946,60.72048],[15.09674,60.7216],[15.0945,60.72216],[15.09159,60.7235],[15.08954,60.72405],[15.08714,60.72441],[15.08418,60.72577],[15.08032,60.72679],[15.07718,60.72711],[15.07351,60.72697],[15.07071,60.72645],[15.06756,60.72543],[15.06396,60.726],[15.05912,60.72591],[15.05629,60.72548],[15.05341,60.72456],[15.05186,60.72649],[15.04929,60.72818],[15.0478,60.72885],[15.04785,60.73051],[15.04717,60.73196],[15.04714,60.73377],[15.04626,60.73559],[15.04472,60.737],[15.04469,60.73863],[15.04382,60.74011],[15.04499,60.74125],[15.04562,60.74261],[15.04553,60.74401],[15.04474,60.74533],[15.04368,60.74626],[15.0421,60.74718],[15.03911,60.74822],[15.0333,60.74929],[15.0291,60.74939],[15.02929,60.75068],[15.0289,60.75198],[15.02937,60.75382],[15.02908,60.75493],[15.02772,60.75687],[15.025,60.75856],[15.02112,60.75974],[15.01831,60.76022],[15.01536,60.76033],[15.01086,60.75999],[15.0067,60.75907],[15.00164,60.75681],[14.99811,60.75573],[14.9957,60.75588],[14.99344,60.75579],[14.99131,60.7555],[14.98812,60.75472],[14.9852,60.75513],[14.98337,60.75673],[14.98065,60.75797],[14.97759,60.75645],[14.97371,60.75607],[14.96744,60.75773],[14.95584,60.75765],[14.95526,60.75974],[14.9493,60.76589],[14.94685,60.78369],[14.94199,60.79918],[14.94803,60.81334],[14.93614,60.84229],[14.9588,60.85276],[15.0101,60.86409],[15.03137,60.84502],[15.06018,60.84548],[15.06127,60.84514],[15.06255,60.84501],[15.06359,60.84514],[15.0647,60.8445],[15.06481,60.8442],[15.0654,60.84418],[15.06564,60.84393],[15.06635,60.84382],[15.06643,60.84344],[15.06725,60.84354],[15.0684,60.84341],[15.06911,60.84308],[15.06996,60.84315],[15.07031,60.84385],[15.06989,60.84443],[15.0703,60.84469],[15.07118,60.84423],[15.07187,60.84439],[15.07338,60.84437],[15.07318,60.84409],[15.07352,60.84352],[15.07426,60.84308],[15.07375,60.84298],[15.0737,60.84272],[15.07413,60.84236],[15.07459,60.84249],[15.07473,60.84229],[15.0756,60.84222],[15.0754,60.84196],[15.07601,60.84197],[15.07642,60.84135],[15.07788,60.84073],[15.07765,60.84039],[15.07697,60.84018],[15.07739,60.83985],[15.07806,60.83972],[15.07855,60.83873],[15.08009,60.83876],[15.08244,60.8381],[15.08447,60.83788],[15.08504,60.83687],[15.08631,60.83615],[15.08741,60.83506],[15.08822,60.83486],[15.08782,60.83454],[15.08838,60.83418],[15.08633,60.83356],[15.08667,60.83327],[15.08612,60.83315],[15.08645,60.83277],[15.08615,60.83248],[15.08721,60.83178],[15.08728,60.83147],[15.0896,60.83026],[15.09209,60.82984],[15.09312,60.82941],[15.09551,60.82882],[15.09849,60.82731],[15.09995,60.82697],[15.10078,60.82735],[15.10303,60.82706],[15.10369,60.82644],[15.10488,60.82606],[15.10531,60.82554],[15.10624,60.82546],[15.10724,60.82507],[15.10826,60.82514],[15.10866,60.825],[15.11003,60.82582],[15.11142,60.82607],[15.11258,60.82585],[15.11377,60.82599],[15.11422,60.82569],[15.11479,60.82568],[15.11462,60.82524],[15.11498,60.82508],[15.11636,60.82503],[15.11742,60.82529],[15.11837,60.82501],[15.1195,60.82517],[15.11959,60.82544],[15.12052,60.82578],[15.12222,60.82607],[15.12436,60.82607],[15.12621,60.82672],[15.12728,60.82663],[15.12969,60.82697],[15.1315,60.82662],[15.1332,60.82666],[15.13461,60.82698],[15.13567,60.82666],[15.13734,60.82675],[15.1395,60.8255],[15.14169,60.82519],[15.14353,60.82443],[15.14665,60.82376],[15.14745,60.82329],[15.14841,60.8234],[15.1484,60.8232],[15.1489,60.8231],[15.14926,60.82336],[15.14942,60.82313],[15.15028,60.82321],[15.15153,60.82289],[15.15154,60.82302],[15.15244,60.82309],[15.15306,60.82273],[15.15381,60.82263],[15.15368,60.82245],[15.15512,60.8221],[15.15592,60.82154],[15.15732,60.82132],[15.15769,60.82106],[15.15901,60.82104],[15.16152,60.81994],[15.16517,60.81943],[15.16812,60.82007],[15.17052,60.81874],[15.17159,60.81901],[15.17253,60.8184],[15.17553,60.81774],[15.19304,60.81241],[15.20207,60.81581],[15.20395,60.81672],[15.20819,60.81507],[15.2097,60.81393],[15.21031,60.81309],[15.21305,60.81388],[15.21388,60.81427],[15.21396,60.81461],[15.21555,60.8151],[15.21753,60.81495],[15.21889,60.81456],[15.21961,60.81481],[15.22053,60.81483],[15.2209,60.81504],[15.22165,60.8148],[15.22198,60.81497],[15.22244,60.81486],[15.22402,60.815],[15.22446,60.81524],[15.2262,60.81777],[15.22746,60.81882],[15.23003,60.81977],[15.23052,60.81964],[15.23151,60.81978],[15.23334,60.82084],[15.23797,60.82137],[15.24061,60.81998],[15.24251,60.81993],[15.24393,60.82076],[15.33923,60.85163],[15.39091,60.85873],[15.46465,60.86922],[15.51562,60.88264],[15.57151,60.89783],[15.57423,60.89705],[15.58113,60.88971],[15.58537,60.8868],[15.59465,60.88204],[15.59673,60.88056],[15.60065,60.87832],[15.61116,60.87555]]]}}]}