{"type":"FeatureCollection","features":[{"type":"Feature","id":"2034R001","properties":{"code":"2034R001","name":"Orsa centrala"},"geometry":{"type":"Polygon","coordinates":[[[14.66155,61.14186],[14.65396,61.13616],[14.64544,61.12621],[14.64061,61.11039],[14.63472,61.11042],[14.63418,61.1103],[14.63783,61.10946],[14.64165,61.10624],[14.64275,61.1037],[14.64203,61.10231],[14.63433,61.10266],[14.6341,61.10251],[14.63162,61.10251],[14.62561,61.10293],[14.62492,61.10192],[14.61228,61.10169],[14.61334,61.10186],[14.6144,61.10452],[14.61588,61.10607],[14.61469,61.10713],[14.61385,61.10844],[14.61183,61.10924],[14.61038,61.11014],[14.60704,61.11006],[14.60419,61.11039],[14.59953,61.11152],[14.59559,61.11304],[14.59283,61.11344],[14.58989,61.1142],[14.58693,61.11568],[14.58507,61.11787],[14.58303,61.11869],[14.58058,61.1202],[14.57934,61.12182],[14.57911,61.12339],[14.57969,61.12485],[14.58117,61.12629],[14.58005,61.12673],[14.5811,61.1279],[14.59153,61.12868],[14.59827,61.12556],[14.60499,61.12609],[14.61195,61.12987],[14.61804,61.1311],[14.61999,61.13189],[14.62155,61.13488],[14.62323,61.13577],[14.62427,61.13576],[14.62659,61.13644],[14.62717,61.1368],[14.62775,61.13808],[14.62891,61.13912],[14.63059,61.13985],[14.63131,61.13984],[14.63257,61.14024],[14.6347,61.14133],[14.63534,61.14397],[14.63647,61.1452],[14.64059,61.14596],[14.64275,61.1473],[14.64829,61.14933],[14.65759,61.1565],[14.65799,61.15493],[14.65725,61.15315],[14.6591,61.15136],[14.65958,61.14956],[14.65867,61.14756],[14.65631,61.14587],[14.65863,61.14447],[14.66155,61.14186]]]}},{"type":"Feature","id":"2034R002","properties":{"code":"2034R002","name":"Orsa nordvästra"},"geometry":{"type":"Polygon","coordinates":[[[14.64593,61.16087],[14.64958,61.16046],[14.65348,61.15941],[14.65599,61.15816],[14.65759,61.1565],[14.64829,61.14933],[14.64275,61.1473],[14.64059,61.14596],[14.63647,61.1452],[14.63534,61.14397],[14.6347,61.14133],[14.63257,61.14024],[14.63131,61.13984],[14.63059,61.13985],[14.62891,61.13912],[14.62775,61.13808],[14.62717,61.1368],[14.62659,61.13644],[14.62427,61.13576],[14.62323,61.13577],[14.62155,61.13488],[14.61999,61.13189],[14.61804,61.1311],[14.61195,61.12987],[14.60499,61.12609],[14.59827,61.12556],[14.59153,61.12868],[14.5811,61.1279],[14.58005,61.12673],[14.57897,61.12715],[14.57704,61.12825],[14.57576,61.12953],[14.57517,61.13095],[14.57545,61.13271],[14.57735,61.13508],[14.58054,61.13701],[14.58068,61.13791],[14.57986,61.13996],[14.58044,61.14183],[14.58244,61.14367],[14.58555,61.1451],[14.58526,61.14638],[14.58565,61.14794],[14.58675,61.1493],[14.58866,61.15056],[14.591,61.15149],[14.5944,61.15219],[14.5959,61.15395],[14.59883,61.15545],[14.60281,61.15665],[14.60692,61.15702],[14.6097,61.15862],[14.61289,61.15952],[14.61651,61.1599],[14.62035,61.15969],[14.62398,61.15985],[14.62924,61.16037],[14.63288,61.1603],[14.63558,61.16001],[14.63969,61.16025],[14.643,61.1608],[14.64593,61.16087]]]}},{"type":"Feature","id":"2034R003","properties":{"code":"2034R003","name":"Orsa omland"},"geometry":{"type":"Polygon","coordinates":[[[14.54759,61.5934],[14.67663,61.59125],[14.67626,61.59062],[14.67673,61.58968],[14.67779,61.58907],[14.67715,61.58771],[14.67808,61.58706],[14.67702,61.58621],[14.67899,61.58513],[14.67963,61.58397],[14.6794,61.58331],[14.67829,61.58288],[14.67726,61.58199],[14.67577,61.58126],[14.67482,61.58008],[14.67638,61.57906],[14.67521,61.57791],[14.67548,61.57741],[14.67523,61.57674],[14.67576,61.57642],[14.6754,61.5762],[14.67582,61.5753],[14.67498,61.57467],[14.67316,61.57441],[14.67152,61.57372],[14.67238,61.57332],[14.67143,61.57322],[14.67106,61.57243],[14.67034,61.57205],[14.6704,61.57151],[14.66928,61.57087],[14.66718,61.57056],[14.666,61.56985],[14.66482,61.56966],[14.66391,61.56925],[14.66438,61.56883],[14.66349,61.56762],[14.66407,61.56712],[14.66617,61.56668],[14.66581,61.56595],[14.66608,61.56577],[14.66562,61.56555],[14.66585,61.56539],[14.66637,61.56553],[14.66646,61.56508],[14.66496,61.56427],[14.66378,61.56442],[14.66372,61.56469],[14.66306,61.56481],[14.66098,61.56423],[14.65743,61.56362],[14.65694,61.56302],[14.65518,61.56279],[14.65467,61.56205],[14.65408,61.56181],[14.65382,61.56119],[14.65506,61.55816],[14.65676,61.55702],[14.65751,61.55264],[14.65806,61.55213],[14.65831,61.55125],[14.65894,61.55076],[14.66063,61.55018],[14.66249,61.54909],[14.66598,61.54806],[14.66659,61.54751],[14.66778,61.54708],[14.66889,61.54601],[14.6695,61.54435],[14.66815,61.54212],[14.66827,61.53923],[14.67033,61.53743],[14.67138,61.53486],[14.67214,61.53392],[14.67191,61.53299],[14.6736,61.52938],[14.67496,61.52828],[14.67465,61.52655],[14.67404,61.52576],[14.67353,61.52388],[14.67291,61.52305],[14.67065,61.52165],[14.67115,61.52071],[14.66985,61.51917],[14.66586,61.51598],[14.66485,61.51406],[14.66384,61.51307],[14.66017,61.51109],[14.65956,61.51051],[14.65954,61.5072],[14.65901,61.50628],[14.65791,61.50571],[14.65807,61.50514],[14.65757,61.50484],[14.65665,61.50343],[14.65588,61.50089],[14.6561,61.50057],[14.65664,61.50043],[14.65893,61.50059],[14.66016,61.4998],[14.66216,61.49951],[14.6637,61.49898],[14.66703,61.49685],[14.66758,61.49618],[14.66731,61.49559],[14.66799,61.49487],[14.66789,61.49387],[14.667,61.49267],[14.66705,61.49221],[14.66764,61.49166],[14.66989,61.49057],[14.67232,61.49017],[14.67437,61.4885],[14.67471,61.4877],[14.67524,61.48761],[14.676,61.48784],[14.67738,61.48781],[14.67884,61.48755],[14.67935,61.48616],[14.67991,61.48613],[14.68303,61.48677],[14.6848,61.48628],[14.68615,61.4869],[14.68997,61.48762],[14.69057,61.48808],[14.69071,61.4886],[14.68945,61.48999],[14.69078,61.49045],[14.69322,61.49013],[14.69509,61.49015],[14.70114,61.49099],[14.70384,61.49073],[14.7046,61.49034],[14.70509,61.4897],[14.70647,61.48918],[14.71134,61.48943],[14.71301,61.48884],[14.71409,61.48915],[14.71617,61.48913],[14.71809,61.4897],[14.7217,61.492],[14.72285,61.49325],[14.72259,61.49416],[14.72343,61.49488],[14.72526,61.49519],[14.72815,61.49617],[14.73077,61.49664],[14.73119,61.49655],[14.73351,61.49481],[14.73516,61.49444],[14.73811,61.4931],[14.74323,61.49358],[14.74963,61.49456],[14.75262,61.49474],[14.754,61.49492],[14.75463,61.49538],[14.75598,61.49551],[14.75677,61.49456],[14.75937,61.49303],[14.76335,61.49306],[14.76617,61.49275],[14.7718,61.4927],[14.77404,61.4924],[14.78569,61.49254],[14.78822,61.49294],[14.79103,61.49392],[14.79552,61.49485],[14.79712,61.49504],[14.80405,61.49511],[14.80707,61.49498],[14.81186,61.49418],[14.81486,61.49242],[14.81635,61.49231],[14.82131,61.49275],[14.82241,61.49271],[14.82432,61.49225],[14.82824,61.49268],[14.83059,61.49314],[14.83231,61.49305],[14.83348,61.49369],[14.83664,61.49364],[14.83987,61.49393],[14.84253,61.49393],[14.84499,61.49459],[14.84591,61.49517],[14.84837,61.4955],[14.85297,61.49457],[14.85422,61.49409],[14.8581,61.49357],[14.85891,61.49379],[14.85987,61.49449],[14.8645,61.49525],[14.86911,61.49496],[14.87068,61.49467],[14.87794,61.49516],[14.88152,61.49509],[14.88593,61.49533],[14.89271,61.49454],[14.89542,61.49527],[14.89747,61.49621],[14.90023,61.4966],[14.90133,61.49643],[14.90874,61.4938],[14.91347,61.49256],[14.91598,61.4926],[14.91808,61.49343],[14.91903,61.49361],[14.92392,61.49379],[14.92667,61.49265],[14.93258,61.49227],[14.93518,61.4916],[14.93732,61.4915],[14.94206,61.4907],[14.94481,61.48976],[14.94741,61.4895],[14.94904,61.48953],[14.95072,61.48988],[14.95223,61.49127],[14.95289,61.49158],[14.96122,61.49255],[14.96943,61.4939],[14.97049,61.49383],[14.97121,61.49344],[14.97368,61.49299],[14.97509,61.49204],[14.97725,61.49129],[15.09322,61.48412],[15.06301,61.36594],[15.01474,61.18849],[15.06122,61.17613],[15.08143,61.1546],[15.04393,61.06497],[15.04041,61.05918],[14.94543,61.05399],[14.81073,61.05383],[14.7165,61.04974],[14.658,61.05242],[14.6085,61.05933],[14.61014,61.06038],[14.61113,61.06139],[14.61172,61.06252],[14.61186,61.06365],[14.61082,61.06582],[14.60968,61.0668],[14.60771,61.06786],[14.61497,61.06936],[14.61772,61.06851],[14.62057,61.06809],[14.62461,61.06796],[14.62824,61.06828],[14.63148,61.06913],[14.6336,61.07015],[14.63537,61.07172],[14.63604,61.07336],[14.64031,61.07304],[14.64398,61.07336],[14.64859,61.07426],[14.65056,61.07486],[14.653,61.07605],[14.65492,61.07736],[14.65853,61.07745],[14.66112,61.07779],[14.66441,61.07791],[14.66807,61.07859],[14.67095,61.07973],[14.6729,61.08108],[14.67571,61.08197],[14.67771,61.08306],[14.6791,61.08436],[14.67972,61.08551],[14.68118,61.08671],[14.68197,61.08804],[14.68205,61.08942],[14.68151,61.09071],[14.67886,61.0936],[14.67906,61.09436],[14.6805,61.09589],[14.68109,61.09747],[14.68108,61.09857],[14.68042,61.09996],[14.67812,61.10179],[14.67497,61.10298],[14.67276,61.10472],[14.66927,61.1061],[14.67172,61.10771],[14.67331,61.1101],[14.67423,61.11394],[14.67534,61.11588],[14.67532,61.11759],[14.67494,61.11855],[14.67724,61.11989],[14.67842,61.12122],[14.67914,61.12392],[14.67886,61.1253],[14.67785,61.12676],[14.67636,61.12804],[14.67467,61.12903],[14.67238,61.12987],[14.66853,61.13065],[14.66557,61.13085],[14.6626,61.13068],[14.65953,61.13007],[14.65641,61.13123],[14.65853,61.13302],[14.65924,61.13475],[14.66113,61.13595],[14.66208,61.13692],[14.66282,61.13909],[14.66253,61.14052],[14.66105,61.14244],[14.65823,61.14477],[14.65631,61.14587],[14.65867,61.14756],[14.65954,61.14922],[14.6591,61.15136],[14.65725,61.15315],[14.65795,61.15459],[14.65784,61.15595],[14.65637,61.15787],[14.65407,61.15918],[14.64958,61.16046],[14.64522,61.16089],[14.6423,61.16072],[14.63904,61.16018],[14.63558,61.16001],[14.63288,61.1603],[14.62924,61.16037],[14.62398,61.15985],[14.62035,61.15969],[14.61727,61.15991],[14.61435,61.15975],[14.61026,61.15883],[14.60858,61.15812],[14.60692,61.15702],[14.60351,61.15677],[14.60088,61.15618],[14.59674,61.1545],[14.5952,61.15334],[14.5944,61.15219],[14.59042,61.1513],[14.58762,61.14996],[14.58643,61.149],[14.58549,61.14761],[14.58526,61.14638],[14.58555,61.1451],[14.58244,61.14367],[14.58044,61.14183],[14.57986,61.13996],[14.58068,61.13791],[14.58054,61.13701],[14.57814,61.13568],[14.577,61.13475],[14.5756,61.13305],[14.57514,61.13129],[14.57554,61.12988],[14.57667,61.12854],[14.57846,61.12739],[14.58119,61.12638],[14.57969,61.12485],[14.57911,61.12339],[14.57934,61.12182],[14.58025,61.12051],[14.58251,61.11896],[14.58507,61.11787],[14.58656,61.11598],[14.58932,61.11441],[14.592,61.11361],[14.59559,61.11304],[14.59894,61.1117],[14.60354,61.11052],[14.60704,61.11006],[14.61038,61.11014],[14.61183,61.10924],[14.61385,61.10844],[14.61469,61.10713],[14.61588,61.10607],[14.6144,61.10452],[14.61334,61.10186],[14.61104,61.10141],[14.6091,61.10079],[14.60456,61.09855],[14.60337,61.0977],[14.60041,61.09464],[14.59995,61.09364],[14.59997,61.09228],[14.60104,61.09034],[14.60236,61.08916],[14.60268,61.08701],[14.60052,61.08732],[14.59782,61.08745],[14.59344,61.08707],[14.58981,61.08596],[14.58728,61.08428],[14.58613,61.08212],[14.58621,61.0811],[14.58684,61.07981],[14.58628,61.07779],[14.58378,61.07344],[14.58363,61.07203],[14.58256,61.06929],[14.58176,61.06485],[14.58097,61.06396],[14.57935,61.06079],[14.57205,61.06028],[14.53935,61.12985],[14.53829,61.12966],[14.53792,61.12982],[14.53698,61.13121],[14.53746,61.13142],[14.53487,61.13311],[14.53623,61.13445],[14.53696,61.13413],[14.51113,61.18199],[14.48921,61.20844],[14.45322,61.25049],[14.40226,61.29476],[14.40121,61.2957],[14.39762,61.30025],[14.37094,61.36926],[14.36282,61.39209],[14.32086,61.42781],[14.30739,61.47106],[14.30404,61.50048],[14.32624,61.53447],[14.39458,61.56391],[14.44649,61.59459],[14.54759,61.5934]]]}},{"type":"Feature","id":"2034R004","properties":{"code":"2034R004","name":"Orsa sydöstra"},"geometry":{"type":"Polygon","coordinates":[[[14.66155,61.14186],[14.66277,61.13982],[14.66249,61.1376],[14.66147,61.13625],[14.65924,61.13475],[14.65853,61.13302],[14.65641,61.13123],[14.65953,61.13007],[14.6626,61.13068],[14.66557,61.13085],[14.66853,61.13065],[14.67238,61.12987],[14.67467,61.12903],[14.67636,61.12804],[14.67785,61.12676],[14.679,61.12496],[14.6791,61.12358],[14.6784,61.12119],[14.67724,61.11989],[14.67494,61.11855],[14.67532,61.11759],[14.67534,61.11588],[14.67423,61.11394],[14.67331,61.1101],[14.67172,61.10771],[14.66927,61.1061],[14.67223,61.10499],[14.67368,61.10416],[14.67497,61.10298],[14.67703,61.1023],[14.67858,61.10153],[14.68013,61.1003],[14.68085,61.09925],[14.68114,61.09821],[14.6809,61.09675],[14.68028,61.09556],[14.67906,61.09436],[14.67886,61.0936],[14.68151,61.09071],[14.68205,61.08942],[14.68206,61.0884],[14.68144,61.08703],[14.67972,61.08551],[14.67854,61.08373],[14.67622,61.0822],[14.6729,61.08108],[14.67047,61.07949],[14.66727,61.07839],[14.66372,61.07785],[14.66112,61.07779],[14.65783,61.07741],[14.65492,61.07736],[14.653,61.07605],[14.65056,61.07486],[14.64859,61.07426],[14.64398,61.07336],[14.64031,61.07304],[14.63604,61.07336],[14.63537,61.07172],[14.63402,61.07043],[14.63152,61.06915],[14.62895,61.06842],[14.62532,61.06798],[14.62057,61.06809],[14.61772,61.06851],[14.61497,61.06936],[14.60771,61.06786],[14.60968,61.0668],[14.61082,61.06582],[14.61186,61.06365],[14.61172,61.06252],[14.61113,61.06139],[14.61014,61.06038],[14.6085,61.05933],[14.59169,61.06166],[14.57935,61.06079],[14.58097,61.06396],[14.58176,61.06485],[14.58256,61.06929],[14.58363,61.07203],[14.58378,61.07344],[14.58628,61.07779],[14.58684,61.07981],[14.58621,61.0811],[14.58613,61.08212],[14.58677,61.08364],[14.58798,61.0849],[14.5893,61.08572],[14.59279,61.08694],[14.59552,61.08735],[14.59768,61.08744],[14.60052,61.08732],[14.60268,61.08701],[14.60236,61.08916],[14.60059,61.09098],[14.59997,61.09228],[14.59989,61.0933],[14.60065,61.09497],[14.60413,61.09828],[14.6091,61.10079],[14.61228,61.10169],[14.62492,61.10192],[14.62561,61.10293],[14.63162,61.10251],[14.6341,61.10251],[14.63433,61.10266],[14.64203,61.10231],[14.64275,61.1037],[14.64165,61.10624],[14.63783,61.10946],[14.63418,61.1103],[14.63472,61.11042],[14.64061,61.11039],[14.64544,61.12621],[14.65396,61.13616],[14.66155,61.14186]]]}}]}