{"type":"FeatureCollection","features":[{"type":"Feature","id":"2039R001","properties":{"code":"2039R001","name":"Idre-Älvdalen norra omland"},"geometry":{"type":"Polygon","coordinates":[[[12.29937,62.2675],[12.35054,62.25662],[12.60781,62.21478],[12.72871,62.21783],[12.77545,62.21937],[12.80655,62.2202],[12.83971,62.19356],[12.84379,62.18987],[12.90264,62.14185],[12.95144,62.13342],[12.98136,62.09318],[13.00348,62.06576],[13.0386,62.07143],[13.04519,62.062],[13.11648,62.04157],[13.15868,62.01966],[13.19413,62.03195],[13.21907,62.04081],[13.28614,62.05808],[13.29354,62.01162],[13.39193,62.00081],[13.23763,61.94201],[13.20032,61.9291],[13.13162,61.94739],[13.08576,61.94233],[13.10775,61.87264],[12.91912,61.85979],[12.93097,61.82275],[12.89033,61.81985],[12.8909,61.81935],[12.89306,61.81553],[12.89283,61.81339],[12.89406,61.81252],[12.89496,61.81113],[12.89755,61.80959],[12.90094,61.80865],[12.90257,61.80664],[12.90624,61.80397],[12.90832,61.80326],[12.90919,61.80274],[12.91092,61.80099],[12.91235,61.79758],[12.92812,61.78519],[12.92513,61.78451],[12.81271,61.77648],[12.87913,61.74307],[12.6644,61.728],[12.50749,61.71626],[12.51098,61.70583],[12.43381,61.70012],[12.43741,61.68961],[12.37884,61.68521],[12.37502,61.69566],[12.32093,61.69169],[12.31752,61.70211],[12.30145,61.7009],[12.30032,61.70001],[12.29872,61.70008],[12.29799,61.69988],[12.29777,61.69953],[12.2981,61.69897],[12.29753,61.69872],[12.29769,61.6992],[12.29724,61.70006],[12.29783,61.70037],[12.29851,61.70045],[12.29992,61.70016],[12.30075,61.70084],[12.1897,61.69232],[12.13767,61.72382],[12.16125,61.79932],[12.18483,61.87832],[12.24473,62.08667],[12.26124,62.13611],[12.27772,62.19628],[12.29937,62.2675]]]}},{"type":"Feature","id":"2039R002","properties":{"code":"2039R002","name":"Rot-Holen-Näset"},"geometry":{"type":"Polygon","coordinates":[[[14.03436,61.26873],[14.03668,61.26856],[14.04294,61.2676],[14.05002,61.26544],[14.05233,61.26438],[14.05466,61.26426],[14.05724,61.26388],[14.05979,61.26407],[14.06192,61.26467],[14.06462,61.26509],[14.07534,61.26527],[14.08055,61.26469],[14.08781,61.26266],[14.0925,61.26234],[14.09595,61.26161],[14.09981,61.26019],[14.10181,61.25914],[14.10322,61.25787],[14.10392,61.25649],[14.10393,61.25501],[14.10354,61.25394],[14.10274,61.25294],[14.10141,61.25193],[14.10202,61.2504],[14.10178,61.24892],[14.1001,61.24701],[14.09796,61.24585],[14.09492,61.24491],[14.09145,61.24448],[14.08828,61.24453],[14.08512,61.24369],[14.08081,61.24326],[14.07781,61.24331],[14.07432,61.24386],[14.07127,61.24363],[14.06846,61.24375],[14.06307,61.24252],[14.05822,61.24213],[14.05399,61.24253],[14.04792,61.24401],[14.04731,61.24366],[14.04798,61.24303],[14.05192,61.24212],[14.05388,61.24129],[14.0552,61.24045],[14.0556,61.24013],[14.05402,61.2395],[14.05021,61.23983],[14.04901,61.2403],[14.04399,61.2404],[14.04014,61.241],[14.03547,61.24249],[14.03569,61.24359],[14.03387,61.24406],[14.0289,61.24484],[14.02649,61.24495],[14.02194,61.24369],[14.02048,61.24605],[14.02018,61.24875],[14.02061,61.25088],[14.02015,61.25321],[14.02029,61.25544],[14.02211,61.25926],[14.02122,61.26238],[14.02152,61.26421],[14.02304,61.26596],[14.0262,61.2676],[14.0304,61.26855],[14.03436,61.26873]]]}},{"type":"Feature","id":"2039R003","properties":{"code":"2039R003","name":"Särna-Älvdalen mellersta omland"},"geometry":{"type":"Polygon","coordinates":[[[13.13162,61.94739],[13.26132,61.91282],[13.33452,61.86572],[13.38316,61.83397],[13.41317,61.79648],[13.44309,61.77358],[13.49578,61.72991],[13.49822,61.72551],[13.49753,61.7183],[13.51154,61.70976],[13.51115,61.70956],[13.51068,61.70976],[13.50988,61.70959],[13.50825,61.70841],[13.50919,61.70804],[13.50916,61.70753],[13.50851,61.70737],[13.50807,61.70754],[13.50808,61.70785],[13.50731,61.70785],[13.5067,61.70695],[13.50572,61.7069],[13.50556,61.70623],[13.50476,61.70532],[13.50542,61.70492],[13.50499,61.70469],[13.50407,61.7047],[13.50371,61.70436],[13.50421,61.70391],[13.50359,61.70361],[13.50312,61.70362],[13.50233,61.70276],[13.50141,61.70264],[13.50168,61.7022],[13.49962,61.70191],[13.49733,61.702],[13.49618,61.70246],[13.49599,61.70305],[13.49647,61.70359],[13.49734,61.70391],[13.498,61.70563],[13.49762,61.70659],[13.49662,61.70696],[13.49705,61.70894],[13.49813,61.70929],[13.49874,61.70922],[13.49978,61.70971],[13.49933,61.71005],[13.49914,61.71074],[13.49728,61.71172],[13.49712,61.71252],[13.49623,61.71349],[13.48992,61.68999],[13.54105,61.65552],[13.55922,61.6435],[13.65034,61.58026],[13.65032,61.57985],[13.65355,61.57704],[13.65462,61.57568],[13.65464,61.57518],[13.65418,61.57484],[13.64334,61.57116],[13.64013,61.5705],[13.63803,61.5696],[13.63713,61.569],[13.63639,61.56782],[13.63504,61.56724],[13.63514,61.56707],[13.63212,61.56532],[13.62572,61.56379],[13.6219,61.56221],[13.62016,61.56201],[13.61845,61.56203],[13.61602,61.56098],[13.61605,61.56008],[13.61527,61.55938],[13.6125,61.55898],[13.60922,61.55721],[13.60344,61.5549],[13.59971,61.55411],[13.59485,61.5536],[13.54849,61.52571],[13.51651,61.51586],[13.5162,61.51553],[13.51134,61.51675],[13.50629,61.51656],[13.50514,61.51684],[13.50211,61.51646],[13.49776,61.51771],[13.49452,61.51903],[13.48837,61.52237],[13.48274,61.52599],[13.47871,61.5294],[13.44906,61.51976],[13.37068,61.52272],[13.31696,61.5257],[13.29524,61.48449],[13.26037,61.47102],[13.1761,61.43951],[13.09837,61.52175],[13.07422,61.50206],[12.97464,61.43022],[12.93614,61.40267],[12.87085,61.3565],[12.8051,61.40447],[12.72291,61.46138],[12.56932,61.56875],[12.4466,61.56712],[12.41961,61.56298],[12.34122,61.61467],[12.27563,61.64024],[12.1897,61.69232],[12.30075,61.70084],[12.29992,61.70016],[12.29851,61.70045],[12.29783,61.70037],[12.29724,61.70006],[12.29769,61.6992],[12.29753,61.69872],[12.2981,61.69897],[12.29777,61.69953],[12.29799,61.69988],[12.29872,61.70008],[12.30032,61.70001],[12.30145,61.7009],[12.31752,61.70211],[12.32093,61.69169],[12.37502,61.69566],[12.37884,61.68521],[12.40359,61.68705],[12.43741,61.68961],[12.43381,61.70012],[12.51098,61.70583],[12.50749,61.71626],[12.6644,61.728],[12.87913,61.74307],[12.81271,61.77648],[12.92513,61.78451],[12.92812,61.78519],[12.91235,61.79758],[12.91092,61.80099],[12.90919,61.80274],[12.90832,61.80326],[12.90624,61.80397],[12.90257,61.80664],[12.90094,61.80865],[12.89755,61.80959],[12.89496,61.81113],[12.89406,61.81252],[12.89283,61.81339],[12.89306,61.81553],[12.8909,61.81935],[12.89033,61.81985],[12.93097,61.82275],[12.91912,61.85979],[13.10775,61.87264],[13.08576,61.94233],[13.13162,61.94739]]]}},{"type":"Feature","id":"2039R004","properties":{"code":"2039R004","name":"Älvdalen södra omland"},"geometry":{"type":"Polygon","coordinates":[[[13.7297,61.64396],[13.75314,61.64158],[13.81606,61.64245],[13.89795,61.63506],[13.97679,61.6214],[14.0461,61.55753],[14.06581,61.4843],[14.13547,61.40853],[14.15956,61.38166],[14.16713,61.35894],[14.18199,61.30778],[14.18228,61.30781],[14.1917,61.27405],[14.19345,61.26943],[14.17624,61.24241],[14.17338,61.22099],[14.2246,61.20053],[14.26028,61.17451],[14.35495,61.10434],[14.25731,61.1024],[14.25343,61.10906],[14.25423,61.11095],[14.25406,61.11163],[14.25185,61.11264],[14.24907,61.11324],[14.2405,61.11399],[14.23751,61.1138],[14.23282,61.11309],[14.22708,61.11276],[14.22464,61.11299],[14.22276,61.11287],[14.21526,61.11355],[14.21201,61.11331],[14.20502,61.11376],[14.19644,61.11655],[14.19298,61.11742],[14.18334,61.11743],[14.18033,61.11786],[14.17901,61.11843],[14.17879,61.11921],[14.17917,61.11976],[14.18031,61.12061],[14.186,61.12332],[14.18652,61.12428],[14.18648,61.12538],[14.18571,61.12715],[14.18512,61.12777],[14.1815,61.12988],[14.18068,61.13064],[14.17901,61.13123],[14.17652,61.13153],[14.17301,61.13246],[14.17035,61.13279],[14.16939,61.13309],[14.16483,61.13572],[14.16313,61.13827],[14.15917,61.13971],[14.15777,61.14053],[14.15113,61.14313],[14.14958,61.14449],[14.07678,61.12974],[13.94611,61.05107],[13.87027,61.05763],[13.76063,61.06136],[13.54263,61.03158],[13.51342,61.09238],[13.43998,61.14763],[13.43914,61.14875],[13.39392,61.21049],[13.38718,61.22668],[13.38443,61.23186],[13.36416,61.26978],[13.35311,61.28723],[13.25229,61.36366],[13.24452,61.3705],[13.24489,61.37106],[13.24596,61.37103],[13.24603,61.37122],[13.24467,61.37159],[13.24427,61.37195],[13.24364,61.37202],[13.24354,61.37272],[13.24269,61.37386],[13.24194,61.37371],[13.24107,61.37442],[13.24136,61.37499],[13.24032,61.37527],[13.2405,61.3755],[13.24003,61.37578],[13.24034,61.37628],[13.23939,61.37656],[13.23904,61.37716],[13.238,61.37728],[13.23807,61.37747],[13.23851,61.37744],[13.23884,61.37766],[13.23795,61.37789],[13.23796,61.37822],[13.23866,61.37857],[13.23805,61.37995],[13.23816,61.38123],[13.2397,61.38301],[13.23998,61.38378],[13.23925,61.38502],[13.23955,61.38587],[13.23883,61.38635],[13.23886,61.38671],[13.23737,61.38783],[13.23684,61.38788],[13.23593,61.38841],[13.23621,61.38898],[13.23582,61.3895],[13.23505,61.38968],[13.23375,61.38963],[13.23348,61.38977],[13.23385,61.39002],[13.23217,61.39021],[13.23213,61.39063],[13.23173,61.39086],[13.23187,61.39118],[13.23135,61.39135],[13.23192,61.39162],[13.23162,61.39191],[13.23194,61.39199],[13.23164,61.3923],[13.23192,61.39264],[13.2315,61.39296],[13.22951,61.39316],[13.22961,61.39344],[13.22888,61.39386],[13.22829,61.39381],[13.22795,61.39449],[13.22754,61.39443],[13.22756,61.39479],[13.22691,61.39492],[13.22679,61.39531],[13.22609,61.39563],[13.22575,61.39606],[13.22617,61.39626],[13.22529,61.39639],[13.22505,61.39676],[13.22536,61.39708],[13.225,61.39721],[13.22492,61.39778],[13.22427,61.39809],[13.22422,61.39866],[13.22389,61.39885],[13.22339,61.39877],[13.22294,61.39923],[13.22346,61.39958],[13.22236,61.39964],[13.22242,61.40001],[13.22294,61.40033],[13.22281,61.40059],[13.22178,61.40096],[13.22146,61.40149],[13.22195,61.40189],[13.22128,61.40219],[13.22087,61.40284],[13.21991,61.40297],[13.21933,61.4038],[13.21932,61.40454],[13.21832,61.40445],[13.21855,61.40477],[13.21737,61.40503],[13.215,61.40466],[13.20628,61.4111],[13.20371,61.41358],[13.20246,61.41399],[13.20154,61.415],[13.20127,61.41614],[13.19996,61.4163],[13.19905,61.41615],[13.1988,61.41647],[13.19825,61.41655],[13.1761,61.43951],[13.26037,61.47102],[13.29524,61.48449],[13.31696,61.5257],[13.37068,61.52272],[13.44906,61.51976],[13.47871,61.5294],[13.48274,61.52599],[13.48837,61.52237],[13.49452,61.51903],[13.49776,61.51771],[13.50211,61.51646],[13.50514,61.51684],[13.50629,61.51656],[13.51134,61.51675],[13.5162,61.51553],[13.51651,61.51586],[13.54849,61.52571],[13.59485,61.5536],[13.59971,61.55411],[13.60344,61.5549],[13.60922,61.55721],[13.6125,61.55898],[13.61527,61.55938],[13.61605,61.56008],[13.61602,61.56098],[13.61845,61.56203],[13.62016,61.56201],[13.6219,61.56221],[13.62572,61.56379],[13.63212,61.56532],[13.63514,61.56707],[13.63504,61.56724],[13.63639,61.56782],[13.63735,61.56921],[13.63977,61.57036],[13.64334,61.57116],[13.65418,61.57484],[13.65464,61.57518],[13.65462,61.57568],[13.65322,61.57737],[13.65032,61.57985],[13.65034,61.58026],[13.55922,61.6435],[13.59838,61.65633],[13.7297,61.64396]],[[14.03344,61.26874],[14.02972,61.26846],[14.0262,61.2676],[14.02343,61.26625],[14.02177,61.26463],[14.02119,61.26272],[14.02211,61.25926],[14.02029,61.25544],[14.02015,61.25321],[14.02061,61.25088],[14.02019,61.24851],[14.0206,61.24571],[14.02137,61.24435],[14.02289,61.24279],[14.02222,61.24145],[14.01888,61.23922],[14.01761,61.23736],[14.01387,61.23694],[14.01049,61.23596],[14.00714,61.23434],[14.00561,61.23316],[14.00322,61.23197],[14.00172,61.2307],[14.001,61.22968],[14.00068,61.22832],[14.00105,61.22657],[14.0018,61.22525],[14.00026,61.22144],[14.00031,61.22005],[14.00107,61.21872],[14.00258,61.21745],[14.00409,61.21667],[14.00834,61.21505],[14.00913,61.21369],[14.01061,61.21246],[14.01212,61.21157],[14.01581,61.21005],[14.01604,61.20907],[14.01699,61.20756],[14.01944,61.20578],[14.02064,61.20416],[14.02279,61.20271],[14.02612,61.20157],[14.02677,61.20008],[14.02824,61.19869],[14.03093,61.19729],[14.03438,61.19639],[14.03557,61.19519],[14.03735,61.19406],[14.04038,61.19298],[14.0439,61.19243],[14.04684,61.19238],[14.05005,61.19275],[14.05312,61.19249],[14.05781,61.19252],[14.05991,61.19278],[14.06246,61.19341],[14.06425,61.19413],[14.06601,61.19524],[14.06731,61.19686],[14.06769,61.19894],[14.06737,61.20035],[14.06629,61.20172],[14.07075,61.20302],[14.07248,61.20371],[14.0743,61.20486],[14.07545,61.20617],[14.07588,61.2076],[14.07536,61.20937],[14.07412,61.21071],[14.07239,61.21176],[14.07118,61.21322],[14.07269,61.21432],[14.07366,61.21566],[14.07385,61.21877],[14.07337,61.21987],[14.07222,61.22111],[14.07203,61.22268],[14.07142,61.22375],[14.06996,61.22526],[14.06823,61.2263],[14.06749,61.2276],[14.06498,61.22989],[14.0642,61.23103],[14.06202,61.23262],[14.05866,61.23384],[14.05747,61.23536],[14.05685,61.23858],[14.05559,61.24013],[14.05281,61.24178],[14.05067,61.24251],[14.04798,61.24303],[14.04731,61.24366],[14.04792,61.24401],[14.05399,61.24253],[14.05893,61.24213],[14.06307,61.24252],[14.06846,61.24375],[14.07127,61.24363],[14.07432,61.24386],[14.07781,61.24331],[14.08081,61.24326],[14.08512,61.24369],[14.08828,61.24453],[14.09216,61.24452],[14.09556,61.24506],[14.09922,61.24645],[14.10139,61.24825],[14.10203,61.25005],[14.10141,61.25193],[14.10274,61.25294],[14.10371,61.25428],[14.10382,61.25683],[14.10293,61.25821],[14.10138,61.25941],[14.09595,61.26161],[14.0925,61.26234],[14.08781,61.26266],[14.08229,61.26429],[14.07958,61.26486],[14.07463,61.2653],[14.06603,61.26518],[14.06257,61.2648],[14.05979,61.26407],[14.05724,61.26388],[14.05466,61.26426],[14.05233,61.26438],[14.05002,61.26544],[14.04229,61.26774],[14.03668,61.26856],[14.03344,61.26874]]]}},{"type":"Feature","id":"2039R005","properties":{"code":"2039R005","name":"Älvdalen-Kåtilla-Västäng"},"geometry":{"type":"Polygon","coordinates":[[[14.0289,61.24484],[14.03387,61.24406],[14.03569,61.24359],[14.03547,61.24249],[14.03923,61.24124],[14.0412,61.24079],[14.04399,61.2404],[14.04901,61.2403],[14.05021,61.23983],[14.05402,61.2395],[14.0556,61.24013],[14.05685,61.23858],[14.05747,61.23536],[14.05866,61.23384],[14.06152,61.23286],[14.06344,61.23172],[14.06498,61.22989],[14.06722,61.22791],[14.06823,61.2263],[14.07031,61.22496],[14.07167,61.22339],[14.07222,61.22111],[14.07374,61.21914],[14.07391,61.21673],[14.07326,61.21498],[14.07118,61.21322],[14.07239,61.21176],[14.07409,61.21073],[14.07533,61.20941],[14.07587,61.20797],[14.07563,61.20653],[14.07464,61.20516],[14.07252,61.20373],[14.07075,61.20302],[14.06629,61.20172],[14.06737,61.20035],[14.06769,61.19894],[14.06731,61.19686],[14.06603,61.19525],[14.06308,61.19363],[14.05923,61.19267],[14.05565,61.19245],[14.05241,61.19251],[14.05005,61.19275],[14.0476,61.19243],[14.0446,61.19238],[14.04102,61.19284],[14.03791,61.1938],[14.03595,61.1949],[14.03438,61.19639],[14.03093,61.19729],[14.02824,61.19869],[14.02677,61.20008],[14.02612,61.20157],[14.02279,61.20271],[14.02064,61.20416],[14.01944,61.20578],[14.01699,61.20756],[14.01604,61.20907],[14.01581,61.21005],[14.01111,61.21213],[14.00943,61.21338],[14.00834,61.21505],[14.00306,61.21717],[14.00172,61.21808],[14.0006,61.21937],[14.00026,61.22144],[14.0018,61.22525],[14.00105,61.22657],[14.00069,61.22867],[14.00102,61.22973],[14.00204,61.231],[14.00322,61.23197],[14.00561,61.23316],[14.00714,61.23434],[14.01049,61.23596],[14.01387,61.23694],[14.01761,61.23736],[14.01888,61.23922],[14.02222,61.24145],[14.02289,61.24279],[14.02194,61.24369],[14.02649,61.24495],[14.0289,61.24484]]]}}]}