{"type":"FeatureCollection","features":[{"type":"Feature","id":"2061R001","properties":{"code":"2061R001","name":"Hagge-Björsjö"},"geometry":{"type":"Polygon","coordinates":[[[15.3013,60.16293],[15.308,60.16215],[15.3253,60.1523],[15.32733,60.14788],[15.32566,60.14574],[15.32529,60.14438],[15.32589,60.14205],[15.32689,60.14055],[15.32961,60.13806],[15.33146,60.13695],[15.33813,60.13483],[15.34106,60.13417],[15.34653,60.1336],[15.35228,60.13353],[15.35601,60.13397],[15.3587,60.13475],[15.36082,60.13392],[15.36525,60.1327],[15.36729,60.13234],[15.37012,60.13218],[15.37233,60.13229],[15.37504,60.13275],[15.37729,60.13342],[15.37925,60.13436],[15.38028,60.13258],[15.38061,60.13084],[15.38168,60.1295],[15.38594,60.12689],[15.38878,60.1258],[15.39289,60.12515],[15.39671,60.12526],[15.40001,60.12504],[15.40541,60.12523],[15.40962,60.12606],[15.41582,60.12447],[15.41899,60.12341],[15.4218,60.12297],[15.42404,60.12288],[15.42695,60.12308],[15.42979,60.12366],[15.4323,60.1246],[15.43465,60.12593],[15.4378,60.12597],[15.43999,60.12622],[15.4439,60.12733],[15.44773,60.12952],[15.44908,60.1308],[15.44986,60.13269],[15.44953,60.13427],[15.45135,60.13334],[15.47088,60.1294],[15.49645,60.12461],[15.50278,60.12381],[15.50963,60.12337],[15.49817,60.11253],[15.49054,60.10151],[15.4879,60.09881],[15.48833,60.09706],[15.48677,60.09673],[15.48622,60.09677],[15.48602,60.09699],[15.47787,60.08861],[15.44998,60.07236],[15.42036,60.05582],[15.39986,60.04849],[15.37984,60.03576],[15.3427,60.01042],[15.33494,60.00287],[15.34203,60.00092],[15.32723,59.99756],[15.3218,59.99653],[15.32213,59.99589],[15.32125,59.9958],[15.32096,59.99635],[15.22843,59.97613],[15.21771,59.98769],[15.20542,60.00178],[15.17782,60.00392],[15.12546,60.00842],[15.13646,60.044],[15.14505,60.05159],[15.14834,60.05417],[15.15257,60.05704],[15.15874,60.06255],[15.15969,60.06281],[15.15957,60.06334],[15.16434,60.06777],[15.16576,60.06831],[15.16615,60.06944],[15.16871,60.07064],[15.16985,60.07083],[15.17428,60.0694],[15.17606,60.0704],[15.17681,60.07107],[15.17626,60.07327],[15.17729,60.07383],[15.17688,60.07655],[15.19506,60.08719],[15.20377,60.09787],[15.20855,60.10091],[15.2167,60.09736],[15.22003,60.09976],[15.22205,60.10025],[15.22589,60.1019],[15.22579,60.10334],[15.22249,60.10486],[15.22136,60.11272],[15.22131,60.11787],[15.22459,60.12283],[15.228,60.12541],[15.2397,60.13182],[15.23019,60.13799],[15.22155,60.14303],[15.22601,60.14531],[15.22808,60.14573],[15.23044,60.14696],[15.23143,60.14702],[15.22992,60.14835],[15.22759,60.14866],[15.22618,60.14907],[15.22707,60.15026],[15.22664,60.15058],[15.2247,60.15093],[15.22324,60.15156],[15.22143,60.15411],[15.22441,60.15667],[15.22532,60.16147],[15.23814,60.16287],[15.24509,60.15945],[15.25285,60.16235],[15.25468,60.1616],[15.26597,60.16373],[15.28969,60.16516],[15.29268,60.1637],[15.29676,60.16548],[15.3013,60.16293]]]}},{"type":"Feature","id":"2061R002","properties":{"code":"2061R002","name":"Malingsbo-Larsbo"},"geometry":{"type":"Polygon","coordinates":[[[15.62188,60.22739],[15.65726,60.21878],[15.72864,60.19915],[15.80142,60.17748],[15.79983,60.17669],[15.79294,60.16452],[15.77595,60.15288],[15.77434,60.15304],[15.76704,60.14809],[15.75727,60.14641],[15.75697,60.14618],[15.75279,60.14627],[15.74874,60.14684],[15.72537,60.14491],[15.7265,60.13787],[15.72654,60.13427],[15.72609,60.12987],[15.72636,60.1283],[15.73891,60.13035],[15.75204,60.12969],[15.765,60.13063],[15.75994,60.11571],[15.7477,60.11126],[15.7518,60.10794],[15.75085,60.10807],[15.74999,60.10796],[15.74761,60.10664],[15.7465,60.10217],[15.74774,60.10025],[15.74677,60.10048],[15.74221,60.10036],[15.73521,60.09885],[15.73412,60.0984],[15.73257,60.09724],[15.7318,60.09699],[15.73032,60.09688],[15.7297,60.09658],[15.72849,60.09461],[15.72689,60.09374],[15.72673,60.09338],[15.72093,60.09345],[15.71922,60.09123],[15.7123,60.08194],[15.71608,60.08171],[15.71768,60.08179],[15.72153,60.08122],[15.72315,60.08116],[15.73273,60.08216],[15.73808,60.08006],[15.724,60.07376],[15.7234,60.07281],[15.72279,60.07256],[15.72184,60.07108],[15.7233,60.06983],[15.72291,60.06936],[15.72315,60.06887],[15.72211,60.06815],[15.72225,60.06732],[15.72191,60.06664],[15.7223,60.06617],[15.72201,60.06567],[15.72275,60.06521],[15.72242,60.0633],[15.70763,60.05752],[15.70891,60.05615],[15.70771,60.0556],[15.70716,60.05494],[15.70741,60.05428],[15.70701,60.05388],[15.70744,60.05306],[15.70828,60.05238],[15.7068,60.05148],[15.70851,60.04984],[15.70657,60.0451],[15.70412,60.04537],[15.70318,60.04521],[15.70202,60.04466],[15.6986,60.04485],[15.69623,60.04664],[15.69613,60.04762],[15.68234,60.05199],[15.69099,60.04009],[15.69155,60.03976],[15.69491,60.03546],[15.69687,60.03385],[15.69849,60.0334],[15.70808,60.02955],[15.71071,60.02994],[15.71177,60.02914],[15.71271,60.02906],[15.71848,60.02985],[15.71942,60.02928],[15.72467,60.03087],[15.72631,60.03054],[15.72702,60.0306],[15.72738,60.03038],[15.72886,60.03052],[15.73101,60.02956],[15.73077,60.02879],[15.73152,60.02883],[15.73112,60.02797],[15.72973,60.02728],[15.73188,60.02552],[15.73089,60.02301],[15.71548,60.01785],[15.7095,60.01643],[15.7062,60.01689],[15.70539,60.01582],[15.70498,60.01566],[15.70262,60.01613],[15.7007,60.01594],[15.6986,60.01536],[15.69877,60.01426],[15.69983,60.01341],[15.70155,60.01275],[15.70301,60.01089],[15.70685,60.00806],[15.70625,60.00654],[15.71441,60.00015],[15.71429,59.99596],[15.71686,59.98856],[15.71366,59.98631],[15.7135,59.98522],[15.71366,59.98438],[15.71694,59.98115],[15.71709,59.97994],[15.7162,59.97754],[15.71532,59.97705],[15.71548,59.97661],[15.7149,59.97657],[15.71428,59.97603],[15.71451,59.97553],[15.71524,59.97553],[15.71525,59.9752],[15.7158,59.97524],[15.71612,59.97485],[15.71867,59.97401],[15.71939,59.97394],[15.71954,59.97373],[15.71923,59.97324],[15.71761,59.97245],[15.7147,59.96866],[15.71073,59.96518],[15.70936,59.96568],[15.70438,59.96477],[15.70547,59.96036],[15.6926,59.94778],[15.6857,59.94822],[15.67751,59.94542],[15.6779,59.94054],[15.68175,59.93792],[15.65869,59.93937],[15.62589,59.93586],[15.62531,59.93527],[15.62559,59.9343],[15.62346,59.93414],[15.62183,59.93567],[15.61568,59.93794],[15.61466,59.93903],[15.61217,59.94086],[15.60927,59.94192],[15.60745,59.94285],[15.60647,59.94361],[15.60547,59.9449],[15.60315,59.94667],[15.60198,59.94806],[15.53123,59.95716],[15.49297,59.93604],[15.4939,59.93352],[15.49528,59.93304],[15.49686,59.93174],[15.49795,59.93137],[15.49929,59.93019],[15.50102,59.92802],[15.4994,59.92709],[15.49649,59.92688],[15.47938,59.91423],[15.47963,59.91033],[15.47797,59.91027],[15.47587,59.91064],[15.47486,59.91012],[15.47339,59.9097],[15.47346,59.9094],[15.47584,59.90945],[15.47865,59.9091],[15.47964,59.90879],[15.47999,59.90833],[15.48105,59.90804],[15.48189,59.90744],[15.48245,59.90657],[15.48217,59.90611],[15.48085,59.90583],[15.48052,59.90526],[15.48239,59.9035],[15.48325,59.90314],[15.48337,59.90268],[15.48505,59.90244],[15.48563,59.90309],[15.48622,59.90329],[15.48929,59.90255],[15.48943,59.9022],[15.48874,59.90135],[15.48896,59.90053],[15.48752,59.89972],[15.48779,59.89829],[15.48703,59.89797],[15.48661,59.89801],[15.48502,59.89873],[15.48308,59.89895],[15.48258,59.89936],[15.48063,59.89815],[15.48,59.89643],[15.47858,59.89652],[15.47866,59.89688],[15.47743,59.89706],[15.47696,59.89686],[15.47722,59.89648],[15.47603,59.89583],[15.46699,59.89349],[15.46565,59.89337],[15.4647,59.89369],[15.46249,59.89381],[15.46045,59.89466],[15.43852,59.87118],[15.43675,59.87162],[15.43596,59.8715],[15.43528,59.87063],[15.43624,59.86885],[15.42224,59.85415],[15.3792,59.87753],[15.37136,59.87387],[15.37057,59.87502],[15.36465,59.87713],[15.36439,59.8786],[15.36361,59.87951],[15.36281,59.87995],[15.36192,59.87977],[15.36045,59.88054],[15.36023,59.88087],[15.36104,59.8817],[15.36168,59.88452],[15.35968,59.88589],[15.3588,59.88605],[15.35795,59.88681],[15.35789,59.8876],[15.35659,59.88817],[15.35481,59.88986],[15.35526,59.89399],[15.33135,59.90863],[15.26941,59.94953],[15.24278,59.96661],[15.22843,59.97613],[15.32096,59.99635],[15.32125,59.9958],[15.32213,59.99589],[15.3218,59.99653],[15.32723,59.99756],[15.34203,60.00092],[15.33494,60.00287],[15.3427,60.01042],[15.37984,60.03576],[15.39986,60.04849],[15.42036,60.05582],[15.44998,60.07236],[15.47787,60.08861],[15.48602,60.09699],[15.48622,60.09677],[15.48677,60.09673],[15.48833,60.09706],[15.4879,60.09881],[15.49054,60.10151],[15.49817,60.11253],[15.51413,60.12764],[15.51486,60.12894],[15.51467,60.13099],[15.51585,60.13253],[15.51948,60.13588],[15.51876,60.13623],[15.51901,60.1367],[15.52003,60.13686],[15.52078,60.13675],[15.52422,60.13982],[15.52545,60.14052],[15.52664,60.1416],[15.53228,60.15051],[15.53506,60.1528],[15.54021,60.15312],[15.5439,60.15546],[15.55722,60.16304],[15.58141,60.17928],[15.5845,60.18332],[15.57947,60.19251],[15.57275,60.20037],[15.56734,60.20556],[15.57056,60.20754],[15.57282,60.20985],[15.57257,60.21097],[15.57335,60.21367],[15.57472,60.21427],[15.57733,60.21479],[15.57746,60.21577],[15.58106,60.21861],[15.59606,60.2177],[15.60017,60.23172],[15.62188,60.22739]],[[15.56411,60.10126],[15.5585,60.10071],[15.544,60.09729],[15.54967,60.09267],[15.55259,60.08821],[15.54489,60.08571],[15.53897,60.08425],[15.54026,60.08301],[15.53664,60.08266],[15.53008,60.08095],[15.53085,60.08017],[15.52908,60.0799],[15.52774,60.07782],[15.53201,60.0712],[15.53054,60.068],[15.53178,60.06519],[15.53626,60.0623],[15.53952,60.05652],[15.54306,60.0531],[15.55176,60.05186],[15.55374,60.05167],[15.55505,60.05187],[15.55909,60.05141],[15.56201,60.05151],[15.56418,60.05184],[15.56627,60.05239],[15.56802,60.05309],[15.56985,60.05423],[15.57084,60.05524],[15.57142,60.05633],[15.57156,60.05767],[15.57869,60.05842],[15.59508,60.05669],[15.59785,60.05687],[15.60041,60.05739],[15.60276,60.05827],[15.60483,60.05965],[15.6058,60.06094],[15.6061,60.06234],[15.60832,60.06395],[15.60927,60.06597],[15.60912,60.06859],[15.6079,60.07049],[15.60387,60.07374],[15.59991,60.07533],[15.60057,60.07605],[15.60346,60.07764],[15.60495,60.07963],[15.60516,60.08299],[15.60436,60.0844],[15.60328,60.08539],[15.60135,60.08649],[15.59877,60.08736],[15.59556,60.08795],[15.59263,60.08807],[15.58875,60.08896],[15.58657,60.09074],[15.5838,60.09187],[15.58047,60.09253],[15.57687,60.09262],[15.57731,60.09428],[15.57688,60.09566],[15.57585,60.09692],[15.57316,60.09915],[15.57122,60.10012],[15.5688,60.10083],[15.56684,60.10114],[15.56411,60.10126]]]}},{"type":"Feature","id":"2061R003","properties":{"code":"2061R003","name":"Morgårdshammar-Gubbo"},"geometry":{"type":"Polygon","coordinates":[[[15.31335,60.19466],[15.3193,60.1939],[15.32266,60.193],[15.32487,60.19191],[15.32842,60.18904],[15.33032,60.18818],[15.33165,60.18727],[15.33281,60.18593],[15.33327,60.18469],[15.33327,60.18356],[15.33279,60.18239],[15.33364,60.18118],[15.33391,60.17988],[15.33538,60.17827],[15.33583,60.17689],[15.34044,60.17438],[15.34177,60.17333],[15.34301,60.17146],[15.34308,60.16981],[15.34673,60.17019],[15.35099,60.16987],[15.35467,60.1688],[15.35743,60.16715],[15.36009,60.16421],[15.361,60.16218],[15.36072,60.16028],[15.35931,60.15856],[15.35908,60.15775],[15.3593,60.15768],[15.36238,60.15886],[15.36634,60.15961],[15.36922,60.15976],[15.37174,60.15959],[15.37416,60.16002],[15.37874,60.16035],[15.38094,60.16022],[15.38363,60.15974],[15.38604,60.15893],[15.38825,60.15762],[15.39248,60.15696],[15.39584,60.15694],[15.39854,60.15657],[15.40323,60.15745],[15.4038,60.15719],[15.40296,60.15618],[15.39871,60.1535],[15.39586,60.14912],[15.39945,60.14793],[15.39289,60.14393],[15.39223,60.14375],[15.39235,60.14293],[15.38892,60.14179],[15.38637,60.14214],[15.379,60.13805],[15.37554,60.13679],[15.37357,60.13442],[15.36747,60.13232],[15.36525,60.1327],[15.36142,60.13374],[15.3587,60.13475],[15.35601,60.13397],[15.35228,60.13353],[15.34653,60.1336],[15.34101,60.13418],[15.33813,60.13483],[15.33146,60.13695],[15.32961,60.13806],[15.32689,60.14055],[15.32589,60.14205],[15.32529,60.14438],[15.32566,60.14574],[15.32733,60.14788],[15.3253,60.1523],[15.33184,60.14972],[15.33757,60.15835],[15.33643,60.16148],[15.33378,60.16428],[15.33494,60.16502],[15.3317,60.16466],[15.32812,60.16481],[15.32546,60.16532],[15.3235,60.166],[15.32078,60.16607],[15.31864,60.16637],[15.31185,60.1681],[15.30898,60.16936],[15.30736,60.17064],[15.3039,60.17139],[15.30118,60.17257],[15.29951,60.17388],[15.29851,60.17561],[15.29844,60.17684],[15.29905,60.17837],[15.30034,60.17968],[15.30258,60.18115],[15.30144,60.18223],[15.30081,60.18331],[15.30059,60.1845],[15.30085,60.18572],[15.29989,60.18764],[15.30008,60.189],[15.3013,60.19098],[15.30329,60.1926],[15.30604,60.19378],[15.30958,60.19451],[15.31335,60.19466]]]}},{"type":"Feature","id":"2061R004","properties":{"code":"2061R004","name":"Smedjebacken centrum"},"geometry":{"type":"Polygon","coordinates":[[[15.41167,60.15766],[15.41334,60.15621],[15.41697,60.15341],[15.41758,60.15222],[15.4184,60.15173],[15.41925,60.15174],[15.41987,60.15096],[15.41883,60.15048],[15.41901,60.14877],[15.41772,60.14701],[15.41987,60.1447],[15.41706,60.1441],[15.41758,60.14358],[15.4209,60.14434],[15.42404,60.14215],[15.42567,60.14244],[15.42906,60.14047],[15.43143,60.13736],[15.42502,60.13708],[15.42296,60.13651],[15.42157,60.13776],[15.41996,60.13981],[15.41844,60.1407],[15.41788,60.14052],[15.41523,60.14142],[15.41563,60.14196],[15.4144,60.14282],[15.41404,60.14272],[15.4112,60.14538],[15.41194,60.14594],[15.41259,60.1461],[15.41166,60.14714],[15.40972,60.14665],[15.40705,60.14861],[15.40884,60.14904],[15.4049,60.15317],[15.40296,60.15618],[15.4038,60.15719],[15.41167,60.15766]]]}},{"type":"Feature","id":"2061R005","properties":{"code":"2061R005","name":"Smedjebacken Norra"},"geometry":{"type":"Polygon","coordinates":[[[15.42627,60.16223],[15.42976,60.16181],[15.43269,60.16089],[15.43522,60.15928],[15.43772,60.1581],[15.43919,60.15685],[15.4401,60.15478],[15.43947,60.15169],[15.44216,60.15082],[15.44424,60.14965],[15.44555,60.14835],[15.44632,60.14678],[15.44659,60.14382],[15.44524,60.14113],[15.44542,60.13941],[15.44476,60.13764],[15.44651,60.13693],[15.4479,60.1361],[15.44953,60.13427],[15.44185,60.13822],[15.434,60.13782],[15.43258,60.13744],[15.43143,60.13736],[15.42906,60.14047],[15.42567,60.14244],[15.42404,60.14215],[15.4209,60.14434],[15.41758,60.14358],[15.41706,60.1441],[15.41987,60.1447],[15.41772,60.14701],[15.41901,60.14877],[15.41883,60.15048],[15.41987,60.15096],[15.41945,60.15157],[15.41925,60.15174],[15.4184,60.15173],[15.41758,60.15222],[15.41697,60.15341],[15.41167,60.15766],[15.4038,60.15719],[15.40323,60.15745],[15.40741,60.15809],[15.41081,60.15821],[15.41191,60.15929],[15.41326,60.16013],[15.41679,60.16136],[15.42348,60.16218],[15.42627,60.16223]]]}},{"type":"Feature","id":"2061R006","properties":{"code":"2061R006","name":"Smedjebacken Södra"},"geometry":{"type":"Polygon","coordinates":[[[15.4049,60.15317],[15.40884,60.14904],[15.40705,60.14861],[15.40972,60.14665],[15.41166,60.14714],[15.41259,60.1461],[15.41194,60.14594],[15.4112,60.14538],[15.41404,60.14272],[15.4144,60.14282],[15.41563,60.14196],[15.41523,60.14142],[15.41788,60.14052],[15.41844,60.1407],[15.41996,60.13981],[15.42157,60.13776],[15.42296,60.13651],[15.42502,60.13708],[15.43258,60.13744],[15.434,60.13782],[15.44185,60.13822],[15.44953,60.13427],[15.44981,60.13235],[15.4488,60.13045],[15.44732,60.12924],[15.44336,60.12711],[15.43934,60.12612],[15.43465,60.12593],[15.43165,60.12431],[15.42845,60.12334],[15.42541,60.12293],[15.42247,60.12292],[15.41882,60.12345],[15.41582,60.12447],[15.40962,60.12606],[15.40541,60.12523],[15.40001,60.12504],[15.39671,60.12526],[15.39289,60.12515],[15.38878,60.1258],[15.38594,60.12689],[15.38168,60.1295],[15.38061,60.13084],[15.38028,60.13258],[15.37925,60.13436],[15.37668,60.13321],[15.37371,60.13248],[15.37087,60.13219],[15.36747,60.13232],[15.37357,60.13442],[15.37554,60.13679],[15.379,60.13805],[15.38637,60.14214],[15.38892,60.14179],[15.39235,60.14293],[15.39223,60.14375],[15.39289,60.14393],[15.39945,60.14793],[15.39586,60.14912],[15.39871,60.1535],[15.40296,60.15618],[15.4049,60.15317]]]}},{"type":"Feature","id":"2061R007","properties":{"code":"2061R007","name":"Starbo-Åsmansbo"},"geometry":{"type":"Polygon","coordinates":[[[15.25809,60.28683],[15.26201,60.28582],[15.28731,60.28252],[15.28941,60.28088],[15.29076,60.28043],[15.29028,60.28032],[15.29064,60.28016],[15.29098,60.28024],[15.29183,60.27963],[15.292,60.27938],[15.29173,60.27933],[15.29162,60.27882],[15.29309,60.27741],[15.29968,60.27871],[15.30225,60.27842],[15.30204,60.27824],[15.30297,60.27798],[15.30324,60.27706],[15.3043,60.27668],[15.305,60.27674],[15.30563,60.27708],[15.3095,60.27775],[15.31347,60.27674],[15.31636,60.27685],[15.31732,60.2767],[15.31787,60.27708],[15.31972,60.27715],[15.32182,60.27658],[15.32478,60.27684],[15.32968,60.27664],[15.33907,60.27811],[15.34755,60.27624],[15.34861,60.27546],[15.35332,60.27611],[15.35732,60.27752],[15.35888,60.2777],[15.36125,60.27753],[15.36402,60.27633],[15.38365,60.27601],[15.43426,60.26828],[15.43483,60.2678],[15.43688,60.26743],[15.43644,60.267],[15.43794,60.26678],[15.43866,60.26756],[15.44469,60.26661],[15.44571,60.2667],[15.44603,60.26629],[15.44668,60.26628],[15.44701,60.26685],[15.47895,60.27036],[15.47955,60.27105],[15.48024,60.27127],[15.48294,60.27126],[15.48457,60.27079],[15.485,60.27021],[15.48685,60.26884],[15.4883,60.26858],[15.49041,60.26762],[15.49139,60.26777],[15.49256,60.26746],[15.49279,60.26709],[15.49243,60.26681],[15.49293,60.26654],[15.49346,60.26552],[15.49559,60.26459],[15.4957,60.26422],[15.49677,60.26362],[15.49648,60.26294],[15.49727,60.26199],[15.49669,60.26107],[15.49551,60.26067],[15.49522,60.26016],[15.49432,60.25966],[15.49426,60.25865],[15.49365,60.25832],[15.49354,60.25791],[15.49382,60.25773],[15.49331,60.25745],[15.49296,60.25643],[15.49351,60.25617],[15.49325,60.25561],[15.49372,60.25508],[15.49661,60.25536],[15.49726,60.25501],[15.49498,60.25395],[15.5022,60.25121],[15.50361,60.25038],[15.50419,60.25051],[15.51461,60.24693],[15.51821,60.24602],[15.52343,60.24527],[15.52616,60.24504],[15.52642,60.24596],[15.52823,60.248],[15.56449,60.24066],[15.57915,60.23669],[15.60017,60.23172],[15.59606,60.2177],[15.58106,60.21861],[15.57746,60.21577],[15.57733,60.21479],[15.57472,60.21427],[15.57335,60.21367],[15.57257,60.21097],[15.57282,60.20985],[15.57056,60.20754],[15.56734,60.20556],[15.57275,60.20037],[15.57947,60.19251],[15.5845,60.18332],[15.58141,60.17928],[15.55722,60.16304],[15.5439,60.15546],[15.54021,60.15312],[15.53506,60.1528],[15.53228,60.15051],[15.52664,60.1416],[15.52545,60.14052],[15.52422,60.13982],[15.52078,60.13675],[15.52003,60.13686],[15.51901,60.1367],[15.51876,60.13623],[15.51948,60.13588],[15.51585,60.13253],[15.51467,60.13099],[15.51486,60.12894],[15.51462,60.12822],[15.50963,60.12337],[15.50278,60.12381],[15.49645,60.12461],[15.47088,60.1294],[15.45135,60.13334],[15.44953,60.13427],[15.44865,60.13546],[15.44749,60.13638],[15.44476,60.13764],[15.44542,60.13941],[15.44524,60.14113],[15.44659,60.14382],[15.44632,60.14678],[15.44555,60.14835],[15.44424,60.14965],[15.44216,60.15082],[15.43947,60.15169],[15.4401,60.15475],[15.43944,60.15653],[15.43772,60.1581],[15.43522,60.15928],[15.43369,60.16039],[15.43216,60.16111],[15.42976,60.16181],[15.42708,60.16219],[15.42484,60.16225],[15.41813,60.16161],[15.41553,60.16103],[15.41375,60.16037],[15.41191,60.15929],[15.41081,60.15821],[15.40669,60.15802],[15.39854,60.15657],[15.39584,60.15694],[15.39248,60.15696],[15.38825,60.15762],[15.38654,60.1587],[15.38428,60.15957],[15.38227,60.16003],[15.37948,60.16033],[15.37657,60.16027],[15.37174,60.15959],[15.36922,60.15976],[15.36634,60.15961],[15.36238,60.15886],[15.3593,60.15768],[15.35908,60.15775],[15.35931,60.15856],[15.36072,60.16028],[15.361,60.16218],[15.36009,60.16421],[15.35745,60.16713],[15.35467,60.1688],[15.35099,60.16987],[15.34673,60.17019],[15.34308,60.16981],[15.34301,60.17146],[15.34177,60.17333],[15.34044,60.17438],[15.33583,60.17689],[15.33538,60.17827],[15.33391,60.17988],[15.33364,60.18118],[15.33279,60.18239],[15.33327,60.18356],[15.33327,60.18469],[15.33281,60.18593],[15.33165,60.18727],[15.33032,60.18818],[15.32842,60.18904],[15.32539,60.19154],[15.32319,60.19279],[15.32012,60.19374],[15.31558,60.19447],[15.31335,60.19466],[15.31108,60.19464],[15.30681,60.19399],[15.30375,60.19286],[15.3013,60.19098],[15.30008,60.189],[15.29989,60.18764],[15.30085,60.18572],[15.30059,60.1845],[15.30081,60.18331],[15.30144,60.18223],[15.30258,60.18115],[15.30034,60.17968],[15.29905,60.17837],[15.29844,60.17684],[15.29861,60.17527],[15.29959,60.1738],[15.30164,60.17231],[15.30406,60.17134],[15.30736,60.17064],[15.30957,60.16903],[15.31244,60.16793],[15.31864,60.16637],[15.32078,60.16607],[15.3235,60.166],[15.32546,60.16532],[15.32812,60.16481],[15.3317,60.16466],[15.33494,60.16502],[15.33378,60.16428],[15.33643,60.16148],[15.33757,60.15835],[15.33184,60.14972],[15.3253,60.1523],[15.308,60.16215],[15.3013,60.16293],[15.29676,60.16548],[15.29268,60.1637],[15.28969,60.16516],[15.26597,60.16373],[15.25468,60.1616],[15.25285,60.16235],[15.24509,60.15945],[15.23814,60.16287],[15.23738,60.16535],[15.23878,60.16665],[15.24518,60.18911],[15.24525,60.20555],[15.24468,60.21336],[15.24386,60.21947],[15.23618,60.24825],[15.23528,60.24843],[15.23309,60.25119],[15.23423,60.25319],[15.23245,60.25418],[15.23154,60.25549],[15.23025,60.25543],[15.22894,60.25705],[15.22701,60.2583],[15.22658,60.25902],[15.22652,60.26008],[15.22855,60.26271],[15.22973,60.26278],[15.23092,60.26329],[15.23266,60.26313],[15.2307,60.27228],[15.23131,60.27229],[15.23154,60.27327],[15.23302,60.27459],[15.23384,60.27647],[15.23339,60.2788],[15.25809,60.28683]]]}},{"type":"Feature","id":"2061R008","properties":{"code":"2061R008","name":"Söderbärke"},"geometry":{"type":"Polygon","coordinates":[[[15.56548,60.10124],[15.56816,60.10095],[15.57008,60.1005],[15.57225,60.09967],[15.57356,60.09887],[15.57585,60.09692],[15.57688,60.09566],[15.57731,60.09428],[15.57687,60.09262],[15.58047,60.09253],[15.5838,60.09187],[15.58657,60.09074],[15.58875,60.08896],[15.59263,60.08807],[15.59556,60.08795],[15.59877,60.08736],[15.60135,60.08649],[15.60365,60.0851],[15.60516,60.08299],[15.60495,60.07963],[15.60346,60.07764],[15.60057,60.07605],[15.59991,60.07533],[15.60387,60.07374],[15.6079,60.07049],[15.60912,60.06859],[15.60927,60.06597],[15.60832,60.06395],[15.6061,60.06234],[15.6058,60.06094],[15.60483,60.05965],[15.60276,60.05827],[15.60041,60.05739],[15.59785,60.05687],[15.59508,60.05669],[15.57869,60.05842],[15.57156,60.05767],[15.57142,60.05633],[15.57084,60.05524],[15.56985,60.05423],[15.56802,60.05309],[15.56627,60.05239],[15.56418,60.05184],[15.56201,60.05151],[15.55909,60.05141],[15.55505,60.05187],[15.55374,60.05167],[15.55176,60.05186],[15.54306,60.0531],[15.53952,60.05652],[15.53626,60.0623],[15.53178,60.06519],[15.53054,60.068],[15.53201,60.0712],[15.52774,60.07782],[15.52908,60.0799],[15.53085,60.08017],[15.53008,60.08095],[15.53664,60.08266],[15.54026,60.08301],[15.53897,60.08425],[15.54489,60.08571],[15.55259,60.08821],[15.54967,60.09267],[15.544,60.09729],[15.5585,60.10071],[15.56275,60.10119],[15.56548,60.10124]]]}}]}