{"type":"FeatureCollection","features":[{"type":"Feature","id":"2062R008","properties":{"code":"2062R008","name":"Saxnäs-Yvraden"},"geometry":{"type":"Polygon","coordinates":[[[14.56781,61.00335],[14.56989,60.99886],[14.58949,60.98865],[14.59457,60.98166],[14.59217,60.9712],[14.59389,60.97037],[14.59303,60.96442],[14.59389,60.97037],[14.55102,60.97908],[14.54566,60.98102],[14.54291,60.9861],[14.53994,60.98692],[14.54122,60.98764],[14.54055,60.98803],[14.53998,60.98901],[14.54257,60.98951],[14.54078,60.99196],[14.54065,60.99336],[14.54217,60.99553],[14.54269,60.99719],[14.54127,60.99987],[14.54048,61.0],[14.53932,61.00151],[14.53954,61.00276],[14.56633,61.00294],[14.5659,61.00332],[14.56781,61.00335]]]}},{"type":"Feature","id":"2062R009","properties":{"code":"2062R009","name":"Sollerön-Gesunda-Ryssa"},"geometry":{"type":"Polygon","coordinates":[[[14.59015,60.95463],[14.60223,60.95282],[14.7078,60.90781],[14.77621,60.85424],[14.69356,60.82801],[14.66154,60.82026],[14.64413,60.81082],[14.61401,60.79359],[14.54515,60.75653],[14.50954,60.74366],[14.46662,60.72937],[14.44836,60.71708],[14.41297,60.69392],[14.36342,60.69251],[14.28047,60.68773],[14.23289,60.68538],[14.14625,60.67878],[14.19174,60.74167],[14.25342,60.81967],[14.30113,60.83254],[14.29201,60.84671],[14.33362,60.85297],[14.36625,60.86356],[14.39488,60.88044],[14.38365,60.885],[14.38322,60.8854],[14.3822,60.88575],[14.38351,60.88634],[14.3878,60.88756],[14.38789,60.88778],[14.45381,60.89845],[14.45728,60.90671],[14.45688,60.90687],[14.45723,60.90754],[14.45664,60.90851],[14.45843,60.90894],[14.45877,60.90934],[14.46,60.90989],[14.45975,60.91104],[14.46125,60.91189],[14.46208,60.91396],[14.4618,60.91441],[14.46983,60.91681],[14.46978,60.91701],[14.46927,60.91692],[14.4688,60.91708],[14.46874,60.91746],[14.46807,60.91788],[14.46751,60.91792],[14.46673,60.9177],[14.46587,60.91815],[14.46465,60.91808],[14.46004,60.92111],[14.46472,60.9233],[14.4663,60.92431],[14.48476,60.92615],[14.48525,60.92524],[14.48971,60.92572],[14.49195,60.9244],[14.49419,60.92426],[14.49734,60.92442],[14.49853,60.92307],[14.50189,60.92437],[14.50743,60.92417],[14.50971,60.92519],[14.51766,60.92353],[14.54581,60.92801],[14.54941,60.93386],[14.54969,60.93528],[14.55191,60.93602],[14.55285,60.93716],[14.55309,60.93913],[14.59015,60.95463]]]}},{"type":"Feature","id":"2062R010","properties":{"code":"2062R010","name":"Vattnäs-Bergkarlås-Garsås"},"geometry":{"type":"Polygon","coordinates":[[[14.56036,61.08495],[14.57205,61.06028],[14.59169,61.06166],[14.658,61.05242],[14.7165,61.04974],[14.81073,61.05383],[14.94543,61.05399],[15.04041,61.05918],[15.0284,61.05492],[14.94897,61.0293],[14.92116,61.02736],[14.90042,61.00224],[14.88179,60.97774],[14.87133,60.96324],[14.87169,60.96245],[14.87107,60.96247],[14.87083,60.9623],[14.87127,60.96191],[14.87252,60.96176],[14.87335,60.9605],[14.87644,60.96027],[14.87698,60.9588],[14.87777,60.95818],[14.87834,60.95814],[14.88089,60.95866],[14.88136,60.95846],[14.88152,60.95796],[14.8823,60.95796],[14.88219,60.95763],[14.88271,60.95738],[14.88446,60.95758],[14.88499,60.95678],[14.88465,60.95621],[14.88552,60.9557],[14.88544,60.95549],[14.88641,60.95508],[14.88758,60.95501],[14.88706,60.95452],[14.88842,60.95442],[14.8892,60.95417],[14.88953,60.95347],[14.89003,60.95334],[14.89141,60.95341],[14.89263,60.95305],[14.89312,60.95356],[14.89414,60.95251],[14.89534,60.95255],[14.89564,60.95203],[14.89626,60.95187],[14.89665,60.95135],[14.89765,60.95094],[14.89752,60.95051],[14.89845,60.9501],[14.89853,60.94855],[14.89911,60.94791],[14.90346,60.94721],[14.90334,60.9465],[14.90478,60.94513],[14.90579,60.94475],[14.90639,60.94408],[14.90776,60.94377],[14.90904,60.94286],[14.90978,60.94278],[14.91302,60.94306],[14.9156,60.94259],[14.9167,60.94213],[14.91659,60.94152],[14.91712,60.94107],[14.91839,60.9406],[14.91892,60.94146],[14.92069,60.94208],[14.92135,60.94207],[14.92175,60.94177],[14.92116,60.9411],[14.92209,60.9411],[14.92147,60.94059],[14.92283,60.94036],[14.92364,60.93923],[14.92154,60.93787],[14.91758,60.93927],[14.91066,60.93973],[14.90897,60.93006],[14.90561,60.92781],[14.88657,60.91284],[14.88733,60.91219],[14.88889,60.90996],[14.89072,60.90938],[14.89127,60.90882],[14.8941,60.90821],[14.89486,60.90778],[14.89556,60.90792],[14.89489,60.90934],[14.89582,60.90949],[14.89741,60.90934],[14.89829,60.90967],[14.90037,60.90953],[14.90088,60.90925],[14.90074,60.90834],[14.90229,60.90654],[14.90265,60.90515],[14.89992,60.90316],[14.89436,60.9015],[14.89389,60.90131],[14.89373,60.90091],[14.89649,60.89706],[14.89379,60.89634],[14.89306,60.89696],[14.88764,60.89558],[14.88623,60.89704],[14.88618,60.8974],[14.88699,60.89772],[14.88584,60.89913],[14.88726,60.90187],[14.88756,60.90491],[14.88595,60.90655],[14.88474,60.90619],[14.8837,60.90618],[14.88105,60.90666],[14.87996,60.90722],[14.87647,60.90431],[14.87785,60.90408],[14.87799,60.90382],[14.87621,60.90375],[14.87558,60.90357],[14.86695,60.89629],[14.86779,60.89537],[14.86682,60.89523],[14.87015,60.88789],[14.85756,60.87997],[14.77621,60.85424],[14.7078,60.90781],[14.69828,60.91181],[14.65966,60.92827],[14.6613,60.92757],[14.66879,60.93099],[14.67147,60.93145],[14.6733,60.93201],[14.67683,60.93379],[14.67858,60.93576],[14.67869,60.9379],[14.67752,60.93962],[14.67469,60.9415],[14.67232,60.94256],[14.66993,60.94396],[14.66982,60.94535],[14.66901,60.94667],[14.66795,60.94758],[14.66606,60.9486],[14.66494,60.94981],[14.66346,60.95075],[14.66589,60.95251],[14.66656,60.95354],[14.66683,60.95486],[14.67018,60.95598],[14.67257,60.95768],[14.67345,60.95936],[14.67314,60.96133],[14.67183,60.96292],[14.67116,60.96442],[14.67017,60.96543],[14.66819,60.96666],[14.66508,60.96771],[14.66464,60.96888],[14.66347,60.97016],[14.66165,60.97127],[14.65993,60.97194],[14.65889,60.97337],[14.65699,60.97464],[14.65682,60.97723],[14.65583,60.97853],[14.65461,60.97945],[14.65135,60.98081],[14.64729,60.98148],[14.64371,60.98144],[14.64032,60.98086],[14.63652,60.9805],[14.63501,60.98168],[14.63382,60.98336],[14.63249,60.98437],[14.63148,60.98647],[14.63003,60.98782],[14.6309,60.98879],[14.63289,60.98873],[14.63632,60.98816],[14.64391,60.98777],[14.64753,60.98809],[14.65077,60.98894],[14.65525,60.99121],[14.65833,60.99226],[14.66076,60.99399],[14.66156,60.99534],[14.66164,60.99672],[14.66099,60.99807],[14.65947,60.99947],[14.65637,61.00135],[14.6527,61.00291],[14.6493,61.00365],[14.64627,61.00384],[14.64016,61.00809],[14.63726,61.00938],[14.63521,61.0099],[14.63137,61.01045],[14.6293,61.01099],[14.62702,61.01132],[14.62334,61.01224],[14.61647,61.01277],[14.61753,61.01418],[14.61782,61.01564],[14.6173,61.01719],[14.61606,61.01854],[14.61275,61.02038],[14.60816,61.02225],[14.60618,61.02388],[14.60402,61.02503],[14.60074,61.02599],[14.59759,61.02726],[14.59431,61.02786],[14.59383,61.02935],[14.59197,61.03183],[14.59027,61.03302],[14.58804,61.03394],[14.58308,61.03493],[14.57935,61.03512],[14.57647,61.03486],[14.57363,61.03423],[14.57145,61.03337],[14.56976,61.03223],[14.55387,61.03272],[14.55159,61.03436],[14.54902,61.03548],[14.54573,61.03624],[14.54253,61.03653],[14.54167,61.03802],[14.53974,61.03946],[14.53959,61.04107],[14.54104,61.04202],[14.54266,61.04362],[14.54357,61.04539],[14.54309,61.04756],[14.54127,61.04941],[14.53929,61.05047],[14.5367,61.0513],[14.5344,61.0517],[14.52826,61.05232],[14.51498,61.05521],[14.52297,61.06112],[14.53656,61.06441],[14.54173,61.07274],[14.56036,61.08495]]]}},{"type":"Feature","id":"2062R011","properties":{"code":"2062R011","name":"Våmhus-Bonäs"},"geometry":{"type":"Polygon","coordinates":[[[14.45613,61.13442],[14.45907,61.13414],[14.46116,61.13368],[14.46451,61.13402],[14.46805,61.13384],[14.47086,61.13329],[14.47413,61.13232],[14.47788,61.13055],[14.47994,61.12896],[14.48375,61.12745],[14.48599,61.12569],[14.48978,61.12449],[14.49448,61.12265],[14.49855,61.11993],[14.49989,61.11835],[14.50018,61.11699],[14.49973,61.11558],[14.49857,61.11428],[14.49681,61.11317],[14.49811,61.1118],[14.49869,61.11031],[14.49872,61.1089],[14.4982,61.10742],[14.49718,61.10607],[14.49653,61.1045],[14.49558,61.10352],[14.49378,61.1024],[14.49129,61.10148],[14.49182,61.09928],[14.49155,61.09784],[14.4902,61.09618],[14.48815,61.09494],[14.4916,61.09465],[14.49478,61.09392],[14.49751,61.09272],[14.49947,61.09113],[14.50151,61.08757],[14.5016,61.08604],[14.50237,61.08451],[14.50223,61.08291],[14.50349,61.08127],[14.50378,61.07991],[14.50522,61.07803],[14.50523,61.07625],[14.50711,61.07525],[14.5082,61.07431],[14.50905,61.07295],[14.50922,61.07185],[14.50895,61.07078],[14.50761,61.06851],[14.50649,61.06751],[14.50469,61.0665],[14.50546,61.06523],[14.50562,61.06416],[14.5045,61.06166],[14.50329,61.06057],[14.50132,61.05949],[14.49889,61.05869],[14.49677,61.05829],[14.49387,61.05808],[14.4909,61.05823],[14.48412,61.05929],[14.4795,61.0597],[14.47584,61.06078],[14.47397,61.06184],[14.47291,61.06281],[14.47217,61.06415],[14.47192,61.0662],[14.46819,61.07025],[14.46782,61.07196],[14.46859,61.07366],[14.47092,61.07543],[14.47217,61.07674],[14.47548,61.0786],[14.47596,61.08023],[14.47679,61.08141],[14.47489,61.08336],[14.47427,61.08515],[14.47464,61.08978],[14.47551,61.0911],[14.47678,61.09211],[14.47326,61.09235],[14.47053,61.09294],[14.4682,61.09384],[14.46644,61.09498],[14.46515,61.09665],[14.46473,61.09968],[14.46406,61.10062],[14.46284,61.10146],[14.46071,61.10358],[14.45825,61.10504],[14.45508,61.1085],[14.45308,61.10912],[14.45147,61.10987],[14.44875,61.11186],[14.44778,61.11351],[14.44754,61.11461],[14.44789,61.11602],[14.44873,61.11713],[14.44785,61.11797],[14.44562,61.11894],[14.44406,61.12004],[14.44294,61.12135],[14.44257,61.12242],[14.44285,61.12514],[14.4437,61.12672],[14.44313,61.12808],[14.44318,61.12916],[14.44454,61.13121],[14.44678,61.13265],[14.44966,61.13373],[14.45244,61.13426],[14.45613,61.13442]]]}},{"type":"Feature","id":"2062R012","properties":{"code":"2062R012","name":"Öna-Östnor-Kråkberg"},"geometry":{"type":"Polygon","coordinates":[[[14.50485,61.05722],[14.50918,61.05678],[14.51106,61.05631],[14.51315,61.0555],[14.51824,61.05456],[14.52826,61.05232],[14.53606,61.05144],[14.53816,61.05088],[14.54031,61.05],[14.54236,61.04847],[14.54356,61.04642],[14.54349,61.04505],[14.54292,61.04394],[14.54104,61.04202],[14.53959,61.04107],[14.53974,61.03946],[14.54167,61.03802],[14.54253,61.03653],[14.54573,61.03624],[14.54902,61.03548],[14.55159,61.03436],[14.55387,61.03272],[14.56976,61.03223],[14.57001,61.03244],[14.57433,61.02928],[14.57439,61.02725],[14.5759,61.02469],[14.57742,61.02282],[14.57806,61.02111],[14.57809,61.01724],[14.57791,61.01562],[14.57721,61.01425],[14.57239,61.01539],[14.56808,61.01565],[14.56524,61.01531],[14.55907,61.01333],[14.55658,61.01217],[14.55454,61.01167],[14.55136,61.01118],[14.54645,61.01087],[14.53707,61.01239],[14.53299,61.0126],[14.52855,61.01231],[14.52704,61.012],[14.51991,61.00988],[14.51763,61.00967],[14.51549,61.00972],[14.51377,61.01005],[14.51203,61.01085],[14.51066,61.01209],[14.51103,61.01299],[14.51061,61.01536],[14.50877,61.01763],[14.50712,61.01833],[14.50396,61.01902],[14.49816,61.01913],[14.49228,61.01885],[14.48689,61.01922],[14.48426,61.01959],[14.48128,61.02041],[14.47372,61.02299],[14.46651,61.02391],[14.46172,61.02567],[14.45839,61.02775],[14.45014,61.03052],[14.44657,61.03236],[14.44428,61.03298],[14.44292,61.03394],[14.44237,61.0352],[14.44673,61.03507],[14.45666,61.03356],[14.45951,61.03278],[14.46189,61.03176],[14.46382,61.03034],[14.46469,61.02883],[14.46673,61.02845],[14.47034,61.03074],[14.47249,61.03161],[14.47266,61.03297],[14.47393,61.03524],[14.47626,61.03767],[14.47925,61.03921],[14.48368,61.04047],[14.48728,61.04085],[14.4934,61.04055],[14.49734,61.03979],[14.4975,61.04134],[14.49845,61.04277],[14.50005,61.04402],[14.50207,61.04497],[14.49925,61.04564],[14.49693,61.04646],[14.49382,61.04806],[14.4927,61.04908],[14.49204,61.05016],[14.49201,61.05239],[14.49369,61.05446],[14.4963,61.05588],[14.49832,61.05653],[14.50046,61.05696],[14.50485,61.05722]]]}},{"type":"Feature","id":"2062R001","properties":{"code":"2062R001","name":"Färnäs-Nusnäs"},"geometry":{"type":"Polygon","coordinates":[[[14.61959,61.01258],[14.62432,61.01207],[14.62702,61.01132],[14.6293,61.01099],[14.63137,61.01045],[14.63521,61.0099],[14.63784,61.00918],[14.64016,61.00809],[14.64627,61.00384],[14.64862,61.00373],[14.65139,61.00327],[14.65328,61.00271],[14.65588,61.0016],[14.65947,60.99947],[14.66073,60.99838],[14.66141,60.99739],[14.66156,60.99534],[14.6601,60.99336],[14.65833,60.99226],[14.65525,60.99121],[14.65187,60.98941],[14.65015,60.98873],[14.64686,60.98799],[14.64391,60.98777],[14.63632,60.98816],[14.63289,60.98873],[14.6309,60.98879],[14.63003,60.98782],[14.63148,60.98647],[14.63249,60.98437],[14.63382,60.98336],[14.63501,60.98168],[14.63652,60.9805],[14.64032,60.98086],[14.64371,60.98144],[14.64729,60.98148],[14.65135,60.98081],[14.65461,60.97945],[14.65583,60.97853],[14.65682,60.97723],[14.65699,60.97464],[14.65889,60.97337],[14.65993,60.97194],[14.66165,60.97127],[14.66347,60.97016],[14.66464,60.96888],[14.66508,60.96771],[14.66819,60.96666],[14.67017,60.96543],[14.67116,60.96442],[14.67183,60.96292],[14.67314,60.96133],[14.67345,60.95936],[14.67257,60.95768],[14.67018,60.95598],[14.66683,60.95486],[14.66656,60.95354],[14.66589,60.95251],[14.66346,60.95075],[14.66494,60.94981],[14.66606,60.9486],[14.66795,60.94758],[14.66901,60.94667],[14.66982,60.94535],[14.66993,60.94396],[14.67232,60.94256],[14.67469,60.9415],[14.67752,60.93962],[14.67868,60.93793],[14.67871,60.9361],[14.67758,60.9344],[14.67542,60.93296],[14.67209,60.93161],[14.66879,60.93099],[14.6613,60.92757],[14.60223,60.95282],[14.59159,60.95441],[14.59389,60.97037],[14.59217,60.9712],[14.59457,60.98166],[14.58949,60.98865],[14.58373,60.99166],[14.58631,60.99145],[14.58845,60.99151],[14.59449,60.99103],[14.60075,60.99407],[14.60223,60.99498],[14.60097,60.9954],[14.59977,60.99652],[14.60039,60.99707],[14.60214,60.99666],[14.60382,60.99803],[14.60216,60.99861],[14.60999,61.00544],[14.60908,61.00615],[14.60943,61.00653],[14.61061,61.00698],[14.61046,61.00748],[14.61959,61.01258]]]}},{"type":"Feature","id":"2062R002","properties":{"code":"2062R002","name":"Hånåkni-Utmeland-Vinäs"},"geometry":{"type":"Polygon","coordinates":[[[14.50827,61.0049],[14.5077,61.0044],[14.50969,61.00318],[14.50859,61.00299],[14.50986,61.00191],[14.51659,61.00094],[14.51926,61.00036],[14.52191,60.99944],[14.52518,60.99754],[14.53085,60.99591],[14.53203,60.9958],[14.53346,60.99795],[14.53479,60.99899],[14.53652,60.99991],[14.53899,60.99932],[14.53956,60.99988],[14.54149,60.99943],[14.54269,60.99719],[14.54217,60.99553],[14.54065,60.99336],[14.54078,60.99196],[14.54257,60.98951],[14.53998,60.98901],[14.54055,60.98803],[14.54122,60.98764],[14.53994,60.98692],[14.54291,60.9861],[14.54566,60.98102],[14.55102,60.97908],[14.59389,60.97037],[14.59159,60.95441],[14.59015,60.95463],[14.58826,60.95385],[14.55463,60.9597],[14.55275,60.95912],[14.55023,60.95868],[14.54433,60.95672],[14.54226,60.95632],[14.53932,60.95611],[14.53711,60.95619],[14.53167,60.95682],[14.52812,60.95662],[14.52362,60.95704],[14.5201,60.95774],[14.51738,60.95888],[14.51554,60.96035],[14.51472,60.96204],[14.51513,60.96563],[14.51669,60.96824],[14.51553,60.97032],[14.51601,60.97239],[14.51427,60.97326],[14.51107,60.97416],[14.50836,60.97548],[14.50644,60.97687],[14.50538,60.97858],[14.50521,60.98018],[14.50575,60.98161],[14.50699,60.98289],[14.50923,60.98415],[14.50945,60.98486],[14.5073,60.98554],[14.50502,60.98658],[14.50296,60.98787],[14.50156,60.98927],[14.50098,60.99071],[14.50098,60.99204],[14.50133,60.99315],[14.50244,60.99452],[14.49988,60.99444],[14.49759,60.9946],[14.49361,60.99545],[14.49481,61.00057],[14.4962,61.00111],[14.49627,61.00147],[14.49693,61.00166],[14.49636,61.00208],[14.49574,61.00183],[14.49557,61.00196],[14.49626,61.00246],[14.49732,61.00238],[14.49555,61.00303],[14.49611,61.00346],[14.49697,61.00379],[14.49741,61.00332],[14.49769,61.00343],[14.49757,61.00393],[14.49798,61.00416],[14.49861,61.00384],[14.49936,61.00426],[14.50018,61.00353],[14.50006,61.0031],[14.50315,61.00372],[14.50379,61.00425],[14.5047,61.00408],[14.50611,61.0044],[14.50668,61.00496],[14.50751,61.00514],[14.50827,61.0049]]]}},{"type":"Feature","id":"2062R003","properties":{"code":"2062R003","name":"Mora centrala"},"geometry":{"type":"Polygon","coordinates":[[[14.57221,61.0154],[14.57721,61.01425],[14.57776,61.01356],[14.5776,61.01263],[14.57263,61.01091],[14.57051,61.00994],[14.56945,61.00921],[14.56884,61.00805],[14.56934,61.00682],[14.56781,61.00335],[14.5659,61.00332],[14.56633,61.00294],[14.53954,61.00276],[14.53932,61.00151],[14.54048,61.0],[14.54127,60.99987],[14.54149,60.99943],[14.53956,60.99988],[14.53899,60.99932],[14.53652,60.99991],[14.53759,61.00041],[14.53568,61.00101],[14.5346,61.00205],[14.53079,61.00248],[14.52124,61.00596],[14.51705,61.00723],[14.5171,61.00811],[14.5189,61.00895],[14.51877,61.00977],[14.52149,61.01025],[14.525,61.01147],[14.52855,61.01231],[14.53299,61.0126],[14.53572,61.01255],[14.54645,61.01087],[14.5481,61.01087],[14.55136,61.01118],[14.55454,61.01167],[14.55658,61.01217],[14.55907,61.01333],[14.56524,61.01531],[14.56808,61.01565],[14.57221,61.0154]]]}},{"type":"Feature","id":"2062R004","properties":{"code":"2062R004","name":"Mora nordvästra"},"geometry":{"type":"Polygon","coordinates":[[[13.97679,61.6214],[14.05249,61.61934],[14.18221,61.61763],[14.28509,61.60825],[14.33613,61.59937],[14.39458,61.56391],[14.32624,61.53447],[14.30404,61.50048],[14.30739,61.47106],[14.32086,61.42781],[14.36282,61.39209],[14.37094,61.36926],[14.39762,61.30025],[14.40121,61.2957],[14.40226,61.29476],[14.45322,61.25049],[14.48921,61.20844],[14.51113,61.18199],[14.53696,61.13413],[14.53623,61.13445],[14.53487,61.13311],[14.53746,61.13142],[14.53698,61.13121],[14.53792,61.12982],[14.53829,61.12966],[14.53935,61.12985],[14.56036,61.08495],[14.54173,61.07274],[14.53656,61.06441],[14.52297,61.06112],[14.51498,61.05521],[14.51315,61.0555],[14.51106,61.05631],[14.50849,61.05691],[14.50344,61.05722],[14.50046,61.05696],[14.49813,61.05648],[14.49561,61.05559],[14.49369,61.05446],[14.49241,61.05314],[14.49188,61.05195],[14.49192,61.05049],[14.4927,61.04908],[14.49382,61.04806],[14.49579,61.04693],[14.49925,61.04564],[14.50207,61.04497],[14.50005,61.04402],[14.49845,61.04277],[14.4975,61.04134],[14.49734,61.03979],[14.4934,61.04055],[14.48728,61.04085],[14.48368,61.04047],[14.47925,61.03921],[14.47626,61.03767],[14.47393,61.03524],[14.47266,61.03297],[14.47249,61.03161],[14.47034,61.03074],[14.46673,61.02845],[14.46469,61.02883],[14.46409,61.03002],[14.46277,61.03123],[14.46064,61.03235],[14.45833,61.03316],[14.456,61.03367],[14.44673,61.03507],[14.44323,61.03525],[14.44046,61.035],[14.43743,61.03432],[14.43568,61.03374],[14.43252,61.03226],[14.43086,61.03115],[14.43003,61.0302],[14.42952,61.02886],[14.42961,61.0278],[14.43102,61.02576],[14.43359,61.02424],[14.43471,61.02294],[14.43703,61.02143],[14.44178,61.01933],[14.4436,61.01876],[14.44655,61.01819],[14.44932,61.01664],[14.45256,61.01574],[14.45351,61.01443],[14.4551,61.01325],[14.45569,61.01154],[14.45644,61.01056],[14.4588,61.00899],[14.45949,61.00789],[14.46058,61.0069],[14.46254,61.00578],[14.46664,61.00421],[14.47005,61.00354],[14.47448,61.00345],[14.47846,61.0041],[14.48413,61.00325],[14.48838,61.00315],[14.48748,61.00144],[14.4875,61.0],[14.48828,60.9986],[14.48976,60.99735],[14.4923,60.99594],[14.49541,60.99496],[14.49917,60.99447],[14.50244,60.99452],[14.50133,60.99315],[14.50098,60.99204],[14.50098,60.99071],[14.50156,60.98927],[14.50296,60.98787],[14.50502,60.98658],[14.5073,60.98554],[14.50945,60.98486],[14.50923,60.98415],[14.50699,60.98289],[14.50574,60.98158],[14.50521,60.98018],[14.5055,60.97824],[14.50644,60.97687],[14.50836,60.97548],[14.51107,60.97416],[14.51427,60.97326],[14.51601,60.97239],[14.51553,60.97032],[14.51669,60.96824],[14.51513,60.96563],[14.51472,60.96204],[14.51582,60.96003],[14.51838,60.95837],[14.5214,60.95741],[14.52583,60.95676],[14.52882,60.95662],[14.53167,60.95682],[14.53711,60.95619],[14.54008,60.95613],[14.54433,60.95672],[14.55023,60.95868],[14.55275,60.95912],[14.55463,60.9597],[14.58826,60.95385],[14.59015,60.95463],[14.55309,60.93913],[14.55285,60.93716],[14.55191,60.93602],[14.54969,60.93528],[14.54941,60.93386],[14.54581,60.92801],[14.51766,60.92353],[14.50971,60.92519],[14.50743,60.92417],[14.50189,60.92437],[14.49853,60.92307],[14.49734,60.92442],[14.49419,60.92426],[14.49195,60.9244],[14.48971,60.92572],[14.48525,60.92524],[14.48476,60.92615],[14.4663,60.92431],[14.46472,60.9233],[14.46004,60.92111],[14.46465,60.91808],[14.46587,60.91815],[14.46673,60.9177],[14.46751,60.91792],[14.46807,60.91788],[14.46874,60.91746],[14.4688,60.91708],[14.46927,60.91692],[14.46978,60.91701],[14.46983,60.91681],[14.4618,60.91441],[14.46208,60.91396],[14.46125,60.91189],[14.45975,60.91104],[14.46,60.90989],[14.45877,60.90934],[14.45843,60.90894],[14.45664,60.90851],[14.45723,60.90754],[14.45688,60.90687],[14.45728,60.90671],[14.45381,60.89845],[14.38789,60.88778],[14.3878,60.88756],[14.38351,60.88634],[14.3822,60.88575],[14.38322,60.8854],[14.38365,60.885],[14.39488,60.88044],[14.36625,60.86356],[14.33362,60.85297],[14.29201,60.84671],[14.30113,60.83254],[14.25342,60.81967],[14.19174,60.74167],[14.14625,60.67878],[14.07777,60.67372],[14.01111,60.66433],[14.00696,60.68108],[14.00566,60.68791],[13.96006,60.7187],[13.94343,60.73469],[13.95881,60.74348],[13.97817,60.76441],[14.01627,60.80385],[13.97874,60.84322],[13.94909,60.85378],[13.92952,60.86023],[13.9069,60.86728],[13.88577,60.8665],[13.8588,60.86583],[13.83645,60.86486],[13.82433,60.86495],[13.80962,60.86476],[13.79275,60.8634],[13.77895,60.86404],[13.76482,60.86401],[13.74402,60.86332],[13.73498,60.86363],[13.67474,60.86399],[13.65308,60.86313],[13.63108,60.86249],[13.62124,60.86193],[13.61085,60.86104],[13.61285,60.90224],[13.60175,60.92272],[13.59335,60.92234],[13.58811,60.93372],[13.59542,60.93396],[13.59226,60.94027],[13.5594,60.99845],[13.54263,61.03158],[13.76063,61.06136],[13.87027,61.05763],[13.94611,61.05107],[14.07678,61.12974],[14.14958,61.14449],[14.15113,61.14313],[14.15777,61.14053],[14.15917,61.13971],[14.16313,61.13827],[14.16483,61.13572],[14.16939,61.13309],[14.17035,61.13279],[14.17301,61.13246],[14.17652,61.13153],[14.17901,61.13123],[14.18068,61.13064],[14.1815,61.12988],[14.18512,61.12777],[14.18571,61.12715],[14.18648,61.12538],[14.18652,61.12428],[14.186,61.12332],[14.18031,61.12061],[14.17917,61.11976],[14.17879,61.11921],[14.17901,61.11843],[14.18033,61.11786],[14.18334,61.11743],[14.19298,61.11742],[14.19644,61.11655],[14.20502,61.11376],[14.21201,61.11331],[14.21526,61.11355],[14.22276,61.11287],[14.22464,61.11299],[14.22708,61.11276],[14.23282,61.11309],[14.23751,61.1138],[14.2405,61.11399],[14.24907,61.11324],[14.25185,61.11264],[14.25406,61.11163],[14.25423,61.11095],[14.25343,61.10906],[14.25731,61.1024],[14.35495,61.10434],[14.26028,61.17451],[14.2246,61.20053],[14.17338,61.22099],[14.17624,61.24241],[14.19345,61.26943],[14.1917,61.27405],[14.18228,61.30781],[14.18199,61.30778],[14.16713,61.35894],[14.15956,61.38166],[14.13547,61.40853],[14.06581,61.4843],[14.0461,61.55753],[13.97679,61.6214]],[[14.45536,61.13443],[14.45176,61.13417],[14.44905,61.13356],[14.44673,61.13263],[14.44454,61.13121],[14.44318,61.12916],[14.44313,61.12808],[14.4437,61.12672],[14.44285,61.12514],[14.44257,61.12242],[14.44294,61.12135],[14.44406,61.12004],[14.44562,61.11894],[14.44785,61.11797],[14.44873,61.11713],[14.44789,61.11602],[14.44754,61.11461],[14.44778,61.11351],[14.44875,61.11186],[14.45147,61.10987],[14.45308,61.10912],[14.45508,61.1085],[14.45825,61.10504],[14.46071,61.10358],[14.46284,61.10146],[14.46406,61.10062],[14.46473,61.09968],[14.46515,61.09665],[14.46644,61.09498],[14.4682,61.09384],[14.47053,61.09294],[14.47326,61.09235],[14.47678,61.09211],[14.47551,61.0911],[14.47464,61.08978],[14.47427,61.08515],[14.47489,61.08336],[14.47679,61.08141],[14.47596,61.08023],[14.47548,61.0786],[14.47217,61.07674],[14.47092,61.07543],[14.46859,61.07366],[14.46782,61.07196],[14.46819,61.07025],[14.47192,61.0662],[14.47217,61.06415],[14.47291,61.06281],[14.47397,61.06184],[14.47584,61.06078],[14.4795,61.0597],[14.48412,61.05929],[14.4909,61.05823],[14.49387,61.05808],[14.49677,61.05829],[14.49889,61.05869],[14.50132,61.05949],[14.50329,61.06057],[14.5045,61.06166],[14.50562,61.06416],[14.50546,61.06523],[14.50469,61.0665],[14.50649,61.06751],[14.50761,61.06851],[14.50895,61.07078],[14.50922,61.07185],[14.50905,61.07295],[14.5082,61.07431],[14.50711,61.07525],[14.50523,61.07625],[14.50522,61.07803],[14.50378,61.07991],[14.50349,61.08127],[14.50223,61.08291],[14.50237,61.08451],[14.5016,61.08604],[14.50151,61.08757],[14.49947,61.09113],[14.49751,61.09272],[14.49478,61.09392],[14.4916,61.09465],[14.48815,61.09494],[14.4902,61.09618],[14.49155,61.09784],[14.49182,61.09928],[14.49129,61.10148],[14.49378,61.1024],[14.49558,61.10352],[14.49653,61.1045],[14.49718,61.10607],[14.4982,61.10742],[14.49872,61.1089],[14.49869,61.11031],[14.49811,61.1118],[14.49681,61.11317],[14.49857,61.11428],[14.49973,61.11558],[14.50018,61.11699],[14.49989,61.11835],[14.49855,61.11993],[14.49448,61.12265],[14.48978,61.12449],[14.48599,61.12569],[14.48375,61.12745],[14.47994,61.12896],[14.47788,61.13055],[14.47413,61.13232],[14.47008,61.13348],[14.46736,61.13392],[14.46447,61.13402],[14.46116,61.13368],[14.45833,61.13424],[14.45536,61.13443]]]}},{"type":"Feature","id":"2062R006","properties":{"code":"2062R006","name":"Noret norra"},"geometry":{"type":"Polygon","coordinates":[[[14.58082,61.03511],[14.58607,61.03444],[14.58977,61.03326],[14.5916,61.03215],[14.59257,61.03118],[14.59401,61.02902],[14.59431,61.02786],[14.59759,61.02726],[14.60074,61.02599],[14.60417,61.02497],[14.60618,61.02388],[14.60816,61.02225],[14.61414,61.01971],[14.6164,61.01824],[14.61748,61.01686],[14.61782,61.01564],[14.61753,61.01418],[14.61647,61.01277],[14.61959,61.01258],[14.6105,61.0074],[14.60542,61.00747],[14.60204,61.00776],[14.59226,61.00911],[14.5894,61.00935],[14.5899,61.01056],[14.58848,61.01047],[14.58782,61.01082],[14.58225,61.01108],[14.58223,61.00958],[14.5777,61.00971],[14.56986,61.00949],[14.57263,61.01091],[14.5776,61.01263],[14.57776,61.01356],[14.57721,61.01425],[14.57791,61.01562],[14.57809,61.01724],[14.57806,61.02111],[14.57742,61.02282],[14.5759,61.02469],[14.57439,61.02725],[14.57433,61.02928],[14.57001,61.03244],[14.57195,61.03361],[14.57424,61.03441],[14.57721,61.03496],[14.58082,61.03511]]]}},{"type":"Feature","id":"2062R007","properties":{"code":"2062R007","name":"Noret södra"},"geometry":{"type":"Polygon","coordinates":[[[14.58225,61.01108],[14.58782,61.01082],[14.58848,61.01047],[14.5899,61.01056],[14.5894,61.00935],[14.59226,61.00911],[14.60204,61.00776],[14.60542,61.00747],[14.6105,61.0074],[14.61061,61.00698],[14.60998,61.00687],[14.60908,61.00615],[14.60999,61.00544],[14.60216,60.99861],[14.60382,60.99803],[14.60214,60.99666],[14.60039,60.99707],[14.59977,60.99652],[14.60097,60.9954],[14.60223,60.99498],[14.59449,60.99103],[14.58845,60.99151],[14.58631,60.99145],[14.58373,60.99166],[14.56989,60.99886],[14.56781,61.00335],[14.56934,61.00682],[14.56884,61.00805],[14.56945,61.00921],[14.56986,61.00949],[14.57421,61.00963],[14.58223,61.00958],[14.58225,61.01108]]]}},{"type":"Feature","id":"2062R005","properties":{"code":"2062R005","name":"Morkarlby-Selja-Långlet"},"geometry":{"type":"Polygon","coordinates":[[[14.44237,61.0352],[14.44292,61.03394],[14.44428,61.03298],[14.44657,61.03236],[14.45014,61.03052],[14.45839,61.02775],[14.46172,61.02567],[14.46651,61.02391],[14.47372,61.02299],[14.48128,61.02041],[14.48426,61.01959],[14.48689,61.01922],[14.49228,61.01885],[14.49816,61.01913],[14.50396,61.01902],[14.50712,61.01833],[14.50877,61.01763],[14.51061,61.01536],[14.51103,61.01299],[14.51066,61.01209],[14.51203,61.01085],[14.51377,61.01005],[14.51549,61.00972],[14.51877,61.00977],[14.5189,61.00895],[14.5171,61.00811],[14.51705,61.00723],[14.52124,61.00596],[14.53079,61.00248],[14.5346,61.00205],[14.53568,61.00101],[14.53759,61.00041],[14.53479,60.99899],[14.53346,60.99795],[14.53203,60.9958],[14.5285,60.99647],[14.52518,60.99754],[14.52191,60.99944],[14.51926,61.00036],[14.51659,61.00094],[14.50986,61.00191],[14.50859,61.00299],[14.50969,61.00318],[14.50798,61.0041],[14.5077,61.0044],[14.50827,61.0049],[14.50751,61.00514],[14.50668,61.00496],[14.50611,61.0044],[14.5047,61.00408],[14.50379,61.00425],[14.50315,61.00372],[14.50006,61.0031],[14.50018,61.00353],[14.49936,61.00426],[14.49861,61.00384],[14.49798,61.00416],[14.49757,61.00393],[14.49769,61.00343],[14.49741,61.00332],[14.49697,61.00379],[14.49611,61.00346],[14.49555,61.00303],[14.49732,61.00238],[14.49626,61.00246],[14.49557,61.00196],[14.49574,61.00183],[14.49636,61.00208],[14.49693,61.00166],[14.49627,61.00147],[14.4962,61.00111],[14.49481,61.00057],[14.49361,60.99545],[14.49164,60.99625],[14.48972,60.99737],[14.48801,60.99895],[14.48742,61.00108],[14.48838,61.00315],[14.48413,61.00325],[14.47846,61.0041],[14.47448,61.00345],[14.47005,61.00354],[14.46664,61.00421],[14.46254,61.00578],[14.46058,61.0069],[14.45949,61.00789],[14.4588,61.00899],[14.45644,61.01056],[14.45569,61.01154],[14.4551,61.01325],[14.45351,61.01443],[14.45256,61.01574],[14.44932,61.01664],[14.44655,61.01819],[14.4436,61.01876],[14.44178,61.01933],[14.43703,61.02143],[14.43471,61.02294],[14.43359,61.02424],[14.43142,61.02545],[14.43012,61.02675],[14.42954,61.02814],[14.42969,61.02954],[14.43054,61.03084],[14.43205,61.032],[14.43568,61.03374],[14.43914,61.03475],[14.44237,61.0352]]]}}]}