{"type":"FeatureCollection","features":[{"type":"Feature","id":"2080R001","properties":{"code":"2080R001","name":"Aspeboda"},"geometry":{"type":"Polygon","coordinates":[[[15.52565,60.73227],[15.54877,60.72938],[15.57455,60.72826],[15.58413,60.72927],[15.58491,60.72262],[15.58334,60.72102],[15.58242,60.71758],[15.57378,60.71372],[15.56833,60.7101],[15.56989,60.70252],[15.5695,60.6972],[15.56919,60.69654],[15.56335,60.69091],[15.57487,60.68862],[15.58535,60.68356],[15.59018,60.68166],[15.58782,60.68103],[15.58647,60.67788],[15.58756,60.6756],[15.58906,60.66824],[15.58667,60.66448],[15.5901,60.66135],[15.60015,60.65535],[15.58957,60.64857],[15.56311,60.64423],[15.57349,60.63572],[15.58296,60.63081],[15.58247,60.63013],[15.57701,60.62976],[15.57369,60.62898],[15.57068,60.62745],[15.56916,60.6258],[15.56877,60.62437],[15.56949,60.6216],[15.56922,60.62044],[15.56941,60.61937],[15.57101,60.61737],[15.57449,60.61537],[15.57387,60.61259],[15.57164,60.61342],[15.56949,60.61392],[15.56499,60.61425],[15.56056,60.61374],[15.55684,60.61245],[15.55146,60.60924],[15.55034,60.60788],[15.54995,60.60614],[15.5478,60.60572],[15.54543,60.6049],[15.54395,60.60411],[15.54252,60.60287],[15.54187,60.60181],[15.54149,60.59988],[15.54202,60.59846],[15.54324,60.59717],[15.54458,60.59632],[15.54638,60.59555],[15.54769,60.59439],[15.55094,60.59244],[15.55223,60.59139],[15.55494,60.58995],[15.5588,60.58829],[15.56408,60.58691],[15.56923,60.58628],[15.57228,60.58611],[15.57517,60.5862],[15.57744,60.58654],[15.57942,60.58704],[15.58154,60.58792],[15.58314,60.58904],[15.58414,60.59034],[15.58548,60.59095],[15.58729,60.59003],[15.58926,60.58939],[15.58822,60.58706],[15.58793,60.58476],[15.58871,60.58265],[15.5903,60.58122],[15.59299,60.57962],[15.59378,60.57798],[15.59466,60.57697],[15.5975,60.57524],[15.59983,60.57441],[15.60185,60.57398],[15.60404,60.57374],[15.60693,60.57376],[15.60972,60.57412],[15.61228,60.57483],[15.6139,60.57555],[15.6159,60.57689],[15.61792,60.57685],[15.6174,60.57491],[15.61774,60.57347],[15.61938,60.57113],[15.62159,60.56972],[15.62505,60.56856],[15.62767,60.56796],[15.62982,60.56773],[15.63472,60.56764],[15.63755,60.56646],[15.6408,60.56552],[15.64485,60.56396],[15.6471,60.56337],[15.6491,60.56309],[15.65143,60.56299],[15.65891,60.56942],[15.66495,60.57212],[15.66873,60.5759],[15.6737,60.57624],[15.68544,60.57977],[15.69003,60.57852],[15.70048,60.57247],[15.70117,60.57244],[15.70536,60.57271],[15.70727,60.57312],[15.7095,60.57394],[15.7119,60.57561],[15.71299,60.57769],[15.71553,60.57746],[15.71831,60.57756],[15.72095,60.57799],[15.72328,60.57874],[15.72039,60.56518],[15.67806,60.55964],[15.66483,60.5581],[15.66895,60.55537],[15.67274,60.55076],[15.67904,60.54602],[15.67536,60.54426],[15.66748,60.53546],[15.65253,60.53914],[15.63612,60.5329],[15.63497,60.5268],[15.62681,60.52695],[15.61407,60.53045],[15.60969,60.52687],[15.60637,60.52694],[15.60215,60.52931],[15.58759,60.53236],[15.5953,60.53753],[15.59771,60.53825],[15.58302,60.5434],[15.57856,60.54146],[15.57302,60.54055],[15.56536,60.53958],[15.56359,60.53988],[15.55597,60.53923],[15.55027,60.53312],[15.54146,60.52572],[15.54148,60.52584],[15.53708,60.52476],[15.53645,60.52529],[15.53617,60.52619],[15.53562,60.5254],[15.53266,60.52318],[15.5322,60.52142],[15.5314,60.52072],[15.53093,60.52072],[15.52951,60.52272],[15.52359,60.52407],[15.51699,60.5214],[15.51648,60.52213],[15.516,60.52233],[15.51404,60.5219],[15.51385,60.52159],[15.51271,60.52128],[15.511,60.52196],[15.50871,60.52224],[15.50874,60.52295],[15.50675,60.52363],[15.50754,60.52447],[15.51305,60.52552],[15.49961,60.53379],[15.49518,60.53192],[15.49194,60.53423],[15.48919,60.53517],[15.47873,60.53402],[15.46656,60.53819],[15.45591,60.53957],[15.44829,60.55024],[15.44951,60.55179],[15.44754,60.55477],[15.44338,60.55949],[15.43927,60.56266],[15.43272,60.55728],[15.43182,60.55688],[15.4318,60.55661],[15.43087,60.5559],[15.43084,60.55572],[15.43337,60.55443],[15.43071,60.55309],[15.42902,60.55141],[15.42903,60.55101],[15.42818,60.55135],[15.42615,60.55165],[15.42438,60.5517],[15.42361,60.55213],[15.42381,60.55245],[15.422,60.55279],[15.42177,60.553],[15.42128,60.5527],[15.41986,60.55281],[15.41977,60.5522],[15.41858,60.55129],[15.41803,60.55133],[15.41779,60.55068],[15.41558,60.55078],[15.40871,60.55262],[15.40987,60.55496],[15.41453,60.55669],[15.41183,60.55865],[15.40996,60.55792],[15.40782,60.55755],[15.40452,60.55742],[15.40326,60.55698],[15.39628,60.56177],[15.38675,60.56053],[15.38419,60.56156],[15.39458,60.56294],[15.38313,60.5708],[15.37193,60.57576],[15.35716,60.57378],[15.34743,60.58078],[15.35262,60.59067],[15.35251,60.59349],[15.34891,60.59204],[15.34703,60.59165],[15.34448,60.59282],[15.34064,60.59569],[15.34053,60.59671],[15.33506,60.59702],[15.33268,60.59848],[15.33306,60.59952],[15.33761,60.60179],[15.33984,60.6008],[15.3442,60.60093],[15.34442,60.5995],[15.34882,60.5981],[15.35241,60.59636],[15.35658,60.59581],[15.36378,60.5928],[15.36592,60.59125],[15.36666,60.58986],[15.3679,60.58898],[15.37311,60.58857],[15.37376,60.58587],[15.37623,60.58452],[15.38029,60.58278],[15.38297,60.58288],[15.38523,60.5821],[15.39227,60.58469],[15.39223,60.58505],[15.39274,60.58518],[15.39289,60.58497],[15.40503,60.59023],[15.40313,60.59222],[15.40072,60.59357],[15.38879,60.59873],[15.38512,60.59884],[15.38101,60.60246],[15.36957,60.60605],[15.36,60.6121],[15.34882,60.61579],[15.34728,60.61655],[15.346,60.62026],[15.34467,60.6224],[15.34473,60.62286],[15.34167,60.62508],[15.33891,60.6285],[15.33979,60.63088],[15.33826,60.6343],[15.33597,60.63706],[15.33313,60.63939],[15.40212,60.66188],[15.41618,60.67218],[15.41866,60.6757],[15.41729,60.67657],[15.41646,60.67767],[15.41659,60.67839],[15.41747,60.679],[15.41904,60.67892],[15.42086,60.67906],[15.42643,60.68745],[15.42349,60.68807],[15.42491,60.68955],[15.42772,60.68898],[15.43165,60.6937],[15.43221,60.69234],[15.43343,60.69105],[15.43528,60.68996],[15.43708,60.68928],[15.4404,60.68848],[15.44414,60.68821],[15.44861,60.68751],[15.45082,60.68588],[15.45453,60.68457],[15.45854,60.68382],[15.46277,60.68369],[15.463,60.68243],[15.46231,60.68133],[15.46211,60.67992],[15.46299,60.67805],[15.46317,60.6757],[15.46364,60.67465],[15.46509,60.67317],[15.46724,60.6717],[15.4693,60.67076],[15.47178,60.67009],[15.47465,60.66975],[15.47685,60.66972],[15.47962,60.67],[15.48156,60.67042],[15.48382,60.67125],[15.48669,60.67278],[15.488,60.67364],[15.48913,60.67485],[15.49094,60.67557],[15.49409,60.67507],[15.49638,60.67347],[15.49959,60.67223],[15.50233,60.6717],[15.50526,60.67153],[15.50812,60.67172],[15.51248,60.6725],[15.52031,60.67538],[15.52252,60.67683],[15.52368,60.67852],[15.52371,60.6803],[15.52281,60.6818],[15.52351,60.68224],[15.52922,60.68331],[15.53169,60.6841],[15.53405,60.68546],[15.53543,60.68712],[15.53569,60.6889],[15.53464,60.69104],[15.53131,60.69349],[15.52838,60.69466],[15.52571,60.69531],[15.52349,60.69559],[15.51928,60.69557],[15.51634,60.69599],[15.51269,60.69598],[15.50987,60.69556],[15.50684,60.69476],[15.50276,60.6927],[15.50166,60.6931],[15.49692,60.69794],[15.49552,60.69877],[15.49337,60.69959],[15.49151,60.70198],[15.48997,60.70324],[15.48828,60.70411],[15.48642,60.70477],[15.48367,60.70534],[15.48141,60.70554],[15.47687,60.7053],[15.47282,60.70425],[15.47023,60.70287],[15.46642,60.69953],[15.46461,60.69971],[15.45718,60.70189],[15.45292,60.70234],[15.44872,60.702],[15.44222,60.70014],[15.43976,60.69992],[15.43761,60.69948],[15.44847,60.70638],[15.44961,60.70547],[15.45131,60.70556],[15.45159,60.70617],[15.45089,60.70715],[15.45119,60.70817],[15.46524,60.71723],[15.46905,60.71697],[15.47256,60.71715],[15.4752,60.71768],[15.47795,60.71876],[15.47969,60.71998],[15.48069,60.7213],[15.48098,60.72268],[15.48061,60.72395],[15.49438,60.72656],[15.5197,60.72824],[15.52565,60.73227]]]}},{"type":"Feature","id":"2080R002","properties":{"code":"2080R002","name":"Bjursås"},"geometry":{"type":"Polygon","coordinates":[[[15.44017,60.75493],[15.44196,60.75385],[15.44487,60.7541],[15.44819,60.75402],[15.45112,60.75417],[15.45364,60.754],[15.45657,60.75509],[15.45942,60.7556],[15.46359,60.75573],[15.46761,60.7552],[15.4711,60.75553],[15.474,60.75645],[15.47737,60.75689],[15.48354,60.75667],[15.48694,60.75603],[15.4898,60.75487],[15.49175,60.75336],[15.49299,60.75147],[15.49327,60.74922],[15.49262,60.74786],[15.49088,60.74636],[15.48825,60.74519],[15.4851,60.74449],[15.48454,60.74366],[15.4876,60.74312],[15.49047,60.74212],[15.49351,60.74161],[15.49606,60.74076],[15.49856,60.7393],[15.50008,60.73719],[15.50003,60.73529],[15.49883,60.73357],[15.49922,60.73254],[15.49911,60.73117],[15.49764,60.72924],[15.49476,60.7277],[15.49074,60.72673],[15.48648,60.72658],[15.48426,60.72682],[15.48204,60.72731],[15.48037,60.72482],[15.48098,60.72268],[15.48069,60.7213],[15.47969,60.71998],[15.47795,60.71876],[15.47517,60.71767],[15.47187,60.71707],[15.46708,60.71705],[15.46381,60.71748],[15.46239,60.71587],[15.46059,60.71475],[15.45773,60.71377],[15.4544,60.71328],[15.45136,60.71324],[15.44752,60.71348],[15.44486,60.71389],[15.44274,60.71451],[15.43923,60.71597],[15.43568,60.7182],[15.43451,60.7198],[15.43432,60.72169],[15.43213,60.72188],[15.42955,60.72156],[15.42665,60.72155],[15.42372,60.72185],[15.42104,60.72246],[15.4193,60.72312],[15.41774,60.724],[15.41523,60.72487],[15.41202,60.72646],[15.41017,60.728],[15.40944,60.7294],[15.40985,60.73207],[15.41178,60.73403],[15.4138,60.73505],[15.41565,60.73564],[15.41769,60.73605],[15.42011,60.73627],[15.41942,60.73714],[15.41693,60.73884],[15.41581,60.74025],[15.41521,60.74498],[15.41415,60.74709],[15.41451,60.74882],[15.41628,60.75072],[15.41604,60.75194],[15.41643,60.7534],[15.41817,60.75546],[15.4209,60.75697],[15.42399,60.75795],[15.42776,60.75844],[15.4309,60.75841],[15.43442,60.75787],[15.43707,60.75701],[15.43864,60.75619],[15.44017,60.75493]]]}},{"type":"Feature","id":"2080R003","properties":{"code":"2080R003","name":"Bjursås omland-Sågmyra"},"geometry":{"type":"Polygon","coordinates":[[[15.62525,60.8421],[15.63995,60.82862],[15.59715,60.81378],[15.60137,60.80943],[15.57307,60.78925],[15.57497,60.78908],[15.57736,60.78973],[15.57792,60.78929],[15.57781,60.7887],[15.57824,60.78828],[15.57776,60.78775],[15.57845,60.78716],[15.57921,60.78559],[15.58012,60.78532],[15.58132,60.78437],[15.58145,60.78333],[15.58287,60.78274],[15.58237,60.78222],[15.58347,60.78214],[15.58532,60.78084],[15.58636,60.78083],[15.58719,60.77978],[15.58791,60.77979],[15.58849,60.77953],[15.58996,60.77935],[15.59112,60.78006],[15.59153,60.78009],[15.59224,60.77953],[15.594,60.77948],[15.59501,60.77902],[15.59531,60.77874],[15.59509,60.77842],[15.59311,60.77771],[15.59339,60.77744],[15.59448,60.77718],[15.59598,60.77622],[15.59687,60.77521],[15.60026,60.77264],[15.60263,60.77208],[15.60363,60.77164],[15.61187,60.76716],[15.62875,60.76548],[15.63109,60.76347],[15.63217,60.75701],[15.63057,60.75509],[15.67309,60.73585],[15.67018,60.73523],[15.64942,60.73857],[15.60756,60.73172],[15.57455,60.72826],[15.54877,60.72938],[15.52565,60.73227],[15.5197,60.72824],[15.49438,60.72656],[15.48061,60.72395],[15.48037,60.72482],[15.48204,60.72731],[15.48426,60.72682],[15.48718,60.72655],[15.49005,60.72665],[15.4927,60.72709],[15.49483,60.72773],[15.49684,60.72868],[15.49829,60.72984],[15.49911,60.73117],[15.49922,60.73254],[15.49883,60.73357],[15.49989,60.73496],[15.5002,60.73651],[15.49974,60.73795],[15.49856,60.7393],[15.49721,60.74021],[15.4949,60.7412],[15.49287,60.74175],[15.49047,60.74212],[15.4876,60.74312],[15.48454,60.74366],[15.4851,60.74449],[15.48825,60.74519],[15.4904,60.74609],[15.49205,60.74723],[15.49303,60.74853],[15.49332,60.74991],[15.49286,60.75181],[15.49175,60.75336],[15.49024,60.75461],[15.48815,60.75563],[15.48499,60.75647],[15.4828,60.75674],[15.47807,60.75692],[15.47465,60.75658],[15.4711,60.75553],[15.46761,60.7552],[15.46359,60.75573],[15.45942,60.7556],[15.45657,60.75509],[15.45364,60.754],[15.45039,60.75417],[15.44819,60.75402],[15.44417,60.75407],[15.44196,60.75385],[15.4382,60.75645],[15.43521,60.75767],[15.4309,60.75841],[15.42685,60.75838],[15.42336,60.7578],[15.42025,60.75667],[15.41781,60.75517],[15.41643,60.7534],[15.41604,60.75194],[15.41628,60.75072],[15.41451,60.74882],[15.41421,60.74675],[15.41521,60.74498],[15.41581,60.74025],[15.41693,60.73884],[15.41942,60.73714],[15.42011,60.73627],[15.41769,60.73605],[15.41499,60.73546],[15.41273,60.73457],[15.41096,60.73341],[15.40986,60.7321],[15.40939,60.73048],[15.40956,60.72903],[15.41044,60.72768],[15.41202,60.72646],[15.41519,60.72489],[15.42169,60.72228],[15.42372,60.72185],[15.42665,60.72155],[15.42955,60.72156],[15.43213,60.72188],[15.43432,60.72169],[15.43466,60.71947],[15.43643,60.71762],[15.44033,60.71546],[15.44332,60.71431],[15.44551,60.71376],[15.45136,60.71324],[15.4544,60.71328],[15.45644,60.71351],[15.45895,60.71411],[15.46107,60.715],[15.46274,60.71616],[15.46381,60.71748],[15.46524,60.71723],[15.45119,60.70817],[15.45089,60.70715],[15.45159,60.70617],[15.45131,60.70556],[15.44961,60.70547],[15.44847,60.70638],[15.43761,60.69948],[15.43531,60.69868],[15.4334,60.69758],[15.43176,60.69562],[15.43165,60.6937],[15.42772,60.68898],[15.42491,60.68955],[15.42349,60.68807],[15.41662,60.68951],[15.41279,60.68925],[15.41163,60.68936],[15.41161,60.68948],[15.41121,60.68932],[15.40885,60.68936],[15.40816,60.6898],[15.40741,60.68982],[15.40507,60.69082],[15.3975,60.69649],[15.39695,60.6992],[15.3982,60.69976],[15.39858,60.70156],[15.39671,60.70214],[15.39624,60.70256],[15.39571,60.70352],[15.39605,60.7038],[15.39651,60.70379],[15.39651,60.70425],[15.39593,60.70456],[15.39609,60.70494],[15.39531,60.70499],[15.39486,60.70479],[15.39452,60.7051],[15.39481,60.70599],[15.39573,60.70649],[15.3958,60.70722],[15.39705,60.70758],[15.39488,60.70825],[15.39371,60.70839],[15.39186,60.70779],[15.39007,60.70773],[15.38894,60.70861],[15.38861,60.70932],[15.3846,60.71063],[15.38084,60.71218],[15.37725,60.71271],[15.37406,60.71261],[15.37052,60.71318],[15.36966,60.71377],[15.36996,60.71431],[15.36955,60.71456],[15.35962,60.71671],[15.35526,60.71646],[15.34957,60.71165],[15.34448,60.7113],[15.34281,60.71104],[15.34187,60.71061],[15.3411,60.71087],[15.33957,60.71083],[15.33984,60.70967],[15.3275,60.70776],[15.32925,60.70573],[15.32041,60.70401],[15.3194,60.70406],[15.3176,60.70642],[15.31342,60.70574],[15.314,60.70544],[15.31497,60.70569],[15.31589,60.70565],[15.31613,60.70536],[15.31432,60.705],[15.31351,60.70563],[15.31417,60.70474],[15.31823,60.70184],[15.30422,60.70033],[15.30365,60.69986],[15.30302,60.69975],[15.30045,60.69981],[15.29862,60.7003],[15.29666,60.70007],[15.28602,60.69777],[15.28572,60.70067],[15.28452,60.70273],[15.28507,60.70325],[15.28497,60.70627],[15.28992,60.70743],[15.29205,60.70916],[15.27971,60.70769],[15.2794,60.70805],[15.27889,60.70804],[15.2785,60.70794],[15.27858,60.70757],[15.27711,60.70738],[15.27506,60.7117],[15.27295,60.71201],[15.27105,60.71203],[15.26733,60.71189],[15.26634,60.71142],[15.25943,60.7145],[15.25696,60.71608],[15.25789,60.71684],[15.25873,60.71707],[15.26151,60.7167],[15.26217,60.71618],[15.26428,60.71549],[15.26674,60.7169],[15.26693,60.71739],[15.26662,60.71801],[15.26747,60.71895],[15.26802,60.71909],[15.27061,60.72119],[15.27628,60.72373],[15.27833,60.72595],[15.28099,60.727],[15.28789,60.72918],[15.28513,60.73132],[15.28955,60.73654],[15.32291,60.73843],[15.32357,60.73976],[15.32458,60.74068],[15.32467,60.74161],[15.32539,60.74247],[15.32837,60.74448],[15.33273,60.74305],[15.33402,60.74281],[15.33308,60.74113],[15.33178,60.74068],[15.33239,60.73989],[15.33185,60.73893],[15.34863,60.73987],[15.34929,60.74067],[15.3503,60.74065],[15.35075,60.73999],[15.3584,60.74042],[15.32823,60.75205],[15.32468,60.75592],[15.32242,60.75635],[15.32761,60.75842],[15.32791,60.75991],[15.33558,60.75772],[15.339,60.76528],[15.35644,60.7794],[15.36023,60.78109],[15.36628,60.78025],[15.36759,60.78302],[15.36888,60.7846],[15.36963,60.78524],[15.37027,60.78543],[15.37059,60.78636],[15.37218,60.78802],[15.37202,60.78854],[15.373,60.78913],[15.37524,60.78907],[15.37624,60.78999],[15.37954,60.79079],[15.38068,60.7941],[15.37982,60.79381],[15.37717,60.79349],[15.37405,60.79393],[15.37128,60.79457],[15.37015,60.79449],[15.37147,60.79504],[15.37001,60.79519],[15.36897,60.79625],[15.36909,60.79708],[15.37031,60.79705],[15.37288,60.79742],[15.37382,60.79701],[15.37404,60.79634],[15.37468,60.79585],[15.37839,60.79538],[15.37974,60.79536],[15.38971,60.79651],[15.42482,60.79418],[15.42424,60.79452],[15.42451,60.79594],[15.42644,60.79802],[15.43117,60.7971],[15.43291,60.7964],[15.43364,60.79714],[15.435,60.79772],[15.43825,60.79788],[15.44658,60.80163],[15.45916,60.79456],[15.4915,60.8039],[15.49746,60.80544],[15.49798,60.80625],[15.50009,60.80694],[15.50144,60.80665],[15.5332,60.81574],[15.52794,60.82078],[15.53677,60.82287],[15.5365,60.82363],[15.53431,60.82611],[15.53178,60.82783],[15.53007,60.83071],[15.52281,60.83077],[15.5207,60.83303],[15.52241,60.83297],[15.52344,60.83335],[15.52446,60.833],[15.52463,60.83352],[15.52538,60.83353],[15.52573,60.83416],[15.52647,60.83402],[15.52682,60.83472],[15.52747,60.83443],[15.52948,60.83505],[15.53027,60.83484],[15.53116,60.83428],[15.53184,60.83265],[15.53146,60.8325],[15.53052,60.83278],[15.52869,60.83307],[15.53151,60.83245],[15.53232,60.8318],[15.53262,60.83132],[15.53363,60.83043],[15.53239,60.83183],[15.53189,60.83224],[15.53186,60.83338],[15.53091,60.83465],[15.53113,60.83481],[15.52951,60.83508],[15.52747,60.83463],[15.52632,60.83501],[15.52514,60.83604],[15.52508,60.8366],[15.52545,60.83699],[15.52203,60.83903],[15.54108,60.83941],[15.54532,60.81915],[15.55508,60.82215],[15.6212,60.84098],[15.62525,60.8421]]]}},{"type":"Feature","id":"2080R004","properties":{"code":"2080R004","name":"Bojsenburg"},"geometry":{"type":"Polygon","coordinates":[[[15.62229,60.6283],[15.63012,60.62635],[15.62786,60.62408],[15.62756,60.62408],[15.62739,60.62362],[15.62403,60.62375],[15.62442,60.62196],[15.62114,60.6218],[15.62016,60.62284],[15.61659,60.62375],[15.61425,60.62495],[15.6137,60.6254],[15.61373,60.62601],[15.61574,60.62748],[15.61727,60.62804],[15.62088,60.62842],[15.62229,60.6283]]]}},{"type":"Feature","id":"2080R005","properties":{"code":"2080R005","name":"Enviken-Linghed-Svärdsjö omland"},"geometry":{"type":"Polygon","coordinates":[[[16.13101,60.99214],[16.22192,60.89828],[16.22061,60.89831],[16.2206,60.89765],[16.22161,60.89592],[16.22572,60.89231],[16.22754,60.89192],[16.22804,60.89132],[16.2287,60.89125],[16.25515,60.86383],[16.38625,60.78681],[16.38414,60.77942],[16.38578,60.75979],[16.37701,60.74356],[16.34328,60.72501],[16.34252,60.72529],[16.34201,60.7258],[16.33934,60.72649],[16.33845,60.72734],[16.33743,60.72783],[16.33639,60.72796],[16.33606,60.72826],[16.33546,60.72824],[16.33518,60.72886],[16.33453,60.72893],[16.30763,60.70619],[16.31032,60.70542],[16.30768,60.70321],[16.31025,60.70243],[16.31367,60.70249],[16.3121,60.70121],[16.31537,60.69804],[16.31405,60.69486],[16.31845,60.69373],[16.3178,60.68946],[16.29293,60.6694],[16.27079,60.67615],[16.23628,60.65078],[16.2178,60.65219],[16.19739,60.6526],[16.15491,60.65189],[16.10874,60.65299],[16.10685,60.65841],[16.12565,60.69027],[16.18311,60.68954],[16.19175,60.70391],[16.17558,60.70727],[16.16334,60.71747],[16.1514,60.71975],[16.0994,60.72829],[16.08808,60.70338],[16.07092,60.71015],[16.05133,60.71528],[16.04251,60.71599],[16.03933,60.71704],[15.99928,60.72475],[15.96706,60.71997],[15.96281,60.72145],[15.93761,60.72087],[15.92716,60.7222],[15.89842,60.7247],[15.89692,60.72573],[15.89525,60.7265],[15.89331,60.7271],[15.8895,60.7279],[15.89314,60.72789],[15.89934,60.72827],[15.90406,60.72753],[15.90687,60.72736],[15.91123,60.72779],[15.91408,60.72855],[15.91621,60.72955],[15.91822,60.73138],[15.91982,60.73216],[15.92105,60.73307],[15.92193,60.7341],[15.9226,60.73574],[15.92515,60.73669],[15.92899,60.73641],[15.93129,60.73645],[15.93926,60.73744],[15.94256,60.73741],[15.94835,60.73791],[15.95171,60.73851],[15.95562,60.73993],[15.95847,60.74167],[15.95984,60.7438],[15.95988,60.74499],[15.95948,60.7461],[15.95866,60.74715],[15.95701,60.74837],[15.9552,60.74921],[15.95262,60.74995],[15.94452,60.75086],[15.94162,60.75081],[15.93895,60.75046],[15.93462,60.75054],[15.92815,60.74955],[15.92548,60.74984],[15.92104,60.74984],[15.92013,60.75061],[15.91989,60.752],[15.9188,60.75352],[15.91763,60.75444],[15.91559,60.75545],[15.91166,60.75658],[15.90804,60.75726],[15.90517,60.75748],[15.90109,60.75732],[15.89707,60.75645],[15.894,60.75492],[15.89232,60.75293],[15.89215,60.7507],[15.88862,60.75023],[15.88606,60.74948],[15.88186,60.74749],[15.8801,60.7458],[15.87629,60.74618],[15.8733,60.74613],[15.87034,60.74569],[15.86771,60.74493],[15.86547,60.74382],[15.86369,60.74216],[15.86157,60.74142],[15.86012,60.74066],[15.85835,60.73895],[15.85599,60.73842],[15.85422,60.73778],[15.85273,60.73698],[15.85146,60.73594],[15.8521,60.7429],[15.83143,60.75631],[15.82055,60.77906],[15.76723,60.78258],[15.58008,60.79426],[15.60137,60.80943],[15.59715,60.81378],[15.63995,60.82862],[15.62284,60.84424],[15.66032,60.85897],[15.63158,60.88091],[15.62927,60.92627],[15.67088,60.97598],[15.67718,60.98411],[15.6788,61.04367],[15.68487,61.04601],[15.68738,61.04672],[15.69104,61.04973],[15.69483,61.05024],[15.69528,61.05056],[15.70009,61.05215],[15.70294,61.05269],[15.70427,61.05326],[15.70494,61.05421],[15.76196,61.04964],[15.92135,61.00766],[16.13101,60.99214]]]}},{"type":"Feature","id":"2080R006","properties":{"code":"2080R006","name":"Falu centrum norra"},"geometry":{"type":"Polygon","coordinates":[[[15.62075,60.61897],[15.6282,60.61351],[15.63032,60.61406],[15.63202,60.61314],[15.63397,60.61257],[15.63527,60.61192],[15.63773,60.61156],[15.63937,60.61067],[15.64115,60.61007],[15.63976,60.60951],[15.63291,60.60763],[15.6358,60.60494],[15.63456,60.60449],[15.63304,60.6053],[15.63161,60.6048],[15.6297,60.6058],[15.62707,60.60638],[15.62755,60.60778],[15.6272,60.60816],[15.62417,60.60946],[15.6237,60.61013],[15.62355,60.61176],[15.6219,60.61323],[15.62091,60.61392],[15.62008,60.61417],[15.6192,60.61495],[15.61916,60.61529],[15.61499,60.61752],[15.62075,60.61897]]]}},{"type":"Feature","id":"2080R007","properties":{"code":"2080R007","name":"Falu centrum södra"},"geometry":{"type":"Polygon","coordinates":[[[15.65913,60.60554],[15.65269,60.60274],[15.6446,60.59958],[15.63837,60.60017],[15.63765,60.59885],[15.63467,60.59793],[15.63553,60.59723],[15.63488,60.59684],[15.63312,60.59657],[15.63148,60.59599],[15.62968,60.59572],[15.63113,60.59467],[15.61857,60.59458],[15.6218,60.59804],[15.6223,60.59921],[15.622,60.60014],[15.62007,60.602],[15.61748,60.60267],[15.61603,60.60365],[15.61581,60.60459],[15.61683,60.6069],[15.61888,60.60692],[15.62555,60.60875],[15.6272,60.60816],[15.62755,60.60778],[15.62707,60.60638],[15.6297,60.6058],[15.63161,60.6048],[15.63304,60.6053],[15.63456,60.60449],[15.6358,60.60494],[15.63291,60.60763],[15.63976,60.60951],[15.64193,60.61035],[15.64744,60.61143],[15.65235,60.6121],[15.65358,60.61083],[15.65514,60.60975],[15.65816,60.60849],[15.66124,60.60748],[15.65804,60.60616],[15.65913,60.60554]]]}},{"type":"Feature","id":"2080R008","properties":{"code":"2080R008","name":"Grycksbo"},"geometry":{"type":"Polygon","coordinates":[[[15.48141,60.70554],[15.48367,60.70534],[15.48642,60.70477],[15.48828,60.70411],[15.48997,60.70324],[15.49151,60.70198],[15.49337,60.69959],[15.49552,60.69877],[15.49692,60.69794],[15.50166,60.6931],[15.50276,60.6927],[15.50567,60.6943],[15.50809,60.69513],[15.51195,60.69591],[15.51559,60.69603],[15.51928,60.69557],[15.52349,60.69559],[15.527,60.69504],[15.52971,60.69423],[15.53131,60.69349],[15.53464,60.69104],[15.53547,60.68961],[15.53573,60.68819],[15.53524,60.68676],[15.53405,60.68546],[15.5327,60.68458],[15.53048,60.68366],[15.52351,60.68224],[15.52281,60.6818],[15.52371,60.6803],[15.52378,60.67889],[15.5225,60.67681],[15.52129,60.67591],[15.51926,60.67492],[15.51248,60.6725],[15.5067,60.67158],[15.50451,60.67154],[15.50166,60.6718],[15.49959,60.67223],[15.49724,60.67306],[15.49544,60.67402],[15.49409,60.67507],[15.49094,60.67557],[15.48913,60.67485],[15.488,60.67364],[15.48669,60.67278],[15.48382,60.67125],[15.48156,60.67042],[15.47895,60.6699],[15.4761,60.66971],[15.47383,60.66981],[15.47114,60.67023],[15.4693,60.67076],[15.46724,60.6717],[15.46509,60.67317],[15.46364,60.67465],[15.46317,60.6757],[15.46299,60.67805],[15.46211,60.67992],[15.46231,60.68133],[15.463,60.68243],[15.46277,60.68369],[15.45854,60.68382],[15.4539,60.68472],[15.45082,60.68588],[15.44861,60.68751],[15.44414,60.68821],[15.44113,60.68838],[15.43837,60.6889],[15.43479,60.6902],[15.43274,60.69168],[15.43162,60.69381],[15.43192,60.69595],[15.43383,60.69788],[15.43707,60.69933],[15.43971,60.69991],[15.44222,60.70014],[15.44872,60.702],[15.45222,60.70234],[15.45446,60.70227],[15.45718,60.70189],[15.46461,60.69971],[15.46642,60.69953],[15.47023,60.70287],[15.47282,60.70425],[15.47687,60.7053],[15.48141,60.70554]]]}},{"type":"Feature","id":"2080R009","properties":{"code":"2080R009","name":"Herrhagen"},"geometry":{"type":"Polygon","coordinates":[[[15.59241,60.62678],[15.59343,60.62672],[15.60139,60.62494],[15.6019,60.62555],[15.60493,60.62476],[15.60759,60.62461],[15.60769,60.62405],[15.6091,60.62389],[15.61139,60.62304],[15.61829,60.6183],[15.61499,60.61752],[15.6191,60.61528],[15.61692,60.61505],[15.61395,60.61558],[15.61295,60.61719],[15.61176,60.61733],[15.60667,60.62087],[15.6045,60.62161],[15.5963,60.62355],[15.59696,60.62424],[15.59545,60.62467],[15.59506,60.6245],[15.59441,60.62453],[15.5906,60.62541],[15.59147,60.62638],[15.59241,60.62678]]]}},{"type":"Feature","id":"2080R010","properties":{"code":"2080R010","name":"Hosjö"},"geometry":{"type":"Polygon","coordinates":[[[15.76957,60.61117],[15.78798,60.60387],[15.78928,60.60386],[15.78876,60.60208],[15.78745,60.60066],[15.78505,60.5993],[15.78253,60.59849],[15.78332,60.5966],[15.78349,60.59526],[15.783,60.59383],[15.78213,60.59282],[15.78046,60.59166],[15.77826,60.59074],[15.77585,60.59011],[15.7731,60.58975],[15.76961,60.58696],[15.7722,60.58409],[15.77544,60.58366],[15.77743,60.5832],[15.77971,60.58232],[15.78148,60.5812],[15.7832,60.57899],[15.78368,60.57576],[15.78336,60.57431],[15.78245,60.57282],[15.78138,60.57176],[15.77994,60.57082],[15.77805,60.56998],[15.7753,60.56912],[15.77256,60.56867],[15.77038,60.56856],[15.76819,60.56866],[15.76525,60.56906],[15.76264,60.56962],[15.76084,60.57022],[15.75845,60.57142],[15.75669,60.57297],[15.75386,60.5742],[15.75196,60.57574],[15.74525,60.5749],[15.74044,60.57504],[15.73779,60.57546],[15.73482,60.57638],[15.7332,60.57708],[15.73182,60.57798],[15.72846,60.57834],[15.72459,60.57938],[15.72328,60.57874],[15.72496,60.58646],[15.72361,60.58748],[15.72338,60.58897],[15.72272,60.58978],[15.72349,60.59048],[15.72521,60.591],[15.72634,60.5916],[15.73491,60.59735],[15.73794,60.59973],[15.74366,60.60006],[15.75407,60.6033],[15.7576,60.60178],[15.7594,60.60217],[15.76305,60.60348],[15.76353,60.60415],[15.76332,60.60546],[15.76368,60.6061],[15.76421,60.60664],[15.76682,60.60777],[15.76615,60.60901],[15.76664,60.61047],[15.76737,60.61088],[15.76957,60.61117]]]}},{"type":"Feature","id":"2080R011","properties":{"code":"2080R011","name":"Kvarnberget-Främby-Källviken"},"geometry":{"type":"Polygon","coordinates":[[[15.65045,60.59837],[15.65465,60.59651],[15.65673,60.59491],[15.65872,60.59223],[15.66289,60.59006],[15.66438,60.58859],[15.66913,60.58838],[15.67174,60.58755],[15.68544,60.57977],[15.6737,60.57624],[15.66873,60.5759],[15.66495,60.57212],[15.65891,60.56942],[15.65143,60.56299],[15.65061,60.563],[15.64775,60.56326],[15.64524,60.56384],[15.6408,60.56552],[15.63755,60.56646],[15.63472,60.56764],[15.62834,60.56786],[15.62627,60.56823],[15.62275,60.56925],[15.62107,60.56998],[15.61938,60.57113],[15.61852,60.57213],[15.61744,60.57439],[15.6308,60.5705],[15.63278,60.57294],[15.63525,60.57381],[15.63609,60.57449],[15.6369,60.57661],[15.63637,60.57842],[15.6407,60.57811],[15.64234,60.58243],[15.64233,60.58263],[15.64172,60.58258],[15.64157,60.58299],[15.64214,60.58303],[15.64119,60.58504],[15.6326,60.59252],[15.62993,60.59296],[15.62899,60.59465],[15.63113,60.59467],[15.62968,60.59572],[15.63148,60.59599],[15.63312,60.59657],[15.63488,60.59684],[15.63553,60.59723],[15.63467,60.59793],[15.63765,60.59885],[15.63837,60.60017],[15.64299,60.59982],[15.64669,60.59927],[15.65045,60.59837]]]}},{"type":"Feature","id":"2080R012","properties":{"code":"2080R012","name":"Nedre Norslund"},"geometry":{"type":"Polygon","coordinates":[[[15.65269,60.60274],[15.67269,60.59834],[15.67011,60.59479],[15.66949,60.59482],[15.66899,60.59394],[15.66862,60.59385],[15.6666,60.59178],[15.66599,60.59194],[15.66286,60.59008],[15.65872,60.59223],[15.65673,60.59491],[15.65465,60.59651],[15.65155,60.59769],[15.65045,60.59837],[15.64669,60.59927],[15.6446,60.59958],[15.65269,60.60274]]]}},{"type":"Feature","id":"2080R013","properties":{"code":"2080R013","name":"Pilbo-Samuelsdal-Gruvriset"},"geometry":{"type":"Polygon","coordinates":[[[15.62204,60.59836],[15.61857,60.59458],[15.629,60.59464],[15.62993,60.59296],[15.6326,60.59252],[15.64119,60.58504],[15.64214,60.58303],[15.64157,60.58299],[15.64172,60.58258],[15.64233,60.58263],[15.64189,60.58069],[15.6407,60.57811],[15.63637,60.57842],[15.6369,60.57661],[15.63609,60.57449],[15.63525,60.57381],[15.63278,60.57294],[15.6308,60.5705],[15.61744,60.57439],[15.61792,60.57685],[15.6159,60.57689],[15.6139,60.57555],[15.61228,60.57483],[15.6104,60.57427],[15.60767,60.57382],[15.60325,60.5738],[15.6005,60.57424],[15.59861,60.57479],[15.59502,60.57667],[15.59378,60.57798],[15.59299,60.57962],[15.58991,60.58151],[15.58848,60.58297],[15.58795,60.58439],[15.58814,60.5867],[15.58926,60.58939],[15.58729,60.59003],[15.58548,60.59095],[15.58414,60.59034],[15.58314,60.58904],[15.58154,60.58792],[15.57999,60.58724],[15.57789,60.58663],[15.5758,60.59049],[15.57608,60.59428],[15.57983,60.59523],[15.58351,60.59808],[15.59049,60.5991],[15.59589,60.59918],[15.60085,60.59832],[15.61149,60.60134],[15.61748,60.60267],[15.62007,60.602],[15.62176,60.60041],[15.6223,60.59921],[15.62204,60.59836]]]}},{"type":"Feature","id":"2080R014","properties":{"code":"2080R014","name":"Slätta-Gamla Berget"},"geometry":{"type":"Polygon","coordinates":[[[15.58526,60.62962],[15.59241,60.62678],[15.59147,60.62638],[15.5906,60.62541],[15.59441,60.62453],[15.59506,60.6245],[15.59545,60.62467],[15.59696,60.62424],[15.5963,60.62355],[15.6045,60.62161],[15.60667,60.62087],[15.61176,60.61733],[15.61295,60.61719],[15.61395,60.61558],[15.61692,60.61505],[15.61916,60.61529],[15.6192,60.61495],[15.62008,60.61417],[15.62091,60.61392],[15.6219,60.61323],[15.62355,60.61176],[15.6237,60.61013],[15.62417,60.60946],[15.62555,60.60875],[15.61888,60.60692],[15.61683,60.6069],[15.61579,60.60412],[15.61657,60.60314],[15.61748,60.60267],[15.61149,60.60134],[15.60085,60.59832],[15.59589,60.59918],[15.59049,60.5991],[15.58351,60.59808],[15.57983,60.59523],[15.57608,60.59428],[15.5758,60.59049],[15.57789,60.58663],[15.57379,60.58611],[15.56923,60.58628],[15.56342,60.58702],[15.55895,60.58824],[15.55685,60.58902],[15.55265,60.59112],[15.55094,60.59244],[15.54769,60.59439],[15.54638,60.59555],[15.54412,60.59658],[15.54255,60.5978],[15.54149,60.59988],[15.54187,60.60181],[15.54281,60.60319],[15.54489,60.60465],[15.54719,60.60555],[15.54995,60.60614],[15.55034,60.60788],[15.55157,60.60932],[15.55637,60.61219],[15.55857,60.61318],[15.56272,60.6141],[15.56658,60.61423],[15.57034,60.61375],[15.57387,60.61259],[15.57449,60.61537],[15.57098,60.61739],[15.5694,60.61939],[15.56922,60.62044],[15.56949,60.6216],[15.56877,60.62437],[15.56938,60.62616],[15.57028,60.62714],[15.57202,60.62828],[15.57561,60.62951],[15.57844,60.62993],[15.58247,60.63013],[15.58296,60.63081],[15.58526,60.62962]]]}},{"type":"Feature","id":"2080R015","properties":{"code":"2080R015","name":"Stennäset-Britsarvet-Lugnet"},"geometry":{"type":"Polygon","coordinates":[[[15.63069,60.67097],[15.63411,60.67112],[15.63764,60.67082],[15.64072,60.67015],[15.64352,60.669],[15.6458,60.66741],[15.64695,60.66608],[15.64739,60.66466],[15.64711,60.66332],[15.65172,60.66013],[15.65264,60.659],[15.65306,60.6579],[15.65258,60.65567],[15.65171,60.65464],[15.65026,60.65359],[15.65029,60.65162],[15.64912,60.64993],[15.64409,60.64584],[15.64194,60.64482],[15.6398,60.64421],[15.63776,60.64273],[15.63493,60.64161],[15.63831,60.6407],[15.64083,60.63939],[15.64249,60.63766],[15.64293,60.63603],[15.64594,60.63698],[15.64988,60.63772],[15.65204,60.63793],[15.65641,60.63774],[15.66031,60.63676],[15.66358,60.63543],[15.66565,60.63402],[15.66673,60.6323],[15.66671,60.62977],[15.67002,60.62652],[15.67281,60.62684],[15.67506,60.62685],[15.67789,60.62654],[15.67988,60.62608],[15.68316,60.62466],[15.68587,60.62209],[15.68652,60.62034],[15.68591,60.61845],[15.68615,60.61606],[15.68566,60.61466],[15.68481,60.61364],[15.68266,60.61223],[15.6803,60.61136],[15.6766,60.61061],[15.67311,60.61029],[15.67566,60.60913],[15.6794,60.60856],[15.68134,60.60797],[15.6831,60.60714],[15.67432,60.60365],[15.67242,60.60462],[15.6658,60.606],[15.65816,60.60849],[15.65514,60.60975],[15.65358,60.61083],[15.65235,60.6121],[15.64408,60.61084],[15.64114,60.61007],[15.63937,60.61067],[15.63773,60.61156],[15.63527,60.61192],[15.63397,60.61257],[15.63202,60.61314],[15.63032,60.61406],[15.6282,60.61351],[15.62075,60.61897],[15.61829,60.6183],[15.61139,60.62304],[15.6091,60.62389],[15.60769,60.62405],[15.60759,60.62461],[15.60493,60.62476],[15.6019,60.62555],[15.60139,60.62494],[15.59343,60.62672],[15.59241,60.62678],[15.58526,60.62962],[15.58296,60.63081],[15.58319,60.63106],[15.58245,60.63195],[15.58072,60.63305],[15.5795,60.63434],[15.57904,60.63539],[15.57906,60.63681],[15.57958,60.63789],[15.58085,60.63916],[15.58496,60.6415],[15.58861,60.6425],[15.59125,60.64345],[15.59524,60.64404],[15.59871,60.64394],[15.60557,60.64267],[15.60886,60.64144],[15.61092,60.64476],[15.61427,60.64808],[15.61889,60.65118],[15.62021,60.65342],[15.619,60.6553],[15.61661,60.6557],[15.61425,60.65643],[15.6106,60.65809],[15.60837,60.65978],[15.60754,60.66073],[15.60618,60.66336],[15.60612,60.66443],[15.60668,60.66579],[15.60822,60.66736],[15.61101,60.66883],[15.61301,60.67053],[15.61514,60.67147],[15.61746,60.67209],[15.62082,60.67253],[15.62361,60.67249],[15.62629,60.67212],[15.63069,60.67097]],[[15.61373,60.62601],[15.6137,60.6254],[15.61425,60.62495],[15.61659,60.62375],[15.62016,60.62284],[15.62114,60.6218],[15.62442,60.62196],[15.62403,60.62375],[15.62739,60.62362],[15.62756,60.62408],[15.62786,60.62408],[15.63012,60.62635],[15.62242,60.62829],[15.62088,60.62842],[15.61727,60.62804],[15.61574,60.62748],[15.61373,60.62601]]]}},{"type":"Feature","id":"2080R016","properties":{"code":"2080R016","name":"Sundborn-Danholn-Toftbyn"},"geometry":{"type":"Polygon","coordinates":[[[15.58008,60.79426],[15.82055,60.77906],[15.83143,60.75631],[15.8521,60.7429],[15.85146,60.73594],[15.85051,60.73436],[15.85048,60.7329],[15.8511,60.73143],[15.85231,60.73014],[15.85418,60.72902],[15.85602,60.72833],[15.85388,60.72775],[15.85223,60.72708],[15.85089,60.72626],[15.84964,60.72502],[15.84914,60.72401],[15.84911,60.72261],[15.84972,60.72122],[15.85089,60.71997],[15.85018,60.71805],[15.84834,60.717],[15.84571,60.71452],[15.84517,60.71342],[15.84505,60.7122],[15.84581,60.71043],[15.84776,60.70852],[15.85036,60.70705],[15.85424,60.706],[15.8546,60.70458],[15.85566,60.70324],[15.85742,60.70186],[15.85952,60.70089],[15.85678,60.69858],[15.85546,60.69688],[15.85269,60.69463],[15.85202,60.69358],[15.85181,60.69216],[15.85232,60.69076],[15.85473,60.6872],[15.857,60.68574],[15.86084,60.68453],[15.86473,60.68411],[15.86927,60.68441],[15.87254,60.68523],[15.87639,60.68698],[15.88086,60.69081],[15.88326,60.69356],[15.88381,60.69545],[15.8832,60.69716],[15.88546,60.69946],[15.88715,60.70029],[15.88837,60.70119],[15.89029,60.70349],[15.89074,60.70557],[15.88935,60.7084],[15.8916,60.70873],[15.89663,60.71005],[15.89932,60.71039],[15.90118,60.71087],[15.90332,60.71175],[15.90524,60.71317],[15.90622,60.71515],[15.90556,60.71826],[15.9036,60.72018],[15.90079,60.72146],[15.90016,60.72312],[15.89842,60.7247],[15.92716,60.7222],[15.93761,60.72087],[15.96281,60.72145],[15.96706,60.71997],[15.99928,60.72475],[16.03933,60.71704],[16.04251,60.71599],[16.05133,60.71528],[16.07092,60.71015],[16.08808,60.70338],[16.0994,60.72829],[16.1514,60.71975],[16.16334,60.71747],[16.17558,60.70727],[16.19175,60.70391],[16.18311,60.68954],[16.12565,60.69027],[16.10685,60.65841],[16.10874,60.65299],[16.15491,60.65189],[16.19739,60.6526],[16.2178,60.65219],[16.23628,60.65078],[16.27079,60.67615],[16.29293,60.6694],[16.26205,60.64442],[16.23841,60.62311],[16.19764,60.61405],[16.13649,60.61031],[16.0973,60.60407],[16.07891,60.60144],[16.06191,60.59875],[16.05936,60.59894],[16.05868,60.59883],[16.05845,60.59861],[16.05865,60.59823],[16.05623,60.59785],[16.054,60.5982],[16.05141,60.59797],[16.05122,60.5976],[16.05006,60.59737],[16.04956,60.59673],[16.00278,60.58915],[15.97951,60.58484],[15.97164,60.58653],[15.96727,60.58396],[15.97044,60.58091],[15.97124,60.57982],[15.96958,60.578],[15.94802,60.55797],[15.93997,60.55842],[15.91684,60.55893],[15.88996,60.56048],[15.86558,60.56136],[15.85846,60.5611],[15.84985,60.56041],[15.84606,60.56118],[15.83558,60.56276],[15.82364,60.56418],[15.8151,60.56492],[15.79802,60.56596],[15.79166,60.56614],[15.78179,60.5659],[15.76689,60.5652],[15.75903,60.56955],[15.76077,60.57025],[15.76396,60.56931],[15.76819,60.56866],[15.77113,60.56858],[15.77461,60.56897],[15.77805,60.56998],[15.78039,60.57108],[15.78214,60.57246],[15.78318,60.57398],[15.78367,60.57542],[15.78341,60.57829],[15.78302,60.57935],[15.78184,60.58087],[15.78022,60.58205],[15.77802,60.58301],[15.77544,60.58366],[15.7722,60.58409],[15.76961,60.58696],[15.7731,60.58975],[15.77585,60.59011],[15.77826,60.59074],[15.78046,60.59166],[15.78216,60.59284],[15.78318,60.59417],[15.78349,60.59526],[15.78332,60.5966],[15.78253,60.59849],[15.78557,60.59952],[15.78755,60.60074],[15.78895,60.60241],[15.78927,60.60394],[15.78798,60.60387],[15.7696,60.61117],[15.76806,60.61122],[15.76016,60.6107],[15.75807,60.61022],[15.75589,60.60937],[15.75421,60.60828],[15.75329,60.60725],[15.75065,60.60695],[15.74818,60.60631],[15.74638,60.60563],[15.74138,60.60314],[15.73838,60.60263],[15.73564,60.60174],[15.73038,60.59948],[15.72837,60.59808],[15.7247,60.59655],[15.72333,60.59637],[15.72122,60.59655],[15.71399,60.60022],[15.7111,60.60151],[15.70915,60.60212],[15.70694,60.60254],[15.7045,60.60275],[15.70209,60.60273],[15.69913,60.60296],[15.6956,60.60275],[15.68567,60.60469],[15.68435,60.60629],[15.68202,60.60768],[15.67877,60.60871],[15.67566,60.60913],[15.67311,60.61029],[15.6766,60.61061],[15.67963,60.61119],[15.68151,60.61175],[15.68405,60.61303],[15.68566,60.61466],[15.68615,60.61606],[15.68591,60.61845],[15.68646,60.61964],[15.68649,60.62069],[15.68587,60.62209],[15.68397,60.62407],[15.68112,60.62567],[15.67789,60.62654],[15.67431,60.62687],[15.67002,60.62652],[15.66671,60.62977],[15.66673,60.6323],[15.66565,60.63402],[15.66358,60.63543],[15.66027,60.63678],[15.65641,60.63774],[15.65204,60.63793],[15.64988,60.63772],[15.64594,60.63698],[15.64293,60.63603],[15.64249,60.63766],[15.64083,60.63939],[15.63831,60.6407],[15.63493,60.64161],[15.63776,60.64273],[15.6398,60.64421],[15.64315,60.64533],[15.64558,60.64686],[15.6468,60.64821],[15.64971,60.65057],[15.65039,60.65198],[15.65026,60.65359],[15.65201,60.65494],[15.65304,60.65677],[15.65298,60.65824],[15.6521,60.65974],[15.6509,60.66081],[15.64711,60.66332],[15.64735,60.66502],[15.64647,60.66675],[15.64396,60.66874],[15.64192,60.66975],[15.63764,60.67082],[15.63411,60.67112],[15.6308,60.67093],[15.62564,60.67224],[15.62222,60.67255],[15.61945,60.67242],[15.61634,60.67183],[15.61452,60.67124],[15.61257,60.67026],[15.61101,60.66883],[15.60822,60.66736],[15.60694,60.66613],[15.60612,60.66443],[15.60628,60.66302],[15.60805,60.66009],[15.6106,60.65809],[15.61538,60.65602],[15.619,60.6553],[15.62021,60.65342],[15.61889,60.65118],[15.61671,60.64988],[15.61395,60.64778],[15.61319,60.64677],[15.61064,60.64445],[15.60886,60.64144],[15.60686,60.6423],[15.60494,60.64282],[15.59939,60.64386],[15.59594,60.64406],[15.59386,60.64393],[15.59125,60.64345],[15.58861,60.6425],[15.58556,60.64172],[15.58342,60.64076],[15.58013,60.63854],[15.57934,60.63751],[15.57896,60.6361],[15.57975,60.63399],[15.58075,60.63303],[15.58245,60.63195],[15.58319,60.63106],[15.58296,60.63081],[15.57349,60.63572],[15.56311,60.64423],[15.58957,60.64857],[15.60015,60.65535],[15.5901,60.66135],[15.58667,60.66448],[15.58906,60.66824],[15.58756,60.6756],[15.58647,60.67788],[15.58782,60.68103],[15.59018,60.68166],[15.58535,60.68356],[15.57487,60.68862],[15.56335,60.69091],[15.56919,60.69654],[15.5695,60.6972],[15.56989,60.70252],[15.56833,60.7101],[15.57378,60.71372],[15.58242,60.71758],[15.58334,60.72102],[15.58491,60.72262],[15.58413,60.72927],[15.60756,60.73172],[15.64942,60.73857],[15.67018,60.73523],[15.67309,60.73585],[15.63057,60.75509],[15.63217,60.75701],[15.63109,60.76347],[15.62875,60.76548],[15.61187,60.76716],[15.60363,60.77164],[15.60263,60.77208],[15.60026,60.77264],[15.59687,60.77521],[15.59598,60.77622],[15.59448,60.77718],[15.59339,60.77744],[15.59311,60.77771],[15.59509,60.77842],[15.59531,60.77874],[15.59501,60.77902],[15.594,60.77948],[15.59224,60.77953],[15.59153,60.78009],[15.59112,60.78006],[15.58996,60.77935],[15.58849,60.77953],[15.58791,60.77979],[15.58719,60.77978],[15.58636,60.78083],[15.58532,60.78084],[15.58347,60.78214],[15.58237,60.78222],[15.58287,60.78274],[15.58145,60.78333],[15.58132,60.78437],[15.58012,60.78532],[15.57921,60.78559],[15.57845,60.78716],[15.57776,60.78775],[15.57824,60.78828],[15.57781,60.7887],[15.57792,60.78929],[15.57736,60.78973],[15.57497,60.78908],[15.57307,60.78925],[15.58008,60.79426]]]}},{"type":"Feature","id":"2080R017","properties":{"code":"2080R017","name":"Svärdsjö"},"geometry":{"type":"Polygon","coordinates":[[[15.90587,60.75746],[15.91103,60.75673],[15.91439,60.75585],[15.91668,60.75498],[15.91912,60.75319],[15.91989,60.752],[15.92013,60.75061],[15.92104,60.74984],[15.92548,60.74984],[15.92815,60.74955],[15.93462,60.75054],[15.93895,60.75046],[15.94157,60.75081],[15.94377,60.75088],[15.95062,60.75027],[15.95404,60.7496],[15.95701,60.74837],[15.9592,60.74652],[15.95992,60.74459],[15.95936,60.74271],[15.95812,60.74137],[15.95614,60.74016],[15.95231,60.73868],[15.94976,60.73809],[15.94322,60.73745],[15.93926,60.73744],[15.93129,60.73645],[15.92899,60.73641],[15.92515,60.73669],[15.9226,60.73574],[15.92193,60.7341],[15.92105,60.73307],[15.91982,60.73216],[15.91822,60.73138],[15.91621,60.72955],[15.91408,60.72855],[15.91123,60.72779],[15.90687,60.72736],[15.90406,60.72753],[15.89934,60.72827],[15.89314,60.72789],[15.8895,60.7279],[15.89331,60.7271],[15.89525,60.7265],[15.89737,60.72547],[15.89923,60.7241],[15.90038,60.72276],[15.90079,60.72146],[15.9036,60.72018],[15.90556,60.71826],[15.90623,60.7155],[15.90574,60.71381],[15.9042,60.71228],[15.90118,60.71087],[15.89932,60.71039],[15.89663,60.71005],[15.8916,60.70873],[15.88935,60.7084],[15.89074,60.70557],[15.89029,60.70349],[15.88837,60.70119],[15.88715,60.70029],[15.88546,60.69946],[15.8832,60.69716],[15.88381,60.69545],[15.88326,60.69356],[15.88086,60.69081],[15.87682,60.68726],[15.87324,60.6855],[15.86993,60.68452],[15.86613,60.68411],[15.86168,60.68438],[15.85823,60.68524],[15.85512,60.68688],[15.85383,60.68823],[15.85329,60.68967],[15.85213,60.69109],[15.85181,60.69216],[15.85202,60.69358],[15.85269,60.69463],[15.85546,60.69688],[15.85678,60.69858],[15.85952,60.70089],[15.85742,60.70186],[15.85566,60.70324],[15.8546,60.70458],[15.85424,60.706],[15.85036,60.70705],[15.84781,60.70848],[15.84588,60.71034],[15.84511,60.71186],[15.84515,60.71333],[15.84571,60.71452],[15.84834,60.717],[15.85018,60.71805],[15.85089,60.71997],[15.84972,60.72122],[15.84911,60.72261],[15.84914,60.72401],[15.84964,60.72502],[15.85089,60.72626],[15.85223,60.72708],[15.85388,60.72775],[15.85602,60.72833],[15.85319,60.72954],[15.85133,60.7311],[15.85041,60.73328],[15.85081,60.73508],[15.85193,60.73639],[15.8532,60.73727],[15.8554,60.73823],[15.85835,60.73895],[15.86012,60.74066],[15.86157,60.74142],[15.86369,60.74216],[15.86507,60.74354],[15.86755,60.74487],[15.87034,60.74569],[15.8733,60.74613],[15.87629,60.74618],[15.8801,60.7458],[15.88186,60.74749],[15.88606,60.74948],[15.88862,60.75023],[15.89215,60.7507],[15.89211,60.75223],[15.89271,60.75365],[15.894,60.75492],[15.89593,60.75601],[15.8977,60.75665],[15.90036,60.75723],[15.90253,60.75743],[15.90587,60.75746]]]}},{"type":"Feature","id":"2080R018","properties":{"code":"2080R018","name":"Vika"},"geometry":{"type":"Polygon","coordinates":[[[15.72459,60.57938],[15.72846,60.57834],[15.73182,60.57798],[15.7332,60.57708],[15.73482,60.57638],[15.73717,60.57561],[15.73976,60.57511],[15.74283,60.57486],[15.74525,60.5749],[15.75196,60.57574],[15.75386,60.5742],[15.75669,60.57297],[15.75845,60.57142],[15.76077,60.57025],[15.75903,60.56955],[15.76689,60.5652],[15.78179,60.5659],[15.79166,60.56614],[15.79802,60.56596],[15.8151,60.56492],[15.82364,60.56418],[15.83558,60.56276],[15.84606,60.56118],[15.84985,60.56041],[15.85846,60.5611],[15.86558,60.56136],[15.88996,60.56048],[15.91684,60.55893],[15.93997,60.55842],[15.94802,60.55797],[15.94511,60.55525],[15.94331,60.55575],[15.94281,60.55541],[15.94155,60.55366],[15.94246,60.55304],[15.92032,60.53285],[15.91123,60.52924],[15.87951,60.51508],[15.86544,60.4996],[15.86084,60.49691],[15.84051,60.48829],[15.84153,60.48805],[15.84298,60.48845],[15.84543,60.48857],[15.84749,60.48773],[15.84804,60.48677],[15.84773,60.48588],[15.84888,60.48447],[15.84605,60.48327],[15.84001,60.48341],[15.83714,60.48671],[15.83472,60.48564],[15.81578,60.47552],[15.8169,60.47562],[15.81705,60.47447],[15.81516,60.47439],[15.81411,60.47395],[15.81081,60.47391],[15.81192,60.47266],[15.81146,60.47223],[15.80783,60.47072],[15.81116,60.4694],[15.81043,60.46912],[15.80498,60.46764],[15.80283,60.46829],[15.79822,60.46658],[15.79829,60.46628],[15.79382,60.46561],[15.79191,60.46629],[15.79071,60.46538],[15.79064,60.46487],[15.78551,60.46394],[15.78427,60.46309],[15.78315,60.46278],[15.78271,60.46304],[15.77807,60.46243],[15.77256,60.46206],[15.76707,60.46118],[15.7676,60.45745],[15.75977,60.45622],[15.75022,60.45537],[15.74894,60.45512],[15.74703,60.45439],[15.74435,60.45403],[15.74286,60.45361],[15.74225,60.45318],[15.74151,60.45318],[15.74135,60.45336],[15.73924,60.45375],[15.73772,60.45357],[15.73763,60.4538],[15.7368,60.45388],[15.73616,60.45375],[15.73619,60.45308],[15.73557,60.45282],[15.73483,60.45268],[15.73369,60.45297],[15.73287,60.4524],[15.73168,60.45274],[15.7305,60.45405],[15.72976,60.45436],[15.72917,60.45577],[15.72149,60.45525],[15.70823,60.45355],[15.7076,60.45395],[15.70626,60.45372],[15.7059,60.45326],[15.70448,60.45323],[15.70384,60.45572],[15.70068,60.4578],[15.69447,60.46042],[15.67017,60.46985],[15.66806,60.47033],[15.66634,60.47144],[15.66182,60.47319],[15.66132,60.47386],[15.66102,60.47765],[15.65579,60.48813],[15.6531,60.50112],[15.6514,60.50348],[15.65017,60.50753],[15.64961,60.51507],[15.67536,60.54426],[15.67904,60.54602],[15.67274,60.55076],[15.66895,60.55537],[15.66483,60.5581],[15.67806,60.55964],[15.72039,60.56518],[15.72328,60.57874],[15.72459,60.57938]]]}},{"type":"Feature","id":"2080R019","properties":{"code":"2080R019","name":"Övre Norslund-Hälsinggården-Korsnäs"},"geometry":{"type":"Polygon","coordinates":[[[15.76281,60.60338],[15.7594,60.60217],[15.7576,60.60178],[15.75407,60.6033],[15.74366,60.60006],[15.73794,60.59973],[15.73491,60.59735],[15.72634,60.5916],[15.72521,60.591],[15.72349,60.59048],[15.72272,60.58978],[15.72338,60.58897],[15.72361,60.58748],[15.72496,60.58646],[15.72328,60.57874],[15.72095,60.57799],[15.71831,60.57756],[15.71553,60.57746],[15.71299,60.57769],[15.7119,60.57561],[15.7095,60.57394],[15.70602,60.57283],[15.70194,60.57243],[15.70048,60.57247],[15.69003,60.57852],[15.68544,60.57977],[15.67174,60.58755],[15.66913,60.58838],[15.66438,60.58859],[15.66286,60.59008],[15.66599,60.59194],[15.6666,60.59178],[15.66862,60.59385],[15.66899,60.59394],[15.66949,60.59482],[15.67011,60.59479],[15.67269,60.59834],[15.66736,60.59964],[15.65269,60.60274],[15.65913,60.60554],[15.65804,60.60616],[15.66124,60.60748],[15.6658,60.606],[15.67242,60.60462],[15.67432,60.60365],[15.6831,60.60714],[15.68468,60.60599],[15.68567,60.60469],[15.6956,60.60275],[15.69913,60.60296],[15.70209,60.60273],[15.7045,60.60275],[15.70694,60.60254],[15.70915,60.60212],[15.7111,60.60151],[15.71399,60.60022],[15.72122,60.59655],[15.72333,60.59637],[15.7247,60.59655],[15.72837,60.59808],[15.73038,60.59948],[15.73564,60.60174],[15.73838,60.60263],[15.74138,60.60314],[15.74638,60.60563],[15.74818,60.60631],[15.75065,60.60695],[15.75329,60.60725],[15.75498,60.60885],[15.75748,60.61003],[15.76016,60.6107],[15.76921,60.61125],[15.7696,60.61117],[15.76737,60.61088],[15.76664,60.61047],[15.76615,60.60901],[15.76682,60.60777],[15.76397,60.60643],[15.76334,60.60556],[15.76346,60.60389],[15.76281,60.60338]]]}}]}