{"type":"FeatureCollection","features":[{"type":"Feature","id":"2083R001","properties":{"code":"2083R001","name":"Garpenbergsområdet"},"geometry":{"type":"Polygon","coordinates":[[[16.25864,60.40017],[16.25946,60.39827],[16.25988,60.38363],[16.2631,60.37691],[16.26546,60.37481],[16.2651,60.37357],[16.26472,60.37347],[16.2655,60.37288],[16.26455,60.37267],[16.26337,60.37208],[16.26298,60.37162],[16.26383,60.37063],[16.26711,60.37021],[16.26683,60.36973],[16.26765,60.36725],[16.26374,60.36649],[16.26169,60.36561],[16.26101,60.36571],[16.25941,60.36676],[16.25574,60.36796],[16.25378,60.3666],[16.25194,60.36624],[16.25174,60.36551],[16.2541,60.36523],[16.26946,60.36423],[16.27231,60.36285],[16.27368,60.36296],[16.27366,60.36318],[16.27228,60.36368],[16.27385,60.36457],[16.2936,60.35606],[16.30583,60.35117],[16.31582,60.34635],[16.31298,60.3403],[16.31457,60.33534],[16.31418,60.33329],[16.31428,60.33073],[16.31363,60.32904],[16.30794,60.32198],[16.3041,60.31861],[16.29895,60.31348],[16.30369,60.30773],[16.30305,60.30739],[16.3022,60.30766],[16.29925,60.30632],[16.30169,60.30526],[16.30472,60.30556],[16.32581,60.29405],[16.32981,60.28855],[16.33423,60.28124],[16.32349,60.27934],[16.32362,60.27864],[16.32141,60.27804],[16.31969,60.27873],[16.31653,60.27819],[16.30683,60.27769],[16.30357,60.2769],[16.30217,60.27562],[16.3014,60.27537],[16.29899,60.27565],[16.29604,60.27539],[16.28999,60.27393],[16.28152,60.2723],[16.26304,60.26957],[16.25835,60.26837],[16.25425,60.25989],[16.25333,60.25522],[16.24994,60.24898],[16.24712,60.24869],[16.24527,60.24716],[16.24048,60.24805],[16.24125,60.25011],[16.24007,60.25374],[16.23788,60.25514],[16.23636,60.25552],[16.23573,60.25693],[16.23468,60.2577],[16.22952,60.25117],[16.2316,60.25039],[16.23587,60.24936],[16.22935,60.24785],[16.22715,60.24712],[16.22545,60.2481],[16.22579,60.24829],[16.22505,60.24863],[16.22379,60.24841],[16.2201,60.24587],[16.21831,60.24501],[16.21513,60.24421],[16.2117,60.24253],[16.20874,60.2368],[16.20881,60.23542],[16.20694,60.23482],[16.20662,60.23409],[16.20548,60.23393],[16.20473,60.23341],[16.20584,60.23303],[16.20478,60.23013],[16.20527,60.22942],[16.20467,60.22914],[16.20368,60.22957],[16.20186,60.22829],[16.2018,60.22722],[16.1996,60.2272],[16.19848,60.22804],[16.19843,60.22895],[16.19612,60.23032],[16.1912,60.2302],[16.18025,60.23289],[16.17194,60.23336],[16.17178,60.23459],[16.16627,60.23483],[16.16301,60.23828],[16.15246,60.24637],[16.14637,60.24566],[16.14203,60.24627],[16.13701,60.2512],[16.13127,60.25078],[16.12822,60.2552],[16.13201,60.25589],[16.13161,60.25678],[16.13101,60.2572],[16.12935,60.2572],[16.12805,60.25765],[16.12447,60.25809],[16.12387,60.25833],[16.1365,60.27313],[16.13348,60.27382],[16.12881,60.2761],[16.13445,60.28467],[16.14461,60.30184],[16.14391,60.30205],[16.14523,60.30284],[16.14629,60.30457],[16.14577,60.30537],[16.14527,60.30801],[16.14557,60.30827],[16.14816,60.30774],[16.15105,60.31249],[16.14966,60.31294],[16.1488,60.31379],[16.14788,60.31399],[16.14444,60.31392],[16.14275,60.3143],[16.13959,60.31387],[16.13731,60.31419],[16.13508,60.31415],[16.13218,60.31443],[16.12987,60.31522],[16.12747,60.31634],[16.1232,60.31694],[16.1161,60.31694],[16.1135,60.31613],[16.10984,60.31579],[16.10806,60.31485],[16.10704,60.3149],[16.10711,60.31521],[16.10558,60.31568],[16.1057,60.31586],[16.10481,60.31635],[16.10448,60.31884],[16.10208,60.31902],[16.1033,60.32002],[16.10178,60.32111],[16.10232,60.32139],[16.10416,60.32114],[16.10485,60.3214],[16.10438,60.32236],[16.10212,60.32222],[16.10104,60.32547],[16.10124,60.32577],[16.10094,60.32577],[16.09749,60.33602],[16.09509,60.33792],[16.09684,60.34363],[16.10051,60.34372],[16.1259,60.3459],[16.13407,60.35083],[16.14348,60.35503],[16.15749,60.365],[16.15655,60.37295],[16.16596,60.37595],[16.18606,60.37325],[16.19523,60.38246],[16.19536,60.38357],[16.1964,60.38406],[16.19672,60.385],[16.19794,60.38611],[16.19864,60.3866],[16.20072,60.38744],[16.20499,60.38834],[16.20597,60.38899],[16.20639,60.38976],[16.20818,60.39038],[16.20923,60.3913],[16.20975,60.39318],[16.21124,60.39515],[16.21187,60.39563],[16.2142,60.39665],[16.2144,60.39725],[16.21531,60.39775],[16.21652,60.39935],[16.25391,60.40052],[16.25864,60.40017]]]}},{"type":"Feature","id":"2083R002","properties":{"code":"2083R002","name":"Hedemora landsbygd"},"geometry":{"type":"Polygon","coordinates":[[[15.93192,60.37218],[15.93375,60.37069],[15.93433,60.3697],[15.9363,60.36879],[15.93546,60.36641],[15.94306,60.364],[15.95007,60.36248],[15.95786,60.36005],[15.9606,60.35958],[15.96134,60.35996],[15.96281,60.35981],[15.96554,60.35867],[15.96859,60.35867],[15.96908,60.35813],[15.97301,60.35752],[15.97495,60.35687],[15.97871,60.35547],[15.98053,60.35419],[15.98179,60.35365],[15.98201,60.3532],[15.98643,60.35136],[15.98674,60.35097],[15.99125,60.34874],[15.9913,60.34891],[15.99258,60.34803],[15.99261,60.34763],[15.99511,60.34643],[15.99744,60.34621],[15.99877,60.34588],[15.99891,60.34616],[15.99938,60.34608],[15.99959,60.3454],[16.00052,60.34483],[16.0015,60.34463],[16.00489,60.34427],[16.00552,60.34465],[16.00828,60.34412],[16.01066,60.34275],[16.01245,60.34099],[16.01444,60.34021],[16.0176,60.34028],[16.01954,60.33993],[16.02492,60.341],[16.02673,60.34171],[16.03267,60.34339],[16.03762,60.34529],[16.04288,60.34532],[16.04501,60.3448],[16.04949,60.34461],[16.0501,60.3403],[16.05149,60.33464],[16.05233,60.33143],[16.05312,60.33012],[16.06357,60.33146],[16.06218,60.33258],[16.06086,60.33575],[16.05959,60.33567],[16.05791,60.33961],[16.05962,60.34064],[16.05787,60.34164],[16.08161,60.34322],[16.09684,60.34363],[16.09509,60.33792],[16.09749,60.33602],[16.10094,60.32577],[16.10124,60.32577],[16.10104,60.32547],[16.10212,60.32222],[16.10438,60.32236],[16.10485,60.3214],[16.10416,60.32114],[16.10232,60.32139],[16.10178,60.32111],[16.1033,60.32002],[16.10208,60.31902],[16.10448,60.31884],[16.10481,60.31635],[16.1057,60.31586],[16.10558,60.31568],[16.10711,60.31521],[16.10704,60.3149],[16.10806,60.31485],[16.10984,60.31579],[16.1135,60.31613],[16.1161,60.31694],[16.1232,60.31694],[16.12747,60.31634],[16.12987,60.31522],[16.13218,60.31443],[16.13508,60.31415],[16.13731,60.31419],[16.13959,60.31387],[16.14275,60.3143],[16.14444,60.31392],[16.14788,60.31399],[16.1488,60.31379],[16.14966,60.31294],[16.15105,60.31249],[16.14816,60.30774],[16.14557,60.30827],[16.14527,60.30801],[16.14577,60.30537],[16.14629,60.30457],[16.14523,60.30284],[16.14391,60.30205],[16.14461,60.30184],[16.13445,60.28467],[16.12881,60.2761],[16.13348,60.27382],[16.1365,60.27313],[16.12387,60.25833],[16.12447,60.25809],[16.12805,60.25765],[16.12935,60.2572],[16.13101,60.2572],[16.13161,60.25678],[16.13201,60.25589],[16.12822,60.2552],[16.13127,60.25078],[16.13701,60.2512],[16.14203,60.24627],[16.13412,60.24739],[16.13498,60.24634],[16.12399,60.247],[16.12049,60.24421],[16.11766,60.24413],[16.11747,60.24523],[16.11955,60.24915],[16.11335,60.25134],[16.10892,60.25198],[16.09744,60.24754],[16.09823,60.24576],[16.09708,60.24513],[16.0931,60.24133],[16.09085,60.23822],[16.09043,60.23686],[16.0884,60.23729],[16.08581,60.23202],[16.08699,60.2303],[16.08536,60.22735],[16.06529,60.20476],[16.06476,60.20493],[16.05207,60.19931],[16.05742,60.19586],[16.05892,60.19363],[16.05557,60.19321],[16.05488,60.19267],[16.0516,60.19377],[16.04807,60.19192],[16.0448,60.18941],[16.04221,60.18979],[16.04094,60.1907],[16.0391,60.19116],[16.0353,60.19166],[16.03336,60.19154],[16.0328,60.1905],[16.03194,60.18975],[16.02937,60.18975],[16.02825,60.18999],[16.02909,60.18639],[16.01691,60.18145],[16.00567,60.18388],[16.00506,60.18322],[16.00485,60.18213],[16.00259,60.18253],[16.0024,60.18295],[16.00394,60.18424],[15.99808,60.18554],[15.98469,60.18502],[15.97396,60.1862],[15.97402,60.18577],[15.97278,60.18544],[15.97085,60.18601],[15.97012,60.18657],[15.96859,60.18671],[15.96698,60.18655],[15.96752,60.18612],[15.96753,60.18529],[15.96867,60.18427],[15.96587,60.18276],[15.96161,60.18423],[15.95846,60.18349],[15.95602,60.184],[15.9505,60.18458],[15.94892,60.18489],[15.94888,60.1852],[15.94626,60.18498],[15.92657,60.17232],[15.90718,60.16899],[15.88198,60.1663],[15.83637,60.1721],[15.812,60.17589],[15.8137,60.20214],[15.81953,60.20517],[15.81321,60.21453],[15.80583,60.22276],[15.79583,60.22898],[15.7855,60.24344],[15.78752,60.24395],[15.78926,60.24406],[15.79067,60.24504],[15.79204,60.24401],[15.79427,60.24306],[15.79493,60.24299],[15.79565,60.24406],[15.79824,60.2432],[15.80056,60.24183],[15.80147,60.24057],[15.80173,60.23934],[15.80511,60.23841],[15.80673,60.23908],[15.80619,60.23992],[15.83358,60.25578],[15.83589,60.25796],[15.84091,60.26092],[15.85312,60.26743],[15.85719,60.26851],[15.85849,60.26769],[15.85845,60.2666],[15.85904,60.26615],[15.87124,60.26671],[15.88144,60.26772],[15.88012,60.27343],[15.88188,60.27363],[15.88328,60.27326],[15.88393,60.27288],[15.88778,60.27324],[15.89014,60.27461],[15.89074,60.27542],[15.8936,60.27609],[15.89398,60.27638],[15.89241,60.27748],[15.89327,60.27996],[15.88936,60.27942],[15.88291,60.28367],[15.88102,60.28373],[15.87877,60.28545],[15.8858,60.28728],[15.88337,60.28946],[15.88774,60.29151],[15.89618,60.29317],[15.8967,60.29278],[15.90169,60.29468],[15.90199,60.29531],[15.89909,60.29565],[15.89597,60.29676],[15.89614,60.29694],[15.89461,60.30152],[15.89859,60.30281],[15.89662,60.30368],[15.89127,60.307],[15.89076,60.30706],[15.8902,60.30798],[15.88923,60.30864],[15.88891,60.30944],[15.88287,60.30779],[15.8774,60.31056],[15.87694,60.31359],[15.87841,60.31376],[15.87691,60.321],[15.87648,60.32506],[15.86336,60.32618],[15.84787,60.32841],[15.84458,60.32898],[15.84317,60.3294],[15.84412,60.33553],[15.83758,60.34256],[15.83647,60.34447],[15.83106,60.34744],[15.83178,60.34853],[15.831,60.34952],[15.82901,60.34857],[15.82288,60.35264],[15.84591,60.35456],[15.86621,60.35529],[15.88104,60.35636],[15.88902,60.36041],[15.90619,60.36615],[15.91287,60.36678],[15.91866,60.36758],[15.92082,60.36873],[15.91776,60.37106],[15.91844,60.37124],[15.9191,60.37089],[15.91853,60.37126],[15.9191,60.37141],[15.91951,60.37099],[15.92615,60.37272],[15.9289,60.37221],[15.93192,60.37218]],[[15.97992,60.30564],[15.97356,60.30416],[15.97024,60.30393],[15.96784,60.30344],[15.96533,60.30388],[15.96127,60.30425],[15.9576,60.30433],[15.95472,60.30401],[15.95103,60.30311],[15.94821,60.30175],[15.94654,60.30021],[15.94594,60.29849],[15.94652,60.29667],[15.94386,60.29619],[15.94103,60.29516],[15.93902,60.29375],[15.9381,60.29243],[15.93768,60.28991],[15.93855,60.28776],[15.94111,60.28543],[15.94243,60.28457],[15.94463,60.28366],[15.94711,60.28307],[15.94667,60.2819],[15.94671,60.2808],[15.94739,60.27942],[15.94836,60.27846],[15.9502,60.27734],[15.95384,60.27598],[15.95584,60.27546],[15.95823,60.27511],[15.96052,60.27366],[15.96082,60.27245],[15.95908,60.27024],[15.95647,60.26869],[15.95512,60.26692],[15.95419,60.26292],[15.9544,60.2617],[15.95528,60.2603],[15.95742,60.25873],[15.9609,60.25747],[15.9632,60.25705],[15.96626,60.25688],[15.97195,60.25619],[15.97554,60.25624],[15.97892,60.25685],[15.98175,60.25795],[15.9837,60.2593],[15.98778,60.25906],[15.99008,60.25924],[15.99263,60.25973],[15.99625,60.2594],[16.00023,60.25849],[16.00621,60.25648],[16.0098,60.2558],[16.01329,60.25564],[16.01731,60.25616],[16.0202,60.25715],[16.02253,60.25871],[16.02366,60.26034],[16.0238,60.26256],[16.02301,60.26397],[16.02066,60.26577],[16.0193,60.26761],[16.01756,60.26874],[16.01557,60.26954],[16.01381,60.2712],[16.01136,60.27244],[16.01066,60.27354],[16.01021,60.27521],[16.00916,60.27646],[16.00908,60.27859],[16.00718,60.2815],[16.00687,60.28314],[16.00803,60.28442],[16.00854,60.28587],[16.00843,60.28699],[16.00765,60.2884],[16.00659,60.28939],[16.00443,60.29075],[16.00114,60.29463],[16.00003,60.29657],[15.99892,60.29746],[15.99713,60.29838],[15.99689,60.29956],[15.99575,60.30127],[15.99332,60.3033],[15.99188,60.30417],[15.98815,60.30542],[15.98374,60.3059],[15.97992,60.30564]]]}},{"type":"Feature","id":"2083R003","properties":{"code":"2083R003","name":"Hedemora stad"},"geometry":{"type":"Polygon","coordinates":[[[15.99332,60.3033],[15.99606,60.30094],[15.99689,60.29956],[15.99713,60.29838],[15.99892,60.29746],[16.00003,60.29657],[16.00114,60.29463],[16.00443,60.29075],[16.00695,60.2891],[16.0081,60.28775],[16.00854,60.28587],[16.00803,60.28442],[16.00687,60.28314],[16.00718,60.2815],[16.00908,60.27859],[16.00916,60.27646],[16.01021,60.27521],[16.01066,60.27354],[16.01136,60.27244],[16.01381,60.2712],[16.01557,60.26954],[16.01756,60.26874],[16.01893,60.2679],[16.01996,60.26695],[16.02066,60.26577],[16.02265,60.26437],[16.02368,60.26289],[16.02391,60.26178],[16.02366,60.26034],[16.0231,60.25934],[16.02201,60.25826],[16.01911,60.25669],[16.01533,60.2558],[16.01188,60.25564],[16.00829,60.25603],[16.00562,60.25665],[16.00023,60.25849],[15.99625,60.2594],[15.99263,60.25973],[15.99008,60.25924],[15.98778,60.25906],[15.9837,60.2593],[15.98179,60.25797],[15.97956,60.25704],[15.97698,60.25643],[15.97412,60.25615],[15.97126,60.25624],[15.96626,60.25688],[15.96301,60.25707],[15.96028,60.25762],[15.95842,60.25826],[15.95642,60.25933],[15.95502,60.26062],[15.95427,60.26214],[15.95423,60.26337],[15.95533,60.26734],[15.95683,60.26898],[15.95908,60.27024],[15.96082,60.27245],[15.96052,60.27366],[15.95823,60.27511],[15.95584,60.27546],[15.95384,60.27598],[15.95072,60.27711],[15.94877,60.27815],[15.94765,60.27911],[15.9468,60.28046],[15.94666,60.28188],[15.94711,60.28307],[15.94406,60.28385],[15.94194,60.28485],[15.93914,60.28712],[15.93813,60.28843],[15.9377,60.2906],[15.9381,60.29243],[15.93901,60.29374],[15.94013,60.29464],[15.94209,60.29563],[15.94448,60.29634],[15.94652,60.29667],[15.94594,60.29849],[15.94679,60.30053],[15.94894,60.30218],[15.95224,60.30347],[15.95538,60.30412],[15.95898,60.30436],[15.96533,60.30388],[15.96784,60.30344],[15.97091,60.30402],[15.97356,60.30416],[15.97992,60.30564],[15.98374,60.3059],[15.98618,60.30574],[15.98895,60.30524],[15.99138,60.3044],[15.99332,60.3033]]]}},{"type":"Feature","id":"2083R004","properties":{"code":"2083R004","name":"Långshytte-Husby området"},"geometry":{"type":"Polygon","coordinates":[[[16.24598,60.50396],[16.2589,60.49319],[16.25993,60.49338],[16.26058,60.49247],[16.2635,60.49144],[16.26445,60.49509],[16.26493,60.49536],[16.26828,60.49427],[16.27133,60.49222],[16.27102,60.49088],[16.26736,60.49001],[16.25687,60.48875],[16.25302,60.48883],[16.25207,60.48731],[16.25102,60.48685],[16.25124,60.4866],[16.25201,60.48634],[16.25921,60.48753],[16.26767,60.48625],[16.26795,60.48498],[16.26979,60.48473],[16.27061,60.48589],[16.27941,60.48547],[16.27857,60.48364],[16.28291,60.47243],[16.30263,60.45542],[16.30405,60.45518],[16.30333,60.45484],[16.33466,60.42812],[16.3352,60.42683],[16.33494,60.42657],[16.33544,60.42632],[16.33716,60.42151],[16.34398,60.4167],[16.34375,60.41646],[16.34409,60.41615],[16.3465,60.41596],[16.34601,60.4153],[16.35328,60.4101],[16.36263,60.40251],[16.39262,60.37933],[16.31582,60.34635],[16.30583,60.35117],[16.2936,60.35606],[16.27385,60.36457],[16.27228,60.36368],[16.27366,60.36318],[16.27368,60.36296],[16.27231,60.36285],[16.26946,60.36423],[16.2541,60.36523],[16.25174,60.36551],[16.25194,60.36624],[16.25378,60.3666],[16.25574,60.36796],[16.25941,60.36676],[16.26101,60.36571],[16.26169,60.36561],[16.26374,60.36649],[16.26765,60.36725],[16.26683,60.36973],[16.26711,60.37021],[16.26383,60.37063],[16.26298,60.37162],[16.26337,60.37208],[16.26455,60.37267],[16.2655,60.37288],[16.26472,60.37347],[16.2651,60.37357],[16.26546,60.37481],[16.2631,60.37691],[16.25988,60.38363],[16.25946,60.39827],[16.25864,60.40017],[16.25391,60.40052],[16.21652,60.39935],[16.21531,60.39775],[16.2144,60.39725],[16.2142,60.39665],[16.21187,60.39563],[16.21124,60.39515],[16.20975,60.39318],[16.20923,60.3913],[16.20818,60.39038],[16.20639,60.38976],[16.20597,60.38899],[16.20499,60.38834],[16.20072,60.38744],[16.19864,60.3866],[16.19794,60.38611],[16.19672,60.385],[16.1964,60.38406],[16.19536,60.38357],[16.19523,60.38246],[16.18606,60.37325],[16.16596,60.37595],[16.15655,60.37295],[16.15749,60.365],[16.14348,60.35503],[16.13407,60.35083],[16.1259,60.3459],[16.10051,60.34372],[16.08161,60.34322],[16.05787,60.34164],[16.05962,60.34064],[16.05791,60.33961],[16.05959,60.33567],[16.06086,60.33575],[16.06218,60.33258],[16.06357,60.33146],[16.05312,60.33012],[16.05233,60.33143],[16.05149,60.33464],[16.0501,60.3403],[16.04949,60.34461],[16.04501,60.3448],[16.04288,60.34532],[16.03762,60.34529],[16.03267,60.34339],[16.02673,60.34171],[16.02492,60.341],[16.01954,60.33993],[16.0176,60.34028],[16.01444,60.34021],[16.01245,60.34099],[16.01066,60.34275],[16.00828,60.34412],[16.00552,60.34465],[16.00489,60.34427],[16.0015,60.34463],[16.00052,60.34483],[15.99959,60.3454],[15.99938,60.34608],[15.99891,60.34616],[15.99877,60.34588],[15.99744,60.34621],[15.99511,60.34643],[15.99261,60.34763],[15.99258,60.34803],[15.9913,60.34891],[15.99125,60.34874],[15.98674,60.35097],[15.98643,60.35136],[15.98201,60.3532],[15.98179,60.35365],[15.98053,60.35419],[15.97871,60.35547],[15.97495,60.35687],[15.97301,60.35752],[15.96908,60.35813],[15.96859,60.35867],[15.96554,60.35867],[15.96281,60.35981],[15.96134,60.35996],[15.9606,60.35958],[15.95786,60.36005],[15.95007,60.36248],[15.94306,60.364],[15.93546,60.36641],[15.9363,60.36879],[15.93433,60.3697],[15.93375,60.37069],[15.93192,60.37218],[15.9289,60.37221],[15.92615,60.37272],[15.92433,60.37406],[15.92501,60.37438],[15.92637,60.37615],[15.92985,60.37846],[15.92976,60.37961],[15.93404,60.38039],[15.93462,60.38067],[15.93787,60.3836],[15.9376,60.384],[15.94293,60.38557],[15.94383,60.3874],[15.94933,60.39084],[15.94999,60.39352],[15.94942,60.39351],[15.94976,60.39463],[15.95035,60.39515],[15.94966,60.39692],[15.95079,60.39724],[15.95005,60.39793],[15.95086,60.39958],[15.93708,60.41394],[15.9348,60.41387],[15.93296,60.4131],[15.93154,60.41368],[15.9311,60.41334],[15.92932,60.4138],[15.92561,60.41116],[15.92484,60.41139],[15.92338,60.41494],[15.92081,60.41765],[15.92169,60.41909],[15.9195,60.4246],[15.92146,60.42958],[15.92069,60.43111],[15.91946,60.43119],[15.91589,60.43307],[15.91913,60.43607],[15.92358,60.43519],[15.92436,60.43741],[15.9228,60.43773],[15.92371,60.44018],[15.92531,60.4399],[15.93108,60.45634],[15.94262,60.47008],[15.94678,60.47681],[15.94886,60.47899],[15.95586,60.49174],[16.00416,60.52193],[16.02459,60.53555],[16.03192,60.54009],[16.06177,60.56117],[16.09324,60.58174],[16.10553,60.58933],[16.13649,60.61031],[16.16601,60.577],[16.16756,60.57365],[16.17146,60.561],[16.17959,60.55544],[16.19482,60.53531],[16.20719,60.52803],[16.24598,60.50396]]]}},{"type":"Feature","id":"2083R005","properties":{"code":"2083R005","name":"Vikmanshytteområdet"},"geometry":{"type":"Polygon","coordinates":[[[15.84317,60.3294],[15.84458,60.32898],[15.84787,60.32841],[15.86336,60.32618],[15.87648,60.32506],[15.87691,60.321],[15.87841,60.31376],[15.87694,60.31359],[15.8774,60.31056],[15.88287,60.30779],[15.88891,60.30944],[15.88923,60.30864],[15.8902,60.30798],[15.89076,60.30706],[15.89127,60.307],[15.89662,60.30368],[15.89859,60.30281],[15.89461,60.30152],[15.89614,60.29694],[15.89597,60.29676],[15.89909,60.29565],[15.90199,60.29531],[15.90169,60.29468],[15.8967,60.29278],[15.89618,60.29317],[15.88774,60.29151],[15.88337,60.28946],[15.8858,60.28728],[15.87877,60.28545],[15.88102,60.28373],[15.88291,60.28367],[15.88936,60.27942],[15.89327,60.27996],[15.89241,60.27748],[15.89398,60.27638],[15.8936,60.27609],[15.89074,60.27542],[15.89014,60.27461],[15.88778,60.27324],[15.88393,60.27288],[15.88328,60.27326],[15.88188,60.27363],[15.88012,60.27343],[15.88144,60.26772],[15.87124,60.26671],[15.85904,60.26615],[15.85845,60.2666],[15.85849,60.26769],[15.85719,60.26851],[15.85312,60.26743],[15.84091,60.26092],[15.83589,60.25796],[15.83358,60.25578],[15.80619,60.23992],[15.80673,60.23908],[15.80511,60.23841],[15.80173,60.23934],[15.80147,60.24057],[15.80056,60.24183],[15.79824,60.2432],[15.79565,60.24406],[15.79493,60.24299],[15.79427,60.24306],[15.79204,60.24401],[15.79067,60.24504],[15.78926,60.24406],[15.78752,60.24395],[15.7855,60.24344],[15.79583,60.22898],[15.80583,60.22276],[15.81321,60.21453],[15.81953,60.20517],[15.8137,60.20214],[15.812,60.17589],[15.80142,60.17748],[15.72864,60.19915],[15.65726,60.21878],[15.67316,60.22681],[15.68729,60.23437],[15.71819,60.23765],[15.71916,60.23851],[15.7204,60.23864],[15.72279,60.2384],[15.72367,60.23814],[15.72863,60.23871],[15.73889,60.24071],[15.73921,60.24128],[15.73821,60.24109],[15.73703,60.24146],[15.73698,60.24178],[15.73889,60.24277],[15.73889,60.24332],[15.73818,60.24353],[15.73888,60.24387],[15.73888,60.24444],[15.74023,60.24455],[15.74093,60.24443],[15.74687,60.2553],[15.75573,60.26607],[15.75874,60.26931],[15.78028,60.27661],[15.77898,60.27703],[15.77853,60.27824],[15.77771,60.27907],[15.77762,60.27978],[15.77334,60.28655],[15.77854,60.2946],[15.78181,60.29814],[15.78423,60.30017],[15.78801,60.30097],[15.79061,60.30329],[15.78938,60.30387],[15.79178,60.30874],[15.79369,60.31471],[15.79841,60.31577],[15.80007,60.32041],[15.80769,60.3212],[15.81078,60.32111],[15.82027,60.32187],[15.8271,60.32344],[15.83068,60.322],[15.84019,60.32961],[15.84317,60.32939],[15.84331,60.32974],[15.84317,60.3294]]]}}]}