{"type":"FeatureCollection","features":[{"type":"Feature","id":"2121R001","properties":{"code":"2121R001","name":"Alfta"},"geometry":{"type":"Polygon","coordinates":[[[16.15472,61.36515],[16.1575,61.36426],[16.15947,61.36317],[16.1621,61.36081],[16.16298,61.35905],[16.16299,61.35751],[16.16252,61.35643],[16.1602,61.35435],[16.16102,61.35269],[16.16071,61.35089],[16.15926,61.34924],[16.15682,61.3479],[16.15265,61.34666],[16.14979,61.34631],[16.14754,61.34628],[16.13902,61.34715],[16.13545,61.347],[16.13245,61.34728],[16.12883,61.34816],[16.12584,61.34969],[16.11987,61.34909],[16.11542,61.34936],[16.11408,61.3488],[16.11235,61.34766],[16.11061,61.34577],[16.1089,61.34462],[16.10354,61.34235],[16.0993,61.34103],[16.09732,61.3406],[16.09426,61.33902],[16.09167,61.33833],[16.08853,61.33792],[16.08517,61.33776],[16.08183,61.338],[16.0785,61.33519],[16.07597,61.33396],[16.07373,61.33332],[16.07146,61.33292],[16.06551,61.33248],[16.06551,61.33127],[16.06506,61.33025],[16.06351,61.32874],[16.0628,61.32739],[16.06157,61.32619],[16.05841,61.32455],[16.05418,61.32359],[16.049,61.32335],[16.04601,61.32353],[16.041,61.3246],[16.03735,61.32576],[16.03515,61.3269],[16.03268,61.3291],[16.03208,61.33082],[16.03241,61.33241],[16.03197,61.33427],[16.02851,61.33551],[16.02715,61.33637],[16.02605,61.33748],[16.02427,61.33777],[16.02088,61.33795],[16.01872,61.33832],[16.01202,61.34027],[16.00945,61.34134],[16.0061,61.34222],[16.0031,61.34378],[16.00163,61.34545],[16.00109,61.3479],[16.00028,61.34899],[15.99996,61.35006],[16.0006,61.35218],[16.00191,61.35345],[16.00388,61.35455],[16.00663,61.35545],[16.0094,61.35603],[16.01233,61.35625],[16.01457,61.35618],[16.01747,61.35577],[16.0208,61.35479],[16.02323,61.35503],[16.02548,61.35503],[16.02769,61.35482],[16.03015,61.35432],[16.03315,61.35621],[16.03593,61.35733],[16.03858,61.35789],[16.04147,61.35811],[16.04375,61.35911],[16.04599,61.3597],[16.04823,61.36005],[16.05085,61.36022],[16.05388,61.36008],[16.05684,61.35957],[16.06026,61.35932],[16.06306,61.35873],[16.06607,61.35756],[16.07114,61.35738],[16.07328,61.35704],[16.07562,61.35638],[16.08237,61.35659],[16.0865,61.35642],[16.09203,61.3584],[16.09466,61.35905],[16.0976,61.35936],[16.10074,61.3593],[16.10356,61.35968],[16.10611,61.36137],[16.10996,61.36263],[16.11289,61.36304],[16.1165,61.36306],[16.11889,61.36373],[16.12103,61.36407],[16.12513,61.36416],[16.12762,61.36487],[16.12985,61.36523],[16.13218,61.36538],[16.13513,61.36525],[16.13769,61.3664],[16.14175,61.36735],[16.14544,61.36757],[16.1491,61.36723],[16.15235,61.36636],[16.15472,61.36515]]]}},{"type":"Feature","id":"2121R002","properties":{"code":"2121R002","name":"Edsbyn"},"geometry":{"type":"Polygon","coordinates":[[[15.77701,61.41277],[15.78068,61.41244],[15.78384,61.41168],[15.78623,61.41079],[15.78791,61.40976],[15.79072,61.40898],[15.79387,61.40765],[15.7955,61.40648],[15.79687,61.40495],[15.79735,61.4034],[15.79693,61.40176],[15.79753,61.40139],[15.79855,61.40251],[15.80037,61.40367],[15.80982,61.40737],[15.81667,61.40877],[15.81883,61.40891],[15.82171,61.40878],[15.82448,61.4083],[15.82727,61.40735],[15.83019,61.40713],[15.83315,61.40655],[15.83565,61.40573],[15.83733,61.40484],[15.8405,61.40452],[15.84376,61.40366],[15.84584,61.40265],[15.84844,61.4006],[15.85085,61.39935],[15.85329,61.39721],[15.85609,61.39645],[15.86172,61.39425],[15.86395,61.39242],[15.86463,61.39064],[15.86411,61.38856],[15.86201,61.38666],[15.85924,61.38547],[15.85583,61.38475],[15.85144,61.3843],[15.84621,61.38459],[15.84677,61.38329],[15.84665,61.38191],[15.84838,61.3807],[15.84935,61.37937],[15.85519,61.37657],[15.85693,61.37531],[15.85949,61.37477],[15.8618,61.3739],[15.86418,61.37231],[15.86525,61.37121],[15.86593,61.36931],[15.86542,61.3664],[15.86404,61.36481],[15.86167,61.36349],[15.85925,61.36274],[15.85721,61.36238],[15.85216,61.36194],[15.84927,61.36193],[15.84506,61.36259],[15.83872,61.36489],[15.83716,61.36454],[15.83684,61.36318],[15.83601,61.36202],[15.83433,61.36073],[15.83268,61.35993],[15.8302,61.35906],[15.82821,61.35864],[15.82609,61.35841],[15.82349,61.35839],[15.82108,61.3566],[15.81907,61.35555],[15.81588,61.35463],[15.81289,61.35425],[15.81059,61.35421],[15.80769,61.35447],[15.80496,61.35509],[15.80227,61.35606],[15.7992,61.35614],[15.79641,61.35655],[15.79377,61.35725],[15.79101,61.35855],[15.7891,61.36012],[15.78832,61.36208],[15.78648,61.36294],[15.78495,61.36411],[15.78391,61.36614],[15.7843,61.36797],[15.78632,61.37076],[15.78841,61.37218],[15.79177,61.37332],[15.79034,61.3743],[15.78949,61.37526],[15.78898,61.37662],[15.78909,61.37769],[15.78345,61.37914],[15.77925,61.38075],[15.77652,61.38224],[15.77497,61.38416],[15.77478,61.38659],[15.77403,61.38808],[15.77407,61.38962],[15.77493,61.3911],[15.77052,61.39164],[15.7685,61.39221],[15.76627,61.39321],[15.76486,61.39423],[15.76359,61.39606],[15.76198,61.39728],[15.76099,61.39895],[15.76103,61.40033],[15.76153,61.40135],[15.76243,61.4023],[15.764,61.40331],[15.76272,61.40463],[15.76218,61.40637],[15.76259,61.40781],[15.76375,61.40915],[15.76604,61.41068],[15.76954,61.41199],[15.77291,61.41264],[15.77701,61.41277]]]}},{"type":"Feature","id":"2121R003","properties":{"code":"2121R003","name":"Ovanåkers landsbygd"},"geometry":{"type":"Polygon","coordinates":[[[15.65891,61.62406],[15.74208,61.58293],[15.77382,61.58546],[15.8334,61.57275],[15.83323,61.56365],[15.84208,61.56223],[15.84666,61.57012],[16.03811,61.53079],[16.08589,61.51589],[16.1371,61.499],[16.19154,61.49971],[16.20629,61.48888],[16.22015,61.485],[16.21478,61.46936],[16.21102,61.46081],[16.23517,61.44897],[16.23594,61.44898],[16.23596,61.44856],[16.25318,61.43984],[16.22842,61.40799],[16.21897,61.39513],[16.2154,61.3966],[16.21151,61.39868],[16.20953,61.39613],[16.21129,61.39565],[16.21274,61.3943],[16.21412,61.39441],[16.21655,61.39291],[16.21721,61.39275],[16.20639,61.37774],[16.19077,61.35925],[16.18696,61.35937],[16.18537,61.35647],[16.18258,61.35652],[16.18219,61.35587],[16.183,61.35576],[16.18273,61.35528],[16.18664,61.35475],[16.18551,61.35207],[16.17949,61.35298],[16.17857,61.35197],[16.1767,61.34812],[16.17745,61.34684],[16.17744,61.34576],[16.17444,61.34537],[16.17367,61.34486],[16.17519,61.34403],[16.17454,61.34281],[16.1747,61.34229],[16.17547,61.34237],[16.17763,61.34322],[16.17876,61.3434],[16.18,61.34291],[16.1794,61.34197],[16.1742,61.33932],[16.17642,61.33883],[16.17524,61.3368],[16.1719,61.33716],[16.11182,61.26514],[16.12303,61.26313],[16.12431,61.26384],[16.11833,61.26926],[16.11868,61.26992],[16.11952,61.26984],[16.1199,61.26944],[16.11982,61.2688],[16.12028,61.2684],[16.12314,61.26686],[16.12443,61.26704],[16.12558,61.26618],[16.12531,61.26589],[16.13143,61.26138],[16.13022,61.26096],[16.13115,61.26089],[16.13148,61.26069],[16.13118,61.26001],[16.13093,61.25988],[16.12987,61.26033],[16.127,61.25791],[16.13016,61.25748],[16.13152,61.25685],[16.12342,61.25245],[16.11204,61.25717],[16.11223,61.25696],[16.1118,61.25667],[16.10969,61.25602],[16.10814,61.2559],[16.10796,61.25604],[16.08895,61.23334],[16.09108,61.23162],[16.08891,61.22977],[16.08824,61.22692],[16.08271,61.22812],[16.08359,61.22956],[16.06672,61.23861],[16.05228,61.22405],[16.06688,61.22091],[16.07408,61.22285],[16.07714,61.21949],[16.0582,61.18968],[16.06679,61.18784],[16.06216,61.18046],[16.06261,61.18054],[16.06309,61.18033],[16.0626,61.17816],[16.06079,61.17756],[16.0614,61.17695],[16.05994,61.17663],[16.05798,61.17314],[16.04869,61.17296],[16.04604,61.16912],[16.05923,61.16529],[16.04564,61.14962],[16.0335,61.15236],[15.99591,61.10077],[15.98489,61.08425],[15.98035,61.0743],[15.99752,61.06693],[15.98564,61.06033],[15.98505,61.06052],[15.98444,61.06048],[15.98505,61.06002],[15.97752,61.05592],[15.97337,61.05577],[15.97022,61.05721],[15.95876,61.04564],[15.96706,61.04218],[15.96627,61.04173],[15.96778,61.04109],[15.95932,61.0364],[15.95257,61.03921],[15.93225,61.01834],[15.92135,61.00766],[15.76196,61.04964],[15.7162,61.08555],[15.68032,61.11327],[15.67949,61.11738],[15.6799,61.11764],[15.67943,61.11766],[15.67897,61.11973],[15.6798,61.11983],[15.6787,61.12147],[15.67845,61.12243],[15.65735,61.21562],[15.54315,61.28073],[15.44013,61.33316],[15.34299,61.39768],[15.30083,61.42612],[15.24254,61.47314],[15.21627,61.49465],[15.24368,61.50194],[15.23806,61.50684],[15.25354,61.51211],[15.25715,61.50976],[15.25987,61.50913],[15.261,61.50824],[15.26323,61.50727],[15.27015,61.51852],[15.27744,61.5223],[15.26561,61.54694],[15.29665,61.55281],[15.29749,61.55193],[15.33653,61.56544],[15.37607,61.56737],[15.37609,61.56769],[15.3938,61.56853],[15.39935,61.57063],[15.43525,61.5667],[15.4359,61.56843],[15.42205,61.57779],[15.43169,61.58138],[15.42904,61.58248],[15.42428,61.58399],[15.42409,61.58472],[15.42359,61.58508],[15.42085,61.58539],[15.42106,61.58573],[15.42197,61.58609],[15.42195,61.58642],[15.41887,61.58803],[15.41485,61.58883],[15.40983,61.59351],[15.41281,61.5957],[15.40135,61.60387],[15.40203,61.60654],[15.40632,61.60753],[15.40344,61.61251],[15.46104,61.60965],[15.51438,61.60665],[15.58915,61.61612],[15.65891,61.62406]],[[16.13769,61.3664],[16.13513,61.36525],[16.13218,61.36538],[16.12985,61.36523],[16.12762,61.36487],[16.12513,61.36416],[16.12103,61.36407],[16.11889,61.36373],[16.1165,61.36306],[16.1136,61.36308],[16.11062,61.36276],[16.10663,61.36161],[16.10356,61.35968],[16.10074,61.3593],[16.0976,61.35936],[16.09466,61.35905],[16.09203,61.3584],[16.0865,61.35642],[16.08237,61.35659],[16.07562,61.35638],[16.07328,61.35704],[16.07114,61.35738],[16.06607,61.35756],[16.06306,61.35873],[16.06026,61.35932],[16.05684,61.35957],[16.05388,61.36008],[16.05085,61.36022],[16.04823,61.36005],[16.04599,61.3597],[16.04375,61.35911],[16.04147,61.35811],[16.03858,61.35789],[16.03593,61.35733],[16.03315,61.35621],[16.03015,61.35432],[16.02769,61.35482],[16.02548,61.35503],[16.02323,61.35503],[16.0208,61.35479],[16.01747,61.35577],[16.01457,61.35618],[16.01161,61.35623],[16.00935,61.35602],[16.00663,61.35545],[16.00388,61.35455],[16.00191,61.35345],[16.0006,61.35218],[16.00007,61.35113],[16.00002,61.34972],[16.00109,61.3479],[16.00184,61.34509],[16.00349,61.3435],[16.0061,61.34222],[16.00945,61.34134],[16.01202,61.34027],[16.01872,61.33832],[16.02088,61.33795],[16.02427,61.33777],[16.02605,61.33748],[16.02715,61.33637],[16.02851,61.33551],[16.03197,61.33427],[16.03241,61.33241],[16.03208,61.33082],[16.03268,61.3291],[16.03515,61.3269],[16.03735,61.32576],[16.041,61.3246],[16.04601,61.32353],[16.04971,61.32336],[16.05486,61.32369],[16.05841,61.32455],[16.06157,61.32619],[16.0628,61.32739],[16.06351,61.32874],[16.06506,61.33025],[16.06551,61.33127],[16.06551,61.33248],[16.07146,61.33292],[16.07373,61.33332],[16.07597,61.33396],[16.0785,61.33519],[16.08183,61.338],[16.08517,61.33776],[16.08853,61.33792],[16.09167,61.33833],[16.09426,61.33902],[16.09732,61.3406],[16.0993,61.34103],[16.10354,61.34235],[16.1089,61.34462],[16.11061,61.34577],[16.11235,61.34766],[16.11408,61.3488],[16.11542,61.34936],[16.11987,61.34909],[16.12584,61.34969],[16.12883,61.34816],[16.13245,61.34728],[16.13545,61.347],[16.13902,61.34715],[16.14754,61.34628],[16.15049,61.34636],[16.15271,61.34667],[16.1553,61.34736],[16.1579,61.34839],[16.15965,61.34956],[16.16071,61.35089],[16.16102,61.35269],[16.1602,61.35435],[16.16227,61.35608],[16.16305,61.35785],[16.1629,61.35942],[16.16237,61.36046],[16.15947,61.36317],[16.1575,61.36426],[16.15472,61.36515],[16.15235,61.36636],[16.14981,61.36709],[16.14762,61.36744],[16.14396,61.36755],[16.14101,61.36724],[16.13769,61.3664]],[[15.77701,61.41277],[15.77291,61.41264],[15.76954,61.41199],[15.76604,61.41068],[15.76375,61.40915],[15.76259,61.40781],[15.76218,61.40637],[15.76272,61.40463],[15.764,61.40331],[15.76243,61.4023],[15.76153,61.40135],[15.76103,61.40033],[15.76099,61.39895],[15.76198,61.39728],[15.76359,61.39606],[15.76486,61.39423],[15.76627,61.39321],[15.7685,61.39221],[15.77052,61.39164],[15.77493,61.3911],[15.77407,61.38962],[15.77403,61.38808],[15.77478,61.38659],[15.77497,61.38416],[15.77652,61.38224],[15.77925,61.38075],[15.78345,61.37914],[15.78909,61.37769],[15.78898,61.37662],[15.78949,61.37526],[15.79034,61.3743],[15.79177,61.37332],[15.78841,61.37218],[15.78632,61.37076],[15.7843,61.36797],[15.78391,61.36614],[15.78495,61.36411],[15.78648,61.36294],[15.78832,61.36208],[15.7891,61.36012],[15.79101,61.35855],[15.79377,61.35725],[15.79641,61.35655],[15.7992,61.35614],[15.80227,61.35606],[15.80496,61.35509],[15.80769,61.35447],[15.81059,61.35421],[15.81289,61.35425],[15.81588,61.35463],[15.81907,61.35555],[15.82108,61.3566],[15.82349,61.35839],[15.82609,61.35841],[15.82821,61.35864],[15.8302,61.35906],[15.83268,61.35993],[15.83433,61.36073],[15.83601,61.36202],[15.83684,61.36318],[15.83716,61.36454],[15.83872,61.36489],[15.84506,61.36259],[15.84927,61.36193],[15.85216,61.36194],[15.85721,61.36238],[15.85925,61.36274],[15.86167,61.36349],[15.86404,61.36481],[15.86542,61.3664],[15.86593,61.36931],[15.86525,61.37121],[15.86418,61.37231],[15.8618,61.3739],[15.85949,61.37477],[15.85693,61.37531],[15.85519,61.37657],[15.84935,61.37937],[15.84838,61.3807],[15.84665,61.38191],[15.84677,61.38329],[15.84621,61.38459],[15.85144,61.3843],[15.85583,61.38475],[15.85924,61.38547],[15.86201,61.38666],[15.86411,61.38856],[15.86463,61.39064],[15.86395,61.39242],[15.86172,61.39425],[15.85609,61.39645],[15.85329,61.39721],[15.85085,61.39935],[15.84844,61.4006],[15.84584,61.40265],[15.84376,61.40366],[15.8405,61.40452],[15.83733,61.40484],[15.83565,61.40573],[15.83315,61.40655],[15.83019,61.40713],[15.82727,61.40735],[15.82448,61.4083],[15.82171,61.40878],[15.81883,61.40891],[15.81667,61.40877],[15.80982,61.40737],[15.80037,61.40367],[15.79855,61.40251],[15.79753,61.40139],[15.79693,61.40176],[15.79735,61.4034],[15.79687,61.40495],[15.7955,61.40648],[15.79387,61.40765],[15.79072,61.40898],[15.78791,61.40976],[15.78623,61.41079],[15.78384,61.41168],[15.78068,61.41244],[15.77701,61.41277]]]}}]}