{"type":"FeatureCollection","features":[{"type":"Feature","id":"2161R001","properties":{"code":"2161R001","name":"Färila"},"geometry":{"type":"Polygon","coordinates":[[[15.84538,61.81675],[15.84897,61.81632],[15.85207,61.81538],[15.85493,61.81373],[15.85675,61.81161],[15.85973,61.8113],[15.86245,61.81064],[15.86469,61.8097],[15.86653,61.80837],[15.87038,61.80857],[15.87525,61.80857],[15.88451,61.80799],[15.88667,61.80888],[15.88909,61.80954],[15.89186,61.80993],[15.89475,61.80998],[15.89839,61.80953],[15.90139,61.80865],[15.90465,61.8089],[15.90843,61.80867],[15.91146,61.80805],[15.9138,61.80718],[15.9183,61.80696],[15.92208,61.80611],[15.92421,61.80533],[15.92613,61.80429],[15.92745,61.80304],[15.92805,61.80168],[15.92792,61.8003],[15.92717,61.7991],[15.92681,61.7966],[15.92573,61.79524],[15.92522,61.79392],[15.92398,61.79263],[15.92205,61.79151],[15.91963,61.79066],[15.91577,61.78996],[15.9128,61.78978],[15.90976,61.78996],[15.90697,61.79048],[15.9045,61.79133],[15.90175,61.79297],[15.89843,61.7933],[15.89366,61.79252],[15.89,61.79235],[15.88644,61.79273],[15.8821,61.79396],[15.87918,61.7936],[15.87465,61.79352],[15.86721,61.79223],[15.85871,61.79198],[15.85585,61.79078],[15.85157,61.7898],[15.85184,61.78814],[15.85121,61.78617],[15.8505,61.78518],[15.84896,61.78401],[15.84742,61.78326],[15.84496,61.78251],[15.84257,61.78209],[15.84038,61.78192],[15.83804,61.78194],[15.8352,61.78229],[15.8288,61.78407],[15.82447,61.78474],[15.8185,61.78677],[15.8161,61.78807],[15.81236,61.78742],[15.80873,61.78725],[15.80569,61.78753],[15.80243,61.78831],[15.80076,61.78902],[15.79908,61.79012],[15.79695,61.7908],[15.79528,61.7916],[15.79305,61.79357],[15.79225,61.79589],[15.79229,61.79734],[15.7934,61.79913],[15.79492,61.80039],[15.79826,61.8021],[15.80176,61.80303],[15.80477,61.80336],[15.80727,61.80337],[15.80913,61.80385],[15.81483,61.80486],[15.81782,61.805],[15.82043,61.80485],[15.82404,61.80543],[15.82366,61.8073],[15.82451,61.80897],[15.82598,61.81019],[15.82861,61.81138],[15.82977,61.8127],[15.83175,61.81396],[15.83454,61.81507],[15.83945,61.8163],[15.84226,61.81669],[15.84538,61.81675]]]}},{"type":"Feature","id":"2161R002","properties":{"code":"2161R002","name":"Järvsö"},"geometry":{"type":"Polygon","coordinates":[[[16.16249,61.73383],[16.16879,61.73351],[16.1724,61.73294],[16.1761,61.73156],[16.17821,61.72993],[16.1811,61.72935],[16.18391,61.72823],[16.18591,61.72673],[16.18674,61.72567],[16.18713,61.72456],[16.18702,61.72316],[16.18936,61.72239],[16.19131,61.72131],[16.19398,61.71888],[16.19472,61.71769],[16.19779,61.71675],[16.20072,61.71552],[16.2021,61.7147],[16.20362,61.71311],[16.20403,61.71136],[16.20371,61.71033],[16.20232,61.70847],[16.20172,61.70665],[16.20078,61.70561],[16.19936,61.70463],[16.19768,61.70384],[16.19361,61.70245],[16.19014,61.70173],[16.18933,61.7006],[16.18809,61.69958],[16.18469,61.69801],[16.18265,61.69744],[16.18025,61.69702],[16.17599,61.69686],[16.17509,61.69543],[16.17366,61.69416],[16.17164,61.69313],[16.16978,61.69253],[16.17097,61.69056],[16.17101,61.68917],[16.17002,61.68749],[16.16839,61.68623],[16.16625,61.68527],[16.16232,61.68417],[16.15934,61.68371],[16.15642,61.68363],[16.15356,61.68389],[16.15048,61.68463],[16.14692,61.68451],[16.14389,61.6847],[16.14117,61.68516],[16.13883,61.68586],[16.13539,61.68607],[16.13191,61.6868],[16.1294,61.6878],[16.12758,61.68902],[16.12633,61.69073],[16.12617,61.69229],[16.12661,61.69345],[16.12781,61.69479],[16.12919,61.69571],[16.13171,61.69688],[16.13242,61.70057],[16.13389,61.70235],[16.13585,61.70355],[16.13767,61.70427],[16.14341,61.70544],[16.14134,61.70651],[16.13979,61.70788],[16.13907,61.7093],[16.13904,61.71043],[16.1397,61.71199],[16.14106,61.71331],[16.14268,61.71425],[16.14609,61.71566],[16.14531,61.71715],[16.14536,61.71855],[16.14325,61.71891],[16.14038,61.71969],[16.13822,61.72067],[16.13693,61.72159],[16.13586,61.72291],[16.13554,61.724],[16.13572,61.72539],[16.13653,61.72676],[16.13803,61.72799],[16.13967,61.72882],[16.14155,61.73051],[16.14506,61.732],[16.14879,61.7327],[16.15193,61.73284],[16.15464,61.73321],[16.15688,61.73328],[16.15945,61.7337],[16.16249,61.73383]]]}},{"type":"Feature","id":"2161R003","properties":{"code":"2161R003","name":"Järvsö omland"},"geometry":{"type":"Polygon","coordinates":[[[16.25054,61.79474],[16.27221,61.79344],[16.27456,61.7937],[16.32466,61.77041],[16.37346,61.7463],[16.43288,61.7175],[16.47586,61.69685],[16.51301,61.6794],[16.548,61.65897],[16.59122,61.6463],[16.63283,61.62432],[16.58273,61.6404],[16.54933,61.63129],[16.51804,61.6292],[16.43988,61.63656],[16.43992,61.6367],[16.43867,61.63719],[16.43568,61.63751],[16.43406,61.63706],[16.42322,61.63832],[16.42285,61.6382],[16.42258,61.6384],[16.4176,61.63898],[16.32424,61.64449],[16.32081,61.63895],[16.29866,61.64111],[16.27996,61.64437],[16.27284,61.64061],[16.27337,61.64012],[16.27327,61.63971],[16.27415,61.63917],[16.27469,61.63898],[16.2749,61.6391],[16.27535,61.63875],[16.27701,61.63823],[16.27538,61.63786],[16.27592,61.63754],[16.27085,61.63568],[16.26961,61.63597],[16.26733,61.63463],[16.24123,61.61502],[16.22939,61.61135],[16.23591,61.608],[16.22148,61.603],[16.22233,61.60258],[16.20984,61.59807],[16.20893,61.5986],[16.20732,61.59804],[16.20207,61.59742],[16.2022,61.59635],[16.18616,61.59069],[16.17541,61.59585],[16.15781,61.59095],[16.13983,61.58412],[16.08734,61.56631],[16.05939,61.55576],[16.05973,61.55553],[16.06051,61.5555],[16.06179,61.55489],[16.06136,61.55431],[16.06256,61.55369],[16.06501,61.55417],[16.06499,61.55472],[16.0653,61.55468],[16.06674,61.55396],[16.06547,61.5531],[16.06622,61.55237],[16.06339,61.5518],[16.06203,61.55129],[16.06109,61.5504],[16.0564,61.55035],[16.05548,61.54733],[16.05338,61.54621],[16.05362,61.54559],[16.05317,61.54516],[16.05318,61.54465],[16.05243,61.54412],[16.05177,61.54126],[16.05088,61.54061],[16.04909,61.54064],[16.04802,61.54021],[16.04768,61.53979],[16.04517,61.53972],[16.04424,61.53932],[16.04371,61.53777],[16.04301,61.53744],[16.0417,61.53731],[16.0414,61.5367],[16.04166,61.53627],[16.04135,61.53548],[16.0423,61.53497],[16.04146,61.53378],[16.042,61.53352],[16.04191,61.53322],[16.04112,61.53269],[16.04005,61.53282],[16.03967,61.53239],[16.03885,61.53226],[16.03866,61.53141],[16.03755,61.53091],[15.84666,61.57012],[15.84208,61.56223],[15.83323,61.56365],[15.8334,61.57275],[15.77382,61.58546],[15.74208,61.58293],[15.65891,61.62406],[15.69913,61.65308],[15.6997,61.65266],[15.7001,61.65274],[15.7004,61.65222],[15.70121,61.65178],[15.70234,61.65216],[15.70225,61.65305],[15.70321,61.65382],[15.70442,61.65359],[15.70559,61.65368],[15.70574,61.654],[15.70526,61.65416],[15.70551,61.65473],[15.70688,61.65519],[15.70591,61.65714],[15.70537,61.65756],[15.71139,61.66199],[15.69973,61.66711],[15.69978,61.66774],[15.69908,61.66823],[15.69777,61.67044],[15.69811,61.67094],[15.69754,61.67151],[15.69711,61.67161],[15.69716,61.67246],[15.69599,61.67335],[15.69493,61.67352],[15.69415,61.67427],[15.69458,61.67515],[15.69392,61.67488],[15.69269,61.67506],[15.69178,61.67564],[15.69178,61.67592],[15.68899,61.67659],[15.68934,61.67699],[15.6877,61.67762],[15.68673,61.6783],[15.68628,61.67897],[15.68642,61.68001],[15.68582,61.67996],[15.68584,61.68053],[15.68504,61.68145],[15.68581,61.68176],[15.68551,61.68244],[15.69711,61.69795],[15.75561,61.70293],[15.77257,61.72106],[15.81946,61.70798],[15.95098,61.75373],[16.01964,61.77024],[16.03967,61.77283],[16.03986,61.77299],[16.0405,61.77278],[16.04365,61.77286],[16.04382,61.77161],[16.04629,61.77177],[16.0465,61.77043],[16.04588,61.77],[16.04867,61.77012],[16.04947,61.77044],[16.05048,61.77165],[16.05162,61.77437],[16.08109,61.77827],[16.12924,61.78066],[16.12896,61.78136],[16.12927,61.78194],[16.12857,61.78238],[16.12708,61.78264],[16.12049,61.78518],[16.1231,61.78635],[16.12321,61.78602],[16.12489,61.78547],[16.12498,61.78519],[16.12549,61.78506],[16.12862,61.78471],[16.13055,61.78512],[16.13192,61.78487],[16.13369,61.78424],[16.13524,61.78417],[16.13623,61.78467],[16.13794,61.78474],[16.13789,61.78502],[16.13993,61.78679],[16.14075,61.78692],[16.14034,61.78621],[16.13987,61.78608],[16.14034,61.78592],[16.14125,61.7859],[16.14223,61.78562],[16.14545,61.78655],[16.14707,61.7856],[16.14913,61.78559],[16.14849,61.78365],[16.14912,61.78097],[16.1502,61.78036],[16.15614,61.77958],[16.15906,61.77992],[16.1606,61.77966],[16.16227,61.77808],[16.16207,61.77736],[16.16098,61.77636],[16.16168,61.77433],[16.16402,61.772],[16.16654,61.77213],[16.16762,61.77367],[16.16727,61.77508],[16.16802,61.77714],[16.16758,61.77752],[16.16883,61.77739],[16.16945,61.77821],[16.17,61.77802],[16.1699,61.77757],[16.17162,61.77743],[16.17207,61.77723],[16.17169,61.77672],[16.17199,61.77663],[16.17239,61.77681],[16.17305,61.77659],[16.17288,61.77615],[16.17441,61.77576],[16.17471,61.77549],[16.1759,61.77526],[16.17787,61.77553],[16.17893,61.77506],[16.17901,61.77436],[16.18091,61.77421],[16.18355,61.77519],[16.18196,61.77641],[16.21781,61.78702],[16.22136,61.78746],[16.22619,61.78749],[16.22901,61.78721],[16.23061,61.78647],[16.23278,61.78706],[16.23918,61.78681],[16.24036,61.78691],[16.24271,61.78672],[16.24486,61.78719],[16.2471,61.7883],[16.24808,61.79101],[16.25149,61.79195],[16.25054,61.79474]],[[16.15688,61.73328],[16.1472,61.73249],[16.14316,61.73134],[16.14113,61.73023],[16.13967,61.72882],[16.13761,61.72771],[16.13603,61.72609],[16.1356,61.72364],[16.13607,61.72256],[16.13732,61.72127],[16.14038,61.71969],[16.14325,61.71891],[16.14536,61.71855],[16.14531,61.71715],[16.14609,61.71566],[16.14268,61.71425],[16.14106,61.71331],[16.1397,61.71199],[16.13904,61.71043],[16.13907,61.7093],[16.13979,61.70788],[16.14134,61.70651],[16.14341,61.70544],[16.13767,61.70427],[16.13536,61.7033],[16.13378,61.70225],[16.13242,61.70057],[16.13171,61.69688],[16.12919,61.69571],[16.12747,61.69449],[16.12639,61.69301],[16.12614,61.6915],[16.12667,61.69006],[16.12794,61.68873],[16.13005,61.68749],[16.13253,61.68662],[16.13539,61.68607],[16.13883,61.68586],[16.14117,61.68516],[16.14395,61.68469],[16.14692,61.68451],[16.15048,61.68463],[16.15425,61.68379],[16.1579,61.68363],[16.1616,61.68403],[16.16503,61.6849],[16.16739,61.68571],[16.16923,61.68679],[16.17056,61.68815],[16.17107,61.68951],[16.17085,61.69089],[16.16978,61.69253],[16.17164,61.69313],[16.17366,61.69416],[16.17509,61.69543],[16.17599,61.69686],[16.18025,61.69702],[16.18265,61.69744],[16.18469,61.69801],[16.18809,61.69958],[16.18933,61.7006],[16.19014,61.70173],[16.19361,61.70245],[16.19768,61.70384],[16.1995,61.70471],[16.20088,61.70571],[16.20178,61.70674],[16.20232,61.70847],[16.20386,61.71066],[16.20401,61.71205],[16.20339,61.71346],[16.20168,61.71498],[16.19724,61.71697],[16.19472,61.71769],[16.19398,61.71888],[16.19131,61.72131],[16.18936,61.72239],[16.18702,61.72316],[16.18691,61.72534],[16.18621,61.72641],[16.1848,61.72767],[16.18174,61.72915],[16.17821,61.72993],[16.17668,61.73122],[16.17494,61.73211],[16.1724,61.73294],[16.17019,61.73336],[16.16321,61.73381],[16.16022,61.73377],[16.15688,61.73328]]]}},{"type":"Feature","id":"2161R004","properties":{"code":"2161R004","name":"Ljusdal"},"geometry":{"type":"Polygon","coordinates":[[[16.12847,61.8512],[16.13292,61.85082],[16.13517,61.85031],[16.13718,61.84961],[16.13959,61.84821],[16.1409,61.84671],[16.14309,61.84606],[16.14514,61.84507],[16.1475,61.8434],[16.14845,61.84241],[16.14898,61.84137],[16.14903,61.83995],[16.1483,61.83842],[16.14742,61.83742],[16.14455,61.83575],[16.1396,61.83432],[16.1411,61.83293],[16.14171,61.8316],[16.14693,61.83075],[16.15017,61.82983],[16.15576,61.82733],[16.15726,61.82609],[16.15803,61.82481],[16.16114,61.82448],[16.16459,61.82358],[16.16687,61.82261],[16.16886,61.82109],[16.16977,61.81898],[16.16897,61.81687],[16.16521,61.81359],[16.16309,61.8125],[16.16066,61.81166],[16.15857,61.81123],[16.15614,61.81099],[16.15338,61.81026],[16.15004,61.80987],[16.14643,61.80911],[16.14267,61.80895],[16.14047,61.80912],[16.14017,61.80932],[16.13685,61.80748],[16.1337,61.80771],[16.13042,61.80983],[16.1144,61.81259],[16.09847,61.81464],[16.09127,61.81515],[16.07238,61.81898],[16.07026,61.81778],[16.06617,61.81902],[16.06159,61.82126],[16.05733,61.82141],[16.04894,61.82355],[16.04782,61.82186],[16.04668,61.8222],[16.04507,61.82142],[16.0426,61.82067],[16.03993,61.82021],[16.0377,61.82004],[16.03273,61.81732],[16.02873,61.81603],[16.02659,61.81559],[16.02213,61.81532],[16.01839,61.81572],[16.01413,61.81693],[16.01157,61.81833],[16.01054,61.81931],[16.00992,61.82039],[16.01413,61.81958],[16.01845,61.81902],[16.0197,61.81932],[16.02081,61.81993],[16.01975,61.82128],[16.01966,61.8219],[16.02079,61.82274],[16.01932,61.82402],[16.01907,61.8248],[16.02291,61.82585],[16.02578,61.8261],[16.02708,61.82691],[16.02914,61.829],[16.03101,61.83007],[16.03125,61.8309],[16.03251,61.83169],[16.0315,61.83255],[16.03181,61.83327],[16.03232,61.83349],[16.03233,61.8339],[16.02865,61.8347],[16.02764,61.83545],[16.03659,61.83758],[16.0352,61.83813],[16.03581,61.83934],[16.03734,61.84065],[16.04009,61.84168],[16.04209,61.84447],[16.0573,61.84213],[16.06077,61.84431],[16.06196,61.84407],[16.06556,61.84266],[16.07038,61.8429],[16.07146,61.84317],[16.07136,61.84526],[16.07276,61.84614],[16.07372,61.84543],[16.07774,61.84705],[16.0804,61.8478],[16.08337,61.84822],[16.08819,61.8484],[16.09211,61.84788],[16.09575,61.8467],[16.09752,61.8456],[16.10072,61.84259],[16.10428,61.84256],[16.10868,61.84338],[16.10927,61.84508],[16.11009,61.84609],[16.1113,61.847],[16.11341,61.84801],[16.11712,61.84894],[16.11945,61.8501],[16.12197,61.85081],[16.12482,61.8512],[16.12847,61.8512]],[[16.11007,61.82423],[16.11085,61.82422],[16.11955,61.82544],[16.12256,61.82566],[16.12636,61.82567],[16.1343,61.82529],[16.13429,61.82633],[16.13513,61.82679],[16.13591,61.82781],[16.13852,61.82926],[16.13513,61.83115],[16.13124,61.83145],[16.13029,61.8318],[16.12595,61.83168],[16.12437,61.83216],[16.12354,61.83282],[16.12207,61.83303],[16.12031,61.83304],[16.11857,61.83276],[16.11792,61.83248],[16.11082,61.8331],[16.10729,61.8336],[16.10652,61.83285],[16.11354,61.82894],[16.11002,61.82762],[16.10799,61.82614],[16.10946,61.8255],[16.11007,61.82423]]]}},{"type":"Feature","id":"2161R005","properties":{"code":"2161R005","name":"Ljusdal norra"},"geometry":{"type":"Polygon","coordinates":[[[16.10729,61.8336],[16.11792,61.83248],[16.11857,61.83276],[16.12031,61.83304],[16.12207,61.83303],[16.12354,61.83282],[16.12437,61.83216],[16.12595,61.83168],[16.13029,61.8318],[16.13124,61.83145],[16.13513,61.83115],[16.13852,61.82926],[16.13591,61.82781],[16.13513,61.82679],[16.13429,61.82633],[16.1343,61.82529],[16.12636,61.82567],[16.12256,61.82566],[16.11896,61.82536],[16.1101,61.82414],[16.1096,61.82538],[16.10799,61.82614],[16.11002,61.82762],[16.11354,61.82894],[16.10652,61.83285],[16.10729,61.8336]]]}},{"type":"Feature","id":"2161R006","properties":{"code":"2161R006","name":"Ljusdal omland"},"geometry":{"type":"Polygon","coordinates":[[[16.12566,62.22775],[16.17412,62.21387],[16.12193,62.20374],[16.08021,62.22448],[16.07755,62.22361],[16.07795,62.22294],[16.07724,62.22281],[16.07764,62.22258],[16.0772,62.22243],[16.07668,62.22274],[16.07604,62.22269],[16.07477,62.2222],[16.07413,62.22097],[16.07475,62.22026],[16.07439,62.21998],[16.07176,62.22038],[16.0695,62.21999],[16.06896,62.2195],[16.0663,62.21826],[16.06531,62.21694],[16.06528,62.21624],[16.06589,62.21593],[16.06713,62.21459],[16.06592,62.21398],[16.06529,62.21331],[16.06873,62.21055],[16.06986,62.21048],[16.07133,62.2093],[16.0742,62.20791],[16.07596,62.20731],[16.07565,62.20655],[16.07371,62.20617],[16.08446,62.19681],[16.10294,62.17996],[16.15456,62.13385],[16.17532,62.09493],[16.16329,62.09426],[16.16479,62.08523],[16.19775,62.05284],[16.23546,61.94722],[16.25204,61.93228],[16.25819,61.90371],[16.27678,61.88688],[16.29908,61.88631],[16.30659,61.88042],[16.33681,61.87442],[16.3356,61.87272],[16.33859,61.87227],[16.33771,61.87048],[16.33534,61.86993],[16.32814,61.86085],[16.32308,61.84498],[16.30561,61.82395],[16.29896,61.81738],[16.29269,61.80522],[16.29331,61.80492],[16.29511,61.80278],[16.29173,61.80038],[16.27904,61.79758],[16.2746,61.79375],[16.27592,61.7931],[16.27895,61.79175],[16.28165,61.7905],[16.28167,61.79049],[16.27456,61.7937],[16.27221,61.79344],[16.25054,61.79474],[16.25149,61.79195],[16.24808,61.79101],[16.2471,61.7883],[16.24486,61.78719],[16.24271,61.78672],[16.24036,61.78691],[16.23918,61.78681],[16.23278,61.78706],[16.23061,61.78647],[16.22901,61.78721],[16.22619,61.78749],[16.22136,61.78746],[16.21781,61.78702],[16.18196,61.77641],[16.18355,61.77519],[16.18091,61.77421],[16.17901,61.77436],[16.17893,61.77506],[16.17787,61.77553],[16.1759,61.77526],[16.17471,61.77549],[16.17441,61.77576],[16.17288,61.77615],[16.17305,61.77659],[16.17239,61.77681],[16.17199,61.77663],[16.17169,61.77672],[16.17207,61.77723],[16.17162,61.77743],[16.1699,61.77757],[16.17,61.77802],[16.16945,61.77821],[16.16883,61.77739],[16.16758,61.77752],[16.16802,61.77714],[16.16727,61.77508],[16.16762,61.77367],[16.16654,61.77213],[16.16402,61.772],[16.16168,61.77433],[16.16098,61.77636],[16.16207,61.77736],[16.16227,61.77808],[16.1606,61.77966],[16.15906,61.77992],[16.15614,61.77958],[16.1502,61.78036],[16.14912,61.78097],[16.14849,61.78365],[16.14913,61.78559],[16.14707,61.7856],[16.14545,61.78655],[16.14223,61.78562],[16.14125,61.7859],[16.14034,61.78592],[16.13987,61.78608],[16.14034,61.78621],[16.14075,61.78692],[16.13993,61.78679],[16.13789,61.78502],[16.13794,61.78474],[16.13623,61.78467],[16.13524,61.78417],[16.13369,61.78424],[16.13192,61.78487],[16.13055,61.78512],[16.12862,61.78471],[16.12549,61.78506],[16.12498,61.78519],[16.12489,61.78547],[16.12321,61.78602],[16.1231,61.78635],[16.12049,61.78518],[16.12708,61.78264],[16.12857,61.78238],[16.12927,61.78194],[16.12896,61.78136],[16.12924,61.78066],[16.08109,61.77827],[16.05162,61.77437],[16.05048,61.77165],[16.04947,61.77044],[16.04867,61.77012],[16.04588,61.77],[16.0465,61.77043],[16.04629,61.77177],[16.04382,61.77161],[16.04365,61.77286],[16.0405,61.77278],[16.03986,61.77299],[16.03967,61.77283],[16.01964,61.77024],[15.95098,61.75373],[15.81946,61.70798],[15.77257,61.72106],[15.75561,61.70293],[15.69711,61.69795],[15.68551,61.68244],[15.68581,61.68176],[15.68504,61.68145],[15.68584,61.68053],[15.68582,61.67996],[15.68642,61.68001],[15.68628,61.67897],[15.68673,61.6783],[15.6877,61.67762],[15.68934,61.67699],[15.68899,61.67659],[15.69178,61.67592],[15.69178,61.67564],[15.69269,61.67506],[15.69392,61.67488],[15.69458,61.67515],[15.69415,61.67427],[15.69493,61.67352],[15.69599,61.67335],[15.69716,61.67246],[15.69711,61.67161],[15.69754,61.67151],[15.69811,61.67094],[15.69777,61.67044],[15.69908,61.66823],[15.69978,61.66774],[15.69973,61.66711],[15.71139,61.66199],[15.70537,61.65756],[15.70591,61.65714],[15.70688,61.65519],[15.70551,61.65473],[15.70526,61.65416],[15.70574,61.654],[15.70559,61.65368],[15.70442,61.65359],[15.70321,61.65382],[15.70225,61.65305],[15.70234,61.65216],[15.70121,61.65178],[15.7004,61.65222],[15.7001,61.65274],[15.6997,61.65266],[15.69913,61.65308],[15.65891,61.62406],[15.58915,61.61612],[15.51438,61.60665],[15.46104,61.60965],[15.40344,61.61251],[15.40632,61.60753],[15.40203,61.60654],[15.40135,61.60387],[15.41281,61.5957],[15.40983,61.59351],[15.41485,61.58883],[15.41887,61.58803],[15.42195,61.58642],[15.42197,61.58609],[15.42106,61.58573],[15.42085,61.58539],[15.42359,61.58508],[15.42409,61.58472],[15.42428,61.58399],[15.42904,61.58248],[15.43169,61.58138],[15.42205,61.57779],[15.4359,61.56843],[15.43525,61.5667],[15.39935,61.57063],[15.3938,61.56853],[15.37609,61.56769],[15.37607,61.56737],[15.33653,61.56544],[15.29749,61.55193],[15.29665,61.55281],[15.26561,61.54694],[15.27744,61.5223],[15.27015,61.51852],[15.26323,61.50727],[15.261,61.50824],[15.25987,61.50913],[15.25715,61.50976],[15.25354,61.51211],[15.23806,61.50684],[15.24368,61.50194],[15.21627,61.49465],[15.20496,61.50387],[15.15326,61.59579],[15.09541,61.49294],[15.09322,61.48412],[14.97725,61.49129],[14.97509,61.49204],[14.97368,61.49299],[14.97121,61.49344],[14.97049,61.49383],[14.96943,61.4939],[14.96122,61.49255],[14.95289,61.49158],[14.95223,61.49127],[14.95072,61.48988],[14.94904,61.48953],[14.94741,61.4895],[14.94481,61.48976],[14.94206,61.4907],[14.93732,61.4915],[14.93518,61.4916],[14.93258,61.49227],[14.92667,61.49265],[14.92392,61.49379],[14.91903,61.49361],[14.91808,61.49343],[14.91598,61.4926],[14.91347,61.49256],[14.90874,61.4938],[14.90133,61.49643],[14.90023,61.4966],[14.89747,61.49621],[14.89542,61.49527],[14.89271,61.49454],[14.88593,61.49533],[14.88152,61.49509],[14.87794,61.49516],[14.87068,61.49467],[14.86911,61.49496],[14.8645,61.49525],[14.85987,61.49449],[14.85891,61.49379],[14.8581,61.49357],[14.85422,61.49409],[14.85297,61.49457],[14.84837,61.4955],[14.84591,61.49517],[14.84499,61.49459],[14.84253,61.49393],[14.83987,61.49393],[14.83664,61.49364],[14.83348,61.49369],[14.83231,61.49305],[14.83059,61.49314],[14.82824,61.49268],[14.82432,61.49225],[14.82241,61.49271],[14.82131,61.49275],[14.81635,61.49231],[14.81486,61.49242],[14.81186,61.49418],[14.80707,61.49498],[14.80405,61.49511],[14.79712,61.49504],[14.79552,61.49485],[14.79103,61.49392],[14.78822,61.49294],[14.78569,61.49254],[14.77404,61.4924],[14.7718,61.4927],[14.76617,61.49275],[14.76335,61.49306],[14.75937,61.49303],[14.75677,61.49456],[14.75598,61.49551],[14.75463,61.49538],[14.754,61.49492],[14.75262,61.49474],[14.74963,61.49456],[14.74323,61.49358],[14.73811,61.4931],[14.73516,61.49444],[14.73351,61.49481],[14.73119,61.49655],[14.73077,61.49664],[14.72815,61.49617],[14.72526,61.49519],[14.72343,61.49488],[14.72259,61.49416],[14.72285,61.49325],[14.7217,61.492],[14.71809,61.4897],[14.71617,61.48913],[14.71409,61.48915],[14.71301,61.48884],[14.71134,61.48943],[14.70647,61.48918],[14.70509,61.4897],[14.7046,61.49034],[14.70384,61.49073],[14.70114,61.49099],[14.69509,61.49015],[14.69322,61.49013],[14.69078,61.49045],[14.68945,61.48999],[14.69071,61.4886],[14.69057,61.48808],[14.68997,61.48762],[14.68615,61.4869],[14.6848,61.48628],[14.68303,61.48677],[14.67991,61.48613],[14.67935,61.48616],[14.67884,61.48755],[14.67738,61.48781],[14.676,61.48784],[14.67524,61.48761],[14.67471,61.4877],[14.67437,61.4885],[14.67232,61.49017],[14.66989,61.49057],[14.66764,61.49166],[14.66705,61.49221],[14.667,61.49267],[14.66789,61.49387],[14.66799,61.49487],[14.66731,61.49559],[14.66758,61.49618],[14.66703,61.49685],[14.6637,61.49898],[14.66216,61.49951],[14.66016,61.4998],[14.65893,61.50059],[14.65664,61.50043],[14.6561,61.50057],[14.65588,61.50089],[14.65665,61.50343],[14.65757,61.50484],[14.65807,61.50514],[14.65791,61.50571],[14.65901,61.50628],[14.65954,61.5072],[14.65956,61.51051],[14.66017,61.51109],[14.66384,61.51307],[14.66485,61.51406],[14.66586,61.51598],[14.66985,61.51917],[14.67115,61.52071],[14.67065,61.52165],[14.67291,61.52305],[14.67353,61.52388],[14.67404,61.52576],[14.67465,61.52655],[14.67496,61.52828],[14.6736,61.52938],[14.67191,61.53299],[14.67214,61.53392],[14.67138,61.53486],[14.67033,61.53743],[14.66827,61.53923],[14.66815,61.54212],[14.6695,61.54435],[14.66889,61.54601],[14.66778,61.54708],[14.66659,61.54751],[14.66598,61.54806],[14.66249,61.54909],[14.66063,61.55018],[14.65894,61.55076],[14.65831,61.55125],[14.65806,61.55213],[14.65751,61.55264],[14.65676,61.55702],[14.65506,61.55816],[14.65382,61.56119],[14.65408,61.56181],[14.65467,61.56205],[14.65518,61.56279],[14.65694,61.56302],[14.65743,61.56362],[14.66098,61.56423],[14.66306,61.56481],[14.66372,61.56469],[14.66378,61.56442],[14.66496,61.56427],[14.66646,61.56508],[14.66637,61.56553],[14.66585,61.56539],[14.66562,61.56555],[14.66608,61.56577],[14.66581,61.56595],[14.66617,61.56668],[14.66407,61.56712],[14.66349,61.56762],[14.66438,61.56883],[14.66391,61.56925],[14.66482,61.56966],[14.666,61.56985],[14.66718,61.57056],[14.66928,61.57087],[14.6704,61.57151],[14.67034,61.57205],[14.67106,61.57243],[14.67143,61.57322],[14.67238,61.57332],[14.67152,61.57372],[14.67316,61.57441],[14.67498,61.57467],[14.67582,61.5753],[14.6754,61.5762],[14.67576,61.57642],[14.67523,61.57674],[14.67548,61.57741],[14.67521,61.57791],[14.67638,61.57906],[14.67482,61.58008],[14.67577,61.58126],[14.67726,61.58199],[14.67829,61.58288],[14.6794,61.58331],[14.67963,61.58397],[14.67899,61.58513],[14.67702,61.58621],[14.67808,61.58706],[14.67715,61.58771],[14.67779,61.58907],[14.67673,61.58968],[14.67626,61.59062],[14.67663,61.59125],[14.56819,61.59314],[14.44649,61.59459],[14.49938,61.62588],[14.50254,61.64443],[14.51066,61.70006],[14.51534,61.72711],[14.52091,61.72689],[14.5222,61.73417],[14.51663,61.73433],[14.52474,61.78285],[14.52476,61.78459],[14.5274,61.78451],[14.53009,61.78366],[14.5303,61.78381],[14.57917,61.82232],[14.67294,61.89662],[14.68638,61.90162],[14.69099,61.89763],[14.69141,61.8944],[14.69627,61.88921],[14.69797,61.88697],[14.69751,61.88575],[14.69959,61.88481],[14.69967,61.88291],[14.69905,61.8819],[14.70028,61.88047],[14.69874,61.87949],[14.70141,61.87642],[14.70492,61.87607],[14.70907,61.87221],[14.71023,61.87149],[14.71084,61.87062],[14.71212,61.86997],[14.71473,61.86729],[14.71525,61.86707],[14.71573,61.86596],[14.71685,61.86529],[14.71706,61.86465],[14.71786,61.86404],[14.71775,61.86324],[14.71938,61.86164],[14.72013,61.86134],[14.72789,61.85496],[14.72887,61.85281],[14.73364,61.84949],[14.73572,61.84718],[14.73564,61.84613],[14.73694,61.84533],[14.73786,61.84372],[14.73796,61.84281],[14.73929,61.84255],[14.74031,61.84184],[14.74319,61.84114],[14.74357,61.83987],[14.74501,61.83798],[14.74987,61.83436],[14.75276,61.83179],[14.7639,61.823],[14.76217,61.82124],[14.76268,61.82056],[14.76567,61.81926],[14.76799,61.81787],[14.76824,61.81669],[14.76929,61.81606],[14.77201,61.81532],[14.78509,61.80542],[14.78524,61.80465],[14.78698,61.80424],[14.80305,61.79557],[14.8153,61.79274],[14.82765,61.79033],[14.8286,61.79094],[14.83385,61.78932],[14.83935,61.78821],[14.84159,61.78722],[14.84834,61.78574],[14.85166,61.78471],[14.85628,61.78359],[14.84169,61.8042],[14.80934,61.8182],[14.76089,61.86414],[14.80584,61.8862],[14.86313,61.82738],[14.86537,61.80899],[14.92785,61.82131],[14.92182,61.84195],[14.90487,61.87932],[14.90938,61.88054],[14.92847,61.87707],[15.04496,61.86801],[15.04758,61.82388],[15.0918,61.81912],[15.10863,61.84397],[15.08789,61.89278],[15.08544,61.89617],[15.11589,61.89444],[15.11247,61.93546],[15.14062,61.95218],[15.11056,61.95683],[15.10951,61.96648],[15.09214,61.99685],[15.20784,62.03826],[15.20948,62.03769],[15.21202,62.03901],[15.21194,62.0394],[15.23289,62.0464],[15.26195,62.05734],[15.34017,62.09127],[15.41715,62.11139],[15.42218,62.12461],[15.42925,62.1449],[15.40143,62.18325],[15.39924,62.19484],[15.35674,62.21362],[15.34875,62.22496],[15.32612,62.27199],[15.37852,62.29724],[15.43935,62.31905],[15.50535,62.33863],[15.61316,62.34349],[15.62592,62.34069],[16.01333,62.25922],[16.12566,62.22775]],[[15.89475,61.80998],[15.89186,61.80993],[15.88909,61.80954],[15.88667,61.80888],[15.88451,61.80799],[15.87525,61.80857],[15.87038,61.80857],[15.86653,61.80837],[15.86469,61.8097],[15.86245,61.81064],[15.85973,61.8113],[15.85675,61.81161],[15.85454,61.81402],[15.8526,61.81514],[15.8509,61.81581],[15.84829,61.81644],[15.84543,61.81674],[15.84298,61.81674],[15.84012,61.81643],[15.83457,61.81508],[15.83277,61.81445],[15.83015,61.81299],[15.82861,61.81138],[15.82556,61.80991],[15.82451,61.80897],[15.82374,61.80764],[15.82364,61.8066],[15.82404,61.80543],[15.82043,61.80485],[15.81782,61.805],[15.81483,61.80486],[15.80913,61.80385],[15.80727,61.80337],[15.80477,61.80336],[15.80244,61.80314],[15.79962,61.80254],[15.79719,61.80164],[15.79409,61.7998],[15.79259,61.79803],[15.79218,61.79626],[15.79305,61.79357],[15.79397,61.79253],[15.79576,61.79134],[15.79908,61.79012],[15.80129,61.78876],[15.80365,61.78795],[15.8065,61.78741],[15.80945,61.78724],[15.81236,61.78742],[15.8161,61.78807],[15.8185,61.78677],[15.82447,61.78474],[15.8288,61.78407],[15.8352,61.78229],[15.83881,61.78191],[15.84115,61.78195],[15.84398,61.78231],[15.84623,61.78284],[15.84846,61.78373],[15.85018,61.78488],[15.85121,61.78617],[15.85184,61.78814],[15.85157,61.7898],[15.85585,61.79078],[15.85871,61.79198],[15.86721,61.79223],[15.87465,61.79352],[15.87918,61.7936],[15.8821,61.79396],[15.88578,61.79286],[15.88928,61.79238],[15.89296,61.79244],[15.89843,61.7933],[15.90175,61.79297],[15.90396,61.7916],[15.90566,61.79088],[15.90767,61.79031],[15.91052,61.78988],[15.91507,61.78988],[15.91821,61.79034],[15.92025,61.79084],[15.9226,61.79177],[15.92436,61.79295],[15.927,61.79704],[15.92717,61.7991],[15.92792,61.8003],[15.92805,61.80168],[15.92745,61.80304],[15.92613,61.80429],[15.92366,61.80555],[15.92128,61.80635],[15.91899,61.80686],[15.91668,61.80713],[15.9138,61.80718],[15.91064,61.80826],[15.90773,61.80876],[15.90465,61.8089],[15.90139,61.80865],[15.89839,61.80953],[15.89475,61.80998]],[[15.99786,61.85227],[16.00243,61.85235],[16.00543,61.85273],[16.00942,61.85394],[16.01235,61.85568],[16.01429,61.85549],[16.018,61.85406],[16.02531,61.85234],[16.025,61.85083],[16.0258,61.84908],[16.02727,61.84779],[16.02993,61.84651],[16.02761,61.84583],[16.02395,61.84423],[16.01979,61.84386],[16.01652,61.843],[16.01434,61.84378],[16.01175,61.84432],[16.00907,61.84533],[16.00553,61.846],[15.99931,61.84628],[15.99676,61.84605],[15.99466,61.84565],[15.99191,61.84477],[15.9895,61.84337],[15.98776,61.84171],[15.98713,61.83994],[15.98477,61.83904],[15.98289,61.83788],[15.98185,61.83679],[15.98068,61.83487],[15.98051,61.83313],[15.98182,61.83114],[15.98497,61.82905],[15.98856,61.8278],[15.99206,61.82732],[15.99659,61.82714],[15.99895,61.82725],[16.00335,61.82807],[16.00658,61.82948],[16.00849,61.82854],[16.0111,61.82775],[16.01375,61.82731],[16.01639,61.82713],[16.01544,61.82632],[16.01294,61.82529],[16.01124,61.82409],[16.01001,61.8225],[16.00977,61.82105],[16.01054,61.81931],[16.01203,61.818],[16.01413,61.81693],[16.01773,61.81585],[16.02058,61.81541],[16.02358,61.81532],[16.02589,61.81549],[16.02868,61.81602],[16.03327,61.81755],[16.0377,61.82004],[16.03993,61.82021],[16.0426,61.82067],[16.04507,61.82142],[16.04668,61.8222],[16.04782,61.82186],[16.04894,61.82355],[16.05733,61.82141],[16.06159,61.82126],[16.06617,61.81902],[16.07026,61.81778],[16.07238,61.81898],[16.09127,61.81515],[16.09847,61.81464],[16.1144,61.81259],[16.13042,61.80983],[16.1337,61.80771],[16.13685,61.80748],[16.14017,61.80932],[16.14047,61.80912],[16.14267,61.80895],[16.14643,61.80911],[16.15004,61.80987],[16.15338,61.81026],[16.15614,61.81099],[16.15857,61.81123],[16.16129,61.81184],[16.16521,61.81359],[16.16868,61.81656],[16.1697,61.81827],[16.16965,61.81972],[16.16853,61.82142],[16.16687,61.82261],[16.16523,61.82336],[16.16252,61.8242],[16.1604,61.8246],[16.15803,61.82481],[16.15726,61.82609],[16.15576,61.82733],[16.15017,61.82983],[16.14693,61.83075],[16.14171,61.8316],[16.1411,61.83293],[16.1396,61.83432],[16.14455,61.83575],[16.14703,61.8371],[16.14876,61.83921],[16.14898,61.84137],[16.14787,61.84307],[16.14556,61.84479],[16.14364,61.84584],[16.1409,61.84671],[16.13921,61.8485],[16.13662,61.84983],[16.13359,61.85069],[16.1299,61.85115],[16.12554,61.85124],[16.12131,61.85066],[16.11889,61.84988],[16.11712,61.84894],[16.11404,61.84823],[16.11176,61.84727],[16.1095,61.84543],[16.10868,61.84338],[16.10428,61.84256],[16.10072,61.84259],[16.09752,61.8456],[16.09624,61.84645],[16.09345,61.84756],[16.08966,61.84829],[16.08598,61.8484],[16.08108,61.84793],[16.07833,61.84726],[16.07372,61.84543],[16.07151,61.84682],[16.06831,61.84794],[16.06495,61.84853],[16.06116,61.84865],[16.06149,61.85049],[16.06052,61.85321],[16.05919,61.85449],[16.05411,61.85792],[16.0503,61.85917],[16.04775,61.86029],[16.04436,61.86124],[16.04209,61.86166],[16.04068,61.86261],[16.03844,61.86356],[16.03179,61.86514],[16.02637,61.86797],[16.02427,61.86947],[16.01979,61.87171],[16.01748,61.87256],[16.01292,61.87377],[16.01238,61.87585],[16.0117,61.87688],[16.01012,61.87847],[16.00769,61.87995],[16.00603,61.8807],[16.00344,61.88143],[15.99895,61.88191],[15.99595,61.88177],[15.99307,61.88127],[15.99059,61.88047],[15.98833,61.87939],[15.98654,61.87782],[15.98591,61.87634],[15.98347,61.87508],[15.98182,61.87358],[15.98105,61.87135],[15.98118,61.87003],[15.97661,61.8689],[15.97249,61.86704],[15.9698,61.86496],[15.9688,61.86278],[15.96913,61.86132],[15.96999,61.86013],[15.97164,61.85889],[15.97389,61.85788],[15.97685,61.85711],[15.9803,61.85673],[15.98312,61.85541],[15.98729,61.85448],[15.99082,61.8533],[15.99471,61.85257],[15.99786,61.85227]]]}},{"type":"Feature","id":"2161R007","properties":{"code":"2161R007","name":"Tallåsen"},"geometry":{"type":"Polygon","coordinates":[[[15.999,61.88191],[16.00198,61.88168],[16.0041,61.88128],[16.00769,61.87995],[16.01012,61.87847],[16.0117,61.87688],[16.01238,61.87585],[16.01292,61.87377],[16.01748,61.87256],[16.01979,61.87171],[16.02427,61.86947],[16.02637,61.86797],[16.03179,61.86514],[16.03844,61.86356],[16.04068,61.86261],[16.04209,61.86166],[16.04436,61.86124],[16.04775,61.86029],[16.0503,61.85917],[16.05298,61.8584],[16.05464,61.85765],[16.05919,61.85449],[16.06052,61.85321],[16.06149,61.85049],[16.06116,61.84865],[16.06424,61.84859],[16.06731,61.84817],[16.07043,61.84728],[16.07276,61.84614],[16.07136,61.84526],[16.07146,61.84317],[16.07097,61.84295],[16.06556,61.84266],[16.06196,61.84407],[16.06077,61.84431],[16.0573,61.84213],[16.04209,61.84447],[16.04009,61.84168],[16.03734,61.84065],[16.03581,61.83934],[16.0352,61.83813],[16.03659,61.83758],[16.02764,61.83545],[16.02865,61.8347],[16.03233,61.8339],[16.03232,61.83349],[16.03181,61.83327],[16.0315,61.83255],[16.03251,61.83169],[16.03125,61.8309],[16.03101,61.83007],[16.02914,61.829],[16.02708,61.82691],[16.02578,61.8261],[16.02291,61.82585],[16.01907,61.8248],[16.01932,61.82402],[16.02079,61.82274],[16.01966,61.8219],[16.01975,61.82128],[16.02081,61.81993],[16.0197,61.81932],[16.01845,61.81902],[16.01413,61.81958],[16.00992,61.82039],[16.00983,61.82069],[16.01001,61.8225],[16.01124,61.82409],[16.01294,61.82529],[16.01544,61.82632],[16.01639,61.82713],[16.01375,61.82731],[16.0111,61.82775],[16.00849,61.82854],[16.00658,61.82948],[16.00335,61.82807],[15.99895,61.82725],[15.99659,61.82714],[15.99278,61.82729],[15.98922,61.82766],[15.98548,61.8288],[15.98218,61.83085],[15.98077,61.83244],[15.98047,61.83417],[15.98113,61.83571],[15.98246,61.83748],[15.98427,61.83879],[15.98713,61.83994],[15.98776,61.84171],[15.9895,61.84337],[15.99191,61.84477],[15.99446,61.84561],[15.99676,61.84605],[15.99911,61.84627],[16.00553,61.846],[16.00907,61.84533],[16.01175,61.84432],[16.01434,61.84378],[16.01652,61.843],[16.01979,61.84386],[16.02395,61.84423],[16.02761,61.84583],[16.02993,61.84651],[16.02727,61.84779],[16.0258,61.84908],[16.025,61.85083],[16.02531,61.85234],[16.018,61.85406],[16.01429,61.85549],[16.01235,61.85568],[16.00942,61.85394],[16.00543,61.85273],[16.00243,61.85235],[15.99879,61.85226],[15.99471,61.85257],[15.99082,61.8533],[15.98729,61.85448],[15.98371,61.85521],[15.9803,61.85673],[15.97685,61.85711],[15.97389,61.85788],[15.97068,61.85952],[15.96962,61.86054],[15.96898,61.86166],[15.96883,61.86312],[15.96925,61.86422],[15.9701,61.86527],[15.97204,61.86674],[15.97602,61.8687],[15.97911,61.86963],[15.98118,61.87003],[15.98105,61.87135],[15.98182,61.87358],[15.98347,61.87508],[15.98591,61.87634],[15.98654,61.87782],[15.98788,61.87909],[15.98989,61.88019],[15.99307,61.88127],[15.99595,61.88177],[15.999,61.88191]]]}}]}