{"type":"FeatureCollection","features":[{"type":"Feature","id":"2181R001","properties":{"code":"2181R001","name":"Järbo"},"geometry":{"type":"Polygon","coordinates":[[[16.59566,60.74013],[16.59852,60.73989],[16.60121,60.7393],[16.60351,60.7384],[16.60546,60.73712],[16.60669,60.73572],[16.60798,60.7332],[16.60806,60.73215],[16.60763,60.73094],[16.60818,60.72914],[16.60967,60.72829],[16.61293,60.72928],[16.61581,60.72968],[16.62278,60.72992],[16.62658,60.72953],[16.62979,60.72864],[16.63241,60.72723],[16.63393,60.72557],[16.63437,60.72403],[16.63381,60.72225],[16.63167,60.72013],[16.63134,60.71909],[16.63046,60.71794],[16.62892,60.71675],[16.62643,60.71565],[16.62546,60.71449],[16.62423,60.7136],[16.62023,60.71186],[16.62036,60.71001],[16.61962,60.70859],[16.61819,60.70731],[16.61657,60.70641],[16.61575,60.70526],[16.61448,60.70421],[16.61187,60.70294],[16.60925,60.70224],[16.60614,60.70186],[16.60302,60.70186],[16.60071,60.70144],[16.59853,60.70128],[16.59558,60.70139],[16.59202,60.70186],[16.58945,60.70258],[16.58737,60.70357],[16.58557,60.70512],[16.58499,60.70616],[16.58483,60.70743],[16.58345,60.70843],[16.58249,60.70966],[16.58008,60.71054],[16.57858,60.71141],[16.57669,60.71338],[16.57454,60.71468],[16.57326,60.71581],[16.5723,60.71753],[16.57238,60.71903],[16.5699,60.72027],[16.5657,60.72069],[16.56351,60.72125],[16.5617,60.72195],[16.55906,60.72378],[16.55816,60.7249],[16.55769,60.72626],[16.55794,60.72861],[16.55966,60.73065],[16.56352,60.73317],[16.56702,60.73436],[16.56761,60.73563],[16.56854,60.73661],[16.57144,60.73822],[16.57534,60.73927],[16.57893,60.7396],[16.58255,60.73936],[16.58616,60.73846],[16.58829,60.73926],[16.59029,60.73972],[16.5934,60.74007],[16.59566,60.74013]]]}},{"type":"Feature","id":"2181R002","properties":{"code":"2181R002","name":"Kungsgården"},"geometry":{"type":"Polygon","coordinates":[[[16.60001,60.61795],[16.6042,60.61733],[16.60738,60.61708],[16.61004,60.61649],[16.61279,60.61534],[16.61468,60.61377],[16.61737,60.61472],[16.61944,60.6152],[16.62648,60.61577],[16.63077,60.61546],[16.63281,60.61505],[16.63475,60.61441],[16.63854,60.61527],[16.64221,60.61548],[16.64506,60.61524],[16.6479,60.6146],[16.64975,60.61441],[16.65204,60.61454],[16.65507,60.61437],[16.65846,60.61444],[16.66128,60.61411],[16.66326,60.61364],[16.66556,60.61273],[16.66729,60.61159],[16.66913,60.60963],[16.66987,60.60826],[16.66962,60.60605],[16.66772,60.60397],[16.66921,60.60254],[16.67013,60.60058],[16.66982,60.59886],[16.66842,60.59726],[16.6661,60.59595],[16.66369,60.5951],[16.66091,60.59456],[16.6583,60.59438],[16.65631,60.5937],[16.65357,60.59318],[16.65,60.59303],[16.64712,60.59331],[16.64206,60.59456],[16.63921,60.59554],[16.63627,60.59404],[16.63174,60.59283],[16.629,60.5924],[16.62619,60.59233],[16.62119,60.59288],[16.61918,60.59341],[16.61727,60.59418],[16.614,60.59468],[16.61158,60.59546],[16.60896,60.59676],[16.60575,60.5968],[16.60211,60.59642],[16.5999,60.59639],[16.59407,60.59667],[16.59045,60.59732],[16.58688,60.59659],[16.58253,60.59647],[16.58219,60.5965],[16.58017,60.59799],[16.57777,60.59905],[16.57112,60.60007],[16.57018,60.59955],[16.56846,60.60025],[16.56894,60.60058],[16.5684,60.60108],[16.56762,60.60099],[16.56655,60.60035],[16.56508,60.60013],[16.56345,60.60118],[16.56041,60.604],[16.56028,60.60441],[16.56237,60.60474],[16.56215,60.60553],[16.56138,60.60552],[16.56445,60.6057],[16.5625,60.60741],[16.56178,60.60953],[16.56271,60.61163],[16.56516,60.6134],[16.5682,60.61451],[16.57109,60.61523],[16.57489,60.61607],[16.57776,60.61637],[16.58059,60.61631],[16.58332,60.61591],[16.58573,60.61519],[16.58773,60.61416],[16.58982,60.61584],[16.59299,60.61719],[16.59638,60.61784],[16.60001,60.61795]]]}},{"type":"Feature","id":"2181R003","properties":{"code":"2181R003","name":"Sandviken centrum"},"geometry":{"type":"Polygon","coordinates":[[[16.7831,60.62451],[16.78096,60.62277],[16.78419,60.61601],[16.78538,60.61589],[16.78395,60.61523],[16.78173,60.61475],[16.77393,60.61373],[16.76568,60.61316],[16.7641,60.6176],[16.76256,60.61869],[16.76094,60.62096],[16.75897,60.62211],[16.75858,60.62259],[16.76366,60.62309],[16.77025,60.62305],[16.7831,60.62451]]]}},{"type":"Feature","id":"2181R004","properties":{"code":"2181R004","name":"Sandviken nordöstra tätorten"},"geometry":{"type":"Polygon","coordinates":[[[16.8021,60.65502],[16.80717,60.65492],[16.80934,60.65455],[16.81407,60.65451],[16.82051,60.65378],[16.82383,60.65299],[16.82643,60.65174],[16.82785,60.6505],[16.82858,60.64917],[16.83069,60.64831],[16.83254,60.6471],[16.83401,60.64498],[16.83409,60.64376],[16.83352,60.64233],[16.83011,60.63902],[16.82823,60.63776],[16.82591,60.63684],[16.82301,60.63619],[16.82006,60.63593],[16.81909,60.63495],[16.82104,60.63154],[16.81768,60.63103],[16.81165,60.63547],[16.8115,60.6349],[16.81006,60.63432],[16.80764,60.63423],[16.80625,60.63472],[16.80466,60.63404],[16.79622,60.63549],[16.78876,60.6358],[16.78558,60.63284],[16.78466,60.6315],[16.78433,60.63024],[16.78458,60.62627],[16.7831,60.62451],[16.76945,60.62301],[16.77109,60.63233],[16.77496,60.63438],[16.7718,60.63621],[16.77602,60.63731],[16.77791,60.63895],[16.77632,60.63985],[16.7752,60.64083],[16.77382,60.64241],[16.77317,60.64379],[16.77368,60.64644],[16.77583,60.64869],[16.77866,60.65044],[16.78376,60.65194],[16.78733,60.65237],[16.79056,60.6523],[16.79314,60.65331],[16.79713,60.65404],[16.79931,60.65464],[16.8021,60.65502]]]}},{"type":"Feature","id":"2181R005","properties":{"code":"2181R005","name":"Sandviken södra tätorten"},"geometry":{"type":"Polygon","coordinates":[[[16.76835,60.61335],[16.76921,60.611],[16.77123,60.61123],[16.77168,60.61038],[16.7728,60.61051],[16.77683,60.60613],[16.78814,60.60478],[16.80077,60.5968],[16.80374,60.59642],[16.80306,60.5951],[16.80208,60.59416],[16.8003,60.59311],[16.79804,60.59231],[16.79549,60.59176],[16.79066,60.59123],[16.78836,60.59114],[16.78526,60.59129],[16.78528,60.59096],[16.78335,60.58991],[16.78452,60.58895],[16.7799,60.58699],[16.78077,60.58615],[16.77879,60.58528],[16.77813,60.58461],[16.7752,60.58428],[16.76927,60.58303],[16.7776,60.5801],[16.77843,60.57955],[16.78002,60.57761],[16.78023,60.57659],[16.77989,60.57523],[16.77871,60.57377],[16.77605,60.57166],[16.77284,60.57025],[16.76924,60.56952],[16.76542,60.56709],[16.76527,60.56536],[16.76344,60.56278],[16.76251,60.56061],[16.7636,60.56018],[16.76071,60.55916],[16.76302,60.55541],[16.75077,60.55031],[16.74874,60.55055],[16.74624,60.55115],[16.74327,60.55257],[16.7419,60.55373],[16.74112,60.55499],[16.73904,60.55676],[16.73766,60.55925],[16.73765,60.56113],[16.73819,60.56267],[16.73958,60.56459],[16.74211,60.56694],[16.74231,60.57015],[16.74332,60.57209],[16.74078,60.57392],[16.73985,60.57591],[16.73997,60.57703],[16.74078,60.5784],[16.74219,60.57957],[16.7442,60.58057],[16.74271,60.58329],[16.73866,60.5838],[16.73527,60.5832],[16.73131,60.58318],[16.7277,60.58223],[16.72432,60.58198],[16.72314,60.581],[16.72123,60.58001],[16.71888,60.57928],[16.71682,60.57893],[16.71336,60.57878],[16.70889,60.57926],[16.70593,60.58015],[16.70402,60.58118],[16.70273,60.5824],[16.70212,60.58365],[16.69919,60.58568],[16.69837,60.58702],[16.69817,60.58837],[16.69675,60.58942],[16.69568,60.59088],[16.69538,60.59201],[16.69552,60.59316],[16.69634,60.59457],[16.6975,60.5956],[16.69896,60.59647],[16.70111,60.5973],[16.70315,60.59867],[16.70666,60.59983],[16.71035,60.60025],[16.7119,60.60136],[16.71248,60.60257],[16.71379,60.60384],[16.71725,60.60621],[16.72057,60.60748],[16.72118,60.60851],[16.73337,60.60911],[16.73429,60.60669],[16.73842,60.60692],[16.73978,60.60738],[16.74169,60.60752],[16.74232,60.60409],[16.74323,60.60257],[16.75375,60.60528],[16.75331,60.60595],[16.75262,60.60929],[16.75026,60.6121],[16.76835,60.61335]]]}},{"type":"Feature","id":"2181R006","properties":{"code":"2181R006","name":"Sandviken västra tätorten"},"geometry":{"type":"Polygon","coordinates":[[[16.77496,60.63438],[16.77109,60.63233],[16.76945,60.62301],[16.76366,60.62309],[16.75858,60.62259],[16.75897,60.62211],[16.76094,60.62096],[16.76256,60.61869],[16.7641,60.6176],[16.76568,60.61316],[16.75026,60.6121],[16.75262,60.60929],[16.75331,60.60595],[16.75375,60.60528],[16.74323,60.60257],[16.74232,60.60409],[16.74169,60.60752],[16.73978,60.60738],[16.73842,60.60692],[16.73429,60.60669],[16.73337,60.60911],[16.72118,60.60851],[16.72212,60.60943],[16.72011,60.61119],[16.71941,60.61282],[16.71379,60.61649],[16.71227,60.61851],[16.71216,60.61995],[16.71278,60.62134],[16.71402,60.62272],[16.71584,60.62387],[16.7189,60.62526],[16.72311,60.62664],[16.72654,60.62727],[16.73031,60.62754],[16.73323,60.62915],[16.73567,60.62996],[16.74287,60.6314],[16.7484,60.63193],[16.75069,60.63279],[16.7527,60.63324],[16.75661,60.63373],[16.75886,60.63372],[16.76116,60.63347],[16.76348,60.63383],[16.76626,60.63395],[16.76815,60.63498],[16.7718,60.63621],[16.77496,60.63438]]]}},{"type":"Feature","id":"2181R007","properties":{"code":"2181R007","name":"Sandviken östra tätort"},"geometry":{"type":"Polygon","coordinates":[[[16.78876,60.6358],[16.79622,60.63549],[16.80466,60.63404],[16.80625,60.63472],[16.80764,60.63423],[16.81006,60.63432],[16.8115,60.6349],[16.81165,60.63547],[16.81768,60.63103],[16.82104,60.63154],[16.8229,60.62699],[16.82305,60.6254],[16.82271,60.62434],[16.82429,60.62288],[16.82505,60.62147],[16.82514,60.62017],[16.82469,60.61894],[16.82526,60.61771],[16.82528,60.61637],[16.82605,60.61602],[16.83002,60.61185],[16.83333,60.61144],[16.83331,60.60955],[16.83214,60.60875],[16.82908,60.60884],[16.82775,60.60748],[16.82941,60.60673],[16.82796,60.60451],[16.82498,60.6047],[16.82307,60.60311],[16.82027,60.60193],[16.81744,60.60129],[16.8147,60.60105],[16.81187,60.60112],[16.80859,60.60156],[16.80524,60.60121],[16.80221,60.6013],[16.80335,60.59974],[16.80353,60.59835],[16.80421,60.5981],[16.80442,60.59683],[16.80376,60.59652],[16.80077,60.5968],[16.78814,60.60478],[16.77683,60.60613],[16.7728,60.61051],[16.77168,60.61038],[16.77123,60.61123],[16.76921,60.611],[16.76835,60.61335],[16.77393,60.61373],[16.78173,60.61475],[16.78395,60.61523],[16.78538,60.61589],[16.78419,60.61601],[16.78096,60.62277],[16.7831,60.62451],[16.78454,60.62612],[16.78433,60.63024],[16.78526,60.63247],[16.78876,60.6358]]]}},{"type":"Feature","id":"2181R008","properties":{"code":"2181R008","name":"Sandvikens norra omland"},"geometry":{"type":"Polygon","coordinates":[[[16.52667,60.79105],[16.52753,60.79012],[16.52772,60.79113],[16.52831,60.79103],[16.52869,60.79127],[16.5318,60.79111],[16.53118,60.78938],[16.53029,60.78905],[16.52952,60.78823],[16.53193,60.78852],[16.53276,60.78829],[16.53278,60.78795],[16.53347,60.78812],[16.53339,60.7891],[16.53421,60.7901],[16.53703,60.7898],[16.53896,60.79037],[16.53864,60.79074],[16.58394,60.7879],[16.63237,60.78547],[16.68482,60.77207],[16.70272,60.7694],[16.70319,60.76897],[16.7038,60.76886],[16.70409,60.76901],[16.70387,60.76924],[16.71029,60.7683],[16.71186,60.76672],[16.71183,60.7662],[16.71303,60.76616],[16.71308,60.76521],[16.72377,60.76434],[16.72264,60.76023],[16.71394,60.76101],[16.71416,60.76046],[16.71306,60.75832],[16.71911,60.75762],[16.72425,60.75785],[16.72929,60.75914],[16.72988,60.75964],[16.73183,60.76055],[16.73131,60.76101],[16.73186,60.76132],[16.73365,60.76131],[16.73522,60.76089],[16.73603,60.76105],[16.73641,60.76084],[16.73776,60.76067],[16.74248,60.7587],[16.7424,60.75829],[16.73957,60.75717],[16.73826,60.75284],[16.7514,60.75176],[16.75204,60.75281],[16.74988,60.7539],[16.7479,60.75415],[16.74382,60.75633],[16.74261,60.7609],[16.74361,60.76172],[16.74515,60.76226],[16.7426,60.76335],[16.74305,60.76354],[16.7448,60.76316],[16.75423,60.76276],[16.76398,60.7639],[16.85899,60.77723],[16.84877,60.75378],[16.84026,60.72796],[16.84682,60.71225],[16.84653,60.70805],[16.85881,60.7085],[16.85371,60.70321],[16.85336,60.70089],[16.86107,60.69872],[16.85976,60.69501],[16.86393,60.69379],[16.85989,60.69047],[16.846,60.68876],[16.84596,60.68777],[16.85149,60.68628],[16.85188,60.68602],[16.85229,60.68606],[16.85396,60.68561],[16.87744,60.66577],[16.87787,60.65324],[16.87145,60.636],[16.87014,60.63652],[16.86939,60.63632],[16.86946,60.63509],[16.87113,60.63517],[16.8704,60.63326],[16.87294,60.63054],[16.87731,60.61529],[16.8397,60.6092],[16.83742,60.59303],[16.80931,60.58769],[16.80646,60.58711],[16.80525,60.58667],[16.80495,60.58678],[16.80496,60.58657],[16.77995,60.57776],[16.77911,60.57896],[16.7776,60.5801],[16.76927,60.58303],[16.7752,60.58428],[16.77813,60.58461],[16.77879,60.58528],[16.78077,60.58615],[16.7799,60.58699],[16.78452,60.58895],[16.78335,60.58991],[16.78528,60.59096],[16.78526,60.59129],[16.78997,60.59118],[16.79549,60.59176],[16.79864,60.59248],[16.80126,60.5936],[16.80278,60.59478],[16.80376,60.59652],[16.80442,60.59683],[16.80421,60.5981],[16.80353,60.59835],[16.80335,60.59974],[16.80221,60.6013],[16.80524,60.60121],[16.80859,60.60156],[16.81187,60.60112],[16.8147,60.60105],[16.81744,60.60129],[16.81967,60.60175],[16.82307,60.60311],[16.82498,60.6047],[16.82796,60.60451],[16.82941,60.60673],[16.82775,60.60748],[16.82908,60.60884],[16.83214,60.60875],[16.83331,60.60955],[16.83333,60.61144],[16.83002,60.61185],[16.82605,60.61602],[16.82528,60.61637],[16.82526,60.61771],[16.82469,60.61894],[16.82514,60.62017],[16.82505,60.62147],[16.82429,60.62288],[16.82271,60.62434],[16.82307,60.62577],[16.82251,60.62837],[16.81909,60.63495],[16.82006,60.63593],[16.82301,60.63619],[16.82531,60.63667],[16.82882,60.63809],[16.83328,60.64201],[16.83413,60.6442],[16.8339,60.64532],[16.83296,60.64671],[16.83116,60.64806],[16.82858,60.64917],[16.82785,60.6505],[16.82643,60.65174],[16.82379,60.653],[16.81984,60.65387],[16.81337,60.65456],[16.80934,60.65455],[16.80574,60.65504],[16.8021,60.65502],[16.79997,60.65476],[16.79713,60.65404],[16.79401,60.65354],[16.79056,60.6523],[16.78823,60.65239],[16.78527,60.65219],[16.78313,60.65179],[16.77977,60.65086],[16.77752,60.6499],[16.77617,60.64899],[16.77417,60.64711],[16.77336,60.64571],[16.77312,60.64416],[16.7736,60.64273],[16.7756,60.64044],[16.77791,60.63895],[16.77602,60.63731],[16.76931,60.63542],[16.76626,60.63395],[16.76348,60.63383],[16.76116,60.63347],[16.75811,60.63374],[16.7545,60.63354],[16.75131,60.63295],[16.7484,60.63193],[16.74287,60.6314],[16.73567,60.62996],[16.73323,60.62915],[16.73031,60.62754],[16.72516,60.62707],[16.72095,60.62601],[16.71584,60.62387],[16.71337,60.62209],[16.71238,60.62065],[16.71212,60.61958],[16.71283,60.61746],[16.71417,60.61621],[16.71941,60.61282],[16.72011,60.61119],[16.72212,60.60943],[16.72057,60.60748],[16.71721,60.60619],[16.71342,60.60355],[16.71248,60.60257],[16.7119,60.60136],[16.71035,60.60025],[16.70731,60.59995],[16.70422,60.59913],[16.70265,60.59841],[16.70111,60.5973],[16.69896,60.59647],[16.6975,60.5956],[16.69634,60.59457],[16.69565,60.5935],[16.69538,60.59203],[16.69568,60.59088],[16.69675,60.58942],[16.69817,60.58837],[16.69837,60.58702],[16.69919,60.58568],[16.70212,60.58365],[16.70273,60.5824],[16.70364,60.58147],[16.70593,60.58015],[16.70954,60.57914],[16.71406,60.57877],[16.71824,60.57915],[16.72176,60.58023],[16.72432,60.58198],[16.7277,60.58223],[16.73131,60.58318],[16.73527,60.5832],[16.73866,60.5838],[16.74271,60.58329],[16.7442,60.58057],[16.74219,60.57957],[16.74107,60.57871],[16.7401,60.57736],[16.73984,60.57625],[16.73999,60.57523],[16.74078,60.57392],[16.74332,60.57209],[16.74231,60.57015],[16.74217,60.56715],[16.74212,60.56697],[16.69779,60.55523],[16.68434,60.56335],[16.68771,60.57726],[16.66997,60.58555],[16.65957,60.58994],[16.64191,60.59346],[16.63266,60.59307],[16.63627,60.59404],[16.63921,60.59554],[16.64206,60.59456],[16.64712,60.59331],[16.65,60.59303],[16.65357,60.59318],[16.65631,60.5937],[16.6583,60.59438],[16.66091,60.59456],[16.66369,60.5951],[16.6661,60.59595],[16.66842,60.59726],[16.66962,60.59852],[16.67014,60.59989],[16.66978,60.60161],[16.66894,60.60288],[16.66772,60.60397],[16.66918,60.60537],[16.66978,60.60641],[16.66998,60.60755],[16.66959,60.60895],[16.66764,60.61127],[16.66603,60.61248],[16.66326,60.61364],[16.65989,60.61432],[16.65274,60.61453],[16.64975,60.61441],[16.6479,60.6146],[16.64433,60.61534],[16.64145,60.61548],[16.63787,60.61516],[16.63475,60.61441],[16.63281,60.61505],[16.63077,60.61546],[16.62648,60.61577],[16.61944,60.6152],[16.61737,60.61472],[16.61468,60.61377],[16.61275,60.61536],[16.60943,60.61666],[16.6067,60.61717],[16.59932,60.61797],[16.5957,60.61776],[16.5924,60.61701],[16.58937,60.61558],[16.58773,60.61416],[16.58573,60.61519],[16.58265,60.61604],[16.5799,60.61636],[16.57697,60.61632],[16.57421,60.61594],[16.5682,60.61451],[16.56516,60.6134],[16.56336,60.61226],[16.56204,60.6106],[16.56184,60.60882],[16.56277,60.6071],[16.56445,60.6057],[16.56055,60.60547],[16.5583,60.60682],[16.55505,60.60796],[16.55161,60.60853],[16.54798,60.60855],[16.5437,60.60787],[16.53919,60.60651],[16.53515,60.60555],[16.53151,60.60578],[16.52849,60.60556],[16.52528,60.60483],[16.52283,60.60371],[16.52028,60.60287],[16.51706,60.60286],[16.51375,60.60234],[16.51135,60.60155],[16.50965,60.60066],[16.50814,60.59939],[16.50739,60.59824],[16.50686,60.59587],[16.50703,60.59475],[16.50788,60.59335],[16.50965,60.59193],[16.51017,60.59052],[16.50716,60.58596],[16.50493,60.58553],[16.50233,60.58466],[16.50023,60.58348],[16.49891,60.58219],[16.49618,60.58269],[16.49392,60.58284],[16.48848,60.58246],[16.48653,60.58201],[16.48429,60.58115],[16.48182,60.57937],[16.48093,60.57734],[16.48159,60.5751],[16.4837,60.57312],[16.48665,60.5718],[16.48715,60.5702],[16.48868,60.56854],[16.48667,60.56805],[16.48452,60.56795],[16.46688,60.56889],[16.46568,60.56968],[16.46461,60.57003],[16.46342,60.57015],[16.43601,60.58125],[16.41915,60.58632],[16.32093,60.60472],[16.24607,60.60773],[16.19764,60.61405],[16.23841,60.62311],[16.26205,60.64442],[16.3178,60.68946],[16.31845,60.69373],[16.31405,60.69486],[16.31537,60.69804],[16.3121,60.70121],[16.31367,60.70249],[16.31025,60.70243],[16.30768,60.70321],[16.31032,60.70542],[16.30763,60.70619],[16.33453,60.72893],[16.33518,60.72886],[16.33546,60.72824],[16.33606,60.72826],[16.33639,60.72796],[16.33743,60.72783],[16.33845,60.72734],[16.33934,60.72649],[16.34201,60.7258],[16.34252,60.72529],[16.34328,60.72501],[16.37701,60.74356],[16.38578,60.75979],[16.38414,60.77942],[16.38625,60.78681],[16.42554,60.78805],[16.42585,60.78834],[16.42666,60.78808],[16.43282,60.78827],[16.52385,60.79148],[16.52702,60.79135],[16.52667,60.79105]],[[16.58959,60.73958],[16.58616,60.73846],[16.58396,60.7391],[16.58187,60.73945],[16.57748,60.73954],[16.574,60.739],[16.57086,60.73799],[16.56818,60.73629],[16.56702,60.73436],[16.56472,60.73369],[16.56304,60.73292],[16.55893,60.72998],[16.55772,60.72791],[16.55797,60.72525],[16.55972,60.72317],[16.56222,60.72172],[16.5657,60.72069],[16.5699,60.72027],[16.57238,60.71903],[16.57239,60.7172],[16.57356,60.7155],[16.57669,60.71338],[16.57858,60.71141],[16.58008,60.71054],[16.58249,60.70966],[16.58345,60.70843],[16.58483,60.70743],[16.58499,60.70616],[16.58583,60.7048],[16.58835,60.70304],[16.59202,60.70186],[16.59632,60.70132],[16.59922,60.70131],[16.60302,60.70186],[16.60773,60.702],[16.61187,60.70294],[16.6146,60.70429],[16.61575,60.70526],[16.61657,60.70641],[16.61819,60.70731],[16.61962,60.70859],[16.62036,60.71001],[16.62023,60.71186],[16.62423,60.7136],[16.62546,60.71449],[16.62643,60.71565],[16.62846,60.71649],[16.63013,60.71762],[16.63115,60.71876],[16.63167,60.72013],[16.63324,60.72152],[16.63401,60.72258],[16.63437,60.72403],[16.63398,60.72548],[16.63278,60.72693],[16.63097,60.72812],[16.62847,60.72909],[16.62506,60.72976],[16.62208,60.72992],[16.61512,60.72962],[16.61212,60.7291],[16.60967,60.72829],[16.60818,60.72914],[16.60763,60.73094],[16.60805,60.73286],[16.60695,60.73529],[16.60582,60.73679],[16.60398,60.73815],[16.60121,60.7393],[16.59779,60.73999],[16.59416,60.74011],[16.58959,60.73958]]]}},{"type":"Feature","id":"2181R009","properties":{"code":"2181R009","name":"Sandvikens södra omland"},"geometry":{"type":"Polygon","coordinates":[[[16.59318,60.59677],[16.60135,60.59638],[16.60575,60.5968],[16.60896,60.59676],[16.61158,60.59546],[16.61338,60.59484],[16.61727,60.59418],[16.61918,60.59341],[16.62119,60.59288],[16.6255,60.59236],[16.629,60.5924],[16.63266,60.59307],[16.64191,60.59346],[16.65957,60.58994],[16.66997,60.58555],[16.68771,60.57726],[16.68434,60.56335],[16.69779,60.55523],[16.74212,60.56697],[16.73924,60.56421],[16.73802,60.56234],[16.73755,60.56027],[16.73792,60.55847],[16.73927,60.55652],[16.74112,60.55499],[16.7422,60.55342],[16.74368,60.5523],[16.74684,60.55097],[16.75077,60.55031],[16.76302,60.55541],[16.76071,60.55916],[16.7636,60.56018],[16.76251,60.56061],[16.76344,60.56278],[16.76527,60.56536],[16.76542,60.56709],[16.76695,60.56794],[16.76846,60.56917],[16.76924,60.56952],[16.77162,60.56993],[16.77342,60.57044],[16.77544,60.57132],[16.77698,60.57229],[16.77903,60.57407],[16.77989,60.57523],[16.78023,60.57659],[16.77995,60.57776],[16.80496,60.58657],[16.80495,60.58678],[16.80525,60.58667],[16.80646,60.58711],[16.80931,60.58769],[16.83742,60.59303],[16.87493,60.56199],[16.8845,60.55823],[16.88632,60.55735],[16.88482,60.5581],[16.89115,60.55562],[16.89944,60.55371],[16.92842,60.53188],[16.93304,60.53298],[16.93381,60.53293],[16.93406,60.53176],[16.93488,60.53135],[16.93471,60.53074],[16.93752,60.53008],[16.9421,60.52478],[16.94176,60.52252],[16.9427,60.51907],[16.94236,60.51815],[16.94012,60.51841],[16.939,60.51728],[16.93874,60.51649],[16.93913,60.51539],[16.94121,60.51521],[16.93614,60.50176],[16.93569,60.50184],[16.93524,60.50075],[16.93478,60.49708],[16.93517,60.49704],[16.93508,60.49553],[16.93346,60.49545],[16.93268,60.49493],[16.93,60.49626],[16.91012,60.49218],[16.90906,60.49002],[16.90789,60.48916],[16.90855,60.48901],[16.90385,60.47952],[16.90374,60.47887],[16.90488,60.47835],[16.90571,60.47719],[16.90436,60.47689],[16.90288,60.47725],[16.90282,60.4775],[16.89709,60.46579],[16.89671,60.45638],[16.89712,60.45606],[16.89669,60.45581],[16.8966,60.45426],[16.89716,60.4545],[16.89831,60.45456],[16.89891,60.45496],[16.89926,60.45489],[16.89944,60.45423],[16.89823,60.45355],[16.89657,60.45324],[16.89616,60.44845],[16.89083,60.4417],[16.89182,60.43682],[16.89483,60.43032],[16.88407,60.42961],[16.87054,60.43622],[16.86484,60.43828],[16.85696,60.43898],[16.84717,60.44737],[16.8368,60.44385],[16.81725,60.44209],[16.81144,60.44047],[16.80187,60.43433],[16.79623,60.43249],[16.79792,60.43037],[16.7972,60.43011],[16.79602,60.42814],[16.7924,60.42775],[16.79006,60.43038],[16.78199,60.42732],[16.78182,60.42676],[16.78127,60.42651],[16.77949,60.42638],[16.77392,60.42421],[16.77395,60.42264],[16.77465,60.42228],[16.7751,60.42108],[16.77442,60.42014],[16.77441,60.41962],[16.77393,60.41927],[16.77289,60.41936],[16.7726,60.41918],[16.77295,60.4179],[16.77316,60.41775],[16.77455,60.41763],[16.77601,60.41687],[16.77777,60.41698],[16.78087,60.41656],[16.78275,60.41464],[16.7799,60.41316],[16.78074,60.41208],[16.78061,60.41138],[16.77975,60.41134],[16.77858,60.41176],[16.78573,60.39254],[16.78487,60.39207],[16.77952,60.39081],[16.77832,60.38989],[16.77913,60.38917],[16.78071,60.38883],[16.78072,60.38847],[16.78125,60.38825],[16.78196,60.38823],[16.78318,60.38864],[16.78379,60.38855],[16.78395,60.38832],[16.78402,60.38754],[16.78351,60.38768],[16.78275,60.38757],[16.7817,60.3869],[16.78186,60.38631],[16.78373,60.38516],[16.7808,60.38387],[16.7808,60.38361],[16.78005,60.38323],[16.78432,60.38062],[16.78496,60.38055],[16.78636,60.38268],[16.7915,60.38535],[16.79235,60.38601],[16.79265,60.38694],[16.81961,60.37194],[16.81852,60.37104],[16.81789,60.36995],[16.81813,60.36889],[16.81879,60.36804],[16.82103,60.36764],[16.82211,60.36796],[16.82305,60.36863],[16.82353,60.37025],[16.8318,60.36777],[16.83216,60.36665],[16.83195,60.3658],[16.83132,60.36503],[16.83121,60.36411],[16.83281,60.36287],[16.83391,60.36148],[16.83638,60.35993],[16.83795,60.35968],[16.83876,60.35993],[16.83986,60.3608],[16.84053,60.36275],[16.84241,60.36428],[16.84362,60.3646],[16.87803,60.35534],[16.87705,60.35454],[16.88252,60.35302],[16.88361,60.3538],[16.88757,60.3528],[16.89794,60.34324],[16.90129,60.3392],[16.90275,60.3309],[16.89073,60.30471],[16.89901,60.2913],[16.90263,60.29211],[16.90348,60.29133],[16.90264,60.28907],[16.90188,60.28832],[16.90118,60.2881],[16.90126,60.28717],[16.90417,60.28688],[16.90349,60.28555],[16.90416,60.28509],[16.90466,60.28415],[16.90539,60.28351],[16.90778,60.28364],[16.90837,60.2833],[16.90935,60.28008],[16.90946,60.27866],[16.91123,60.27637],[16.91069,60.27467],[16.91092,60.274],[16.91212,60.27315],[16.91292,60.27206],[16.91313,60.27086],[16.91185,60.26921],[16.90758,60.26913],[16.90223,60.2678],[16.90295,60.26631],[16.89608,60.26158],[16.89146,60.25969],[16.88752,60.25567],[16.88644,60.25491],[16.88623,60.25356],[16.8866,60.25108],[16.88757,60.24624],[16.88821,60.24451],[16.8921,60.24331],[16.89666,60.24473],[16.90491,60.23949],[16.87582,60.23058],[16.87087,60.22731],[16.86453,60.22544],[16.8567,60.22486],[16.85711,60.22528],[16.85634,60.22512],[16.85605,60.2248],[16.85547,60.22477],[16.85467,60.22597],[16.8535,60.22573],[16.8531,60.22548],[16.85396,60.22527],[16.85394,60.22498],[16.85435,60.22489],[16.85415,60.22463],[16.85036,60.22436],[16.84182,60.21684],[16.8229,60.21678],[16.80261,60.21212],[16.80025,60.20604],[16.7975,60.2038],[16.79947,60.19958],[16.79673,60.19767],[16.78582,60.1958],[16.77904,60.18992],[16.75006,60.18864],[16.73389,60.19513],[16.72759,60.19527],[16.72399,60.19565],[16.71686,60.19489],[16.71203,60.19608],[16.70837,60.19615],[16.70709,60.19591],[16.70479,60.19509],[16.69863,60.20497],[16.69897,60.20931],[16.69144,60.21487],[16.68515,60.21674],[16.67327,60.222],[16.6632,60.22723],[16.64635,60.23213],[16.62933,60.23857],[16.62016,60.2646],[16.61837,60.27275],[16.61518,60.27887],[16.61033,60.28308],[16.58839,60.29427],[16.57933,60.29761],[16.57339,60.30643],[16.56228,60.31586],[16.56164,60.31676],[16.56123,60.31677],[16.56113,60.3169],[16.56193,60.31698],[16.56192,60.31733],[16.56135,60.31762],[16.56058,60.31768],[16.55165,60.33066],[16.54275,60.33998],[16.51654,60.35548],[16.52546,60.36568],[16.52978,60.37137],[16.54134,60.3734],[16.56954,60.37701],[16.58332,60.38121],[16.58563,60.38205],[16.59179,60.38487],[16.59525,60.38607],[16.60452,60.39121],[16.60928,60.39424],[16.61549,60.40179],[16.61907,60.40432],[16.62528,60.41083],[16.6272,60.41186],[16.63605,60.40747],[16.63785,60.40859],[16.63777,60.40903],[16.6374,60.40907],[16.63731,60.40982],[16.63612,60.40998],[16.63502,60.41041],[16.63469,60.4107],[16.635,60.41097],[16.64825,60.41191],[16.64919,60.41458],[16.63632,60.41765],[16.63646,60.41794],[16.64302,60.42336],[16.66839,60.44067],[16.66901,60.44309],[16.66215,60.45412],[16.66166,60.45623],[16.66691,60.46686],[16.66437,60.46763],[16.65827,60.46884],[16.65085,60.46983],[16.61378,60.49495],[16.58506,60.50896],[16.57761,60.51116],[16.57401,60.51289],[16.57278,60.51616],[16.57063,60.51925],[16.57058,60.52213],[16.56592,60.52687],[16.56309,60.53161],[16.55511,60.5348],[16.54425,60.54215],[16.5434,60.54175],[16.54099,60.54172],[16.53971,60.54266],[16.54205,60.54373],[16.53824,60.54639],[16.53608,60.54538],[16.53484,60.54607],[16.53498,60.54631],[16.53709,60.54723],[16.53408,60.54921],[16.53097,60.55032],[16.52607,60.54952],[16.52573,60.54998],[16.51382,60.55383],[16.50081,60.55603],[16.49259,60.56275],[16.49068,60.56368],[16.49027,60.56347],[16.48932,60.56345],[16.48905,60.56444],[16.48823,60.56478],[16.46831,60.56814],[16.46714,60.56853],[16.46688,60.56889],[16.48452,60.56795],[16.48667,60.56805],[16.48868,60.56854],[16.49102,60.56697],[16.49422,60.56578],[16.49737,60.56517],[16.50086,60.565],[16.50553,60.56559],[16.50865,60.56648],[16.51017,60.56723],[16.51149,60.56823],[16.51434,60.56956],[16.5161,60.57102],[16.51917,60.57108],[16.52446,60.56972],[16.52733,60.56933],[16.53052,60.56932],[16.53419,60.56983],[16.53739,60.57089],[16.54002,60.57268],[16.54339,60.57362],[16.54568,60.5749],[16.54686,60.57614],[16.54741,60.57767],[16.54739,60.57903],[16.54677,60.58036],[16.54801,60.58115],[16.54975,60.58281],[16.55187,60.5837],[16.55326,60.5846],[16.55456,60.58597],[16.55506,60.5871],[16.55769,60.58719],[16.56053,60.58763],[16.56593,60.58896],[16.57268,60.59116],[16.57456,60.59227],[16.57667,60.59422],[16.5774,60.59563],[16.57758,60.59736],[16.5803,60.59672],[16.58322,60.59644],[16.58707,60.59661],[16.59045,60.59732],[16.59318,60.59677]],[[16.71797,60.5183],[16.71821,60.51698],[16.71442,60.51701],[16.70889,60.51628],[16.70593,60.51536],[16.70329,60.51399],[16.70162,60.51208],[16.70142,60.51034],[16.70232,60.50868],[16.7045,60.50679],[16.70858,60.50508],[16.71151,60.5044],[16.71398,60.50413],[16.71448,60.50388],[16.71563,60.50221],[16.71793,60.50068],[16.7203,60.4998],[16.7238,60.49912],[16.72809,60.49896],[16.73047,60.4992],[16.73335,60.49981],[16.73758,60.49955],[16.74094,60.49954],[16.74374,60.49988],[16.74632,60.50057],[16.74796,60.50128],[16.74966,60.50243],[16.75055,60.50344],[16.75108,60.50484],[16.75119,60.50656],[16.75083,60.50762],[16.74973,60.50896],[16.74767,60.51026],[16.74707,60.51209],[16.7483,60.51421],[16.74848,60.51553],[16.74999,60.51743],[16.75161,60.51883],[16.75252,60.52069],[16.75401,60.52161],[16.75564,60.52307],[16.75918,60.52481],[16.76128,60.5268],[16.7618,60.52814],[16.76167,60.52934],[16.76096,60.53066],[16.7596,60.53186],[16.75808,60.5327],[16.75404,60.5341],[16.75131,60.53543],[16.74614,60.53673],[16.74325,60.53707],[16.74028,60.53705],[16.73785,60.53675],[16.73512,60.53607],[16.73244,60.53485],[16.73082,60.53351],[16.72941,60.53143],[16.72902,60.52885],[16.7212,60.52688],[16.71924,60.52592],[16.71782,60.52474],[16.71705,60.52342],[16.71692,60.52234],[16.71749,60.52072],[16.71838,60.51965],[16.71797,60.5183]]]}},{"type":"Feature","id":"2181R010","properties":{"code":"2181R010","name":"Storvik"},"geometry":{"type":"Polygon","coordinates":[[[16.5605,60.6055],[16.56215,60.60553],[16.56237,60.60474],[16.56028,60.60441],[16.56041,60.604],[16.56345,60.60118],[16.56508,60.60013],[16.56655,60.60035],[16.56762,60.60099],[16.5684,60.60108],[16.56894,60.60058],[16.56846,60.60025],[16.57018,60.59955],[16.57112,60.60007],[16.57777,60.59905],[16.58017,60.59799],[16.58219,60.5965],[16.57947,60.59688],[16.57758,60.59736],[16.5774,60.59563],[16.57667,60.59422],[16.57456,60.59227],[16.57268,60.59116],[16.56593,60.58896],[16.56053,60.58763],[16.55769,60.58719],[16.55506,60.5871],[16.55456,60.58597],[16.55326,60.5846],[16.55187,60.5837],[16.54975,60.58281],[16.54801,60.58115],[16.54677,60.58036],[16.54746,60.57869],[16.5472,60.57681],[16.54635,60.5755],[16.54487,60.57435],[16.54284,60.57341],[16.54002,60.57268],[16.53847,60.57147],[16.53672,60.57061],[16.53419,60.56983],[16.53202,60.56946],[16.52961,60.56928],[16.52664,60.56939],[16.52382,60.56986],[16.51917,60.57108],[16.5161,60.57102],[16.51434,60.56956],[16.51149,60.56823],[16.5092,60.56672],[16.50692,60.56591],[16.50363,60.56525],[16.50016,60.56499],[16.49734,60.56517],[16.49422,60.56578],[16.49168,60.56668],[16.48954,60.56784],[16.48766,60.56954],[16.48695,60.57056],[16.48665,60.5718],[16.48415,60.57286],[16.48215,60.57436],[16.48099,60.57666],[16.48135,60.57873],[16.48327,60.58059],[16.48656,60.58202],[16.48915,60.58256],[16.49322,60.58284],[16.49618,60.58269],[16.49891,60.58219],[16.50023,60.58348],[16.50233,60.58466],[16.50493,60.58553],[16.50716,60.58596],[16.51017,60.59052],[16.50965,60.59193],[16.50828,60.59294],[16.50739,60.59399],[16.5069,60.59621],[16.50783,60.599],[16.50887,60.60009],[16.51021,60.601],[16.51245,60.60197],[16.51503,60.60261],[16.51775,60.6029],[16.52028,60.60287],[16.52283,60.60371],[16.52472,60.60463],[16.52715,60.60533],[16.53058,60.60575],[16.53515,60.60555],[16.53919,60.60651],[16.5437,60.60787],[16.54793,60.60854],[16.55161,60.60853],[16.55505,60.60796],[16.5583,60.60682],[16.5605,60.6055]]]}},{"type":"Feature","id":"2181R011","properties":{"code":"2181R011","name":"Årsunda"},"geometry":{"type":"Polygon","coordinates":[[[16.74255,60.53709],[16.74614,60.53673],[16.75003,60.53582],[16.7524,60.53501],[16.75404,60.5341],[16.7575,60.53295],[16.76036,60.53128],[16.76121,60.53034],[16.76172,60.52917],[16.76163,60.52746],[16.76077,60.52616],[16.75876,60.52454],[16.75564,60.52307],[16.75401,60.52161],[16.75252,60.52069],[16.75161,60.51883],[16.74999,60.51743],[16.74848,60.51553],[16.7483,60.51421],[16.74707,60.51209],[16.74767,60.51026],[16.74973,60.50896],[16.75099,60.50729],[16.75119,60.50584],[16.75074,60.50377],[16.74966,60.50243],[16.74796,60.50128],[16.7457,60.50036],[16.74308,60.49977],[16.7395,60.4995],[16.73335,60.49981],[16.73047,60.4992],[16.72809,60.49896],[16.72385,60.49911],[16.7203,60.4998],[16.71793,60.50068],[16.71563,60.50221],[16.71448,60.50388],[16.71398,60.50413],[16.71151,60.5044],[16.70858,60.50508],[16.7045,60.50679],[16.70182,60.50934],[16.70137,60.5107],[16.70162,60.51208],[16.70227,60.51307],[16.7037,60.51426],[16.70762,60.51596],[16.70954,60.5164],[16.71368,60.51694],[16.71821,60.51698],[16.71796,60.51827],[16.71838,60.51965],[16.71731,60.52105],[16.71692,60.52268],[16.71736,60.5241],[16.71845,60.52535],[16.71968,60.52618],[16.72177,60.52708],[16.72902,60.52885],[16.72898,60.53001],[16.7298,60.5321],[16.73121,60.5339],[16.73336,60.53536],[16.73512,60.53607],[16.73785,60.53675],[16.74008,60.53703],[16.74255,60.53709]]]}}]}