{"type":"FeatureCollection","features":[{"type":"Feature","id":"2183R001","properties":{"code":"2183R001","name":"Arbrå landsbygd"},"geometry":{"type":"Polygon","coordinates":[[[16.32424,61.64449],[16.4176,61.63898],[16.42258,61.6384],[16.42285,61.6382],[16.42322,61.63832],[16.43406,61.63706],[16.43568,61.63751],[16.43867,61.63719],[16.43992,61.6367],[16.43988,61.63656],[16.51804,61.6292],[16.54933,61.63129],[16.58273,61.6404],[16.63283,61.62432],[16.56155,61.59841],[16.55817,61.59925],[16.557,61.59894],[16.55776,61.59748],[16.55589,61.59667],[16.55442,61.59668],[16.5544,61.59624],[16.55498,61.59592],[16.55467,61.59563],[16.55524,61.5954],[16.55524,61.59472],[16.55844,61.59334],[16.57005,61.58657],[16.57772,61.59013],[16.58505,61.59258],[16.58888,61.59247],[16.59207,61.59281],[16.59473,61.59136],[16.59608,61.59161],[16.60041,61.59158],[16.60111,61.59187],[16.60485,61.59231],[16.60611,61.55149],[16.60769,61.51823],[16.61133,61.50471],[16.648,61.49144],[16.64113,61.48598],[16.60086,61.45183],[16.58757,61.43185],[16.5477,61.43644],[16.49411,61.43773],[16.41165,61.4306],[16.39965,61.43128],[16.39883,61.43148],[16.39766,61.4314],[16.312,61.43625],[16.31287,61.43482],[16.31247,61.43333],[16.31314,61.43209],[16.31195,61.43193],[16.31081,61.4336],[16.31049,61.43633],[16.29947,61.43695],[16.29902,61.43716],[16.2978,61.43706],[16.29174,61.43741],[16.29113,61.43776],[16.28982,61.43772],[16.28968,61.43755],[16.26771,61.4388],[16.26594,61.43937],[16.26185,61.43927],[16.26032,61.43969],[16.25635,61.44005],[16.25492,61.43957],[16.25408,61.43951],[16.23618,61.44844],[16.23594,61.44898],[16.23517,61.44897],[16.21102,61.46081],[16.21478,61.46936],[16.22015,61.485],[16.20629,61.48888],[16.19154,61.49971],[16.1371,61.499],[16.08589,61.51589],[16.03755,61.53091],[16.03866,61.53141],[16.03885,61.53226],[16.03967,61.53239],[16.04005,61.53282],[16.04112,61.53269],[16.04191,61.53322],[16.042,61.53352],[16.04146,61.53378],[16.0423,61.53497],[16.04135,61.53548],[16.04166,61.53627],[16.0414,61.5367],[16.0417,61.53731],[16.04301,61.53744],[16.04371,61.53777],[16.04424,61.53932],[16.04517,61.53972],[16.04768,61.53979],[16.04802,61.54021],[16.04909,61.54064],[16.05088,61.54061],[16.05177,61.54126],[16.05243,61.54412],[16.05318,61.54465],[16.05317,61.54516],[16.05362,61.54559],[16.05338,61.54621],[16.05548,61.54733],[16.0564,61.55035],[16.06109,61.5504],[16.06203,61.55129],[16.06339,61.5518],[16.06622,61.55237],[16.06547,61.5531],[16.06674,61.55396],[16.0653,61.55468],[16.06499,61.55472],[16.06501,61.55417],[16.06256,61.55369],[16.06136,61.55431],[16.06179,61.55489],[16.06051,61.5555],[16.05973,61.55553],[16.05939,61.55576],[16.08734,61.56631],[16.13983,61.58412],[16.15781,61.59095],[16.17541,61.59585],[16.18616,61.59069],[16.2022,61.59635],[16.20207,61.59742],[16.20732,61.59804],[16.20893,61.5986],[16.20984,61.59807],[16.22233,61.60258],[16.22148,61.603],[16.23591,61.608],[16.22939,61.61135],[16.24123,61.61502],[16.26733,61.63463],[16.26961,61.63597],[16.27085,61.63568],[16.27592,61.63754],[16.27538,61.63786],[16.27701,61.63823],[16.27535,61.63875],[16.2749,61.6391],[16.27469,61.63898],[16.27415,61.63917],[16.27327,61.63971],[16.27337,61.64012],[16.27284,61.64061],[16.27996,61.64437],[16.29866,61.64111],[16.32081,61.63895],[16.32424,61.64449]],[[16.37644,61.4984],[16.37213,61.49795],[16.36983,61.49735],[16.36813,61.49668],[16.366,61.49527],[16.3646,61.4935],[16.36421,61.49248],[16.36122,61.48964],[16.35726,61.48956],[16.35326,61.48874],[16.35018,61.48726],[16.34856,61.48561],[16.34779,61.4836],[16.34807,61.4818],[16.34956,61.48004],[16.35211,61.47859],[16.35024,61.47678],[16.34982,61.47507],[16.35037,61.4731],[16.3518,61.47147],[16.35151,61.4695],[16.3524,61.46781],[16.35108,61.46728],[16.34781,61.46696],[16.34477,61.46623],[16.34297,61.46551],[16.34132,61.46451],[16.33783,61.46331],[16.33524,61.46145],[16.33429,61.45926],[16.33511,61.45706],[16.33611,61.45609],[16.3377,61.4551],[16.34001,61.45417],[16.34667,61.45248],[16.35059,61.45218],[16.35526,61.45255],[16.35811,61.45308],[16.36058,61.45391],[16.36479,61.45497],[16.36575,61.455],[16.36681,61.45397],[16.36823,61.45308],[16.37231,61.45155],[16.37658,61.45086],[16.38086,61.45088],[16.38374,61.45132],[16.38594,61.45197],[16.39011,61.45197],[16.39367,61.45259],[16.39691,61.45386],[16.39953,61.45426],[16.40194,61.455],[16.4039,61.45599],[16.4055,61.45752],[16.40601,61.45886],[16.40592,61.45989],[16.40451,61.46185],[16.40173,61.4634],[16.39763,61.46458],[16.39795,61.47185],[16.39578,61.47295],[16.39845,61.4742],[16.39993,61.47529],[16.40097,61.47657],[16.40399,61.47701],[16.40421,61.47851],[16.40295,61.47978],[16.40218,61.48126],[16.39716,61.48121],[16.39671,61.48228],[16.39428,61.48406],[16.39208,61.48523],[16.39388,61.48708],[16.39418,61.48878],[16.39368,61.49024],[16.39243,61.49184],[16.39163,61.49358],[16.39017,61.49514],[16.38776,61.4964],[16.3839,61.49763],[16.38121,61.4981],[16.37644,61.4984]]]}},{"type":"Feature","id":"2183R002","properties":{"code":"2183R002","name":"Arbrå tätort"},"geometry":{"type":"Polygon","coordinates":[[[16.39402,61.48935],[16.3942,61.4881],[16.39388,61.48708],[16.39208,61.48523],[16.39428,61.48406],[16.39671,61.48228],[16.39716,61.48121],[16.40218,61.48126],[16.40295,61.47978],[16.40432,61.47832],[16.40399,61.47701],[16.40097,61.47657],[16.39993,61.47529],[16.39845,61.4742],[16.39578,61.47295],[16.39795,61.47185],[16.39763,61.46458],[16.40116,61.4636],[16.40328,61.46269],[16.40488,61.46152],[16.4058,61.46022],[16.40584,61.45818],[16.40526,61.4572],[16.4039,61.45599],[16.40138,61.45479],[16.39953,61.45426],[16.39691,61.45386],[16.39488,61.45295],[16.39283,61.45239],[16.3894,61.45191],[16.38594,61.45197],[16.38303,61.45117],[16.37938,61.45079],[16.37511,61.451],[16.37165,61.45174],[16.36823,61.45308],[16.36681,61.45397],[16.36575,61.455],[16.36479,61.45497],[16.35681,61.45279],[16.35131,61.45219],[16.34896,61.45223],[16.346,61.4526],[16.33929,61.45442],[16.33611,61.45609],[16.33463,61.4578],[16.33434,61.4597],[16.33554,61.46176],[16.33783,61.46331],[16.34132,61.46451],[16.34419,61.46603],[16.3476,61.46693],[16.35108,61.46728],[16.3524,61.46781],[16.35151,61.4695],[16.3518,61.47147],[16.35037,61.4731],[16.34982,61.47507],[16.35024,61.47678],[16.35211,61.47859],[16.34921,61.48034],[16.3483,61.48137],[16.34777,61.48281],[16.34856,61.48561],[16.3506,61.48753],[16.35265,61.48852],[16.35518,61.48924],[16.35796,61.48962],[16.36122,61.48964],[16.36421,61.49248],[16.36543,61.49462],[16.36716,61.49615],[16.36921,61.49713],[16.37107,61.4977],[16.37354,61.49819],[16.37568,61.49838],[16.37858,61.49833],[16.38259,61.49791],[16.38512,61.49728],[16.38882,61.49594],[16.39117,61.49423],[16.39402,61.48935]]]}},{"type":"Feature","id":"2183R003","properties":{"code":"2183R003","name":"Björktjära-Framnäs"},"geometry":{"type":"Polygon","coordinates":[[[16.39873,61.38124],[16.39466,61.37738],[16.39476,61.37647],[16.39695,61.37405],[16.39726,61.37193],[16.39978,61.36357],[16.39612,61.36389],[16.39495,61.35886],[16.39159,61.35937],[16.38597,61.35985],[16.38242,61.3604],[16.3782,61.36165],[16.37334,61.36423],[16.3685,61.36618],[16.36609,61.36741],[16.36356,61.3683],[16.36134,61.37019],[16.35668,61.37169],[16.35396,61.37282],[16.35155,61.37398],[16.35045,61.37485],[16.35023,61.3757],[16.35158,61.37615],[16.35499,61.37679],[16.35799,61.37693],[16.36027,61.37678],[16.36305,61.37629],[16.36738,61.37496],[16.36962,61.374],[16.3731,61.37441],[16.37652,61.37432],[16.37844,61.37522],[16.3812,61.37605],[16.38527,61.37661],[16.38708,61.37866],[16.39037,61.38024],[16.39465,61.38113],[16.39873,61.38124]]]}},{"type":"Feature","id":"2183R004","properties":{"code":"2183R004","name":"Bollnäs centrum"},"geometry":{"type":"Polygon","coordinates":[[[16.39612,61.36389],[16.39978,61.36357],[16.4001,61.36324],[16.40111,61.36135],[16.40093,61.35929],[16.40265,61.35809],[16.40744,61.34656],[16.4143,61.34629],[16.42108,61.34397],[16.42216,61.34134],[16.41618,61.34022],[16.40918,61.33987],[16.40498,61.34062],[16.40414,61.34251],[16.40046,61.34371],[16.39443,61.34517],[16.38774,61.34869],[16.39101,61.35141],[16.39495,61.35886],[16.39612,61.36389]]]}},{"type":"Feature","id":"2183R005","properties":{"code":"2183R005","name":"Bollnäs landsbygd"},"geometry":{"type":"Polygon","coordinates":[[[16.58757,61.43185],[16.57914,61.40016],[16.57555,61.39783],[16.57366,61.39936],[16.5736,61.40093],[16.57406,61.40134],[16.57368,61.40174],[16.57184,61.40236],[16.56634,61.40321],[16.56474,61.40369],[16.5645,61.40215],[16.56215,61.39945],[16.56729,61.39834],[16.56642,61.39735],[16.5672,61.39698],[16.56495,61.39454],[16.56554,61.39436],[16.56435,61.39363],[16.564,61.39314],[16.56433,61.39218],[16.5659,61.39135],[16.56254,61.38921],[16.55335,61.38158],[16.54565,61.37434],[16.54259,61.35405],[16.55083,61.34654],[16.55135,61.34633],[16.5514,61.34595],[16.55248,61.34495],[16.5653,61.33448],[16.56722,61.33523],[16.568,61.33489],[16.5659,61.33405],[16.50561,61.29994],[16.50243,61.30149],[16.50052,61.30056],[16.49889,61.30106],[16.4966,61.30141],[16.49463,61.30227],[16.4927,61.30209],[16.49108,61.30059],[16.48874,61.29938],[16.48835,61.29931],[16.48719,61.30016],[16.44451,61.2856],[16.45764,61.26607],[16.4563,61.26525],[16.45675,61.26403],[16.45857,61.26431],[16.46025,61.26182],[16.46744,61.25543],[16.45985,61.24867],[16.46086,61.24781],[16.46072,61.24759],[16.46137,61.24733],[16.4603,61.24712],[16.46041,61.24696],[16.4615,61.24723],[16.46431,61.24475],[16.46017,61.24104],[16.46814,61.24003],[16.45903,61.22944],[16.44362,61.21693],[16.44135,61.21779],[16.44056,61.21902],[16.43983,61.21875],[16.43958,61.21887],[16.43886,61.21871],[16.43529,61.2188],[16.43385,61.21856],[16.43466,61.21754],[16.43161,61.21746],[16.42967,61.21726],[16.42859,61.21694],[16.42892,61.21621],[16.4308,61.21511],[16.43105,61.21455],[16.43348,61.21372],[16.43462,61.21422],[16.43689,61.2137],[16.43714,61.21332],[16.4361,61.21293],[16.43486,61.21325],[16.43265,61.21252],[16.43653,61.21121],[16.43641,61.21083],[16.36774,61.15399],[16.37251,61.14916],[16.38471,61.15008],[16.38897,61.14708],[16.39046,61.1472],[16.39292,61.14914],[16.39877,61.14729],[16.39303,61.14305],[16.3975,61.1392],[16.39451,61.1391],[16.3912,61.13943],[16.3899,61.13968],[16.38873,61.14046],[16.38685,61.14035],[16.38337,61.14068],[16.38206,61.14105],[16.38146,61.14069],[16.37995,61.14145],[16.31699,61.11318],[16.31322,61.09001],[16.30615,61.0505],[16.26443,61.03732],[16.23179,61.02624],[16.23182,61.02592],[16.23104,61.02556],[16.23065,61.02585],[16.19801,61.01469],[16.13101,60.99214],[15.92135,61.00766],[15.93225,61.01834],[15.95257,61.03921],[15.95932,61.0364],[15.96778,61.04109],[15.96627,61.04173],[15.96706,61.04218],[15.95876,61.04564],[15.97022,61.05721],[15.97337,61.05577],[15.97752,61.05592],[15.98505,61.06002],[15.98444,61.06048],[15.98505,61.06052],[15.98564,61.06033],[15.99752,61.06693],[15.98035,61.0743],[15.98489,61.08425],[15.99591,61.10077],[16.0335,61.15236],[16.04564,61.14962],[16.05923,61.16529],[16.04604,61.16912],[16.04869,61.17296],[16.05798,61.17314],[16.05994,61.17663],[16.0614,61.17695],[16.06079,61.17756],[16.0626,61.17816],[16.06309,61.18033],[16.06261,61.18054],[16.06216,61.18046],[16.06679,61.18784],[16.0582,61.18968],[16.07714,61.21949],[16.07408,61.22285],[16.06688,61.22091],[16.05228,61.22405],[16.06672,61.23861],[16.08359,61.22956],[16.08271,61.22812],[16.08824,61.22692],[16.08891,61.22977],[16.09108,61.23162],[16.08895,61.23334],[16.10796,61.25604],[16.10814,61.2559],[16.10969,61.25602],[16.1118,61.25667],[16.11223,61.25696],[16.11204,61.25717],[16.12342,61.25245],[16.13152,61.25685],[16.13016,61.25748],[16.127,61.25791],[16.12987,61.26033],[16.13093,61.25988],[16.13118,61.26001],[16.13148,61.26069],[16.13115,61.26089],[16.13022,61.26096],[16.13143,61.26138],[16.12531,61.26589],[16.12558,61.26618],[16.12443,61.26704],[16.12314,61.26686],[16.12028,61.2684],[16.11982,61.2688],[16.1199,61.26944],[16.11952,61.26984],[16.11868,61.26992],[16.11833,61.26926],[16.12431,61.26384],[16.12303,61.26313],[16.11182,61.26514],[16.1719,61.33716],[16.17524,61.3368],[16.17642,61.33883],[16.1742,61.33932],[16.1794,61.34197],[16.18,61.34291],[16.17876,61.3434],[16.17763,61.34322],[16.17547,61.34237],[16.1747,61.34229],[16.17454,61.34281],[16.17519,61.34403],[16.17367,61.34486],[16.17444,61.34537],[16.17744,61.34576],[16.17745,61.34684],[16.1767,61.34812],[16.17857,61.35197],[16.17949,61.35298],[16.18551,61.35207],[16.18664,61.35475],[16.18273,61.35528],[16.183,61.35576],[16.18219,61.35587],[16.18258,61.35652],[16.18537,61.35647],[16.18696,61.35937],[16.19077,61.35925],[16.20639,61.37774],[16.21721,61.39275],[16.21655,61.39291],[16.21412,61.39441],[16.21274,61.3943],[16.21129,61.39565],[16.20953,61.39613],[16.21151,61.39868],[16.2154,61.3966],[16.21897,61.39513],[16.22842,61.40799],[16.25318,61.43984],[16.25434,61.4395],[16.25635,61.44005],[16.26032,61.43969],[16.26185,61.43927],[16.26594,61.43937],[16.26771,61.4388],[16.28968,61.43755],[16.28982,61.43772],[16.29113,61.43776],[16.29174,61.43741],[16.2978,61.43706],[16.29902,61.43716],[16.29947,61.43695],[16.31049,61.43633],[16.31081,61.4336],[16.31195,61.43193],[16.31314,61.43209],[16.31247,61.43333],[16.31287,61.43482],[16.312,61.43625],[16.39766,61.4314],[16.39883,61.43148],[16.39965,61.43128],[16.41165,61.4306],[16.49411,61.43773],[16.5477,61.43644],[16.58757,61.43185]],[[16.40615,61.38145],[16.40064,61.38108],[16.39801,61.38127],[16.39535,61.38119],[16.39097,61.38043],[16.38856,61.37953],[16.38708,61.37866],[16.38527,61.37661],[16.3812,61.37605],[16.37844,61.37522],[16.37652,61.37432],[16.3731,61.37441],[16.36962,61.374],[16.36738,61.37496],[16.36342,61.37619],[16.36096,61.37669],[16.35875,61.3769],[16.3565,61.37691],[16.35361,61.3766],[16.34971,61.3755],[16.3479,61.37458],[16.34641,61.37336],[16.3456,61.37197],[16.34519,61.36992],[16.34572,61.36846],[16.34662,61.36742],[16.34837,61.36622],[16.35057,61.36531],[16.34754,61.36366],[16.34423,61.36235],[16.34092,61.36182],[16.33843,61.36101],[16.33648,61.35994],[16.33515,61.35867],[16.33165,61.35742],[16.32934,61.35714],[16.32662,61.35647],[16.3237,61.35514],[16.32183,61.35352],[16.32111,61.35162],[16.3216,61.34991],[16.32331,61.34823],[16.3203,61.34762],[16.31792,61.34673],[16.31604,61.34556],[16.31486,61.34423],[16.31443,61.34282],[16.31476,61.34133],[16.31557,61.34023],[16.31712,61.33901],[16.3291,61.33394],[16.33136,61.33319],[16.33341,61.33275],[16.33721,61.33245],[16.3416,61.33285],[16.34464,61.33255],[16.34887,61.33264],[16.35303,61.33343],[16.35821,61.33564],[16.36004,61.33624],[16.3632,61.33682],[16.3654,61.33757],[16.36647,61.33733],[16.36844,61.33639],[16.36531,61.33529],[16.36327,61.33398],[16.3609,61.3331],[16.35911,61.33198],[16.35666,61.32859],[16.35622,61.32669],[16.35675,61.32525],[16.35764,61.32422],[16.35893,61.32328],[16.36077,61.3224],[16.36267,61.32084],[16.36606,61.31945],[16.36981,61.31879],[16.36737,61.31776],[16.36475,61.31606],[16.36364,61.3148],[16.3632,61.31329],[16.35952,61.31299],[16.35627,61.31227],[16.35224,61.31242],[16.34901,61.31221],[16.34614,61.31172],[16.34361,61.3109],[16.34188,61.31002],[16.34035,61.30875],[16.33965,61.30768],[16.33939,61.30656],[16.3396,61.30502],[16.34117,61.3028],[16.34168,61.30133],[16.34254,61.30034],[16.34378,61.29944],[16.34574,61.29848],[16.34822,61.29771],[16.35033,61.29733],[16.35408,61.29716],[16.35625,61.29732],[16.35856,61.29773],[16.36188,61.29761],[16.36525,61.29792],[16.37075,61.29703],[16.37448,61.29685],[16.37767,61.29714],[16.38054,61.29779],[16.38335,61.29898],[16.3855,61.30071],[16.38632,61.30257],[16.38594,61.30433],[16.38674,61.30606],[16.38936,61.3093],[16.39092,61.31039],[16.39487,61.31221],[16.39762,61.31458],[16.40182,61.31687],[16.40351,61.31874],[16.40383,61.32061],[16.40639,61.32021],[16.41022,61.32009],[16.41394,61.31966],[16.41753,61.31971],[16.42294,61.32047],[16.42742,61.32162],[16.42994,61.32263],[16.4316,61.32374],[16.43313,61.32542],[16.43365,61.32677],[16.43344,61.32814],[16.43219,61.32973],[16.43023,61.33098],[16.42712,61.33208],[16.42105,61.33346],[16.42035,61.33421],[16.4215,61.33639],[16.42138,61.3376],[16.42071,61.33887],[16.42184,61.33993],[16.42253,61.34125],[16.42422,61.34123],[16.42583,61.34053],[16.42835,61.33985],[16.43259,61.33945],[16.43762,61.33964],[16.44043,61.34018],[16.44422,61.34046],[16.44708,61.3411],[16.44968,61.34213],[16.45178,61.34362],[16.45365,61.34688],[16.45334,61.34896],[16.45591,61.35021],[16.45806,61.35222],[16.45858,61.35358],[16.45837,61.35496],[16.45722,61.35648],[16.4566,61.3581],[16.45507,61.35961],[16.4518,61.36121],[16.44934,61.36189],[16.44705,61.36225],[16.44627,61.36362],[16.44429,61.3652],[16.43905,61.36774],[16.43597,61.3687],[16.43265,61.37076],[16.42994,61.37174],[16.4286,61.37339],[16.42675,61.37457],[16.42342,61.37577],[16.41981,61.37634],[16.41861,61.37749],[16.41696,61.37848],[16.41387,61.37991],[16.41144,61.38072],[16.40935,61.38113],[16.40615,61.38145]]]}},{"type":"Feature","id":"2183R006","properties":{"code":"2183R006","name":"Gärdet"},"geometry":{"type":"Polygon","coordinates":[[[16.378,61.35502],[16.38471,61.35324],[16.38567,61.35365],[16.3868,61.35371],[16.39191,61.3533],[16.39101,61.35141],[16.38774,61.34869],[16.38801,61.3481],[16.38727,61.34802],[16.38678,61.34828],[16.37876,61.34916],[16.37325,61.35099],[16.36758,61.35184],[16.36596,61.35248],[16.36261,61.3544],[16.3632,61.35433],[16.36646,61.35704],[16.378,61.35502]]]}},{"type":"Feature","id":"2183R007","properties":{"code":"2183R007","name":"Höglunda-Brånan"},"geometry":{"type":"Polygon","coordinates":[[[16.35045,61.37485],[16.35155,61.37398],[16.35396,61.37282],[16.35668,61.37169],[16.36134,61.37019],[16.36356,61.3683],[16.36609,61.36741],[16.3685,61.36618],[16.37334,61.36423],[16.3782,61.36165],[16.38242,61.3604],[16.38597,61.35985],[16.39159,61.35937],[16.39495,61.35886],[16.39191,61.3533],[16.3868,61.35371],[16.38567,61.35365],[16.38471,61.35324],[16.378,61.35502],[16.36646,61.35704],[16.3632,61.35433],[16.36093,61.35479],[16.36133,61.3552],[16.36112,61.35643],[16.36044,61.35687],[16.35829,61.35765],[16.35768,61.35814],[16.33574,61.35933],[16.33843,61.36101],[16.34092,61.36182],[16.34423,61.36235],[16.34754,61.36366],[16.35057,61.36531],[16.34837,61.36622],[16.34662,61.36742],[16.34553,61.36879],[16.34518,61.37036],[16.34591,61.37266],[16.34708,61.37399],[16.35023,61.3757],[16.35045,61.37485]]]}},{"type":"Feature","id":"2183R008","properties":{"code":"2183R008","name":"Kilafors landsbygd"},"geometry":{"type":"Polygon","coordinates":[[[16.5659,61.33405],[16.61852,61.32081],[16.62714,61.31785],[16.63031,61.3174],[16.63901,61.31378],[16.67743,61.29683],[16.6965,61.28765],[16.69628,61.28708],[16.69665,61.28654],[16.69761,61.28664],[16.69793,61.28696],[16.70029,61.28584],[16.72014,61.27902],[16.72063,61.27882],[16.72051,61.27828],[16.72241,61.27821],[16.7232,61.27798],[16.7315,61.26058],[16.74045,61.24813],[16.73962,61.24778],[16.74061,61.24692],[16.74131,61.24695],[16.74271,61.24504],[16.74737,61.24202],[16.73306,61.23106],[16.7318,61.22085],[16.73144,61.22021],[16.72995,61.21901],[16.71486,61.21311],[16.73113,61.2033],[16.71244,61.17827],[16.69333,61.16272],[16.69188,61.16253],[16.69132,61.16328],[16.69088,61.16344],[16.68834,61.16285],[16.68785,61.16255],[16.68618,61.16264],[16.6876,61.16197],[16.6881,61.16084],[16.68817,61.15962],[16.68698,61.15848],[16.68734,61.15796],[16.68463,61.15576],[16.6857,61.15558],[16.68554,61.15508],[16.68373,61.1549],[16.68721,61.14648],[16.67571,61.14553],[16.67022,61.14438],[16.65477,61.13188],[16.654,61.13194],[16.65374,61.1315],[16.65406,61.13126],[16.65313,61.13122],[16.65287,61.13082],[16.65342,61.13078],[16.65414,61.13033],[16.65229,61.12994],[16.63804,61.12375],[16.63663,61.12288],[16.63637,61.12304],[16.62523,61.11836],[16.51934,61.07591],[16.52054,61.04804],[16.46509,61.05343],[16.40396,61.05208],[16.40398,61.05227],[16.40297,61.05239],[16.40246,61.05228],[16.40191,61.05261],[16.39833,61.05197],[16.30615,61.0505],[16.31322,61.09001],[16.31699,61.11318],[16.37995,61.14145],[16.38146,61.14069],[16.38206,61.14105],[16.38337,61.14068],[16.38685,61.14035],[16.38873,61.14046],[16.3899,61.13968],[16.3912,61.13943],[16.39451,61.1391],[16.3975,61.1392],[16.39303,61.14305],[16.39877,61.14729],[16.39292,61.14914],[16.39046,61.1472],[16.38897,61.14708],[16.38471,61.15008],[16.37251,61.14916],[16.36774,61.15399],[16.43641,61.21083],[16.43653,61.21121],[16.43265,61.21252],[16.43486,61.21325],[16.4361,61.21293],[16.43714,61.21332],[16.43689,61.2137],[16.43462,61.21422],[16.43348,61.21372],[16.43105,61.21455],[16.4308,61.21511],[16.42892,61.21621],[16.42859,61.21694],[16.42967,61.21726],[16.43161,61.21746],[16.43466,61.21754],[16.43385,61.21856],[16.43529,61.2188],[16.43886,61.21871],[16.43958,61.21887],[16.43983,61.21875],[16.44056,61.21902],[16.44135,61.21779],[16.44362,61.21693],[16.45903,61.22944],[16.46814,61.24003],[16.46017,61.24104],[16.46431,61.24475],[16.4615,61.24723],[16.46041,61.24696],[16.4603,61.24712],[16.46137,61.24733],[16.46072,61.24759],[16.46086,61.24781],[16.45985,61.24867],[16.46744,61.25543],[16.46025,61.26182],[16.45857,61.26431],[16.45675,61.26403],[16.4563,61.26525],[16.45764,61.26607],[16.44451,61.2856],[16.48719,61.30016],[16.48835,61.29931],[16.48874,61.29938],[16.49108,61.30059],[16.4927,61.30209],[16.49463,61.30227],[16.4966,61.30141],[16.49889,61.30106],[16.50052,61.30056],[16.50243,61.30149],[16.50561,61.29994],[16.5659,61.33405]],[[16.5458,61.24699],[16.54427,61.24725],[16.54058,61.24667],[16.53872,61.24753],[16.53788,61.24713],[16.53494,61.24726],[16.53174,61.24702],[16.52759,61.24602],[16.52479,61.24458],[16.5232,61.24295],[16.52271,61.24107],[16.5235,61.23921],[16.52549,61.23756],[16.52674,61.23558],[16.52955,61.23391],[16.53109,61.23241],[16.53375,61.23111],[16.53645,61.23035],[16.53646,61.22928],[16.53713,61.22791],[16.53847,61.22669],[16.53988,61.22589],[16.54219,61.22506],[16.54578,61.22432],[16.54905,61.22316],[16.55261,61.22252],[16.55911,61.22051],[16.56204,61.21991],[16.56443,61.21965],[16.56622,61.21774],[16.56768,61.21692],[16.56957,61.2162],[16.57031,61.21434],[16.56991,61.21079],[16.57088,61.20905],[16.57308,61.20742],[16.57617,61.20623],[16.57898,61.20568],[16.58128,61.20549],[16.58361,61.20552],[16.58626,61.20582],[16.58793,61.20576],[16.58922,61.20594],[16.59088,61.20582],[16.59352,61.20468],[16.59633,61.20402],[16.59952,61.20372],[16.60394,61.20376],[16.60671,61.20418],[16.61035,61.20525],[16.61659,61.20558],[16.62211,61.20559],[16.62494,61.20584],[16.62838,61.20671],[16.63179,61.2073],[16.63487,61.20843],[16.63744,61.20868],[16.63966,61.20913],[16.64522,61.20884],[16.64954,61.20923],[16.65355,61.21045],[16.65857,61.21282],[16.66008,61.21375],[16.66137,61.21507],[16.66195,61.21666],[16.66289,61.21797],[16.66313,61.22003],[16.66238,61.22139],[16.66133,61.22236],[16.65946,61.22341],[16.65773,61.22404],[16.65644,61.22436],[16.62561,61.22911],[16.61421,61.22707],[16.60661,61.22823],[16.58974,61.23584],[16.57861,61.23926],[16.57754,61.24026],[16.57558,61.24138],[16.57354,61.24211],[16.57099,61.24267],[16.57125,61.24417],[16.57257,61.24539],[16.55798,61.24703],[16.55353,61.24619],[16.55105,61.2466],[16.54934,61.24796],[16.5458,61.24699]]]}},{"type":"Feature","id":"2183R009","properties":{"code":"2183R009","name":"Kilafors-Sibo tätort"},"geometry":{"type":"Polygon","coordinates":[[[16.55105,61.2466],[16.55353,61.24619],[16.55798,61.24703],[16.57257,61.24539],[16.57125,61.24417],[16.57099,61.24267],[16.57354,61.24211],[16.57558,61.24138],[16.57754,61.24026],[16.57861,61.23926],[16.58974,61.23584],[16.60661,61.22823],[16.61421,61.22707],[16.62561,61.22911],[16.65644,61.22436],[16.65773,61.22404],[16.65946,61.22341],[16.66133,61.22236],[16.66238,61.22139],[16.66313,61.22003],[16.66289,61.21797],[16.66195,61.21666],[16.66137,61.21507],[16.66008,61.21375],[16.65857,61.21282],[16.65355,61.21045],[16.64954,61.20923],[16.64522,61.20884],[16.63966,61.20913],[16.63744,61.20868],[16.63487,61.20843],[16.63179,61.2073],[16.62838,61.20671],[16.62494,61.20584],[16.62211,61.20559],[16.61659,61.20558],[16.61035,61.20525],[16.60671,61.20418],[16.60394,61.20376],[16.59952,61.20372],[16.59633,61.20402],[16.59352,61.20468],[16.59088,61.20582],[16.58922,61.20594],[16.58793,61.20576],[16.58626,61.20582],[16.58361,61.20552],[16.58128,61.20549],[16.5783,61.20578],[16.57539,61.20646],[16.57256,61.20771],[16.57061,61.20936],[16.56991,61.21079],[16.57031,61.21434],[16.56957,61.2162],[16.56768,61.21692],[16.56622,61.21774],[16.56443,61.21965],[16.56204,61.21991],[16.55911,61.22051],[16.55261,61.22252],[16.54905,61.22316],[16.54578,61.22432],[16.54219,61.22506],[16.53988,61.22589],[16.53847,61.22669],[16.53713,61.22791],[16.53646,61.22928],[16.53645,61.23035],[16.53375,61.23111],[16.53109,61.23241],[16.52955,61.23391],[16.52674,61.23558],[16.52549,61.23756],[16.52408,61.23859],[16.52321,61.23963],[16.52275,61.24176],[16.52368,61.2436],[16.52628,61.24546],[16.52957,61.24662],[16.53352,61.2472],[16.53788,61.24713],[16.53872,61.24753],[16.54058,61.24667],[16.54427,61.24725],[16.5458,61.24699],[16.54934,61.24796],[16.55105,61.2466]]]}},{"type":"Feature","id":"2183R010","properties":{"code":"2183R010","name":"Ren"},"geometry":{"type":"Polygon","coordinates":[[[16.41008,61.38101],[16.41328,61.38015],[16.41696,61.37848],[16.41861,61.37749],[16.41981,61.37634],[16.42342,61.37577],[16.42662,61.37463],[16.4286,61.37339],[16.42994,61.37174],[16.43265,61.37076],[16.43597,61.3687],[16.43905,61.36774],[16.44429,61.3652],[16.44627,61.36362],[16.44705,61.36225],[16.45017,61.36169],[16.45309,61.36072],[16.45507,61.35961],[16.45635,61.35842],[16.45849,61.35463],[16.45858,61.35358],[16.45806,61.35222],[16.45591,61.35021],[16.45334,61.34896],[16.45372,61.34759],[16.45353,61.34652],[16.45237,61.34435],[16.45146,61.34332],[16.44851,61.34159],[16.44497,61.34059],[16.44043,61.34018],[16.43622,61.33951],[16.43188,61.33946],[16.42905,61.33973],[16.42642,61.34034],[16.42422,61.34123],[16.42252,61.34121],[16.42216,61.34134],[16.42108,61.34397],[16.4143,61.34629],[16.40744,61.34656],[16.40265,61.35809],[16.40093,61.35929],[16.40111,61.36135],[16.39978,61.36357],[16.39726,61.37193],[16.39695,61.37405],[16.39476,61.37647],[16.39466,61.37738],[16.39799,61.38063],[16.39894,61.38123],[16.40064,61.38108],[16.40314,61.38141],[16.40538,61.38147],[16.41008,61.38101]]]}},{"type":"Feature","id":"2183R011","properties":{"code":"2183R011","name":"Rengsjö kommundel"},"geometry":{"type":"Polygon","coordinates":[[[16.70819,61.52266],[16.70305,61.50116],[16.69653,61.48756],[16.69746,61.47466],[16.69792,61.47375],[16.69774,61.47297],[16.69919,61.47132],[16.69989,61.46969],[16.69879,61.46951],[16.69837,61.46834],[16.69746,61.46795],[16.6977,61.46717],[16.69746,61.46636],[16.69764,61.46513],[16.69897,61.46514],[16.7014,61.46476],[16.70162,61.46459],[16.70144,61.46376],[16.70214,61.46333],[16.70233,61.46226],[16.70186,61.4617],[16.7021,61.46087],[16.70172,61.46059],[16.70203,61.46039],[16.70157,61.46007],[16.70304,61.45927],[16.70512,61.45964],[16.70615,61.45958],[16.70678,61.45884],[16.70788,61.45867],[16.70963,61.45752],[16.70979,61.45727],[16.70937,61.45686],[16.70999,61.45654],[16.70881,61.45618],[16.7086,61.45594],[16.7093,61.45553],[16.70951,61.45508],[16.71049,61.45464],[16.71013,61.45386],[16.71152,61.45307],[16.7126,61.45282],[16.71195,61.45211],[16.71229,61.45166],[16.71335,61.45132],[16.71396,61.45086],[16.70306,61.43708],[16.7063,61.43263],[16.70891,61.42796],[16.70801,61.42763],[16.70814,61.42732],[16.70933,61.42714],[16.71352,61.41909],[16.7274,61.39592],[16.73389,61.38708],[16.73601,61.38643],[16.73456,61.38545],[16.73114,61.37696],[16.72565,61.37221],[16.72545,61.36055],[16.71402,61.34472],[16.71494,61.34405],[16.71295,61.34306],[16.70013,61.32506],[16.69634,61.3235],[16.67812,61.32526],[16.6525,61.32016],[16.63031,61.3174],[16.62714,61.31785],[16.61852,61.32081],[16.5659,61.33405],[16.568,61.33489],[16.56722,61.33523],[16.5653,61.33448],[16.55248,61.34495],[16.5514,61.34595],[16.55135,61.34633],[16.55083,61.34654],[16.54259,61.35405],[16.54565,61.37434],[16.55335,61.38158],[16.56254,61.38921],[16.5659,61.39135],[16.56433,61.39218],[16.564,61.39314],[16.56435,61.39363],[16.56554,61.39436],[16.56495,61.39454],[16.5672,61.39698],[16.56642,61.39735],[16.56729,61.39834],[16.56215,61.39945],[16.5645,61.40215],[16.56474,61.40369],[16.56634,61.40321],[16.57184,61.40236],[16.57368,61.40174],[16.57406,61.40134],[16.5736,61.40093],[16.57366,61.39936],[16.57555,61.39783],[16.57914,61.40016],[16.58757,61.43185],[16.60086,61.45183],[16.64113,61.48598],[16.648,61.49144],[16.65707,61.51261],[16.67569,61.52081],[16.70819,61.52266]]]}},{"type":"Feature","id":"2183R012","properties":{"code":"2183R012","name":"Säversta-Granberg-Hertsjö"},"geometry":{"type":"Polygon","coordinates":[[[16.38774,61.34869],[16.39443,61.34517],[16.40046,61.34371],[16.40414,61.34251],[16.40498,61.34062],[16.40918,61.33987],[16.41618,61.34022],[16.42216,61.34134],[16.42252,61.34121],[16.42184,61.33993],[16.42071,61.33887],[16.42138,61.3376],[16.4215,61.33639],[16.42035,61.33421],[16.42105,61.33346],[16.42842,61.3317],[16.43023,61.33098],[16.43171,61.33011],[16.43281,61.32912],[16.43356,61.3278],[16.43358,61.32642],[16.4329,61.3251],[16.43124,61.32344],[16.42913,61.32226],[16.4268,61.32144],[16.42143,61.32017],[16.41753,61.31971],[16.41465,61.31963],[16.41022,61.32009],[16.40639,61.32021],[16.40383,61.32061],[16.40351,61.31874],[16.40182,61.31687],[16.39762,61.31458],[16.39487,61.31221],[16.39092,61.31039],[16.38936,61.3093],[16.38674,61.30606],[16.38594,61.30433],[16.38632,61.30257],[16.38573,61.30104],[16.38393,61.29934],[16.38113,61.29799],[16.37767,61.29714],[16.37448,61.29685],[16.37075,61.29703],[16.36525,61.29792],[16.36188,61.29761],[16.35856,61.29773],[16.35625,61.29732],[16.35403,61.29715],[16.35108,61.29725],[16.34892,61.29756],[16.34516,61.29873],[16.34332,61.29973],[16.3422,61.30067],[16.34117,61.3028],[16.3396,61.30502],[16.33939,61.30656],[16.33965,61.30768],[16.34035,61.30875],[16.34188,61.31002],[16.34361,61.3109],[16.34614,61.31172],[16.34901,61.31221],[16.35224,61.31242],[16.35627,61.31227],[16.35952,61.31299],[16.3632,61.31329],[16.36364,61.3148],[16.36475,61.31606],[16.36737,61.31776],[16.36981,61.31879],[16.36606,61.31945],[16.36267,61.32084],[16.36077,61.3224],[16.35893,61.32328],[16.35764,61.32422],[16.35675,61.32525],[16.35622,61.32669],[16.35666,61.32859],[16.35911,61.33198],[16.3609,61.3331],[16.36327,61.33398],[16.36531,61.33529],[16.36844,61.33639],[16.36725,61.33691],[16.36794,61.33734],[16.36579,61.34082],[16.36734,61.34367],[16.37757,61.34457],[16.38104,61.34444],[16.38388,61.34457],[16.38547,61.34527],[16.38651,61.34738],[16.38727,61.34802],[16.38801,61.3481],[16.38774,61.34869]]]}},{"type":"Feature","id":"2183R013","properties":{"code":"2183R013","name":"Sävsberg-Heden"},"geometry":{"type":"Polygon","coordinates":[[[16.35768,61.35814],[16.35829,61.35765],[16.36044,61.35687],[16.36112,61.35643],[16.36133,61.3552],[16.36093,61.35479],[16.36261,61.3544],[16.36596,61.35248],[16.36758,61.35184],[16.37325,61.35099],[16.37876,61.34916],[16.38678,61.34828],[16.38727,61.34802],[16.38651,61.34738],[16.38547,61.34527],[16.38388,61.34457],[16.38104,61.34444],[16.37757,61.34457],[16.36734,61.34367],[16.36579,61.34082],[16.36794,61.33734],[16.36725,61.33691],[16.36647,61.33733],[16.3654,61.33757],[16.3632,61.33682],[16.36004,61.33624],[16.35635,61.33496],[16.35422,61.33385],[16.35168,61.33308],[16.3474,61.33255],[16.34393,61.33258],[16.3416,61.33285],[16.33721,61.33245],[16.33415,61.33265],[16.33199,61.33303],[16.3291,61.33394],[16.31813,61.33848],[16.31591,61.33989],[16.31476,61.34133],[16.31455,61.34353],[16.31604,61.34556],[16.31907,61.34722],[16.32093,61.34779],[16.32331,61.34823],[16.32184,61.34959],[16.32112,61.35128],[16.3214,61.35279],[16.32241,61.35417],[16.3237,61.35514],[16.32587,61.3562],[16.32868,61.35701],[16.33165,61.35742],[16.33515,61.35867],[16.33574,61.35933],[16.35768,61.35814]]]}}]}