{"type":"FeatureCollection","features":[{"type":"Feature","id":"2184R001","properties":{"code":"2184R001","name":"Bjuråkersbygden"},"geometry":{"type":"Polygon","coordinates":[[[16.08021,62.22448],[16.12193,62.20374],[16.17412,62.21387],[16.18938,62.20949],[16.37898,62.15195],[16.57075,62.09156],[16.58794,62.08627],[16.58918,62.08674],[16.59133,62.08645],[16.59424,62.08544],[16.5931,62.08466],[16.63915,62.07025],[16.66616,62.0626],[16.71146,62.0494],[16.71872,62.04369],[16.73973,62.01885],[16.79318,61.97682],[16.79295,61.9762],[16.82201,61.96798],[16.85516,61.96009],[16.88135,61.95115],[16.85583,61.93758],[16.89468,61.91236],[16.93391,61.8885],[16.91404,61.85548],[16.89305,61.83619],[16.85867,61.82829],[16.86352,61.8155],[16.81048,61.80545],[16.77651,61.80238],[16.75335,61.80785],[16.61499,61.84193],[16.60806,61.84074],[16.60727,61.84101],[16.60686,61.84052],[16.60089,61.84189],[16.59698,61.84036],[16.59723,61.83892],[16.59689,61.83754],[16.59403,61.83515],[16.59237,61.83557],[16.59197,61.83576],[16.59212,61.83602],[16.59059,61.83643],[16.59075,61.83664],[16.58893,61.8369],[16.58713,61.8378],[16.58753,61.83892],[16.5855,61.83926],[16.585,61.84022],[16.58528,61.84138],[16.58638,61.84127],[16.58721,61.84236],[16.58696,61.84268],[16.58611,61.84293],[16.58554,61.84302],[16.5836,61.8426],[16.58266,61.84155],[16.58189,61.8413],[16.58004,61.84159],[16.56818,61.84221],[16.56849,61.84347],[16.56286,61.8441],[16.56086,61.84282],[16.55478,61.84306],[16.54835,61.84467],[16.54696,61.84462],[16.54621,61.84487],[16.54589,61.84489],[16.54577,61.84472],[16.54308,61.84506],[16.54309,61.8453],[16.54373,61.84555],[16.5437,61.84584],[16.54158,61.84636],[16.54129,61.84734],[16.53857,61.84852],[16.5377,61.84858],[16.53636,61.847],[16.52953,61.84775],[16.53091,61.84949],[16.51644,61.85216],[16.51726,61.85262],[16.49948,61.8573],[16.47094,61.8641],[16.34918,61.88294],[16.35735,61.88658],[16.35735,61.88792],[16.35594,61.8896],[16.35439,61.889],[16.35413,61.88953],[16.35811,61.89025],[16.36046,61.88888],[16.36489,61.8898],[16.36478,61.89003],[16.36403,61.89024],[16.35844,61.89018],[16.37907,61.90612],[16.32837,61.92628],[16.28343,61.91574],[16.28088,61.91701],[16.25204,61.93228],[16.23546,61.94722],[16.19775,62.05284],[16.16479,62.08523],[16.16329,62.09426],[16.17532,62.09493],[16.15456,62.13385],[16.10294,62.17996],[16.08446,62.19681],[16.07371,62.20617],[16.07565,62.20655],[16.07596,62.20731],[16.0742,62.20791],[16.07133,62.2093],[16.06986,62.21048],[16.06873,62.21055],[16.06529,62.21331],[16.06592,62.21398],[16.06713,62.21459],[16.06589,62.21593],[16.06528,62.21624],[16.06531,62.21694],[16.0663,62.21826],[16.06896,62.2195],[16.06941,62.21996],[16.07176,62.22038],[16.07439,62.21998],[16.07475,62.22026],[16.07413,62.22097],[16.07477,62.2222],[16.07604,62.22269],[16.07668,62.22274],[16.0772,62.22243],[16.07764,62.22258],[16.07724,62.22281],[16.07795,62.22294],[16.07755,62.22361],[16.08021,62.22448]]]}},{"type":"Feature","id":"2184R002","properties":{"code":"2184R002","name":"Björkberg-Maln"},"geometry":{"type":"Polygon","coordinates":[[[17.13581,61.75564],[17.13673,61.75504],[17.13951,61.75505],[17.14174,61.75483],[17.14467,61.75417],[17.14835,61.75365],[17.15098,61.75287],[17.15266,61.75209],[17.15434,61.75086],[17.15569,61.74844],[17.15509,61.7463],[17.15383,61.74505],[17.15246,61.74424],[17.14895,61.74304],[17.14577,61.74248],[17.14321,61.74173],[17.14016,61.74125],[17.13842,61.7397],[17.1387,61.73953],[17.1423,61.73884],[17.14722,61.73734],[17.14932,61.73643],[17.15162,61.73599],[17.15345,61.73541],[17.15503,61.73467],[17.15644,61.73366],[17.16183,61.73124],[17.16373,61.72972],[17.16721,61.72988],[17.1709,61.72952],[17.17468,61.72857],[17.17817,61.72711],[17.18087,61.72828],[17.18403,61.72901],[17.187,61.7294],[17.18998,61.72944],[17.19251,61.73001],[17.19481,61.73026],[17.1972,61.7303],[17.19971,61.73012],[17.20194,61.72974],[17.20437,61.72903],[17.20805,61.73012],[17.21188,61.73068],[17.21578,61.73065],[17.21959,61.73003],[17.2221,61.72918],[17.22422,61.72799],[17.22553,61.72666],[17.22611,61.72523],[17.22598,61.72281],[17.22539,61.72138],[17.22345,61.71929],[17.2217,61.71817],[17.21994,61.71746],[17.21504,61.71606],[17.20964,61.7154],[17.20589,61.71538],[17.19877,61.71615],[17.19786,61.71465],[17.19686,61.71374],[17.19175,61.71094],[17.18798,61.70982],[17.18416,61.70944],[17.18023,61.70952],[17.17671,61.71004],[17.17432,61.7108],[17.17241,61.71175],[17.17021,61.7123],[17.16837,61.71303],[17.16743,61.71314],[17.16514,61.71298],[17.16237,61.71306],[17.15755,61.71349],[17.15502,61.71399],[17.15333,61.714],[17.15109,61.71362],[17.14895,61.71348],[17.14454,61.71369],[17.14423,61.71928],[17.14449,61.72037],[17.14589,61.72076],[17.14234,61.72171],[17.14363,61.72262],[17.14432,61.72349],[17.14053,61.72406],[17.14082,61.7247],[17.14248,61.72561],[17.13918,61.72699],[17.13579,61.73002],[17.13543,61.73003],[17.13315,61.73314],[17.13496,61.73434],[17.13294,61.73546],[17.13425,61.73643],[17.1338,61.73662],[17.13502,61.7379],[17.13047,61.73932],[17.12938,61.73937],[17.12835,61.74182],[17.12948,61.7424],[17.13096,61.74397],[17.13533,61.75541],[17.13581,61.75564]]]}},{"type":"Feature","id":"2184R003","properties":{"code":"2184R003","name":"Delsbo"},"geometry":{"type":"Polygon","coordinates":[[[16.56335,61.81957],[16.56669,61.81991],[16.57216,61.81985],[16.57581,61.81939],[16.57842,61.81863],[16.58054,61.81759],[16.58227,61.81604],[16.58288,61.81462],[16.58276,61.81332],[16.58462,61.81143],[16.58499,61.80953],[16.59199,61.80501],[16.62793,61.79487],[16.63376,61.79267],[16.63532,61.79102],[16.63565,61.78897],[16.63679,61.78728],[16.63946,61.78559],[16.64059,61.78358],[16.64042,61.78209],[16.63953,61.78077],[16.6379,61.77945],[16.63555,61.77823],[16.63115,61.77709],[16.62691,61.77668],[16.62406,61.77668],[16.62152,61.77688],[16.61938,61.77725],[16.6151,61.77867],[16.61272,61.77856],[16.61051,61.77867],[16.60388,61.77974],[16.60027,61.78118],[16.5975,61.78347],[16.59692,61.78449],[16.59658,61.78644],[16.59711,61.78852],[16.59272,61.78965],[16.58766,61.79046],[16.58512,61.79106],[16.58373,61.79006],[16.58159,61.78911],[16.57967,61.78858],[16.57619,61.78796],[16.57147,61.78784],[16.56741,61.78847],[16.56248,61.78781],[16.55829,61.78778],[16.55569,61.7869],[16.55396,61.78523],[16.55129,61.78397],[16.54804,61.78319],[16.54425,61.78293],[16.54101,61.7831],[16.5389,61.7834],[16.53522,61.78454],[16.53379,61.78533],[16.53138,61.78721],[16.53037,61.78841],[16.52989,61.78966],[16.52627,61.78963],[16.52103,61.79027],[16.51773,61.79108],[16.51553,61.79209],[16.51394,61.79332],[16.51275,61.79486],[16.51244,61.79662],[16.5129,61.79805],[16.51408,61.79935],[16.51595,61.8005],[16.519,61.80154],[16.52285,61.80211],[16.52504,61.8037],[16.52348,61.80542],[16.5233,61.8075],[16.52443,61.80915],[16.52771,61.81159],[16.5304,61.81279],[16.5339,61.81354],[16.53575,61.81451],[16.53764,61.81516],[16.5404,61.81572],[16.54412,61.81596],[16.54496,61.81699],[16.54665,61.81816],[16.54893,61.8192],[16.55112,61.81985],[16.55404,61.82033],[16.55726,61.82045],[16.56034,61.82021],[16.56335,61.81957]]]}},{"type":"Feature","id":"2184R004","properties":{"code":"2184R004","name":"Delsbo omland"},"geometry":{"type":"Polygon","coordinates":[[[16.25204,61.93228],[16.28343,61.91574],[16.32837,61.92628],[16.37907,61.90612],[16.35844,61.89018],[16.36403,61.89024],[16.36478,61.89003],[16.36489,61.8898],[16.36046,61.88888],[16.35811,61.89025],[16.35413,61.88953],[16.35439,61.889],[16.35594,61.8896],[16.35735,61.88792],[16.35735,61.88658],[16.34918,61.88294],[16.47094,61.8641],[16.49948,61.8573],[16.51726,61.85262],[16.51644,61.85216],[16.53091,61.84949],[16.52953,61.84775],[16.53636,61.847],[16.5377,61.84858],[16.53857,61.84852],[16.54129,61.84734],[16.54158,61.84636],[16.5437,61.84584],[16.54373,61.84555],[16.54309,61.8453],[16.54308,61.84506],[16.54577,61.84472],[16.54589,61.84489],[16.54621,61.84487],[16.54696,61.84462],[16.54835,61.84467],[16.55478,61.84306],[16.56086,61.84282],[16.56286,61.8441],[16.56849,61.84347],[16.56818,61.84221],[16.58004,61.84159],[16.58189,61.8413],[16.58266,61.84155],[16.5836,61.8426],[16.58554,61.84302],[16.58611,61.84293],[16.58696,61.84268],[16.58721,61.84236],[16.58638,61.84127],[16.58528,61.84138],[16.585,61.84022],[16.5855,61.83926],[16.58753,61.83892],[16.58713,61.8378],[16.58893,61.8369],[16.59075,61.83664],[16.59059,61.83643],[16.59212,61.83602],[16.59197,61.83576],[16.59237,61.83557],[16.59403,61.83515],[16.59689,61.83754],[16.59723,61.83892],[16.59698,61.84036],[16.60089,61.84189],[16.60686,61.84052],[16.60727,61.84101],[16.60806,61.84074],[16.61499,61.84193],[16.75335,61.80785],[16.77651,61.80238],[16.77377,61.77058],[16.77247,61.77014],[16.77248,61.76924],[16.77204,61.76929],[16.77236,61.76905],[16.77185,61.76916],[16.77186,61.7689],[16.77156,61.76897],[16.77127,61.76877],[16.77149,61.76865],[16.77054,61.76812],[16.77021,61.7676],[16.77041,61.76635],[16.76935,61.76365],[16.77016,61.76225],[16.76983,61.76207],[16.76921,61.76235],[16.76866,61.76222],[16.76707,61.76234],[16.76639,61.76187],[16.76508,61.76161],[16.76436,61.76049],[16.76227,61.75955],[16.75185,61.74059],[16.7493,61.73926],[16.74674,61.74014],[16.74556,61.73995],[16.73129,61.73231],[16.73297,61.73205],[16.73277,61.73154],[16.73444,61.73117],[16.73456,61.7308],[16.73671,61.73062],[16.73743,61.73021],[16.73968,61.72982],[16.74426,61.72838],[16.74482,61.70842],[16.74958,61.7079],[16.74762,61.70533],[16.74676,61.70497],[16.74633,61.70513],[16.74391,61.70444],[16.74272,61.70249],[16.74412,61.70252],[16.74425,61.70198],[16.74578,61.70146],[16.74732,61.69986],[16.74501,61.69934],[16.74487,61.66614],[16.7526,61.63163],[16.75167,61.63153],[16.75073,61.63176],[16.74889,61.63188],[16.7493,61.63261],[16.75064,61.63347],[16.75055,61.63362],[16.74998,61.63357],[16.75017,61.63416],[16.74907,61.63384],[16.74876,61.63351],[16.74771,61.63328],[16.74577,61.6334],[16.74453,61.63391],[16.741,61.63349],[16.74044,61.63278],[16.73829,61.63179],[16.73849,61.63155],[16.73731,61.63179],[16.73693,61.63139],[16.73586,61.63144],[16.73251,61.63237],[16.73178,61.62939],[16.73409,61.62698],[16.73418,61.62617],[16.73466,61.62618],[16.73508,61.62595],[16.6994,61.62642],[16.63283,61.62432],[16.59122,61.6463],[16.548,61.65897],[16.51301,61.6794],[16.47586,61.69685],[16.43288,61.7175],[16.37346,61.7463],[16.32466,61.77041],[16.2746,61.79375],[16.27904,61.79758],[16.29173,61.80038],[16.29511,61.80278],[16.29331,61.80492],[16.29269,61.80522],[16.29896,61.81738],[16.30561,61.82395],[16.32308,61.84498],[16.32814,61.86085],[16.33534,61.86993],[16.33771,61.87048],[16.33859,61.87227],[16.3356,61.87272],[16.33681,61.87442],[16.30659,61.88042],[16.29908,61.88631],[16.27678,61.88688],[16.25819,61.90371],[16.25204,61.93228]],[[16.52556,61.78969],[16.52989,61.78966],[16.53037,61.78841],[16.53138,61.78721],[16.53379,61.78533],[16.53579,61.7843],[16.53961,61.78327],[16.54511,61.78294],[16.54872,61.7833],[16.55187,61.78418],[16.55437,61.78551],[16.55569,61.7869],[16.55829,61.78778],[16.56248,61.78781],[16.56741,61.78847],[16.57147,61.78784],[16.57619,61.78796],[16.57967,61.78858],[16.58159,61.78911],[16.58373,61.79006],[16.58512,61.79106],[16.58766,61.79046],[16.59272,61.78965],[16.59711,61.78852],[16.59658,61.78644],[16.59725,61.78381],[16.59971,61.78153],[16.60249,61.78017],[16.60518,61.77944],[16.6098,61.77875],[16.61272,61.77856],[16.6151,61.77867],[16.61938,61.77725],[16.62329,61.77672],[16.62619,61.77665],[16.63042,61.77699],[16.63254,61.77735],[16.63495,61.77801],[16.63664,61.77871],[16.63841,61.77982],[16.63982,61.78109],[16.64053,61.78243],[16.64059,61.78358],[16.64002,61.78494],[16.63873,61.78621],[16.63679,61.78728],[16.63565,61.78897],[16.63532,61.79102],[16.63376,61.79267],[16.62793,61.79487],[16.59199,61.80501],[16.58499,61.80953],[16.58462,61.81143],[16.58276,61.81332],[16.58288,61.81462],[16.5825,61.81568],[16.58096,61.81731],[16.57901,61.81839],[16.57714,61.81906],[16.5744,61.81964],[16.57216,61.81985],[16.56669,61.81991],[16.56341,61.81955],[16.56034,61.82021],[16.55715,61.82045],[16.55475,61.82039],[16.55177,61.81999],[16.54893,61.8192],[16.54665,61.81816],[16.54496,61.81699],[16.54412,61.81596],[16.5404,61.81572],[16.53759,61.81515],[16.53575,61.81451],[16.5339,61.81354],[16.53165,61.81313],[16.52978,61.81257],[16.52729,61.81132],[16.52443,61.80915],[16.5233,61.8075],[16.52348,61.80542],[16.52504,61.8037],[16.52285,61.80211],[16.52043,61.80183],[16.51836,61.80138],[16.51495,61.79996],[16.5129,61.79805],[16.51244,61.79594],[16.51295,61.7945],[16.51396,61.7933],[16.5155,61.79211],[16.51712,61.79131],[16.52103,61.79027],[16.52556,61.78969]]]}},{"type":"Feature","id":"2184R005","properties":{"code":"2184R005","name":"Enånger-Njutångersbygden"},"geometry":{"type":"Polygon","coordinates":[[[17.04653,61.6391],[17.04701,61.6377],[17.04841,61.63604],[17.04666,61.63497],[17.04566,61.63397],[17.04501,61.63259],[17.04506,61.63132],[17.05308,61.63037],[17.06001,61.62886],[17.06821,61.62594],[17.07005,61.6269],[17.07257,61.62887],[17.07558,61.62942],[17.07796,61.63022],[17.08278,61.62897],[17.0857,61.62868],[17.08796,61.6287],[17.09608,61.62979],[17.10028,61.63115],[17.10939,61.62303],[17.11301,61.62161],[17.12487,61.62269],[17.13414,61.62375],[17.14008,61.62728],[17.14573,61.62553],[17.15805,61.62298],[17.16307,61.62358],[17.16678,61.62372],[17.17047,61.62449],[17.17326,61.62479],[17.17823,61.62408],[17.18281,61.62497],[17.19104,61.62477],[17.19281,61.62532],[17.19968,61.62495],[17.21054,61.62278],[17.21052,61.6212],[17.21145,61.61954],[17.22302,61.61998],[17.22782,61.62257],[17.23087,61.62656],[17.28525,61.61755],[17.29038,61.60163],[17.34829,61.59182],[17.48673,61.56864],[17.48131,61.52813],[17.43041,61.50096],[17.84168,61.37165],[17.13856,61.39494],[17.11362,61.40277],[17.09065,61.42042],[17.07567,61.42952],[17.042,61.44888],[16.94615,61.45629],[16.90636,61.4573],[16.87508,61.46783],[16.8376,61.4817],[16.81944,61.48908],[16.81806,61.48939],[16.7865,61.5051],[16.77759,61.50932],[16.71733,61.53574],[16.70731,61.53473],[16.65707,61.51261],[16.648,61.49144],[16.61133,61.50471],[16.60769,61.51823],[16.60611,61.55149],[16.60485,61.59231],[16.60111,61.59187],[16.60041,61.59158],[16.59608,61.59161],[16.59473,61.59136],[16.59207,61.59281],[16.58888,61.59247],[16.58505,61.59258],[16.57772,61.59013],[16.57005,61.58657],[16.55844,61.59334],[16.55524,61.59472],[16.55524,61.5954],[16.55467,61.59563],[16.55498,61.59592],[16.5544,61.59624],[16.55442,61.59668],[16.55589,61.59667],[16.55776,61.59748],[16.557,61.59894],[16.55817,61.59925],[16.56155,61.59841],[16.63283,61.62432],[16.6994,61.62642],[16.73508,61.62595],[16.73466,61.62618],[16.73418,61.62617],[16.73409,61.62698],[16.73178,61.62939],[16.73251,61.63237],[16.73586,61.63144],[16.73693,61.63139],[16.73731,61.63179],[16.73849,61.63155],[16.73829,61.63179],[16.74044,61.63278],[16.741,61.63349],[16.74453,61.63391],[16.74577,61.6334],[16.74771,61.63328],[16.74876,61.63351],[16.74907,61.63384],[16.75017,61.63416],[16.74998,61.63357],[16.75055,61.63362],[16.75064,61.63347],[16.7493,61.63261],[16.74882,61.63207],[16.74898,61.63183],[16.75073,61.63176],[16.75167,61.63153],[16.75309,61.63169],[16.75356,61.63152],[16.75584,61.63157],[16.7573,61.63125],[16.75919,61.63124],[16.75986,61.63103],[16.76075,61.63035],[16.76306,61.62982],[16.76448,61.62953],[16.76622,61.62957],[16.76585,61.63011],[16.76746,61.63004],[16.7702,61.6289],[16.77136,61.62915],[16.77248,61.62896],[16.77266,61.62923],[16.77208,61.62957],[16.77331,61.6297],[16.77417,61.62924],[16.77468,61.62944],[16.77492,61.62924],[16.77545,61.62928],[16.77706,61.62858],[16.77729,61.62793],[16.77821,61.62706],[16.77877,61.627],[16.77946,61.62737],[16.78051,61.62726],[16.78156,61.62676],[16.78305,61.62679],[16.7843,61.62623],[16.78552,61.62603],[16.78601,61.6258],[16.7861,61.62527],[16.78779,61.62441],[16.7871,61.62368],[16.788,61.62302],[16.78732,61.62224],[16.78816,61.62108],[16.78865,61.62088],[16.78942,61.62149],[16.79033,61.62145],[16.79067,61.62111],[16.79021,61.6204],[16.79231,61.61983],[16.79637,61.61963],[16.79725,61.61936],[16.79829,61.61951],[16.79913,61.61916],[16.80171,61.62016],[16.80302,61.6204],[16.80331,61.6203],[16.8042,61.62061],[16.80806,61.62033],[16.80842,61.62162],[16.81383,61.62251],[16.81604,61.62135],[16.81788,61.61958],[16.82224,61.61925],[16.82799,61.61267],[16.85435,61.63142],[16.85463,61.63006],[16.85517,61.62994],[16.85533,61.62936],[16.85429,61.62891],[16.85454,61.62857],[16.85356,61.62822],[16.85346,61.62789],[16.85399,61.62746],[16.85589,61.62699],[16.85601,61.62642],[16.85793,61.62635],[16.85815,61.62598],[16.85902,61.62591],[16.86005,61.62549],[16.86024,61.6247],[16.85989,61.62407],[16.8609,61.62336],[16.862,61.62359],[16.86268,61.62309],[16.86432,61.62365],[16.86601,61.62336],[16.86731,61.62339],[16.86822,61.62302],[16.86942,61.62289],[16.87115,61.62238],[16.87344,61.62216],[16.87263,61.6215],[16.87336,61.62106],[16.87341,61.62069],[16.87417,61.6205],[16.87528,61.61942],[16.87695,61.61913],[16.87835,61.61847],[16.8786,61.61809],[16.87984,61.61799],[16.88063,61.61733],[16.88013,61.61708],[16.88052,61.61696],[16.88096,61.61614],[16.88133,61.61608],[16.88168,61.61629],[16.88167,61.61606],[16.88211,61.61618],[16.88242,61.61602],[16.88243,61.61523],[16.88285,61.61504],[16.88305,61.61426],[16.88358,61.6139],[16.89883,61.62345],[16.89901,61.62468],[16.89872,61.62545],[16.89901,61.62633],[16.90851,61.63398],[16.92517,61.63307],[16.92483,61.63261],[16.92672,61.63249],[16.92717,61.63297],[16.9581,61.6312],[16.95618,61.62775],[16.95774,61.62618],[16.95992,61.62453],[16.96139,61.62131],[16.96531,61.61906],[16.98087,61.62709],[16.97899,61.62792],[16.98347,61.63032],[16.98555,61.62953],[16.99339,61.63371],[16.99403,61.63483],[17.01012,61.63044],[17.01298,61.63065],[17.01638,61.63101],[17.01915,61.63504],[17.03249,61.63902],[17.03529,61.63896],[17.03897,61.64057],[17.04398,61.64099],[17.0449,61.64055],[17.04653,61.6391]]]}},{"type":"Feature","id":"2184R006","properties":{"code":"2184R006","name":"Forsa-Näsvikens omland"},"geometry":{"type":"Polygon","coordinates":[[[16.8799,61.83317],[16.88046,61.81897],[16.8797,61.8188],[16.87827,61.81678],[16.8806,61.81624],[16.88088,61.80663],[16.93622,61.77958],[16.94845,61.7688],[16.96917,61.76259],[16.97211,61.76233],[16.9742,61.76142],[16.97357,61.76054],[16.97576,61.76023],[16.97579,61.75939],[16.97839,61.75822],[16.97903,61.75699],[16.97906,61.75556],[16.9806,61.75403],[16.97975,61.75238],[16.97836,61.75219],[16.97773,61.74835],[16.97443,61.74837],[16.97349,61.74396],[17.00163,61.73235],[16.99834,61.73287],[16.9967,61.73408],[16.99385,61.73525],[16.99105,61.73598],[16.98692,61.73668],[16.98385,61.73684],[16.98079,61.73664],[16.97775,61.73603],[16.97578,61.73535],[16.97216,61.73557],[16.97182,61.73745],[16.97028,61.73911],[16.96718,61.74064],[16.96375,61.74144],[16.9588,61.74202],[16.95213,61.74203],[16.94849,61.74149],[16.94542,61.74045],[16.94357,61.73934],[16.94257,61.73834],[16.94192,61.73699],[16.94183,61.73557],[16.94433,61.73063],[16.94682,61.72795],[16.94804,61.72705],[16.94814,61.72567],[16.94471,61.71642],[16.94041,61.71587],[16.93595,61.71462],[16.93297,61.71314],[16.93141,61.71158],[16.93099,61.70951],[16.93204,61.7072],[16.9313,61.70593],[16.93121,61.70451],[16.93166,61.70343],[16.93287,61.70213],[16.93529,61.70077],[16.93846,61.69976],[16.94205,61.69923],[16.94642,61.69911],[16.95124,61.6996],[16.95335,61.7001],[16.95524,61.70079],[16.95693,61.7017],[16.95812,61.70266],[16.95923,61.70462],[16.96078,61.70531],[16.96566,61.70515],[16.96788,61.70393],[16.96966,61.70325],[16.97209,61.70252],[16.97493,61.70206],[16.97796,61.70195],[16.98095,61.70211],[16.98375,61.70261],[16.98569,61.70323],[16.98859,61.70488],[16.9913,61.70773],[16.99198,61.7088],[16.99221,61.70992],[16.99198,61.71109],[16.9899,61.71368],[16.99122,61.71529],[16.9916,61.71652],[16.99287,61.71744],[16.99606,61.71903],[16.99763,61.72073],[17.00093,61.72119],[17.00372,61.72201],[17.00658,61.72347],[17.00823,61.72492],[17.00898,61.72628],[17.00897,61.72766],[17.00823,61.729],[17.00685,61.73018],[17.02019,61.72468],[17.01743,61.71723],[17.01636,61.70257],[17.01916,61.69721],[17.0196,61.69719],[17.02057,61.69666],[17.02152,61.69588],[17.02006,61.69554],[17.02135,61.6931],[17.02868,61.68483],[17.0334,61.68038],[17.0463,61.67608],[17.07675,61.66896],[17.07876,61.66864],[17.07887,61.668],[17.08095,61.66755],[17.08273,61.66606],[17.08195,61.66494],[17.07755,61.66474],[17.07357,61.66421],[17.07094,61.66359],[17.06871,61.66267],[17.06675,61.66122],[17.06419,61.65782],[17.06092,61.65673],[17.05856,61.6552],[17.05751,61.65382],[17.05721,61.65261],[17.05311,61.65266],[17.04946,61.65224],[17.04682,61.65151],[17.04427,61.65024],[17.04182,61.64791],[17.04111,61.64613],[17.04122,61.64403],[17.04163,61.64302],[17.04243,61.64207],[17.04398,61.64099],[17.03897,61.64057],[17.03529,61.63896],[17.03249,61.63902],[17.01915,61.63504],[17.01638,61.63101],[17.01012,61.63044],[16.99403,61.63483],[16.99339,61.63371],[16.98555,61.62953],[16.98347,61.63032],[16.97899,61.62792],[16.98087,61.62709],[16.96531,61.61906],[16.96139,61.62131],[16.95992,61.62453],[16.95774,61.62618],[16.95618,61.62775],[16.9581,61.6312],[16.92717,61.63297],[16.92672,61.63249],[16.92483,61.63261],[16.92517,61.63307],[16.90851,61.63398],[16.89901,61.62633],[16.89872,61.62545],[16.89901,61.62468],[16.89883,61.62345],[16.88358,61.6139],[16.88305,61.61426],[16.88285,61.61504],[16.88243,61.61523],[16.88242,61.61602],[16.88211,61.61618],[16.88167,61.61606],[16.88168,61.61629],[16.88133,61.61608],[16.88096,61.61614],[16.88052,61.61696],[16.88013,61.61708],[16.88063,61.61733],[16.87984,61.61799],[16.8786,61.61809],[16.87835,61.61847],[16.87695,61.61913],[16.87528,61.61942],[16.87417,61.6205],[16.87341,61.62069],[16.87336,61.62106],[16.87263,61.6215],[16.87344,61.62216],[16.87115,61.62238],[16.86942,61.62289],[16.86822,61.62302],[16.86731,61.62339],[16.86601,61.62336],[16.86432,61.62365],[16.86268,61.62309],[16.862,61.62359],[16.8609,61.62336],[16.85989,61.62407],[16.86024,61.6247],[16.86005,61.62549],[16.85902,61.62591],[16.85815,61.62598],[16.85793,61.62635],[16.85601,61.62642],[16.85589,61.62699],[16.85399,61.62746],[16.85346,61.62789],[16.85356,61.62822],[16.85454,61.62857],[16.85429,61.62891],[16.85533,61.62936],[16.85517,61.62994],[16.85463,61.63006],[16.85435,61.63142],[16.82799,61.61267],[16.82224,61.61925],[16.81788,61.61958],[16.81604,61.62135],[16.81383,61.62251],[16.80842,61.62162],[16.80806,61.62033],[16.8042,61.62061],[16.80331,61.6203],[16.80302,61.6204],[16.80171,61.62016],[16.79913,61.61916],[16.79829,61.61951],[16.79725,61.61936],[16.79637,61.61963],[16.79249,61.6198],[16.79077,61.62012],[16.79021,61.6204],[16.79067,61.62111],[16.79033,61.62145],[16.78942,61.62149],[16.78865,61.62088],[16.78816,61.62108],[16.78732,61.62224],[16.788,61.62302],[16.7871,61.62368],[16.78779,61.62441],[16.7861,61.62527],[16.78589,61.62588],[16.7843,61.62623],[16.78305,61.62679],[16.78156,61.62676],[16.78051,61.62726],[16.77946,61.62737],[16.77877,61.627],[16.77821,61.62706],[16.77729,61.62793],[16.77706,61.62858],[16.77545,61.62928],[16.77492,61.62924],[16.77468,61.62944],[16.77417,61.62924],[16.77376,61.62955],[16.77297,61.62973],[16.77208,61.62957],[16.77266,61.62923],[16.77248,61.62896],[16.77136,61.62915],[16.7702,61.6289],[16.76746,61.63004],[16.76597,61.63015],[16.76592,61.62985],[16.76633,61.62959],[16.76448,61.62953],[16.76075,61.63035],[16.75986,61.63103],[16.75919,61.63124],[16.7573,61.63125],[16.75584,61.63157],[16.7526,61.63163],[16.74487,61.66614],[16.74501,61.69934],[16.74732,61.69986],[16.74578,61.70146],[16.74425,61.70198],[16.74412,61.70252],[16.74272,61.70249],[16.74391,61.70444],[16.74633,61.70513],[16.74676,61.70497],[16.74762,61.70533],[16.74958,61.7079],[16.74482,61.70842],[16.74426,61.72838],[16.73968,61.72982],[16.73743,61.73021],[16.73671,61.73062],[16.73456,61.7308],[16.73444,61.73117],[16.73277,61.73154],[16.73297,61.73205],[16.73129,61.73231],[16.74556,61.73995],[16.74674,61.74014],[16.7493,61.73926],[16.75185,61.74059],[16.76227,61.75955],[16.76436,61.76049],[16.76508,61.76161],[16.76639,61.76187],[16.76707,61.76234],[16.76866,61.76222],[16.76921,61.76235],[16.76983,61.76207],[16.77016,61.76225],[16.76935,61.76365],[16.77041,61.76635],[16.77021,61.7676],[16.77054,61.76812],[16.77149,61.76865],[16.77127,61.76877],[16.77156,61.76897],[16.77186,61.7689],[16.77185,61.76916],[16.77236,61.76905],[16.77204,61.76929],[16.77248,61.76924],[16.77247,61.77014],[16.77377,61.77058],[16.77651,61.80238],[16.81048,61.80545],[16.86352,61.8155],[16.85867,61.82829],[16.8799,61.83317]],[[16.87813,61.77575],[16.87511,61.77554],[16.8723,61.77498],[16.87,61.77415],[16.86653,61.77329],[16.86428,61.77222],[16.86054,61.77142],[16.85782,61.77024],[16.85635,61.76906],[16.85554,61.76775],[16.85541,61.76672],[16.85582,61.76507],[16.85175,61.76396],[16.84815,61.76189],[16.84682,61.76066],[16.84625,61.75956],[16.84445,61.75828],[16.84339,61.75687],[16.84153,61.75587],[16.84015,61.75459],[16.8395,61.7532],[16.83951,61.7521],[16.84018,61.75072],[16.84155,61.74944],[16.83576,61.74965],[16.83769,61.74867],[16.84127,61.7475],[16.85994,61.74181],[16.86717,61.74052],[16.87812,61.73968],[16.8785,61.74051],[16.87921,61.74089],[16.88049,61.74042],[16.88484,61.74188],[16.88679,61.74299],[16.88807,61.74427],[16.88865,61.74569],[16.88846,61.74737],[16.88787,61.74879],[16.88638,61.75041],[16.88662,61.75146],[16.89022,61.75145],[16.8935,61.75174],[16.89619,61.75223],[16.89854,61.75303],[16.90039,61.75408],[16.9015,61.75515],[16.90389,61.75599],[16.90622,61.75728],[16.90773,61.75892],[16.90811,61.76036],[16.90772,61.76177],[16.90658,61.7635],[16.90541,61.76442],[16.90366,61.76532],[16.90197,61.76744],[16.89975,61.76935],[16.89833,61.7702],[16.89464,61.77145],[16.89248,61.7718],[16.8901,61.77195],[16.88803,61.77364],[16.88517,61.7748],[16.88186,61.7755],[16.87813,61.77575]]]}},{"type":"Feature","id":"2184R007","properties":{"code":"2184R007","name":"Hudiksvall södra"},"geometry":{"type":"Polygon","coordinates":[[[17.09855,61.72351],[17.10027,61.72288],[17.11151,61.72108],[17.11286,61.72034],[17.11422,61.72019],[17.11763,61.71408],[17.1088,61.71182],[17.10702,61.71195],[17.10503,61.7098],[17.09701,61.71133],[17.09094,61.71121],[17.08886,61.71162],[17.08944,61.71247],[17.08989,61.71253],[17.09017,61.71366],[17.09167,61.7157],[17.09194,61.71834],[17.09116,61.7187],[17.08995,61.7202],[17.09091,61.72224],[17.09216,61.72271],[17.09218,61.72303],[17.09855,61.72351]]]}},{"type":"Feature","id":"2184R008","properties":{"code":"2184R008","name":"Hudiksvall västra"},"geometry":{"type":"Polygon","coordinates":[[[17.10719,61.72716],[17.11036,61.72624],[17.11579,61.72499],[17.11564,61.72442],[17.11629,61.72357],[17.11582,61.72111],[17.11422,61.72019],[17.11286,61.72034],[17.11151,61.72108],[17.10027,61.72288],[17.09828,61.72356],[17.09218,61.72303],[17.09236,61.7259],[17.09169,61.72604],[17.09112,61.72657],[17.09293,61.72688],[17.09509,61.72661],[17.09634,61.72691],[17.1068,61.72768],[17.10719,61.72716]]]}},{"type":"Feature","id":"2184R009","properties":{"code":"2184R009","name":"Hudiksvall östra"},"geometry":{"type":"Polygon","coordinates":[[[17.13294,61.73546],[17.13496,61.73434],[17.13315,61.73314],[17.13543,61.73003],[17.13579,61.73002],[17.13918,61.72699],[17.14248,61.72561],[17.14082,61.7247],[17.14053,61.72406],[17.14432,61.72349],[17.14363,61.72262],[17.14234,61.72171],[17.14589,61.72076],[17.14449,61.72037],[17.14423,61.71928],[17.14454,61.71369],[17.13997,61.71384],[17.1364,61.71458],[17.13393,61.71477],[17.13023,61.71545],[17.12251,61.7165],[17.1219,61.71538],[17.11763,61.71408],[17.11422,61.72019],[17.11582,61.72111],[17.11629,61.72357],[17.11564,61.72442],[17.11579,61.72499],[17.10791,61.72687],[17.10719,61.72716],[17.1068,61.72768],[17.10662,61.72958],[17.10715,61.73022],[17.10928,61.73154],[17.10934,61.73268],[17.10859,61.7332],[17.1081,61.73403],[17.1091,61.73513],[17.11194,61.7356],[17.11397,61.73504],[17.11378,61.73584],[17.11408,61.73654],[17.11573,61.73801],[17.11861,61.73916],[17.12357,61.73999],[17.12534,61.74046],[17.12689,61.74097],[17.12836,61.7418],[17.12938,61.73937],[17.13047,61.73932],[17.13502,61.7379],[17.1338,61.73662],[17.13425,61.73643],[17.13294,61.73546]]]}},{"type":"Feature","id":"2184R010","properties":{"code":"2184R010","name":"Håsta"},"geometry":{"type":"Polygon","coordinates":[[[17.08115,61.72977],[17.07975,61.72846],[17.08822,61.72677],[17.08877,61.72718],[17.09098,61.72669],[17.09169,61.72604],[17.09236,61.7259],[17.09216,61.72271],[17.09091,61.72224],[17.08995,61.7202],[17.09116,61.7187],[17.09194,61.71834],[17.09167,61.7157],[17.09017,61.71366],[17.08989,61.71253],[17.08944,61.71247],[17.08854,61.7111],[17.08792,61.71105],[17.08627,61.71038],[17.08109,61.70892],[17.07073,61.70445],[17.0716,61.70416],[17.07016,61.70394],[17.06711,61.70238],[17.06611,61.70381],[17.06246,61.70461],[17.05842,61.70594],[17.05276,61.70935],[17.05106,61.71153],[17.05109,61.71338],[17.05035,61.71517],[17.05064,61.71661],[17.05167,61.71794],[17.05291,61.71885],[17.05481,61.71983],[17.05667,61.72045],[17.06003,61.72119],[17.06224,61.72145],[17.06589,61.72146],[17.06846,61.72119],[17.07011,61.72284],[17.07208,61.72405],[17.07451,61.72705],[17.07622,61.72666],[17.08115,61.72977]]]}},{"type":"Feature","id":"2184R011","properties":{"code":"2184R011","name":"Hög-Mellanbyn-Rogsta"},"geometry":{"type":"Polygon","coordinates":[[[16.96836,61.85162],[16.97305,61.8438],[16.97466,61.84363],[16.97534,61.844],[16.97761,61.8438],[16.97808,61.84419],[16.97926,61.84434],[16.97962,61.84421],[16.98224,61.84465],[16.98343,61.84454],[16.98413,61.84493],[16.98558,61.84443],[16.98692,61.84429],[16.98733,61.84378],[16.98853,61.84378],[16.99011,61.84343],[16.99093,61.84358],[16.99122,61.84285],[16.99282,61.8435],[16.99454,61.8438],[16.99628,61.84457],[16.99658,61.84533],[16.99972,61.84554],[17.02885,61.83301],[17.0575,61.83133],[17.07541,61.83255],[17.10103,61.84201],[17.12335,61.86111],[17.13948,61.85724],[17.16196,61.85787],[17.17705,61.85853],[17.2086,61.86296],[17.20772,61.87089],[17.25401,61.86517],[17.30072,61.85622],[17.29927,61.85571],[17.29957,61.85541],[17.29526,61.85524],[17.29519,61.85473],[17.29735,61.85312],[17.29259,61.85169],[17.29486,61.8498],[17.30461,61.8512],[17.3139,61.849],[17.31715,61.85143],[17.32453,61.85139],[17.33466,61.84897],[17.35001,61.8517],[17.44255,61.85041],[18.00903,61.81183],[17.97743,61.70628],[17.97546,61.69746],[17.97333,61.69057],[17.97069,61.68372],[17.96756,61.67692],[17.96103,61.66542],[17.87929,61.50489],[17.84168,61.37165],[17.43041,61.50096],[17.48131,61.52813],[17.48673,61.56864],[17.34829,61.59182],[17.29038,61.60163],[17.28525,61.61755],[17.23087,61.62656],[17.22782,61.62257],[17.22302,61.61998],[17.21145,61.61954],[17.21052,61.6212],[17.21054,61.62278],[17.19968,61.62495],[17.19281,61.62532],[17.19104,61.62477],[17.18281,61.62497],[17.17823,61.62408],[17.17326,61.62479],[17.17047,61.62449],[17.16678,61.62372],[17.16307,61.62358],[17.15805,61.62298],[17.14573,61.62553],[17.14008,61.62728],[17.13414,61.62375],[17.12487,61.62269],[17.11301,61.62161],[17.10939,61.62303],[17.10028,61.63115],[17.10385,61.63173],[17.10718,61.63301],[17.10302,61.63424],[17.10024,61.63758],[17.10722,61.64357],[17.10952,61.64369],[17.11638,61.64941],[17.12443,61.65118],[17.1306,61.65381],[17.12943,61.65451],[17.12803,61.65655],[17.12554,61.65818],[17.12256,61.65926],[17.11972,61.65978],[17.11502,61.66005],[17.11211,61.66003],[17.10924,61.65965],[17.1059,61.65876],[17.10361,61.65766],[17.10153,61.65884],[17.09964,61.65951],[17.09684,61.66012],[17.09436,61.66035],[17.0924,61.66233],[17.08875,61.66392],[17.08547,61.66469],[17.08195,61.66494],[17.08273,61.66606],[17.08095,61.66755],[17.07887,61.668],[17.07876,61.66864],[17.07675,61.66896],[17.0463,61.67608],[17.0334,61.68038],[17.02868,61.68483],[17.02135,61.6931],[17.02006,61.69554],[17.02152,61.69588],[17.02057,61.69666],[17.0196,61.69719],[17.01916,61.69721],[17.01636,61.70257],[17.01743,61.71723],[17.02019,61.72468],[17.00685,61.73018],[17.00472,61.73135],[17.00163,61.73235],[16.97349,61.74396],[16.97443,61.74837],[16.97773,61.74835],[16.97836,61.75219],[16.97975,61.75238],[16.9806,61.75403],[16.97906,61.75556],[16.97903,61.75699],[16.97839,61.75822],[16.97579,61.75939],[16.97576,61.76023],[16.97357,61.76054],[16.9742,61.76142],[16.97211,61.76233],[16.96917,61.76259],[16.94845,61.7688],[16.93622,61.77958],[16.88088,61.80663],[16.8806,61.81624],[16.87827,61.81678],[16.8797,61.8188],[16.88046,61.81897],[16.8799,61.83317],[16.89305,61.83619],[16.91374,61.85514],[16.93391,61.8885],[16.94902,61.8821],[16.95798,61.86543],[16.96836,61.85162]],[[17.06905,61.74951],[17.06835,61.74877],[17.06548,61.74932],[17.06258,61.74956],[17.05869,61.74945],[17.05558,61.74895],[17.05301,61.74814],[17.05138,61.74732],[17.0501,61.74638],[17.04904,61.745],[17.04846,61.74212],[17.04862,61.741],[17.04951,61.73959],[17.05176,61.73766],[17.05319,61.73685],[17.05555,61.736],[17.05824,61.73547],[17.06136,61.73525],[17.06429,61.734],[17.07022,61.73256],[17.07011,61.73098],[17.0708,61.72956],[17.07221,61.72825],[17.07451,61.72706],[17.07208,61.72405],[17.07011,61.72284],[17.06846,61.72119],[17.0638,61.7215],[17.06003,61.72119],[17.05541,61.72006],[17.05244,61.71855],[17.05107,61.71729],[17.0504,61.71588],[17.05049,61.71446],[17.05109,61.71338],[17.05106,61.71153],[17.05164,61.71048],[17.05313,61.70904],[17.05679,61.70676],[17.05842,61.70594],[17.06179,61.7048],[17.06611,61.70381],[17.06768,61.70186],[17.07026,61.70041],[17.07221,61.69976],[17.07447,61.69928],[17.07741,61.69898],[17.07999,61.69849],[17.08393,61.69814],[17.08619,61.69689],[17.0897,61.69587],[17.09327,61.69546],[17.096,61.69551],[17.09863,61.69535],[17.1016,61.6955],[17.10889,61.69408],[17.11342,61.6937],[17.11575,61.69372],[17.11933,61.69419],[17.12193,61.69495],[17.12355,61.6957],[17.1257,61.69722],[17.1274,61.69809],[17.12894,61.69929],[17.13002,61.70068],[17.13032,61.70282],[17.12955,61.70422],[17.12762,61.70574],[17.12524,61.70681],[17.12228,61.70754],[17.12113,61.71459],[17.12251,61.7165],[17.13023,61.71545],[17.13393,61.71477],[17.1364,61.71458],[17.13916,61.71396],[17.14139,61.7137],[17.14895,61.71348],[17.15109,61.71362],[17.15333,61.714],[17.15502,61.71399],[17.15755,61.71349],[17.16237,61.71306],[17.16514,61.71298],[17.16743,61.71314],[17.16837,61.71303],[17.17021,61.7123],[17.17241,61.71175],[17.17432,61.7108],[17.17671,61.71004],[17.18023,61.70952],[17.18416,61.70944],[17.18798,61.70982],[17.19175,61.71094],[17.19686,61.71374],[17.19786,61.71465],[17.19877,61.71615],[17.20279,61.71564],[17.20748,61.71532],[17.20964,61.7154],[17.21437,61.71593],[17.21934,61.71727],[17.2217,61.71817],[17.22345,61.71929],[17.22514,61.72106],[17.2259,61.72243],[17.22614,61.72478],[17.22553,61.72666],[17.22325,61.72862],[17.22156,61.72941],[17.21894,61.73018],[17.21578,61.73065],[17.21188,61.73068],[17.20805,61.73012],[17.20437,61.72903],[17.20194,61.72974],[17.19971,61.73012],[17.1972,61.7303],[17.19461,61.73025],[17.19251,61.73001],[17.18998,61.72944],[17.18629,61.72934],[17.18287,61.72879],[17.18028,61.72808],[17.17817,61.72711],[17.17468,61.72857],[17.1709,61.72952],[17.16721,61.72988],[17.16373,61.72972],[17.16183,61.73124],[17.15644,61.73366],[17.15503,61.73467],[17.15345,61.73541],[17.15162,61.73599],[17.14932,61.73643],[17.14722,61.73734],[17.1423,61.73884],[17.1387,61.73953],[17.13842,61.7397],[17.14016,61.74125],[17.14321,61.74173],[17.14577,61.74248],[17.14895,61.74304],[17.1514,61.74377],[17.15297,61.7445],[17.15455,61.74567],[17.1555,61.74704],[17.15571,61.74809],[17.15534,61.74948],[17.15434,61.75086],[17.15311,61.75182],[17.14963,61.75332],[17.14174,61.75483],[17.13951,61.75505],[17.13673,61.75504],[17.13477,61.75615],[17.13304,61.7579],[17.13267,61.75979],[17.13116,61.76144],[17.1285,61.76286],[17.12503,61.76381],[17.12201,61.76416],[17.11949,61.76418],[17.11715,61.76399],[17.11434,61.76344],[17.11162,61.76383],[17.10894,61.76393],[17.10547,61.76446],[17.10323,61.76461],[17.10076,61.7651],[17.09669,61.76625],[17.08968,61.76866],[17.08699,61.76925],[17.08238,61.76973],[17.07848,61.76993],[17.07555,61.76974],[17.07283,61.7692],[17.07046,61.76835],[17.06862,61.76724],[17.06668,61.76534],[17.06601,61.76394],[17.06644,61.76183],[17.06807,61.76019],[17.07067,61.7589],[17.07524,61.7577],[17.07381,61.75655],[17.0731,61.75553],[17.07205,61.75304],[17.07201,61.75135],[17.06905,61.74951]]]}},{"type":"Feature","id":"2184R012","properties":{"code":"2184R012","name":"Idenor"},"geometry":{"type":"Polygon","coordinates":[[[17.1219,61.71538],[17.12113,61.71459],[17.12228,61.70754],[17.12582,61.7066],[17.12851,61.70517],[17.13004,61.70352],[17.13039,61.70174],[17.1298,61.70032],[17.12785,61.6984],[17.12307,61.69545],[17.12003,61.69435],[17.11647,61.69377],[17.11342,61.6937],[17.1082,61.69419],[17.1016,61.6955],[17.09936,61.69535],[17.09399,61.69544],[17.09041,61.69574],[17.08675,61.69667],[17.08393,61.69814],[17.07994,61.69849],[17.07221,61.69976],[17.06958,61.70071],[17.06733,61.70216],[17.06711,61.70238],[17.07016,61.70394],[17.0716,61.70416],[17.07073,61.70445],[17.08109,61.70892],[17.08627,61.71038],[17.08792,61.71105],[17.08854,61.7111],[17.08886,61.71162],[17.09094,61.71121],[17.09701,61.71133],[17.10503,61.7098],[17.10702,61.71195],[17.1088,61.71182],[17.11344,61.71289],[17.1219,61.71538]]]}},{"type":"Feature","id":"2184R013","properties":{"code":"2184R013","name":"Iggesund norra"},"geometry":{"type":"Polygon","coordinates":[[[17.08258,61.66494],[17.08617,61.66458],[17.08972,61.66358],[17.09281,61.66205],[17.09436,61.66035],[17.09684,61.66012],[17.09964,61.65951],[17.10153,61.65884],[17.10361,61.65766],[17.10648,61.65896],[17.10924,61.65965],[17.11136,61.65996],[17.11426,61.66007],[17.11825,61.6599],[17.12191,61.65941],[17.12445,61.65866],[17.12655,61.65761],[17.12838,61.65623],[17.12943,61.65451],[17.1306,61.65381],[17.12443,61.65118],[17.11638,61.64941],[17.10952,61.64369],[17.10184,61.64676],[17.09305,61.64696],[17.08153,61.64535],[17.07617,61.64605],[17.07297,61.64601],[17.07036,61.6457],[17.06747,61.64451],[17.06691,61.6422],[17.06564,61.64235],[17.06495,61.64176],[17.0655,61.64127],[17.06713,61.64111],[17.06035,61.6405],[17.05915,61.64093],[17.05497,61.64077],[17.04978,61.64175],[17.04846,61.64183],[17.04796,61.64354],[17.05097,61.64709],[17.05265,61.65264],[17.05721,61.65261],[17.05769,61.65416],[17.05901,61.65558],[17.06145,61.65696],[17.06419,61.65782],[17.06706,61.66153],[17.06977,61.66317],[17.0729,61.66409],[17.07654,61.66463],[17.08258,61.66494]]]}},{"type":"Feature","id":"2184R014","properties":{"code":"2184R014","name":"Iggesund södra"},"geometry":{"type":"Polygon","coordinates":[[[17.05097,61.64709],[17.04796,61.64354],[17.04846,61.64183],[17.04978,61.64175],[17.05497,61.64077],[17.05915,61.64093],[17.06035,61.6405],[17.06713,61.64111],[17.0655,61.64127],[17.06495,61.64176],[17.06564,61.64235],[17.06691,61.6422],[17.06747,61.64451],[17.06956,61.64546],[17.07152,61.64592],[17.07617,61.64605],[17.08153,61.64535],[17.09305,61.64696],[17.10184,61.64676],[17.10952,61.64369],[17.10722,61.64357],[17.10024,61.63758],[17.10302,61.63424],[17.10718,61.63301],[17.10447,61.6319],[17.10254,61.63144],[17.09988,61.63112],[17.09798,61.63031],[17.09608,61.62979],[17.08873,61.62875],[17.08642,61.62867],[17.08346,61.62887],[17.08135,61.62926],[17.07796,61.63022],[17.07558,61.62942],[17.07257,61.62887],[17.07005,61.6269],[17.06821,61.62594],[17.06001,61.62886],[17.05308,61.63037],[17.04506,61.63132],[17.04501,61.63259],[17.04566,61.63397],[17.04666,61.63497],[17.04841,61.63604],[17.04701,61.6377],[17.04653,61.63911],[17.0449,61.64055],[17.04278,61.64177],[17.04163,61.64302],[17.04117,61.64437],[17.04125,61.64687],[17.04182,61.64791],[17.04347,61.64961],[17.0452,61.6508],[17.04875,61.65209],[17.05265,61.65264],[17.05097,61.64709]]]}},{"type":"Feature","id":"2184R015","properties":{"code":"2184R015","name":"Jakobsberg-Kristineberg"},"geometry":{"type":"Polygon","coordinates":[[[17.12035,61.7423],[17.12456,61.74024],[17.11861,61.73916],[17.11573,61.73801],[17.11408,61.73654],[17.11378,61.73584],[17.11397,61.73504],[17.11194,61.7356],[17.10886,61.73507],[17.1081,61.73403],[17.10859,61.7332],[17.10934,61.73268],[17.10928,61.73154],[17.10715,61.73022],[17.10662,61.72958],[17.1068,61.72768],[17.09634,61.72691],[17.09509,61.72661],[17.09293,61.72688],[17.09112,61.72657],[17.08877,61.72718],[17.08822,61.72677],[17.08786,61.72683],[17.07975,61.72846],[17.08255,61.73107],[17.08102,61.73184],[17.08695,61.73616],[17.08663,61.73627],[17.08704,61.73662],[17.08838,61.73651],[17.08948,61.73731],[17.09069,61.73706],[17.09082,61.73722],[17.09111,61.73803],[17.09007,61.73952],[17.0901,61.74056],[17.09068,61.74046],[17.09087,61.74071],[17.09043,61.74174],[17.0908,61.74204],[17.09185,61.74209],[17.09366,61.74047],[17.10055,61.74076],[17.10188,61.7412],[17.10398,61.74358],[17.10479,61.74415],[17.10577,61.7444],[17.10587,61.745],[17.10752,61.74615],[17.10614,61.74718],[17.10667,61.74794],[17.1049,61.7487],[17.10709,61.75057],[17.10562,61.7508],[17.10563,61.7516],[17.11414,61.74996],[17.11997,61.74959],[17.11989,61.74772],[17.11858,61.74338],[17.1196,61.74328],[17.12035,61.7423]]]}},{"type":"Feature","id":"2184R016","properties":{"code":"2184R016","name":"Näsviken"},"geometry":{"type":"Polygon","coordinates":[[[16.87891,61.77574],[16.88186,61.7755],[16.88517,61.7748],[16.88803,61.77364],[16.8901,61.77195],[16.89248,61.7718],[16.89464,61.77145],[16.89719,61.7707],[16.89882,61.76995],[16.90197,61.76744],[16.90366,61.76532],[16.90541,61.76442],[16.90658,61.7635],[16.90772,61.76177],[16.90811,61.76036],[16.90773,61.75892],[16.90622,61.75728],[16.90389,61.75599],[16.9015,61.75515],[16.90039,61.75408],[16.89854,61.75303],[16.89619,61.75223],[16.8935,61.75174],[16.89022,61.75145],[16.88662,61.75146],[16.88638,61.75041],[16.88787,61.74879],[16.88846,61.74737],[16.88865,61.74569],[16.88807,61.74427],[16.88679,61.74299],[16.88484,61.74188],[16.88049,61.74042],[16.87921,61.74089],[16.8785,61.74051],[16.87812,61.73968],[16.86717,61.74052],[16.85994,61.74181],[16.84127,61.7475],[16.83769,61.74867],[16.83576,61.74965],[16.84155,61.74944],[16.84018,61.75072],[16.83951,61.7521],[16.8395,61.7532],[16.84015,61.75459],[16.84153,61.75587],[16.84339,61.75687],[16.84445,61.75828],[16.84625,61.75956],[16.84682,61.76066],[16.84815,61.76189],[16.85175,61.76396],[16.85582,61.76507],[16.85541,61.76672],[16.85554,61.76775],[16.85635,61.76906],[16.85782,61.77024],[16.86054,61.77142],[16.86428,61.77222],[16.86653,61.77329],[16.87,61.77415],[16.87234,61.77499],[16.87581,61.77562],[16.87891,61.77574]]]}},{"type":"Feature","id":"2184R017","properties":{"code":"2184R017","name":"Sanna-Sandvalla"},"geometry":{"type":"Polygon","coordinates":[[[17.07992,61.7699],[17.08629,61.76934],[17.08837,61.769],[17.09203,61.76775],[17.09466,61.76708],[17.09669,61.76625],[17.10076,61.7651],[17.10323,61.76461],[17.10547,61.76446],[17.10894,61.76393],[17.11233,61.76376],[17.11434,61.76344],[17.11715,61.76399],[17.12021,61.7642],[17.12365,61.76401],[17.12653,61.76349],[17.12957,61.7624],[17.13153,61.76115],[17.13283,61.75945],[17.13304,61.7579],[17.13477,61.75615],[17.1358,61.75564],[17.13533,61.75541],[17.13188,61.74598],[17.13069,61.74356],[17.12948,61.7424],[17.12812,61.74157],[17.12689,61.74097],[17.12456,61.74024],[17.12035,61.7423],[17.1196,61.74328],[17.11858,61.74338],[17.11989,61.74772],[17.11997,61.74959],[17.11414,61.74996],[17.10563,61.7516],[17.10562,61.7508],[17.10709,61.75057],[17.1049,61.7487],[17.10667,61.74794],[17.10614,61.74718],[17.10752,61.74615],[17.10587,61.745],[17.10577,61.7444],[17.10479,61.74415],[17.10398,61.74358],[17.10188,61.7412],[17.10055,61.74076],[17.09366,61.74047],[17.09185,61.74209],[17.0908,61.74204],[17.09043,61.74174],[17.09087,61.74071],[17.09068,61.74046],[17.0901,61.74056],[17.09007,61.73952],[17.09111,61.73803],[17.09069,61.73706],[17.08948,61.73731],[17.08838,61.73651],[17.08704,61.73662],[17.08663,61.73627],[17.08695,61.73616],[17.08102,61.73184],[17.08255,61.73107],[17.08115,61.72977],[17.07622,61.72666],[17.07373,61.72739],[17.07138,61.72893],[17.0702,61.73064],[17.07022,61.73256],[17.06429,61.734],[17.06136,61.73525],[17.05684,61.7357],[17.05431,61.73639],[17.05269,61.7371],[17.05133,61.73798],[17.04924,61.73991],[17.04862,61.741],[17.04846,61.74212],[17.04886,61.74456],[17.04944,61.74566],[17.05095,61.74705],[17.05301,61.74814],[17.05643,61.74913],[17.06013,61.74955],[17.06407,61.74948],[17.06835,61.74877],[17.07002,61.75028],[17.07201,61.75135],[17.07205,61.75304],[17.0731,61.75553],[17.07381,61.75655],[17.07524,61.7577],[17.07067,61.7589],[17.06765,61.7605],[17.06611,61.76252],[17.06625,61.76464],[17.06862,61.76724],[17.07099,61.76858],[17.07486,61.76963],[17.077,61.76988],[17.07992,61.7699]]]}},{"type":"Feature","id":"2184R018","properties":{"code":"2184R018","name":"Sörforsa"},"geometry":{"type":"Polygon","coordinates":[[[16.9588,61.74202],[16.96521,61.74118],[16.96887,61.73995],[16.97031,61.73908],[16.9716,61.7378],[16.97221,61.73556],[16.97578,61.73535],[16.97775,61.73603],[16.9799,61.73651],[16.98457,61.73684],[16.98692,61.73668],[16.99019,61.73615],[16.99445,61.73506],[16.9967,61.73408],[16.99834,61.73287],[17.00284,61.73203],[17.00472,61.73135],[17.00681,61.73021],[17.00823,61.729],[17.00886,61.728],[17.00886,61.72593],[17.00772,61.72437],[17.00614,61.7232],[17.00239,61.72155],[17.00027,61.72105],[16.99763,61.72073],[16.99606,61.71903],[16.99287,61.71744],[16.9916,61.71652],[16.99122,61.71529],[16.9899,61.71368],[16.99198,61.71109],[16.99221,61.70992],[16.99198,61.7088],[16.9913,61.70773],[16.98859,61.70488],[16.98569,61.70323],[16.98375,61.70261],[16.98095,61.70211],[16.97796,61.70195],[16.97493,61.70206],[16.97209,61.70252],[16.96966,61.70325],[16.96788,61.70393],[16.96566,61.70515],[16.96078,61.70531],[16.95923,61.70462],[16.95866,61.7033],[16.95733,61.70198],[16.95576,61.70103],[16.95335,61.7001],[16.95037,61.69945],[16.94717,61.69914],[16.94129,61.6993],[16.93841,61.69977],[16.93529,61.70077],[16.93326,61.70184],[16.93188,61.7031],[16.93116,61.70486],[16.9313,61.70593],[16.93204,61.7072],[16.93099,61.70951],[16.93122,61.71123],[16.93297,61.71314],[16.93592,61.71461],[16.94041,61.71587],[16.94471,61.71642],[16.94814,61.72567],[16.94804,61.72705],[16.94682,61.72795],[16.94433,61.73063],[16.94208,61.73484],[16.94183,61.73665],[16.94286,61.73869],[16.94542,61.74045],[16.9492,61.74164],[16.95285,61.74207],[16.9588,61.74202]]]}}]}