{"type":"FeatureCollection","features":[{"type":"Feature","id":"2262R004","properties":{"code":"2262R004","name":"Sörberge-Fagervik-Norrberge"},"geometry":{"type":"Polygon","coordinates":[[[17.42786,62.55029],[17.42729,62.55008],[17.43599,62.54572],[17.43582,62.5397],[17.42742,62.52856],[17.42514,62.52062],[17.43568,62.51397],[17.44056,62.49808],[17.41518,62.49443],[17.41308,62.49397],[17.41125,62.49408],[17.40565,62.49955],[17.40372,62.50069],[17.40023,62.50163],[17.39875,62.50193],[17.39427,62.50199],[17.39211,62.50276],[17.38995,62.50282],[17.38793,62.50364],[17.38622,62.50392],[17.38167,62.50522],[17.37834,62.50694],[17.37434,62.50724],[17.36983,62.5079],[17.36869,62.5075],[17.3677,62.5079],[17.36318,62.50887],[17.35007,62.51055],[17.34474,62.51154],[17.35158,62.51496],[17.36525,62.51742],[17.36877,62.51758],[17.3738,62.51811],[17.38821,62.52048],[17.38959,62.52094],[17.39077,62.52169],[17.39083,62.52238],[17.392,62.52402],[17.39265,62.52414],[17.40277,62.5347],[17.40522,62.53588],[17.40708,62.5365],[17.40973,62.54133],[17.41589,62.54805],[17.41644,62.55119],[17.42229,62.5524],[17.42786,62.55029]]]}},{"type":"Feature","id":"2262R005","properties":{"code":"2262R005","name":"Söråker"},"geometry":{"type":"Polygon","coordinates":[[[17.47552,62.54164],[17.4779,62.54141],[17.48116,62.5408],[17.48466,62.53971],[17.48913,62.53951],[17.49209,62.53908],[17.49675,62.53766],[17.49905,62.53666],[17.50074,62.53542],[17.50224,62.53323],[17.5021,62.53149],[17.50051,62.52952],[17.50216,62.52829],[17.50387,62.52642],[17.50563,62.52563],[17.50694,62.52473],[17.50816,62.52323],[17.51137,62.52358],[17.51444,62.5236],[17.51678,62.52336],[17.51952,62.52277],[17.52315,62.52272],[17.52613,62.52229],[17.52984,62.5211],[17.53139,62.52029],[17.53269,62.51922],[17.53647,62.51818],[17.53955,62.51645],[17.54082,62.5149],[17.54118,62.5135],[17.54046,62.5116],[17.53903,62.51023],[17.54251,62.50914],[17.54501,62.50765],[17.5464,62.50585],[17.5467,62.50316],[17.5478,62.50118],[17.55008,62.5005],[17.55213,62.4995],[17.55359,62.49826],[17.55434,62.4969],[17.55418,62.49516],[17.55249,62.49325],[17.54996,62.49196],[17.54648,62.49095],[17.54849,62.489],[17.55148,62.48776],[17.55338,62.48628],[17.55595,62.48552],[17.55829,62.48435],[17.56034,62.48235],[17.56266,62.48081],[17.56358,62.47948],[17.56354,62.47742],[17.56223,62.47579],[17.55987,62.47442],[17.55582,62.47304],[17.55192,62.47243],[17.54782,62.47242],[17.54411,62.47297],[17.54042,62.47425],[17.53814,62.47411],[17.53499,62.47423],[17.53053,62.4751],[17.528,62.47612],[17.52615,62.4774],[17.52498,62.47905],[17.52276,62.48094],[17.52207,62.48297],[17.51836,62.48216],[17.51391,62.48185],[17.51005,62.48208],[17.50666,62.4828],[17.50353,62.48425],[17.50147,62.48631],[17.49909,62.48732],[17.49739,62.48848],[17.49434,62.49005],[17.49299,62.49164],[17.49279,62.49336],[17.48914,62.49442],[17.48643,62.49604],[17.48544,62.49732],[17.48445,62.49968],[17.48262,62.50055],[17.48138,62.50145],[17.48052,62.50245],[17.48008,62.50372],[17.47835,62.50502],[17.4775,62.50645],[17.47477,62.50839],[17.47305,62.51084],[17.47307,62.51262],[17.47444,62.51448],[17.47497,62.51611],[17.47636,62.51754],[17.47908,62.51921],[17.47817,62.52047],[17.47778,62.52175],[17.47298,62.52398],[17.47092,62.52527],[17.46938,62.52728],[17.46948,62.52922],[17.46598,62.53047],[17.46311,62.53201],[17.46172,62.53327],[17.46108,62.53462],[17.46172,62.53738],[17.4631,62.53881],[17.46458,62.53971],[17.46652,62.54052],[17.46928,62.54124],[17.47234,62.54162],[17.47552,62.54164]]]}},{"type":"Feature","id":"2262R006","properties":{"code":"2262R006","name":"Tallnäs-Böle"},"geometry":{"type":"Polygon","coordinates":[[[17.32044,62.51334],[17.32763,62.51268],[17.33027,62.51202],[17.33227,62.51118],[17.33377,62.51095],[17.33425,62.51116],[17.33673,62.51126],[17.34394,62.51115],[17.34474,62.51154],[17.35007,62.51055],[17.36318,62.50887],[17.3677,62.5079],[17.36869,62.5075],[17.36983,62.5079],[17.37434,62.50724],[17.37834,62.50694],[17.38167,62.50522],[17.38622,62.50392],[17.38793,62.50364],[17.38995,62.50282],[17.39211,62.50276],[17.39427,62.50199],[17.39875,62.50193],[17.40372,62.50069],[17.40667,62.4988],[17.41125,62.49408],[17.41046,62.49412],[17.39416,62.49255],[17.39239,62.48527],[17.38148,62.48494],[17.36867,62.48339],[17.36517,62.49197],[17.36059,62.4934],[17.35628,62.49505],[17.34744,62.4969],[17.34563,62.49775],[17.34173,62.4991],[17.31429,62.50615],[17.31462,62.51273],[17.31303,62.51285],[17.31811,62.51329],[17.32044,62.51334]]]}},{"type":"Feature","id":"2262R001","properties":{"code":"2262R001","name":"Bergeforsen-Stavreviken"},"geometry":{"type":"Polygon","coordinates":[[[17.41718,62.56166],[17.41976,62.5614],[17.42265,62.56078],[17.42746,62.5593],[17.42965,62.55824],[17.431,62.55719],[17.43196,62.55579],[17.43215,62.55431],[17.43155,62.55287],[17.42998,62.55142],[17.42786,62.55029],[17.42229,62.5524],[17.41644,62.55119],[17.41589,62.54805],[17.40973,62.54133],[17.40708,62.5365],[17.40522,62.53588],[17.40277,62.5347],[17.39265,62.52414],[17.392,62.52402],[17.39083,62.52238],[17.39077,62.52169],[17.38959,62.52094],[17.38821,62.52048],[17.3738,62.51811],[17.36877,62.51758],[17.36525,62.51742],[17.35158,62.51496],[17.34394,62.51115],[17.33899,62.51127],[17.33425,62.51116],[17.33763,62.51213],[17.33909,62.51401],[17.34066,62.5152],[17.33581,62.51493],[17.33265,62.51505],[17.32881,62.51573],[17.32579,62.51687],[17.32387,62.51815],[17.32262,62.51995],[17.3225,62.5225],[17.3232,62.52391],[17.32561,62.52574],[17.33045,62.52776],[17.33245,62.52832],[17.33948,62.52967],[17.3436,62.53117],[17.34592,62.53172],[17.34772,62.53276],[17.35023,62.53363],[17.35465,62.53432],[17.35853,62.53443],[17.3614,62.53421],[17.36311,62.53535],[17.36261,62.53729],[17.36162,62.53841],[17.36112,62.54],[17.35993,62.54175],[17.35994,62.5436],[17.36175,62.54655],[17.3636,62.54851],[17.36433,62.54982],[17.36715,62.55206],[17.36955,62.55316],[17.37231,62.55388],[17.37537,62.55427],[17.37817,62.55432],[17.38129,62.55406],[17.38417,62.55344],[17.38663,62.55251],[17.38852,62.55133],[17.39144,62.55127],[17.39143,62.5526],[17.39214,62.55402],[17.3936,62.55532],[17.396,62.55655],[17.406,62.55957],[17.40818,62.56053],[17.41026,62.56111],[17.41327,62.56158],[17.41718,62.56166]]]}},{"type":"Feature","id":"2262R002","properties":{"code":"2262R002","name":"Edsgården-Vävland-Timrådalen"},"geometry":{"type":"Polygon","coordinates":[[[17.28922,62.49695],[17.29177,62.4967],[17.29609,62.49591],[17.29965,62.48574],[17.30217,62.4836],[17.30552,62.48429],[17.30586,62.48367],[17.30819,62.48346],[17.30877,62.48361],[17.30917,62.48331],[17.3106,62.48365],[17.31155,62.4836],[17.31287,62.48187],[17.31271,62.4807],[17.3139,62.47983],[17.31359,62.47971],[17.31412,62.47958],[17.31238,62.47745],[17.31654,62.47712],[17.31692,62.4763],[17.31893,62.47586],[17.32131,62.47339],[17.3237,62.47159],[17.31871,62.47138],[17.31567,62.47177],[17.31511,62.47229],[17.31375,62.47229],[17.31252,62.47195],[17.31085,62.47092],[17.30867,62.47017],[17.30749,62.47022],[17.30698,62.47043],[17.30497,62.47024],[17.29982,62.47037],[17.29871,62.47076],[17.29756,62.47063],[17.29683,62.47101],[17.29594,62.47114],[17.29497,62.47026],[17.29407,62.47012],[17.29403,62.46951],[17.29243,62.46896],[17.29064,62.46895],[17.29079,62.46824],[17.2893,62.46907],[17.28759,62.47045],[17.28669,62.47149],[17.28621,62.4727],[17.28408,62.47349],[17.28222,62.47453],[17.27552,62.48041],[17.2721,62.48138],[17.26963,62.48275],[17.2676,62.48519],[17.267,62.48698],[17.2675,62.48875],[17.26876,62.49008],[17.27071,62.49121],[17.27377,62.49221],[17.27771,62.49471],[17.28011,62.49579],[17.28443,62.49677],[17.28922,62.49695]]]}},{"type":"Feature","id":"2262R003","properties":{"code":"2262R003","name":"Ljustorp"},"geometry":{"type":"Polygon","coordinates":[[[17.23018,62.83426],[17.28748,62.805],[17.25963,62.79969],[17.30426,62.7722],[17.41232,62.70971],[17.41203,62.70923],[17.42222,62.70959],[17.43197,62.69891],[17.47314,62.67835],[17.48342,62.67411],[17.50383,62.66394],[17.5168,62.65712],[17.5207,62.65596],[17.52293,62.65359],[17.53312,62.64463],[17.53227,62.64421],[17.53115,62.64439],[17.52887,62.64672],[17.52562,62.64788],[17.52259,62.64593],[17.52529,62.64478],[17.52547,62.64389],[17.52688,62.64306],[17.52711,62.64129],[17.52926,62.63923],[17.52945,62.63874],[17.53132,62.63874],[17.53298,62.63931],[17.5393,62.63934],[17.5469,62.63291],[17.54338,62.63315],[17.54134,62.6325],[17.54064,62.63169],[17.54082,62.63129],[17.54432,62.63077],[17.54309,62.62969],[17.55064,62.62513],[17.54238,62.61372],[17.50947,62.6034],[17.49328,62.62352],[17.44667,62.57657],[17.40449,62.57356],[17.40262,62.57279],[17.39785,62.57246],[17.36841,62.56744],[17.36819,62.56688],[17.36684,62.5662],[17.36536,62.56589],[17.36245,62.56463],[17.36218,62.56466],[17.36187,62.56539],[17.36126,62.56509],[17.36067,62.56508],[17.36085,62.56539],[17.35961,62.56583],[17.3591,62.56572],[17.35982,62.56559],[17.35914,62.56545],[17.35908,62.56515],[17.35697,62.56523],[17.35629,62.56551],[17.35668,62.56509],[17.35533,62.56502],[17.35518,62.56528],[17.35489,62.56516],[17.35452,62.56528],[17.35432,62.56496],[17.35401,62.56515],[17.3537,62.56501],[17.35333,62.56451],[17.35149,62.56466],[17.34819,62.56433],[17.34688,62.56446],[17.34546,62.56386],[17.34424,62.56438],[17.34359,62.56444],[17.34174,62.56404],[17.33983,62.56406],[17.33865,62.56367],[17.33801,62.56318],[17.33738,62.56325],[17.336,62.56294],[17.33552,62.56308],[17.33496,62.56299],[17.33494,62.56319],[17.33445,62.56323],[17.33334,62.56296],[17.33243,62.56373],[17.33143,62.56385],[17.33126,62.56463],[17.33171,62.565],[17.33165,62.56542],[17.33058,62.56565],[17.32946,62.56564],[17.33034,62.56661],[17.32875,62.56681],[17.3287,62.56728],[17.32819,62.56772],[17.32554,62.56801],[17.32393,62.56919],[17.3218,62.56953],[17.32138,62.5698],[17.32049,62.56984],[17.31977,62.57048],[17.31804,62.57026],[17.31643,62.57032],[17.31583,62.5698],[17.31529,62.5697],[17.31429,62.56989],[17.31404,62.57018],[17.31315,62.5702],[17.31249,62.57094],[17.31181,62.5708],[17.31102,62.57112],[17.31114,62.57136],[17.312,62.57155],[17.31253,62.572],[17.31344,62.57227],[17.31338,62.57262],[17.31428,62.57316],[17.31438,62.57353],[17.31473,62.57354],[17.31291,62.57445],[17.31201,62.57566],[17.31005,62.57604],[17.30786,62.57529],[17.30643,62.57502],[17.30492,62.57515],[17.30271,62.57479],[17.30039,62.57502],[17.3,62.57526],[17.29902,62.57522],[17.29906,62.57547],[17.29607,62.57525],[17.29612,62.57514],[17.29518,62.57499],[17.29541,62.57488],[17.29451,62.57472],[17.29446,62.57448],[17.29324,62.57447],[17.29255,62.57409],[17.29171,62.57423],[17.28984,62.57368],[17.28835,62.57286],[17.28426,62.57155],[17.27964,62.5715],[17.27839,62.57166],[17.27646,62.57136],[17.27507,62.57167],[17.27395,62.57112],[17.2717,62.57097],[17.27001,62.57016],[17.27297,62.58818],[17.23199,62.59789],[17.15018,62.62459],[17.12139,62.64156],[17.12444,62.64385],[17.10313,62.65422],[17.1004,62.65393],[17.06564,62.67445],[17.0121,62.69808],[16.97004,62.7162],[16.94667,62.7449],[16.9728,62.75685],[16.97258,62.757],[16.97299,62.75741],[16.97384,62.75741],[16.97415,62.75781],[16.97471,62.7577],[17.00604,62.77366],[17.04848,62.79439],[17.11211,62.8271],[17.16443,62.85578],[17.1636,62.85626],[17.17063,62.85964],[17.1717,62.85923],[17.17716,62.8618],[17.23018,62.83426]]]}},{"type":"Feature","id":"2262R007","properties":{"code":"2262R007","name":"Timrå centrum"},"geometry":{"type":"Polygon","coordinates":[[[17.36517,62.49197],[17.36867,62.48339],[17.36513,62.48296],[17.35274,62.48016],[17.35597,62.4732],[17.34215,62.4711],[17.33036,62.47128],[17.32535,62.47166],[17.31903,62.47137],[17.31871,62.47138],[17.31755,62.47153],[17.31711,62.47153],[17.31687,62.47155],[17.31658,62.47161],[17.31687,62.47155],[17.31755,62.47153],[17.31903,62.47137],[17.3237,62.47159],[17.32131,62.47339],[17.31893,62.47586],[17.31692,62.4763],[17.31654,62.47712],[17.31238,62.47745],[17.31412,62.47958],[17.31359,62.47971],[17.3139,62.47983],[17.31271,62.4807],[17.31287,62.48187],[17.31155,62.4836],[17.3106,62.48365],[17.30917,62.48331],[17.30877,62.48361],[17.30819,62.48346],[17.30586,62.48367],[17.30552,62.48429],[17.30217,62.4836],[17.29965,62.48574],[17.29597,62.49597],[17.29819,62.49539],[17.30044,62.49442],[17.30525,62.49058],[17.30726,62.49257],[17.30648,62.49437],[17.30492,62.49552],[17.30193,62.49582],[17.29913,62.49646],[17.2956,62.49765],[17.29226,62.49932],[17.29084,62.5006],[17.29025,62.50167],[17.29017,62.50309],[17.29085,62.50447],[17.29422,62.50706],[17.29689,62.50835],[17.29935,62.50912],[17.30321,62.5098],[17.30491,62.51043],[17.30752,62.51103],[17.31099,62.51242],[17.31303,62.51285],[17.31462,62.51273],[17.31429,62.50615],[17.34173,62.4991],[17.34563,62.49775],[17.34744,62.4969],[17.35628,62.49505],[17.36059,62.4934],[17.36517,62.49197]]]}},{"type":"Feature","id":"2262R008","properties":{"code":"2262R008","name":"Timrå-Söråker omland"},"geometry":{"type":"Polygon","coordinates":[[[17.55064,62.62513],[17.57391,62.61112],[17.608,62.59437],[17.62288,62.59186],[17.66882,62.58054],[17.67318,62.57748],[17.67867,62.57407],[17.68056,62.57192],[17.68061,62.57145],[17.68172,62.57072],[17.6821,62.5699],[17.68191,62.56844],[17.68155,62.56813],[17.68184,62.5664],[17.68233,62.5664],[17.68189,62.56606],[17.68321,62.56396],[17.68252,62.56367],[17.68124,62.56369],[17.6798,62.56407],[17.67887,62.5641],[17.67751,62.56367],[17.67191,62.56299],[17.67157,62.55991],[17.67188,62.55948],[17.67283,62.55907],[17.67248,62.55828],[17.67335,62.55733],[17.67504,62.55664],[17.67523,62.55567],[17.6768,62.55422],[17.67674,62.55355],[17.67766,62.55212],[17.67673,62.55081],[17.67892,62.55031],[17.68603,62.54728],[17.68795,62.54501],[17.68571,62.54161],[17.69308,62.54043],[17.69398,62.53965],[17.69168,62.53795],[17.69246,62.53734],[17.69327,62.53598],[17.69566,62.53545],[17.69935,62.53407],[17.69972,62.53376],[17.70118,62.53345],[17.70195,62.53284],[17.70294,62.53296],[17.70399,62.53275],[17.70581,62.53119],[17.70683,62.53067],[17.70759,62.52969],[17.70869,62.5292],[17.70938,62.52925],[17.70993,62.52967],[17.71143,62.52988],[17.71225,62.52983],[17.7125,62.53012],[17.71318,62.53016],[17.71362,62.53048],[17.71423,62.53028],[17.71532,62.53051],[17.7166,62.5312],[17.71754,62.52712],[17.74053,62.51102],[17.74746,62.507],[17.7415,62.49711],[17.7999,62.47071],[18.28498,62.41174],[18.23135,62.30833],[17.65821,62.37746],[17.59959,62.42047],[17.56295,62.41443],[17.52749,62.42048],[17.5097,62.43102],[17.501,62.43988],[17.51885,62.44706],[17.49504,62.47159],[17.49396,62.47811],[17.47903,62.48861],[17.46171,62.49106],[17.41308,62.49397],[17.41518,62.49443],[17.44056,62.49808],[17.43568,62.51397],[17.42514,62.52062],[17.42742,62.52856],[17.43582,62.5397],[17.43599,62.54572],[17.42729,62.55008],[17.42998,62.55142],[17.43176,62.5532],[17.43215,62.5551],[17.431,62.55719],[17.42965,62.55824],[17.42746,62.5593],[17.42201,62.56095],[17.41956,62.56143],[17.41495,62.56168],[17.41094,62.56125],[17.40879,62.56072],[17.406,62.55957],[17.39658,62.55676],[17.39418,62.55568],[17.39242,62.55434],[17.39153,62.55294],[17.39144,62.55127],[17.38852,62.55133],[17.38663,62.55251],[17.38417,62.55344],[17.38129,62.55406],[17.37817,62.55432],[17.37537,62.55427],[17.37231,62.55388],[17.36955,62.55316],[17.36727,62.55214],[17.36433,62.54982],[17.3636,62.54851],[17.36175,62.54655],[17.35994,62.5436],[17.35993,62.54175],[17.36112,62.54],[17.36162,62.53841],[17.36261,62.53729],[17.36311,62.53535],[17.3614,62.53421],[17.35853,62.53443],[17.35465,62.53432],[17.35023,62.53363],[17.34772,62.53276],[17.34592,62.53172],[17.3436,62.53117],[17.33948,62.52967],[17.33245,62.52832],[17.33045,62.52776],[17.32561,62.52574],[17.3232,62.52391],[17.3225,62.5225],[17.32262,62.51995],[17.32387,62.51815],[17.32579,62.51687],[17.32881,62.51573],[17.33265,62.51505],[17.33581,62.51493],[17.34066,62.5152],[17.33909,62.51401],[17.33763,62.51213],[17.33377,62.51095],[17.33227,62.51118],[17.32898,62.51239],[17.32618,62.51289],[17.31964,62.51335],[17.31379,62.51296],[17.31036,62.51224],[17.30752,62.51103],[17.30491,62.51043],[17.30321,62.5098],[17.30086,62.50947],[17.29871,62.50894],[17.29632,62.50814],[17.29466,62.50734],[17.29186,62.50544],[17.29062,62.50414],[17.29011,62.50272],[17.29059,62.50095],[17.29226,62.49932],[17.2956,62.49765],[17.30051,62.49609],[17.30492,62.49552],[17.30648,62.49437],[17.30726,62.49257],[17.30525,62.49058],[17.30395,62.49143],[17.30135,62.49385],[17.29878,62.49518],[17.29618,62.49593],[17.29247,62.49659],[17.28774,62.49698],[17.28372,62.49667],[17.28011,62.49579],[17.27771,62.49471],[17.27377,62.49221],[17.27071,62.49121],[17.26876,62.49008],[17.2675,62.48875],[17.267,62.48698],[17.2674,62.48555],[17.26892,62.48338],[17.27152,62.48163],[17.27332,62.48095],[17.27552,62.48041],[17.28222,62.47453],[17.28408,62.47349],[17.28621,62.4727],[17.28669,62.47149],[17.28759,62.47045],[17.2893,62.46907],[17.29079,62.46824],[17.291,62.46728],[17.28928,62.45815],[17.28009,62.45517],[17.26238,62.44883],[17.26166,62.44901],[17.23907,62.44488],[17.21627,62.44457],[17.21463,62.45215],[17.21169,62.46144],[17.20246,62.46747],[17.20061,62.47281],[17.20038,62.48007],[17.20064,62.48117],[17.2089,62.50054],[17.21066,62.50445],[17.22414,62.52127],[17.2254,62.52136],[17.22596,62.52022],[17.2277,62.51897],[17.23127,62.51782],[17.2367,62.51667],[17.23712,62.51725],[17.2371,62.51812],[17.23504,62.51893],[17.23502,62.51934],[17.23736,62.51978],[17.24408,62.52227],[17.24552,62.52185],[17.24674,62.5221],[17.24736,62.52186],[17.25018,62.52218],[17.25079,62.52272],[17.25061,62.52477],[17.25823,62.5385],[17.26853,62.56155],[17.27001,62.57016],[17.27066,62.57052],[17.27185,62.57102],[17.2743,62.5712],[17.27507,62.57167],[17.27646,62.57136],[17.27839,62.57166],[17.27964,62.5715],[17.28426,62.57155],[17.28835,62.57286],[17.28984,62.57368],[17.29171,62.57423],[17.29255,62.57409],[17.29324,62.57447],[17.29416,62.57457],[17.29431,62.57444],[17.29451,62.57472],[17.29541,62.57488],[17.29526,62.57502],[17.2974,62.57544],[17.29906,62.57547],[17.29902,62.57522],[17.3,62.57526],[17.30039,62.57502],[17.30271,62.57479],[17.30492,62.57515],[17.30643,62.57502],[17.30786,62.57529],[17.31005,62.57604],[17.31201,62.57566],[17.31291,62.57445],[17.31473,62.57354],[17.31438,62.57353],[17.31428,62.57316],[17.31338,62.57262],[17.31344,62.57227],[17.31253,62.572],[17.312,62.57155],[17.31114,62.57136],[17.31102,62.57112],[17.31181,62.5708],[17.31249,62.57094],[17.31315,62.5702],[17.31404,62.57018],[17.31429,62.56989],[17.31494,62.56973],[17.31583,62.5698],[17.31643,62.57032],[17.31804,62.57026],[17.31977,62.57048],[17.32049,62.56984],[17.32138,62.5698],[17.3218,62.56953],[17.3237,62.56927],[17.32554,62.56801],[17.32795,62.56779],[17.3286,62.56741],[17.32875,62.56681],[17.33034,62.56661],[17.32946,62.56564],[17.33058,62.56565],[17.33165,62.56542],[17.33171,62.565],[17.33126,62.56463],[17.33143,62.56385],[17.33243,62.56373],[17.33334,62.56296],[17.33466,62.56324],[17.33496,62.56299],[17.33552,62.56308],[17.336,62.56294],[17.33738,62.56325],[17.33819,62.56321],[17.33865,62.56367],[17.34019,62.56414],[17.34147,62.56401],[17.34359,62.56444],[17.34424,62.56438],[17.34546,62.56386],[17.34688,62.56446],[17.34819,62.56433],[17.35149,62.56466],[17.35333,62.56451],[17.3537,62.56501],[17.35401,62.56515],[17.35432,62.56496],[17.35452,62.56528],[17.35489,62.56516],[17.35518,62.56528],[17.35533,62.56502],[17.35668,62.56509],[17.35629,62.56551],[17.35697,62.56523],[17.35908,62.56515],[17.35914,62.56545],[17.35982,62.56559],[17.3591,62.56572],[17.35961,62.56583],[17.36085,62.56539],[17.36067,62.56508],[17.36126,62.56509],[17.36187,62.56539],[17.36218,62.56466],[17.36245,62.56463],[17.36536,62.56589],[17.36684,62.5662],[17.36819,62.56688],[17.36841,62.56744],[17.39785,62.57246],[17.40262,62.57279],[17.40449,62.57356],[17.44667,62.57657],[17.49328,62.62352],[17.50947,62.6034],[17.54238,62.61372],[17.55064,62.62513]],[[17.47403,62.54167],[17.47161,62.54156],[17.4686,62.5411],[17.46576,62.54024],[17.46395,62.53937],[17.46231,62.53812],[17.46153,62.53705],[17.46105,62.53532],[17.46117,62.53428],[17.46201,62.53294],[17.46363,62.53169],[17.46652,62.53023],[17.46948,62.52922],[17.46938,62.52728],[17.47092,62.52527],[17.47298,62.52398],[17.47778,62.52175],[17.47817,62.52047],[17.47908,62.51921],[17.47636,62.51754],[17.47497,62.51611],[17.47444,62.51448],[17.47307,62.51262],[17.47305,62.51084],[17.47477,62.50839],[17.4775,62.50645],[17.47835,62.50502],[17.48008,62.50372],[17.48052,62.50245],[17.48138,62.50145],[17.48262,62.50055],[17.48445,62.49968],[17.48562,62.49699],[17.48679,62.49573],[17.48914,62.49442],[17.49279,62.49336],[17.49299,62.49164],[17.49434,62.49005],[17.49739,62.48848],[17.49909,62.48732],[17.50147,62.48631],[17.50353,62.48425],[17.50666,62.4828],[17.51005,62.48208],[17.51391,62.48185],[17.51836,62.48216],[17.52207,62.48297],[17.52276,62.48094],[17.52498,62.47905],[17.52615,62.4774],[17.528,62.47612],[17.53053,62.4751],[17.53499,62.47423],[17.53814,62.47411],[17.54042,62.47425],[17.54411,62.47297],[17.54782,62.47242],[17.55192,62.47243],[17.55582,62.47304],[17.55987,62.47442],[17.56223,62.47579],[17.56354,62.47742],[17.56358,62.47948],[17.56266,62.48081],[17.56034,62.48235],[17.55829,62.48435],[17.55595,62.48552],[17.55338,62.48628],[17.55148,62.48776],[17.54849,62.489],[17.54648,62.49095],[17.54996,62.49196],[17.55249,62.49325],[17.55418,62.49516],[17.55434,62.4969],[17.55359,62.49826],[17.55213,62.4995],[17.55008,62.5005],[17.5478,62.50118],[17.5467,62.50316],[17.5464,62.50585],[17.54501,62.50765],[17.54251,62.50914],[17.53903,62.51023],[17.54046,62.5116],[17.54118,62.5135],[17.54082,62.5149],[17.53955,62.51645],[17.53647,62.51818],[17.53269,62.51922],[17.53139,62.52029],[17.52984,62.5211],[17.52613,62.52229],[17.52315,62.52272],[17.51952,62.52277],[17.51678,62.52336],[17.51444,62.5236],[17.51137,62.52358],[17.50816,62.52323],[17.50694,62.52473],[17.50563,62.52563],[17.50387,62.52642],[17.50216,62.52829],[17.50051,62.52952],[17.5021,62.53149],[17.50224,62.53323],[17.50074,62.53542],[17.49905,62.53666],[17.49675,62.53766],[17.49209,62.53908],[17.48913,62.53951],[17.48466,62.53971],[17.48202,62.54059],[17.4788,62.54126],[17.47403,62.54167]]]}}]}