{"type":"FeatureCollection","features":[{"type":"Feature","id":"2282R001","properties":{"code":"2282R001","name":"Bollstabruk"},"geometry":{"type":"Polygon","coordinates":[[[17.67423,63.01257],[17.6788,63.01204],[17.68122,63.01139],[17.6831,63.01065],[17.6851,63.00938],[17.68635,63.00784],[17.688,63.00699],[17.68919,63.00606],[17.69199,63.00538],[17.69552,63.00387],[17.69867,63.00155],[17.70057,63.00051],[17.70177,62.99939],[17.6941,63.0003],[17.68466,63.00296],[17.67698,63.00466],[17.67638,63.00326],[17.67673,63.00163],[17.67469,62.99969],[17.67189,62.99535],[17.67227,62.99368],[17.6733,62.99244],[17.67446,62.99168],[17.67782,62.99027],[17.6736,62.9895],[17.67474,62.98905],[17.67268,62.98752],[17.66513,62.98526],[17.66438,62.98288],[17.66134,62.98335],[17.65899,62.98393],[17.65702,62.98468],[17.65447,62.9861],[17.65304,62.98739],[17.65223,62.98877],[17.65139,62.9909],[17.65142,62.99198],[17.64728,62.99243],[17.64185,62.99399],[17.6374,62.99458],[17.63359,62.99592],[17.63191,62.99705],[17.63109,62.99801],[17.63068,62.99902],[17.6308,63.00038],[17.63238,63.0023],[17.6353,63.00376],[17.63425,63.00476],[17.63361,63.00611],[17.63363,63.00717],[17.63433,63.00852],[17.6362,63.01002],[17.63913,63.01123],[17.64355,63.01221],[17.64822,63.01249],[17.65164,63.0122],[17.65469,63.01228],[17.65786,63.01201],[17.66078,63.01139],[17.66323,63.01049],[17.66563,63.01142],[17.66844,63.01214],[17.67155,63.01252],[17.67423,63.01257]]]}},{"type":"Feature","id":"2282R002","properties":{"code":"2282R002","name":"Kramfors stad centrum"},"geometry":{"type":"Polygon","coordinates":[[[17.79721,62.94362],[17.79806,62.941],[17.80216,62.93882],[17.80421,62.93747],[17.80217,62.93686],[17.80196,62.9366],[17.8011,62.9369],[17.79964,62.93665],[17.79952,62.93646],[17.80425,62.93251],[17.80466,62.93149],[17.80438,62.9309],[17.80076,62.92852],[17.79683,62.92664],[17.79333,62.92621],[17.78921,62.92606],[17.78457,62.926],[17.78239,62.92639],[17.78142,62.92629],[17.77369,62.93255],[17.77571,62.93341],[17.77552,62.93377],[17.77736,62.93462],[17.77862,62.93464],[17.77992,62.93522],[17.78106,62.93534],[17.78303,62.93606],[17.78329,62.93667],[17.78137,62.93789],[17.77861,62.93915],[17.77936,62.94068],[17.78099,62.94146],[17.78035,62.94161],[17.78312,62.9421],[17.78879,62.94362],[17.79721,62.94362]]]}},{"type":"Feature","id":"2282R003","properties":{"code":"2282R003","name":"Kramfors stad södra"},"geometry":{"type":"Polygon","coordinates":[[[17.77316,62.93228],[17.77369,62.93255],[17.78306,62.92492],[17.78471,62.92307],[17.78539,62.92143],[17.78845,62.92082],[17.78911,62.92026],[17.79278,62.91943],[17.79597,62.91954],[17.79971,62.91789],[17.80227,62.91632],[17.80932,62.9162],[17.81523,62.91667],[17.81672,62.91692],[17.81864,62.91817],[17.82049,62.91826],[17.82456,62.91797],[17.82655,62.91712],[17.82843,62.91676],[17.83564,62.91617],[17.83684,62.9158],[17.857,62.91459],[17.86083,62.91296],[17.86298,62.91169],[17.86483,62.90993],[17.86539,62.90845],[17.86516,62.907],[17.86434,62.90579],[17.86266,62.90443],[17.86133,62.90282],[17.85796,62.90034],[17.8552,62.89904],[17.85243,62.89824],[17.84962,62.89771],[17.84631,62.89748],[17.84425,62.89558],[17.84205,62.8945],[17.84015,62.89386],[17.83651,62.89319],[17.83261,62.89307],[17.82524,62.89358],[17.82229,62.89415],[17.82011,62.89487],[17.8175,62.89632],[17.81597,62.89815],[17.81309,62.89891],[17.81045,62.9002],[17.80887,62.90176],[17.80842,62.90319],[17.80269,62.9014],[17.79977,62.90091],[17.79742,62.90077],[17.79505,62.90084],[17.79206,62.90123],[17.78665,62.90289],[17.78445,62.9039],[17.78215,62.90542],[17.77825,62.90624],[17.77506,62.90762],[17.77346,62.90889],[17.77117,62.91191],[17.77074,62.91422],[17.76937,62.91497],[17.76718,62.91516],[17.76445,62.91567],[17.76072,62.917],[17.75834,62.91885],[17.75777,62.9199],[17.75769,62.92122],[17.75379,62.92103],[17.7491,62.92129],[17.74488,62.92191],[17.73887,62.92329],[17.74741,62.92449],[17.74747,62.92544],[17.74701,62.9257],[17.74802,62.92582],[17.74841,62.92645],[17.74867,62.92661],[17.74917,62.92656],[17.74965,62.92685],[17.75406,62.92638],[17.75541,62.92769],[17.75441,62.92778],[17.7545,62.92841],[17.75569,62.92933],[17.75689,62.92905],[17.75728,62.92968],[17.75856,62.92994],[17.75964,62.93048],[17.76056,62.93061],[17.76103,62.9312],[17.76186,62.9312],[17.76453,62.93208],[17.76832,62.93278],[17.77132,62.9328],[17.77316,62.93228]]]}},{"type":"Feature","id":"2282R004","properties":{"code":"2282R004","name":"Kramfors stad västra"},"geometry":{"type":"Polygon","coordinates":[[[17.77979,62.94852],[17.78346,62.94803],[17.7861,62.94726],[17.78501,62.9469],[17.78284,62.94233],[17.78312,62.9421],[17.78035,62.94161],[17.78099,62.94146],[17.77936,62.94068],[17.77861,62.93915],[17.78137,62.93789],[17.78329,62.93667],[17.78303,62.93606],[17.78106,62.93534],[17.77992,62.93522],[17.77862,62.93464],[17.77736,62.93462],[17.77552,62.93377],[17.77571,62.93341],[17.77316,62.93228],[17.77132,62.9328],[17.76832,62.93278],[17.76453,62.93208],[17.76186,62.9312],[17.76103,62.9312],[17.76056,62.93061],[17.75964,62.93048],[17.75856,62.92994],[17.75728,62.92968],[17.75689,62.92905],[17.75569,62.92933],[17.7545,62.92841],[17.75441,62.92778],[17.75541,62.92769],[17.75406,62.92638],[17.74965,62.92685],[17.74917,62.92656],[17.74867,62.92661],[17.74798,62.92616],[17.74802,62.92582],[17.74701,62.9257],[17.74747,62.92544],[17.74741,62.92449],[17.73887,62.92329],[17.73408,62.92504],[17.73265,62.92594],[17.73038,62.92797],[17.72781,62.92859],[17.72483,62.92899],[17.72206,62.92973],[17.71682,62.93168],[17.71393,62.93344],[17.71258,62.93559],[17.71234,62.9382],[17.71286,62.93961],[17.71377,62.94062],[17.71557,62.94178],[17.71778,62.94271],[17.7198,62.94327],[17.72208,62.94365],[17.72581,62.94383],[17.73066,62.94445],[17.73522,62.94432],[17.73792,62.94385],[17.74064,62.94307],[17.74257,62.94219],[17.7442,62.94104],[17.74822,62.9404],[17.75154,62.93921],[17.75325,62.93963],[17.75584,62.94098],[17.76008,62.94236],[17.76076,62.9436],[17.76202,62.94479],[17.7652,62.94637],[17.76861,62.94741],[17.77087,62.94786],[17.77669,62.94851],[17.77979,62.94852]]]}},{"type":"Feature","id":"2282R005","properties":{"code":"2282R005","name":"Kramfors stad östra"},"geometry":{"type":"Polygon","coordinates":[[[17.79145,62.9473],[17.79552,62.94697],[17.79886,62.94619],[17.8015,62.94498],[17.8032,62.94347],[17.80555,62.94351],[17.8087,62.94331],[17.81582,62.94388],[17.8181,62.94378],[17.82099,62.94335],[17.82359,62.9426],[17.82566,62.94159],[17.82715,62.94032],[17.82784,62.93913],[17.83085,62.93887],[17.83344,62.93838],[17.83724,62.93711],[17.83886,62.93616],[17.8406,62.93455],[17.84134,62.93317],[17.84137,62.93204],[17.84316,62.93133],[17.84495,62.93019],[17.84584,62.92923],[17.84721,62.92656],[17.84922,62.92533],[17.85117,62.92329],[17.85186,62.92164],[17.85141,62.91988],[17.85236,62.91798],[17.85243,62.9163],[17.855,62.91555],[17.857,62.91459],[17.83684,62.9158],[17.83564,62.91617],[17.82843,62.91676],[17.82655,62.91712],[17.82456,62.91797],[17.82049,62.91826],[17.81864,62.91817],[17.81672,62.91692],[17.81523,62.91667],[17.80932,62.9162],[17.80227,62.91632],[17.79971,62.91789],[17.79597,62.91954],[17.79278,62.91943],[17.78911,62.92026],[17.78845,62.92082],[17.78539,62.92143],[17.78425,62.92374],[17.78142,62.92629],[17.78239,62.92639],[17.78457,62.926],[17.78921,62.92606],[17.79333,62.92621],[17.79683,62.92664],[17.79876,62.92744],[17.80223,62.92941],[17.80438,62.9309],[17.80466,62.93149],[17.80425,62.93251],[17.79952,62.93646],[17.79964,62.93665],[17.8011,62.9369],[17.80196,62.9366],[17.80217,62.93686],[17.80421,62.93747],[17.80216,62.93882],[17.79806,62.941],[17.79721,62.94362],[17.78879,62.94362],[17.78312,62.9421],[17.78283,62.94229],[17.78501,62.9469],[17.7861,62.94726],[17.78639,62.94714],[17.79145,62.9473]]]}},{"type":"Feature","id":"2282R006","properties":{"code":"2282R006","name":"Nora-Skog"},"geometry":{"type":"Polygon","coordinates":[[[18.02872,63.00529],[18.05593,62.99465],[18.07923,62.98787],[18.08185,62.98758],[18.08326,62.98718],[18.08477,62.98664],[18.08591,62.98578],[18.08706,62.98547],[18.08744,62.98503],[18.09032,62.9836],[18.09075,62.9831],[18.09191,62.98297],[18.09388,62.98202],[18.09481,62.98207],[18.09537,62.98105],[18.09508,62.98068],[18.09609,62.98023],[18.09692,62.98015],[18.0978,62.97925],[18.099,62.97902],[18.10005,62.9784],[18.10033,62.97782],[18.10238,62.97683],[18.10409,62.97543],[18.10654,62.97479],[18.10747,62.9742],[18.10734,62.97376],[18.10913,62.97296],[18.11565,62.96885],[18.11612,62.969],[18.12266,62.96248],[18.12048,62.96231],[18.12252,62.96075],[18.12233,62.96012],[18.12311,62.9592],[18.12467,62.95835],[18.12155,62.95574],[18.1217,62.95491],[18.13442,62.94335],[18.15543,62.9413],[18.17213,62.94039],[18.16886,62.93682],[18.15999,62.91284],[18.22819,62.88672],[18.23371,62.88663],[18.22985,62.87931],[18.23614,62.87379],[18.24017,62.86974],[18.24507,62.86995],[18.26725,62.86975],[18.28048,62.86384],[18.2971,62.85085],[18.28732,62.83986],[18.29,62.8099],[18.58938,62.59575],[18.58174,62.59875],[18.23024,62.72534],[18.18309,62.74096],[18.17159,62.75619],[18.15364,62.75829],[18.12391,62.75656],[18.10067,62.75854],[18.08692,62.7658],[18.07814,62.76894],[18.05463,62.77251],[18.0446,62.77964],[18.02955,62.78623],[18.00628,62.79406],[17.98133,62.79488],[17.96088,62.79341],[17.93964,62.79628],[17.9244,62.80659],[17.90367,62.81058],[17.89459,62.81828],[17.89443,62.82244],[17.90197,62.83143],[17.90183,62.84711],[17.90231,62.84926],[17.90388,62.85015],[17.90332,62.85074],[17.9038,62.85126],[17.90321,62.8535],[17.90399,62.85487],[17.90331,62.85595],[17.9038,62.85648],[17.90475,62.85991],[17.89879,62.86776],[17.88818,62.87296],[17.89777,62.8768],[17.89946,62.88036],[17.89931,62.88252],[17.90301,62.8827],[17.90703,62.88466],[17.90785,62.88474],[17.90811,62.88566],[17.90925,62.88586],[17.9165,62.8896],[17.93883,62.89439],[17.94507,62.89551],[17.95533,62.91196],[17.95924,62.91337],[17.95963,62.91478],[17.95891,62.91569],[17.96109,62.91659],[17.95772,62.91816],[17.95807,62.919],[17.96083,62.91861],[17.9598,62.92495],[17.97321,62.9397],[17.98405,62.94417],[17.98642,62.94491],[17.98755,62.94685],[17.99382,62.94683],[17.99479,62.94709],[17.99625,62.94839],[17.99845,62.94883],[18.00015,62.94975],[18.0006,62.94934],[18.0186,62.95316],[18.02765,62.95986],[18.03299,62.96172],[18.03818,62.96381],[18.03066,62.97318],[18.02995,62.97888],[18.01207,62.9957],[18.01021,62.99536],[18.00125,63.00297],[18.00953,63.00453],[18.01218,63.00588],[18.016,63.00528],[18.02215,63.00519],[18.02393,63.00591],[18.02806,63.00588],[18.02872,63.00529]]]}},{"type":"Feature","id":"2282R007","properties":{"code":"2282R007","name":"Nordingrå"},"geometry":{"type":"Polygon","coordinates":[[[18.47079,63.01182],[18.57542,63.00064],[18.58422,62.97376],[18.98628,62.83422],[18.96142,62.82034],[18.81388,62.73382],[18.58938,62.59575],[18.29,62.8099],[18.28732,62.83986],[18.2971,62.85085],[18.28048,62.86384],[18.26725,62.86975],[18.24507,62.86995],[18.24017,62.86974],[18.23614,62.87379],[18.22985,62.87931],[18.23371,62.88663],[18.22819,62.88672],[18.15999,62.91284],[18.16886,62.93682],[18.18356,62.9528],[18.19992,62.97],[18.20217,62.96954],[18.2037,62.96945],[18.20408,62.96865],[18.20696,62.96798],[18.21324,62.96495],[18.21452,62.96703],[18.21088,62.96742],[18.21658,62.97537],[18.23241,62.99077],[18.23196,62.99172],[18.23151,62.9919],[18.2313,62.99276],[18.23013,62.99319],[18.22985,62.99428],[18.22937,62.99458],[18.22964,62.9948],[18.22839,62.99509],[18.22793,62.99572],[18.22778,62.99625],[18.22829,62.99643],[18.22744,62.99694],[18.22773,62.99731],[18.2288,62.99763],[18.2289,62.99794],[18.22776,62.99827],[18.22806,62.99874],[18.22547,62.99953],[18.22568,63.00326],[18.24179,63.00107],[18.24962,63.00191],[18.26963,63.00165],[18.27568,63.00211],[18.28583,63.00142],[18.37205,63.01215],[18.41863,63.01329],[18.47079,63.01182]]]}},{"type":"Feature","id":"2282R008","properties":{"code":"2282R008","name":"Nyland-Sandslån"},"geometry":{"type":"Polygon","coordinates":[[[17.79331,63.03813],[17.79665,63.03775],[17.79947,63.03704],[17.80235,63.03586],[17.80397,63.03469],[17.80496,63.03327],[17.80512,63.03189],[17.80451,63.03053],[17.80315,63.02902],[17.80743,63.02952],[17.81077,63.02965],[17.81326,63.02955],[17.81587,63.0292],[17.82066,63.02908],[17.82369,63.02864],[17.82665,63.02775],[17.83039,63.02786],[17.83449,63.02744],[17.83747,63.0267],[17.83981,63.0257],[17.84192,63.02406],[17.84278,63.02186],[17.84211,63.02008],[17.84034,63.0185],[17.84127,63.01604],[17.84085,63.01468],[17.84003,63.01369],[17.8383,63.0125],[17.83622,63.01163],[17.83449,63.0106],[17.83141,63.00957],[17.82928,63.00917],[17.82627,63.00895],[17.82198,63.00923],[17.81777,63.00886],[17.81377,63.00909],[17.81228,63.00819],[17.81075,63.00667],[17.80879,63.00563],[17.80563,63.0047],[17.802,63.00427],[17.79899,63.00431],[17.7961,63.00469],[17.78813,63.00682],[17.78369,63.00897],[17.77984,63.01162],[17.77629,63.0099],[17.77773,63.00896],[17.77966,63.00714],[17.78045,63.00535],[17.78167,63.00412],[17.78217,63.00307],[17.78222,63.00198],[17.78159,63.00055],[17.78048,62.99942],[17.77867,62.99833],[17.77613,62.99741],[17.7741,62.99615],[17.77131,62.99511],[17.7685,62.99444],[17.76619,62.99417],[17.76258,62.99401],[17.75615,62.99439],[17.75182,62.99524],[17.74934,62.99544],[17.74713,62.99584],[17.7431,62.997],[17.74038,62.99808],[17.73829,62.99959],[17.73742,63.00098],[17.73671,63.00361],[17.73674,63.00497],[17.73801,63.00692],[17.738,63.00886],[17.7396,63.01107],[17.73976,63.01229],[17.73826,63.0138],[17.7378,63.0156],[17.73841,63.01723],[17.73951,63.01855],[17.74131,63.01972],[17.74519,63.02148],[17.7481,63.02538],[17.74977,63.02663],[17.75164,63.02751],[17.75575,63.02856],[17.7602,63.0289],[17.76245,63.03047],[17.76451,63.03131],[17.76664,63.0319],[17.76896,63.03229],[17.77154,63.03247],[17.77445,63.03302],[17.77722,63.03322],[17.77784,63.03429],[17.77928,63.03551],[17.78087,63.03635],[17.78338,63.03719],[17.78556,63.03763],[17.78934,63.03806],[17.79331,63.03813]]]}},{"type":"Feature","id":"2282R009","properties":{"code":"2282R009","name":"Ullånger"},"geometry":{"type":"Polygon","coordinates":[[[18.01911,63.11323],[18.0277,63.10465],[18.07028,63.10238],[18.10363,63.10354],[18.11439,63.10552],[18.11436,63.10588],[18.11488,63.10616],[18.11772,63.10592],[18.11866,63.10607],[18.11929,63.10575],[18.12051,63.10561],[18.12032,63.10592],[18.12164,63.10635],[18.12188,63.1068],[18.12314,63.10719],[18.12471,63.10828],[18.13242,63.10566],[18.13317,63.10559],[18.13316,63.10544],[18.13399,63.1052],[18.13444,63.10464],[18.13792,63.10397],[18.1403,63.10297],[18.14083,63.10322],[18.14206,63.10279],[18.14403,63.10247],[18.14679,63.1013],[18.14777,63.10107],[18.14846,63.10112],[18.15088,63.10029],[18.15478,63.09953],[18.1555,63.09911],[18.15665,63.09898],[18.15888,63.09801],[18.15992,63.09778],[18.16077,63.09788],[18.16151,63.09773],[18.16219,63.09721],[18.1637,63.09734],[18.16421,63.09721],[18.16511,63.09625],[18.16792,63.09571],[18.16781,63.09512],[18.17074,63.09469],[18.17174,63.09423],[18.17343,63.09384],[18.17396,63.09315],[18.17512,63.0926],[18.17835,63.09198],[18.17934,63.09105],[18.17917,63.09053],[18.17978,63.09013],[18.18284,63.08976],[18.18325,63.08898],[18.18519,63.08806],[18.18644,63.08785],[18.18653,63.08721],[18.18758,63.08709],[18.18809,63.08661],[18.19,63.08609],[18.19223,63.08615],[18.19337,63.08657],[18.19379,63.08653],[18.19884,63.08459],[18.19653,63.0774],[18.19551,63.07661],[18.19571,63.07035],[18.222,63.05308],[18.22137,63.05106],[18.22212,63.0502],[18.22365,63.0492],[18.2238,63.04733],[18.22452,63.04687],[18.22591,63.04488],[18.23655,63.03773],[18.24477,63.0328],[18.26552,63.01919],[18.2734,63.01354],[18.28339,63.00693],[18.28583,63.00142],[18.27568,63.00211],[18.26963,63.00165],[18.24962,63.00191],[18.24179,63.00107],[18.22568,63.00326],[18.22547,62.99953],[18.22806,62.99874],[18.22776,62.99827],[18.2289,62.99794],[18.2288,62.99763],[18.22773,62.99731],[18.22744,62.99694],[18.22829,62.99643],[18.22778,62.99625],[18.22793,62.99572],[18.22839,62.99509],[18.22964,62.9948],[18.22937,62.99458],[18.22985,62.99428],[18.23013,62.99319],[18.2313,62.99276],[18.23151,62.9919],[18.23196,62.99172],[18.23241,62.99077],[18.21658,62.97537],[18.21088,62.96742],[18.21452,62.96703],[18.21324,62.96495],[18.20696,62.96798],[18.20408,62.96865],[18.2037,62.96945],[18.20217,62.96954],[18.19992,62.97],[18.17213,62.94039],[18.15543,62.9413],[18.13442,62.94335],[18.1217,62.95491],[18.12155,62.95574],[18.12467,62.95835],[18.12311,62.9592],[18.12233,62.96012],[18.12252,62.96075],[18.12048,62.96231],[18.12266,62.96248],[18.11612,62.969],[18.11565,62.96885],[18.10913,62.97296],[18.10734,62.97376],[18.10747,62.9742],[18.10654,62.97479],[18.10409,62.97543],[18.10238,62.97683],[18.10033,62.97782],[18.10005,62.9784],[18.099,62.97902],[18.0978,62.97925],[18.09692,62.98015],[18.09609,62.98023],[18.09508,62.98068],[18.09537,62.98105],[18.09481,62.98207],[18.09388,62.98202],[18.09191,62.98297],[18.09075,62.9831],[18.09032,62.9836],[18.08744,62.98503],[18.08706,62.98547],[18.08591,62.98578],[18.08477,62.98664],[18.08326,62.98718],[18.08185,62.98758],[18.07923,62.98787],[18.05593,62.99465],[18.02872,63.00529],[18.00042,63.03038],[17.99703,63.02956],[17.99497,63.02987],[17.98598,63.03375],[17.98216,63.03346],[17.98132,63.03471],[17.98158,63.03606],[17.98302,63.03882],[17.98876,63.04183],[17.99121,63.0437],[17.97806,63.06386],[17.98055,63.07367],[17.97775,63.07433],[17.97467,63.07551],[17.97338,63.07624],[17.97284,63.07728],[17.97037,63.07905],[17.97881,63.0798],[17.97093,63.08472],[17.9728,63.08536],[17.97341,63.09548],[17.98326,63.09604],[17.98864,63.09613],[17.99839,63.11875],[18.01911,63.11323]]]}},{"type":"Feature","id":"2282R010","properties":{"code":"2282R010","name":"Vibyggerå"},"geometry":{"type":"Polygon","coordinates":[[[18.10282,63.17624],[18.17149,63.16191],[18.18618,63.15852],[18.24869,63.14479],[18.25339,63.14395],[18.3026,63.13354],[18.39838,63.1129],[18.49472,63.08404],[18.49803,63.08402],[18.50548,63.08476],[18.51332,63.08446],[18.51964,63.08566],[18.5516,63.06754],[18.57455,63.0644],[18.60107,63.03134],[18.57542,63.00064],[18.47079,63.01182],[18.41863,63.01329],[18.37205,63.01215],[18.28583,63.00142],[18.28339,63.00693],[18.2734,63.01354],[18.26552,63.01919],[18.24477,63.0328],[18.23655,63.03773],[18.22591,63.04488],[18.22452,63.04687],[18.2238,63.04733],[18.22365,63.0492],[18.22212,63.0502],[18.22137,63.05106],[18.222,63.05308],[18.19571,63.07035],[18.19551,63.07661],[18.19653,63.0774],[18.19884,63.08459],[18.19379,63.08653],[18.19337,63.08657],[18.19223,63.08615],[18.19,63.08609],[18.18809,63.08661],[18.18758,63.08709],[18.18653,63.08721],[18.18644,63.08785],[18.18519,63.08806],[18.18325,63.08898],[18.18284,63.08976],[18.17978,63.09013],[18.17917,63.09053],[18.17934,63.09105],[18.17835,63.09198],[18.17512,63.0926],[18.17396,63.09315],[18.17343,63.09384],[18.17174,63.09423],[18.17074,63.09469],[18.16781,63.09512],[18.16792,63.09571],[18.16511,63.09625],[18.16421,63.09721],[18.1637,63.09734],[18.16219,63.09721],[18.16151,63.09773],[18.16077,63.09788],[18.15992,63.09778],[18.15888,63.09801],[18.15665,63.09898],[18.1555,63.09911],[18.15478,63.09953],[18.15088,63.10029],[18.14846,63.10112],[18.14777,63.10107],[18.14679,63.1013],[18.14403,63.10247],[18.14206,63.10279],[18.14083,63.10322],[18.1403,63.10297],[18.13792,63.10397],[18.13444,63.10464],[18.13399,63.1052],[18.13316,63.10544],[18.13317,63.10559],[18.13242,63.10566],[18.12471,63.10828],[18.12314,63.10719],[18.12188,63.1068],[18.12164,63.10635],[18.12032,63.10592],[18.12051,63.10561],[18.11929,63.10575],[18.11866,63.10607],[18.11772,63.10592],[18.11488,63.10616],[18.11436,63.10588],[18.11439,63.10552],[18.10363,63.10354],[18.07028,63.10238],[18.0277,63.10465],[18.00275,63.12917],[18.03962,63.13734],[18.04355,63.15744],[18.10094,63.1601],[18.10282,63.17624]]]}},{"type":"Feature","id":"2282R011","properties":{"code":"2282R011","name":"Väja-Dynäs"},"geometry":{"type":"Polygon","coordinates":[[[17.68466,63.00296],[17.6941,63.0003],[17.70177,62.99939],[17.70258,62.9977],[17.70249,62.99493],[17.70489,62.99219],[17.70653,62.99101],[17.70964,62.98745],[17.71019,62.98576],[17.70967,62.9842],[17.71027,62.98355],[17.71331,62.98301],[17.71608,62.98216],[17.72683,62.98016],[17.73071,62.97896],[17.73301,62.9778],[17.73726,62.97802],[17.74385,62.97756],[17.7475,62.97806],[17.75125,62.97801],[17.75543,62.97726],[17.7592,62.9757],[17.76127,62.97411],[17.76318,62.97059],[17.76536,62.96925],[17.76679,62.968],[17.76762,62.96623],[17.76739,62.96482],[17.76641,62.96343],[17.76576,62.9613],[17.76392,62.95973],[17.76138,62.95857],[17.75937,62.95798],[17.75658,62.95746],[17.75041,62.95713],[17.74724,62.95725],[17.74158,62.95808],[17.73875,62.95873],[17.73641,62.95968],[17.73463,62.96087],[17.73347,62.96229],[17.73015,62.96224],[17.72476,62.96256],[17.72185,62.96313],[17.71888,62.96415],[17.7154,62.96353],[17.71148,62.96341],[17.70915,62.96361],[17.70045,62.96492],[17.69743,62.96559],[17.69497,62.96638],[17.69007,62.96869],[17.68714,62.96891],[17.68493,62.9693],[17.68097,62.97066],[17.6784,62.97102],[17.67632,62.97154],[17.67346,62.97276],[17.67156,62.97435],[17.67078,62.97629],[17.67132,62.97808],[17.6727,62.97945],[17.66851,62.98049],[17.66527,62.98219],[17.66438,62.98288],[17.66513,62.98526],[17.67268,62.98752],[17.67474,62.98905],[17.6736,62.9895],[17.67782,62.99027],[17.67446,62.99168],[17.6733,62.99244],[17.67227,62.99368],[17.67189,62.99535],[17.67469,62.99969],[17.67673,63.00163],[17.67638,63.00326],[17.67698,63.00466],[17.68466,63.00296]]]}},{"type":"Feature","id":"2282R012","properties":{"code":"2282R012","name":"Älven västra"},"geometry":{"type":"Polygon","coordinates":[[[17.56953,63.10985],[17.57457,63.11038],[17.59702,63.11135],[17.59999,63.10959],[17.60093,63.10927],[17.60139,63.10838],[17.60527,63.10591],[17.60779,63.10494],[17.62239,63.09639],[17.65823,63.07908],[17.67679,63.06958],[17.68293,63.06416],[17.68987,63.05347],[17.71178,63.03324],[17.71256,63.03312],[17.72712,63.02547],[17.74018,63.01905],[17.7386,63.01756],[17.73785,63.01594],[17.73806,63.01416],[17.73976,63.01229],[17.7396,63.01107],[17.738,63.00886],[17.73801,63.00692],[17.737,63.00567],[17.73666,63.00399],[17.73775,63.00028],[17.73863,62.99925],[17.74038,62.99808],[17.74377,62.99678],[17.74857,62.99556],[17.75182,62.99524],[17.75615,62.99439],[17.76177,62.99403],[17.76414,62.99404],[17.7685,62.99444],[17.77192,62.99531],[17.77461,62.9964],[17.77613,62.99741],[17.77867,62.99833],[17.78084,62.99974],[17.77565,62.98985],[17.77089,62.98299],[17.76898,62.97639],[17.78669,62.95971],[17.80344,62.95342],[17.80114,62.9521],[17.79857,62.95148],[17.7861,62.94726],[17.78273,62.94818],[17.77828,62.94856],[17.77159,62.94796],[17.76861,62.94741],[17.7652,62.94637],[17.76291,62.94537],[17.76107,62.94394],[17.76008,62.94236],[17.75584,62.94098],[17.75325,62.93963],[17.75154,62.93921],[17.74822,62.9404],[17.7442,62.94104],[17.74257,62.94219],[17.74064,62.94307],[17.73792,62.94385],[17.73522,62.94432],[17.73296,62.94448],[17.72992,62.94439],[17.72581,62.94383],[17.72202,62.94364],[17.71914,62.94311],[17.71658,62.94224],[17.71459,62.94122],[17.71342,62.94029],[17.71251,62.93893],[17.71233,62.93783],[17.7128,62.93492],[17.71361,62.93376],[17.71525,62.9325],[17.71741,62.93142],[17.72267,62.92953],[17.73038,62.92797],[17.73265,62.92594],[17.73408,62.92504],[17.73903,62.92324],[17.74488,62.92191],[17.7491,62.92129],[17.75379,62.92103],[17.75769,62.92122],[17.75777,62.9199],[17.75834,62.91885],[17.76072,62.917],[17.76445,62.91567],[17.76718,62.91516],[17.76937,62.91497],[17.77074,62.91422],[17.77117,62.91191],[17.77346,62.90889],[17.77506,62.90762],[17.77825,62.90624],[17.78215,62.90542],[17.78445,62.9039],[17.78665,62.90289],[17.79206,62.90123],[17.79505,62.90084],[17.79742,62.90077],[17.79977,62.90091],[17.80269,62.9014],[17.80842,62.90319],[17.80909,62.90144],[17.81092,62.8999],[17.81309,62.89891],[17.81597,62.89815],[17.81714,62.89662],[17.81956,62.89511],[17.8221,62.8942],[17.82524,62.89358],[17.83341,62.89305],[17.83651,62.89319],[17.83876,62.89353],[17.84143,62.89426],[17.84374,62.8953],[17.84514,62.8962],[17.84631,62.89748],[17.84962,62.89771],[17.85386,62.89861],[17.85637,62.89952],[17.85896,62.90094],[17.86168,62.90312],[17.86266,62.90443],[17.8644,62.90586],[17.86528,62.90734],[17.86539,62.90852],[17.86483,62.90993],[17.86298,62.91169],[17.86083,62.91296],[17.857,62.91459],[17.85774,62.91455],[17.86648,62.91018],[17.90602,62.90685],[17.90718,62.90312],[17.89301,62.8936],[17.8847,62.89087],[17.87409,62.88775],[17.87585,62.88463],[17.87766,62.8832],[17.8807,62.88161],[17.88453,62.87419],[17.88818,62.87296],[17.89879,62.86776],[17.90475,62.85991],[17.9038,62.85648],[17.90331,62.85595],[17.90399,62.85487],[17.90321,62.8535],[17.9038,62.85126],[17.90332,62.85074],[17.90388,62.85015],[17.90231,62.84926],[17.90183,62.84711],[17.90197,62.83143],[17.89443,62.82244],[17.88128,62.82768],[17.88513,62.8294],[17.86455,62.84019],[17.85021,62.84528],[17.83313,62.84568],[17.77781,62.86129],[17.76071,62.86418],[17.72211,62.87116],[17.68701,62.87034],[17.6163,62.86758],[17.61418,62.86623],[17.61352,62.8662],[17.61341,62.86548],[17.61217,62.86614],[17.57103,62.8645],[17.56654,62.86547],[17.49378,62.86127],[17.47154,62.87884],[17.45202,62.86831],[17.44202,62.88413],[17.41568,62.88563],[17.32642,62.90971],[17.3531,62.91425],[17.33078,62.9407],[17.27078,62.93018],[17.21058,62.97181],[17.23732,62.98768],[17.25116,62.99521],[17.18069,63.02055],[17.17873,63.02059],[17.20845,63.03094],[17.25067,63.01523],[17.31516,63.03518],[17.29764,63.05567],[17.33808,63.06554],[17.40932,63.08448],[17.43469,63.09028],[17.50499,63.10486],[17.54737,63.11428],[17.56953,63.10985]],[[17.67326,63.01258],[17.6708,63.01247],[17.66775,63.012],[17.66323,63.01049],[17.66078,63.01139],[17.65786,63.01201],[17.65469,63.01228],[17.65164,63.0122],[17.64822,63.01249],[17.64334,63.01218],[17.63978,63.0114],[17.63788,63.0108],[17.63534,63.00946],[17.63373,63.00751],[17.63383,63.00544],[17.6353,63.00376],[17.63238,63.0023],[17.6308,63.00038],[17.63068,62.99902],[17.63109,62.99801],[17.63311,62.99619],[17.63534,62.99517],[17.6374,62.99458],[17.64185,62.99399],[17.64728,62.99243],[17.65142,62.99198],[17.65149,62.99054],[17.65279,62.98774],[17.65491,62.98582],[17.65717,62.98461],[17.65917,62.98388],[17.66453,62.98285],[17.66624,62.98153],[17.66793,62.98071],[17.66994,62.98006],[17.6727,62.97945],[17.67156,62.97841],[17.67095,62.97736],[17.67078,62.97629],[17.67113,62.97504],[17.67298,62.97306],[17.67632,62.97154],[17.6784,62.97102],[17.68097,62.97066],[17.68358,62.96967],[17.68567,62.96915],[17.69007,62.96869],[17.69497,62.96638],[17.69743,62.96559],[17.70045,62.96492],[17.70915,62.96361],[17.71148,62.96341],[17.7154,62.96353],[17.71888,62.96415],[17.72185,62.96313],[17.72476,62.96256],[17.73015,62.96224],[17.73347,62.96229],[17.73463,62.96087],[17.73641,62.95968],[17.73875,62.95873],[17.74158,62.95808],[17.74724,62.95725],[17.75041,62.95713],[17.75585,62.95738],[17.76072,62.95835],[17.76344,62.95946],[17.76549,62.96098],[17.76631,62.96236],[17.76641,62.96343],[17.76739,62.96482],[17.76762,62.96623],[17.76679,62.968],[17.76536,62.96925],[17.76318,62.97059],[17.76152,62.97379],[17.75966,62.97543],[17.75768,62.97646],[17.75543,62.97726],[17.75125,62.97801],[17.7475,62.97806],[17.74385,62.97756],[17.73726,62.97802],[17.73301,62.9778],[17.73071,62.97896],[17.72683,62.98016],[17.71608,62.98216],[17.71331,62.98301],[17.71027,62.98355],[17.70967,62.9842],[17.71019,62.98573],[17.70984,62.98712],[17.70653,62.99101],[17.70489,62.99219],[17.70249,62.99493],[17.70252,62.99804],[17.70204,62.99904],[17.70095,63.00021],[17.69502,63.00412],[17.69199,63.00538],[17.68919,63.00606],[17.688,63.00699],[17.68635,63.00784],[17.68462,63.00976],[17.68257,63.01089],[17.6806,63.01159],[17.6781,63.01218],[17.67326,63.01258]]]}},{"type":"Feature","id":"2282R013","properties":{"code":"2282R013","name":"Älven östra"},"geometry":{"type":"Polygon","coordinates":[[[18.05516,63.18589],[18.10282,63.17624],[18.10094,63.1601],[18.04355,63.15744],[18.03962,63.13734],[18.00275,63.12917],[18.01911,63.11323],[17.99839,63.11875],[17.98864,63.09613],[17.98326,63.09604],[17.97341,63.09548],[17.9728,63.08536],[17.97093,63.08472],[17.97881,63.0798],[17.97037,63.07905],[17.97284,63.07728],[17.97338,63.07624],[17.97467,63.07551],[17.97775,63.07433],[17.98055,63.07367],[17.97806,63.06386],[17.99121,63.0437],[17.98876,63.04183],[17.98302,63.03882],[17.98158,63.03606],[17.98132,63.03471],[17.98216,63.03346],[17.98598,63.03375],[17.99497,63.02987],[17.99703,63.02956],[18.00042,63.03038],[18.02806,63.00588],[18.02393,63.00591],[18.02215,63.00519],[18.016,63.00528],[18.01218,63.00588],[18.00953,63.00453],[18.00125,63.00297],[18.01021,62.99536],[18.01207,62.9957],[18.02995,62.97888],[18.03066,62.97318],[18.03818,62.96381],[18.03299,62.96172],[18.02765,62.95986],[18.0186,62.95316],[18.0006,62.94934],[18.00015,62.94975],[17.99845,62.94883],[17.99625,62.94839],[17.99479,62.94709],[17.99382,62.94683],[17.98755,62.94685],[17.98642,62.94491],[17.98405,62.94417],[17.97321,62.9397],[17.9598,62.92495],[17.96083,62.91861],[17.95807,62.919],[17.95772,62.91816],[17.96109,62.91659],[17.95891,62.91569],[17.95963,62.91478],[17.95924,62.91337],[17.95533,62.91196],[17.94507,62.89551],[17.93883,62.89439],[17.9165,62.8896],[17.90925,62.88586],[17.90811,62.88566],[17.90785,62.88474],[17.90703,62.88466],[17.90301,62.8827],[17.89931,62.88252],[17.89946,62.88036],[17.89777,62.8768],[17.88818,62.87296],[17.88453,62.87419],[17.8807,62.88161],[17.87766,62.8832],[17.87585,62.88463],[17.87409,62.88775],[17.8847,62.89087],[17.89301,62.8936],[17.90718,62.90312],[17.90602,62.90685],[17.86648,62.91018],[17.85774,62.91455],[17.857,62.91459],[17.855,62.91555],[17.85243,62.9163],[17.85236,62.91798],[17.85141,62.91988],[17.85186,62.92164],[17.85117,62.92329],[17.84922,62.92533],[17.84721,62.92656],[17.84584,62.92923],[17.84495,62.93019],[17.84316,62.93133],[17.84137,62.93204],[17.84134,62.93317],[17.8406,62.93455],[17.83886,62.93616],[17.83724,62.93711],[17.83344,62.93838],[17.83085,62.93887],[17.82784,62.93913],[17.82715,62.94032],[17.82566,62.94159],[17.82359,62.9426],[17.82099,62.94335],[17.8181,62.94378],[17.81582,62.94388],[17.8087,62.94331],[17.80555,62.94351],[17.8032,62.94347],[17.80195,62.94468],[17.80055,62.94551],[17.79692,62.94672],[17.7922,62.94727],[17.78639,62.94714],[17.7861,62.94726],[17.79857,62.95148],[17.80114,62.9521],[17.80344,62.95342],[17.78669,62.95971],[17.76898,62.97639],[17.77089,62.98299],[17.77565,62.98985],[17.77717,62.99315],[17.78222,63.00198],[17.78188,63.00379],[17.78045,63.00535],[17.77991,63.00682],[17.77773,63.00896],[17.77629,63.0099],[17.77984,63.01162],[17.78369,63.00897],[17.78813,63.00682],[17.7961,63.00469],[17.80049,63.00424],[17.80493,63.00457],[17.80821,63.00541],[17.81075,63.00667],[17.81228,63.00819],[17.81377,63.00909],[17.81777,63.00886],[17.82198,63.00923],[17.82627,63.00895],[17.82928,63.00917],[17.83141,63.00957],[17.83392,63.01035],[17.8383,63.0125],[17.83967,63.01339],[17.84085,63.01468],[17.84126,63.0164],[17.84034,63.0185],[17.84211,63.02008],[17.84278,63.02186],[17.84243,63.02331],[17.8412,63.02477],[17.83879,63.0262],[17.83532,63.02728],[17.83115,63.02783],[17.82665,63.02775],[17.82436,63.02848],[17.82145,63.029],[17.81587,63.0292],[17.81326,63.02955],[17.81077,63.02965],[17.80743,63.02952],[17.80315,63.02902],[17.80473,63.03086],[17.80515,63.03223],[17.80459,63.03396],[17.80325,63.03529],[17.80073,63.0366],[17.79734,63.03761],[17.79352,63.03812],[17.79009,63.03812],[17.7848,63.0375],[17.78143,63.03658],[17.77846,63.03491],[17.77722,63.03322],[17.77445,63.03302],[17.77154,63.03247],[17.76896,63.03229],[17.76664,63.0319],[17.76451,63.03131],[17.76245,63.03047],[17.7602,63.0289],[17.75575,63.02856],[17.75164,63.02751],[17.74977,63.02663],[17.7481,63.02538],[17.74519,63.02148],[17.74018,63.01905],[17.72712,63.02547],[17.71256,63.03312],[17.71178,63.03324],[17.68987,63.05347],[17.68293,63.06416],[17.67679,63.06958],[17.65823,63.07908],[17.62239,63.09639],[17.60779,63.10494],[17.60527,63.10591],[17.60139,63.10838],[17.60093,63.10927],[17.59999,63.10959],[17.59702,63.11135],[17.68712,63.12798],[17.6889,63.12744],[17.69053,63.12726],[17.69539,63.12925],[17.70321,63.12525],[17.71565,63.12271],[17.72006,63.12003],[17.72399,63.11813],[17.73821,63.11383],[17.74363,63.11168],[17.74866,63.10879],[17.75281,63.11069],[17.75799,63.11211],[17.76094,63.11261],[17.76483,63.11257],[17.76562,63.11315],[17.76574,63.11383],[17.76546,63.11432],[17.76387,63.11524],[17.76389,63.1161],[17.77262,63.11924],[17.8801,63.16091],[17.89599,63.14168],[17.98877,63.15751],[17.97726,63.17203],[18.04655,63.18591],[18.0516,63.18517],[18.05516,63.18589]]]}}]}