{"type":"FeatureCollection","features":[{"type":"Feature","id":"2284R015","properties":{"code":"2284R015","name":"Sjukhuset-Gullänget"},"geometry":{"type":"Polygon","coordinates":[[[18.72073,63.31174],[18.71314,63.30889],[18.71579,63.30777],[18.71234,63.30684],[18.71458,63.30297],[18.71522,63.30246],[18.71696,63.3018],[18.71819,63.30078],[18.71905,63.30054],[18.72064,63.30131],[18.72437,63.30226],[18.72337,63.2993],[18.72445,63.29871],[18.7221,63.29495],[18.72011,63.29531],[18.7188,63.2967],[18.71838,63.29801],[18.71744,63.29834],[18.71655,63.29788],[18.71631,63.29635],[18.70781,63.29537],[18.70781,63.29589],[18.70561,63.2963],[18.70472,63.29665],[18.70102,63.29896],[18.69756,63.29995],[18.69614,63.3007],[18.68938,63.30305],[18.6893,63.30326],[18.68926,63.3035],[18.69742,63.31087],[18.69796,63.31061],[18.7,63.31168],[18.70307,63.31033],[18.70718,63.31393],[18.71205,63.31481],[18.72073,63.31174]]]}},{"type":"Feature","id":"2284R001","properties":{"code":"2284R001","name":"Anundsjö-Solberg"},"geometry":{"type":"Polygon","coordinates":[[[18.13058,63.95092],[18.15463,63.91443],[18.21812,63.82114],[18.23956,63.79007],[18.24679,63.78017],[18.27689,63.74139],[18.29835,63.73266],[18.32133,63.70686],[18.33841,63.70247],[18.32746,63.68557],[18.32918,63.68513],[18.34198,63.63457],[18.32751,63.62396],[18.30341,63.6195],[18.27271,63.61418],[18.26985,63.60632],[18.26193,63.60748],[18.26316,63.60516],[18.26795,63.60315],[18.26794,63.60214],[18.26882,63.6006],[18.27036,63.59974],[18.27258,63.59762],[18.27247,63.59651],[18.2709,63.59579],[18.27099,63.59463],[18.27185,63.59449],[18.27313,63.59527],[18.275,63.59504],[18.27577,63.59443],[18.27463,63.59327],[18.2912,63.59313],[18.29041,63.57934],[18.29181,63.57831],[18.29201,63.57638],[18.29251,63.57547],[18.29449,63.57366],[18.29351,63.5702],[18.29379,63.56933],[18.29674,63.56763],[18.29642,63.56565],[18.2983,63.56501],[18.29997,63.56407],[18.30016,63.56384],[18.29981,63.56337],[18.30118,63.56328],[18.30164,63.56303],[18.30285,63.56206],[18.30342,63.56104],[18.30512,63.56029],[18.30591,63.55968],[18.30606,63.55901],[18.30438,63.5583],[18.30511,63.55762],[18.30711,63.55707],[18.3071,63.5563],[18.30833,63.55621],[18.31056,63.55556],[18.3115,63.55446],[18.31063,63.55375],[18.31163,63.5535],[18.3133,63.55346],[18.31356,63.55306],[18.31329,63.5523],[18.31442,63.55148],[18.31643,63.5505],[18.31817,63.55036],[18.31931,63.55003],[18.32012,63.54956],[18.32033,63.54892],[18.32292,63.54807],[18.32207,63.54717],[18.32234,63.54655],[18.32023,63.54587],[18.32018,63.54489],[18.32078,63.5432],[18.32236,63.54299],[18.32508,63.54126],[18.32491,63.54071],[18.32362,63.54053],[18.32339,63.54018],[18.3239,63.54007],[18.32491,63.54024],[18.32564,63.54009],[18.32592,63.5398],[18.32511,63.53856],[18.32564,63.53816],[18.32556,63.53764],[18.32502,63.53703],[18.32346,63.53709],[18.32329,63.53681],[18.32411,63.53623],[18.32602,63.53545],[18.32724,63.53434],[18.32962,63.53345],[18.3305,63.53276],[18.33032,63.53225],[18.33083,63.53169],[18.2512,63.52462],[18.2452,63.52988],[18.23682,63.53197],[18.21735,63.52921],[18.16481,63.52324],[18.16613,63.51269],[18.1695,63.51151],[18.19068,63.48312],[18.2027,63.48155],[18.20339,63.48102],[18.20861,63.47019],[18.20588,63.46879],[18.20143,63.463],[18.18674,63.45733],[18.17745,63.45655],[18.17683,63.45637],[18.17533,63.45512],[18.17613,63.45144],[18.17739,63.45039],[18.17735,63.44973],[18.17849,63.44699],[18.17643,63.44375],[18.18359,63.44306],[18.18666,63.44323],[18.18915,63.44281],[18.19246,63.44304],[18.1953,63.44242],[18.20562,63.44108],[18.21167,63.44189],[18.21515,63.44166],[18.21606,63.44135],[18.22141,63.43776],[18.2314,63.43775],[18.23463,63.4386],[18.24275,63.43663],[18.2392,63.43148],[18.24123,63.43059],[18.24043,63.42892],[18.24472,63.42233],[18.24079,63.42072],[18.2382,63.41732],[18.23759,63.41721],[18.22165,63.40757],[18.22301,63.40422],[18.22272,63.40314],[18.22081,63.40101],[18.22229,63.39234],[18.21671,63.38513],[18.21361,63.38562],[18.17453,63.38581],[18.13275,63.38913],[18.10557,63.39015],[18.08321,63.39121],[18.09991,63.37124],[18.08311,63.37807],[18.0898,63.33727],[18.08819,63.33854],[18.08763,63.34032],[18.085,63.34053],[18.08574,63.34117],[18.08563,63.34177],[18.08517,63.34172],[18.084,63.34079],[18.08224,63.34061],[18.08026,63.34091],[18.08035,63.34139],[18.08001,63.34165],[18.08116,63.34228],[18.07983,63.34237],[18.07874,63.34163],[18.0759,63.34165],[18.07512,63.34186],[18.07471,63.34228],[18.07013,63.34207],[18.06933,63.34257],[18.06703,63.34252],[18.06077,63.34346],[18.05398,63.33901],[18.05053,63.33163],[18.04963,63.32879],[18.04334,63.31732],[18.03633,63.3057],[18.02093,63.31103],[18.00268,63.30796],[17.98269,63.30264],[17.95562,63.29451],[17.94787,63.29727],[17.91972,63.3062],[17.91118,63.30579],[17.90706,63.30787],[17.89282,63.30785],[17.83357,63.30203],[17.76679,63.27971],[17.83688,63.27537],[17.80277,63.25819],[17.75502,63.26441],[17.69213,63.27343],[17.63971,63.28054],[17.59356,63.28698],[17.53454,63.29565],[17.54638,63.32624],[17.47564,63.33976],[17.47532,63.36388],[17.4744,63.38428],[17.46461,63.38326],[17.46319,63.38155],[17.45824,63.38144],[17.45012,63.38477],[17.45254,63.38622],[17.43262,63.42522],[17.42774,63.44029],[17.41956,63.46171],[17.41953,63.4689],[17.418,63.50099],[17.41714,63.5086],[17.33496,63.4905],[17.28032,63.47973],[17.28002,63.50325],[17.29261,63.52976],[17.25116,63.55374],[17.25195,63.55378],[17.25269,63.55406],[17.25395,63.55521],[17.25407,63.55667],[17.25489,63.55789],[17.25697,63.55813],[17.25909,63.55879],[17.2702,63.56447],[17.32618,63.5743],[17.34426,63.57643],[17.30076,63.61349],[17.27986,63.60845],[17.2684,63.60966],[17.26889,63.61275],[17.28915,63.62341],[17.26428,63.64445],[17.33643,63.69397],[17.30645,63.73984],[17.22411,63.70719],[17.22,63.7297],[17.21993,63.7318],[17.22093,63.73212],[17.21964,63.73353],[17.21459,63.76056],[17.2118,63.7717],[17.27059,63.79488],[17.27563,63.80163],[17.24657,63.80987],[17.20164,63.81472],[17.2097,63.81996],[17.1814,63.82701],[17.19281,63.85116],[17.17686,63.86945],[17.18096,63.87131],[17.18147,63.87218],[17.18087,63.87355],[17.18066,63.87546],[17.18214,63.87879],[17.18475,63.88098],[17.18627,63.88163],[17.18833,63.88305],[17.19282,63.88475],[17.32534,63.86899],[17.32802,63.8696],[17.33557,63.88934],[17.25541,63.89546],[17.26149,63.91376],[17.33449,63.90768],[17.43714,63.89957],[17.51365,63.89403],[17.73344,63.8801],[17.79793,63.89235],[17.83325,63.89949],[17.87431,63.90744],[17.91408,63.91438],[17.95583,63.92221],[17.99304,63.92849],[18.13058,63.95092]],[[18.09697,63.47193],[18.09206,63.47152],[18.08842,63.47054],[18.08666,63.46974],[18.08527,63.46879],[18.08278,63.46599],[18.07823,63.46517],[18.07506,63.46389],[18.07275,63.46209],[18.07179,63.4607],[18.07163,63.45923],[18.07229,63.4578],[18.07383,63.4564],[18.07597,63.4553],[18.08372,63.45312],[18.08278,63.45177],[18.08259,63.45069],[18.083,63.44871],[18.0843,63.44689],[18.08653,63.44549],[18.08992,63.4444],[18.09144,63.44245],[18.09583,63.43997],[18.09824,63.439],[18.10127,63.43832],[18.10264,63.43736],[18.1025,63.4359],[18.10318,63.43447],[18.10422,63.43345],[18.10619,63.43228],[18.10961,63.43116],[18.11352,63.43058],[18.11604,63.4305],[18.1193,63.43067],[18.12388,63.43021],[18.12862,63.43055],[18.13141,63.43115],[18.13464,63.43223],[18.13672,63.4333],[18.13816,63.43459],[18.13884,63.43672],[18.1385,63.43779],[18.13742,63.43907],[18.13893,63.4404],[18.13976,63.44191],[18.13982,63.44415],[18.13927,63.4456],[18.13693,63.44757],[18.13448,63.44869],[18.13204,63.44941],[18.13035,63.45024],[18.12949,63.45142],[18.1269,63.45338],[18.12521,63.45415],[18.12182,63.4552],[18.12,63.45717],[18.12025,63.45905],[18.11912,63.46133],[18.11686,63.46323],[18.11614,63.46448],[18.1129,63.46757],[18.10994,63.46898],[18.10416,63.47097],[18.10096,63.47165],[18.09697,63.47193]]]}},{"type":"Feature","id":"2284R002","properties":{"code":"2284R002","name":"Bjästa"},"geometry":{"type":"Polygon","coordinates":[[[18.51531,63.22284],[18.51931,63.22231],[18.52269,63.22138],[18.5253,63.22],[18.52693,63.21825],[18.52725,63.21681],[18.52678,63.21541],[18.52555,63.2141],[18.52406,63.21318],[18.52819,63.21102],[18.52977,63.20969],[18.53062,63.20783],[18.53004,63.20586],[18.53266,63.20412],[18.53376,63.20194],[18.53347,63.20048],[18.53271,63.19941],[18.53095,63.19808],[18.5291,63.1972],[18.53166,63.19594],[18.53354,63.19429],[18.53708,63.19431],[18.54001,63.19396],[18.54264,63.19329],[18.54693,63.19163],[18.55025,63.18958],[18.55161,63.18815],[18.55206,63.18714],[18.55198,63.1857],[18.54967,63.18617],[18.54959,63.18596],[18.54875,63.186],[18.5472,63.18516],[18.54629,63.1843],[18.54065,63.18297],[18.53288,63.1837],[18.53197,63.18337],[18.52827,63.1811],[18.5274,63.18092],[18.52588,63.18093],[18.5148,63.18227],[18.51354,63.18367],[18.51313,63.18546],[18.51252,63.18617],[18.50785,63.18571],[18.50368,63.18597],[18.5007,63.18658],[18.49724,63.1877],[18.49483,63.18793],[18.48927,63.18888],[18.48581,63.18989],[18.48382,63.19094],[18.48143,63.19297],[18.4808,63.19436],[18.48076,63.19637],[18.47413,63.20036],[18.47276,63.2019],[18.4719,63.20386],[18.47187,63.20537],[18.47294,63.20709],[18.47465,63.20831],[18.47664,63.20919],[18.47739,63.21038],[18.47896,63.21167],[18.48257,63.21331],[18.48391,63.21639],[18.48538,63.2176],[18.4869,63.21838],[18.49087,63.21952],[18.49548,63.21989],[18.4971,63.22087],[18.49896,63.22162],[18.50359,63.22269],[18.50718,63.22298],[18.51121,63.22278],[18.51531,63.22284]]]}},{"type":"Feature","id":"2284R003","properties":{"code":"2284R003","name":"Bredbyn"},"geometry":{"type":"Polygon","coordinates":[[[18.0985,63.47189],[18.10118,63.47161],[18.10416,63.47097],[18.10994,63.46898],[18.1129,63.46757],[18.11614,63.46448],[18.11686,63.46323],[18.11912,63.46133],[18.12025,63.45905],[18.12,63.45717],[18.12182,63.4552],[18.12521,63.45415],[18.1269,63.45338],[18.12949,63.45142],[18.13035,63.45024],[18.13204,63.44941],[18.13448,63.44869],[18.13693,63.44757],[18.13927,63.4456],[18.13982,63.44415],[18.13976,63.44191],[18.13893,63.4404],[18.13742,63.43907],[18.1385,63.43779],[18.13884,63.43672],[18.13816,63.43459],[18.13672,63.4333],[18.13464,63.43223],[18.13141,63.43115],[18.12784,63.43043],[18.12388,63.43021],[18.1193,63.43067],[18.11604,63.4305],[18.11277,63.43064],[18.10894,63.43132],[18.10567,63.43254],[18.10318,63.43447],[18.1025,63.4359],[18.10264,63.43736],[18.10127,63.43832],[18.09824,63.439],[18.09583,63.43997],[18.09144,63.44245],[18.08992,63.4444],[18.08653,63.44549],[18.0843,63.44689],[18.083,63.44871],[18.08259,63.45069],[18.08278,63.45177],[18.08372,63.45312],[18.07597,63.4553],[18.07383,63.4564],[18.07229,63.4578],[18.0716,63.45958],[18.07195,63.46103],[18.07365,63.46292],[18.07521,63.46397],[18.07888,63.46534],[18.08278,63.46599],[18.08565,63.46909],[18.08731,63.47007],[18.08902,63.47075],[18.09352,63.47173],[18.0985,63.47189]]]}},{"type":"Feature","id":"2284R004","properties":{"code":"2284R004","name":"Domsjö-Gene"},"geometry":{"type":"Polygon","coordinates":[[[18.75567,63.26181],[18.75996,63.25828],[18.76271,63.25669],[18.76758,63.25473],[18.77069,63.2539],[18.78605,63.25147],[18.78669,63.2515],[18.78371,63.25112],[18.77954,63.25117],[18.77539,63.25071],[18.77085,63.25079],[18.76858,63.24967],[18.76601,63.24883],[18.76311,63.24827],[18.7607,63.24807],[18.7583,63.24808],[18.7546,63.24841],[18.75167,63.24901],[18.74937,63.24983],[18.74698,63.24992],[18.74416,63.25029],[18.74316,63.24841],[18.74075,63.24677],[18.74119,63.24502],[18.74105,63.24394],[18.74046,63.2429],[18.73929,63.24182],[18.73772,63.23897],[18.73915,63.23852],[18.73937,63.23811],[18.73832,63.23813],[18.7368,63.23698],[18.73361,63.23695],[18.73018,63.23611],[18.72704,63.2358],[18.72303,63.23594],[18.72076,63.23629],[18.71789,63.23703],[18.71566,63.23715],[18.70305,63.23076],[18.68938,63.23649],[18.68679,63.23654],[18.6876,63.23897],[18.68915,63.24173],[18.69103,63.2437],[18.6909,63.2446],[18.68605,63.24789],[18.68719,63.25129],[18.688,63.25228],[18.68921,63.25302],[18.68756,63.25358],[18.68515,63.2548],[18.68511,63.25551],[18.68552,63.25732],[18.68669,63.25729],[18.68658,63.25846],[18.68572,63.25855],[18.68583,63.25932],[18.68688,63.25942],[18.68853,63.26338],[18.68679,63.26408],[18.6895,63.26627],[18.69059,63.26781],[18.69087,63.26924],[18.70861,63.26262],[18.71317,63.26259],[18.71685,63.26475],[18.72319,63.26671],[18.73232,63.26796],[18.73808,63.26905],[18.74127,63.26811],[18.75391,63.26538],[18.75567,63.26181]]]}},{"type":"Feature","id":"2284R005","properties":{"code":"2284R005","name":"Gideälvdal"},"geometry":{"type":"Polygon","coordinates":[[[18.46564,63.9352],[18.46541,63.93199],[18.46489,63.93171],[18.46428,63.93168],[18.46263,63.93195],[18.45588,63.93222],[18.44019,63.9346],[18.43855,63.93455],[18.43403,63.93345],[18.43254,63.93333],[18.43028,63.93352],[18.42794,63.93401],[18.42047,63.93389],[18.41914,63.9335],[18.41753,63.93236],[18.41749,63.93154],[18.41822,63.93054],[18.418,63.92995],[18.41341,63.92935],[18.41084,63.92874],[18.40644,63.92659],[18.40822,63.92155],[18.41309,63.92142],[18.41592,63.92042],[18.42623,63.91997],[18.42985,63.91514],[18.426,63.90898],[18.43984,63.89302],[18.44979,63.88867],[18.45122,63.88891],[18.45408,63.88634],[18.47918,63.86608],[18.47367,63.8646],[18.47262,63.86421],[18.47235,63.86381],[18.4726,63.86313],[18.47538,63.86079],[18.47878,63.85891],[18.48198,63.8561],[18.48156,63.85542],[18.48184,63.85197],[18.48196,63.85155],[18.48362,63.85026],[18.4838,63.84724],[18.4855,63.84265],[18.59437,63.82255],[18.63755,63.82622],[18.68443,63.82034],[18.68523,63.81879],[18.70245,63.81624],[18.70316,63.80963],[18.72194,63.80639],[18.7573,63.81043],[18.80723,63.7885],[18.80071,63.7811],[18.81997,63.77348],[18.90147,63.78259],[18.91479,63.77795],[18.94116,63.76862],[18.96187,63.76047],[18.95066,63.72897],[18.97135,63.73424],[18.99711,63.7313],[19.01575,63.71593],[19.0443,63.68881],[19.07753,63.66995],[19.0937,63.65837],[19.13385,63.63075],[19.18184,63.59843],[19.19086,63.57193],[19.19162,63.57112],[19.12307,63.53455],[19.12115,63.53333],[19.11323,63.51999],[19.07624,63.45174],[19.07737,63.45038],[19.07713,63.44988],[19.07742,63.44951],[19.07775,63.44952],[19.07843,63.44822],[19.07679,63.44735],[19.07672,63.44696],[19.07835,63.4443],[19.08011,63.44281],[19.08037,63.44202],[19.08097,63.44191],[19.08163,63.44143],[19.08033,63.44129],[19.07818,63.44167],[19.0786,63.44088],[19.07963,63.44019],[19.08026,63.43873],[19.07907,63.43685],[19.0768,63.43535],[19.07672,63.43439],[19.07736,63.43387],[19.07706,63.43366],[19.07702,63.43209],[19.07844,63.43063],[19.08112,63.42905],[19.0816,63.42837],[19.08099,63.42781],[19.07886,63.42741],[19.07797,63.42706],[18.97048,63.41159],[18.96623,63.41977],[18.9158,63.42605],[18.86283,63.44071],[18.88095,63.45763],[18.79243,63.48657],[18.78203,63.48012],[18.69463,63.45649],[18.64365,63.47351],[18.64821,63.47947],[18.64134,63.48882],[18.65633,63.51498],[18.67049,63.5273],[18.66537,63.52757],[18.66278,63.52852],[18.62639,63.50682],[18.61095,63.50428],[18.53256,63.49734],[18.53435,63.47955],[18.52974,63.47936],[18.52433,63.48152],[18.51913,63.48229],[18.51454,63.48184],[18.51131,63.48309],[18.49554,63.48598],[18.49083,63.48419],[18.41124,63.49326],[18.37214,63.52904],[18.37319,63.52525],[18.37149,63.52463],[18.36723,63.52512],[18.36111,63.52935],[18.32688,63.53128],[18.3305,63.53158],[18.33086,63.53179],[18.33032,63.53225],[18.3305,63.53276],[18.32962,63.53345],[18.32724,63.53434],[18.32602,63.53545],[18.32411,63.53623],[18.32329,63.53681],[18.32346,63.53709],[18.32502,63.53703],[18.32556,63.53764],[18.32564,63.53816],[18.32511,63.53856],[18.32592,63.5398],[18.32564,63.54009],[18.32491,63.54024],[18.3239,63.54007],[18.32339,63.54018],[18.32362,63.54053],[18.32491,63.54071],[18.32508,63.54126],[18.32236,63.54299],[18.32078,63.5432],[18.32018,63.54489],[18.32023,63.54587],[18.32234,63.54655],[18.32207,63.54717],[18.32292,63.54807],[18.32033,63.54892],[18.32012,63.54956],[18.31931,63.55003],[18.31817,63.55036],[18.31643,63.5505],[18.31442,63.55148],[18.31329,63.5523],[18.31356,63.55306],[18.3133,63.55346],[18.31163,63.5535],[18.31063,63.55375],[18.3115,63.55446],[18.31056,63.55556],[18.30833,63.55621],[18.3071,63.5563],[18.30711,63.55707],[18.30511,63.55762],[18.30438,63.5583],[18.30606,63.55901],[18.30591,63.55968],[18.30512,63.56029],[18.30342,63.56104],[18.30285,63.56206],[18.30164,63.56303],[18.30118,63.56328],[18.29981,63.56337],[18.30016,63.56384],[18.29997,63.56407],[18.2983,63.56501],[18.29642,63.56565],[18.29674,63.56763],[18.294,63.56908],[18.29366,63.56955],[18.29356,63.57045],[18.29449,63.57366],[18.29251,63.57547],[18.29201,63.57638],[18.29181,63.57831],[18.29041,63.57934],[18.2912,63.59313],[18.27463,63.59327],[18.27577,63.59443],[18.275,63.59504],[18.27313,63.59527],[18.27185,63.59449],[18.27099,63.59463],[18.2709,63.59579],[18.27247,63.59651],[18.27258,63.59762],[18.27036,63.59974],[18.26882,63.6006],[18.26794,63.60214],[18.26795,63.60315],[18.26316,63.60516],[18.26193,63.60748],[18.26985,63.60632],[18.27271,63.61418],[18.30341,63.6195],[18.32751,63.62396],[18.34198,63.63457],[18.32918,63.68513],[18.32746,63.68557],[18.33841,63.70247],[18.32133,63.70686],[18.29835,63.73266],[18.27689,63.74139],[18.24679,63.78017],[18.23956,63.79007],[18.21812,63.82114],[18.15463,63.91443],[18.13058,63.95092],[18.3099,63.98002],[18.33872,63.98485],[18.40648,63.99579],[18.40965,63.99466],[18.42005,63.99272],[18.42292,63.99176],[18.42734,63.99097],[18.43798,63.98678],[18.44212,63.98481],[18.44559,63.98361],[18.44646,63.98311],[18.44648,63.98274],[18.4499,63.98208],[18.45163,63.98151],[18.45532,63.97967],[18.45541,63.97916],[18.45394,63.97814],[18.45391,63.97773],[18.45554,63.9771],[18.46005,63.9763],[18.46191,63.97614],[18.46349,63.97563],[18.46501,63.97483],[18.46521,63.97305],[18.46585,63.9724],[18.46876,63.97007],[18.47093,63.96886],[18.47104,63.96784],[18.47448,63.96372],[18.47477,63.9612],[18.47572,63.95965],[18.47547,63.95743],[18.47486,63.95664],[18.47262,63.9551],[18.47247,63.95433],[18.47352,63.95298],[18.4709,63.95247],[18.47043,63.95227],[18.46998,63.9514],[18.46803,63.95068],[18.46477,63.94692],[18.46301,63.94429],[18.46284,63.94297],[18.46325,63.94174],[18.46256,63.94012],[18.46482,63.93774],[18.46564,63.9352]]]}},{"type":"Feature","id":"2284R006","properties":{"code":"2284R006","name":"Gimåt-Högland-Arnäsvall"},"geometry":{"type":"Polygon","coordinates":[[[18.78299,63.33395],[18.79314,63.33343],[18.79742,63.33249],[18.79952,63.33162],[18.80136,63.33041],[18.80228,63.32937],[18.80278,63.32808],[18.80587,63.32787],[18.80887,63.3273],[18.81147,63.32642],[18.81318,63.3255],[18.8147,63.3242],[18.81545,63.32278],[18.81538,63.32122],[18.8147,63.32007],[18.81796,63.31862],[18.81989,63.31665],[18.82015,63.31487],[18.81918,63.31304],[18.81813,63.31204],[18.81618,63.31092],[18.80887,63.30851],[18.80765,63.30725],[18.80624,63.30638],[18.80369,63.30534],[18.80164,63.30476],[18.79778,63.30403],[18.79162,63.30342],[18.78471,63.30233],[18.78135,63.30086],[18.77771,63.30011],[18.77489,63.29987],[18.77237,63.29987],[18.76777,63.30047],[18.7626,63.29962],[18.75984,63.29819],[18.7582,63.29463],[18.75717,63.29365],[18.75556,63.29269],[18.75619,63.29223],[18.75543,63.29226],[18.75192,63.29658],[18.74895,63.29547],[18.74328,63.29691],[18.74118,63.29766],[18.74203,63.29821],[18.74226,63.29871],[18.7372,63.29889],[18.73735,63.29956],[18.73139,63.3019],[18.72813,63.3045],[18.72899,63.30471],[18.72753,63.30576],[18.72628,63.30547],[18.72572,63.30599],[18.72631,63.30612],[18.72545,63.30675],[18.72376,63.31069],[18.70823,63.31616],[18.70216,63.31764],[18.69417,63.32182],[18.69517,63.32563],[18.6948,63.32979],[18.69702,63.3298],[18.69994,63.32955],[18.70477,63.32966],[18.709,63.32908],[18.71113,63.32848],[18.71323,63.32762],[18.72383,63.32537],[18.72622,63.32445],[18.72821,63.32313],[18.73641,63.32185],[18.73905,63.32107],[18.74085,63.32022],[18.74648,63.32089],[18.74974,63.32097],[18.75745,63.32033],[18.76014,63.32059],[18.7634,63.32056],[18.76789,63.31988],[18.77016,63.31984],[18.77275,63.31954],[18.77424,63.3211],[18.77338,63.3223],[18.77319,63.32376],[18.77127,63.32543],[18.77062,63.32721],[18.771,63.32866],[18.77251,63.33058],[18.77532,63.33232],[18.77911,63.33346],[18.78299,63.33395]]]}},{"type":"Feature","id":"2284R007","properties":{"code":"2284R007","name":"Grundsunda"},"geometry":{"type":"Polygon","coordinates":[[[19.19162,63.57112],[19.28673,63.47012],[19.29279,63.46978],[19.29258,63.46821],[19.28645,63.46341],[19.40567,63.33261],[19.60776,63.10202],[19.42843,63.0761],[19.40954,63.06791],[19.2872,63.00088],[18.96285,63.13758],[18.94436,63.18786],[18.94701,63.22423],[18.94689,63.22617],[18.94753,63.22779],[18.94762,63.23363],[18.94854,63.238],[18.95611,63.23957],[18.95514,63.24059],[18.95168,63.2404],[18.94903,63.23991],[18.94723,63.24133],[18.94613,63.24293],[18.94406,63.24475],[18.94504,63.24595],[18.94626,63.24611],[18.94903,63.24696],[18.95005,63.24751],[18.95034,63.24806],[18.95491,63.24998],[18.95755,63.25022],[18.95885,63.24997],[18.9602,63.24994],[18.96193,63.24949],[18.9634,63.24948],[18.96914,63.25133],[18.97208,63.2528],[18.98238,63.27447],[18.9892,63.28106],[18.98551,63.2884],[18.98681,63.29297],[19.00078,63.32199],[19.00943,63.34594],[19.0096,63.34677],[19.00639,63.34751],[19.0057,63.34921],[19.00912,63.3502],[19.01206,63.35464],[19.01248,63.35622],[19.01467,63.37651],[19.01045,63.38049],[19.02177,63.38392],[19.0239,63.38371],[19.0241,63.38385],[19.0245,63.38375],[19.02575,63.38393],[19.02739,63.38383],[19.02876,63.38327],[19.02997,63.38314],[19.03159,63.3839],[19.03239,63.38455],[19.03363,63.38503],[19.03394,63.38555],[19.03502,63.38585],[19.03619,63.38672],[19.03851,63.38766],[19.0388,63.38756],[19.03964,63.38813],[19.04091,63.38808],[19.04184,63.38824],[19.04336,63.38794],[19.04403,63.38809],[19.047,63.38705],[19.04775,63.38638],[19.04901,63.38598],[19.0499,63.38627],[19.05127,63.38608],[19.05341,63.38672],[19.05492,63.38691],[19.0567,63.38741],[19.05834,63.38828],[19.0586,63.3895],[19.05837,63.39098],[19.05699,63.39344],[19.05626,63.39351],[19.05623,63.39323],[19.05538,63.39312],[19.05362,63.39428],[19.05429,63.39556],[19.05478,63.39574],[19.05474,63.39539],[19.05513,63.39555],[19.0553,63.39537],[19.05533,63.39591],[19.05317,63.39699],[19.05235,63.39698],[19.052,63.3972],[19.05169,63.39702],[19.05105,63.39705],[19.05084,63.39774],[19.05063,63.39735],[19.05024,63.39742],[19.05183,63.39916],[19.051,63.40139],[19.05093,63.40304],[19.05122,63.40335],[19.05226,63.40352],[19.05278,63.40386],[19.05284,63.40443],[19.05228,63.40489],[19.05252,63.40615],[19.05433,63.40803],[19.05732,63.40883],[19.05892,63.41046],[19.06173,63.41153],[19.0626,63.41233],[19.06515,63.41292],[19.06682,63.41479],[19.06822,63.41584],[19.06915,63.41614],[19.07163,63.41629],[19.07292,63.41718],[19.07416,63.4174],[19.07498,63.41779],[19.07533,63.41823],[19.07588,63.42127],[19.07602,63.42482],[19.07799,63.4271],[19.08099,63.42781],[19.08158,63.42819],[19.08112,63.42905],[19.07844,63.43063],[19.07702,63.43209],[19.07706,63.43366],[19.07736,63.43387],[19.07672,63.43439],[19.0768,63.43535],[19.07907,63.43685],[19.08026,63.43873],[19.07963,63.44019],[19.0786,63.44088],[19.07818,63.44167],[19.08033,63.44129],[19.08163,63.44143],[19.08097,63.44191],[19.08037,63.44202],[19.08011,63.44281],[19.07835,63.4443],[19.07672,63.44696],[19.07679,63.44735],[19.07843,63.44822],[19.07775,63.44952],[19.07742,63.44951],[19.07713,63.44988],[19.07737,63.45038],[19.07624,63.45174],[19.11323,63.51999],[19.12115,63.53333],[19.12307,63.53455],[19.19162,63.57112]],[[19.15682,63.35683],[19.15291,63.35669],[19.14801,63.35589],[19.14523,63.35498],[19.14032,63.35385],[19.13705,63.35232],[19.13594,63.35136],[19.13497,63.34993],[19.13488,63.34792],[19.13601,63.3462],[19.1373,63.34523],[19.1393,63.34427],[19.14009,63.3433],[19.13673,63.34276],[19.13321,63.34151],[19.12938,63.34079],[19.12572,63.33931],[19.12436,63.33842],[19.12318,63.33711],[19.12237,63.33536],[19.12237,63.33399],[19.12323,63.33256],[19.12678,63.33225],[19.13552,63.33076],[19.13788,63.32801],[19.1357,63.3192],[19.1464,63.31393],[19.15079,63.31251],[19.15294,63.31203],[19.15661,63.31159],[19.16191,63.31065],[19.16717,63.31048],[19.17109,63.3109],[19.17468,63.31189],[19.17753,63.3134],[19.17935,63.31532],[19.18077,63.31617],[19.18186,63.31724],[19.18471,63.31769],[19.18693,63.31829],[19.19017,63.31992],[19.19163,63.32155],[19.19196,63.32383],[19.19324,63.32558],[19.19335,63.32704],[19.19266,63.32849],[19.1957,63.33139],[19.19616,63.33361],[19.19501,63.33553],[19.19233,63.33728],[19.19202,63.3395],[19.19055,63.34116],[19.18913,63.34203],[19.18674,63.34297],[19.18457,63.34349],[19.18205,63.34383],[19.18017,63.34531],[19.17878,63.34686],[19.17663,63.34834],[19.17482,63.34918],[19.17413,63.35061],[19.17227,63.35212],[19.16904,63.35341],[19.16713,63.35468],[19.16474,63.35561],[19.16186,63.35626],[19.15682,63.35683]]]}},{"type":"Feature","id":"2284R008","properties":{"code":"2284R008","name":"Gullänget-Kroksta"},"geometry":{"type":"Polygon","coordinates":[[[18.69016,63.32994],[18.69174,63.32949],[18.6948,63.32979],[18.69517,63.32563],[18.69417,63.32182],[18.70216,63.31764],[18.70823,63.31616],[18.71205,63.31481],[18.70718,63.31393],[18.70307,63.31033],[18.7,63.31168],[18.69796,63.31061],[18.69742,63.31087],[18.68926,63.3035],[18.6893,63.30326],[18.68731,63.30437],[18.68075,63.30533],[18.67704,63.30674],[18.67307,63.30676],[18.67123,63.30618],[18.65221,63.30577],[18.64554,63.30586],[18.64521,63.3078],[18.64863,63.31101],[18.65124,63.31259],[18.64671,63.31462],[18.6489,63.31557],[18.64815,63.31646],[18.65287,63.31905],[18.65565,63.31969],[18.65546,63.32081],[18.65721,63.32374],[18.65337,63.32558],[18.65552,63.32646],[18.65765,63.32801],[18.65996,63.32898],[18.66234,63.32961],[18.66607,63.33027],[18.66932,63.33044],[18.67301,63.33176],[18.67532,63.33221],[18.67776,63.33245],[18.68123,63.33243],[18.68507,63.3319],[18.6878,63.33111],[18.69016,63.32994]]]}},{"type":"Feature","id":"2284R009","properties":{"code":"2284R009","name":"Husum"},"geometry":{"type":"Polygon","coordinates":[[[19.15764,63.35679],[19.16332,63.35598],[19.1666,63.35493],[19.16904,63.35341],[19.17122,63.35264],[19.17313,63.35155],[19.17438,63.35027],[19.17482,63.34918],[19.17663,63.34834],[19.17878,63.34686],[19.18017,63.34531],[19.18205,63.34383],[19.18605,63.34316],[19.18965,63.34175],[19.19181,63.33986],[19.19235,63.33843],[19.19233,63.33728],[19.19501,63.33553],[19.19616,63.33361],[19.1957,63.33139],[19.19266,63.32849],[19.19335,63.32704],[19.19324,63.32558],[19.19196,63.32383],[19.19163,63.32155],[19.19017,63.31992],[19.18693,63.31829],[19.18471,63.31769],[19.18186,63.31724],[19.18077,63.31617],[19.17935,63.31532],[19.17753,63.3134],[19.17468,63.31189],[19.17109,63.3109],[19.16717,63.31048],[19.16191,63.31065],[19.15661,63.31159],[19.15294,63.31203],[19.15079,63.31251],[19.1464,63.31393],[19.1357,63.3192],[19.13788,63.32801],[19.13552,63.33076],[19.12678,63.33225],[19.12323,63.33256],[19.1223,63.33433],[19.12237,63.33536],[19.1234,63.33744],[19.12572,63.33931],[19.12938,63.34079],[19.13321,63.34151],[19.13673,63.34276],[19.14009,63.3433],[19.1393,63.34427],[19.1373,63.34523],[19.13601,63.3462],[19.13487,63.34795],[19.13476,63.34919],[19.13514,63.35026],[19.13624,63.35167],[19.13748,63.3526],[19.14032,63.35385],[19.14523,63.35498],[19.1487,63.35604],[19.15366,63.35676],[19.15764,63.35679]]]}},{"type":"Feature","id":"2284R010","properties":{"code":"2284R010","name":"Hörnett-Sund"},"geometry":{"type":"Polygon","coordinates":[[[18.68822,63.29161],[18.69207,63.28949],[18.69596,63.29046],[18.70077,63.28989],[18.70366,63.29006],[18.70556,63.28743],[18.70655,63.28536],[18.70917,63.28305],[18.71004,63.28173],[18.71298,63.28128],[18.72248,63.28215],[18.73302,63.27055],[18.73808,63.26905],[18.73232,63.26796],[18.72319,63.26671],[18.71685,63.26475],[18.71317,63.26259],[18.70861,63.26262],[18.69087,63.26924],[18.69059,63.26781],[18.6895,63.26627],[18.68679,63.26408],[18.68853,63.26338],[18.68688,63.25942],[18.68583,63.25932],[18.68572,63.25855],[18.68658,63.25846],[18.68672,63.25749],[18.68669,63.25729],[18.68552,63.25732],[18.68515,63.2548],[18.68756,63.25358],[18.68921,63.25302],[18.688,63.25228],[18.68719,63.25129],[18.68644,63.24882],[18.67932,63.24936],[18.67515,63.25035],[18.67167,63.25163],[18.66963,63.25271],[18.66823,63.25401],[18.6676,63.25551],[18.66388,63.25532],[18.66085,63.25555],[18.65737,63.25631],[18.65503,63.25728],[18.65369,63.25814],[18.65252,63.25944],[18.65187,63.26246],[18.64949,63.26369],[18.64807,63.26492],[18.64391,63.26617],[18.64091,63.26783],[18.63942,63.26924],[18.63878,63.27116],[18.63768,63.27223],[18.63716,63.27321],[18.63426,63.27463],[18.63272,63.27613],[18.63199,63.27627],[18.63018,63.27621],[18.62761,63.27554],[18.62533,63.27521],[18.61614,63.27471],[18.61362,63.27488],[18.61127,63.27524],[18.60863,63.27597],[18.60698,63.27669],[18.60723,63.27666],[18.60973,63.28185],[18.62687,63.28016],[18.63622,63.27959],[18.6464,63.27962],[18.65955,63.28048],[18.65814,63.2833],[18.65389,63.28607],[18.65297,63.2863],[18.65286,63.28744],[18.6609,63.29046],[18.66788,63.29155],[18.66889,63.29121],[18.67239,63.29355],[18.6741,63.29388],[18.67771,63.29354],[18.67846,63.29335],[18.68007,63.29242],[18.68357,63.29222],[18.6852,63.29183],[18.68822,63.29161]]]}},{"type":"Feature","id":"2284R011","properties":{"code":"2284R011","name":"Järved-Bonäset-Dekarsön"},"geometry":{"type":"Polygon","coordinates":[[[18.77568,63.28532],[18.78048,63.28474],[18.78446,63.2834],[18.78674,63.2818],[18.78752,63.28074],[18.78783,63.27949],[18.789,63.27837],[18.79135,63.27971],[18.79396,63.28056],[18.79811,63.28122],[18.80206,63.28136],[18.80592,63.28095],[18.80962,63.27988],[18.813,63.27976],[18.81608,63.27929],[18.81897,63.27843],[18.82155,63.27705],[18.82288,63.27572],[18.82382,63.27354],[18.82371,63.27066],[18.82824,63.26795],[18.82953,63.26599],[18.82954,63.26497],[18.82888,63.26363],[18.8275,63.26242],[18.825,63.26122],[18.82518,63.26029],[18.82573,63.26002],[18.82867,63.26014],[18.83184,63.25994],[18.83618,63.25898],[18.83795,63.25825],[18.83961,63.25721],[18.84084,63.25596],[18.84128,63.25495],[18.84057,63.25109],[18.8394,63.24947],[18.83381,63.24621],[18.82908,63.2447],[18.82511,63.24397],[18.82116,63.24373],[18.81683,63.24397],[18.81215,63.24479],[18.80474,63.24674],[18.80149,63.24819],[18.79739,63.24954],[18.79455,63.25144],[18.79245,63.25369],[18.7896,63.25227],[18.78732,63.25163],[18.78605,63.25147],[18.77069,63.2539],[18.76862,63.25443],[18.76271,63.25669],[18.75996,63.25828],[18.75567,63.26181],[18.75391,63.26538],[18.74127,63.26811],[18.73302,63.27055],[18.74681,63.27661],[18.74804,63.2769],[18.74815,63.27754],[18.74815,63.27692],[18.74918,63.27726],[18.74946,63.27678],[18.75068,63.2762],[18.75418,63.27786],[18.75525,63.27898],[18.75754,63.27854],[18.75894,63.28004],[18.76663,63.27847],[18.76261,63.28341],[18.7645,63.28388],[18.76542,63.28368],[18.7676,63.28445],[18.77054,63.28506],[18.77298,63.2853],[18.77568,63.28532]]]}},{"type":"Feature","id":"2284R012","properties":{"code":"2284R012","name":"Köpmanholmen"},"geometry":{"type":"Polygon","coordinates":[[[18.55198,63.1857],[18.54955,63.18247],[18.55254,63.18207],[18.55337,63.18197],[18.55635,63.18272],[18.55945,63.18307],[18.5626,63.18306],[18.5678,63.18247],[18.57331,63.18316],[18.57649,63.18324],[18.58017,63.18285],[18.588,63.18116],[18.59031,63.18027],[18.59235,63.17892],[18.59341,63.17764],[18.59368,63.17599],[18.59748,63.1756],[18.60112,63.17471],[18.60337,63.17373],[18.60514,63.17236],[18.60656,63.17185],[18.61047,63.17115],[18.61308,63.17027],[18.61497,63.16921],[18.61625,63.16792],[18.61674,63.16682],[18.61668,63.16536],[18.61572,63.16381],[18.6136,63.16229],[18.60001,63.11277],[18.5622,63.1129],[18.54371,63.14166],[18.54103,63.1423],[18.5388,63.14322],[18.53714,63.14436],[18.53634,63.14532],[18.53582,63.14668],[18.53596,63.14882],[18.53649,63.15056],[18.53798,63.15235],[18.53896,63.1542],[18.53867,63.15539],[18.53903,63.15755],[18.53776,63.15849],[18.53671,63.15988],[18.53643,63.16104],[18.5367,63.1623],[18.53566,63.16368],[18.53543,63.1651],[18.53659,63.16784],[18.5376,63.16926],[18.53888,63.17038],[18.53668,63.17153],[18.53506,63.17315],[18.53463,63.17459],[18.53524,63.17684],[18.5307,63.17653],[18.52819,63.17654],[18.52584,63.17675],[18.52297,63.17733],[18.52105,63.17797],[18.51874,63.17909],[18.51603,63.18106],[18.5148,63.18227],[18.52588,63.18093],[18.5274,63.18092],[18.52827,63.1811],[18.53197,63.18337],[18.53288,63.1837],[18.54065,63.18297],[18.54629,63.1843],[18.5472,63.18516],[18.54875,63.186],[18.54959,63.18596],[18.54967,63.18617],[18.55198,63.1857]]]}},{"type":"Feature","id":"2284R013","properties":{"code":"2284R013","name":"Mellansel-Gottne-Moliden"},"geometry":{"type":"Polygon","coordinates":[[[18.36723,63.52512],[18.37149,63.52463],[18.37319,63.52525],[18.37214,63.52904],[18.41124,63.49326],[18.50604,63.46757],[18.50702,63.46319],[18.51602,63.46185],[18.56907,63.43002],[18.54603,63.41758],[18.53783,63.40823],[18.53952,63.40845],[18.54106,63.40795],[18.54229,63.4078],[18.54309,63.40864],[18.54483,63.40888],[18.54598,63.40842],[18.54807,63.40849],[18.5505,63.4081],[18.55202,63.40814],[18.55297,63.40786],[18.55378,63.40803],[18.55534,63.40797],[18.55654,63.40747],[18.55804,63.40754],[18.55764,63.40789],[18.55822,63.40809],[18.56066,63.40753],[18.56259,63.40754],[18.56423,63.40681],[18.56551,63.40702],[18.5678,63.40669],[18.56869,63.40675],[18.56933,63.40652],[18.57031,63.40675],[18.57338,63.4067],[18.57388,63.4071],[18.57453,63.40718],[18.5753,63.40664],[18.57682,63.40626],[18.57783,63.40632],[18.57851,63.4067],[18.58069,63.40658],[18.58151,63.40679],[18.58474,63.40637],[18.58334,63.39108],[18.56862,63.38544],[18.56337,63.37595],[18.56998,63.37066],[18.57198,63.3685],[18.57165,63.3643],[18.57189,63.3633],[18.57363,63.36216],[18.58233,63.35367],[18.58961,63.35303],[18.59489,63.3478],[18.59245,63.34405],[18.6015,63.33922],[18.60127,63.338],[18.60392,63.3368],[18.60578,63.33291],[18.60641,63.3273],[18.61391,63.32725],[18.61946,63.32536],[18.61008,63.32148],[18.59727,63.30856],[18.59604,63.30872],[18.59365,63.30993],[18.58991,63.31094],[18.58829,63.31238],[18.58619,63.31344],[18.58567,63.31459],[18.58435,63.31593],[18.58213,63.31718],[18.57975,63.31799],[18.57773,63.31993],[18.57606,63.3209],[18.57637,63.32242],[18.57617,63.32354],[18.57551,63.32462],[18.57439,63.32563],[18.57092,63.32734],[18.56672,63.32842],[18.56464,63.32982],[18.56174,63.33087],[18.55653,63.33513],[18.55465,63.33621],[18.5513,63.33987],[18.54912,63.34109],[18.54699,63.34183],[18.54575,63.34493],[18.5443,63.34653],[18.54234,63.34762],[18.53919,63.34861],[18.5347,63.34914],[18.5305,63.3492],[18.5275,63.34895],[18.52411,63.34818],[18.52112,63.34678],[18.51397,63.34587],[18.51455,63.34526],[18.51278,63.34455],[18.50895,63.34566],[18.50587,63.34613],[18.50238,63.34625],[18.49897,63.34597],[18.49707,63.34651],[18.49082,63.35063],[18.48457,63.3541],[18.48206,63.35485],[18.47002,63.35944],[18.44699,63.34515],[18.44219,63.34478],[18.42018,63.3521],[18.40132,63.35524],[18.39324,63.35608],[18.3629,63.35839],[18.2992,63.36972],[18.27767,63.37462],[18.26239,63.3778],[18.2433,63.38073],[18.21671,63.38513],[18.22229,63.39234],[18.22081,63.40101],[18.22272,63.40314],[18.22301,63.40422],[18.22165,63.40757],[18.23759,63.41721],[18.2382,63.41732],[18.24079,63.42072],[18.24472,63.42233],[18.24043,63.42892],[18.24123,63.43059],[18.2392,63.43148],[18.24275,63.43663],[18.23463,63.4386],[18.2314,63.43775],[18.22141,63.43776],[18.21606,63.44135],[18.21515,63.44166],[18.21167,63.44189],[18.20562,63.44108],[18.1953,63.44242],[18.19246,63.44304],[18.18915,63.44281],[18.18666,63.44323],[18.18359,63.44306],[18.17643,63.44375],[18.17849,63.44699],[18.17735,63.44973],[18.17739,63.45039],[18.17613,63.45144],[18.17533,63.45512],[18.17683,63.45637],[18.17745,63.45655],[18.18674,63.45733],[18.20143,63.463],[18.20588,63.46879],[18.20861,63.47019],[18.20339,63.48102],[18.2027,63.48155],[18.19068,63.48312],[18.1695,63.51151],[18.16613,63.51269],[18.16481,63.52324],[18.21735,63.52921],[18.23682,63.53197],[18.2452,63.52988],[18.2512,63.52462],[18.32688,63.53128],[18.36111,63.52935],[18.36723,63.52512]]]}},{"type":"Feature","id":"2284R014","properties":{"code":"2284R014","name":"Nätradalens omland"},"geometry":{"type":"Polygon","coordinates":[[[18.13275,63.38913],[18.17453,63.38581],[18.21361,63.38562],[18.2433,63.38073],[18.26239,63.3778],[18.27767,63.37462],[18.2992,63.36972],[18.3629,63.35839],[18.39324,63.35608],[18.40132,63.35524],[18.42018,63.3521],[18.44219,63.34478],[18.44699,63.34515],[18.47002,63.35944],[18.48206,63.35485],[18.48457,63.3541],[18.49082,63.35063],[18.49707,63.34651],[18.49897,63.34597],[18.49601,63.34535],[18.49333,63.34436],[18.49143,63.34317],[18.49008,63.34148],[18.48984,63.34026],[18.4903,63.33715],[18.49111,63.33595],[18.49304,63.33448],[18.4942,63.33296],[18.49311,63.33119],[18.49326,63.32938],[18.49644,63.32567],[18.49581,63.32436],[18.4934,63.32247],[18.48643,63.32072],[18.48455,63.31985],[18.4828,63.31861],[18.4818,63.31721],[18.4816,63.31566],[18.48233,63.31399],[18.48384,63.31259],[18.48773,63.31052],[18.49028,63.3096],[18.49433,63.30886],[18.49855,63.30875],[18.50172,63.30907],[18.5049,63.30981],[18.50913,63.30988],[18.51402,63.31065],[18.51668,63.31147],[18.51915,63.31281],[18.52346,63.3135],[18.5272,63.31491],[18.53172,63.31386],[18.53371,63.31134],[18.54756,63.3056],[18.55243,63.30425],[18.55038,63.3013],[18.54716,63.30113],[18.54351,63.30043],[18.54052,63.29925],[18.53808,63.29759],[18.53526,63.29735],[18.5301,63.29637],[18.52762,63.29545],[18.52512,63.29392],[18.52368,63.29187],[18.52404,63.28973],[18.52567,63.28811],[18.52925,63.28637],[18.53074,63.2854],[18.53332,63.28434],[18.53616,63.28365],[18.53886,63.28205],[18.54309,63.28068],[18.54598,63.2801],[18.54915,63.27986],[18.55154,63.27992],[18.5549,63.28032],[18.55807,63.27843],[18.55979,63.27768],[18.56184,63.27708],[18.5648,63.27658],[18.56956,63.2765],[18.57705,63.27748],[18.57971,63.27829],[18.58169,63.27929],[18.58443,63.28011],[18.58675,63.28135],[18.59172,63.27903],[18.59603,63.27782],[18.60067,63.27718],[18.60306,63.27718],[18.60581,63.27743],[18.60751,63.27643],[18.60924,63.27576],[18.61362,63.27488],[18.61789,63.27473],[18.62147,63.27511],[18.62452,63.27514],[18.62756,63.27553],[18.63018,63.27621],[18.63199,63.27627],[18.63272,63.27613],[18.63426,63.27463],[18.63716,63.27321],[18.63768,63.27223],[18.63878,63.27116],[18.63942,63.26924],[18.64091,63.26783],[18.64391,63.26617],[18.64807,63.26492],[18.64949,63.26369],[18.65187,63.26246],[18.65252,63.25944],[18.65369,63.25814],[18.65503,63.25728],[18.65737,63.25631],[18.66085,63.25555],[18.66388,63.25532],[18.6676,63.25551],[18.66823,63.25401],[18.66963,63.25271],[18.67167,63.25163],[18.67515,63.25035],[18.67932,63.24936],[18.68644,63.24882],[18.68605,63.24789],[18.6909,63.2446],[18.69103,63.2437],[18.68915,63.24173],[18.6876,63.23897],[18.68679,63.23654],[18.68938,63.23649],[18.70302,63.2309],[18.70564,63.21633],[18.70318,63.21258],[18.70658,63.2098],[18.70782,63.20981],[18.70852,63.19584],[18.71646,63.1849],[18.73387,63.17504],[18.81815,63.14799],[18.85664,63.14698],[18.88819,63.14701],[18.96285,63.13758],[19.2872,63.00088],[18.98628,62.83422],[18.58422,62.97376],[18.57542,63.00064],[18.60107,63.03134],[18.57455,63.0644],[18.5516,63.06754],[18.51964,63.08566],[18.51332,63.08446],[18.50548,63.08476],[18.49803,63.08402],[18.49472,63.08404],[18.39838,63.1129],[18.3026,63.13354],[18.25339,63.14395],[18.24869,63.14479],[18.18618,63.15852],[18.17149,63.16191],[18.10282,63.17624],[18.05516,63.18589],[18.05409,63.18997],[18.0065,63.20168],[17.9933,63.20523],[17.99975,63.20777],[17.97055,63.21952],[17.88967,63.25291],[17.83688,63.27537],[17.76679,63.27971],[17.83357,63.30203],[17.89105,63.30769],[17.89282,63.30785],[17.90706,63.30787],[17.91118,63.30579],[17.91972,63.3062],[17.94787,63.29727],[17.95562,63.29451],[17.98269,63.30264],[18.00268,63.30796],[18.02093,63.31103],[18.03633,63.3057],[18.04334,63.31732],[18.04963,63.32879],[18.05053,63.33163],[18.05398,63.33901],[18.06077,63.34346],[18.06703,63.34252],[18.06933,63.34257],[18.07013,63.34207],[18.07471,63.34228],[18.07512,63.34186],[18.0759,63.34165],[18.07874,63.34163],[18.07983,63.34237],[18.08116,63.34228],[18.08001,63.34165],[18.08035,63.34139],[18.08026,63.34091],[18.08224,63.34061],[18.084,63.34079],[18.08517,63.34172],[18.08563,63.34177],[18.08574,63.34117],[18.085,63.34053],[18.08763,63.34032],[18.08819,63.33854],[18.0898,63.33727],[18.08311,63.37807],[18.09991,63.37124],[18.08321,63.39121],[18.10557,63.39015],[18.13275,63.38913]],[[18.51291,63.22288],[18.51121,63.22278],[18.50695,63.22297],[18.50288,63.22258],[18.49836,63.22141],[18.49548,63.21989],[18.4931,63.2198],[18.49017,63.21938],[18.48812,63.21884],[18.48584,63.21787],[18.48364,63.21605],[18.48257,63.21331],[18.48035,63.21244],[18.47854,63.21139],[18.47731,63.21029],[18.47664,63.20919],[18.47415,63.20802],[18.47237,63.20643],[18.47181,63.20423],[18.47317,63.20132],[18.47459,63.20002],[18.48076,63.19637],[18.4808,63.19436],[18.48143,63.19297],[18.48382,63.19094],[18.48581,63.18989],[18.48927,63.18888],[18.49483,63.18793],[18.49724,63.1877],[18.5007,63.18658],[18.50368,63.18597],[18.50785,63.18571],[18.51252,63.18617],[18.51313,63.18546],[18.51354,63.18367],[18.51565,63.18139],[18.5187,63.17911],[18.52105,63.17797],[18.52437,63.177],[18.52738,63.17659],[18.5307,63.17653],[18.53524,63.17684],[18.53463,63.17459],[18.53506,63.17315],[18.53668,63.17153],[18.53888,63.17038],[18.5376,63.16926],[18.53659,63.16784],[18.53543,63.1651],[18.53566,63.16368],[18.5367,63.1623],[18.53643,63.16104],[18.53671,63.15988],[18.53776,63.15849],[18.53903,63.15755],[18.53867,63.15539],[18.53896,63.1542],[18.53622,63.14989],[18.53579,63.14738],[18.53616,63.14567],[18.53714,63.14436],[18.5388,63.14322],[18.54103,63.1423],[18.54371,63.14166],[18.5622,63.1129],[18.60001,63.11277],[18.6136,63.16229],[18.61572,63.16381],[18.61668,63.16536],[18.61674,63.16682],[18.616,63.16824],[18.61497,63.16921],[18.61308,63.17027],[18.61047,63.17115],[18.60656,63.17185],[18.60514,63.17236],[18.60337,63.17373],[18.60112,63.17471],[18.59748,63.1756],[18.59368,63.17599],[18.59321,63.17797],[18.59125,63.17974],[18.58863,63.18097],[18.58488,63.18194],[18.57946,63.18297],[18.57573,63.18325],[18.57011,63.18285],[18.5678,63.18247],[18.5626,63.18306],[18.5594,63.18307],[18.55635,63.18272],[18.55337,63.18197],[18.54955,63.18247],[18.55166,63.18503],[18.55211,63.1868],[18.55136,63.18847],[18.5494,63.19024],[18.54693,63.19163],[18.54137,63.19366],[18.53783,63.19426],[18.53354,63.19429],[18.53166,63.19594],[18.5291,63.1972],[18.53095,63.19808],[18.53271,63.19941],[18.53361,63.20082],[18.53375,63.20204],[18.53266,63.20412],[18.53004,63.20586],[18.53062,63.20783],[18.52977,63.20969],[18.52819,63.21102],[18.52406,63.21318],[18.52591,63.21441],[18.52698,63.21577],[18.52719,63.21752],[18.52645,63.21896],[18.52436,63.22061],[18.52143,63.2218],[18.51691,63.2227],[18.51291,63.22288]]]}},{"type":"Feature","id":"2284R016","properties":{"code":"2284R016","name":"Valhalla-Sörliden"},"geometry":{"type":"Polygon","coordinates":[[[18.72376,63.31069],[18.72545,63.30675],[18.72631,63.30612],[18.72572,63.30599],[18.72628,63.30547],[18.72753,63.30576],[18.72899,63.30471],[18.72813,63.3045],[18.72961,63.30314],[18.73139,63.3019],[18.73735,63.29956],[18.7372,63.29889],[18.74226,63.29871],[18.74203,63.29821],[18.74118,63.29766],[18.74328,63.29691],[18.74895,63.29547],[18.75192,63.29658],[18.75543,63.29226],[18.75619,63.29223],[18.76133,63.28837],[18.76214,63.28625],[18.76366,63.28509],[18.7645,63.28388],[18.76261,63.28341],[18.76663,63.27847],[18.75894,63.28004],[18.75754,63.27854],[18.75525,63.27898],[18.75418,63.27786],[18.75068,63.2762],[18.74946,63.27678],[18.74918,63.27726],[18.74815,63.27692],[18.74815,63.27754],[18.74804,63.2769],[18.74681,63.27661],[18.73302,63.27055],[18.72506,63.27931],[18.72847,63.28134],[18.72974,63.28403],[18.72798,63.28576],[18.72716,63.2861],[18.72651,63.28701],[18.7258,63.28734],[18.72788,63.28797],[18.72476,63.28954],[18.72317,63.29255],[18.72362,63.29473],[18.7259,63.29491],[18.72737,63.29475],[18.72527,63.29645],[18.72308,63.29677],[18.72445,63.29871],[18.72337,63.2993],[18.72437,63.30226],[18.72064,63.30131],[18.71905,63.30054],[18.71819,63.30078],[18.71696,63.3018],[18.71522,63.30246],[18.71458,63.30297],[18.71234,63.30684],[18.71579,63.30777],[18.71314,63.30889],[18.72073,63.31174],[18.72376,63.31069]]]}},{"type":"Feature","id":"2284R017","properties":{"code":"2284R017","name":"Västerhus-Själevad-Billsta"},"geometry":{"type":"Polygon","coordinates":[[[18.53552,63.3491],[18.53778,63.34886],[18.54052,63.34827],[18.54388,63.34681],[18.54556,63.34526],[18.54699,63.34183],[18.54912,63.34109],[18.5513,63.33987],[18.55465,63.33621],[18.55653,63.33513],[18.56174,63.33087],[18.56464,63.32982],[18.56672,63.32842],[18.57032,63.32756],[18.57397,63.32592],[18.57522,63.32494],[18.57617,63.32354],[18.57637,63.32242],[18.57606,63.3209],[18.57773,63.31993],[18.57975,63.31799],[18.58213,63.31718],[18.58435,63.31593],[18.58567,63.31459],[18.58619,63.31344],[18.58829,63.31238],[18.58991,63.31094],[18.59365,63.30993],[18.59604,63.30872],[18.59727,63.30856],[18.59317,63.30421],[18.59214,63.30205],[18.59261,63.30196],[18.59224,63.30122],[18.58859,63.29702],[18.58573,63.2967],[18.58705,63.29584],[18.58978,63.29522],[18.59338,63.29502],[18.59412,63.29543],[18.5981,63.29608],[18.60075,63.29619],[18.60161,63.29683],[18.60293,63.29685],[18.60409,63.29734],[18.60769,63.29752],[18.60907,63.29805],[18.61353,63.29704],[18.61337,63.29625],[18.61502,63.29481],[18.61807,63.29466],[18.6184,63.29394],[18.61903,63.29384],[18.61942,63.29345],[18.62062,63.29299],[18.62126,63.29228],[18.62201,63.29237],[18.62487,63.29054],[18.62503,63.29016],[18.62446,63.28955],[18.62651,63.28913],[18.63067,63.28919],[18.63445,63.29147],[18.63875,63.29327],[18.64418,63.29385],[18.65767,63.28925],[18.65286,63.28744],[18.65297,63.2863],[18.65389,63.28607],[18.65814,63.2833],[18.65955,63.28048],[18.6464,63.27962],[18.63622,63.27959],[18.62687,63.28016],[18.60973,63.28185],[18.60723,63.27666],[18.60581,63.27743],[18.60306,63.27718],[18.60067,63.27718],[18.59609,63.2778],[18.59172,63.27903],[18.58675,63.28135],[18.58443,63.28011],[18.58169,63.27929],[18.57971,63.27829],[18.57705,63.27748],[18.57031,63.27656],[18.56635,63.27646],[18.56328,63.27679],[18.56044,63.27746],[18.55807,63.27843],[18.5549,63.28032],[18.55154,63.27992],[18.54915,63.27986],[18.54598,63.2801],[18.54309,63.28068],[18.53886,63.28205],[18.53616,63.28365],[18.53196,63.28483],[18.52925,63.28637],[18.52662,63.28754],[18.52455,63.28906],[18.52363,63.29082],[18.52398,63.2926],[18.52596,63.29452],[18.5282,63.29571],[18.53076,63.29654],[18.53526,63.29735],[18.53808,63.29759],[18.54052,63.29925],[18.54351,63.30043],[18.54716,63.30113],[18.55038,63.3013],[18.55243,63.30425],[18.54756,63.3056],[18.53371,63.31134],[18.53172,63.31386],[18.5272,63.31491],[18.52346,63.3135],[18.51915,63.31281],[18.51663,63.31145],[18.51327,63.3105],[18.50838,63.30982],[18.5049,63.30981],[18.50243,63.30919],[18.50005,63.30885],[18.49605,63.30874],[18.49337,63.30898],[18.49028,63.3096],[18.48575,63.31146],[18.48267,63.31358],[18.48193,63.31465],[18.48158,63.31644],[18.48242,63.3182],[18.48408,63.31958],[18.48721,63.32098],[18.4934,63.32247],[18.49581,63.32436],[18.49644,63.32567],[18.4937,63.32863],[18.49313,63.32972],[18.49311,63.33119],[18.4942,63.33296],[18.49304,63.33448],[18.49111,63.33595],[18.49009,63.33783],[18.49004,63.34138],[18.49079,63.34255],[18.49236,63.34383],[18.4946,63.3449],[18.49667,63.34553],[18.4997,63.34606],[18.50238,63.34625],[18.50734,63.34595],[18.50963,63.3455],[18.51278,63.34455],[18.51455,63.34526],[18.51397,63.34587],[18.52112,63.34678],[18.52351,63.34797],[18.52608,63.3487],[18.52974,63.34917],[18.53552,63.3491]]]}},{"type":"Feature","id":"2284R018","properties":{"code":"2284R018","name":"Örnsköldsviks centrum"},"geometry":{"type":"Polygon","coordinates":[[[18.72011,63.29531],[18.7221,63.29495],[18.72308,63.29677],[18.72527,63.29645],[18.72737,63.29475],[18.7259,63.29491],[18.72362,63.29473],[18.72317,63.29255],[18.72476,63.28954],[18.72788,63.28797],[18.7258,63.28734],[18.72651,63.28701],[18.72716,63.2861],[18.72798,63.28576],[18.72974,63.28403],[18.72847,63.28134],[18.72506,63.27931],[18.72248,63.28215],[18.71298,63.28128],[18.71004,63.28173],[18.70917,63.28305],[18.70655,63.28536],[18.70556,63.28743],[18.70366,63.29006],[18.71248,63.29106],[18.71067,63.29399],[18.70893,63.2955],[18.71631,63.29635],[18.71655,63.29788],[18.71727,63.29831],[18.71838,63.29801],[18.71911,63.29633],[18.72011,63.29531]]]}},{"type":"Feature","id":"2284R019","properties":{"code":"2284R019","name":"Örnsköldsviks östra omland"},"geometry":{"type":"Polygon","coordinates":[[[18.66676,63.52742],[18.67049,63.5273],[18.65633,63.51498],[18.64134,63.48882],[18.64821,63.47947],[18.64365,63.47351],[18.69463,63.45649],[18.78203,63.48012],[18.79243,63.48657],[18.88095,63.45763],[18.86283,63.44071],[18.9158,63.42605],[18.96623,63.41977],[18.97048,63.41159],[19.07797,63.42706],[19.07595,63.42469],[19.07588,63.42127],[19.07516,63.41795],[19.0745,63.41751],[19.07292,63.41718],[19.07163,63.41629],[19.06915,63.41614],[19.06822,63.41584],[19.06682,63.41479],[19.06515,63.41292],[19.0626,63.41233],[19.06173,63.41153],[19.05892,63.41046],[19.05732,63.40883],[19.05433,63.40803],[19.05252,63.40615],[19.05228,63.40489],[19.05284,63.40443],[19.05278,63.40386],[19.05226,63.40352],[19.05122,63.40335],[19.05093,63.40304],[19.051,63.40139],[19.05183,63.39916],[19.05024,63.39742],[19.05063,63.39735],[19.05084,63.39774],[19.05105,63.39705],[19.05169,63.39702],[19.052,63.3972],[19.05235,63.39698],[19.05317,63.39699],[19.05533,63.39591],[19.0553,63.39537],[19.05513,63.39555],[19.05474,63.39539],[19.05478,63.39574],[19.05429,63.39556],[19.05362,63.39428],[19.05538,63.39312],[19.05623,63.39323],[19.05626,63.39351],[19.05699,63.39344],[19.05839,63.3909],[19.0586,63.3895],[19.05811,63.38809],[19.0567,63.38741],[19.05492,63.38691],[19.05341,63.38672],[19.05127,63.38608],[19.0499,63.38627],[19.04901,63.38598],[19.04775,63.38638],[19.047,63.38705],[19.04403,63.38809],[19.04336,63.38794],[19.04184,63.38824],[19.04091,63.38808],[19.03964,63.38813],[19.0388,63.38756],[19.03851,63.38766],[19.03619,63.38672],[19.03502,63.38585],[19.03394,63.38555],[19.03363,63.38503],[19.03239,63.38455],[19.03159,63.3839],[19.02997,63.38314],[19.02876,63.38327],[19.02739,63.38383],[19.02575,63.38393],[19.0245,63.38375],[19.0241,63.38385],[19.0239,63.38371],[19.02177,63.38392],[19.01045,63.38049],[19.01467,63.37651],[19.01248,63.35622],[19.01206,63.35464],[19.00912,63.3502],[19.0057,63.34921],[19.00639,63.34751],[19.0096,63.34677],[19.00943,63.34594],[19.00078,63.32199],[18.98681,63.29297],[18.98551,63.2884],[18.9892,63.28106],[18.98238,63.27447],[18.97208,63.2528],[18.96914,63.25133],[18.9634,63.24948],[18.96193,63.24949],[18.9602,63.24994],[18.95885,63.24997],[18.95755,63.25022],[18.95491,63.24998],[18.95034,63.24806],[18.95005,63.24751],[18.94903,63.24696],[18.94626,63.24611],[18.94504,63.24595],[18.94406,63.24475],[18.94613,63.24293],[18.94723,63.24133],[18.94903,63.23991],[18.95168,63.2404],[18.95514,63.24059],[18.95611,63.23957],[18.94854,63.238],[18.94762,63.23363],[18.94753,63.22779],[18.94689,63.22617],[18.94701,63.22423],[18.94436,63.18786],[18.96285,63.13758],[18.88819,63.14701],[18.85664,63.14698],[18.81815,63.14799],[18.73387,63.17504],[18.71646,63.1849],[18.70852,63.19584],[18.70782,63.20981],[18.70658,63.2098],[18.70318,63.21258],[18.70564,63.21633],[18.70305,63.23076],[18.71566,63.23715],[18.71789,63.23703],[18.72076,63.23629],[18.72303,63.23594],[18.72704,63.2358],[18.73018,63.23611],[18.73361,63.23695],[18.7368,63.23698],[18.73832,63.23813],[18.73937,63.23811],[18.73915,63.23852],[18.73772,63.23897],[18.73929,63.24182],[18.74046,63.2429],[18.74105,63.24394],[18.74119,63.24502],[18.74075,63.24677],[18.74316,63.24841],[18.74416,63.25029],[18.74698,63.24992],[18.74937,63.24983],[18.75167,63.24901],[18.7546,63.24841],[18.75836,63.24808],[18.76151,63.24811],[18.76384,63.24837],[18.76666,63.24901],[18.76913,63.2499],[18.77085,63.25079],[18.77539,63.25071],[18.77954,63.25117],[18.78295,63.25108],[18.78663,63.25149],[18.79019,63.25249],[18.79245,63.25369],[18.79337,63.25246],[18.7964,63.25006],[18.79896,63.2489],[18.80149,63.24819],[18.80414,63.24695],[18.81283,63.24464],[18.81683,63.24397],[18.82116,63.24373],[18.82404,63.24386],[18.82763,63.24437],[18.83266,63.24576],[18.83817,63.2486],[18.84024,63.25042],[18.84129,63.25393],[18.84128,63.25495],[18.8406,63.25628],[18.839,63.25764],[18.83677,63.25877],[18.83338,63.2597],[18.82949,63.26012],[18.82573,63.26002],[18.82518,63.26029],[18.825,63.26122],[18.8275,63.26242],[18.82888,63.26363],[18.82954,63.26497],[18.82953,63.26599],[18.82824,63.26795],[18.82371,63.27066],[18.82397,63.27286],[18.82313,63.27529],[18.82192,63.27675],[18.82006,63.27795],[18.81759,63.2789],[18.81539,63.27943],[18.81225,63.27982],[18.80962,63.27988],[18.80592,63.28095],[18.80124,63.28138],[18.79804,63.28121],[18.79396,63.28056],[18.79135,63.27971],[18.789,63.27837],[18.78783,63.27949],[18.78727,63.28116],[18.78595,63.2825],[18.78337,63.28388],[18.78048,63.28474],[18.77656,63.28529],[18.77298,63.2853],[18.76913,63.28482],[18.76542,63.28368],[18.76449,63.28388],[18.76366,63.28509],[18.76214,63.28625],[18.76182,63.28762],[18.76104,63.28868],[18.75915,63.29015],[18.75734,63.29116],[18.75556,63.29269],[18.75717,63.29365],[18.7582,63.29463],[18.75984,63.29819],[18.7626,63.29962],[18.76777,63.30047],[18.77237,63.29987],[18.77489,63.29987],[18.77771,63.30011],[18.78135,63.30086],[18.78471,63.30233],[18.79162,63.30342],[18.79778,63.30403],[18.80164,63.30476],[18.80369,63.30534],[18.80624,63.30638],[18.80765,63.30725],[18.80887,63.30851],[18.81499,63.31045],[18.81723,63.31145],[18.81885,63.31267],[18.81971,63.31381],[18.82015,63.31595],[18.81968,63.31701],[18.81841,63.31831],[18.81694,63.31919],[18.8147,63.32007],[18.81538,63.32122],[18.81553,63.32234],[18.81442,63.32452],[18.81264,63.32583],[18.80952,63.32712],[18.8066,63.32777],[18.80278,63.32808],[18.80228,63.32937],[18.80088,63.33079],[18.79883,63.33194],[18.7968,63.33268],[18.79219,63.33353],[18.78534,63.33397],[18.78293,63.33395],[18.77911,63.33346],[18.77532,63.33232],[18.77288,63.33091],[18.77126,63.32908],[18.77065,63.32765],[18.77088,63.32609],[18.77191,63.3247],[18.77319,63.32376],[18.77338,63.3223],[18.77424,63.3211],[18.77275,63.31954],[18.77016,63.31984],[18.76789,63.31988],[18.7634,63.32056],[18.76014,63.32059],[18.75745,63.32033],[18.74974,63.32097],[18.74648,63.32089],[18.74085,63.32022],[18.73905,63.32107],[18.73641,63.32185],[18.72821,63.32313],[18.72622,63.32445],[18.72383,63.32537],[18.71323,63.32762],[18.71113,63.32848],[18.70809,63.32926],[18.70401,63.32969],[18.69994,63.32955],[18.6962,63.32982],[18.69174,63.32949],[18.69016,63.32994],[18.68721,63.33132],[18.68438,63.33204],[18.68102,63.33244],[18.67701,63.3324],[18.67301,63.33176],[18.66932,63.33044],[18.66607,63.33027],[18.66234,63.32961],[18.6582,63.32829],[18.65552,63.32646],[18.65299,63.32538],[18.65124,63.32415],[18.65019,63.32267],[18.64968,63.32034],[18.64656,63.3196],[18.64187,63.31784],[18.63824,63.31714],[18.63548,63.31608],[18.63267,63.31547],[18.63025,63.31457],[18.62775,63.31316],[18.62641,63.31202],[18.62553,63.31039],[18.62533,63.30917],[18.62198,63.30851],[18.61963,63.30765],[18.61664,63.3082],[18.61395,63.30841],[18.60953,63.30854],[18.60536,63.3084],[18.60148,63.30859],[18.59815,63.3084],[18.59727,63.30856],[18.61008,63.32148],[18.61946,63.32536],[18.61391,63.32725],[18.60641,63.3273],[18.60578,63.33291],[18.60392,63.3368],[18.60127,63.338],[18.6015,63.33922],[18.59245,63.34405],[18.59489,63.3478],[18.58961,63.35303],[18.58233,63.35367],[18.57363,63.36216],[18.57189,63.3633],[18.57165,63.3643],[18.57198,63.3685],[18.56998,63.37066],[18.56337,63.37595],[18.56862,63.38544],[18.58334,63.39108],[18.58474,63.40637],[18.58151,63.40679],[18.58069,63.40658],[18.57851,63.4067],[18.57783,63.40632],[18.57682,63.40626],[18.5753,63.40664],[18.57453,63.40718],[18.57388,63.4071],[18.57338,63.4067],[18.57031,63.40675],[18.56933,63.40652],[18.56869,63.40675],[18.5678,63.40669],[18.56551,63.40702],[18.56423,63.40681],[18.56259,63.40754],[18.56066,63.40753],[18.55822,63.40809],[18.55764,63.40789],[18.55804,63.40754],[18.55654,63.40747],[18.55534,63.40797],[18.55378,63.40803],[18.55297,63.40786],[18.55202,63.40814],[18.5505,63.4081],[18.54807,63.40849],[18.54598,63.40842],[18.54483,63.40888],[18.54309,63.40864],[18.54229,63.4078],[18.54106,63.40795],[18.53952,63.40845],[18.53783,63.40823],[18.54603,63.41758],[18.56907,63.43002],[18.51602,63.46185],[18.50702,63.46319],[18.50604,63.46757],[18.41124,63.49326],[18.49083,63.48419],[18.49554,63.48598],[18.51131,63.48309],[18.51454,63.48184],[18.51913,63.48229],[18.52433,63.48152],[18.52974,63.47936],[18.53435,63.47955],[18.53256,63.49734],[18.61095,63.50428],[18.62639,63.50682],[18.66278,63.52852],[18.66463,63.52772],[18.66676,63.52742]]]}},{"type":"Feature","id":"2284R020","properties":{"code":"2284R020","name":"Översjäla-Ås"},"geometry":{"type":"Polygon","coordinates":[[[18.64521,63.3078],[18.64554,63.30586],[18.65221,63.30577],[18.67123,63.30618],[18.67307,63.30676],[18.67704,63.30674],[18.68075,63.30533],[18.68731,63.30437],[18.68938,63.30305],[18.69614,63.3007],[18.69756,63.29995],[18.70102,63.29896],[18.70472,63.29665],[18.70561,63.2963],[18.70781,63.29589],[18.70781,63.29537],[18.70893,63.2955],[18.71067,63.29399],[18.71248,63.29106],[18.70573,63.29037],[18.70352,63.28995],[18.70077,63.28989],[18.69596,63.29046],[18.69207,63.28949],[18.68822,63.29161],[18.6852,63.29183],[18.68357,63.29222],[18.68007,63.29242],[18.67846,63.29335],[18.67771,63.29354],[18.6741,63.29388],[18.67239,63.29355],[18.66889,63.29121],[18.66788,63.29155],[18.6609,63.29046],[18.65767,63.28925],[18.64418,63.29385],[18.63875,63.29327],[18.63445,63.29147],[18.63067,63.28919],[18.62651,63.28913],[18.62446,63.28955],[18.62503,63.29016],[18.62487,63.29054],[18.62201,63.29237],[18.62126,63.29228],[18.62062,63.29299],[18.61942,63.29345],[18.61903,63.29384],[18.6184,63.29394],[18.61807,63.29466],[18.61502,63.29481],[18.61337,63.29625],[18.61353,63.29704],[18.60938,63.29799],[18.60874,63.29803],[18.60769,63.29752],[18.60409,63.29734],[18.60293,63.29685],[18.60161,63.29683],[18.60075,63.29619],[18.5981,63.29608],[18.59412,63.29543],[18.59338,63.29502],[18.58978,63.29522],[18.58705,63.29584],[18.58573,63.2967],[18.58859,63.29702],[18.59224,63.30122],[18.59261,63.30196],[18.59214,63.30205],[18.59317,63.30421],[18.59727,63.30856],[18.59815,63.3084],[18.60148,63.30859],[18.60536,63.3084],[18.60953,63.30854],[18.61395,63.30841],[18.61664,63.3082],[18.61963,63.30765],[18.62198,63.30851],[18.62533,63.30917],[18.62553,63.31039],[18.62641,63.31202],[18.62775,63.31316],[18.63025,63.31457],[18.63267,63.31547],[18.63548,63.31608],[18.63824,63.31714],[18.64187,63.31784],[18.64656,63.3196],[18.64968,63.32034],[18.6506,63.32342],[18.65159,63.32446],[18.65337,63.32558],[18.65721,63.32374],[18.65546,63.32081],[18.65565,63.31969],[18.65287,63.31905],[18.64815,63.31646],[18.6489,63.31557],[18.64671,63.31462],[18.65124,63.31259],[18.64863,63.31101],[18.64521,63.3078]]]}}]}