{"type":"FeatureCollection","features":[{"type":"Feature","id":"2305R001","properties":{"code":"2305R001","name":"Bodsjö-Nyhem-Bräcke"},"geometry":{"type":"Polygon","coordinates":[[[15.69183,63.04336],[15.80261,62.96472],[15.88741,62.92089],[15.84373,62.85657],[15.83733,62.85537],[15.83627,62.85531],[15.83202,62.85528],[15.82836,62.85586],[15.82564,62.85545],[15.82505,62.8549],[15.82424,62.85465],[15.82095,62.85424],[15.81883,62.85365],[15.8161,62.85414],[15.81503,62.85387],[15.81219,62.85363],[15.81101,62.85285],[15.80205,62.85245],[15.80058,62.8522],[15.79938,62.84924],[15.80482,62.81698],[15.80502,62.81342],[15.80603,62.80866],[15.81181,62.79126],[15.89082,62.75061],[15.96526,62.71276],[15.88292,62.69361],[15.76723,62.66433],[15.70661,62.65066],[15.63959,62.63479],[15.51685,62.61724],[15.41306,62.61066],[15.2451,62.6004],[15.12768,62.55909],[15.10501,62.5768],[15.09354,62.58407],[14.96712,62.6008],[14.91674,62.59809],[14.88471,62.63817],[14.87198,62.66236],[14.86141,62.68145],[14.86623,62.7041],[14.8584,62.71279],[14.81995,62.72834],[14.76935,62.74838],[14.78064,62.75787],[14.81695,62.76386],[14.7867,62.79221],[14.7689,62.81048],[14.81448,62.81103],[14.80771,62.82712],[14.79289,62.85816],[14.77284,62.9129],[14.79229,62.93202],[14.79351,62.9328],[14.85456,62.92613],[14.89024,62.9226],[14.92165,62.90545],[14.95573,62.91624],[14.96889,62.90664],[14.97289,62.90411],[14.97593,62.90161],[14.97764,62.9006],[14.99419,62.88825],[14.99001,62.88392],[14.98952,62.8652],[14.99122,62.86472],[14.99285,62.86335],[14.99464,62.86257],[14.9953,62.86205],[14.99749,62.86166],[14.99894,62.86085],[15.00521,62.85854],[15.00702,62.85861],[15.0125,62.85404],[15.01342,62.85272],[15.01453,62.85223],[15.01601,62.85202],[15.01805,62.85137],[15.01867,62.84989],[15.02742,62.84744],[15.0236,62.84608],[15.01926,62.84552],[15.01897,62.84468],[15.01771,62.84448],[15.01752,62.84411],[15.01804,62.84317],[15.01726,62.84287],[15.01784,62.84253],[15.01683,62.84232],[15.01696,62.84205],[15.01665,62.84193],[15.01704,62.84167],[15.01648,62.84136],[15.01651,62.84095],[15.01525,62.84102],[15.01497,62.84069],[15.01554,62.84024],[15.01546,62.83948],[15.01619,62.83875],[15.01599,62.83845],[15.01478,62.83832],[15.01544,62.83485],[15.0148,62.83261],[14.99488,62.81829],[14.98476,62.81465],[14.96531,62.8195],[14.95639,62.82321],[14.95313,62.82064],[14.94915,62.81437],[14.94793,62.80956],[14.9489,62.80645],[14.96171,62.80563],[14.97499,62.81114],[15.03765,62.78886],[15.05098,62.78634],[15.06535,62.78536],[15.09277,62.79034],[15.12029,62.79427],[15.12008,62.78871],[15.12356,62.7785],[15.1435,62.77555],[15.18861,62.76303],[15.23037,62.74542],[15.26572,62.72941],[15.27726,62.76515],[15.2773,62.76792],[15.27768,62.7683],[15.27838,62.76829],[15.27905,62.76869],[15.27884,62.77005],[15.28007,62.77107],[15.28219,62.7714],[15.28345,62.77199],[15.28565,62.77184],[15.28677,62.77209],[15.28845,62.77333],[15.29099,62.77405],[15.29285,62.77542],[15.29222,62.77598],[15.29042,62.7764],[15.28972,62.77693],[15.29035,62.77815],[15.28995,62.77887],[15.28873,62.77918],[15.28693,62.77901],[15.28635,62.77878],[15.28498,62.779],[15.28434,62.77891],[15.28433,62.77951],[15.28348,62.77924],[15.28236,62.77945],[15.28202,62.77982],[15.28103,62.77976],[15.27985,62.78007],[15.2808,62.78092],[15.28252,62.78067],[15.28328,62.78014],[15.28435,62.78013],[15.28858,62.78433],[15.30228,62.78274],[15.30979,62.77992],[15.31216,62.77727],[15.3154,62.77641],[15.31813,62.77209],[15.32218,62.77056],[15.33056,62.7692],[15.34386,62.76917],[15.3502,62.76853],[15.36085,62.76861],[15.36721,62.77471],[15.36551,62.77997],[15.35803,62.7885],[15.34688,62.79509],[15.33574,62.80394],[15.33835,62.80795],[15.35307,62.81188],[15.35345,62.81351],[15.3532,62.81563],[15.35067,62.81745],[15.35076,62.81879],[15.35042,62.81948],[15.35095,62.82],[15.35247,62.82047],[15.35341,62.82104],[15.3557,62.82159],[15.35853,62.82155],[15.36042,62.82214],[15.36215,62.82207],[15.36488,62.82238],[15.36939,62.8223],[15.37135,62.82301],[15.37492,62.82309],[15.37855,62.82357],[15.3808,62.82437],[15.38878,62.8255],[15.3915,62.82551],[15.39422,62.82651],[15.3964,62.82655],[15.40459,62.82598],[15.40818,62.82204],[15.42491,62.82401],[15.47636,62.8321],[15.49294,62.83115],[15.46277,62.85287],[15.46218,62.85421],[15.46714,62.8579],[15.47201,62.857],[15.4922,62.8604],[15.50476,62.86092],[15.51076,62.86185],[15.5193,62.86237],[15.53249,62.86123],[15.54042,62.86084],[15.53911,62.83065],[15.55495,62.83045],[15.55664,62.86013],[15.5591,62.86053],[15.56244,62.86034],[15.56414,62.86047],[15.56685,62.86146],[15.57126,62.86022],[15.58423,62.87408],[15.5272,62.89108],[15.45646,62.90567],[15.41726,62.90602],[15.41751,62.90745],[15.44509,62.92886],[15.45318,62.93313],[15.46064,62.92896],[15.48334,62.92966],[15.48153,62.93846],[15.50332,62.98389],[15.53412,63.01164],[15.62341,63.02939],[15.69183,63.04336]],[[15.42063,62.76776],[15.41757,62.76753],[15.41534,62.76711],[15.4127,62.7663],[15.41054,62.76527],[15.4061,62.76612],[15.40217,62.76622],[15.39815,62.76573],[15.39414,62.7647],[15.39136,62.76329],[15.38975,62.76165],[15.38929,62.76011],[15.38957,62.75888],[15.38868,62.75685],[15.38866,62.7554],[15.38945,62.75399],[15.39283,62.75089],[15.39487,62.74989],[15.40221,62.7472],[15.40317,62.74577],[15.40488,62.74454],[15.40826,62.74318],[15.41092,62.74244],[15.4149,62.73983],[15.41532,62.73884],[15.41515,62.73754],[15.41549,62.73653],[15.41648,62.73531],[15.41819,62.73409],[15.42144,62.73245],[15.4247,62.73144],[15.42794,62.73097],[15.43187,62.73093],[15.43528,62.73136],[15.43804,62.73209],[15.43985,62.73285],[15.44398,62.73514],[15.44789,62.73872],[15.44898,62.74121],[15.4489,62.74266],[15.44726,62.74477],[15.44654,62.74647],[15.44493,62.74808],[15.4445,62.74912],[15.44337,62.75042],[15.44323,62.75157],[15.44261,62.75267],[15.44137,62.75389],[15.43967,62.75492],[15.44124,62.75675],[15.44157,62.75819],[15.44086,62.75995],[15.43883,62.76186],[15.43709,62.76304],[15.43407,62.76448],[15.42804,62.7668],[15.4245,62.76755],[15.42063,62.76776]]]}},{"type":"Feature","id":"2305R002","properties":{"code":"2305R002","name":"Bräcke tätort"},"geometry":{"type":"Polygon","coordinates":[[[15.42144,62.76776],[15.4245,62.76755],[15.4267,62.76716],[15.43129,62.76564],[15.43757,62.76277],[15.44022,62.76062],[15.44128,62.75926],[15.44156,62.75782],[15.44105,62.75642],[15.43967,62.75492],[15.44137,62.75389],[15.44261,62.75267],[15.44323,62.75157],[15.44337,62.75042],[15.4445,62.74912],[15.44493,62.74808],[15.44654,62.74647],[15.44726,62.74477],[15.4489,62.74266],[15.44898,62.74121],[15.44789,62.73872],[15.44398,62.73514],[15.43985,62.73285],[15.43804,62.73209],[15.43528,62.73136],[15.43187,62.73093],[15.42794,62.73097],[15.4247,62.73144],[15.42144,62.73245],[15.41819,62.73409],[15.41648,62.73531],[15.41549,62.73653],[15.41515,62.73754],[15.41532,62.73884],[15.4149,62.73983],[15.41092,62.74244],[15.40826,62.74318],[15.40488,62.74454],[15.40317,62.74577],[15.40221,62.7472],[15.39487,62.74989],[15.39283,62.75089],[15.38945,62.75399],[15.38866,62.7554],[15.38868,62.75685],[15.38957,62.75888],[15.38929,62.76011],[15.38975,62.76165],[15.39136,62.76329],[15.39414,62.7647],[15.39815,62.76573],[15.40217,62.76622],[15.4061,62.76612],[15.41054,62.76527],[15.4127,62.7663],[15.41534,62.76711],[15.4183,62.76762],[15.42144,62.76776]]]}},{"type":"Feature","id":"2305R003","properties":{"code":"2305R003","name":"Hällesjö-Håsjö"},"geometry":{"type":"Polygon","coordinates":[[[16.03165,63.09016],[16.07669,63.06899],[16.1296,63.08532],[16.15679,63.08145],[16.16483,63.07623],[16.28897,63.05971],[16.32613,63.05752],[16.39729,63.03563],[16.41999,63.02044],[16.44571,62.99874],[16.42142,62.9439],[16.39539,62.93176],[16.43657,62.9043],[16.49436,62.80834],[16.49268,62.8073],[16.47094,62.79689],[16.41877,62.77111],[16.40483,62.74931],[16.3699,62.69627],[16.2457,62.71018],[16.13046,62.69121],[16.1134,62.69514],[16.07509,62.69957],[15.96526,62.71276],[15.89082,62.75061],[15.81181,62.79126],[15.80603,62.80866],[15.80502,62.81342],[15.80482,62.81698],[15.79938,62.84924],[15.80058,62.8522],[15.80205,62.85245],[15.81101,62.85285],[15.81219,62.85363],[15.81503,62.85387],[15.8161,62.85414],[15.81883,62.85365],[15.82095,62.85424],[15.82424,62.85465],[15.82505,62.8549],[15.82564,62.85545],[15.82836,62.85586],[15.83202,62.85528],[15.83627,62.85531],[15.83733,62.85537],[15.84373,62.85657],[15.88741,62.92089],[15.80261,62.96472],[15.69183,63.04336],[15.70731,63.04061],[15.72511,63.06335],[15.79018,63.07449],[15.79241,63.07187],[15.7933,63.07167],[15.79342,63.07139],[15.79381,63.07138],[15.79452,63.07094],[15.79525,63.07094],[15.79593,63.07058],[15.79652,63.07052],[15.79731,63.06995],[15.79791,63.06988],[15.79888,63.06929],[15.79839,63.06875],[15.80003,63.06777],[15.80132,63.06752],[15.80195,63.06685],[15.80367,63.0669],[15.8042,63.06672],[15.80429,63.06629],[15.80535,63.06593],[15.80553,63.06536],[15.80604,63.06538],[15.80621,63.06517],[15.80715,63.06534],[15.80749,63.06514],[15.80873,63.06501],[15.81058,63.06507],[15.81061,63.06453],[15.81129,63.06446],[15.81081,63.06419],[15.8111,63.06376],[15.81247,63.0633],[15.89781,63.08155],[15.90453,63.08322],[15.93399,63.08469],[15.96455,63.05179],[15.99724,63.04895],[16.00792,63.08161],[16.03165,63.09016]]]}},{"type":"Feature","id":"2305R004","properties":{"code":"2305R004","name":"Revsund"},"geometry":{"type":"Polygon","coordinates":[[[15.06331,62.93975],[15.07176,62.9355],[15.08111,62.93281],[15.09056,62.92749],[15.0907,62.92699],[15.09539,62.92585],[15.10204,62.92252],[15.12704,62.92702],[15.1311,62.93029],[15.1356,62.93299],[15.14918,62.92966],[15.16551,62.92868],[15.18311,62.92953],[15.21047,62.93126],[15.2236,62.93247],[15.23034,62.92941],[15.24363,62.93308],[15.24688,62.92931],[15.24829,62.92424],[15.2542,62.91946],[15.2595,62.91784],[15.26855,62.91554],[15.28658,62.91615],[15.29091,62.91586],[15.3044,62.90939],[15.30855,62.90965],[15.31615,62.91095],[15.32875,62.91074],[15.33375,62.90981],[15.33434,62.91001],[15.32371,62.91313],[15.34279,62.92575],[15.34619,62.92435],[15.34874,62.92428],[15.35092,62.92502],[15.35492,62.92499],[15.35712,62.92542],[15.35738,62.92596],[15.35654,62.92613],[15.35652,62.92638],[15.35709,62.92651],[15.3578,62.92637],[15.35931,62.92684],[15.35951,62.92603],[15.36146,62.92591],[15.36132,62.92502],[15.36198,62.92452],[15.36477,62.92398],[15.36732,62.92374],[15.36782,62.92335],[15.37028,62.92345],[15.37138,62.92299],[15.3715,62.92264],[15.37224,62.92245],[15.37233,62.9221],[15.37378,62.92167],[15.37406,62.92139],[15.37448,62.92133],[15.37443,62.92153],[15.37481,62.92151],[15.37564,62.92074],[15.37862,62.92009],[15.37887,62.91984],[15.37852,62.91937],[15.37909,62.91929],[15.38051,62.91951],[15.38237,62.91892],[15.38254,62.91867],[15.3815,62.91831],[15.38253,62.91783],[15.38412,62.91764],[15.38451,62.91723],[15.38589,62.91665],[15.38709,62.91551],[15.38809,62.9153],[15.38803,62.91497],[15.3887,62.91443],[15.39049,62.91378],[15.39095,62.91296],[15.39163,62.91285],[15.39219,62.91313],[15.3934,62.91266],[15.39376,62.91122],[15.39529,62.91045],[15.39612,62.91045],[15.39665,62.9108],[15.39935,62.90993],[15.40045,62.91019],[15.40189,62.91002],[15.40386,62.90938],[15.40368,62.90901],[15.40407,62.90869],[15.4049,62.9089],[15.40519,62.90828],[15.40642,62.90792],[15.40806,62.90789],[15.40868,62.90768],[15.41041,62.90802],[15.41099,62.90744],[15.41218,62.90745],[15.4127,62.90695],[15.41331,62.90747],[15.41601,62.90692],[15.41747,62.90724],[15.41726,62.90602],[15.45646,62.90567],[15.5272,62.89108],[15.58423,62.87408],[15.57126,62.86022],[15.56685,62.86146],[15.56414,62.86047],[15.56244,62.86034],[15.5591,62.86053],[15.55664,62.86013],[15.55495,62.83045],[15.53911,62.83065],[15.54042,62.86084],[15.53249,62.86123],[15.5193,62.86237],[15.51076,62.86185],[15.50476,62.86092],[15.4922,62.8604],[15.47201,62.857],[15.46714,62.8579],[15.46218,62.85421],[15.46277,62.85287],[15.49294,62.83115],[15.47636,62.8321],[15.42491,62.82401],[15.40818,62.82204],[15.40459,62.82598],[15.3964,62.82655],[15.39422,62.82651],[15.3915,62.82551],[15.38878,62.8255],[15.3808,62.82437],[15.37855,62.82357],[15.37492,62.82309],[15.37135,62.82301],[15.36939,62.8223],[15.36488,62.82238],[15.36215,62.82207],[15.36042,62.82214],[15.35853,62.82155],[15.3557,62.82159],[15.35341,62.82104],[15.35247,62.82047],[15.35095,62.82],[15.35042,62.81948],[15.35076,62.81879],[15.35067,62.81745],[15.3532,62.81563],[15.35345,62.81351],[15.35307,62.81188],[15.33835,62.80795],[15.33574,62.80394],[15.34688,62.79509],[15.35803,62.7885],[15.36551,62.77997],[15.36721,62.77471],[15.36085,62.76861],[15.3502,62.76853],[15.34386,62.76917],[15.33056,62.7692],[15.32218,62.77056],[15.31813,62.77209],[15.3154,62.77641],[15.31216,62.77727],[15.30979,62.77992],[15.30228,62.78274],[15.28858,62.78433],[15.28435,62.78013],[15.28328,62.78014],[15.28252,62.78067],[15.2808,62.78092],[15.27985,62.78007],[15.28103,62.77976],[15.28202,62.77982],[15.28236,62.77945],[15.28348,62.77924],[15.28433,62.77951],[15.28434,62.77891],[15.28498,62.779],[15.28635,62.77878],[15.28693,62.77901],[15.28873,62.77918],[15.28995,62.77887],[15.29035,62.77815],[15.28972,62.77693],[15.29042,62.7764],[15.29222,62.77598],[15.29285,62.77542],[15.29099,62.77405],[15.28845,62.77333],[15.28677,62.77209],[15.28565,62.77184],[15.28345,62.77199],[15.28219,62.7714],[15.28007,62.77107],[15.27884,62.77005],[15.27905,62.76869],[15.27838,62.76829],[15.27768,62.7683],[15.2773,62.76792],[15.27726,62.76515],[15.26572,62.72941],[15.23037,62.74542],[15.18861,62.76303],[15.1435,62.77555],[15.12356,62.7785],[15.12008,62.78871],[15.12029,62.79427],[15.09277,62.79034],[15.06535,62.78536],[15.05098,62.78634],[15.03765,62.78886],[14.97499,62.81114],[14.96171,62.80563],[14.9489,62.80645],[14.94793,62.80956],[14.94915,62.81437],[14.95313,62.82064],[14.95639,62.82321],[14.96531,62.8195],[14.98476,62.81465],[14.99488,62.81829],[15.0148,62.83261],[15.01544,62.83485],[15.01478,62.83832],[15.01599,62.83845],[15.01619,62.83875],[15.01546,62.83948],[15.01554,62.84024],[15.01497,62.84069],[15.01525,62.84102],[15.01651,62.84095],[15.01648,62.84136],[15.01704,62.84167],[15.01665,62.84193],[15.01696,62.84205],[15.01683,62.84232],[15.01784,62.84253],[15.01726,62.84287],[15.01804,62.84317],[15.01752,62.84411],[15.01771,62.84448],[15.01897,62.84468],[15.01926,62.84552],[15.0236,62.84608],[15.02742,62.84744],[15.01867,62.84989],[15.01805,62.85137],[15.01601,62.85202],[15.01453,62.85223],[15.01342,62.85272],[15.0125,62.85404],[15.00702,62.85861],[15.00521,62.85854],[14.99894,62.86085],[14.99749,62.86166],[14.9953,62.86205],[14.99464,62.86257],[14.99285,62.86335],[14.99122,62.86472],[14.98952,62.8652],[14.99001,62.88392],[14.99419,62.88825],[14.97764,62.9006],[14.97593,62.90161],[14.97289,62.90411],[14.96889,62.90664],[14.95573,62.91624],[14.96897,62.92041],[14.98835,62.93096],[14.9979,62.93555],[15.0011,62.93969],[15.00121,62.93981],[15.00128,62.93954],[15.00187,62.93978],[15.00212,62.93949],[15.01716,62.93326],[15.0309,62.93635],[15.04288,62.93932],[15.04687,62.94379],[15.06331,62.93975]]]}},{"type":"Feature","id":"2305R005","properties":{"code":"2305R005","name":"Sundsjö"},"geometry":{"type":"Polygon","coordinates":[[[15.10039,63.14848],[15.102,63.1481],[15.10364,63.14827],[15.10472,63.14772],[15.10503,63.14727],[15.10623,63.14742],[15.10665,63.14725],[15.10766,63.14723],[15.10917,63.14671],[15.10958,63.14685],[15.1097,63.14724],[15.11047,63.14708],[15.11133,63.14721],[15.11251,63.14712],[15.11319,63.1474],[15.11758,63.14697],[15.11938,63.14745],[15.12079,63.1473],[15.12137,63.14702],[15.12205,63.14709],[15.12314,63.14671],[15.124,63.14715],[15.12633,63.1474],[15.12653,63.14725],[15.12605,63.14677],[15.12802,63.14646],[15.12892,63.1461],[15.12968,63.1452],[15.1313,63.14489],[15.13109,63.14441],[15.13226,63.14438],[15.13332,63.14475],[15.134,63.14474],[15.13469,63.14424],[15.13473,63.14381],[15.13567,63.14327],[15.14041,63.14231],[15.1436,63.14201],[15.14448,63.1424],[15.1453,63.14244],[15.14549,63.14226],[15.14668,63.14207],[15.14809,63.14263],[15.14997,63.14271],[15.14998,63.14313],[15.14768,63.14352],[15.14695,63.14404],[15.14791,63.1441],[15.1484,63.14472],[15.14796,63.14587],[15.14945,63.14657],[15.15268,63.1464],[15.15249,63.1475],[15.15302,63.14778],[15.17214,63.14594],[15.18411,63.13498],[15.22743,63.11661],[15.24723,63.10135],[15.25165,63.10094],[15.25675,63.09665],[15.30088,63.13191],[15.31791,63.14413],[15.38706,63.13012],[15.42534,63.12253],[15.45976,63.0982],[15.5011,63.06797],[15.54658,63.07143],[15.60543,63.07632],[15.61027,63.07655],[15.69183,63.04336],[15.62341,63.02939],[15.53412,63.01164],[15.50332,62.98389],[15.48153,62.93846],[15.48334,62.92966],[15.46064,62.92896],[15.45318,62.93313],[15.44509,62.92886],[15.41747,62.90724],[15.41668,62.90697],[15.41553,62.90698],[15.41331,62.90747],[15.4127,62.90695],[15.41218,62.90745],[15.41099,62.90744],[15.41041,62.90802],[15.40868,62.90768],[15.40806,62.90789],[15.40642,62.90792],[15.40519,62.90828],[15.4049,62.9089],[15.40407,62.90869],[15.40368,62.90901],[15.40386,62.90938],[15.40189,62.91002],[15.40045,62.91019],[15.39935,62.90993],[15.39665,62.9108],[15.39612,62.91045],[15.39529,62.91045],[15.39376,62.91122],[15.3934,62.91266],[15.39219,62.91313],[15.39163,62.91285],[15.39095,62.91296],[15.39049,62.91378],[15.3887,62.91443],[15.38803,62.91497],[15.38809,62.9153],[15.38709,62.91551],[15.38589,62.91665],[15.38451,62.91723],[15.38412,62.91764],[15.38253,62.91783],[15.3815,62.91831],[15.38254,62.91867],[15.38237,62.91892],[15.38051,62.91951],[15.37909,62.91929],[15.37852,62.91937],[15.37887,62.91984],[15.37862,62.92009],[15.37564,62.92074],[15.37481,62.92151],[15.37443,62.92153],[15.37448,62.92133],[15.37406,62.92139],[15.37378,62.92167],[15.37233,62.9221],[15.37224,62.92245],[15.3715,62.92264],[15.37138,62.92299],[15.37028,62.92345],[15.36782,62.92335],[15.36732,62.92374],[15.36477,62.92398],[15.36198,62.92452],[15.36132,62.92502],[15.36146,62.92591],[15.35951,62.92603],[15.35931,62.92684],[15.3578,62.92637],[15.35709,62.92651],[15.35652,62.92638],[15.35654,62.92613],[15.35738,62.92596],[15.35712,62.92542],[15.35492,62.92499],[15.35092,62.92502],[15.34874,62.92428],[15.34619,62.92435],[15.34279,62.92575],[15.32371,62.91313],[15.33434,62.91001],[15.33375,62.90981],[15.32875,62.91074],[15.31615,62.91095],[15.30855,62.90965],[15.3044,62.90939],[15.29091,62.91586],[15.28658,62.91615],[15.26855,62.91554],[15.2595,62.91784],[15.2542,62.91946],[15.24829,62.92424],[15.24688,62.92931],[15.24363,62.93308],[15.23034,62.92941],[15.2236,62.93247],[15.21047,62.93126],[15.18311,62.92953],[15.16551,62.92868],[15.14918,62.92966],[15.1356,62.93299],[15.1311,62.93029],[15.12704,62.92702],[15.10204,62.92252],[15.09539,62.92585],[15.0907,62.92699],[15.09056,62.92749],[15.08111,62.93281],[15.07176,62.9355],[15.06331,62.93975],[15.04687,62.94379],[15.04288,62.93932],[15.0309,62.93635],[15.01716,62.93326],[15.00212,62.93949],[15.00187,62.93978],[15.00128,62.93954],[15.00124,62.93984],[14.99692,62.94033],[14.99341,62.94014],[14.98652,62.94016],[14.98266,62.94056],[14.97173,62.94552],[14.97085,62.94636],[14.96981,62.94823],[14.96619,62.95061],[14.9632,62.95155],[14.97107,62.95644],[14.97153,62.95929],[14.97758,62.9624],[14.98067,62.9644],[14.98539,62.97128],[14.98789,62.9729],[14.98898,62.9708],[14.99319,62.96855],[14.99632,62.96836],[15.00274,62.96714],[15.003,62.96639],[15.0049,62.96429],[15.00907,62.96212],[15.01197,62.96185],[15.01456,62.96406],[15.01736,62.96571],[15.0189,62.96694],[15.0305,62.97011],[15.03534,62.97317],[15.03901,62.97575],[15.04314,62.9817],[15.04619,62.98452],[15.05318,62.98853],[15.04997,62.99672],[15.04206,63.0089],[15.03873,63.01145],[15.03845,63.01324],[15.0306,63.01667],[15.01734,63.03151],[15.00856,63.04225],[15.03484,63.05795],[15.04189,63.06374],[15.08225,63.06196],[15.11571,63.05621],[15.11569,63.05694],[15.1309,63.08459],[15.12867,63.09099],[15.10039,63.14848]]]}}]}