{"type":"FeatureCollection","features":[{"type":"Feature","id":"2313R001","properties":{"code":"2313R001","name":"Strömsund södra"},"geometry":{"type":"Polygon","coordinates":[[[15.75517,63.99493],[15.7602,63.9945],[15.7623,63.99379],[15.7633,63.99235],[15.76241,63.9915],[15.7629,63.9907],[15.76383,63.99004],[15.76476,63.99],[15.76586,63.98951],[15.76703,63.98933],[15.76984,63.98944],[15.77167,63.98909],[15.77378,63.98904],[15.77502,63.98875],[15.77663,63.98865],[15.7771,63.98829],[15.77825,63.98806],[15.77889,63.98716],[15.7781,63.98658],[15.77821,63.98635],[15.77922,63.98605],[15.77856,63.9857],[15.77852,63.98514],[15.77775,63.98482],[15.77852,63.98446],[15.77938,63.98344],[15.77992,63.98331],[15.78089,63.98241],[15.78105,63.98204],[15.78047,63.98183],[15.78049,63.98153],[15.78139,63.9809],[15.78248,63.98063],[15.78306,63.98027],[15.78336,63.97947],[15.83207,63.98348],[15.83547,63.98343],[15.85059,63.98653],[15.86812,63.98733],[15.95899,63.95424],[15.95736,63.91954],[15.95218,63.87069],[15.91734,63.85415],[15.85756,63.82482],[15.9169,63.80959],[15.92161,63.8089],[15.92363,63.80796],[15.92481,63.80783],[15.9257,63.80718],[15.92788,63.80658],[15.92895,63.806],[15.93065,63.80579],[15.93191,63.80504],[15.93273,63.80484],[15.93365,63.80415],[15.93542,63.80386],[15.9363,63.80352],[15.94131,63.80033],[15.94245,63.80011],[15.94435,63.80025],[15.94323,63.79841],[15.98424,63.77929],[15.94009,63.76291],[15.93301,63.73611],[15.94657,63.73358],[15.94713,63.73407],[15.951,63.73308],[15.95286,63.73175],[15.95455,63.73136],[15.95663,63.72999],[15.95657,63.72857],[15.96131,63.72779],[15.96434,63.728],[15.96738,63.72773],[15.96929,63.72701],[15.9777,63.72628],[15.98562,63.72606],[15.99346,63.72652],[15.99299,63.72379],[15.96229,63.70323],[15.91865,63.67246],[15.90703,63.67109],[15.90682,63.67264],[15.9075,63.67303],[15.91008,63.67362],[15.91032,63.67388],[15.91008,63.67496],[15.90816,63.67611],[15.90669,63.67777],[15.90475,63.67872],[15.90239,63.68082],[15.90058,63.68155],[15.89894,63.683],[15.79207,63.65782],[15.81956,63.64541],[15.84529,63.6334],[15.84472,63.63047],[15.85022,63.62775],[15.8518,63.6273],[15.85428,63.62704],[15.85518,63.62716],[15.85884,63.62652],[15.8592,63.62627],[15.86012,63.62635],[15.86193,63.62566],[15.86278,63.62506],[15.92666,63.59354],[15.99746,63.55064],[15.98617,63.51453],[15.87889,63.50624],[15.81807,63.50951],[15.79174,63.51486],[15.74767,63.49424],[15.69308,63.47316],[15.66553,63.44404],[15.58029,63.42496],[15.56052,63.43787],[15.55487,63.41654],[15.52053,63.38306],[15.49495,63.36341],[15.4368,63.347],[15.39137,63.36339],[15.35552,63.38618],[15.35403,63.38729],[15.34198,63.39937],[15.28482,63.42354],[15.23851,63.44351],[15.1827,63.45731],[15.17566,63.45902],[15.17231,63.45965],[15.17134,63.46138],[15.15396,63.46722],[15.12116,63.47932],[15.1036,63.47469],[15.07788,63.46826],[15.03853,63.4866],[15.08649,63.51592],[15.08623,63.51604],[15.08711,63.51653],[15.08745,63.51742],[15.08662,63.51784],[15.08444,63.51787],[15.08393,63.51804],[15.08315,63.51794],[15.08208,63.51819],[15.08151,63.51808],[15.07985,63.5189],[15.07987,63.51915],[15.07908,63.51937],[15.07772,63.51911],[15.07663,63.51943],[15.07478,63.51965],[15.07451,63.52009],[15.07506,63.52018],[15.07499,63.52078],[15.07383,63.52103],[15.07293,63.52101],[15.07273,63.52123],[15.07167,63.52138],[15.07135,63.5217],[15.07059,63.5219],[15.06942,63.52204],[15.068,63.52177],[15.06752,63.52187],[15.06717,63.52211],[15.06757,63.52242],[15.06806,63.5224],[15.06769,63.52253],[15.06828,63.52276],[15.06813,63.52293],[15.06736,63.52284],[15.0671,63.5232],[15.06641,63.52306],[15.06612,63.52329],[15.06545,63.52326],[15.06475,63.52378],[15.06394,63.52397],[15.06346,63.52385],[15.06306,63.52402],[15.06276,63.52379],[15.06227,63.52428],[15.06135,63.52398],[15.06037,63.52539],[15.05936,63.52534],[15.05939,63.52556],[15.05858,63.52579],[15.05813,63.52563],[15.05793,63.52583],[15.0574,63.52572],[15.05729,63.52631],[15.05676,63.52664],[15.05636,63.52657],[15.05542,63.52682],[15.05525,63.5273],[15.0547,63.52738],[15.05244,63.53108],[15.05239,63.53202],[15.05056,63.53277],[15.04992,63.53397],[15.04752,63.53436],[15.04761,63.5347],[15.04718,63.53506],[15.04559,63.53539],[15.04568,63.5358],[15.0453,63.53618],[15.04401,63.53664],[15.04278,63.53685],[15.04167,63.53674],[15.04042,63.53743],[15.03928,63.53751],[15.03991,63.53848],[15.03945,63.53873],[15.03996,63.53916],[15.03819,63.53933],[15.03628,63.53988],[15.03679,63.53996],[15.03707,63.54059],[15.03609,63.54095],[15.03572,63.5408],[15.03404,63.54149],[15.03357,63.54132],[15.03283,63.54143],[15.03169,63.54233],[15.03017,63.54271],[15.03097,63.5429],[15.02973,63.54339],[15.02876,63.54342],[15.02937,63.54373],[15.02895,63.54397],[15.02946,63.54399],[15.02886,63.54418],[15.02907,63.54457],[15.02852,63.54464],[15.02906,63.54484],[15.02828,63.54492],[15.02825,63.54555],[15.02863,63.54566],[15.02806,63.54592],[15.02847,63.54609],[15.02799,63.54653],[15.02754,63.54643],[15.02737,63.54685],[15.02663,63.54711],[15.02618,63.54697],[15.02554,63.5472],[15.02527,63.54695],[15.02393,63.54717],[15.02414,63.54732],[15.02365,63.54747],[15.02384,63.5479],[15.02334,63.54848],[15.02274,63.54823],[15.02254,63.5486],[15.02218,63.54834],[15.02176,63.54858],[15.02062,63.54864],[15.02018,63.55],[15.01883,63.55066],[15.0193,63.55078],[15.0199,63.55062],[15.02047,63.55114],[15.02014,63.55127],[15.02005,63.55195],[15.02072,63.55283],[15.02013,63.55301],[15.02074,63.55308],[15.0209,63.55332],[15.02021,63.55351],[15.02095,63.5537],[15.02182,63.55357],[15.02324,63.55414],[15.02451,63.55424],[14.99983,63.571],[14.98706,63.57896],[14.98183,63.58029],[14.95605,63.5902],[14.95514,63.59006],[14.95445,63.59017],[14.95408,63.59059],[14.95343,63.5907],[14.95399,63.59101],[14.94452,63.59467],[14.9381,63.59754],[14.89701,63.61366],[14.85861,63.64967],[14.93644,63.64958],[14.9256,63.70394],[14.93789,63.70738],[14.93944,63.70962],[14.90822,63.71805],[14.90276,63.72079],[14.91564,63.72187],[14.94937,63.78292],[15.01973,63.82191],[15.1839,63.87554],[15.18848,63.86557],[15.20481,63.82628],[15.21578,63.8011],[15.32426,63.78181],[15.36288,63.77303],[15.48567,63.77393],[15.54293,63.77653],[15.55661,63.79368],[15.5803,63.79506],[15.59226,63.80183],[15.5782,63.81164],[15.58721,63.81589],[15.58947,63.82275],[15.5862,63.82777],[15.5823,63.82999],[15.57629,63.8329],[15.5746,63.833],[15.57086,63.83706],[15.57471,63.83724],[15.57977,63.838],[15.58588,63.83721],[15.59057,63.8371],[15.59283,63.83734],[15.59562,63.83793],[15.59744,63.83857],[15.59927,63.83956],[15.60568,63.83995],[15.61031,63.83975],[15.61558,63.84029],[15.6184,63.84099],[15.62069,63.84196],[15.62342,63.84399],[15.62603,63.84533],[15.62767,63.84726],[15.62757,63.84933],[15.62568,63.8513],[15.62358,63.85236],[15.62093,63.85314],[15.61704,63.85567],[15.61355,63.85678],[15.60865,63.85738],[15.60436,63.85726],[15.59972,63.85636],[15.59777,63.85563],[15.59603,63.85466],[15.59528,63.85493],[15.59586,63.85697],[15.59513,63.85872],[15.59178,63.86153],[15.58876,63.86294],[15.58759,63.86485],[15.58609,63.86615],[15.58447,63.86702],[15.58185,63.86792],[15.57858,63.86853],[15.57531,63.86876],[15.58949,63.88329],[15.58987,63.8848],[15.59064,63.88581],[15.60788,63.90666],[15.60598,63.90698],[15.61507,63.91727],[15.61864,63.91666],[15.6097,63.90518],[15.61323,63.90465],[15.62125,63.91496],[15.67514,63.94817],[15.6724,63.95765],[15.6335,63.96453],[15.63353,63.96481],[15.62047,63.96729],[15.64941,63.98584],[15.64975,63.98585],[15.65707,63.99028],[15.66584,63.99036],[15.71381,63.99285],[15.71414,63.99313],[15.75472,63.99515],[15.75517,63.99493]]]}},{"type":"Feature","id":"2313R002","properties":{"code":"2313R002","name":"Strömsund tätort"},"geometry":{"type":"Polygon","coordinates":[[[15.56868,63.87194],[15.57199,63.87048],[15.5737,63.86883],[15.57783,63.86862],[15.58098,63.86813],[15.58391,63.86725],[15.58609,63.86615],[15.58759,63.86485],[15.58876,63.86294],[15.59178,63.86153],[15.59513,63.85872],[15.59586,63.85697],[15.59528,63.85493],[15.59603,63.85466],[15.59777,63.85563],[15.60037,63.85655],[15.60266,63.85704],[15.60589,63.85737],[15.60865,63.85738],[15.61213,63.85705],[15.61508,63.85638],[15.61704,63.85567],[15.62093,63.85314],[15.62298,63.85258],[15.6252,63.8516],[15.6271,63.85006],[15.62771,63.84899],[15.62778,63.84761],[15.62706,63.84626],[15.62601,63.84531],[15.62342,63.84399],[15.62066,63.84195],[15.61698,63.84058],[15.61485,63.84017],[15.61108,63.83978],[15.60851,63.83974],[15.60568,63.83995],[15.59927,63.83956],[15.59744,63.83857],[15.59562,63.83793],[15.59283,63.83734],[15.59057,63.8371],[15.58588,63.83721],[15.57977,63.838],[15.57395,63.83716],[15.57024,63.83709],[15.56739,63.8361],[15.56425,63.83553],[15.55963,63.83539],[15.55707,63.83565],[15.55426,63.83623],[15.55163,63.8372],[15.54961,63.83845],[15.54662,63.83906],[15.54442,63.83981],[15.53964,63.83829],[15.54054,63.83712],[15.54083,63.83606],[15.54015,63.83393],[15.53791,63.83206],[15.53488,63.83083],[15.53107,63.83009],[15.52286,63.82938],[15.51904,63.82964],[15.51244,63.83093],[15.50872,63.83246],[15.50743,63.83343],[15.50641,63.83482],[15.50629,63.83672],[15.50767,63.83896],[15.50778,63.83999],[15.50704,63.84135],[15.50698,63.84253],[15.5079,63.84429],[15.50964,63.84564],[15.51258,63.8469],[15.51603,63.84767],[15.51628,63.8481],[15.515,63.8497],[15.51399,63.85277],[15.51563,63.85667],[15.51697,63.85811],[15.51972,63.85993],[15.52235,63.86096],[15.52583,63.86171],[15.52957,63.86194],[15.53046,63.86363],[15.53154,63.86454],[15.53345,63.86553],[15.53402,63.86655],[15.53555,63.86806],[15.53748,63.86919],[15.54013,63.87012],[15.54756,63.87163],[15.55002,63.87185],[15.55256,63.87185],[15.55946,63.87286],[15.56417,63.8728],[15.56868,63.87194]]]}},{"type":"Feature","id":"2313R003","properties":{"code":"2313R003","name":"Strömsund väster"},"geometry":{"type":"Polygon","coordinates":[[[14.73074,64.95469],[14.73218,64.95427],[14.73629,64.95449],[14.73896,64.95432],[14.74086,64.95372],[14.74234,64.95348],[14.74418,64.95453],[14.75007,64.95501],[14.75434,64.95431],[14.75484,64.9537],[14.75474,64.9528],[14.75565,64.95167],[14.75545,64.95003],[14.75602,64.9487],[14.75796,64.94804],[14.75894,64.94822],[14.76016,64.94813],[14.76096,64.9476],[14.76354,64.94707],[14.7645,64.94665],[14.76607,64.9465],[14.76712,64.94607],[14.76804,64.94522],[14.77127,64.9435],[14.77474,64.94121],[14.77601,64.94084],[14.77672,64.94026],[14.77853,64.93983],[14.77914,64.93856],[14.77977,64.93827],[14.77869,64.93718],[14.77828,64.93566],[14.77911,64.93445],[14.77621,64.93153],[14.77558,64.92921],[14.77652,64.92552],[14.77786,64.92489],[14.77745,64.92316],[14.78057,64.92215],[14.7807,64.92047],[14.77997,64.91981],[14.77987,64.91895],[14.77926,64.91812],[14.77626,64.91625],[14.77357,64.91498],[14.77231,64.91355],[14.77501,64.91287],[14.77679,64.91303],[14.77865,64.91297],[14.77983,64.91275],[14.78308,64.91004],[14.78628,64.90904],[14.7905,64.90836],[14.79207,64.90839],[14.79414,64.90813],[14.79599,64.90769],[14.8023,64.90756],[14.8076,64.90599],[14.80891,64.90607],[14.80959,64.90595],[14.81256,64.90428],[14.8131,64.90374],[14.81562,64.90305],[14.81742,64.90207],[14.82004,64.90168],[14.82118,64.90067],[14.82134,64.89987],[14.82186,64.89976],[14.82298,64.89997],[14.82362,64.89988],[14.82573,64.89838],[14.82754,64.89771],[14.82771,64.89739],[14.8271,64.8965],[14.82735,64.89612],[14.82867,64.89588],[14.83025,64.89621],[14.83151,64.89606],[14.8345,64.89496],[14.83617,64.89463],[14.83816,64.89334],[14.83967,64.89308],[14.84138,64.8924],[14.84474,64.88981],[14.84284,64.88742],[14.84563,64.88527],[14.84537,64.88401],[14.84653,64.88324],[14.84655,64.88293],[14.84541,64.88204],[14.84239,64.88143],[14.84111,64.88082],[14.83917,64.88034],[14.83893,64.87964],[14.83748,64.87877],[14.83737,64.87815],[14.84116,64.87664],[14.85533,64.8748],[14.86395,64.86864],[14.87977,64.86457],[14.9359,64.85705],[14.97393,64.84614],[15.02436,64.80385],[15.02629,64.80166],[15.02491,64.79963],[15.02467,64.79812],[15.02552,64.79719],[15.03527,64.79141],[15.03621,64.79],[15.03621,64.78915],[15.03559,64.78773],[15.03568,64.78672],[15.03436,64.7839],[15.02798,64.78089],[15.02686,64.77915],[15.02687,64.77816],[15.0278,64.77741],[15.03024,64.77628],[15.03102,64.77321],[15.03259,64.77091],[15.03138,64.7694],[15.02778,64.76875],[15.02724,64.7678],[15.02723,64.76678],[15.02907,64.76374],[15.03135,64.76151],[15.03291,64.7604],[15.03447,64.75975],[15.03922,64.75925],[15.0417,64.75854],[15.0439,64.75653],[15.04482,64.75601],[15.04735,64.75536],[15.05361,64.75469],[15.05924,64.75358],[15.0624,64.75161],[15.06694,64.75168],[15.07093,64.75149],[15.08097,64.75214],[15.08423,64.75181],[15.08784,64.75185],[15.09786,64.75287],[15.10234,64.75305],[15.10864,64.75278],[15.1178,64.7528],[15.13554,64.75032],[15.13688,64.74681],[15.14658,64.74423],[15.17511,64.7404],[15.17683,64.74044],[15.18173,64.74135],[15.18624,64.74046],[15.19808,64.73302],[15.22475,64.72274],[15.23187,64.71634],[15.26539,64.69991],[15.27202,64.69152],[15.2755,64.68951],[15.28051,64.68893],[15.28057,64.68623],[15.2832,64.68421],[15.28435,64.68252],[15.29118,64.67749],[15.29553,64.67738],[15.30864,64.67829],[15.31832,64.67579],[15.32313,64.67422],[15.33445,64.66904],[15.33356,64.65889],[15.33544,64.65693],[15.33482,64.65398],[15.33535,64.65345],[15.33628,64.65032],[15.3408,64.6468],[15.34145,64.64671],[15.28303,64.63992],[15.24162,64.6362],[15.24045,64.63552],[15.24095,64.63483],[15.24379,64.63419],[15.24752,64.63378],[15.24814,64.6331],[15.24786,64.63236],[15.24804,64.63114],[15.24838,64.631],[15.24994,64.63065],[15.2512,64.63003],[15.25399,64.62986],[15.25538,64.63002],[15.25933,64.62927],[15.26018,64.62868],[15.26387,64.62794],[15.26482,64.62735],[15.26491,64.62654],[15.26827,64.62656],[15.26974,64.62635],[15.27017,64.62639],[15.27028,64.62658],[15.26994,64.62663],[15.27027,64.62687],[15.27084,64.62694],[15.27436,64.62648],[15.27591,64.62664],[15.2793,64.62623],[15.28145,64.62701],[15.28764,64.62546],[15.2926,64.62504],[15.29661,64.62526],[15.30118,64.62503],[15.31085,64.62227],[15.31163,64.62198],[15.31181,64.62166],[15.31558,64.62072],[15.32773,64.61415],[15.32702,64.61305],[15.32945,64.61136],[15.33266,64.60957],[15.33681,64.60471],[15.34543,64.59889],[15.34734,64.5967],[15.3528,64.59402],[15.35545,64.59344],[15.36044,64.59108],[15.36324,64.59036],[15.36449,64.58964],[15.36188,64.58843],[15.36166,64.5879],[15.363,64.58691],[15.36889,64.58494],[15.36933,64.58408],[15.37009,64.5837],[15.37461,64.58309],[15.3802,64.58381],[15.38158,64.58371],[15.384,64.58313],[15.38723,64.58201],[15.39122,64.58204],[15.39435,64.58236],[15.39556,64.58233],[15.39703,64.58211],[15.3986,64.58149],[15.40086,64.5811],[15.40362,64.58133],[15.40538,64.58123],[15.40703,64.58182],[15.40799,64.58186],[15.41156,64.58139],[15.4127,64.58107],[15.41401,64.5802],[15.41663,64.57931],[15.41751,64.57928],[15.41866,64.57986],[15.42004,64.58166],[15.42291,64.58234],[15.42397,64.58332],[15.42475,64.58366],[15.42575,64.58381],[15.42773,64.58343],[15.4299,64.58195],[15.43231,64.57905],[15.43216,64.57653],[15.43394,64.57232],[15.43467,64.57144],[15.43765,64.56948],[15.43777,64.56249],[15.43808,64.56202],[15.4399,64.56106],[15.4408,64.56017],[15.43862,64.55854],[15.43881,64.55788],[15.43962,64.5572],[15.44101,64.55663],[15.44302,64.5563],[15.44619,64.55647],[15.44891,64.5564],[15.44992,64.55608],[15.45068,64.55551],[15.45308,64.55487],[15.45393,64.55441],[15.45573,64.55413],[15.4571,64.55272],[15.46162,64.55064],[15.46155,64.54984],[15.46193,64.54956],[15.4639,64.54944],[15.46316,64.54874],[15.46354,64.54854],[15.46568,64.54825],[15.46623,64.54796],[15.46752,64.54813],[15.47003,64.54812],[15.47339,64.54886],[15.47465,64.54845],[15.47648,64.54698],[15.47527,64.54477],[15.47617,64.54444],[15.48197,64.54325],[15.48325,64.54252],[15.48602,64.54225],[15.48814,64.54126],[15.49422,64.53979],[15.49676,64.53843],[15.49928,64.53743],[15.50033,64.53718],[15.50277,64.5372],[15.50865,64.53594],[15.51593,64.53403],[15.52076,64.53215],[15.52245,64.5308],[15.52645,64.52838],[15.52971,64.52683],[15.53149,64.52483],[15.53314,64.52373],[15.53705,64.52166],[15.54083,64.52008],[15.54317,64.51858],[15.54361,64.51685],[15.54203,64.51434],[15.54118,64.51072],[15.53867,64.50799],[15.53847,64.50721],[15.53958,64.50577],[15.54045,64.50387],[15.54426,64.50127],[15.55306,64.49869],[15.5562,64.49707],[15.55731,64.49619],[15.55683,64.4952],[15.55537,64.4944],[15.55409,64.49418],[15.55336,64.49356],[15.55282,64.49116],[15.55411,64.48934],[15.55343,64.48805],[15.55337,64.48639],[15.55402,64.48517],[15.55582,64.48374],[15.55595,64.48244],[15.55688,64.48134],[15.55876,64.48006],[15.56353,64.4779],[15.56494,64.47632],[15.56615,64.47284],[15.56579,64.47051],[15.56695,64.46895],[15.57102,64.46526],[15.57647,64.46237],[15.57736,64.45496],[15.5795,64.45494],[15.58173,64.45538],[15.58247,64.45528],[15.58112,64.45389],[15.57876,64.45447],[15.57742,64.45453],[15.57757,64.45345],[15.57991,64.45034],[15.58003,64.44924],[15.57714,64.44491],[15.57952,64.44343],[15.64717,64.44798],[15.63617,64.5196],[15.70437,64.538],[15.74025,64.404],[15.7413,64.40374],[15.75359,64.40686],[15.79492,64.39821],[15.8691,64.38198],[15.85356,64.37561],[16.02235,64.3328],[16.02245,64.27589],[16.02278,64.26954],[16.01971,64.26909],[16.04252,64.2489],[16.00908,64.24196],[16.15127,64.17573],[16.10576,64.15878],[16.05918,64.14088],[16.02759,64.12063],[16.02402,64.12005],[16.01939,64.11992],[16.01757,64.11963],[16.01606,64.11959],[16.01319,64.11881],[16.01009,64.11897],[16.00893,64.11858],[16.00879,64.11821],[16.00603,64.11662],[16.00244,64.11723],[15.99685,64.11764],[15.99519,64.11761],[15.99299,64.11893],[15.9927,64.11959],[15.99094,64.12048],[15.99003,64.12067],[15.97596,64.09771],[15.93063,64.08636],[15.95638,64.06514],[15.95739,64.05361],[15.95369,64.05275],[15.95447,64.05159],[15.95608,64.05145],[15.9575,64.05239],[15.95806,64.04451],[15.9588,64.02871],[15.96007,63.9717],[15.95899,63.95424],[15.86812,63.98733],[15.85059,63.98653],[15.83547,63.98343],[15.83207,63.98348],[15.78336,63.97947],[15.78306,63.98027],[15.78248,63.98063],[15.78139,63.9809],[15.78049,63.98153],[15.78047,63.98183],[15.78105,63.98204],[15.78089,63.98241],[15.77992,63.98331],[15.77938,63.98344],[15.77852,63.98446],[15.77775,63.98482],[15.77852,63.98514],[15.77856,63.9857],[15.77922,63.98605],[15.77821,63.98635],[15.7781,63.98658],[15.77889,63.98716],[15.77825,63.98806],[15.7771,63.98829],[15.77663,63.98865],[15.77502,63.98875],[15.77378,63.98904],[15.77167,63.98909],[15.76984,63.98944],[15.76703,63.98933],[15.76586,63.98951],[15.76476,63.99],[15.76383,63.99004],[15.7629,63.9907],[15.76241,63.9915],[15.7633,63.99235],[15.7623,63.99379],[15.7602,63.9945],[15.75517,63.99493],[15.75472,63.99515],[15.71414,63.99313],[15.71381,63.99285],[15.66584,63.99036],[15.65707,63.99028],[15.64975,63.98585],[15.64941,63.98584],[15.62047,63.96729],[15.63353,63.96481],[15.6335,63.96453],[15.6724,63.95765],[15.67514,63.94817],[15.62125,63.91496],[15.61323,63.90465],[15.6097,63.90518],[15.61864,63.91666],[15.61507,63.91727],[15.60598,63.90698],[15.60788,63.90666],[15.59064,63.88581],[15.58987,63.8848],[15.58949,63.88329],[15.57531,63.86876],[15.5737,63.86883],[15.57199,63.87048],[15.56931,63.87173],[15.56639,63.87249],[15.5626,63.87291],[15.55942,63.87285],[15.55256,63.87185],[15.54762,63.87164],[15.5408,63.87029],[15.5388,63.86972],[15.53691,63.86892],[15.53519,63.86776],[15.53345,63.86553],[15.53154,63.86454],[15.53046,63.86363],[15.52957,63.86194],[15.52583,63.86171],[15.52219,63.86091],[15.51923,63.85966],[15.5165,63.85773],[15.51437,63.85421],[15.51398,63.85269],[15.51517,63.84936],[15.51628,63.8481],[15.51603,63.84767],[15.51258,63.8469],[15.51013,63.84591],[15.50831,63.84469],[15.50718,63.84321],[15.50696,63.84174],[15.50778,63.83999],[15.50767,63.83896],[15.50629,63.83672],[15.50641,63.83482],[15.50743,63.83343],[15.50872,63.83246],[15.51099,63.8314],[15.51321,63.83073],[15.51904,63.82964],[15.52286,63.82938],[15.53107,63.83009],[15.53488,63.83083],[15.53791,63.83206],[15.54015,63.83393],[15.54083,63.83606],[15.54054,63.83712],[15.53964,63.83829],[15.54442,63.83981],[15.54662,63.83906],[15.54961,63.83845],[15.55112,63.83746],[15.55362,63.83642],[15.5581,63.83551],[15.56118,63.83535],[15.56425,63.83553],[15.56739,63.8361],[15.57024,63.83709],[15.57086,63.83706],[15.5746,63.833],[15.57629,63.8329],[15.5823,63.82999],[15.5862,63.82777],[15.58947,63.82275],[15.58721,63.81589],[15.5782,63.81164],[15.59226,63.80183],[15.5803,63.79506],[15.55661,63.79368],[15.54293,63.77653],[15.48567,63.77393],[15.36288,63.77303],[15.32426,63.78181],[15.21578,63.8011],[15.20481,63.82628],[15.18848,63.86557],[15.1839,63.87554],[15.10638,63.85022],[15.10385,63.85332],[15.10394,63.85396],[15.10481,63.85477],[15.10414,63.8563],[15.10319,63.85644],[15.10162,63.85609],[15.09807,63.8558],[15.09567,63.85664],[15.09196,63.85643],[15.09069,63.85667],[15.08945,63.8578],[15.089,63.85882],[15.08988,63.85932],[15.09142,63.86187],[15.0926,63.86207],[15.09564,63.86194],[15.09865,63.86308],[15.09867,63.86337],[15.09731,63.86399],[15.09767,63.86451],[15.09894,63.86478],[15.10086,63.8648],[15.10184,63.86466],[15.10269,63.86424],[15.10409,63.86433],[15.10458,63.86476],[15.10448,63.86531],[15.10339,63.86636],[15.10272,63.86662],[15.10157,63.86853],[15.09528,63.8694],[15.09469,63.86999],[15.09331,63.87046],[15.0916,63.87142],[15.09147,63.87173],[15.09283,63.87251],[15.09253,63.8731],[15.09136,63.87372],[15.09006,63.87422],[15.08882,63.87436],[15.08719,63.87516],[15.08483,63.87827],[15.08383,63.87853],[15.08174,63.87863],[15.07954,63.87919],[15.07746,63.88106],[15.07761,63.88183],[15.07924,63.88293],[15.07891,63.88338],[15.07729,63.88416],[15.07722,63.88475],[15.07665,63.88523],[15.07462,63.88529],[15.0731,63.88508],[15.07272,63.88431],[15.07137,63.88376],[15.06956,63.88378],[15.06873,63.88418],[15.06636,63.88397],[15.06521,63.8843],[15.06516,63.88507],[15.06592,63.88556],[15.06611,63.88612],[15.06784,63.88665],[15.07006,63.88796],[15.06913,63.88979],[15.06542,63.89036],[15.06502,63.89092],[15.06517,63.89144],[15.06731,63.89168],[15.06851,63.89273],[15.06926,63.89292],[15.06908,63.89332],[15.06808,63.89353],[15.06404,63.89308],[15.06229,63.89348],[15.06009,63.89245],[15.05884,63.89215],[15.05729,63.89147],[15.05557,63.89155],[15.05265,63.89123],[15.05086,63.89136],[15.04956,63.89209],[15.04816,63.89228],[15.04809,63.89277],[15.04869,63.89353],[15.05017,63.89442],[15.05137,63.89461],[15.05228,63.89455],[15.05449,63.89392],[15.05628,63.89403],[15.04504,63.90668],[14.98954,63.92994],[14.97821,63.93446],[14.90818,64.02627],[14.90781,64.02685],[14.97643,64.04452],[14.92844,64.094],[14.91639,64.10686],[14.87738,64.10701],[14.84554,64.16447],[14.77442,64.2771],[14.6848,64.2885],[14.66152,64.29006],[14.51543,64.31264],[14.48761,64.31531],[14.45636,64.31885],[14.25695,64.3404],[14.22555,64.36194],[14.21597,64.36801],[14.17083,64.39833],[14.12669,64.38743],[14.11387,64.46248],[14.08523,64.47825],[13.89118,64.50713],[13.75086,64.55023],[13.65426,64.58034],[13.70547,64.63996],[13.79466,64.71158],[13.97757,64.85966],[14.0773,64.93894],[14.12989,64.97856],[14.22699,65.04868],[14.32599,65.11892],[14.53129,65.03628],[14.61303,65.00236],[14.69751,64.99049],[14.70632,64.98218],[14.70271,64.97971],[14.70278,64.97883],[14.7056,64.97783],[14.7058,64.97722],[14.70539,64.97569],[14.70685,64.97425],[14.70912,64.97302],[14.7106,64.9703],[14.7143,64.96879],[14.71407,64.96784],[14.71261,64.967],[14.71238,64.96576],[14.71433,64.96327],[14.71136,64.96109],[14.71174,64.96075],[14.71711,64.96033],[14.71931,64.95982],[14.71954,64.95851],[14.72042,64.958],[14.72232,64.9574],[14.72299,64.95699],[14.72348,64.95607],[14.72695,64.95571],[14.72897,64.95493],[14.73074,64.95469]]]}},{"type":"Feature","id":"2313R004","properties":{"code":"2313R004","name":"Strömsund öster"},"geometry":{"type":"Polygon","coordinates":[[[16.16545,64.26123],[16.21925,64.26398],[16.33065,64.21162],[16.39627,64.18106],[16.41618,64.17164],[16.42383,64.16772],[16.66823,64.0527],[16.66707,64.05224],[16.71862,64.02738],[16.67348,63.97692],[16.63118,63.9284],[16.58125,63.8732],[16.57856,63.86654],[16.56608,63.83134],[16.56353,63.82337],[16.57064,63.79573],[16.57454,63.78268],[16.59745,63.75446],[16.60606,63.7344],[16.6142,63.71399],[16.52831,63.70471],[16.41883,63.6988],[16.3483,63.69694],[16.34114,63.69114],[16.3409,63.69049],[16.33943,63.69064],[16.33868,63.69244],[16.33619,63.69312],[16.33588,63.69416],[16.33255,63.69553],[16.3302,63.6961],[16.32684,63.69591],[16.32033,63.69768],[16.31928,63.69773],[16.28946,63.6748],[16.2708,63.65974],[16.22835,63.66081],[16.22475,63.66191],[16.22387,63.66121],[16.22309,63.66145],[16.2233,63.66232],[16.13384,63.68994],[16.13582,63.68804],[16.13375,63.68681],[16.1247,63.69284],[16.1168,63.69526],[16.1152,63.69531],[16.11224,63.69634],[16.10973,63.6962],[16.10804,63.69691],[16.10885,63.69769],[16.08716,63.70432],[15.98229,63.65403],[15.98152,63.65303],[15.97704,63.65334],[15.973,63.65386],[15.97051,63.65482],[15.967,63.65517],[15.96394,63.65573],[15.96224,63.65624],[15.95779,63.65673],[15.95418,63.65733],[15.95256,63.65733],[15.9494,63.65684],[15.94488,63.65721],[15.93721,63.65704],[15.9351,63.65726],[15.93283,63.65725],[15.92634,63.65892],[15.92413,63.6591],[15.92119,63.66],[15.91921,63.66037],[15.91692,63.66126],[15.91668,63.66197],[15.91505,63.66158],[15.91232,63.66229],[15.91079,63.66329],[15.90974,63.66346],[15.90868,63.66337],[15.90772,63.66361],[15.90742,63.66374],[15.90761,63.66432],[15.90658,63.66398],[15.9058,63.66422],[15.90479,63.6653],[15.90284,63.66635],[15.90306,63.66684],[15.90472,63.66769],[15.90556,63.66909],[15.9065,63.6692],[15.90722,63.66976],[15.90703,63.67109],[15.91865,63.67246],[15.96229,63.70323],[15.99299,63.72379],[15.99346,63.72652],[15.98562,63.72606],[15.9777,63.72628],[15.96929,63.72701],[15.96738,63.72773],[15.96434,63.728],[15.96131,63.72779],[15.95657,63.72857],[15.95663,63.72999],[15.95455,63.73136],[15.95286,63.73175],[15.951,63.73308],[15.94713,63.73407],[15.94657,63.73358],[15.93301,63.73611],[15.94009,63.76291],[15.98424,63.77929],[15.94323,63.79841],[15.94435,63.80025],[15.94245,63.80011],[15.94131,63.80033],[15.9363,63.80352],[15.93542,63.80386],[15.93365,63.80415],[15.93273,63.80484],[15.93191,63.80504],[15.93065,63.80579],[15.92895,63.806],[15.92788,63.80658],[15.9257,63.80718],[15.92481,63.80783],[15.92363,63.80796],[15.92161,63.8089],[15.9169,63.80959],[15.85756,63.82482],[15.91734,63.85415],[15.95218,63.87069],[15.95736,63.91954],[15.96007,63.9717],[15.9588,64.02871],[15.95769,64.05026],[15.9575,64.05239],[15.95608,64.05145],[15.95447,64.05159],[15.95369,64.05275],[15.95739,64.05361],[15.95638,64.06514],[15.93063,64.08636],[15.97596,64.09771],[15.99003,64.12067],[15.99094,64.12048],[15.9927,64.11959],[15.99299,64.11893],[15.99519,64.11761],[15.99685,64.11764],[16.00244,64.11723],[16.00603,64.11662],[16.00879,64.11821],[16.00893,64.11858],[16.01009,64.11897],[16.01319,64.11881],[16.01606,64.11959],[16.01757,64.11963],[16.01939,64.11992],[16.02402,64.12005],[16.02759,64.12063],[16.05918,64.14088],[16.10576,64.15878],[16.15127,64.17573],[16.00908,64.24196],[16.10887,64.26262],[16.10947,64.26324],[16.1098,64.263],[16.11304,64.26214],[16.11471,64.26192],[16.11896,64.26085],[16.12226,64.26106],[16.1259,64.26169],[16.12727,64.2625],[16.13073,64.26279],[16.14477,64.26765],[16.16545,64.26123]]]}}]}