{"type":"FeatureCollection","features":[{"type":"Feature","id":"2321R001","properties":{"code":"2321R001","name":"Duved"},"geometry":{"type":"Polygon","coordinates":[[[13.03095,63.4151],[13.03496,63.41482],[13.0379,63.41422],[13.0404,63.41331],[13.04245,63.41201],[13.04501,63.41125],[13.04189,63.40578],[13.04038,63.40573],[13.0404,63.40555],[13.04119,63.40549],[13.04032,63.4032],[13.04211,63.39733],[13.02811,63.39548],[13.01749,63.39529],[13.00075,63.394],[12.98562,63.39514],[12.96561,63.39355],[12.95771,63.39356],[12.94043,63.39196],[12.9383,63.39016],[12.93418,63.38854],[12.92434,63.38815],[12.91612,63.38582],[12.90842,63.38693],[12.90165,63.38823],[12.89617,63.38865],[12.88403,63.38868],[12.88124,63.38835],[12.8762,63.38912],[12.87178,63.38815],[12.86948,63.38808],[12.86546,63.39022],[12.8649,63.39222],[12.86573,63.39412],[12.86858,63.39626],[12.87132,63.39755],[12.87623,63.39889],[12.8845,63.39994],[12.88887,63.39992],[12.89365,63.39924],[12.89677,63.40009],[12.8982,63.40167],[12.90035,63.40291],[12.90319,63.40389],[12.90633,63.40451],[12.91051,63.40484],[12.91459,63.40456],[12.9184,63.40509],[12.92167,63.40511],[12.9259,63.4046],[12.92924,63.40361],[12.9335,63.40439],[12.94121,63.40503],[12.94361,63.40508],[12.94828,63.40458],[12.95066,63.40405],[12.95269,63.40335],[12.95418,63.40529],[12.95781,63.40761],[12.96177,63.4094],[12.96442,63.41025],[12.9667,63.41072],[12.97141,63.41106],[12.97537,63.41081],[12.97899,63.41001],[12.98178,63.40878],[12.98563,63.40897],[12.99113,63.40848],[12.99501,63.4088],[12.99809,63.40875],[12.99937,63.41002],[13.00251,63.41228],[13.005,63.41336],[13.00784,63.41409],[13.0112,63.41451],[13.01447,63.41452],[13.01855,63.41411],[13.02141,63.41343],[13.02337,63.41416],[13.02549,63.41467],[13.02779,63.41499],[13.03095,63.4151]]]}},{"type":"Feature","id":"2321R002","properties":{"code":"2321R002","name":"Järpen"},"geometry":{"type":"Polygon","coordinates":[[[13.44875,63.37255],[13.45192,63.37229],[13.4563,63.37138],[13.45859,63.37069],[13.4607,63.36974],[13.46234,63.36857],[13.46328,63.36726],[13.46346,63.36587],[13.46269,63.36431],[13.46456,63.36349],[13.46797,63.36147],[13.47108,63.35847],[13.47193,63.35636],[13.47376,63.35525],[13.47952,63.35329],[13.48376,63.35137],[13.48556,63.35027],[13.48872,63.34918],[13.49015,63.34835],[13.49143,63.34713],[13.49755,63.34563],[13.49943,63.34489],[13.50135,63.34371],[13.5029,63.34158],[13.50257,63.33935],[13.50166,63.33825],[13.50036,63.33728],[13.49668,63.33577],[13.49443,63.33528],[13.49125,63.33494],[13.48777,63.33497],[13.48458,63.33539],[13.4808,63.33482],[13.47555,63.33484],[13.47258,63.33522],[13.46471,63.33684],[13.46244,63.33756],[13.4588,63.33923],[13.45432,63.33903],[13.44995,63.33959],[13.44742,63.34035],[13.44495,63.34159],[13.44345,63.34294],[13.44278,63.34445],[13.44045,63.34562],[13.43827,63.34765],[13.42683,63.35082],[13.42354,63.35248],[13.42226,63.35382],[13.42179,63.35529],[13.42211,63.35669],[13.4233,63.35807],[13.42164,63.35969],[13.42056,63.36265],[13.42089,63.36408],[13.42203,63.36544],[13.42531,63.36737],[13.42842,63.36849],[13.43135,63.36903],[13.43677,63.36954],[13.43988,63.3712],[13.44328,63.37213],[13.44564,63.37245],[13.44875,63.37255]]]}},{"type":"Feature","id":"2321R003","properties":{"code":"2321R003","name":"Mattmar-Mörsil"},"geometry":{"type":"Polygon","coordinates":[[[13.49959,63.43553],[13.50237,63.43569],[13.50294,63.43525],[13.50466,63.43514],[13.50754,63.43535],[13.50926,63.43508],[13.51074,63.43565],[13.51304,63.43551],[13.51361,63.4353],[13.5169,63.43511],[13.51831,63.43428],[13.5205,63.43366],[13.52331,63.43349],[13.52469,63.43307],[13.52528,63.43323],[13.52537,63.43355],[13.52689,63.43347],[13.52796,63.4341],[13.53134,63.43341],[13.53166,63.43358],[13.53246,63.43356],[13.53441,63.43298],[13.53625,63.43281],[13.53606,63.43242],[13.53726,63.43249],[13.53743,63.43218],[13.53817,63.43242],[13.53823,63.43212],[13.53872,63.43205],[13.53982,63.4326],[13.54065,63.43228],[13.54043,63.43193],[13.54157,63.4318],[13.54146,63.43157],[13.54208,63.43102],[13.54331,63.43057],[13.54269,63.43028],[13.54269,63.4301],[13.54327,63.4301],[13.54265,63.42939],[13.54285,63.42884],[13.54246,63.42875],[13.5433,63.42748],[13.54125,63.42551],[13.54451,63.42432],[13.54657,63.42249],[13.54613,63.42236],[13.54581,63.42254],[13.54522,63.42189],[13.54474,63.42198],[13.54479,63.42163],[13.54543,63.42126],[13.54518,63.42114],[13.54638,63.421],[13.54626,63.42069],[13.54662,63.42052],[13.5472,63.42061],[13.54778,63.41999],[13.54851,63.41998],[13.54978,63.41962],[13.5509,63.41965],[13.55119,63.41935],[13.55155,63.41972],[13.55126,63.41996],[13.55159,63.41999],[13.55242,63.41978],[13.55298,63.41936],[13.55449,63.41934],[13.55444,63.41964],[13.55606,63.4193],[13.55679,63.41942],[13.55895,63.41915],[13.55862,63.41866],[13.55938,63.41834],[13.55931,63.4181],[13.56004,63.41794],[13.55939,63.41736],[13.55961,63.41714],[13.55981,63.41705],[13.56027,63.4172],[13.56053,63.41681],[13.5614,63.41653],[13.56238,63.41681],[13.5635,63.41646],[13.56303,63.41612],[13.56349,63.4157],[13.56224,63.41539],[13.56229,63.41519],[13.5643,63.41509],[13.5648,63.41464],[13.56571,63.41512],[13.56622,63.41509],[13.5668,63.41417],[13.56829,63.41369],[13.56842,63.41309],[13.56985,63.41212],[13.56978,63.41158],[13.57037,63.41102],[13.57242,63.41065],[13.57248,63.40997],[13.57321,63.40975],[13.57309,63.40931],[13.57415,63.40887],[13.57493,63.40755],[13.57591,63.40696],[13.57549,63.40644],[13.57686,63.40635],[13.57626,63.40575],[13.57813,63.40533],[13.57907,63.40487],[13.57868,63.40413],[13.5792,63.40385],[13.57916,63.40359],[13.57766,63.40294],[13.57869,63.40215],[13.58021,63.4016],[13.58043,63.40128],[13.58016,63.40081],[13.6116,63.41722],[13.64743,63.40323],[13.64137,63.40016],[13.66417,63.38992],[13.67675,63.38448],[13.7028,63.37647],[13.69566,63.36753],[13.72998,63.35885],[13.77049,63.35002],[13.75767,63.3453],[13.76623,63.34281],[13.83484,63.35662],[13.8372,63.34983],[13.83159,63.34281],[13.83942,63.33804],[13.85416,63.34176],[13.85761,63.34201],[13.85824,63.34659],[13.86442,63.34944],[13.87227,63.34949],[13.90193,63.34754],[13.98217,63.33144],[13.98465,63.33226],[13.99378,63.32884],[14.00599,63.32729],[14.00868,63.32599],[14.01558,63.32382],[14.0327,63.31931],[14.04063,63.31644],[14.04733,63.31318],[14.05128,63.30977],[14.05931,63.30672],[14.06267,63.3018],[14.07258,63.2976],[14.07961,63.28987],[14.0884,63.28791],[14.07745,63.28228],[14.06548,63.28165],[14.05443,63.28213],[14.05168,63.27976],[14.04992,63.2798],[14.05159,63.27707],[14.04868,63.27611],[14.04913,63.27515],[14.04849,63.27516],[14.04823,63.27483],[14.04592,63.27426],[14.04537,63.27345],[14.0446,63.27312],[14.04318,63.27303],[14.04249,63.27328],[14.04181,63.27321],[14.03846,63.27202],[14.03256,63.27106],[14.01167,63.27797],[14.00243,63.27946],[13.99926,63.27884],[13.99351,63.27889],[13.98736,63.27993],[13.95566,63.2572],[13.95807,63.25558],[13.95434,63.25327],[13.95189,63.25312],[13.94744,63.25424],[13.95502,63.25767],[13.95313,63.25834],[13.95342,63.25857],[13.94407,63.26147],[13.93102,63.26491],[13.92014,63.2601],[13.89856,63.23656],[13.90038,63.23618],[13.90337,63.23671],[13.90525,63.23634],[13.89875,63.23103],[13.90041,63.23048],[13.89693,63.22774],[13.89598,63.228],[13.89526,63.22854],[13.89694,63.22918],[13.8963,63.22951],[13.89645,63.22992],[13.89454,63.22914],[13.89283,63.23076],[13.89163,63.23058],[13.8898,63.23122],[13.90226,63.22297],[13.82872,63.19751],[13.81851,63.20186],[13.77269,63.18055],[13.72035,63.16197],[13.72162,63.16107],[13.69112,63.15525],[13.68861,63.16295],[13.68772,63.16468],[13.68642,63.16622],[13.68697,63.16683],[13.68541,63.16803],[13.68516,63.16852],[13.68355,63.16914],[13.68137,63.16936],[13.67529,63.17045],[13.6739,63.17101],[13.6721,63.17133],[13.67145,63.17114],[13.68205,63.15533],[13.67665,63.1537],[13.658,63.16266],[13.64067,63.15764],[13.63222,63.1583],[13.6248,63.15522],[13.62122,63.15676],[13.61904,63.15725],[13.61757,63.15731],[13.61513,63.15718],[13.6131,63.15676],[13.61215,63.15688],[13.60993,63.15516],[13.57084,63.1556],[13.55262,63.14793],[13.52001,63.14368],[13.49528,63.15349],[13.48096,63.15562],[13.47246,63.15235],[13.47604,63.15908],[13.45791,63.15978],[13.44975,63.16118],[13.4226,63.17285],[13.4389,63.17544],[13.44344,63.18218],[13.44254,63.18665],[13.44513,63.18743],[13.44582,63.18738],[13.44684,63.1868],[13.44745,63.18597],[13.44802,63.18581],[13.45329,63.18538],[13.45561,63.18481],[13.45673,63.18477],[13.45806,63.18446],[13.45922,63.1837],[13.4601,63.18204],[13.46314,63.18064],[13.4653,63.18028],[13.46842,63.1803],[13.46974,63.18023],[13.4701,63.18006],[13.47115,63.18029],[13.47173,63.1801],[13.47397,63.18019],[13.47441,63.18083],[13.47343,63.18169],[13.47307,63.18252],[13.47448,63.18267],[13.47477,63.18285],[13.47713,63.18207],[13.48131,63.18133],[13.48225,63.18136],[13.48246,63.18168],[13.48491,63.18243],[13.48585,63.18228],[13.48742,63.18237],[13.48818,63.182],[13.49161,63.18841],[13.49373,63.23457],[13.50626,63.22666],[13.50748,63.22625],[13.5087,63.22614],[13.50983,63.22569],[13.51236,63.22528],[13.51502,63.22412],[13.5136,63.22002],[13.51827,63.21707],[13.52654,63.21407],[13.53262,63.21319],[13.53745,63.21277],[13.54302,63.21418],[13.54981,63.21436],[13.55308,63.21515],[13.55828,63.2217],[13.55829,63.22332],[13.56577,63.22547],[13.56707,63.22643],[13.57181,63.22621],[13.58598,63.27326],[13.51954,63.26642],[13.48271,63.32379],[13.4884,63.33114],[13.48615,63.33182],[13.46261,63.33141],[13.45027,63.32783],[13.44594,63.3315],[13.44022,63.33434],[13.43471,63.33529],[13.42964,63.33511],[13.42737,63.33423],[13.42704,63.33237],[13.42733,63.32991],[13.44615,63.32427],[13.44584,63.32344],[13.43157,63.32073],[13.42226,63.3226],[13.41313,63.32739],[13.4132,63.32808],[13.41465,63.32881],[13.41286,63.33138],[13.409,63.33169],[13.40791,63.33254],[13.40707,63.33454],[13.40594,63.33504],[13.41469,63.34752],[13.4061,63.35158],[13.40098,63.35278],[13.37524,63.35591],[13.36897,63.36043],[13.36897,63.36301],[13.34604,63.37642],[13.32711,63.38416],[13.32619,63.3891],[13.32097,63.39642],[13.31709,63.4003],[13.31092,63.40526],[13.31445,63.40659],[13.34572,63.40717],[13.3462,63.40809],[13.36346,63.40906],[13.39713,63.40948],[13.39847,63.40971],[13.47234,63.43255],[13.47311,63.43217],[13.47566,63.43196],[13.47643,63.43148],[13.4759,63.43135],[13.47682,63.43113],[13.47812,63.43166],[13.47914,63.43182],[13.47967,63.43144],[13.48017,63.43167],[13.48263,63.43115],[13.48279,63.43075],[13.48437,63.43059],[13.48453,63.43091],[13.48516,63.43103],[13.48542,63.43049],[13.48667,63.43038],[13.48758,63.43087],[13.48795,63.43075],[13.48892,63.43084],[13.48885,63.43123],[13.48975,63.43149],[13.49112,63.43118],[13.49153,63.43214],[13.49253,63.4324],[13.49219,63.43329],[13.49295,63.43305],[13.49546,63.43311],[13.496,63.43343],[13.49713,63.43362],[13.49805,63.43454],[13.4992,63.43458],[13.49959,63.43553]],[[13.44722,63.37254],[13.44405,63.37226],[13.4412,63.37164],[13.43873,63.3707],[13.43677,63.36954],[13.43062,63.36893],[13.42777,63.36831],[13.42531,63.36737],[13.422,63.36541],[13.42089,63.36408],[13.42056,63.36265],[13.42164,63.35969],[13.4233,63.35807],[13.42211,63.35669],[13.42179,63.35529],[13.42226,63.35382],[13.42354,63.35248],[13.42683,63.35082],[13.43827,63.34765],[13.44045,63.34562],[13.44278,63.34445],[13.44345,63.34294],[13.44495,63.34159],[13.44742,63.34035],[13.44995,63.33959],[13.45432,63.33903],[13.4588,63.33923],[13.46244,63.33756],[13.46471,63.33684],[13.47258,63.33522],[13.47555,63.33484],[13.4808,63.33482],[13.48458,63.33539],[13.48777,63.33497],[13.49125,63.33494],[13.49443,63.33528],[13.49668,63.33577],[13.49923,63.33668],[13.50079,63.33756],[13.50201,63.33861],[13.50274,63.33969],[13.50278,63.34192],[13.50096,63.344],[13.49755,63.34563],[13.49143,63.34713],[13.49015,63.34835],[13.48872,63.34918],[13.48556,63.35027],[13.48376,63.35137],[13.47952,63.35329],[13.47376,63.35525],[13.47193,63.35636],[13.47108,63.35847],[13.46797,63.36147],[13.46456,63.36349],[13.46269,63.36431],[13.46346,63.36587],[13.46328,63.36726],[13.46234,63.36857],[13.46066,63.36976],[13.45794,63.37092],[13.4534,63.37203],[13.45038,63.37246],[13.44722,63.37254]]]}},{"type":"Feature","id":"2321R004","properties":{"code":"2321R004","name":"Nordvästra bygden"},"geometry":{"type":"Polygon","coordinates":[[[13.27805,64.08924],[13.31772,64.06783],[13.30983,64.03251],[13.33678,63.9858],[13.33398,63.95599],[13.33186,63.95512],[13.33171,63.95463],[13.33199,63.95402],[13.33312,63.95321],[13.33257,63.95236],[13.33486,63.94909],[13.33563,63.94877],[13.34034,63.94783],[13.34085,63.94729],[13.3407,63.94466],[13.3256,63.91562],[13.3835,63.85794],[13.37807,63.85091],[13.37385,63.8494],[13.37341,63.84874],[13.37191,63.84768],[13.37187,63.84701],[13.37054,63.84562],[13.37008,63.84425],[13.36742,63.84288],[13.3643,63.84073],[13.36409,63.84029],[13.36423,63.8398],[13.36549,63.83887],[13.36611,63.83784],[13.37179,63.83624],[13.38376,63.82092],[13.38312,63.81955],[13.38461,63.81748],[13.38405,63.81637],[13.38423,63.81445],[13.38343,63.81328],[13.38148,63.8133],[13.38119,63.81306],[13.38007,63.80888],[13.37943,63.80759],[13.3783,63.80653],[13.37791,63.80374],[13.37622,63.79996],[13.37796,63.79929],[13.38032,63.79894],[13.38319,63.79807],[13.3852,63.79784],[13.38827,63.79712],[13.39164,63.79692],[13.39293,63.7979],[13.39373,63.79806],[13.39509,63.79697],[13.40023,63.7946],[13.4031,63.79437],[13.40661,63.79366],[13.40618,63.79308],[13.40641,63.79219],[13.40876,63.79098],[13.40754,63.78965],[13.40758,63.78923],[13.40791,63.78871],[13.40981,63.78772],[13.40941,63.78725],[13.40799,63.7865],[13.4082,63.78489],[13.40929,63.78393],[13.41147,63.78287],[13.41197,63.78227],[13.40941,63.78017],[13.40875,63.77743],[13.4089,63.77725],[13.41005,63.77714],[13.41306,63.7775],[13.41454,63.77722],[13.41416,63.77631],[13.41447,63.77494],[13.41553,63.77369],[13.41556,63.77323],[13.41431,63.77233],[13.41435,63.77166],[13.41594,63.7709],[13.41809,63.77029],[13.41843,63.76901],[13.4718,63.77052],[13.47097,63.71945],[13.4697,63.6854],[13.43855,63.67241],[13.43878,63.67165],[13.45552,63.66708],[13.46943,63.66549],[13.4749,63.6655],[13.47808,63.66593],[13.47962,63.66656],[13.48099,63.66815],[13.48707,63.67133],[13.48738,63.67184],[13.48719,63.67259],[13.4882,63.67338],[13.49928,63.62961],[13.50675,63.60277],[13.45108,63.61703],[13.40192,63.64697],[13.38841,63.65569],[13.37985,63.66178],[13.30157,63.6704],[13.29723,63.67211],[13.29658,63.67219],[13.28955,63.67156],[13.28632,63.67056],[13.28636,63.66954],[13.28939,63.66776],[13.29078,63.66607],[13.29147,63.66462],[13.29142,63.66417],[13.29091,63.66381],[13.28893,63.66316],[13.28797,63.66247],[13.28874,63.66218],[13.29018,63.66223],[13.29077,63.66196],[13.29111,63.66139],[13.29215,63.66163],[13.29272,63.66153],[13.29197,63.66032],[13.29211,63.65967],[13.29281,63.65905],[13.29257,63.65886],[13.29128,63.65887],[13.29138,63.6581],[13.29009,63.6565],[13.29061,63.65605],[13.28975,63.65607],[13.28948,63.65564],[13.28836,63.65527],[13.28861,63.65444],[13.28904,63.65421],[13.28871,63.65409],[13.28762,63.65422],[13.28748,63.65374],[13.28699,63.65392],[13.28534,63.65381],[13.2846,63.65399],[13.28464,63.65373],[13.28412,63.65388],[13.28391,63.65377],[13.28397,63.65348],[13.28322,63.65371],[13.2829,63.65368],[13.28291,63.65334],[13.28078,63.65324],[13.31156,63.62174],[13.39582,63.61309],[13.40844,63.60315],[13.41741,63.60504],[13.42199,63.60664],[13.50498,63.57284],[13.50673,63.57283],[13.50798,63.57227],[13.50831,63.57269],[13.51096,63.57337],[13.51119,63.57375],[13.51167,63.57386],[13.51514,63.57401],[13.51623,63.57371],[13.49775,63.56752],[13.49317,63.55799],[13.48359,63.54251],[13.49538,63.52956],[13.52821,63.48975],[13.49052,63.4706],[13.47234,63.43255],[13.39847,63.40971],[13.39713,63.40948],[13.36346,63.40906],[13.3462,63.40809],[13.34572,63.40717],[13.31445,63.40659],[13.28916,63.39704],[13.26612,63.36888],[13.26221,63.36954],[13.25437,63.35982],[13.25537,63.35973],[13.2574,63.3599],[13.25759,63.3603],[13.25707,63.36049],[13.25687,63.36089],[13.25751,63.36118],[13.25861,63.36106],[13.26,63.36129],[13.2358,63.3326],[13.23747,63.33095],[13.23587,63.33018],[13.23464,63.33125],[13.21945,63.32154],[13.21394,63.31832],[13.21313,63.3191],[13.21156,63.31946],[13.15997,63.32378],[13.0991,63.32916],[13.05366,63.34325],[12.96855,63.33824],[12.89257,63.31282],[12.83914,63.3031],[12.83246,63.29731],[12.81262,63.27763],[12.80685,63.26722],[12.79679,63.24731],[12.75901,63.22603],[12.70919,63.22079],[12.68065,63.22588],[12.62825,63.19368],[12.45918,63.20163],[12.33512,63.22724],[12.08696,63.1645],[12.0242,63.21452],[11.99832,63.24258],[11.97458,63.26923],[12.03383,63.31626],[12.08409,63.35558],[12.1401,63.41071],[12.21288,63.47859],[12.18239,63.53392],[12.14977,63.59395],[12.22725,63.63088],[12.29946,63.67198],[12.33058,63.71507],[12.4408,63.79126],[12.48023,63.81876],[12.53812,63.8623],[12.65163,63.94946],[12.68357,63.97422],[12.92672,64.05795],[13.08491,64.07868],[13.21111,64.09537],[13.27805,64.08924]],[[13.02942,63.41509],[13.02479,63.41452],[13.02141,63.41343],[13.01855,63.41411],[13.01447,63.41452],[13.0112,63.41451],[13.00784,63.41409],[13.005,63.41336],[13.00251,63.41228],[12.99937,63.41002],[12.99809,63.40875],[12.99501,63.4088],[12.99113,63.40848],[12.98563,63.40897],[12.98178,63.40878],[12.97899,63.41001],[12.97537,63.41081],[12.97141,63.41106],[12.9667,63.41072],[12.96442,63.41025],[12.96177,63.4094],[12.95781,63.40761],[12.95418,63.40529],[12.95269,63.40335],[12.95066,63.40405],[12.94828,63.40458],[12.94361,63.40508],[12.94121,63.40503],[12.9335,63.40439],[12.92924,63.40361],[12.9259,63.4046],[12.92167,63.40511],[12.9184,63.40509],[12.91459,63.40456],[12.91051,63.40484],[12.90633,63.40451],[12.90319,63.40389],[12.90035,63.40291],[12.8982,63.40167],[12.89677,63.40009],[12.89365,63.39924],[12.88887,63.39992],[12.8845,63.39994],[12.87623,63.39889],[12.87132,63.39755],[12.86858,63.39626],[12.86573,63.39412],[12.8649,63.39222],[12.86546,63.39022],[12.86948,63.38808],[12.87178,63.38815],[12.8762,63.38912],[12.88124,63.38835],[12.88403,63.38868],[12.89617,63.38865],[12.90165,63.38823],[12.90842,63.38693],[12.91612,63.38582],[12.92434,63.38815],[12.93418,63.38854],[12.9383,63.39016],[12.94043,63.39196],[12.95771,63.39356],[12.96561,63.39355],[12.98562,63.39514],[13.00075,63.394],[13.01749,63.39529],[13.02811,63.39548],[13.04264,63.39736],[13.05934,63.39538],[13.08692,63.39069],[13.09599,63.38618],[13.12083,63.38143],[13.1499,63.37167],[13.15461,63.36332],[13.16383,63.35941],[13.17028,63.3513],[13.17148,63.35084],[13.17571,63.34989],[13.17976,63.34968],[13.18366,63.34834],[13.18846,63.34774],[13.19171,63.3478],[13.19483,63.34822],[13.19806,63.34901],[13.20056,63.35005],[13.20273,63.35168],[13.20363,63.35343],[13.20303,63.35565],[13.20108,63.35735],[13.20237,63.35844],[13.2032,63.35985],[13.20322,63.36142],[13.20236,63.36294],[13.20031,63.36448],[13.19777,63.36555],[13.19006,63.36725],[13.18717,63.36766],[13.18633,63.3695],[13.18476,63.37112],[13.18297,63.37225],[13.18055,63.37328],[13.17768,63.37559],[13.18747,63.3789],[13.18972,63.3801],[13.19113,63.38142],[13.19179,63.3833],[13.19114,63.38516],[13.18963,63.38657],[13.18687,63.38796],[13.17936,63.39035],[13.17521,63.39094],[13.17081,63.39104],[13.16631,63.3929],[13.16303,63.39356],[13.15931,63.39488],[13.1555,63.39547],[13.15366,63.39678],[13.15065,63.39795],[13.14698,63.39864],[13.14357,63.3988],[13.13986,63.4001],[13.13619,63.4008],[13.13304,63.40096],[13.13058,63.40084],[13.12758,63.40038],[13.1244,63.39958],[13.12142,63.39836],[13.11803,63.39598],[13.11663,63.39534],[13.11385,63.39727],[13.11015,63.39848],[13.10926,63.39896],[13.10754,63.40103],[13.10459,63.40263],[13.1056,63.40399],[13.1058,63.40537],[13.10523,63.40673],[13.10423,63.40776],[13.10128,63.40934],[13.09792,63.41022],[13.09351,63.4107],[13.08892,63.41068],[13.08591,63.41031],[13.08272,63.40943],[13.07872,63.41003],[13.07231,63.41064],[13.06692,63.41082],[13.05712,63.41171],[13.0539,63.41169],[13.0512,63.41138],[13.0477,63.41149],[13.04501,63.41125],[13.04245,63.41201],[13.04035,63.41333],[13.03718,63.41441],[13.03342,63.41499],[13.02942,63.41509]]]}},{"type":"Feature","id":"2321R005","properties":{"code":"2321R005","name":"Storsjöbygden"},"geometry":{"type":"Polygon","coordinates":[[[14.11221,63.28264],[14.17934,63.2718],[14.24014,63.23513],[14.27191,63.22492],[14.29154,63.21581],[14.30001,63.21212],[14.26471,63.16413],[14.28713,63.14923],[14.29311,63.14664],[14.30209,63.14356],[14.30981,63.14234],[14.31781,63.13797],[14.3284,63.13006],[14.33439,63.12738],[14.34306,63.12461],[14.3572,63.1211],[14.37819,63.1188],[14.39584,63.11196],[14.39698,63.10284],[14.40592,63.09002],[14.40551,63.08384],[14.40575,63.07791],[14.40453,63.06934],[14.39313,63.06861],[14.38169,63.06528],[14.36437,63.06308],[14.35402,63.05469],[14.33688,63.04942],[14.33498,63.04955],[14.33422,63.04934],[14.33291,63.04969],[14.33241,63.04965],[14.33224,63.04936],[14.33001,63.05008],[14.32813,63.04997],[14.3274,63.05048],[14.32667,63.05066],[14.32546,63.05056],[14.32383,63.04966],[14.32176,63.04983],[14.3174,63.04954],[14.30303,63.0527],[14.28689,63.05565],[14.26293,63.04888],[14.2472,63.04355],[14.25162,63.0409],[14.22992,63.03526],[14.22733,63.03684],[14.2063,63.02973],[14.20579,63.03095],[14.20382,63.03133],[14.20374,63.0326],[14.20333,63.03279],[14.20278,63.03375],[14.20219,63.034],[14.20166,63.0347],[14.2,63.03543],[14.19964,63.03623],[14.19879,63.03637],[14.19891,63.03673],[14.19806,63.03706],[14.19793,63.03758],[14.19736,63.03749],[14.1967,63.03798],[14.19569,63.03796],[14.19415,63.03848],[14.19342,63.03838],[14.1926,63.03859],[14.19184,63.03841],[14.19118,63.03879],[14.1899,63.03873],[14.18922,63.03901],[14.18821,63.03882],[14.18768,63.0395],[14.18646,63.03979],[14.18495,63.03961],[14.18473,63.04018],[14.18398,63.04026],[14.18398,63.04063],[14.18337,63.04062],[14.18362,63.04161],[14.18318,63.04173],[14.18333,63.04208],[14.18262,63.0422],[14.18248,63.0427],[14.18171,63.04283],[14.18186,63.04308],[14.18112,63.04316],[14.18106,63.04345],[14.1796,63.04352],[14.17941,63.04387],[14.1787,63.04409],[14.17606,63.04401],[14.17494,63.04459],[14.17377,63.04436],[14.17312,63.04477],[14.17318,63.04543],[14.172,63.04636],[14.17139,63.04644],[14.13446,63.03914],[14.12298,63.0586],[14.04402,63.05485],[14.01359,63.05231],[13.9368,63.04631],[13.9289,63.05915],[13.93988,63.06148],[13.93915,63.06194],[13.93724,63.06252],[13.93529,63.06264],[13.93398,63.0624],[13.93035,63.06096],[13.92618,63.06018],[13.92143,63.06045],[13.91951,63.06092],[13.91851,63.06085],[13.91511,63.0601],[13.90779,63.05921],[13.9014,63.05777],[13.90026,63.05731],[13.89959,63.05724],[13.89531,63.05769],[13.89405,63.05765],[13.89005,63.05633],[13.8893,63.05628],[13.88441,63.05685],[13.88245,63.05751],[13.8786,63.0575],[13.87684,63.05649],[13.87608,63.05572],[13.87555,63.05563],[13.87357,63.05555],[13.87195,63.0558],[13.87055,63.05625],[13.8695,63.05699],[13.86781,63.05706],[13.86578,63.05741],[13.86169,63.05839],[13.85962,63.05923],[13.85877,63.05983],[13.8574,63.06012],[13.85632,63.05995],[13.85535,63.0596],[13.85463,63.05906],[13.85159,63.05821],[13.85009,63.05817],[13.84759,63.05774],[13.84409,63.05775],[13.84112,63.05731],[13.83972,63.05742],[13.8346,63.05834],[13.83309,63.0584],[13.83109,63.05816],[13.82736,63.05892],[13.82462,63.06025],[13.82343,63.06124],[13.82235,63.06295],[13.82063,63.0643],[13.81995,63.06525],[13.82202,63.06684],[13.82285,63.06848],[13.8242,63.06925],[13.82378,63.06971],[13.82117,63.07108],[13.8213,63.07191],[13.8232,63.07374],[13.82627,63.07503],[13.83018,63.07437],[13.83297,63.07435],[13.83497,63.07367],[13.83661,63.07371],[13.83833,63.07406],[13.84003,63.07468],[13.84498,63.07561],[13.84654,63.07682],[13.84767,63.0772],[13.85065,63.07735],[13.85333,63.07682],[13.8576,63.0766],[13.85849,63.07685],[13.85947,63.07751],[13.85962,63.07858],[13.85909,63.07959],[13.85755,63.08093],[13.85741,63.08167],[13.8564,63.08311],[13.85669,63.08413],[13.85553,63.08707],[13.85521,63.08953],[13.85426,63.09053],[13.85257,63.0917],[13.85165,63.09214],[13.84772,63.09306],[13.84473,63.095],[13.83991,63.09544],[13.83452,63.09651],[13.83117,63.09689],[13.82469,63.0982],[13.82201,63.09838],[13.82122,63.09927],[13.82032,63.09918],[13.81994,63.09837],[13.81882,63.09815],[13.81702,63.0991],[13.81454,63.09885],[13.81326,63.09807],[13.81218,63.09657],[13.81035,63.09629],[13.80761,63.09623],[13.8058,63.09559],[13.80057,63.09527],[13.79944,63.095],[13.79737,63.09409],[13.79505,63.09386],[13.79423,63.0932],[13.79251,63.09294],[13.79171,63.09181],[13.79161,63.09052],[13.79322,63.08851],[13.79429,63.08651],[13.79414,63.08521],[13.79328,63.08442],[13.79031,63.08384],[13.78896,63.08319],[13.78839,63.08241],[13.7858,63.08032],[13.78297,63.07857],[13.7804,63.07831],[13.77489,63.07809],[13.77134,63.07625],[13.76799,63.07518],[13.76574,63.07527],[13.76212,63.07439],[13.76035,63.07434],[13.75884,63.07454],[13.758,63.07409],[13.75741,63.07338],[13.75734,63.07184],[13.75677,63.07142],[13.75583,63.0712],[13.75332,63.0712],[13.75103,63.07028],[13.75,63.07023],[13.74687,63.07054],[13.74471,63.07021],[13.74429,63.07036],[13.74432,63.07096],[13.74306,63.07111],[13.73825,63.07047],[13.73576,63.06981],[13.72119,63.0912],[13.72049,63.09096],[13.71892,63.09161],[13.71649,63.09188],[13.71449,63.09244],[13.71262,63.0924],[13.70961,63.09318],[13.70716,63.09329],[13.70625,63.09387],[13.70403,63.09398],[13.70056,63.09496],[13.70023,63.09511],[13.70025,63.0958],[13.69906,63.09623],[13.69765,63.09634],[13.69621,63.09684],[13.69487,63.09682],[13.69216,63.09754],[13.68975,63.09767],[13.68707,63.09815],[13.68199,63.09802],[13.68047,63.09765],[13.67983,63.09728],[13.67769,63.09732],[13.67594,63.09673],[13.67419,63.0958],[13.67484,63.09481],[13.67404,63.09445],[13.67363,63.09381],[13.67061,63.09271],[13.66602,63.09254],[13.66377,63.09179],[13.66272,63.09188],[13.66204,63.09227],[13.66162,63.09227],[13.65761,63.09148],[13.65459,63.09137],[13.65171,63.09103],[13.6495,63.09128],[13.64744,63.09114],[13.64497,63.09158],[13.64165,63.09173],[13.636,63.0915],[13.62787,63.0918],[13.62659,63.09157],[13.61834,63.09165],[13.61522,63.09144],[13.60637,63.09176],[13.60173,63.09115],[13.59074,63.09075],[13.5889,63.08983],[13.58741,63.08959],[13.58674,63.08969],[13.58634,63.09039],[13.58369,63.09186],[13.58319,63.09242],[13.56786,63.09332],[13.56457,63.09212],[13.5522,63.08945],[13.54559,63.08823],[13.53543,63.08781],[13.5348,63.08643],[13.53337,63.08543],[13.53049,63.08499],[13.52855,63.0845],[13.52815,63.08395],[13.52884,63.08219],[13.5259,63.08197],[13.52548,63.08167],[13.52078,63.08052],[13.51682,63.07927],[13.50527,63.07745],[13.5011,63.07527],[13.50027,63.07293],[13.50016,63.07133],[13.50058,63.07051],[13.50125,63.07011],[13.50549,63.06968],[13.51298,63.0701],[13.51406,63.07045],[13.51431,63.07095],[13.51493,63.0711],[13.5171,63.07138],[13.51845,63.0718],[13.51996,63.07182],[13.52001,63.07114],[13.51831,63.06964],[13.51775,63.06845],[13.5169,63.06811],[13.51222,63.06738],[13.50716,63.06632],[13.50482,63.06615],[13.50391,63.06652],[13.50287,63.06659],[13.50161,63.06602],[13.49665,63.06519],[13.49384,63.06408],[13.48971,63.06382],[13.48755,63.06335],[13.48582,63.06263],[13.48227,63.06281],[13.48179,63.0624],[13.48169,63.06123],[13.48048,63.06033],[13.48141,63.05951],[13.48212,63.05933],[13.48236,63.05835],[13.48034,63.05658],[13.46818,63.05811],[13.46611,63.05973],[13.44115,63.06271],[13.43557,63.06429],[13.43327,63.06529],[13.43347,63.06609],[13.43501,63.06674],[13.43513,63.0687],[13.4135,63.08271],[13.42831,63.10054],[13.47246,63.15235],[13.48096,63.15562],[13.49528,63.15349],[13.52001,63.14368],[13.55262,63.14793],[13.57084,63.1556],[13.60993,63.15516],[13.61215,63.15688],[13.6131,63.15676],[13.61513,63.15718],[13.61757,63.15731],[13.61904,63.15725],[13.62122,63.15676],[13.6248,63.15522],[13.63222,63.1583],[13.64067,63.15764],[13.658,63.16266],[13.67665,63.1537],[13.68205,63.15533],[13.67145,63.17114],[13.6721,63.17133],[13.6739,63.17101],[13.67529,63.17045],[13.68137,63.16936],[13.68355,63.16914],[13.68516,63.16852],[13.68541,63.16803],[13.68697,63.16683],[13.68642,63.16622],[13.68772,63.16468],[13.68861,63.16295],[13.69112,63.15525],[13.72162,63.16107],[13.72035,63.16197],[13.77269,63.18055],[13.81851,63.20186],[13.82872,63.19751],[13.90226,63.22297],[13.8898,63.23122],[13.89163,63.23058],[13.89283,63.23076],[13.89454,63.22914],[13.89645,63.22992],[13.8963,63.22951],[13.89694,63.22918],[13.89526,63.22854],[13.89598,63.228],[13.89693,63.22774],[13.90041,63.23048],[13.89875,63.23103],[13.90525,63.23634],[13.90337,63.23671],[13.90038,63.23618],[13.89856,63.23656],[13.92014,63.2601],[13.93102,63.26491],[13.94407,63.26147],[13.95342,63.25857],[13.95313,63.25834],[13.95502,63.25767],[13.94744,63.25424],[13.95189,63.25312],[13.95434,63.25327],[13.95807,63.25558],[13.95566,63.2572],[13.98736,63.27993],[13.99351,63.27889],[13.99926,63.27884],[14.00243,63.27946],[14.01167,63.27797],[14.03256,63.27106],[14.03846,63.27202],[14.04181,63.27321],[14.04249,63.27328],[14.04318,63.27303],[14.0446,63.27312],[14.04537,63.27345],[14.04592,63.27426],[14.04823,63.27483],[14.04849,63.27516],[14.04913,63.27515],[14.04868,63.27611],[14.05159,63.27707],[14.04992,63.2798],[14.05168,63.27976],[14.05443,63.28213],[14.06548,63.28165],[14.07745,63.28228],[14.0884,63.28791],[14.11221,63.28264]]]}},{"type":"Feature","id":"2321R006","properties":{"code":"2321R006","name":"Södra Årefjällen"},"geometry":{"type":"Polygon","coordinates":[[[13.31709,63.4003],[13.32097,63.39642],[13.32619,63.3891],[13.32711,63.38416],[13.34604,63.37642],[13.36897,63.36301],[13.36897,63.36043],[13.37524,63.35591],[13.40098,63.35278],[13.4061,63.35158],[13.41469,63.34752],[13.40594,63.33504],[13.40707,63.33454],[13.40791,63.33254],[13.409,63.33169],[13.41286,63.33138],[13.41465,63.32881],[13.4132,63.32808],[13.41313,63.32739],[13.42226,63.3226],[13.43157,63.32073],[13.44584,63.32344],[13.44615,63.32427],[13.42733,63.32991],[13.42704,63.33237],[13.42737,63.33423],[13.42964,63.33511],[13.43471,63.33529],[13.44022,63.33434],[13.44594,63.3315],[13.45027,63.32783],[13.46261,63.33141],[13.48615,63.33182],[13.4884,63.33114],[13.48271,63.32379],[13.51954,63.26642],[13.58598,63.27326],[13.57181,63.22621],[13.56707,63.22643],[13.56577,63.22547],[13.55829,63.22332],[13.55828,63.2217],[13.55308,63.21515],[13.54981,63.21436],[13.54302,63.21418],[13.53745,63.21277],[13.53262,63.21319],[13.52654,63.21407],[13.51827,63.21707],[13.5136,63.22002],[13.51502,63.22412],[13.51236,63.22528],[13.50983,63.22569],[13.5087,63.22614],[13.50748,63.22625],[13.50626,63.22666],[13.49373,63.23457],[13.49161,63.18841],[13.48818,63.182],[13.48742,63.18237],[13.48585,63.18228],[13.48491,63.18243],[13.48246,63.18168],[13.48225,63.18136],[13.48131,63.18133],[13.47713,63.18207],[13.47477,63.18285],[13.47448,63.18267],[13.47307,63.18252],[13.47343,63.18169],[13.47441,63.18083],[13.47397,63.18019],[13.47173,63.1801],[13.47115,63.18029],[13.4701,63.18006],[13.46974,63.18023],[13.46842,63.1803],[13.4653,63.18028],[13.46314,63.18064],[13.4601,63.18204],[13.45922,63.1837],[13.45806,63.18446],[13.45673,63.18477],[13.45561,63.18481],[13.45329,63.18538],[13.44802,63.18581],[13.44745,63.18597],[13.44684,63.1868],[13.44582,63.18738],[13.44513,63.18743],[13.44254,63.18665],[13.44344,63.18218],[13.4389,63.17544],[13.4226,63.17285],[13.44975,63.16118],[13.45791,63.15978],[13.47604,63.15908],[13.47246,63.15235],[13.42831,63.10054],[13.4135,63.08271],[13.43513,63.0687],[13.43501,63.06674],[13.43347,63.06609],[13.43327,63.06529],[13.43557,63.06429],[13.44115,63.06271],[13.4321,63.0603],[13.43164,63.05995],[13.43218,63.05937],[13.43152,63.05906],[13.42961,63.05876],[13.42841,63.05889],[13.42764,63.05838],[13.42528,63.05861],[13.42396,63.05828],[13.42358,63.05855],[13.42285,63.05856],[13.42198,63.05701],[13.4202,63.05646],[13.41919,63.05533],[13.41713,63.05488],[13.41274,63.05336],[13.41426,63.05301],[13.41425,63.05227],[13.41343,63.05071],[13.41274,63.05012],[13.41309,63.04894],[13.41158,63.0477],[13.41086,63.04745],[13.411,63.04676],[13.41032,63.0458],[13.40978,63.04563],[13.40922,63.04575],[13.40895,63.04616],[13.40918,63.04677],[13.40766,63.0479],[13.40763,63.04831],[13.407,63.04845],[13.40653,63.04824],[13.40699,63.04735],[13.40683,63.04613],[13.40563,63.04491],[13.4024,63.04427],[13.4008,63.04371],[13.39917,63.04378],[13.39811,63.04314],[13.3972,63.04296],[13.39664,63.04237],[13.39308,63.0407],[13.3907,63.03924],[13.38956,63.03779],[13.38613,63.03487],[13.3827,63.03456],[13.38189,63.03385],[13.37972,63.03368],[13.37828,63.03391],[13.3774,63.03337],[13.37667,63.03333],[13.37469,63.03349],[13.37242,63.03273],[13.37133,63.0326],[13.37042,63.03265],[13.36977,63.03316],[13.37027,63.03376],[13.3694,63.03377],[13.36742,63.03334],[13.36569,63.03194],[13.36363,63.03159],[13.36319,63.03103],[13.36259,63.03081],[13.35188,63.02712],[13.35191,63.02663],[13.35032,63.02627],[13.35137,63.02579],[13.35119,63.02514],[13.34897,63.02511],[13.34806,63.0257],[13.34698,63.02594],[13.34639,63.02657],[13.34523,63.02716],[13.34429,63.02742],[13.34282,63.02714],[13.34278,63.02664],[13.34191,63.0259],[13.3408,63.02589],[13.33968,63.02611],[13.33685,63.02562],[13.33568,63.02493],[13.33615,63.0248],[13.33607,63.0246],[13.33452,63.02458],[13.33215,63.02326],[13.32944,63.0234],[13.32907,63.02306],[13.32956,63.02274],[13.32904,63.02256],[13.32557,63.02372],[13.3259,63.02449],[13.32492,63.02471],[13.32436,63.02468],[13.32315,63.02409],[13.32147,63.02446],[13.32055,63.02438],[13.31857,63.0237],[13.31665,63.02356],[13.31478,63.02384],[13.31374,63.02377],[13.31068,63.02284],[13.30904,63.02298],[13.30813,63.02383],[13.30704,63.02374],[13.30605,63.0233],[13.30426,63.02289],[13.30168,63.0228],[13.30078,63.02323],[13.29958,63.02337],[13.29778,63.02411],[13.29247,63.02506],[13.29143,63.02582],[13.29137,63.02679],[13.2895,63.02716],[13.28844,63.02837],[13.28715,63.02835],[13.28597,63.02804],[13.2835,63.02817],[13.28233,63.02932],[13.27912,63.02979],[13.27661,63.03079],[13.27468,63.03007],[13.27407,63.03011],[13.27082,63.03129],[13.27049,63.03158],[13.2709,63.0321],[13.27075,63.03237],[13.26934,63.03254],[13.26868,63.03294],[13.26697,63.03342],[13.2648,63.03373],[13.26368,63.03379],[13.26187,63.03352],[13.26069,63.03311],[13.25817,63.03353],[13.25757,63.03225],[13.25695,63.03188],[13.25414,63.0321],[13.25282,63.03275],[13.25171,63.0326],[13.25069,63.03213],[13.24873,63.03204],[13.24708,63.03285],[13.24451,63.03373],[13.24424,63.03461],[13.24307,63.03509],[13.24084,63.03464],[13.23731,63.03429],[13.23641,63.03395],[13.23366,63.03445],[13.2328,63.03521],[13.23218,63.03517],[13.23156,63.03484],[13.23041,63.0349],[13.23027,63.03547],[13.22992,63.03555],[13.22751,63.0352],[13.22492,63.03516],[13.22433,63.03452],[13.22249,63.03444],[13.22171,63.03509],[13.22124,63.03528],[13.22061,63.03525],[13.21939,63.03453],[13.21721,63.03414],[13.21685,63.0339],[13.21662,63.0334],[13.21694,63.03298],[13.21632,63.03272],[13.21647,63.03194],[13.21578,63.03155],[13.21575,63.03019],[13.21499,63.02978],[13.21471,63.02917],[13.21607,63.02749],[13.21473,63.02602],[13.21261,63.02486],[13.21125,63.02478],[13.20911,63.02336],[13.20646,63.02277],[13.20375,63.02161],[13.20061,63.02101],[13.19758,63.01994],[13.1962,63.01914],[13.19566,63.01832],[13.19332,63.0184],[13.1915,63.01873],[13.1915,63.01825],[13.18986,63.01831],[13.18984,63.01797],[13.18869,63.01729],[13.18775,63.01727],[13.17608,63.01457],[13.1716,63.00741],[13.09494,62.97203],[12.84685,62.9728],[12.66043,62.97336],[12.07469,62.90255],[12.17042,62.96741],[12.21823,63.00033],[12.14129,63.08631],[12.07277,63.16104],[12.0242,63.21452],[12.08696,63.1645],[12.33512,63.22724],[12.45918,63.20163],[12.62825,63.19368],[12.68065,63.22588],[12.70919,63.22079],[12.75901,63.22603],[12.79679,63.24731],[12.80685,63.26722],[12.81262,63.27763],[12.83246,63.29731],[12.83914,63.3031],[12.89257,63.31282],[12.96855,63.33824],[13.05366,63.34325],[13.0991,63.32916],[13.15997,63.32378],[13.21156,63.31946],[13.21313,63.3191],[13.21394,63.31832],[13.21945,63.32154],[13.23464,63.33125],[13.23587,63.33018],[13.23747,63.33095],[13.2358,63.3326],[13.26,63.36129],[13.25861,63.36106],[13.25751,63.36118],[13.25687,63.36089],[13.25707,63.36049],[13.25759,63.3603],[13.2574,63.3599],[13.25537,63.35973],[13.25437,63.35982],[13.26221,63.36954],[13.26612,63.36888],[13.28916,63.39704],[13.31092,63.40526],[13.31709,63.4003]]]}},{"type":"Feature","id":"2321R007","properties":{"code":"2321R007","name":"Åre"},"geometry":{"type":"Polygon","coordinates":[[[13.05554,63.41175],[13.06286,63.41129],[13.06692,63.41082],[13.07231,63.41064],[13.07872,63.41003],[13.08272,63.40943],[13.08591,63.41031],[13.08892,63.41068],[13.09351,63.4107],[13.09792,63.41022],[13.10128,63.40934],[13.10423,63.40776],[13.10523,63.40673],[13.1058,63.40537],[13.1056,63.40399],[13.10459,63.40263],[13.10754,63.40103],[13.10926,63.39896],[13.11015,63.39848],[13.11385,63.39727],[13.11663,63.39534],[13.11803,63.39598],[13.12142,63.39836],[13.1244,63.39958],[13.12758,63.40038],[13.13058,63.40084],[13.13304,63.40096],[13.13619,63.4008],[13.13986,63.4001],[13.14357,63.3988],[13.14698,63.39864],[13.15065,63.39795],[13.15366,63.39678],[13.1555,63.39547],[13.15931,63.39488],[13.16303,63.39356],[13.16631,63.3929],[13.17081,63.39104],[13.17521,63.39094],[13.17936,63.39035],[13.18148,63.3898],[13.18386,63.3888],[13.18745,63.38774],[13.18976,63.38649],[13.19135,63.38483],[13.19179,63.3832],[13.19113,63.38142],[13.18972,63.3801],[13.18747,63.3789],[13.17768,63.37559],[13.18055,63.37328],[13.18297,63.37225],[13.18476,63.37112],[13.18633,63.3695],[13.18717,63.36766],[13.19006,63.36725],[13.19777,63.36555],[13.20031,63.36448],[13.20236,63.36294],[13.20322,63.36142],[13.2032,63.35985],[13.20237,63.35844],[13.20108,63.35735],[13.20303,63.35565],[13.20363,63.35343],[13.20265,63.35159],[13.20005,63.34979],[13.19723,63.34877],[13.19413,63.34809],[13.19096,63.34775],[13.18846,63.34774],[13.18435,63.3482],[13.18154,63.34894],[13.17976,63.34968],[13.17498,63.34999],[13.17084,63.35107],[13.17028,63.3513],[13.16383,63.35941],[13.15461,63.36332],[13.1499,63.37167],[13.12083,63.38143],[13.09599,63.38618],[13.08692,63.39069],[13.05934,63.39538],[13.04211,63.39733],[13.04032,63.4032],[13.04119,63.40549],[13.0404,63.40555],[13.04038,63.40573],[13.04189,63.40578],[13.04501,63.41125],[13.04846,63.4115],[13.0512,63.41138],[13.05554,63.41175]]]}}]}