{"type":"FeatureCollection","features":[{"type":"Feature","id":"2361R001","properties":{"code":"2361R001","name":"Funäsdalen"},"geometry":{"type":"Polygon","coordinates":[[[12.56352,62.56122],[12.56755,62.56085],[12.57093,62.55997],[12.57535,62.55945],[12.5782,62.55865],[12.5812,62.55715],[12.58281,62.55601],[12.58388,62.55455],[12.5841,62.55311],[12.58296,62.55103],[12.58051,62.54943],[12.58085,62.54816],[12.58063,62.54693],[12.57998,62.54584],[12.57889,62.54484],[12.58074,62.54328],[12.58161,62.54154],[12.58143,62.53784],[12.58036,62.53613],[12.57868,62.53491],[12.57597,62.53373],[12.572,62.53286],[12.5693,62.53194],[12.56697,62.5315],[12.56409,62.53024],[12.56133,62.52955],[12.55761,62.52918],[12.55448,62.52928],[12.55155,62.52974],[12.54787,62.53085],[12.54307,62.53302],[12.53954,62.5352],[12.53455,62.53737],[12.53301,62.53854],[12.53128,62.54068],[12.52873,62.54064],[12.5265,62.54081],[12.52324,62.54131],[12.51931,62.54223],[12.51457,62.5425],[12.51082,62.54327],[12.50817,62.54322],[12.50593,62.5434],[12.49546,62.54243],[12.49158,62.54261],[12.48845,62.5432],[12.48592,62.54408],[12.48394,62.54523],[12.48235,62.54676],[12.48121,62.54855],[12.48107,62.55011],[12.48254,62.55258],[12.48397,62.5539],[12.48726,62.55542],[12.49007,62.55607],[12.49308,62.55637],[12.49575,62.55784],[12.49976,62.55892],[12.50306,62.55925],[12.50696,62.55912],[12.51014,62.55857],[12.51358,62.55745],[12.51536,62.55746],[12.52227,62.5584],[12.52677,62.55832],[12.53658,62.55659],[12.53899,62.55571],[12.54226,62.55392],[12.54407,62.55354],[12.54451,62.55468],[12.5454,62.55574],[12.54835,62.55751],[12.55134,62.55842],[12.55383,62.55955],[12.5573,62.56059],[12.56035,62.56109],[12.56352,62.56122]]]}},{"type":"Feature","id":"2361R002","properties":{"code":"2361R002","name":"Hede"},"geometry":{"type":"Polygon","coordinates":[[[13.522,62.43636],[13.52423,62.4362],[13.5272,62.43567],[13.52962,62.43486],[13.53113,62.43407],[13.53407,62.43398],[13.53704,62.43354],[13.53906,62.43299],[13.54143,62.43204],[13.54323,62.43089],[13.54442,62.42942],[13.54754,62.42831],[13.55043,62.42652],[13.55134,62.42553],[13.55324,62.42232],[13.55683,62.42023],[13.55778,62.4192],[13.55835,62.41776],[13.55788,62.41579],[13.55575,62.41378],[13.55355,62.41273],[13.55084,62.41196],[13.54915,62.41012],[13.54598,62.4085],[13.54498,62.40744],[13.54322,62.4063],[13.53766,62.40429],[13.53698,62.40265],[13.5357,62.40126],[13.53708,62.39986],[13.5377,62.39827],[13.5373,62.39648],[13.53603,62.39503],[13.53413,62.39387],[13.53167,62.39295],[13.52858,62.39232],[13.52534,62.39207],[13.52219,62.39219],[13.51441,62.39317],[13.51172,62.39391],[13.50909,62.39521],[13.50603,62.39775],[13.50517,62.39914],[13.50504,62.40021],[13.50589,62.40468],[13.50418,62.40526],[13.50163,62.40501],[13.49938,62.405],[13.49507,62.40558],[13.49206,62.40659],[13.48977,62.40778],[13.48844,62.40879],[13.48546,62.40958],[13.48287,62.41066],[13.47857,62.41158],[13.47481,62.41191],[13.47202,62.41256],[13.46972,62.4135],[13.46801,62.41459],[13.46678,62.41592],[13.46632,62.41733],[13.46655,62.41904],[13.46779,62.42072],[13.47062,62.42281],[13.47454,62.42475],[13.47817,62.42562],[13.48178,62.42592],[13.4856,62.42706],[13.48936,62.42747],[13.49258,62.42742],[13.49555,62.42708],[13.49768,62.42658],[13.50055,62.42556],[13.50123,62.42581],[13.49928,62.42763],[13.49888,62.42977],[13.49988,62.43149],[13.50199,62.43299],[13.50542,62.43432],[13.5104,62.43545],[13.51259,62.43568],[13.51547,62.4357],[13.51902,62.43626],[13.522,62.43636]]]}},{"type":"Feature","id":"2361R003","properties":{"code":"2361R003","name":"Härjedalen västra"},"geometry":{"type":"Polygon","coordinates":[[[12.51605,62.75445],[12.59016,62.73456],[12.59046,62.73338],[12.59084,62.73311],[12.63726,62.70669],[12.67795,62.70675],[12.7813,62.7064],[12.85922,62.69477],[12.89748,62.67741],[12.89675,62.71301],[12.97253,62.74351],[13.04698,62.71075],[13.02003,62.68046],[13.01006,62.65089],[12.91095,62.63732],[12.9162,62.63146],[12.92518,62.62221],[12.91649,62.61198],[12.91011,62.58636],[12.93694,62.51921],[12.90363,62.50459],[12.87495,62.48706],[12.9486,62.4779],[12.92847,62.44174],[12.99015,62.40507],[12.99423,62.40512],[13.0008,62.40612],[13.00238,62.40701],[13.03174,62.41074],[13.013,62.32213],[13.06786,62.25622],[13.05673,62.23559],[13.08709,62.20705],[12.98992,62.21712],[12.84379,62.18987],[12.83971,62.19356],[12.80655,62.2202],[12.77545,62.21937],[12.72871,62.21783],[12.60781,62.21478],[12.35054,62.25662],[12.29937,62.2675],[12.20494,62.40112],[12.1653,62.45765],[12.14132,62.49081],[12.10551,62.54108],[12.05614,62.61192],[12.13638,62.74792],[12.28112,62.75436],[12.44491,62.762],[12.4921,62.76472],[12.51605,62.75445]],[[12.56203,62.56121],[12.55963,62.56101],[12.55665,62.56043],[12.55365,62.55948],[12.55134,62.55842],[12.54835,62.55751],[12.5454,62.55574],[12.54451,62.55468],[12.54407,62.55354],[12.54226,62.55392],[12.53899,62.55571],[12.53658,62.55659],[12.52677,62.55832],[12.52227,62.5584],[12.51536,62.55746],[12.51358,62.55745],[12.51014,62.55857],[12.50623,62.55919],[12.50232,62.55921],[12.49906,62.5588],[12.49559,62.55777],[12.49308,62.55637],[12.49077,62.55617],[12.48794,62.55561],[12.4855,62.55475],[12.48397,62.5539],[12.48254,62.55258],[12.48107,62.55011],[12.48121,62.54855],[12.48235,62.54676],[12.48394,62.54523],[12.48592,62.54408],[12.48845,62.5432],[12.49158,62.54261],[12.49546,62.54243],[12.50593,62.5434],[12.50817,62.54322],[12.51082,62.54327],[12.51457,62.5425],[12.51931,62.54223],[12.52324,62.54131],[12.5265,62.54081],[12.52873,62.54064],[12.53128,62.54068],[12.53301,62.53854],[12.53455,62.53737],[12.53954,62.5352],[12.54307,62.53302],[12.54844,62.53064],[12.55155,62.52974],[12.55448,62.52928],[12.55835,62.52921],[12.56139,62.52956],[12.56409,62.53024],[12.56697,62.5315],[12.5693,62.53194],[12.572,62.53286],[12.57597,62.53373],[12.57868,62.53491],[12.58036,62.53613],[12.58143,62.53784],[12.58161,62.54154],[12.58074,62.54328],[12.57889,62.54484],[12.57998,62.54584],[12.58063,62.54693],[12.58085,62.54816],[12.58051,62.54943],[12.58219,62.55039],[12.58326,62.55135],[12.58412,62.55346],[12.58371,62.55489],[12.58247,62.55631],[12.5782,62.55865],[12.57535,62.55945],[12.57093,62.55997],[12.56755,62.56085],[12.5652,62.56114],[12.56203,62.56121]]]}},{"type":"Feature","id":"2361R004","properties":{"code":"2361R004","name":"Härjedalen östra"},"geometry":{"type":"Polygon","coordinates":[[[14.80123,62.40406],[14.83803,62.40301],[14.87514,62.40225],[14.86528,62.39078],[14.89694,62.35658],[14.93951,62.32033],[15.00094,62.30003],[15.01401,62.29592],[15.06902,62.27786],[15.15264,62.24998],[15.25376,62.28271],[15.2846,62.29295],[15.32612,62.27199],[15.34875,62.22496],[15.35674,62.21362],[15.39924,62.19484],[15.40143,62.18325],[15.42925,62.1449],[15.42218,62.12461],[15.41715,62.11139],[15.34017,62.09127],[15.26195,62.05734],[15.23289,62.0464],[15.21194,62.0394],[15.21202,62.03901],[15.20948,62.03769],[15.20784,62.03826],[15.09214,61.99685],[15.10951,61.96648],[15.11056,61.95683],[15.14062,61.95218],[15.11247,61.93546],[15.11589,61.89444],[15.08544,61.89617],[15.08789,61.89278],[15.10863,61.84397],[15.0918,61.81912],[15.04758,61.82388],[15.04496,61.86801],[14.92847,61.87707],[14.90938,61.88054],[14.90487,61.87932],[14.92182,61.84195],[14.92785,61.82131],[14.86537,61.80899],[14.86313,61.82738],[14.80584,61.8862],[14.76089,61.86414],[14.80934,61.8182],[14.84169,61.8042],[14.85628,61.78359],[14.85166,61.78471],[14.84834,61.78574],[14.84159,61.78722],[14.83935,61.78821],[14.83385,61.78932],[14.8286,61.79094],[14.82765,61.79033],[14.8153,61.79274],[14.80305,61.79557],[14.78698,61.80424],[14.78524,61.80465],[14.78509,61.80542],[14.77201,61.81532],[14.76929,61.81606],[14.76824,61.81669],[14.76799,61.81787],[14.76567,61.81926],[14.76268,61.82056],[14.76217,61.82124],[14.7639,61.823],[14.75276,61.83179],[14.74987,61.83436],[14.74501,61.83798],[14.74357,61.83987],[14.74319,61.84114],[14.74031,61.84184],[14.73929,61.84255],[14.73796,61.84281],[14.73786,61.84372],[14.73694,61.84533],[14.73564,61.84613],[14.73572,61.84718],[14.73364,61.84949],[14.72887,61.85281],[14.72789,61.85496],[14.72013,61.86134],[14.71938,61.86164],[14.71775,61.86324],[14.71786,61.86404],[14.71706,61.86465],[14.71685,61.86529],[14.71573,61.86596],[14.71525,61.86707],[14.71473,61.86729],[14.71212,61.86997],[14.71084,61.87062],[14.71023,61.87149],[14.70907,61.87221],[14.70492,61.87607],[14.70141,61.87642],[14.69874,61.87949],[14.70028,61.88047],[14.69905,61.8819],[14.69967,61.88291],[14.69959,61.88481],[14.69751,61.88575],[14.69797,61.88697],[14.69627,61.88921],[14.69141,61.8944],[14.69099,61.89763],[14.68638,61.90162],[14.67294,61.89662],[14.60655,61.84414],[14.60418,61.84907],[14.60243,61.84927],[14.59976,61.85269],[14.5856,61.88147],[14.59613,61.94763],[14.58724,61.9683],[14.57304,62.00419],[14.54661,62.01489],[14.53475,62.04065],[14.53494,62.05003],[14.53677,62.05011],[14.53859,62.05044],[14.53968,62.05031],[14.54046,62.05118],[14.53926,62.05142],[14.53734,62.0511],[14.53579,62.0511],[14.53273,62.0514],[14.53027,62.05296],[14.54985,62.07389],[14.55096,62.0777],[14.56677,62.08414],[14.56766,62.08339],[14.56894,62.08279],[14.57059,62.08225],[14.57072,62.08237],[14.56864,62.08322],[14.5654,62.08608],[14.56431,62.08617],[14.56296,62.0874],[14.56231,62.08746],[14.55988,62.08713],[14.55779,62.08772],[14.55816,62.0886],[14.55789,62.08891],[14.55582,62.08999],[14.55517,62.08996],[14.55392,62.09032],[14.55285,62.0915],[14.55365,62.09269],[14.55465,62.093],[14.5549,62.0934],[14.55382,62.09474],[14.55154,62.09575],[14.55039,62.09669],[14.54861,62.09739],[14.54736,62.09734],[14.54628,62.09756],[14.54427,62.09869],[14.54165,62.10262],[14.54013,62.10325],[14.53996,62.1038],[14.53927,62.10437],[14.53809,62.10466],[14.53828,62.10512],[14.53928,62.10532],[14.53858,62.10635],[14.53692,62.10653],[14.53672,62.10686],[14.5358,62.10708],[14.53431,62.10827],[14.53505,62.10978],[14.53443,62.11031],[14.53517,62.11055],[14.53496,62.11206],[14.53662,62.11228],[14.53568,62.11328],[14.53474,62.11361],[14.53451,62.11397],[14.53236,62.11461],[14.53085,62.11564],[14.53064,62.11644],[14.53173,62.11735],[14.53123,62.11785],[14.53107,62.11958],[14.53161,62.12009],[14.53255,62.12044],[14.53246,62.121],[14.53082,62.12154],[14.52836,62.12174],[14.5276,62.12232],[14.53172,62.12431],[14.53412,62.12514],[14.53485,62.12587],[14.53606,62.1261],[14.53769,62.12744],[14.54152,62.12877],[14.54233,62.12974],[14.54225,62.13034],[14.54174,62.13076],[14.54211,62.13151],[14.5415,62.13247],[14.54189,62.13308],[14.54071,62.13382],[14.53973,62.13528],[14.54116,62.13688],[14.54075,62.13828],[14.54133,62.13912],[14.54028,62.14166],[14.539,62.14309],[14.53471,62.14523],[14.53415,62.14585],[14.53418,62.14641],[14.53269,62.14756],[14.53375,62.14934],[14.54557,62.21188],[14.53775,62.21217],[14.53808,62.21359],[14.54584,62.21331],[14.55728,62.27313],[14.55576,62.28076],[14.64765,62.32331],[14.66581,62.33136],[14.66581,62.33091],[14.66748,62.33046],[14.66709,62.33105],[14.66591,62.3314],[14.66677,62.33181],[14.6673,62.33144],[14.66774,62.33163],[14.66745,62.33213],[14.69944,62.3472],[14.72654,62.35866],[14.73834,62.3696],[14.78067,62.39306],[14.80123,62.40406]]]}},{"type":"Feature","id":"2361R005","properties":{"code":"2361R005","name":"Sveg"},"geometry":{"type":"Polygon","coordinates":[[[14.36125,62.04789],[14.36488,62.04663],[14.36707,62.0477],[14.36986,62.04853],[14.37445,62.04909],[14.37821,62.04983],[14.38487,62.05003],[14.38929,62.04948],[14.39187,62.04868],[14.39431,62.04735],[14.39558,62.04603],[14.3961,62.04459],[14.39862,62.04416],[14.40066,62.04358],[14.40385,62.04192],[14.4056,62.0397],[14.40572,62.03731],[14.40448,62.03527],[14.40222,62.0338],[14.39914,62.03276],[14.39329,62.03162],[14.39505,62.03057],[14.3963,62.02927],[14.39674,62.02825],[14.39668,62.02686],[14.39614,62.02585],[14.39415,62.02363],[14.38969,62.02069],[14.38619,62.01942],[14.38412,62.01904],[14.38098,62.01874],[14.37815,62.01808],[14.37635,62.01701],[14.37449,62.01629],[14.37023,62.01543],[14.36724,62.0136],[14.36458,62.01261],[14.36068,62.01189],[14.35685,62.01179],[14.35361,62.01214],[14.35089,62.01276],[14.34859,62.01362],[14.34707,62.0145],[14.34537,62.01643],[14.34517,62.01959],[14.34126,62.01859],[14.33907,62.01826],[14.33678,62.01813],[14.33377,62.01827],[14.33088,62.01878],[14.3284,62.01959],[14.32639,62.02069],[14.32492,62.022],[14.32405,62.02373],[14.32421,62.02518],[14.32548,62.02686],[14.3282,62.02844],[14.32802,62.03025],[14.32891,62.03183],[14.32778,62.03355],[14.32781,62.03546],[14.32684,62.03661],[14.32645,62.03768],[14.32672,62.03963],[14.32782,62.04116],[14.3274,62.0423],[14.32745,62.04353],[14.32849,62.04526],[14.33117,62.04738],[14.33321,62.04944],[14.3365,62.05089],[14.34077,62.05168],[14.34458,62.05173],[14.35068,62.05101],[14.35394,62.05008],[14.35673,62.04847],[14.36125,62.04789]]]}},{"type":"Feature","id":"2361R006","properties":{"code":"2361R006","name":"Sveg omland"},"geometry":{"type":"Polygon","coordinates":[[[14.34018,62.30344],[14.39139,62.30231],[14.43555,62.30296],[14.43636,62.30279],[14.43689,62.30243],[14.43794,62.30236],[14.43867,62.30181],[14.43866,62.30149],[14.43973,62.3012],[14.44049,62.30048],[14.44318,62.29964],[14.44371,62.29878],[14.44508,62.29793],[14.44504,62.2974],[14.44649,62.29736],[14.44717,62.29654],[14.44666,62.29596],[14.44674,62.29542],[14.44835,62.29424],[14.44844,62.29307],[14.44968,62.29245],[14.45018,62.29162],[14.45402,62.29579],[14.46429,62.30478],[14.55576,62.28076],[14.55728,62.27313],[14.54584,62.21331],[14.53808,62.21359],[14.53775,62.21217],[14.54557,62.21188],[14.53375,62.14934],[14.53269,62.14756],[14.53418,62.14641],[14.53415,62.14585],[14.53471,62.14523],[14.539,62.14309],[14.54028,62.14166],[14.54133,62.13912],[14.54075,62.13828],[14.54116,62.13688],[14.53973,62.13528],[14.54071,62.13382],[14.54189,62.13308],[14.5415,62.13247],[14.54211,62.13151],[14.54174,62.13076],[14.54225,62.13034],[14.54233,62.12974],[14.54152,62.12877],[14.53769,62.12744],[14.53606,62.1261],[14.53485,62.12587],[14.53412,62.12514],[14.53172,62.12431],[14.5276,62.12232],[14.52836,62.12174],[14.53082,62.12154],[14.53246,62.121],[14.53255,62.12044],[14.53161,62.12009],[14.53107,62.11958],[14.53123,62.11785],[14.53173,62.11735],[14.53064,62.11644],[14.53085,62.11564],[14.53236,62.11461],[14.53451,62.11397],[14.53474,62.11361],[14.53568,62.11328],[14.53662,62.11228],[14.53496,62.11206],[14.53517,62.11055],[14.53443,62.11031],[14.53505,62.10978],[14.53431,62.10827],[14.5358,62.10708],[14.53672,62.10686],[14.53692,62.10653],[14.53858,62.10635],[14.53928,62.10532],[14.53828,62.10512],[14.53809,62.10466],[14.53927,62.10437],[14.53996,62.1038],[14.54013,62.10325],[14.54165,62.10262],[14.54427,62.09869],[14.54628,62.09756],[14.54736,62.09734],[14.54861,62.09739],[14.55039,62.09669],[14.55154,62.09575],[14.55382,62.09474],[14.5549,62.0934],[14.55465,62.093],[14.55365,62.09269],[14.55285,62.0915],[14.55392,62.09032],[14.55517,62.08996],[14.55582,62.08999],[14.55789,62.08891],[14.55816,62.0886],[14.55779,62.08772],[14.55988,62.08713],[14.56231,62.08746],[14.56296,62.0874],[14.56431,62.08617],[14.5654,62.08608],[14.56864,62.08322],[14.57072,62.08237],[14.57059,62.08225],[14.56894,62.08279],[14.56766,62.08339],[14.56677,62.08414],[14.55096,62.0777],[14.54985,62.07389],[14.53027,62.05296],[14.53273,62.0514],[14.53579,62.0511],[14.53734,62.0511],[14.53926,62.05142],[14.54046,62.05118],[14.53968,62.05031],[14.53859,62.05044],[14.53677,62.05011],[14.53494,62.05003],[14.53475,62.04065],[14.54661,62.01489],[14.57304,62.00419],[14.58724,61.9683],[14.59613,61.94763],[14.5856,61.88147],[14.59976,61.85269],[14.60243,61.84927],[14.60418,61.84907],[14.60655,61.84414],[14.5303,61.78381],[14.53009,61.78366],[14.5274,61.78451],[14.52476,61.78459],[14.52474,61.78285],[14.51663,61.73433],[14.5222,61.73417],[14.52091,61.72689],[14.51534,61.72711],[14.51066,61.70006],[14.50254,61.64443],[14.49938,61.62588],[14.41777,61.57747],[14.39458,61.56391],[14.33613,61.59937],[14.28509,61.60825],[14.18221,61.61763],[14.05249,61.61934],[13.97679,61.6214],[13.89795,61.63506],[13.81606,61.64245],[13.75314,61.64158],[13.7297,61.64396],[13.59838,61.65633],[13.55922,61.6435],[13.54105,61.65552],[13.48992,61.68999],[13.49623,61.71349],[13.49712,61.71252],[13.49728,61.71172],[13.49914,61.71074],[13.49933,61.71005],[13.49978,61.70971],[13.49874,61.70922],[13.49813,61.70929],[13.49705,61.70894],[13.49662,61.70696],[13.49762,61.70659],[13.498,61.70563],[13.49734,61.70391],[13.49647,61.70359],[13.49599,61.70305],[13.49618,61.70246],[13.49733,61.702],[13.49962,61.70191],[13.50168,61.7022],[13.50141,61.70264],[13.50233,61.70276],[13.50312,61.70362],[13.50359,61.70361],[13.50421,61.70391],[13.50371,61.70436],[13.50407,61.7047],[13.50499,61.70469],[13.50542,61.70492],[13.50476,61.70532],[13.50556,61.70623],[13.50572,61.7069],[13.5067,61.70695],[13.50731,61.70785],[13.50808,61.70785],[13.50807,61.70754],[13.50851,61.70737],[13.50916,61.70753],[13.50919,61.70804],[13.50825,61.70841],[13.50988,61.70959],[13.51068,61.70976],[13.51115,61.70956],[13.51154,61.70976],[13.49753,61.7183],[13.49822,61.72551],[13.49578,61.72991],[13.44309,61.77358],[13.41317,61.79648],[13.38316,61.83397],[13.33452,61.86572],[13.26132,61.91282],[13.20032,61.9291],[13.23763,61.94201],[13.39193,62.00081],[13.49809,62.00384],[13.55646,62.02002],[13.55479,62.04273],[13.55571,62.04257],[13.55676,62.04275],[13.55795,62.04333],[13.55966,62.04373],[13.56205,62.0433],[13.56382,62.04194],[13.56735,62.0419],[13.5697,62.04119],[13.57689,62.04183],[13.59902,62.0465],[13.65561,62.05501],[13.70938,62.06331],[13.74055,62.06957],[13.76248,62.07018],[13.8471,62.09451],[13.85983,62.08961],[13.95491,62.1266],[13.97531,62.18134],[13.96092,62.20036],[13.95373,62.21037],[13.93692,62.25019],[13.95072,62.25379],[13.95725,62.25125],[14.0289,62.26767],[14.06953,62.27036],[14.07037,62.26924],[14.06972,62.26844],[14.06761,62.26764],[14.0666,62.26691],[14.06442,62.26453],[14.0645,62.26356],[14.06514,62.26284],[14.06515,62.26229],[14.06787,62.26081],[14.06821,62.26041],[14.06879,62.25802],[14.06937,62.25739],[14.07082,62.25692],[14.0712,62.25555],[14.07281,62.25482],[14.07362,62.25375],[14.07551,62.25348],[14.07562,62.25376],[14.07981,62.25154],[14.08103,62.25118],[14.08185,62.25118],[14.08413,62.25197],[14.08548,62.25216],[14.0883,62.25189],[14.0885,62.25166],[14.09206,62.25145],[14.09419,62.25009],[14.09585,62.24952],[14.09747,62.24965],[14.09866,62.24944],[14.10036,62.24883],[14.10187,62.24793],[14.14619,62.27414],[14.23723,62.29351],[14.2396,62.29416],[14.25699,62.30155],[14.25955,62.30156],[14.26023,62.30171],[14.26095,62.30147],[14.26273,62.30193],[14.26489,62.30192],[14.26599,62.30231],[14.26671,62.30205],[14.26732,62.30215],[14.26754,62.30252],[14.26891,62.30241],[14.26968,62.30262],[14.27001,62.30345],[14.27098,62.30348],[14.29895,62.32511],[14.30044,62.32553],[14.30062,62.32592],[14.3,62.3263],[14.30046,62.32686],[14.30033,62.32786],[14.29969,62.32871],[14.29799,62.32911],[14.2978,62.32948],[14.29714,62.32947],[14.29677,62.32964],[14.29691,62.33093],[14.29774,62.33129],[14.34018,62.30344]],[[14.34234,62.05177],[14.33789,62.05125],[14.33417,62.04999],[14.33237,62.04881],[14.33117,62.04738],[14.32796,62.04462],[14.32736,62.04274],[14.32782,62.04116],[14.32672,62.03963],[14.32642,62.03804],[14.32684,62.03661],[14.32781,62.03546],[14.3279,62.03321],[14.32891,62.03183],[14.32802,62.03025],[14.3282,62.02844],[14.32587,62.02717],[14.32437,62.02551],[14.32402,62.0241],[14.32426,62.02303],[14.32525,62.02166],[14.3273,62.02012],[14.32958,62.01915],[14.33232,62.01848],[14.33527,62.01816],[14.33835,62.0182],[14.34126,62.01859],[14.34517,62.01959],[14.34517,62.01712],[14.34554,62.0161],[14.34666,62.01482],[14.34859,62.01362],[14.35089,62.01276],[14.3545,62.012],[14.35757,62.01176],[14.36068,62.01189],[14.36306,62.01225],[14.36579,62.013],[14.36788,62.01393],[14.37023,62.01543],[14.37449,62.01629],[14.37635,62.01701],[14.37815,62.01808],[14.38098,62.01874],[14.38412,62.01904],[14.38619,62.01942],[14.38863,62.02019],[14.39018,62.02097],[14.39424,62.02372],[14.39614,62.02585],[14.39668,62.02686],[14.39674,62.02825],[14.3963,62.02927],[14.39505,62.03057],[14.39329,62.03162],[14.39983,62.03293],[14.40169,62.03357],[14.40369,62.03463],[14.40481,62.0356],[14.40563,62.03697],[14.40579,62.03891],[14.40546,62.04003],[14.40453,62.04131],[14.4029,62.04256],[14.3999,62.04383],[14.3961,62.04459],[14.39558,62.04603],[14.39391,62.04764],[14.39126,62.04892],[14.38858,62.04963],[14.38487,62.05003],[14.37821,62.04983],[14.37445,62.04909],[14.37152,62.04883],[14.36921,62.04838],[14.36703,62.04769],[14.36488,62.04663],[14.36125,62.04789],[14.35673,62.04847],[14.35452,62.04984],[14.35135,62.05087],[14.3467,62.05154],[14.34234,62.05177]]]}},{"type":"Feature","id":"2361R007","properties":{"code":"2361R007","name":"Vemdalen omland"},"geometry":{"type":"Polygon","coordinates":[[[13.42576,62.75963],[13.49699,62.71345],[13.58106,62.69323],[13.63156,62.67261],[13.6868,62.67673],[13.80414,62.71116],[13.80395,62.71144],[13.80528,62.71154],[13.80716,62.71265],[13.8094,62.71293],[13.81073,62.71266],[13.81168,62.71273],[13.81236,62.71333],[13.8114,62.71418],[13.81144,62.7145],[13.81273,62.71517],[13.8131,62.71575],[13.8522,62.68779],[13.87617,62.67112],[13.87078,62.62663],[13.99233,62.61877],[13.975,62.60321],[13.98049,62.58632],[13.97267,62.58561],[13.97082,62.57594],[13.98956,62.57079],[14.0023,62.5774],[14.02083,62.50587],[14.03545,62.49223],[14.04834,62.4942],[14.06843,62.48767],[14.06959,62.47582],[14.06818,62.47525],[14.06711,62.47531],[14.06606,62.47569],[14.06496,62.47539],[14.06411,62.47545],[14.06215,62.47601],[14.06148,62.47695],[14.05815,62.47727],[14.05702,62.47722],[14.05526,62.47827],[14.05543,62.47879],[14.05492,62.47916],[14.05183,62.48001],[14.05016,62.48015],[14.04911,62.48058],[14.04831,62.48156],[14.04702,62.48203],[14.04645,62.48248],[14.04661,62.48325],[14.04524,62.48463],[14.04273,62.48543],[14.08427,62.44708],[14.16933,62.38833],[14.17827,62.38249],[14.21618,62.3588],[14.29698,62.33179],[14.29774,62.33129],[14.29691,62.33093],[14.29677,62.32964],[14.29714,62.32947],[14.2978,62.32948],[14.29799,62.32911],[14.29969,62.32871],[14.3005,62.32707],[14.3,62.3263],[14.30062,62.32592],[14.30021,62.32542],[14.29895,62.32511],[14.27098,62.30348],[14.27001,62.30345],[14.26968,62.30262],[14.26891,62.30241],[14.26754,62.30252],[14.26732,62.30215],[14.26671,62.30205],[14.26599,62.30231],[14.26489,62.30192],[14.26273,62.30193],[14.26095,62.30147],[14.26023,62.30171],[14.25955,62.30156],[14.25699,62.30155],[14.2396,62.29416],[14.23723,62.29351],[14.14619,62.27414],[14.10187,62.24793],[14.10036,62.24883],[14.09866,62.24944],[14.09747,62.24965],[14.09585,62.24952],[14.09419,62.25009],[14.09206,62.25145],[14.0885,62.25166],[14.0883,62.25189],[14.08548,62.25216],[14.08413,62.25197],[14.08185,62.25118],[14.08103,62.25118],[14.07981,62.25154],[14.07562,62.25376],[14.07551,62.25348],[14.07362,62.25375],[14.07281,62.25482],[14.0712,62.25555],[14.07082,62.25692],[14.06937,62.25739],[14.06879,62.25802],[14.06821,62.26041],[14.06787,62.26081],[14.06515,62.26229],[14.06514,62.26284],[14.0645,62.26356],[14.06442,62.26453],[14.0666,62.26691],[14.06761,62.26764],[14.06972,62.26844],[14.07037,62.26924],[14.06953,62.27036],[14.0289,62.26767],[13.95725,62.25125],[13.95072,62.25379],[13.93692,62.25019],[13.95373,62.21037],[13.96092,62.20036],[13.97531,62.18134],[13.95491,62.1266],[13.85983,62.08961],[13.8471,62.09451],[13.76248,62.07018],[13.74055,62.06957],[13.70938,62.06331],[13.65561,62.05501],[13.59902,62.0465],[13.57689,62.04183],[13.5697,62.04119],[13.56735,62.0419],[13.56382,62.04194],[13.56205,62.0433],[13.55966,62.04373],[13.55795,62.04333],[13.55676,62.04275],[13.55571,62.04257],[13.55479,62.04273],[13.55646,62.02002],[13.49809,62.00384],[13.39193,62.00081],[13.29354,62.01162],[13.28614,62.05808],[13.21907,62.04081],[13.19413,62.03195],[13.15868,62.01966],[13.11648,62.04157],[13.04519,62.062],[13.0386,62.07143],[13.00348,62.06576],[12.98136,62.09318],[12.95144,62.13342],[12.90264,62.14185],[12.84379,62.18987],[12.98992,62.21712],[13.08709,62.20705],[13.05673,62.23559],[13.06786,62.25622],[13.013,62.32213],[13.03174,62.41074],[13.00238,62.40701],[13.0008,62.40612],[12.99423,62.40512],[12.99015,62.40507],[12.92847,62.44174],[12.9486,62.4779],[12.87495,62.48706],[12.90363,62.50459],[12.93694,62.51921],[12.91011,62.58636],[12.91649,62.61198],[12.92518,62.62221],[12.9162,62.63146],[12.91095,62.63732],[13.01006,62.65089],[13.02003,62.68046],[13.04698,62.71075],[13.14795,62.70679],[13.18958,62.67569],[13.27758,62.66408],[13.27523,62.64761],[13.26657,62.64066],[13.2678,62.63909],[13.26462,62.63666],[13.26332,62.63518],[13.26349,62.6341],[13.28462,62.62923],[13.27242,62.61733],[13.36735,62.60859],[13.38747,62.6195],[13.40161,62.6213],[13.41723,62.6239],[13.48294,62.63153],[13.4316,62.64278],[13.37874,62.67221],[13.36683,62.67796],[13.37684,62.70884],[13.38432,62.75063],[13.42576,62.75963]],[[13.52052,62.43636],[13.5183,62.43619],[13.51547,62.4357],[13.51259,62.43568],[13.50971,62.43533],[13.50542,62.43432],[13.50199,62.43299],[13.49988,62.43149],[13.49888,62.42977],[13.49928,62.42763],[13.50123,62.42581],[13.50055,62.42556],[13.49768,62.42658],[13.49555,62.42708],[13.49258,62.42742],[13.48936,62.42747],[13.4856,62.42706],[13.48178,62.42592],[13.47817,62.42562],[13.47454,62.42475],[13.47062,62.42281],[13.46779,62.42072],[13.46655,62.41904],[13.46632,62.41733],[13.46678,62.41592],[13.46801,62.41459],[13.46972,62.4135],[13.47202,62.41256],[13.47481,62.41191],[13.47857,62.41158],[13.48287,62.41066],[13.48546,62.40958],[13.48844,62.40879],[13.48977,62.40778],[13.49206,62.40659],[13.49507,62.40558],[13.49938,62.405],[13.50163,62.40501],[13.50418,62.40526],[13.50589,62.40468],[13.50504,62.40021],[13.50517,62.39914],[13.50603,62.39775],[13.50909,62.39521],[13.51172,62.39391],[13.51441,62.39317],[13.52219,62.39219],[13.52534,62.39207],[13.52858,62.39232],[13.53167,62.39295],[13.53413,62.39387],[13.53603,62.39503],[13.5373,62.39648],[13.5377,62.39827],[13.53708,62.39986],[13.5357,62.40126],[13.53698,62.40265],[13.53766,62.40429],[13.54322,62.4063],[13.54498,62.40744],[13.54598,62.4085],[13.54915,62.41012],[13.55084,62.41196],[13.55355,62.41273],[13.55575,62.41378],[13.55788,62.41579],[13.55835,62.41776],[13.55778,62.4192],[13.55683,62.42023],[13.55324,62.42232],[13.55134,62.42553],[13.55043,62.42652],[13.54754,62.42831],[13.54442,62.42942],[13.54323,62.43089],[13.54143,62.43204],[13.539,62.43301],[13.53631,62.43369],[13.53407,62.43398],[13.53113,62.43407],[13.52907,62.43509],[13.52654,62.43583],[13.52351,62.43628],[13.52052,62.43636]]]}}]}