{"type":"FeatureCollection","features":[{"type":"Feature","id":"2380R001","properties":{"code":"2380R001","name":"Brittsbo-Lugnviksstrand"},"geometry":{"type":"Polygon","coordinates":[[[14.62625,63.22359],[14.629,63.22246],[14.6308,63.22136],[14.63342,63.2182],[14.6371,63.21893],[14.64247,63.21935],[14.6419,63.21899],[14.6409,63.21264],[14.64102,63.21154],[14.63748,63.21114],[14.63458,63.21021],[14.63253,63.20997],[14.63246,63.20946],[14.63011,63.20989],[14.62617,63.2098],[14.62647,63.20798],[14.63078,63.2051],[14.63919,63.20123],[14.63843,63.20105],[14.63024,63.19731],[14.62963,63.19725],[14.62249,63.19731],[14.62326,63.19767],[14.61705,63.20051],[14.6146,63.20199],[14.61118,63.20267],[14.60858,63.2036],[14.60668,63.20474],[14.60521,63.20645],[14.60463,63.2079],[14.60485,63.20941],[14.60243,63.21036],[14.62177,63.22313],[14.62625,63.22359]]]}},{"type":"Feature","id":"2380R002","properties":{"code":"2380R002","name":"Brunflo"},"geometry":{"type":"Polygon","coordinates":[[[14.82419,63.09963],[14.82553,63.09923],[14.83017,63.09918],[14.83408,63.0985],[14.83611,63.09784],[14.83791,63.09698],[14.84012,63.09504],[14.84593,63.09363],[14.84892,63.09435],[14.85331,63.09482],[14.85729,63.09474],[14.86055,63.09424],[14.86277,63.09361],[14.8651,63.09259],[14.86678,63.09134],[14.86774,63.08991],[14.8712,63.08959],[14.87406,63.08895],[14.8759,63.08828],[14.87765,63.08729],[14.88231,63.0859],[14.88451,63.08493],[14.88711,63.08442],[14.8898,63.08351],[14.89414,63.08382],[14.89827,63.08349],[14.90118,63.08284],[14.90323,63.0821],[14.90603,63.08026],[14.90711,63.07808],[14.90681,63.07662],[14.90533,63.07491],[14.90566,63.07307],[14.90704,63.07123],[14.90713,63.06967],[14.90607,63.0678],[14.90383,63.06619],[14.90056,63.06499],[14.89668,63.06431],[14.89325,63.06419],[14.88989,63.06447],[14.88722,63.06439],[14.8849,63.06454],[14.88059,63.06544],[14.87835,63.06638],[14.87661,63.06763],[14.87399,63.06801],[14.87172,63.06859],[14.86982,63.06932],[14.86822,63.07023],[14.86777,63.0681],[14.86553,63.0661],[14.86335,63.06498],[14.86092,63.06414],[14.85811,63.0636],[14.85582,63.06342],[14.8543,63.06162],[14.85177,63.05955],[14.85025,63.05872],[14.84776,63.05786],[14.84405,63.05721],[14.84012,63.05712],[14.83185,63.05784],[14.82964,63.05826],[14.82704,63.05909],[14.82502,63.06018],[14.82383,63.06125],[14.82086,63.06238],[14.81885,63.06347],[14.81708,63.06487],[14.81611,63.06619],[14.81408,63.06672],[14.81186,63.06763],[14.80949,63.06816],[14.80752,63.06884],[14.80436,63.07034],[14.80255,63.07191],[14.80197,63.07325],[14.80204,63.07456],[14.80308,63.07619],[14.80484,63.07741],[14.80449,63.07931],[14.80517,63.08104],[14.80156,63.08274],[14.80442,63.08466],[14.81083,63.08732],[14.80321,63.09175],[14.80176,63.09291],[14.79637,63.09855],[14.79549,63.09909],[14.79192,63.10665],[14.79036,63.10878],[14.79784,63.11056],[14.80995,63.11404],[14.81567,63.11105],[14.819,63.10987],[14.82185,63.10797],[14.82292,63.10588],[14.82207,63.10316],[14.82369,63.1015],[14.82419,63.09963]]]}},{"type":"Feature","id":"2380R003","properties":{"code":"2380R003","name":"Fjällmon"},"geometry":{"type":"Polygon","coordinates":[[[14.73276,63.156],[14.73649,63.15347],[14.73739,63.15319],[14.73629,63.15235],[14.73568,63.15234],[14.73469,63.1527],[14.73409,63.15225],[14.73203,63.15241],[14.73103,63.15151],[14.72915,63.15121],[14.72882,63.15036],[14.72534,63.14828],[14.72425,63.14786],[14.72299,63.14762],[14.72144,63.14765],[14.72101,63.1473],[14.71533,63.14666],[14.70807,63.14891],[14.70798,63.14948],[14.71395,63.15084],[14.72181,63.15465],[14.7232,63.1551],[14.72715,63.15588],[14.73276,63.156]]]}},{"type":"Feature","id":"2380R004","properties":{"code":"2380R004","name":"Hornsberg-Östberg"},"geometry":{"type":"Polygon","coordinates":[[[14.62222,63.19086],[14.62663,63.18467],[14.62671,63.18187],[14.62241,63.17942],[14.6214,63.17566],[14.60207,63.17722],[14.60054,63.1778],[14.60277,63.17958],[14.60506,63.18088],[14.60667,63.18116],[14.60798,63.18183],[14.60654,63.18248],[14.60678,63.18312],[14.60778,63.18373],[14.60809,63.18433],[14.60742,63.18421],[14.6066,63.18446],[14.60694,63.18758],[14.60615,63.18761],[14.60615,63.18842],[14.60728,63.18832],[14.60721,63.19043],[14.60767,63.19197],[14.60601,63.19517],[14.60636,63.19662],[14.61455,63.1996],[14.61501,63.19887],[14.61782,63.19795],[14.62068,63.19637],[14.62222,63.19086]]]}},{"type":"Feature","id":"2380R005","properties":{"code":"2380R005","name":"Karlslund-Remonthagen-Blomängen"},"geometry":{"type":"Polygon","coordinates":[[[14.70198,63.18155],[14.6931,63.18001],[14.68764,63.17953],[14.68176,63.17925],[14.68513,63.17723],[14.68383,63.17684],[14.67991,63.17662],[14.67744,63.17629],[14.67534,63.17854],[14.66862,63.17694],[14.67275,63.17338],[14.66964,63.17257],[14.67045,63.17226],[14.66954,63.17173],[14.6723,63.16984],[14.67302,63.16884],[14.66916,63.16836],[14.66749,63.17001],[14.66092,63.17339],[14.65703,63.17509],[14.65476,63.1784],[14.6545,63.17979],[14.64503,63.17952],[14.64457,63.18237],[14.64701,63.18245],[14.64702,63.18364],[14.64769,63.18486],[14.65338,63.18917],[14.65614,63.19088],[14.65584,63.19104],[14.65845,63.1926],[14.66471,63.19524],[14.66637,63.19622],[14.67224,63.19415],[14.67398,63.19323],[14.67553,63.19187],[14.68081,63.19004],[14.68254,63.18922],[14.68618,63.18678],[14.68755,63.18475],[14.69183,63.18415],[14.69495,63.18332],[14.69888,63.18267],[14.70198,63.18155]]]}},{"type":"Feature","id":"2380R006","properties":{"code":"2380R006","name":"Körfältet"},"geometry":{"type":"Polygon","coordinates":[[[14.68764,63.17953],[14.68891,63.17774],[14.69113,63.17696],[14.69141,63.17664],[14.6889,63.17585],[14.68912,63.17567],[14.68777,63.1755],[14.67701,63.17216],[14.67554,63.17289],[14.67478,63.17358],[14.67381,63.17361],[14.67274,63.1734],[14.66862,63.17694],[14.67534,63.17854],[14.67744,63.17629],[14.67991,63.17662],[14.68383,63.17684],[14.68513,63.17723],[14.68176,63.17925],[14.68764,63.17953]]]}},{"type":"Feature","id":"2380R007","properties":{"code":"2380R007","name":"Lit"},"geometry":{"type":"Polygon","coordinates":[[[14.86148,63.33799],[14.86383,63.33781],[14.86671,63.33727],[14.86917,63.33643],[14.87067,63.33564],[14.87234,63.33407],[14.87278,63.332],[14.87462,63.32965],[14.87444,63.32746],[14.87308,63.32597],[14.86822,63.32312],[14.87513,63.3174],[14.87421,63.31634],[14.87176,63.31484],[14.87006,63.31321],[14.86075,63.3123],[14.85468,63.30926],[14.83146,63.31042],[14.83079,63.3107],[14.81103,63.31342],[14.809,63.31583],[14.80873,63.31722],[14.80911,63.31859],[14.81111,63.32049],[14.81265,63.32127],[14.81468,63.32195],[14.81585,63.32301],[14.81728,63.32383],[14.82197,63.32571],[14.82472,63.32638],[14.82853,63.32673],[14.83299,63.32647],[14.83525,63.32832],[14.83846,63.32954],[14.84509,63.33458],[14.84715,63.33569],[14.84972,63.33652],[14.85441,63.3374],[14.8584,63.33792],[14.86148,63.33799]]]}},{"type":"Feature","id":"2380R008","properties":{"code":"2380R008","name":"Lugnviks centrum"},"geometry":{"type":"Polygon","coordinates":[[[14.64725,63.21958],[14.65104,63.21923],[14.65515,63.2185],[14.65982,63.2175],[14.66458,63.21609],[14.66653,63.21529],[14.66836,63.2141],[14.66945,63.21277],[14.66977,63.21164],[14.65921,63.21099],[14.65303,63.20795],[14.65209,63.20797],[14.64978,63.20757],[14.64595,63.20536],[14.64623,63.2046],[14.6429,63.20296],[14.6418,63.20275],[14.64158,63.20232],[14.63919,63.20123],[14.63078,63.2051],[14.62647,63.20798],[14.62617,63.2098],[14.63011,63.20989],[14.63246,63.20946],[14.63253,63.20997],[14.63458,63.21021],[14.63748,63.21114],[14.64102,63.21154],[14.6409,63.21264],[14.6419,63.21899],[14.64283,63.21939],[14.64725,63.21958]]]}},{"type":"Feature","id":"2380R009","properties":{"code":"2380R009","name":"Målsta-Sandviken-Marieby"},"geometry":{"type":"Polygon","coordinates":[[[14.62244,63.16855],[14.62973,63.16275],[14.63607,63.15893],[14.64096,63.15715],[14.64713,63.15578],[14.64914,63.15511],[14.65115,63.15406],[14.65557,63.15214],[14.65861,63.1511],[14.66426,63.14847],[14.66977,63.14653],[14.68067,63.14342],[14.68362,63.14241],[14.68785,63.14169],[14.69187,63.14168],[14.6961,63.14087],[14.71171,63.13596],[14.72084,63.13367],[14.72329,63.13324],[14.72794,63.13177],[14.7308,63.1312],[14.73419,63.13008],[14.74836,63.1244],[14.74976,63.12359],[14.75218,63.12264],[14.75329,63.12196],[14.75455,63.12037],[14.75779,63.11748],[14.7616,63.11509],[14.7637,63.1141],[14.76543,63.11276],[14.76717,63.11121],[14.76829,63.10937],[14.77029,63.10804],[14.77,63.10667],[14.7779,63.0926],[14.80029,63.08381],[14.80156,63.08274],[14.79676,63.07952],[14.79299,63.08016],[14.78335,63.08425],[14.77342,63.0897],[14.76199,63.08642],[14.75496,63.08414],[14.75548,63.08371],[14.75039,63.08208],[14.75085,63.08187],[14.74837,63.08119],[14.74783,63.08166],[14.75008,63.08221],[14.74884,63.08277],[14.74617,63.08188],[14.71583,63.07524],[14.69765,63.06757],[14.67414,63.06191],[14.62789,63.06236],[14.60803,63.05598],[14.57388,63.04688],[14.571,63.04812],[14.56949,63.04848],[14.57088,63.04928],[14.57103,63.04958],[14.57067,63.04994],[14.55837,63.05755],[14.5541,63.06102],[14.55199,63.06461],[14.55197,63.06579],[14.55299,63.06807],[14.55308,63.07178],[14.55512,63.07968],[14.55479,63.08194],[14.55534,63.08836],[14.55109,63.0936],[14.54561,63.09729],[14.5454,63.09781],[14.54634,63.10496],[14.54519,63.11131],[14.54314,63.11718],[14.54278,63.11777],[14.53921,63.12069],[14.53633,63.12512],[14.53122,63.12995],[14.52746,63.13529],[14.52619,63.14003],[14.52176,63.14014],[14.51818,63.1408],[14.5148,63.14217],[14.5125,63.14399],[14.50904,63.14352],[14.50585,63.14349],[14.50204,63.14395],[14.49931,63.1447],[14.49666,63.14602],[14.49523,63.14736],[14.49136,63.14848],[14.48889,63.14988],[14.48753,63.15152],[14.48749,63.15359],[14.48813,63.1546],[14.48959,63.15581],[14.49788,63.16047],[14.49968,63.16109],[14.50242,63.16167],[14.50719,63.16191],[14.50648,63.1624],[14.50522,63.16279],[14.52979,63.16052],[14.52932,63.15925],[14.53718,63.15858],[14.54531,63.15887],[14.55333,63.15882],[14.56026,63.15906],[14.56312,63.15893],[14.57023,63.1593],[14.57732,63.15856],[14.58171,63.15873],[14.58641,63.15914],[14.58985,63.15866],[14.59302,63.15861],[14.59608,63.1589],[14.5992,63.15963],[14.60195,63.15997],[14.60462,63.16001],[14.60683,63.16026],[14.60892,63.16069],[14.61268,63.16184],[14.61701,63.16336],[14.6191,63.16442],[14.62175,63.16665],[14.62244,63.16855]]]}},{"type":"Feature","id":"2380R010","properties":{"code":"2380R010","name":"Norra Frösön-Frösö Berge-Frösödal"},"geometry":{"type":"Polygon","coordinates":[[[14.52259,63.22808],[14.54865,63.22203],[14.57041,63.21823],[14.58377,63.21523],[14.59983,63.20861],[14.60243,63.21036],[14.60467,63.20956],[14.60463,63.2079],[14.60505,63.20673],[14.60602,63.20536],[14.60751,63.20417],[14.61055,63.20286],[14.6146,63.20199],[14.61705,63.20051],[14.62326,63.19767],[14.6208,63.19628],[14.61782,63.19795],[14.61501,63.19887],[14.61455,63.1996],[14.60636,63.19662],[14.60601,63.19517],[14.60767,63.19197],[14.60721,63.19043],[14.60728,63.18832],[14.60615,63.18842],[14.60615,63.18761],[14.60694,63.18758],[14.6066,63.18446],[14.60742,63.18421],[14.60809,63.18433],[14.60778,63.18373],[14.60678,63.18312],[14.60654,63.18248],[14.60798,63.18183],[14.60667,63.18116],[14.60506,63.18088],[14.60277,63.17958],[14.60054,63.1778],[14.60207,63.17722],[14.6214,63.17566],[14.62067,63.17291],[14.62103,63.16895],[14.61222,63.17033],[14.60711,63.17064],[14.6041,63.17172],[14.60308,63.17167],[14.60301,63.17204],[14.60264,63.17211],[14.60348,63.17237],[14.59357,63.17509],[14.59038,63.17632],[14.58421,63.1776],[14.58164,63.17181],[14.57807,63.17192],[14.5714,63.17945],[14.56306,63.18356],[14.56002,63.18358],[14.55744,63.18403],[14.55508,63.18421],[14.5527,63.18419],[14.54985,63.1839],[14.54632,63.1831],[14.54375,63.18204],[14.54206,63.18089],[14.53981,63.17855],[14.5369,63.17902],[14.53436,63.1792],[14.5345,63.18131],[14.5361,63.18705],[14.52869,63.192],[14.51847,63.19566],[14.49919,63.20107],[14.47911,63.20393],[14.47484,63.20582],[14.47367,63.20786],[14.4736,63.21168],[14.47212,63.21537],[14.46924,63.21867],[14.46842,63.22141],[14.47052,63.22177],[14.47668,63.22229],[14.48851,63.22771],[14.51538,63.23188],[14.52259,63.22808]]]}},{"type":"Feature","id":"2380R011","properties":{"code":"2380R011","name":"Norra Odenslund-Odenskog"},"geometry":{"type":"Polygon","coordinates":[[[14.70132,63.18142],[14.69913,63.18034],[14.69794,63.16742],[14.70034,63.16251],[14.6979,63.15992],[14.69294,63.15588],[14.68994,63.15657],[14.69248,63.16575],[14.69203,63.16642],[14.68928,63.16504],[14.68918,63.16434],[14.68867,63.16386],[14.6847,63.16198],[14.68438,63.16082],[14.68243,63.16121],[14.6799,63.16003],[14.68084,63.15796],[14.67822,63.15803],[14.67678,63.15706],[14.66945,63.15942],[14.67127,63.16085],[14.67191,63.16191],[14.67106,63.16425],[14.66984,63.1641],[14.66659,63.16482],[14.6645,63.16623],[14.66043,63.16937],[14.6627,63.17001],[14.66002,63.17191],[14.65836,63.17262],[14.65456,63.17162],[14.65388,63.17204],[14.65115,63.17101],[14.64772,63.17012],[14.64694,63.17078],[14.64407,63.17163],[14.64244,63.17269],[14.64578,63.17358],[14.64839,63.17369],[14.65582,63.17565],[14.65675,63.17567],[14.65748,63.17479],[14.66092,63.17339],[14.66749,63.17001],[14.66916,63.16836],[14.67302,63.16884],[14.6723,63.16984],[14.66954,63.17173],[14.67045,63.17226],[14.66964,63.17257],[14.67381,63.17361],[14.67478,63.17358],[14.67554,63.17289],[14.67701,63.17216],[14.68777,63.1755],[14.68912,63.17567],[14.6889,63.17585],[14.69141,63.17664],[14.69113,63.17696],[14.68891,63.17774],[14.68764,63.17953],[14.6931,63.18001],[14.70132,63.18142]]]}},{"type":"Feature","id":"2380R012","properties":{"code":"2380R012","name":"Norra Valla-Härke-Västra Frösön"},"geometry":{"type":"Polygon","coordinates":[[[14.46924,63.21867],[14.47212,63.21537],[14.4736,63.21168],[14.47367,63.20786],[14.47484,63.20582],[14.47911,63.20393],[14.49919,63.20107],[14.51847,63.19566],[14.52869,63.192],[14.5361,63.18705],[14.5345,63.18131],[14.53436,63.1792],[14.5369,63.17902],[14.53981,63.17855],[14.54206,63.18089],[14.54375,63.18204],[14.54632,63.1831],[14.54985,63.1839],[14.5527,63.18419],[14.55508,63.18421],[14.55744,63.18403],[14.56002,63.18358],[14.56306,63.18356],[14.5714,63.17945],[14.57807,63.17192],[14.55747,63.17262],[14.55879,63.17204],[14.55707,63.17019],[14.55899,63.17008],[14.5593,63.17045],[14.56317,63.17105],[14.56554,63.1695],[14.5374,63.16434],[14.53135,63.1645],[14.52934,63.15929],[14.52979,63.16052],[14.50522,63.16279],[14.50383,63.16332],[14.49883,63.16579],[14.4925,63.16808],[14.49033,63.16948],[14.48928,63.17091],[14.48907,63.17236],[14.48965,63.1738],[14.49124,63.17532],[14.48844,63.17647],[14.48042,63.181],[14.47082,63.18349],[14.46702,63.18405],[14.46554,63.18648],[14.45885,63.18736],[14.45888,63.18581],[14.46915,63.17623],[14.47127,63.16867],[14.45942,63.16634],[14.44638,63.16971],[14.43507,63.17675],[14.42605,63.18617],[14.43309,63.19475],[14.44225,63.19699],[14.44951,63.19457],[14.45152,63.1936],[14.45458,63.19394],[14.44008,63.20651],[14.43975,63.21449],[14.44438,63.21785],[14.44546,63.22005],[14.46442,63.22072],[14.46842,63.22141],[14.46924,63.21867]]]}},{"type":"Feature","id":"2380R016","properties":{"code":"2380R016","name":"Södra Odenslund-Söder"},"geometry":{"type":"Polygon","coordinates":[[[14.64252,63.17276],[14.64383,63.17174],[14.64694,63.17078],[14.64772,63.17012],[14.65115,63.17101],[14.65388,63.17204],[14.65456,63.17162],[14.65836,63.17262],[14.66002,63.17191],[14.6627,63.17001],[14.66043,63.16937],[14.66316,63.16725],[14.65847,63.16562],[14.65923,63.16521],[14.65671,63.164],[14.65987,63.16267],[14.65565,63.16058],[14.65002,63.16264],[14.64839,63.16342],[14.64944,63.16395],[14.64233,63.16898],[14.64102,63.16864],[14.63572,63.17198],[14.64173,63.17217],[14.64162,63.17275],[14.64252,63.17276]]]}},{"type":"Feature","id":"2380R013","properties":{"code":"2380R013","name":"Odensala"},"geometry":{"type":"Polygon","coordinates":[[[14.711,63.17166],[14.70968,63.16791],[14.71258,63.16865],[14.71797,63.16967],[14.72269,63.16991],[14.72505,63.16973],[14.72795,63.16919],[14.72995,63.16855],[14.73204,63.1675],[14.73383,63.16793],[14.73598,63.16895],[14.73865,63.16981],[14.74263,63.17066],[14.7473,63.17223],[14.75107,63.17282],[14.75562,63.17283],[14.73455,63.16315],[14.73779,63.16175],[14.73902,63.16051],[14.74063,63.1597],[14.73607,63.15677],[14.73284,63.15606],[14.72715,63.15588],[14.7232,63.1551],[14.72181,63.15465],[14.71395,63.15084],[14.70798,63.14948],[14.70807,63.14891],[14.71363,63.14716],[14.71159,63.1447],[14.70363,63.13842],[14.6961,63.14087],[14.69187,63.14168],[14.68785,63.14169],[14.68362,63.14241],[14.66917,63.14674],[14.66368,63.14869],[14.65885,63.15099],[14.66079,63.15269],[14.66244,63.15346],[14.66527,63.15577],[14.67153,63.1588],[14.67678,63.15706],[14.67822,63.15803],[14.68084,63.15796],[14.6799,63.16003],[14.68243,63.16121],[14.68438,63.16082],[14.6847,63.16198],[14.68867,63.16386],[14.68918,63.16434],[14.68928,63.16504],[14.69203,63.16642],[14.69248,63.16575],[14.68994,63.15657],[14.69294,63.15588],[14.6979,63.15992],[14.70034,63.16251],[14.69794,63.16742],[14.69913,63.18034],[14.70132,63.18142],[14.70198,63.18155],[14.70613,63.1788],[14.70915,63.17743],[14.71102,63.17553],[14.71133,63.17414],[14.711,63.17166]]]}},{"type":"Feature","id":"2380R014","properties":{"code":"2380R014","name":"Skogsmon"},"geometry":{"type":"Polygon","coordinates":[[[14.77334,63.15592],[14.77542,63.15408],[14.77433,63.15405],[14.76657,63.15029],[14.76608,63.15064],[14.76276,63.15007],[14.76041,63.14918],[14.7585,63.14789],[14.7562,63.1477],[14.75351,63.14794],[14.75217,63.14778],[14.75059,63.14785],[14.74745,63.14752],[14.74823,63.14797],[14.74746,63.14986],[14.74618,63.15095],[14.73995,63.15373],[14.73873,63.15282],[14.73649,63.15347],[14.73283,63.15593],[14.73271,63.15606],[14.73483,63.15639],[14.73607,63.15677],[14.74063,63.1597],[14.73902,63.16051],[14.73779,63.16175],[14.73455,63.16315],[14.75562,63.17283],[14.75909,63.17233],[14.76198,63.17146],[14.76501,63.16986],[14.76966,63.16809],[14.77181,63.16659],[14.77273,63.1652],[14.77283,63.16376],[14.77215,63.16237],[14.77024,63.16077],[14.77165,63.15894],[14.77161,63.15702],[14.77334,63.15592]]]}},{"type":"Feature","id":"2380R015","properties":{"code":"2380R015","name":"Storsjöstrand-Odensvik-Fagervallen"},"geometry":{"type":"Polygon","coordinates":[[[14.62095,63.17395],[14.6316,63.1734],[14.63299,63.17364],[14.64102,63.16864],[14.64233,63.16898],[14.64944,63.16395],[14.64839,63.16342],[14.65002,63.16264],[14.65565,63.16058],[14.65987,63.16267],[14.65671,63.164],[14.65923,63.16521],[14.65847,63.16562],[14.66316,63.16725],[14.66659,63.16482],[14.66984,63.1641],[14.67106,63.16425],[14.67191,63.16191],[14.67127,63.16085],[14.66945,63.15942],[14.67158,63.15883],[14.66527,63.15577],[14.66244,63.15346],[14.66079,63.15269],[14.65885,63.15099],[14.65557,63.15214],[14.64914,63.15511],[14.64713,63.15578],[14.64096,63.15715],[14.63607,63.15893],[14.62973,63.16275],[14.62244,63.16855],[14.62217,63.16731],[14.62128,63.16615],[14.62067,63.17291],[14.62095,63.17395]]]}},{"type":"Feature","id":"2380R017","properties":{"code":"2380R017","name":"Södra Valla-Mjälle-Lövsta"},"geometry":{"type":"Polygon","coordinates":[[[14.59357,63.17509],[14.60348,63.17237],[14.60264,63.17211],[14.60301,63.17204],[14.60308,63.17167],[14.6041,63.17172],[14.60711,63.17064],[14.61222,63.17033],[14.62103,63.16895],[14.62128,63.16615],[14.6191,63.16442],[14.61642,63.16314],[14.60892,63.16069],[14.60611,63.16015],[14.60195,63.15997],[14.5992,63.15963],[14.59536,63.1588],[14.59226,63.15859],[14.5891,63.15873],[14.58641,63.15914],[14.58171,63.15873],[14.57732,63.15856],[14.57023,63.1593],[14.56312,63.15893],[14.56026,63.15906],[14.55333,63.15882],[14.54531,63.15887],[14.53718,63.15858],[14.52932,63.15925],[14.53135,63.1645],[14.5374,63.16434],[14.56554,63.1695],[14.56317,63.17105],[14.5593,63.17045],[14.55899,63.17008],[14.55707,63.17019],[14.55879,63.17204],[14.55747,63.17262],[14.58164,63.17181],[14.58421,63.1776],[14.59038,63.17632],[14.59357,63.17509]]]}},{"type":"Feature","id":"2380R018","properties":{"code":"2380R018","name":"Ängsmon-Torvalla By-Ope"},"geometry":{"type":"Polygon","coordinates":[[[14.77542,63.15408],[14.77647,63.15309],[14.77718,63.15168],[14.77709,63.15026],[14.7762,63.14888],[14.78039,63.14594],[14.7847,63.14116],[14.79191,63.12993],[14.79604,63.12173],[14.79809,63.1187],[14.79853,63.11428],[14.79784,63.11056],[14.79036,63.10878],[14.79192,63.10665],[14.79468,63.10037],[14.79549,63.09909],[14.79637,63.09855],[14.80176,63.09291],[14.80391,63.09125],[14.81083,63.08732],[14.80442,63.08466],[14.80156,63.08274],[14.80029,63.08381],[14.7779,63.0926],[14.77,63.10667],[14.77029,63.10804],[14.76829,63.10937],[14.76717,63.11121],[14.76543,63.11276],[14.7637,63.1141],[14.7616,63.11509],[14.75779,63.11748],[14.75455,63.12037],[14.75329,63.12196],[14.75218,63.12264],[14.74976,63.12359],[14.74836,63.1244],[14.73419,63.13008],[14.7308,63.1312],[14.72794,63.13177],[14.72329,63.13324],[14.72084,63.13367],[14.71171,63.13596],[14.70363,63.13842],[14.71159,63.1447],[14.7136,63.14714],[14.71533,63.14666],[14.71673,63.14674],[14.72101,63.1473],[14.72144,63.14765],[14.72299,63.14762],[14.72425,63.14786],[14.72534,63.14828],[14.72882,63.15036],[14.72915,63.15121],[14.73103,63.15151],[14.73203,63.15241],[14.73409,63.15225],[14.73469,63.1527],[14.73568,63.15234],[14.73629,63.15235],[14.73739,63.15319],[14.73873,63.15282],[14.73995,63.15373],[14.74618,63.15095],[14.74746,63.14986],[14.74823,63.14797],[14.74745,63.14752],[14.75059,63.14785],[14.75217,63.14778],[14.75351,63.14794],[14.7562,63.1477],[14.7585,63.14789],[14.76041,63.14918],[14.76276,63.15007],[14.76608,63.15064],[14.76657,63.15029],[14.77433,63.15405],[14.77542,63.15408]]]}},{"type":"Feature","id":"2380R019","properties":{"code":"2380R019","name":"Östersund norr"},"geometry":{"type":"Polygon","coordinates":[[[14.66977,63.21164],[14.66905,63.20959],[14.66715,63.20802],[14.66756,63.20599],[14.66684,63.20424],[14.66539,63.20295],[14.66239,63.20144],[14.66427,63.20037],[14.66534,63.19937],[14.66604,63.19799],[14.66588,63.19635],[14.66637,63.19622],[14.66471,63.19524],[14.65845,63.1926],[14.65584,63.19104],[14.65614,63.19088],[14.65338,63.18917],[14.64769,63.18486],[14.64702,63.18364],[14.64701,63.18245],[14.64457,63.18237],[14.64476,63.18093],[14.62381,63.18021],[14.62671,63.18187],[14.62663,63.18467],[14.62222,63.19086],[14.62068,63.19637],[14.6208,63.19628],[14.62249,63.19731],[14.63024,63.19731],[14.63843,63.20105],[14.63964,63.20132],[14.64158,63.20232],[14.6418,63.20275],[14.6429,63.20296],[14.64623,63.2046],[14.64595,63.20536],[14.64978,63.20757],[14.65209,63.20797],[14.65303,63.20795],[14.65921,63.21099],[14.66977,63.21164]]]}},{"type":"Feature","id":"2380R020","properties":{"code":"2380R020","name":"Östersund norra landsbygd"},"geometry":{"type":"Polygon","coordinates":[[[14.95489,63.59007],[14.95605,63.5902],[14.98183,63.58029],[14.98706,63.57896],[14.99983,63.571],[15.02451,63.55424],[15.02324,63.55414],[15.02182,63.55357],[15.02095,63.5537],[15.02021,63.55351],[15.0209,63.55332],[15.02074,63.55308],[15.02013,63.55301],[15.02072,63.55283],[15.02005,63.55195],[15.02014,63.55127],[15.02047,63.55114],[15.0199,63.55062],[15.0193,63.55078],[15.01883,63.55066],[15.02018,63.55],[15.02062,63.54864],[15.02176,63.54858],[15.02218,63.54834],[15.02254,63.5486],[15.02274,63.54823],[15.02334,63.54848],[15.02384,63.5479],[15.02365,63.54747],[15.02414,63.54732],[15.02393,63.54717],[15.02527,63.54695],[15.02554,63.5472],[15.02618,63.54697],[15.02663,63.54711],[15.02737,63.54685],[15.02754,63.54643],[15.02799,63.54653],[15.02847,63.54609],[15.02806,63.54592],[15.02863,63.54566],[15.02825,63.54555],[15.02828,63.54492],[15.02906,63.54484],[15.02852,63.54464],[15.02907,63.54457],[15.02886,63.54418],[15.02946,63.54399],[15.02895,63.54397],[15.02937,63.54373],[15.02876,63.54342],[15.02973,63.54339],[15.03097,63.5429],[15.03017,63.54271],[15.03169,63.54233],[15.03283,63.54143],[15.03357,63.54132],[15.03404,63.54149],[15.03572,63.5408],[15.03609,63.54095],[15.03707,63.54059],[15.03679,63.53996],[15.03628,63.53988],[15.03819,63.53933],[15.03996,63.53916],[15.03945,63.53873],[15.03991,63.53848],[15.03928,63.53751],[15.04042,63.53743],[15.04167,63.53674],[15.04278,63.53685],[15.04401,63.53664],[15.0453,63.53618],[15.04568,63.5358],[15.04559,63.53539],[15.04718,63.53506],[15.04761,63.5347],[15.04752,63.53436],[15.04992,63.53397],[15.05056,63.53277],[15.05239,63.53202],[15.05233,63.53129],[15.0547,63.52738],[15.05525,63.5273],[15.05568,63.52668],[15.05676,63.52664],[15.05713,63.52642],[15.0574,63.52572],[15.05793,63.52583],[15.05813,63.52563],[15.05858,63.52579],[15.05939,63.52556],[15.05936,63.52534],[15.06037,63.52539],[15.06135,63.52398],[15.06227,63.52428],[15.06276,63.52379],[15.06306,63.52402],[15.06346,63.52385],[15.06394,63.52397],[15.06475,63.52378],[15.06545,63.52326],[15.06612,63.52329],[15.06641,63.52306],[15.0671,63.5232],[15.06736,63.52284],[15.06813,63.52293],[15.06828,63.52276],[15.06769,63.52253],[15.06806,63.5224],[15.06757,63.52242],[15.06717,63.52211],[15.06752,63.52187],[15.068,63.52177],[15.06942,63.52204],[15.07059,63.5219],[15.07135,63.5217],[15.07167,63.52138],[15.07273,63.52123],[15.07293,63.52101],[15.07383,63.52103],[15.07499,63.52078],[15.07506,63.52018],[15.07451,63.52009],[15.07478,63.51965],[15.07663,63.51943],[15.07772,63.51911],[15.07908,63.51937],[15.07987,63.51915],[15.07985,63.5189],[15.08151,63.51808],[15.08208,63.51819],[15.08315,63.51794],[15.08393,63.51804],[15.08444,63.51787],[15.08662,63.51784],[15.08745,63.51742],[15.08711,63.51653],[15.08623,63.51604],[15.08649,63.51592],[15.03853,63.4866],[15.07788,63.46826],[15.1036,63.47469],[15.12116,63.47932],[15.15396,63.46722],[15.17134,63.46138],[15.17231,63.45965],[15.17566,63.45902],[15.1827,63.45731],[15.23851,63.44351],[15.28482,63.42354],[15.34198,63.39937],[15.35403,63.38729],[15.35552,63.38618],[15.39137,63.36339],[15.4368,63.347],[15.49495,63.36341],[15.50355,63.32588],[15.55599,63.30879],[15.47046,63.25933],[15.46312,63.25747],[15.46223,63.25819],[15.45576,63.25946],[15.45416,63.26153],[15.4516,63.26293],[15.44633,63.26739],[15.44622,63.26993],[15.44376,63.27092],[15.44135,63.27335],[15.44097,63.27446],[15.43937,63.27548],[15.43799,63.27726],[15.4368,63.27761],[15.43625,63.27801],[15.43631,63.27841],[15.43583,63.27862],[15.43532,63.27877],[15.43413,63.27874],[15.434,63.27937],[15.43443,63.27959],[15.43422,63.28004],[15.4326,63.28019],[15.43252,63.2807],[15.43336,63.28108],[15.43296,63.28132],[15.43295,63.28179],[15.43028,63.28349],[15.4293,63.28377],[15.42905,63.28415],[15.42752,63.28459],[15.42684,63.28531],[15.42413,63.28577],[15.42166,63.28586],[15.41945,63.28635],[15.41826,63.28694],[15.41789,63.28773],[15.41712,63.2882],[15.41198,63.28916],[15.41147,63.2894],[15.41065,63.29007],[15.41075,63.29069],[15.4099,63.29128],[15.40869,63.29146],[15.40676,63.29135],[15.40473,63.2919],[15.40284,63.29211],[15.40097,63.2929],[15.39886,63.29325],[15.39627,63.29463],[15.39456,63.29666],[15.39329,63.29724],[15.39245,63.29817],[15.39082,63.29887],[15.38948,63.3001],[15.38829,63.30043],[15.38457,63.30064],[15.38236,63.30103],[15.38184,63.30081],[15.37673,63.30004],[15.37619,63.2992],[15.37204,63.29871],[15.37093,63.29803],[15.36956,63.2977],[15.36838,63.29762],[15.36639,63.29795],[15.36538,63.29894],[15.36641,63.30117],[15.36512,63.30321],[15.30579,63.26399],[15.31391,63.2615],[15.27145,63.23687],[15.2587,63.23743],[15.25526,63.23609],[15.24533,63.23917],[15.24285,63.23952],[15.2352,63.24137],[15.22174,63.24252],[15.22133,63.24107],[15.23176,63.18711],[15.30318,63.19133],[15.30474,63.19028],[15.30633,63.18965],[15.30757,63.18947],[15.30755,63.18906],[15.30656,63.18842],[15.30861,63.18755],[15.30889,63.18676],[15.30698,63.18623],[15.30701,63.18578],[15.3064,63.18546],[15.30635,63.18516],[15.30478,63.18478],[15.30462,63.18431],[15.30409,63.18407],[15.30449,63.18384],[15.30417,63.18317],[15.30077,63.18248],[15.29802,63.1816],[15.29612,63.18145],[15.2947,63.18108],[15.2952,63.18058],[15.29267,63.17998],[15.29196,63.1784],[15.29139,63.17801],[15.29138,63.17725],[15.29155,63.17683],[15.29298,63.17625],[15.293,63.17553],[15.29389,63.17441],[15.29446,63.17428],[15.29421,63.17408],[15.29302,63.17408],[15.29325,63.17375],[15.29673,63.17245],[15.29886,63.17232],[15.30117,63.17161],[15.30162,63.17175],[15.30895,63.1588],[15.31791,63.14413],[15.30088,63.13191],[15.25675,63.09665],[15.25165,63.10094],[15.24723,63.10135],[15.22743,63.11661],[15.18411,63.13498],[15.17214,63.14594],[15.15302,63.14778],[15.15249,63.1475],[15.15268,63.1464],[15.14945,63.14657],[15.14796,63.14587],[15.1484,63.14472],[15.14791,63.1441],[15.14695,63.14404],[15.14768,63.14352],[15.14998,63.14313],[15.14997,63.14271],[15.14809,63.14263],[15.14668,63.14207],[15.14549,63.14226],[15.1453,63.14244],[15.14448,63.1424],[15.1436,63.14201],[15.14041,63.14231],[15.13567,63.14327],[15.13473,63.14381],[15.13469,63.14424],[15.134,63.14474],[15.13332,63.14475],[15.13226,63.14438],[15.13109,63.14441],[15.1313,63.14489],[15.12968,63.1452],[15.12892,63.1461],[15.12802,63.14646],[15.12605,63.14677],[15.12653,63.14725],[15.12633,63.1474],[15.124,63.14715],[15.12314,63.14671],[15.12205,63.14709],[15.12137,63.14702],[15.12079,63.1473],[15.11938,63.14745],[15.11758,63.14697],[15.11319,63.1474],[15.11251,63.14712],[15.11133,63.14721],[15.11047,63.14708],[15.1097,63.14724],[15.10958,63.14685],[15.10917,63.14671],[15.10766,63.14723],[15.10665,63.14725],[15.10623,63.14742],[15.10503,63.14727],[15.10472,63.14772],[15.10364,63.14827],[15.102,63.1481],[15.10039,63.14848],[15.12867,63.09099],[15.1309,63.08459],[15.11569,63.05694],[15.11571,63.05621],[15.08225,63.06196],[15.04189,63.06374],[15.03484,63.05795],[15.00856,63.04225],[15.01734,63.03151],[15.0306,63.01667],[15.03845,63.01324],[15.03873,63.01145],[15.04206,63.0089],[15.04997,62.99672],[15.05318,62.98853],[15.04619,62.98452],[15.04314,62.9817],[15.03901,62.97575],[15.03534,62.97317],[15.0305,62.97011],[15.0189,62.96694],[15.01736,62.96571],[15.01456,62.96406],[15.01197,62.96185],[15.00907,62.96212],[15.0049,62.96429],[15.003,62.96639],[15.00274,62.96714],[14.99632,62.96836],[14.99319,62.96855],[14.98898,62.9708],[14.9836,62.97933],[14.9818,62.98511],[14.98096,62.98548],[14.97854,62.98552],[14.9761,62.98707],[14.9759,62.98828],[14.97667,62.98891],[14.97613,62.9893],[14.97654,62.98947],[14.97782,62.9912],[14.97721,62.99167],[14.97092,62.99464],[14.96857,62.99652],[14.96609,62.9979],[14.96585,62.99797],[14.96584,62.99781],[14.9584,62.99965],[14.95152,63.0043],[14.94335,63.00732],[14.94272,63.00732],[14.93796,63.00892],[14.92485,63.0153],[14.92431,63.01526],[14.92322,63.01642],[14.91683,63.02107],[14.91383,63.0227],[14.90007,63.02791],[14.8987,63.02862],[14.89927,63.02855],[14.88707,63.03332],[14.88374,63.03496],[14.88126,63.0365],[14.88093,63.03639],[14.87886,63.03741],[14.87667,63.03917],[14.87685,63.03929],[14.87495,63.04013],[14.87231,63.04208],[14.85728,63.05117],[14.8549,63.05325],[14.85028,63.05874],[14.85332,63.06075],[14.85559,63.06331],[14.85883,63.0637],[14.8616,63.06433],[14.86338,63.06499],[14.86597,63.06637],[14.86777,63.0681],[14.86822,63.07023],[14.86982,63.06932],[14.87172,63.06859],[14.87399,63.06801],[14.87661,63.06763],[14.87835,63.06638],[14.88059,63.06544],[14.88494,63.06453],[14.88722,63.06439],[14.88989,63.06447],[14.89325,63.06419],[14.89668,63.06431],[14.90056,63.06499],[14.90431,63.06646],[14.90635,63.06811],[14.9072,63.07011],[14.90689,63.07157],[14.90566,63.07307],[14.90533,63.07466],[14.90681,63.07662],[14.90707,63.07842],[14.90631,63.07994],[14.90482,63.08124],[14.9019,63.08261],[14.89897,63.08337],[14.89414,63.08382],[14.8898,63.08351],[14.88711,63.08442],[14.88451,63.08493],[14.88231,63.0859],[14.87765,63.08729],[14.8759,63.08828],[14.87406,63.08895],[14.8712,63.08959],[14.86774,63.08991],[14.86678,63.09134],[14.8651,63.09259],[14.86277,63.09361],[14.86055,63.09424],[14.85729,63.09474],[14.85331,63.09482],[14.84892,63.09435],[14.84593,63.09363],[14.84012,63.09504],[14.83791,63.09698],[14.83611,63.09784],[14.83408,63.0985],[14.83017,63.09918],[14.82553,63.09923],[14.82419,63.09963],[14.82369,63.1015],[14.82207,63.10316],[14.82292,63.10585],[14.82187,63.10795],[14.819,63.10987],[14.81567,63.11105],[14.80995,63.11404],[14.79784,63.11056],[14.79853,63.11428],[14.79809,63.1187],[14.79604,63.12173],[14.79191,63.12993],[14.7847,63.14116],[14.78039,63.14594],[14.7762,63.14888],[14.77724,63.15097],[14.77671,63.15277],[14.77371,63.15562],[14.77161,63.15702],[14.77165,63.15894],[14.77024,63.16077],[14.7724,63.16272],[14.77288,63.16449],[14.77212,63.16625],[14.77064,63.16753],[14.76059,63.17194],[14.75748,63.17262],[14.75355,63.17292],[14.75033,63.17275],[14.74711,63.17219],[14.74263,63.17066],[14.73999,63.17019],[14.73664,63.16918],[14.73383,63.16793],[14.73204,63.1675],[14.72995,63.16855],[14.72795,63.16919],[14.72505,63.16973],[14.72193,63.16993],[14.71725,63.16955],[14.70968,63.16791],[14.71079,63.17043],[14.71133,63.17449],[14.71059,63.17618],[14.70915,63.17743],[14.70613,63.1788],[14.70253,63.18126],[14.70025,63.18227],[14.69746,63.18299],[14.69495,63.18332],[14.69188,63.18414],[14.68755,63.18475],[14.68618,63.18678],[14.68254,63.18922],[14.68081,63.19004],[14.67553,63.19187],[14.67398,63.19323],[14.67224,63.19415],[14.66588,63.19635],[14.6661,63.19762],[14.66558,63.19905],[14.6643,63.20035],[14.66239,63.20144],[14.66539,63.20295],[14.66684,63.20424],[14.66756,63.20599],[14.66715,63.20802],[14.66875,63.20924],[14.66963,63.21063],[14.66945,63.21277],[14.66751,63.21473],[14.66458,63.21609],[14.65982,63.2175],[14.65196,63.21908],[14.64897,63.21948],[14.64498,63.21956],[14.63788,63.219],[14.63565,63.21872],[14.63342,63.2182],[14.6308,63.22136],[14.629,63.22246],[14.62625,63.22359],[14.65233,63.22624],[14.65469,63.22391],[14.65546,63.2207],[14.66515,63.22277],[14.66669,63.22073],[14.6777,63.22297],[14.70945,63.22175],[14.74789,63.22462],[14.73547,63.23202],[14.73475,63.23226],[14.73488,63.2332],[14.73588,63.23365],[14.73572,63.23411],[14.7363,63.23517],[14.73529,63.23544],[14.73523,63.23616],[14.73448,63.23618],[14.73366,63.23667],[14.73335,63.237],[14.73354,63.23796],[14.73182,63.23914],[14.73201,63.2394],[14.73156,63.23979],[14.72915,63.241],[14.72768,63.24135],[14.72744,63.24263],[14.72789,63.24286],[14.72756,63.24334],[14.72875,63.2439],[14.72876,63.24435],[14.71738,63.25261],[14.73135,63.26631],[14.72678,63.27833],[14.72912,63.2789],[14.72995,63.2794],[14.72944,63.28047],[14.72819,63.28041],[14.72803,63.28064],[14.72726,63.28078],[14.72726,63.28102],[14.72675,63.28086],[14.72616,63.28092],[14.72601,63.2813],[14.72635,63.28154],[14.726,63.28205],[14.72549,63.28202],[14.72167,63.28308],[14.72862,63.29006],[14.73582,63.29291],[14.7362,63.3108],[14.74028,63.31194],[14.73303,63.31249],[14.73116,63.31201],[14.72381,63.30902],[14.71852,63.30641],[14.71654,63.30591],[14.71465,63.30563],[14.71328,63.30572],[14.7139,63.30594],[14.71297,63.30599],[14.71247,63.30577],[14.70808,63.30583],[14.70484,63.30529],[14.69409,63.30456],[14.69268,63.30475],[14.6909,63.30606],[14.68899,63.30671],[14.6873,63.30699],[14.68232,63.30734],[14.6742,63.30869],[14.66837,63.31079],[14.66533,63.31162],[14.66077,63.31181],[14.65662,63.31085],[14.65477,63.31081],[14.65291,63.3111],[14.65125,63.31166],[14.65002,63.31235],[14.64241,63.31279],[14.64113,63.31327],[14.63946,63.31491],[14.63691,63.31586],[14.63213,63.31704],[14.63763,63.32065],[14.64328,63.34349],[14.64803,63.35883],[14.64859,63.35918],[14.64661,63.35987],[14.64634,63.36067],[14.6453,63.36079],[14.64331,63.36219],[14.63906,63.36411],[14.63589,63.36507],[14.63382,63.36613],[14.62826,63.37043],[14.6271,63.37257],[14.62583,63.37321],[14.62069,63.37501],[14.61923,63.37609],[14.61909,63.37788],[14.61844,63.37903],[14.6152,63.38181],[14.61051,63.38396],[14.60688,63.38455],[14.60226,63.38648],[14.59952,63.38732],[14.59596,63.38813],[14.58987,63.38919],[14.58761,63.3901],[14.5868,63.3909],[14.58589,63.393],[14.58571,63.39849],[14.5852,63.39987],[14.58406,63.40057],[14.57995,63.40199],[14.5793,63.40259],[14.57923,63.40388],[14.57872,63.40464],[14.57769,63.40501],[14.57565,63.40538],[14.57384,63.40606],[14.57376,63.40656],[14.57187,63.40834],[14.56786,63.41115],[14.56776,63.41219],[14.5668,63.413],[14.56308,63.4144],[14.56127,63.41567],[14.5563,63.41796],[14.54677,63.42128],[14.54578,63.42273],[14.54485,63.42505],[14.54244,63.42668],[14.54144,63.42703],[14.53884,63.42891],[14.53635,63.43174],[14.53337,63.43363],[14.53058,63.43478],[14.52776,63.43522],[14.52571,63.43592],[14.52257,63.44021],[14.52167,63.44093],[14.51963,63.44149],[14.51422,63.4425],[14.50932,63.44398],[14.50384,63.44714],[14.49836,63.44959],[14.529,63.463],[14.57938,63.48434],[14.5831,63.48606],[14.5855,63.48789],[14.56947,63.49216],[14.54785,63.49908],[14.55192,63.50157],[14.55726,63.50411],[14.59244,63.50881],[14.57899,63.52079],[14.57989,63.53971],[14.5722,63.54291],[14.57799,63.54851],[14.54505,63.55801],[14.53133,63.58506],[14.53822,63.58868],[14.59515,63.56473],[14.69049,63.56843],[14.71227,63.53803],[14.74114,63.54963],[14.74267,63.54969],[14.74612,63.54448],[14.74856,63.54412],[14.74902,63.54451],[14.74976,63.54434],[14.75036,63.54462],[14.75094,63.54424],[14.75449,63.54331],[14.75483,63.54243],[14.75934,63.54152],[14.75932,63.53988],[14.75817,63.53917],[14.75621,63.53855],[14.75723,63.53792],[14.76305,63.53948],[14.77264,63.55802],[14.76424,63.55685],[14.78259,63.59321],[14.86379,63.5705],[14.94406,63.59486],[14.95399,63.59101],[14.95343,63.5907],[14.95392,63.59066],[14.95489,63.59007]],[[14.83525,63.32832],[14.83299,63.32647],[14.83016,63.32672],[14.82695,63.32666],[14.82264,63.32591],[14.81728,63.32383],[14.81585,63.32301],[14.81468,63.32195],[14.81265,63.32127],[14.81111,63.32049],[14.80932,63.31892],[14.80873,63.31722],[14.80917,63.31549],[14.81103,63.31342],[14.83079,63.3107],[14.83146,63.31042],[14.85468,63.30926],[14.86075,63.3123],[14.87006,63.31321],[14.87176,63.31484],[14.87421,63.31634],[14.87513,63.3174],[14.86822,63.32312],[14.87308,63.32597],[14.87444,63.32746],[14.87462,63.32965],[14.87278,63.332],[14.87268,63.33338],[14.87208,63.33441],[14.87067,63.33564],[14.8686,63.33666],[14.86456,63.33771],[14.85996,63.338],[14.85513,63.33752],[14.84906,63.33635],[14.84555,63.33489],[14.83846,63.32954],[14.83525,63.32832]]]}},{"type":"Feature","id":"2380R021","properties":{"code":"2380R021","name":"Östersund staden"},"geometry":{"type":"Polygon","coordinates":[[[14.64503,63.17952],[14.6545,63.17979],[14.65476,63.1784],[14.65675,63.17567],[14.65582,63.17565],[14.64839,63.17369],[14.64578,63.17358],[14.64257,63.17276],[14.64162,63.17275],[14.64173,63.17217],[14.63565,63.17198],[14.63299,63.17364],[14.6316,63.1734],[14.62095,63.17395],[14.62241,63.17942],[14.62381,63.18021],[14.64475,63.18093],[14.64503,63.17952]]]}},{"type":"Feature","id":"2380R022","properties":{"code":"2380R022","name":"Östersund södra landsbygd"},"geometry":{"type":"Polygon","coordinates":[[[14.38767,63.22164],[14.40553,63.21625],[14.4315,63.21945],[14.44546,63.22005],[14.44438,63.21785],[14.43975,63.21449],[14.44008,63.20651],[14.45458,63.19394],[14.45152,63.1936],[14.44951,63.19457],[14.44225,63.19699],[14.43309,63.19475],[14.42605,63.18617],[14.43507,63.17675],[14.44638,63.16971],[14.45942,63.16634],[14.47127,63.16867],[14.46915,63.17623],[14.45888,63.18581],[14.45885,63.18736],[14.46554,63.18648],[14.46702,63.18405],[14.47082,63.18349],[14.48042,63.181],[14.48844,63.17647],[14.49124,63.17532],[14.48965,63.1738],[14.48907,63.17236],[14.48933,63.17081],[14.49068,63.16918],[14.4925,63.16808],[14.49883,63.16579],[14.50328,63.16355],[14.50648,63.1624],[14.50719,63.16191],[14.50464,63.16189],[14.50171,63.16156],[14.49905,63.1609],[14.49684,63.15997],[14.48959,63.15581],[14.48842,63.15491],[14.48731,63.15291],[14.4877,63.15118],[14.48886,63.1499],[14.49027,63.14899],[14.49258,63.14804],[14.49523,63.14736],[14.49712,63.14572],[14.5006,63.14429],[14.50351,63.1437],[14.50666,63.14346],[14.50979,63.14359],[14.5125,63.14399],[14.5148,63.14217],[14.51818,63.1408],[14.52176,63.14014],[14.52619,63.14003],[14.52746,63.13529],[14.53122,63.12995],[14.53633,63.12512],[14.53921,63.12069],[14.54278,63.11777],[14.54314,63.11718],[14.54519,63.11131],[14.54634,63.10496],[14.5454,63.09781],[14.54561,63.09729],[14.55109,63.0936],[14.55534,63.08836],[14.55479,63.08194],[14.55512,63.07968],[14.55308,63.07178],[14.55299,63.06807],[14.55197,63.06579],[14.55199,63.06461],[14.5541,63.06102],[14.55837,63.05755],[14.57067,63.04994],[14.57103,63.04958],[14.57088,63.04928],[14.56949,63.04848],[14.571,63.04812],[14.57401,63.04691],[14.60803,63.05598],[14.62789,63.06236],[14.67414,63.06191],[14.69765,63.06757],[14.71583,63.07524],[14.74617,63.08188],[14.74884,63.08277],[14.75008,63.08221],[14.74783,63.08166],[14.74837,63.08119],[14.75085,63.08187],[14.75039,63.08208],[14.75548,63.08371],[14.75496,63.08414],[14.76199,63.08642],[14.77342,63.0897],[14.78335,63.08425],[14.79299,63.08016],[14.79676,63.07952],[14.80156,63.08274],[14.80517,63.08104],[14.80449,63.07931],[14.80484,63.07741],[14.80278,63.07588],[14.80194,63.07381],[14.80255,63.07191],[14.80482,63.07007],[14.80826,63.06855],[14.81186,63.06763],[14.81408,63.06672],[14.81611,63.06619],[14.81708,63.06487],[14.81888,63.06345],[14.82086,63.06238],[14.82383,63.06125],[14.82502,63.06018],[14.82646,63.05935],[14.82964,63.05826],[14.83377,63.05763],[14.84005,63.05713],[14.84244,63.05711],[14.84631,63.05753],[14.85028,63.05874],[14.8549,63.05325],[14.85728,63.05117],[14.87231,63.04208],[14.87495,63.04013],[14.87685,63.03929],[14.87667,63.03917],[14.87845,63.03762],[14.88093,63.03639],[14.88126,63.0365],[14.88374,63.03496],[14.88707,63.03332],[14.89927,63.02855],[14.8987,63.02862],[14.90007,63.02791],[14.91383,63.0227],[14.91683,63.02107],[14.92322,63.01642],[14.92431,63.01526],[14.92485,63.0153],[14.93796,63.00892],[14.94272,63.00732],[14.94335,63.00732],[14.95152,63.0043],[14.9584,62.99965],[14.96584,62.99781],[14.96585,62.99797],[14.96609,62.9979],[14.96857,62.99652],[14.97092,62.99464],[14.97528,62.99272],[14.97782,62.9912],[14.97654,62.98947],[14.97613,62.9893],[14.97667,62.98891],[14.9759,62.98828],[14.9761,62.98707],[14.97854,62.98552],[14.98096,62.98548],[14.9818,62.98511],[14.9836,62.97933],[14.98789,62.9729],[14.98539,62.97128],[14.98067,62.9644],[14.97758,62.9624],[14.97153,62.95929],[14.97107,62.95644],[14.9632,62.95155],[14.96619,62.95061],[14.96981,62.94823],[14.97085,62.94636],[14.97173,62.94552],[14.98266,62.94056],[14.98652,62.94016],[14.99341,62.94014],[14.99692,62.94033],[15.00124,62.93984],[14.9979,62.93555],[14.98835,62.93096],[14.96897,62.92041],[14.92165,62.90545],[14.89024,62.9226],[14.85456,62.92613],[14.79351,62.9328],[14.79229,62.93202],[14.77284,62.9129],[14.78075,62.89154],[14.69361,62.89607],[14.68716,62.90762],[14.66828,62.90935],[14.6368,62.90739],[14.60898,62.90607],[14.60151,62.90826],[14.59799,62.91147],[14.59738,62.9163],[14.60258,62.91894],[14.60343,62.9216],[14.60061,62.92527],[14.59516,62.94399],[14.56243,62.94988],[14.55893,62.95087],[14.55723,62.95088],[14.54857,62.95404],[14.538,62.95428],[14.53296,62.96785],[14.53584,62.9818],[14.53757,62.98838],[14.53811,62.99288],[14.54184,63.01039],[14.52025,63.01125],[14.51888,63.00841],[14.49742,63.01056],[14.48155,63.00983],[14.49511,63.01202],[14.49717,63.01249],[14.49675,63.01501],[14.49346,63.0147],[14.49288,63.01549],[14.49216,63.01549],[14.48707,63.01438],[14.4865,63.01489],[14.4911,63.01598],[14.48816,63.01756],[14.47848,63.0157],[14.46338,63.01743],[14.44824,63.0145],[14.43768,63.03003],[14.42124,63.04834],[14.41338,63.0565],[14.40453,63.06934],[14.40575,63.07791],[14.40551,63.08384],[14.40592,63.09002],[14.39698,63.10284],[14.39584,63.11196],[14.37819,63.1188],[14.3572,63.1211],[14.34306,63.12461],[14.33439,63.12738],[14.3284,63.13006],[14.31781,63.13797],[14.30981,63.14234],[14.30209,63.14356],[14.29311,63.14664],[14.28713,63.14923],[14.26471,63.16413],[14.30001,63.21212],[14.29154,63.21581],[14.27191,63.22492],[14.31305,63.23058],[14.38767,63.22164]]]}}]}