{"type":"FeatureCollection","features":[{"type":"Feature","id":"2401R001","properties":{"code":"2401R001","name":"Levaråkern"},"geometry":{"type":"Polygon","coordinates":[[[19.52921,63.58601],[19.53151,63.58582],[19.53432,63.58532],[19.53814,63.58401],[19.54151,63.58197],[19.54279,63.58013],[19.54479,63.57828],[19.54534,63.57673],[19.54517,63.5753],[19.54426,63.57396],[19.5431,63.57305],[19.54354,63.5713],[19.54339,63.57024],[19.54474,63.56888],[19.54556,63.56701],[19.5452,63.56396],[19.54448,63.56254],[19.54329,63.56144],[19.54177,63.56055],[19.53834,63.55905],[19.53552,63.55834],[19.53321,63.55802],[19.53003,63.55792],[19.5248,63.55848],[19.5235,63.5582],[19.52221,63.55714],[19.5206,63.5563],[19.51661,63.55514],[19.51429,63.55483],[19.51026,63.5546],[19.50547,63.55486],[19.50129,63.55587],[19.49818,63.55755],[19.50126,63.55843],[19.5013,63.55914],[19.50054,63.56051],[19.49918,63.5611],[19.50069,63.56154],[19.5008,63.56184],[19.50178,63.56232],[19.50239,63.56529],[19.5063,63.5661],[19.50808,63.56695],[19.50825,63.56747],[19.5075,63.56906],[19.50627,63.57053],[19.50562,63.57063],[19.50509,63.57175],[19.50441,63.57232],[19.50487,63.57298],[19.50483,63.57413],[19.50386,63.57691],[19.50013,63.57675],[19.49968,63.57765],[19.49983,63.57807],[19.50135,63.5788],[19.50199,63.57933],[19.50196,63.5798],[19.52032,63.58119],[19.52359,63.58414],[19.52484,63.58561],[19.52465,63.58582],[19.52921,63.58601]]]}},{"type":"Feature","id":"2401R002","properties":{"code":"2401R002","name":"Nordmaling centrum"},"geometry":{"type":"Polygon","coordinates":[[[19.52484,63.58561],[19.52032,63.58119],[19.50196,63.5798],[19.50199,63.57933],[19.50135,63.5788],[19.49983,63.57807],[19.49968,63.57765],[19.50013,63.57675],[19.50386,63.57691],[19.50483,63.57413],[19.50487,63.57298],[19.50441,63.57232],[19.50509,63.57175],[19.50562,63.57063],[19.50627,63.57053],[19.5075,63.56906],[19.50825,63.56747],[19.50808,63.56695],[19.5063,63.5661],[19.50239,63.56529],[19.50178,63.56232],[19.5008,63.56184],[19.50069,63.56154],[19.49918,63.5611],[19.50054,63.56051],[19.5013,63.55914],[19.50126,63.55843],[19.49818,63.55755],[19.49725,63.55799],[19.49271,63.55839],[19.48929,63.55772],[19.48605,63.55751],[19.48226,63.55777],[19.4788,63.55855],[19.47656,63.55948],[19.47315,63.56143],[19.47038,63.56407],[19.46954,63.56608],[19.47047,63.56812],[19.4652,63.56916],[19.46233,63.56998],[19.45985,63.57114],[19.4583,63.57241],[19.45744,63.57415],[19.45767,63.57559],[19.45869,63.57693],[19.46157,63.57893],[19.46324,63.57975],[19.46586,63.58056],[19.47468,63.5818],[19.47838,63.58338],[19.48299,63.58428],[19.48566,63.58444],[19.48901,63.58433],[19.50879,63.58553],[19.51351,63.58507],[19.51749,63.58386],[19.52214,63.58538],[19.52465,63.58582],[19.52484,63.58561]]]}},{"type":"Feature","id":"2401R003","properties":{"code":"2401R003","name":"Nordmalings norra omland"},"geometry":{"type":"Polygon","coordinates":[[[19.51086,63.86539],[19.51551,63.86535],[19.55859,63.833],[19.61362,63.81113],[19.63132,63.81084],[19.63442,63.81044],[19.63455,63.81003],[19.63533,63.8101],[19.63525,63.81033],[19.64178,63.80951],[19.64408,63.80643],[19.64741,63.80696],[19.6473,63.80914],[19.68089,63.81025],[19.74548,63.75004],[19.7516,63.74976],[19.76335,63.74263],[19.76573,63.74264],[19.77498,63.73855],[19.77755,63.7338],[19.77708,63.73343],[19.77908,63.72973],[19.76354,63.70435],[19.76107,63.68351],[19.76065,63.67435],[19.74638,63.66348],[19.73315,63.66696],[19.6886,63.67317],[19.68687,63.67524],[19.69088,63.68343],[19.68517,63.69029],[19.68108,63.69254],[19.67196,63.7014],[19.66618,63.70167],[19.64482,63.69552],[19.64097,63.69321],[19.62335,63.68989],[19.61773,63.68551],[19.61542,63.68448],[19.61356,63.68377],[19.60108,63.68066],[19.59806,63.6795],[19.58825,63.6789],[19.57844,63.6791],[19.56163,63.67146],[19.55509,63.66393],[19.5106,63.66376],[19.50595,63.67939],[19.51018,63.6828],[19.50045,63.68977],[19.4975,63.69264],[19.49531,63.69347],[19.4842,63.69304],[19.47618,63.69444],[19.46697,63.70229],[19.48152,63.7101],[19.48253,63.71195],[19.47821,63.7147],[19.51433,63.7188],[19.51522,63.72065],[19.5124,63.72144],[19.50854,63.72168],[19.5063,63.72448],[19.501,63.7262],[19.49653,63.72674],[19.4955,63.72634],[19.49058,63.72603],[19.48778,63.72697],[19.48541,63.72876],[19.4804,63.73018],[19.47297,63.73051],[19.46013,63.72926],[19.45399,63.72956],[19.44514,63.73151],[19.43958,63.73122],[19.43651,63.73259],[19.42641,63.74005],[19.41709,63.74345],[19.41409,63.7454],[19.41353,63.74613],[19.41345,63.748],[19.41133,63.74921],[19.40852,63.75014],[19.40571,63.75141],[19.37423,63.74043],[19.37159,63.73871],[19.38002,63.73042],[19.38247,63.72694],[19.38316,63.72261],[19.3854,63.72085],[19.38145,63.71681],[19.37364,63.70603],[19.37109,63.70485],[19.36032,63.70226],[19.33721,63.69524],[19.33475,63.69569],[19.27265,63.6956],[19.27365,63.69014],[19.2675,63.678],[19.2589,63.6726],[19.25905,63.66774],[19.27325,63.65509],[19.27488,63.65438],[19.28398,63.65145],[19.26606,63.64212],[19.26443,63.64091],[19.25894,63.64028],[19.23364,63.63196],[19.21811,63.64135],[19.20455,63.63731],[19.19049,63.63819],[19.18309,63.6332],[19.18236,63.63065],[19.18377,63.62856],[19.18243,63.61837],[19.16473,63.60993],[19.11522,63.64353],[19.0937,63.65837],[19.07753,63.66995],[19.0443,63.68881],[19.01575,63.71593],[18.99711,63.7313],[18.97135,63.73424],[18.95066,63.72897],[18.96187,63.76047],[18.94116,63.76862],[18.90147,63.78259],[18.81997,63.77348],[18.80071,63.7811],[18.80723,63.7885],[18.81441,63.79786],[18.82785,63.81425],[18.82907,63.81632],[18.82977,63.81663],[18.82991,63.81722],[18.8309,63.81743],[18.83031,63.81828],[18.83104,63.81867],[18.83078,63.81922],[18.83189,63.82008],[18.83049,63.82136],[18.83241,63.8229],[18.83199,63.82349],[18.83328,63.82393],[18.83619,63.82429],[18.8364,63.82482],[18.83689,63.82493],[18.84075,63.82466],[18.84164,63.82588],[18.84173,63.82659],[18.8394,63.82825],[18.83912,63.82945],[18.8396,63.83033],[18.85227,63.83143],[18.84687,63.84759],[18.89416,63.85333],[18.90901,63.85217],[18.90564,63.85141],[18.90495,63.85073],[18.90535,63.85007],[18.90586,63.84976],[18.90646,63.8497],[18.90736,63.84987],[18.90863,63.8507],[18.90915,63.8508],[18.9102,63.85069],[18.91066,63.85045],[18.91051,63.85],[18.90905,63.84982],[18.90865,63.84955],[18.90863,63.8491],[18.90946,63.8483],[18.92769,63.85221],[18.99814,63.81242],[19.0172,63.82233],[19.01883,63.82209],[19.01899,63.82229],[19.02042,63.82216],[19.02126,63.82236],[19.02122,63.8229],[19.02214,63.82339],[19.02237,63.82401],[19.02295,63.82407],[19.02351,63.82454],[19.02324,63.82488],[19.02361,63.82556],[19.02516,63.82647],[19.02366,63.82824],[19.02368,63.8286],[19.02324,63.82869],[19.02189,63.83014],[19.02271,63.83067],[19.02242,63.83145],[19.05737,63.83665],[19.06933,63.831],[19.1127,63.81151],[19.13406,63.82028],[19.14583,63.81255],[19.16673,63.82297],[19.21747,63.81442],[19.23536,63.8014],[19.23666,63.80131],[19.23747,63.80098],[19.23768,63.80056],[19.24041,63.7997],[19.24084,63.79922],[19.24483,63.79766],[19.24663,63.79625],[19.24754,63.79514],[19.24871,63.79479],[19.25135,63.79289],[19.25237,63.7913],[19.25398,63.79059],[19.25446,63.78885],[19.25627,63.78769],[19.2901,63.79367],[19.2934,63.79041],[19.30253,63.79218],[19.30152,63.79375],[19.30165,63.79445],[19.30045,63.7955],[19.32371,63.7996],[19.30489,63.80477],[19.29869,63.808],[19.33942,63.81797],[19.3398,63.81806],[19.3436,63.81741],[19.34459,63.81699],[19.34496,63.81648],[19.34363,63.81456],[19.34426,63.81282],[19.34568,63.81246],[19.34823,63.81236],[19.34899,63.81196],[19.34924,63.8109],[19.34635,63.8096],[19.34586,63.8091],[19.34587,63.80863],[19.3464,63.8083],[19.34743,63.80814],[19.34906,63.80912],[19.35098,63.80928],[19.35132,63.80947],[19.35127,63.81008],[19.35302,63.81069],[19.35425,63.81079],[19.35575,63.81154],[19.3575,63.81169],[19.36146,63.81242],[19.36228,63.81315],[19.36522,63.81414],[19.36631,63.81515],[19.36766,63.81539],[19.36798,63.81566],[19.36725,63.81642],[19.36749,63.8168],[19.36868,63.81702],[19.36927,63.81743],[19.37061,63.81741],[19.37082,63.81769],[19.36983,63.81805],[19.37035,63.81833],[19.37027,63.81861],[19.36881,63.81956],[19.36823,63.82026],[19.36896,63.82047],[19.36955,63.82117],[19.36916,63.82163],[19.36808,63.82175],[19.36628,63.82148],[19.36582,63.82121],[19.36428,63.82122],[19.36324,63.82227],[19.3622,63.8225],[19.36168,63.82322],[19.36064,63.82386],[19.36088,63.82421],[19.36155,63.8244],[19.36078,63.82533],[19.36119,63.82621],[19.35971,63.827],[19.35997,63.82842],[19.35874,63.82953],[19.35778,63.82969],[19.35691,63.83035],[19.35688,63.83083],[19.35575,63.8312],[19.3561,63.83193],[19.35564,63.83254],[19.35777,63.83342],[19.3591,63.83351],[19.36126,63.83431],[19.36219,63.83442],[19.36249,63.83467],[19.36505,63.83499],[19.36788,63.8365],[19.36866,63.83659],[19.42189,63.81539],[19.45124,63.8189],[19.45039,63.84796],[19.45475,63.8607],[19.45852,63.86118],[19.48126,63.86252],[19.48281,63.86455],[19.48432,63.86434],[19.48311,63.86277],[19.5087,63.86821],[19.51086,63.86539]]]}},{"type":"Feature","id":"2401R004","properties":{"code":"2401R004","name":"Nordmalings södra omland"},"geometry":{"type":"Polygon","coordinates":[[[19.40852,63.75014],[19.41133,63.74921],[19.41345,63.748],[19.41353,63.74613],[19.41409,63.7454],[19.41709,63.74345],[19.42641,63.74005],[19.43651,63.73259],[19.43958,63.73122],[19.44514,63.73151],[19.45399,63.72956],[19.46013,63.72926],[19.47297,63.73051],[19.4804,63.73018],[19.48541,63.72876],[19.48778,63.72697],[19.49058,63.72603],[19.4955,63.72634],[19.49653,63.72674],[19.501,63.7262],[19.5063,63.72448],[19.50854,63.72168],[19.5124,63.72144],[19.51522,63.72065],[19.51433,63.7188],[19.47821,63.7147],[19.48253,63.71195],[19.48152,63.7101],[19.46697,63.70229],[19.47618,63.69444],[19.4842,63.69304],[19.49531,63.69347],[19.4975,63.69264],[19.50045,63.68977],[19.51018,63.6828],[19.50595,63.67939],[19.5106,63.66376],[19.55509,63.66393],[19.56163,63.67146],[19.57844,63.6791],[19.58825,63.6789],[19.59806,63.6795],[19.60108,63.68066],[19.61356,63.68377],[19.61542,63.68448],[19.61773,63.68551],[19.62335,63.68989],[19.64097,63.69321],[19.64482,63.69552],[19.66618,63.70167],[19.67196,63.7014],[19.68108,63.69254],[19.68517,63.69029],[19.69088,63.68343],[19.68687,63.67524],[19.6886,63.67317],[19.73315,63.66696],[19.74638,63.66348],[19.72675,63.64848],[19.72307,63.64129],[19.74804,63.60296],[19.7493,63.6027],[19.75056,63.60194],[19.75188,63.59993],[19.75316,63.59876],[19.75292,63.59668],[19.75341,63.59619],[19.7535,63.59477],[19.75429,63.59376],[19.75404,63.59348],[19.75468,63.59305],[19.75671,63.59268],[19.75746,63.59195],[19.75767,63.59143],[19.75696,63.59052],[19.75761,63.58865],[19.75757,63.58609],[19.75796,63.58527],[19.75887,63.58458],[19.74994,63.58261],[19.71973,63.58543],[19.71945,63.58512],[19.72007,63.58434],[19.71978,63.58415],[19.72023,63.58393],[19.72011,63.58212],[19.72052,63.58164],[19.72029,63.58114],[19.72071,63.58103],[19.72068,63.57985],[19.72036,63.57982],[19.72078,63.57866],[19.72034,63.57848],[19.71985,63.57859],[19.71962,63.57827],[19.71907,63.57827],[19.71757,63.57694],[19.71682,63.57674],[19.71788,63.57527],[19.71879,63.57488],[19.71903,63.57446],[19.71939,63.5745],[19.71887,63.57425],[19.71864,63.57337],[19.71925,63.57268],[19.71931,63.5721],[19.724,63.57216],[19.72489,63.57151],[19.7268,63.57094],[19.72743,63.5698],[19.72915,63.56896],[19.72965,63.56841],[19.7297,63.56755],[19.73077,63.56599],[19.73158,63.5639],[19.73211,63.56347],[19.73183,63.56302],[19.73087,63.56254],[19.73135,63.5622],[19.73193,63.56227],[19.73312,63.56203],[19.73378,63.56051],[19.73551,63.55871],[19.73518,63.55826],[19.73575,63.55778],[19.73405,63.55333],[19.73331,63.55266],[19.73291,63.55091],[19.73393,63.55005],[19.73391,63.54945],[19.73446,63.54901],[19.73536,63.54609],[19.73602,63.54546],[19.73651,63.54408],[19.73769,63.54351],[19.73998,63.54361],[19.74116,63.54328],[19.74248,63.54074],[19.74294,63.53768],[19.74374,63.5361],[19.74444,63.53592],[19.74578,63.53606],[19.74722,63.53667],[19.75036,63.52741],[19.78739,63.5034],[19.84542,63.46671],[20.25789,63.23428],[20.16357,63.16643],[20.13796,63.16445],[20.12268,63.1636],[20.10734,63.163],[20.09197,63.16264],[20.07658,63.16252],[20.06118,63.16264],[20.04581,63.163],[20.03047,63.1636],[20.01519,63.16444],[19.99998,63.16552],[19.97312,63.16805],[19.93492,63.15802],[19.91181,63.15107],[19.89859,63.14751],[19.88511,63.14416],[19.87138,63.14102],[19.85742,63.13809],[19.84325,63.13539],[19.82887,63.13291],[19.81432,63.13066],[19.79961,63.12864],[19.78475,63.12685],[19.77175,63.12549],[19.60776,63.10202],[19.40567,63.33261],[19.29006,63.45926],[19.28645,63.46341],[19.29258,63.46821],[19.29279,63.46978],[19.28673,63.47012],[19.19086,63.57193],[19.18184,63.59843],[19.16473,63.60993],[19.18243,63.61837],[19.18377,63.62856],[19.18236,63.63065],[19.18309,63.6332],[19.19049,63.63819],[19.20455,63.63731],[19.21811,63.64135],[19.23364,63.63196],[19.25894,63.64028],[19.26443,63.64091],[19.26606,63.64212],[19.28398,63.65145],[19.27488,63.65438],[19.27325,63.65509],[19.25905,63.66774],[19.2589,63.6726],[19.2675,63.678],[19.27365,63.69014],[19.27265,63.6956],[19.33475,63.69569],[19.33721,63.69524],[19.36032,63.70226],[19.37109,63.70485],[19.37364,63.70603],[19.38145,63.71681],[19.3854,63.72085],[19.38316,63.72261],[19.38247,63.72694],[19.38002,63.73042],[19.37159,63.73871],[19.37423,63.74043],[19.40571,63.75141],[19.40852,63.75014]],[[19.5284,63.58603],[19.52529,63.58589],[19.52283,63.58553],[19.51749,63.58386],[19.51351,63.58507],[19.50879,63.58553],[19.48901,63.58433],[19.48566,63.58444],[19.48299,63.58428],[19.47838,63.58338],[19.47468,63.5818],[19.46655,63.58071],[19.46383,63.57997],[19.46209,63.57922],[19.45907,63.57726],[19.45785,63.57592],[19.45744,63.57415],[19.45804,63.57273],[19.45985,63.57114],[19.46233,63.56998],[19.4652,63.56916],[19.47047,63.56812],[19.46954,63.56608],[19.47038,63.56407],[19.47315,63.56143],[19.47819,63.55876],[19.48083,63.55802],[19.48452,63.55755],[19.48842,63.55763],[19.49271,63.55839],[19.49725,63.55799],[19.50012,63.55636],[19.50325,63.55529],[19.50632,63.55475],[19.51033,63.5546],[19.51504,63.55491],[19.51805,63.55545],[19.52117,63.55657],[19.5235,63.5582],[19.5248,63.55848],[19.53003,63.55792],[19.53321,63.55802],[19.53552,63.55834],[19.53894,63.55927],[19.54241,63.56088],[19.54412,63.56213],[19.54492,63.56319],[19.54559,63.5663],[19.54523,63.56801],[19.54339,63.57024],[19.54354,63.5713],[19.5431,63.57305],[19.54426,63.57396],[19.54517,63.5753],[19.54505,63.57784],[19.54419,63.57902],[19.54279,63.58013],[19.54151,63.58197],[19.53814,63.58401],[19.53432,63.58532],[19.53147,63.58583],[19.5284,63.58603]],[[19.42573,63.55741],[19.42718,63.559],[19.42743,63.56106],[19.42913,63.56313],[19.42929,63.56425],[19.42879,63.5657],[19.42698,63.56741],[19.42464,63.56857],[19.42101,63.56958],[19.41708,63.57002],[19.41209,63.56979],[19.40539,63.56858],[19.40215,63.56734],[19.39937,63.56522],[19.39561,63.56399],[19.39286,63.56333],[19.39031,63.56228],[19.38584,63.56166],[19.3822,63.5604],[19.37892,63.56052],[19.3752,63.56033],[19.37229,63.55984],[19.36975,63.55905],[19.36774,63.55799],[19.36664,63.55705],[19.36552,63.55457],[19.36229,63.5532],[19.35788,63.55021],[19.35682,63.54847],[19.35637,63.54608],[19.3569,63.544],[19.35458,63.54212],[19.35221,63.54078],[19.35087,63.53916],[19.35071,63.53737],[19.35197,63.53415],[19.35359,63.53219],[19.35649,63.53039],[19.35943,63.52924],[19.36302,63.52856],[19.36704,63.52842],[19.37086,63.52882],[19.37355,63.52951],[19.37621,63.53073],[19.38043,63.53153],[19.38309,63.53231],[19.38527,63.53338],[19.38675,63.53464],[19.38935,63.53429],[19.39265,63.53422],[19.39575,63.5345],[19.39854,63.53511],[19.40504,63.53731],[19.40707,63.53845],[19.40817,63.5395],[19.40977,63.5387],[19.4119,63.53799],[19.41321,63.53676],[19.4155,63.53556],[19.41706,63.53399],[19.42032,63.53245],[19.42051,63.53021],[19.42228,63.52805],[19.42419,63.52688],[19.4267,63.52597],[19.4275,63.52494],[19.42919,63.52376],[19.43207,63.52264],[19.43485,63.52206],[19.43902,63.52173],[19.44365,63.52201],[19.4474,63.52294],[19.45137,63.52213],[19.45628,63.52198],[19.46,63.52237],[19.46326,63.52326],[19.46574,63.52456],[19.46698,63.5258],[19.46794,63.52996],[19.47005,63.53319],[19.47043,63.53679],[19.46916,63.53875],[19.46692,63.54013],[19.46394,63.54112],[19.46162,63.54234],[19.45813,63.54352],[19.45449,63.54633],[19.45288,63.54719],[19.45029,63.5482],[19.44754,63.54891],[19.44563,63.55],[19.44097,63.5518],[19.43829,63.5525],[19.43425,63.55295],[19.43036,63.55282],[19.42678,63.55216],[19.41971,63.54984],[19.41508,63.54987],[19.41257,63.55131],[19.41408,63.5522],[19.41875,63.55329],[19.42108,63.55417],[19.42284,63.5553],[19.42372,63.55626],[19.42573,63.55741]]]}},{"type":"Feature","id":"2401R005","properties":{"code":"2401R005","name":"Rundvik-Lögdeå"},"geometry":{"type":"Polygon","coordinates":[[[19.41785,63.56998],[19.42258,63.56923],[19.42464,63.56857],[19.42653,63.56769],[19.42879,63.5657],[19.42923,63.56347],[19.42873,63.56237],[19.42743,63.56106],[19.42718,63.559],[19.42573,63.55741],[19.42372,63.55626],[19.42284,63.5553],[19.42108,63.55417],[19.41875,63.55329],[19.41408,63.5522],[19.41257,63.55131],[19.41306,63.55096],[19.41508,63.54987],[19.41971,63.54984],[19.42678,63.55216],[19.42962,63.55273],[19.43425,63.55295],[19.43899,63.55235],[19.44097,63.5518],[19.44507,63.55023],[19.44754,63.54891],[19.45029,63.5482],[19.45288,63.54719],[19.45449,63.54633],[19.45813,63.54352],[19.46162,63.54234],[19.46394,63.54112],[19.46692,63.54013],[19.46949,63.53844],[19.47043,63.53679],[19.47015,63.53353],[19.46794,63.52996],[19.46735,63.52832],[19.46718,63.52614],[19.46611,63.52485],[19.46486,63.524],[19.46266,63.52304],[19.46,63.52237],[19.45704,63.52201],[19.45288,63.52201],[19.4499,63.52234],[19.4474,63.52294],[19.44365,63.52201],[19.43902,63.52173],[19.43485,63.52206],[19.43143,63.52283],[19.42829,63.52431],[19.4267,63.52597],[19.42419,63.52688],[19.42228,63.52805],[19.42051,63.53021],[19.42032,63.53245],[19.41706,63.53399],[19.4155,63.53556],[19.41321,63.53676],[19.4119,63.53799],[19.40977,63.5387],[19.40817,63.5395],[19.40707,63.53845],[19.40504,63.53731],[19.39854,63.53511],[19.39575,63.5345],[19.39265,63.53422],[19.38935,63.53429],[19.38675,63.53464],[19.38481,63.5331],[19.38249,63.53209],[19.37621,63.53073],[19.37293,63.52931],[19.36937,63.5286],[19.36453,63.52844],[19.36009,63.52907],[19.35649,63.53039],[19.35401,63.53187],[19.35291,63.53283],[19.35195,63.53418],[19.3509,63.53667],[19.35062,63.53808],[19.35104,63.5395],[19.35221,63.54078],[19.35458,63.54212],[19.3569,63.544],[19.35637,63.54608],[19.35682,63.54847],[19.35788,63.55021],[19.36229,63.5532],[19.36573,63.55473],[19.36637,63.55673],[19.36818,63.55827],[19.37034,63.55927],[19.37369,63.56012],[19.37752,63.56047],[19.3822,63.5604],[19.38584,63.56166],[19.39031,63.56228],[19.39286,63.56333],[19.39561,63.56399],[19.39937,63.56522],[19.40215,63.56734],[19.40396,63.56813],[19.40606,63.56875],[19.41283,63.56988],[19.41785,63.56998]]]}}]}