{"type":"FeatureCollection","features":[{"type":"Feature","id":"2403R001","properties":{"code":"2403R001","name":"Bjurholms centralort"},"geometry":{"type":"Polygon","coordinates":[[[19.22012,63.94409],[19.22455,63.94374],[19.22761,63.94317],[19.23152,63.94199],[19.23373,63.94089],[19.23495,63.93991],[19.23811,63.93914],[19.24068,63.93802],[19.24559,63.93751],[19.24919,63.93665],[19.25259,63.93499],[19.25368,63.93398],[19.25442,63.93255],[19.25415,63.93058],[19.25252,63.92882],[19.24988,63.92745],[19.24441,63.92594],[19.2428,63.92428],[19.24412,63.92257],[19.24442,63.92116],[19.24391,63.9198],[19.24187,63.91762],[19.23992,63.91654],[19.23736,63.91569],[19.23504,63.91522],[19.22793,63.91434],[19.22548,63.91429],[19.22231,63.91454],[19.21796,63.91558],[19.21626,63.91632],[19.21451,63.91743],[19.21247,63.92026],[19.20826,63.92012],[19.20543,63.9198],[19.20146,63.91971],[19.19822,63.91996],[19.19524,63.92057],[19.19274,63.92147],[19.19073,63.9227],[19.18764,63.92401],[19.18605,63.92528],[19.18518,63.92685],[19.18554,63.92953],[19.18688,63.93113],[19.18987,63.9327],[19.19531,63.93425],[19.19556,63.93552],[19.19687,63.93743],[19.19941,63.9393],[19.20184,63.94068],[19.20426,63.94165],[19.21145,63.94356],[19.21589,63.94411],[19.22012,63.94409]]]}},{"type":"Feature","id":"2403R002","properties":{"code":"2403R002","name":"Bjurholms landsbygd"},"geometry":{"type":"Polygon","coordinates":[[[19.06186,64.1409],[19.1026,64.12967],[19.11246,64.12072],[19.12143,64.12136],[19.16052,64.13281],[19.1827,64.12883],[19.22861,64.09545],[19.24516,64.09896],[19.30729,64.07029],[19.32171,64.07812],[19.34368,64.07073],[19.35379,64.04886],[19.42112,64.01759],[19.45792,64.00018],[19.46355,63.98854],[19.47067,63.99048],[19.52822,63.87231],[19.48311,63.86277],[19.48432,63.86434],[19.48281,63.86455],[19.48126,63.86252],[19.45852,63.86118],[19.45475,63.8607],[19.45039,63.84796],[19.45124,63.8189],[19.42189,63.81539],[19.36866,63.83659],[19.36788,63.8365],[19.36505,63.83499],[19.36249,63.83467],[19.36219,63.83442],[19.36126,63.83431],[19.3591,63.83351],[19.35777,63.83342],[19.35564,63.83254],[19.3561,63.83193],[19.35575,63.8312],[19.35688,63.83083],[19.35691,63.83035],[19.35778,63.82969],[19.35874,63.82953],[19.35997,63.82842],[19.35971,63.827],[19.36119,63.82621],[19.36078,63.82533],[19.36155,63.8244],[19.36088,63.82421],[19.36064,63.82386],[19.36168,63.82322],[19.3622,63.8225],[19.36324,63.82227],[19.36428,63.82122],[19.36582,63.82121],[19.36628,63.82148],[19.36808,63.82175],[19.36916,63.82163],[19.36955,63.82117],[19.36896,63.82047],[19.36823,63.82026],[19.36881,63.81956],[19.37027,63.81861],[19.37035,63.81833],[19.36983,63.81805],[19.37082,63.81769],[19.37061,63.81741],[19.36927,63.81743],[19.36868,63.81702],[19.36749,63.8168],[19.36725,63.81642],[19.36798,63.81566],[19.36766,63.81539],[19.36631,63.81515],[19.36522,63.81414],[19.36228,63.81315],[19.36146,63.81242],[19.3575,63.81169],[19.35575,63.81154],[19.35425,63.81079],[19.35302,63.81069],[19.35127,63.81008],[19.35132,63.80947],[19.35098,63.80928],[19.34906,63.80912],[19.34743,63.80814],[19.3464,63.8083],[19.34587,63.80863],[19.34586,63.8091],[19.34635,63.8096],[19.34924,63.8109],[19.34899,63.81196],[19.34823,63.81236],[19.34568,63.81246],[19.34426,63.81282],[19.34363,63.81456],[19.34496,63.81648],[19.34459,63.81699],[19.3436,63.81741],[19.3398,63.81806],[19.33942,63.81797],[19.29869,63.808],[19.30489,63.80477],[19.32371,63.7996],[19.30045,63.7955],[19.30165,63.79445],[19.30152,63.79375],[19.30253,63.79218],[19.2934,63.79041],[19.2901,63.79367],[19.25627,63.78769],[19.25446,63.78885],[19.25398,63.79059],[19.25237,63.7913],[19.25135,63.79289],[19.24871,63.79479],[19.24754,63.79514],[19.24663,63.79625],[19.24483,63.79766],[19.24084,63.79922],[19.24041,63.7997],[19.23768,63.80056],[19.23747,63.80098],[19.23666,63.80131],[19.23536,63.8014],[19.21747,63.81442],[19.16673,63.82297],[19.14583,63.81255],[19.13406,63.82028],[19.1127,63.81151],[19.06933,63.831],[19.05737,63.83665],[19.02242,63.83145],[19.02271,63.83067],[19.02189,63.83014],[19.02324,63.82869],[19.02368,63.8286],[19.02366,63.82824],[19.02516,63.82647],[19.02361,63.82556],[19.02324,63.82488],[19.02351,63.82454],[19.02295,63.82407],[19.02237,63.82401],[19.02214,63.82339],[19.02122,63.8229],[19.02126,63.82236],[19.02042,63.82216],[19.01899,63.82229],[19.01883,63.82209],[19.0172,63.82233],[18.99814,63.81242],[18.92769,63.85221],[18.90946,63.8483],[18.90863,63.8491],[18.90865,63.84955],[18.90905,63.84982],[18.91051,63.85],[18.91066,63.85045],[18.9102,63.85069],[18.90915,63.8508],[18.90863,63.8507],[18.90736,63.84987],[18.90646,63.8497],[18.90586,63.84976],[18.90535,63.85007],[18.90495,63.85073],[18.90564,63.85141],[18.90901,63.85217],[18.89416,63.85333],[18.84687,63.84759],[18.85227,63.83143],[18.8396,63.83033],[18.83912,63.82945],[18.8394,63.82825],[18.84173,63.82659],[18.84164,63.82588],[18.84075,63.82466],[18.83689,63.82493],[18.8364,63.82482],[18.83619,63.82429],[18.83328,63.82393],[18.83199,63.82349],[18.83241,63.8229],[18.83049,63.82136],[18.83189,63.82008],[18.83078,63.81922],[18.83104,63.81867],[18.83031,63.81828],[18.8309,63.81743],[18.82991,63.81722],[18.82977,63.81663],[18.82907,63.81632],[18.82785,63.81425],[18.81441,63.79786],[18.80723,63.7885],[18.7573,63.81043],[18.72194,63.80639],[18.70316,63.80963],[18.70245,63.81624],[18.68523,63.81879],[18.68443,63.82034],[18.63755,63.82622],[18.59437,63.82255],[18.4855,63.84265],[18.4838,63.84724],[18.48362,63.85026],[18.48196,63.85155],[18.48184,63.85197],[18.48156,63.85542],[18.48198,63.8561],[18.47878,63.85891],[18.47538,63.86079],[18.4726,63.86313],[18.47235,63.86381],[18.47262,63.86421],[18.47367,63.8646],[18.47918,63.86608],[18.45408,63.88634],[18.45122,63.88891],[18.44979,63.88867],[18.43984,63.89302],[18.426,63.90898],[18.42985,63.91514],[18.42623,63.91997],[18.41592,63.92042],[18.41309,63.92142],[18.40822,63.92155],[18.40644,63.92659],[18.41084,63.92874],[18.41341,63.92935],[18.418,63.92995],[18.41822,63.93054],[18.41749,63.93154],[18.41753,63.93236],[18.41914,63.9335],[18.42047,63.93389],[18.42794,63.93401],[18.43028,63.93352],[18.43254,63.93333],[18.43403,63.93345],[18.43855,63.93455],[18.44019,63.9346],[18.45588,63.93222],[18.46263,63.93195],[18.46428,63.93168],[18.46489,63.93171],[18.46541,63.93199],[18.46574,63.93327],[18.46533,63.93664],[18.46482,63.93774],[18.46256,63.94012],[18.46325,63.94174],[18.46284,63.94297],[18.46301,63.94429],[18.46477,63.94692],[18.46803,63.95068],[18.46998,63.9514],[18.47043,63.95227],[18.4709,63.95247],[18.47352,63.95298],[18.47247,63.95433],[18.47262,63.9551],[18.47486,63.95664],[18.47547,63.95743],[18.47572,63.95965],[18.47477,63.9612],[18.47448,63.96372],[18.47104,63.96784],[18.47093,63.96886],[18.46876,63.97007],[18.46521,63.97305],[18.46501,63.97483],[18.46349,63.97563],[18.46191,63.97614],[18.45711,63.97676],[18.45422,63.97754],[18.45381,63.97785],[18.45394,63.97814],[18.45545,63.97929],[18.45515,63.97984],[18.45411,63.98037],[18.45035,63.98195],[18.44648,63.98274],[18.44646,63.98311],[18.44559,63.98361],[18.44212,63.98481],[18.43798,63.98678],[18.42734,63.99097],[18.42292,63.99176],[18.42005,63.99272],[18.40965,63.99466],[18.40845,63.99502],[18.40887,63.99505],[18.40725,63.99592],[18.46605,64.00557],[18.60273,64.02924],[18.81528,64.06505],[18.89066,64.07802],[18.89584,64.07547],[18.89303,64.07448],[18.89444,64.07398],[18.89475,64.07294],[18.89549,64.07287],[18.89675,64.07317],[18.89743,64.07287],[18.89935,64.07361],[18.8987,64.074],[18.91276,64.07974],[18.91065,64.08089],[18.90944,64.08118],[19.00756,64.09813],[19.00723,64.09705],[19.00785,64.09697],[19.00936,64.09527],[19.01736,64.09666],[19.01775,64.097],[19.01871,64.09726],[19.01966,64.09727],[19.02387,64.09666],[19.0246,64.0968],[19.02529,64.09702],[19.02616,64.09772],[19.02708,64.09897],[19.02739,64.10149],[19.07148,64.10896],[19.06186,64.1409]],[[19.21856,63.94415],[19.21512,63.94407],[19.21139,63.94355],[19.20426,63.94165],[19.20184,63.94068],[19.19941,63.9393],[19.19687,63.93743],[19.19556,63.93552],[19.19531,63.93425],[19.18987,63.9327],[19.18688,63.93113],[19.18554,63.92953],[19.18518,63.92685],[19.18605,63.92528],[19.18764,63.92401],[19.19073,63.9227],[19.19274,63.92147],[19.19524,63.92057],[19.19822,63.91996],[19.20146,63.91971],[19.20543,63.9198],[19.20826,63.92012],[19.21247,63.92026],[19.21451,63.91743],[19.21626,63.91632],[19.21796,63.91558],[19.22231,63.91454],[19.22548,63.91429],[19.22793,63.91434],[19.23504,63.91522],[19.23736,63.91569],[19.23992,63.91654],[19.24187,63.91762],[19.24391,63.9198],[19.24442,63.92116],[19.24412,63.92257],[19.2428,63.92428],[19.24441,63.92594],[19.24988,63.92745],[19.25252,63.92882],[19.2543,63.93092],[19.25432,63.93289],[19.25368,63.93398],[19.25217,63.93528],[19.24856,63.93685],[19.24559,63.93751],[19.24068,63.93802],[19.23811,63.93914],[19.23495,63.93991],[19.23373,63.94089],[19.23152,63.94199],[19.22761,63.94317],[19.22434,63.94376],[19.21856,63.94415]]]}}]}