{"type":"FeatureCollection","features":[{"type":"Feature","id":"2404R001","properties":{"code":"2404R001","name":"Umeälvsdalen"},"geometry":{"type":"Polygon","coordinates":[[[19.02512,64.44004],[19.0264,64.4346],[19.10842,64.43757],[19.1133,64.4249],[19.12177,64.42637],[19.12344,64.41706],[19.13213,64.41561],[19.13661,64.41106],[19.14777,64.41306],[19.17602,64.40023],[19.22626,64.38702],[19.29645,64.36819],[19.31125,64.34641],[19.3282,64.3475],[19.33231,64.33584],[19.33071,64.32481],[19.3295,64.32454],[19.32187,64.31735],[19.32382,64.3168],[19.34246,64.32178],[19.34892,64.31696],[19.35928,64.32007],[19.35808,64.32782],[19.34054,64.33035],[19.34089,64.3321],[19.35742,64.33336],[19.34664,64.34205],[19.35843,64.34508],[19.37437,64.33234],[19.3903,64.342],[19.38355,64.35244],[19.39779,64.34984],[19.40823,64.34759],[19.41062,64.34605],[19.40954,64.32942],[19.43918,64.32306],[19.44481,64.32335],[19.46461,64.31354],[19.45965,64.30914],[19.45978,64.2984],[19.46306,64.29479],[19.46016,64.29061],[19.48392,64.27152],[19.47996,64.26472],[19.49138,64.25768],[19.43151,64.23869],[19.46309,64.23369],[19.46751,64.23008],[19.48758,64.22691],[19.4862,64.22119],[19.48297,64.21428],[19.47469,64.21001],[19.49233,64.20252],[19.5158,64.19801],[19.51751,64.19646],[19.52022,64.19457],[19.52506,64.18847],[19.52703,64.18745],[19.52597,64.17401],[19.52959,64.17041],[19.56436,64.15969],[19.57478,64.15924],[19.57602,64.15626],[19.61322,64.13646],[19.62898,64.13951],[19.63847,64.1438],[19.65612,64.14334],[19.65791,64.14158],[19.67775,64.13073],[19.69089,64.13373],[19.69186,64.13541],[19.71195,64.13972],[19.72006,64.14004],[19.72121,64.13698],[19.7176,64.13391],[19.71478,64.13325],[19.71172,64.12699],[19.70591,64.12139],[19.70741,64.12107],[19.72418,64.12238],[19.72567,64.12508],[19.74108,64.13108],[19.7499,64.12922],[19.76728,64.12511],[19.76904,64.12408],[19.77685,64.12287],[19.78642,64.12582],[19.80535,64.12608],[19.81861,64.12266],[19.8219,64.12152],[19.82409,64.11756],[19.80373,64.09622],[19.79926,64.0969],[19.79963,64.09922],[19.79904,64.09958],[19.79448,64.09768],[19.79721,64.09725],[19.79768,64.09677],[19.80308,64.09554],[19.76795,64.05878],[19.67912,64.05534],[19.6781,64.05506],[19.66654,64.06387],[19.66747,64.06964],[19.66704,64.06979],[19.66603,64.06961],[19.66538,64.06971],[19.66491,64.06942],[19.65998,64.07188],[19.64178,64.0653],[19.64793,64.05976],[19.64848,64.06008],[19.64991,64.05877],[19.64946,64.05837],[19.65955,64.04931],[19.65653,64.0484],[19.64467,64.0494],[19.64184,64.0537],[19.63985,64.04982],[19.62343,64.05114],[19.61746,64.03882],[19.57002,64.02713],[19.57273,64.01957],[19.57238,64.01924],[19.57284,64.01901],[19.57466,64.01446],[19.56762,64.01541],[19.56674,64.0157],[19.56648,64.0164],[19.56529,64.01711],[19.56111,64.01831],[19.55917,64.02017],[19.55622,64.02091],[19.55486,64.0219],[19.55552,64.02302],[19.55401,64.02462],[19.55546,64.02596],[19.55564,64.02649],[19.55368,64.02948],[19.54992,64.03166],[19.5479,64.03327],[19.54464,64.03431],[19.54316,64.03642],[19.5425,64.03682],[19.53917,64.03707],[19.53615,64.03687],[19.53556,64.03703],[19.52109,64.03641],[19.49175,64.03985],[19.46559,64.04331],[19.4314,64.03621],[19.41815,64.01897],[19.35379,64.04886],[19.34368,64.07073],[19.32171,64.07812],[19.30729,64.07029],[19.24516,64.09896],[19.22861,64.09545],[19.1827,64.12883],[19.16052,64.13281],[19.1302,64.16683],[19.13532,64.16792],[19.12968,64.17183],[19.12743,64.18082],[19.1645,64.18521],[19.16967,64.18436],[19.17625,64.18663],[19.11671,64.22037],[19.07729,64.22935],[19.0373,64.22227],[19.00342,64.33171],[18.97277,64.42757],[18.97501,64.43007],[18.9794,64.42824],[19.0137,64.44036],[19.02512,64.44004]]]}},{"type":"Feature","id":"2404R002","properties":{"code":"2404R002","name":"Vindelns omland"},"geometry":{"type":"Polygon","coordinates":[[[19.28758,64.77776],[19.3831,64.72738],[19.38566,64.71893],[19.38811,64.71798],[19.38554,64.71741],[19.392,64.69976],[19.39277,64.69925],[19.40786,64.69357],[19.39597,64.68936],[19.50548,64.63761],[19.66189,64.62243],[19.71128,64.59752],[19.74835,64.58684],[19.75113,64.58288],[19.78826,64.56905],[19.77595,64.56192],[19.78433,64.55695],[19.79005,64.55306],[19.78934,64.55276],[19.80806,64.54401],[19.79134,64.53284],[19.85903,64.50389],[19.87896,64.51236],[19.94617,64.47793],[19.9411,64.47539],[19.9919,64.44859],[19.99678,64.45179],[20.01654,64.44174],[20.03996,64.45524],[20.06982,64.43986],[20.0731,64.42265],[20.082,64.42139],[20.08284,64.41478],[20.07037,64.41405],[20.08392,64.4071],[20.0893,64.40181],[20.10598,64.39202],[20.10323,64.39062],[20.13324,64.37408],[20.13324,64.3719],[20.11233,64.37282],[20.10085,64.36096],[20.11593,64.35401],[20.14205,64.34771],[20.14105,64.34204],[20.11705,64.34575],[20.11622,64.34027],[20.07665,64.34879],[20.06434,64.33633],[20.04974,64.33878],[20.04195,64.33595],[20.06885,64.32338],[20.05876,64.32483],[20.03187,64.32623],[20.03278,64.32273],[20.03844,64.32249],[20.03986,64.31554],[20.03048,64.29952],[20.03012,64.29948],[20.02451,64.27227],[20.08171,64.26682],[20.07955,64.27287],[20.08421,64.27358],[20.09013,64.26767],[20.10205,64.26887],[20.10052,64.2638],[20.09931,64.24063],[20.08246,64.23855],[20.05785,64.21772],[20.07434,64.20419],[20.07085,64.20572],[20.05978,64.19475],[20.05437,64.19447],[20.0467,64.18494],[20.02049,64.16556],[20.02868,64.15413],[20.02739,64.13011],[20.01834,64.11704],[20.00603,64.11646],[19.9931,64.11721],[19.98626,64.11922],[19.98978,64.12525],[19.98683,64.12469],[19.98212,64.11537],[19.96134,64.11424],[19.96124,64.1144],[19.95526,64.11387],[19.95463,64.11624],[19.95307,64.11613],[19.95404,64.11547],[19.95503,64.11385],[19.94166,64.11266],[19.92573,64.13181],[19.8926,64.12876],[19.86145,64.13197],[19.84428,64.12383],[19.83117,64.12685],[19.83139,64.12707],[19.8305,64.12771],[19.82274,64.12907],[19.81788,64.12879],[19.8219,64.12152],[19.81861,64.12266],[19.80535,64.12608],[19.78642,64.12582],[19.77685,64.12287],[19.76904,64.12408],[19.76728,64.12511],[19.7499,64.12922],[19.74108,64.13108],[19.72567,64.12508],[19.72418,64.12238],[19.70741,64.12107],[19.70591,64.12139],[19.71172,64.12699],[19.71478,64.13325],[19.7176,64.13391],[19.72121,64.13698],[19.72006,64.14004],[19.71195,64.13972],[19.69186,64.13541],[19.69089,64.13373],[19.67775,64.13073],[19.65791,64.14158],[19.65612,64.14334],[19.63847,64.1438],[19.62898,64.13951],[19.61322,64.13646],[19.57602,64.15626],[19.57478,64.15924],[19.56436,64.15969],[19.52959,64.17041],[19.52597,64.17401],[19.52703,64.18745],[19.52506,64.18847],[19.52022,64.19457],[19.51751,64.19646],[19.5158,64.19801],[19.49233,64.20252],[19.47469,64.21001],[19.48297,64.21428],[19.4862,64.22119],[19.48758,64.22691],[19.46751,64.23008],[19.46309,64.23369],[19.43151,64.23869],[19.49138,64.25768],[19.47996,64.26472],[19.48392,64.27152],[19.46016,64.29061],[19.46306,64.29479],[19.45978,64.2984],[19.45965,64.30914],[19.46461,64.31354],[19.44481,64.32335],[19.43918,64.32306],[19.40954,64.32942],[19.41062,64.34605],[19.40823,64.34759],[19.39779,64.34984],[19.38355,64.35244],[19.3903,64.342],[19.37437,64.33234],[19.35843,64.34508],[19.34664,64.34205],[19.35742,64.33336],[19.34089,64.3321],[19.34054,64.33035],[19.35808,64.32782],[19.35928,64.32007],[19.34892,64.31696],[19.34246,64.32178],[19.32382,64.3168],[19.32187,64.31735],[19.3295,64.32454],[19.33071,64.32481],[19.33231,64.33584],[19.3282,64.3475],[19.31125,64.34641],[19.29645,64.36819],[19.22626,64.38702],[19.17602,64.40023],[19.14777,64.41306],[19.13661,64.41106],[19.13213,64.41561],[19.12344,64.41706],[19.12177,64.42637],[19.1133,64.4249],[19.10842,64.43757],[19.0264,64.4346],[19.02512,64.44004],[19.0137,64.44036],[18.9794,64.42824],[18.97501,64.43007],[19.06391,64.52891],[19.13767,64.60971],[19.17874,64.65521],[19.28758,64.77776]],[[19.71336,64.21963],[19.70888,64.21937],[19.70431,64.21833],[19.70139,64.21692],[19.69836,64.21442],[19.69742,64.21266],[19.69781,64.21076],[19.69588,64.20808],[19.69412,64.20688],[19.69304,64.20549],[19.69261,64.20175],[19.69181,64.20011],[19.69209,64.19836],[19.69013,64.19712],[19.68887,64.19579],[19.68842,64.19466],[19.68857,64.19322],[19.68818,64.19192],[19.68855,64.19055],[19.69012,64.18807],[19.69109,64.18708],[19.69299,64.18593],[19.69489,64.18519],[19.6975,64.18456],[19.69979,64.18334],[19.704,64.18193],[19.70704,64.18131],[19.71034,64.18104],[19.71543,64.18133],[19.71796,64.18182],[19.72009,64.18246],[19.7259,64.18517],[19.72786,64.187],[19.73259,64.18768],[19.73596,64.18862],[19.73779,64.18934],[19.74082,64.19119],[19.74212,64.19281],[19.7457,64.19259],[19.74899,64.19278],[19.75262,64.19347],[19.75586,64.19386],[19.75879,64.19458],[19.76121,64.19559],[19.76298,64.19683],[19.76388,64.19799],[19.76451,64.19971],[19.76419,64.20136],[19.76281,64.20338],[19.76114,64.20463],[19.75895,64.20571],[19.75493,64.2068],[19.75089,64.20724],[19.74703,64.20816],[19.74315,64.20848],[19.74159,64.20986],[19.73944,64.21093],[19.73752,64.21289],[19.73112,64.21616],[19.72771,64.2171],[19.72248,64.21791],[19.71837,64.21914],[19.71336,64.21963]]]}},{"type":"Feature","id":"2404R003","properties":{"code":"2404R003","name":"Vindelns tätort"},"geometry":{"type":"Polygon","coordinates":[[[19.71493,64.21957],[19.71908,64.21899],[19.72248,64.21791],[19.72771,64.2171],[19.73116,64.21614],[19.73752,64.21289],[19.73944,64.21093],[19.74159,64.20986],[19.74315,64.20848],[19.74703,64.20816],[19.75089,64.20724],[19.75493,64.2068],[19.75895,64.20571],[19.76114,64.20463],[19.76281,64.20338],[19.76419,64.20136],[19.76451,64.19971],[19.76388,64.19799],[19.76298,64.19683],[19.76121,64.19559],[19.75879,64.19458],[19.75586,64.19386],[19.75262,64.19347],[19.74899,64.19278],[19.7457,64.19259],[19.74212,64.19281],[19.74082,64.19119],[19.73779,64.18934],[19.73596,64.18862],[19.73259,64.18768],[19.72786,64.187],[19.7259,64.18517],[19.72009,64.18246],[19.71796,64.18182],[19.71543,64.18133],[19.71034,64.18104],[19.70704,64.18131],[19.704,64.18193],[19.69979,64.18334],[19.6975,64.18456],[19.69422,64.18542],[19.69196,64.18647],[19.69038,64.18775],[19.68838,64.19088],[19.68842,64.19466],[19.68941,64.19648],[19.69209,64.19836],[19.69181,64.20011],[19.69261,64.20175],[19.69304,64.20549],[19.69412,64.20688],[19.69588,64.20808],[19.69781,64.21076],[19.69742,64.21266],[19.69877,64.21482],[19.70196,64.21728],[19.70494,64.21853],[19.70718,64.21909],[19.70978,64.21947],[19.71235,64.21963],[19.71493,64.21957]]]}}]}