{"type":"FeatureCollection","features":[{"type":"Feature","id":"2409R001","properties":{"code":"2409R001","name":"Robertsfors"},"geometry":{"type":"Polygon","coordinates":[[[20.85915,64.20677],[20.86233,64.20634],[20.86516,64.20559],[20.86828,64.20424],[20.87005,64.20305],[20.87123,64.20131],[20.87101,64.19934],[20.87583,64.19625],[20.87838,64.19344],[20.8791,64.19129],[20.88126,64.18954],[20.88191,64.18781],[20.8815,64.18635],[20.8803,64.18504],[20.87833,64.18387],[20.87306,64.18185],[20.87025,64.18108],[20.86708,64.18065],[20.8631,64.18062],[20.85963,64.17921],[20.85593,64.17853],[20.85289,64.17828],[20.84977,64.1783],[20.84558,64.17791],[20.84125,64.17812],[20.83813,64.17869],[20.83535,64.17961],[20.83369,64.18046],[20.83189,64.18207],[20.83048,64.18282],[20.82567,64.18404],[20.82216,64.18577],[20.82052,64.18753],[20.81987,64.19082],[20.81857,64.19295],[20.8184,64.19403],[20.8189,64.19543],[20.82117,64.19737],[20.82288,64.19815],[20.82536,64.19889],[20.82919,64.20349],[20.83126,64.20482],[20.83401,64.20587],[20.83763,64.20666],[20.84122,64.20698],[20.84574,64.20682],[20.85017,64.20601],[20.85428,64.20672],[20.85915,64.20677]]]}},{"type":"Feature","id":"2409R002","properties":{"code":"2409R002","name":"Robertsfors centrala omland"},"geometry":{"type":"Polygon","coordinates":[[[20.69672,64.34624],[20.76473,64.31972],[20.77951,64.32241],[20.81692,64.29716],[20.80079,64.29234],[20.84604,64.27138],[20.85546,64.2628],[20.87298,64.25865],[20.89647,64.24768],[20.94128,64.20975],[20.94273,64.21012],[20.94526,64.20786],[20.94394,64.2075],[20.95098,64.20152],[20.99102,64.1936],[21.04143,64.18241],[21.03868,64.1822],[21.03344,64.18003],[21.03474,64.17722],[21.03596,64.17674],[21.03802,64.17379],[21.05492,64.17287],[21.08964,64.15667],[21.14909,64.15081],[20.98551,64.12774],[20.98456,64.12773],[20.97858,64.12941],[20.96852,64.12828],[20.95776,64.1279],[20.95454,64.12705],[20.94837,64.12504],[20.94658,64.12489],[20.93543,64.12636],[20.93588,64.1301],[20.93636,64.1312],[20.9309,64.13856],[20.92857,64.13943],[20.91866,64.13753],[20.91085,64.13765],[20.90601,64.14126],[20.89694,64.14263],[20.8982,64.14799],[20.89568,64.14874],[20.89013,64.14924],[20.88117,64.14959],[20.87479,64.15515],[20.86599,64.15387],[20.82776,64.16119],[20.82715,64.16209],[20.82299,64.16552],[20.81732,64.16895],[20.8136,64.17036],[20.79402,64.17469],[20.77822,64.1849],[20.75756,64.17838],[20.73809,64.17075],[20.73397,64.17021],[20.72061,64.17048],[20.70004,64.16226],[20.69969,64.162],[20.70887,64.15298],[20.6845,64.14478],[20.67572,64.13894],[20.68567,64.13134],[20.67892,64.12429],[20.65185,64.1243],[20.65114,64.12377],[20.63142,64.10061],[20.63727,64.09272],[20.63569,64.0883],[20.59325,64.07513],[20.57425,64.07304],[20.56467,64.08196],[20.55241,64.07994],[20.55999,64.07137],[20.54845,64.06966],[20.52218,64.09814],[20.51964,64.11261],[20.45639,64.14045],[20.35683,64.25815],[20.33754,64.257],[20.33191,64.27076],[20.30514,64.31253],[20.31253,64.31412],[20.30896,64.31793],[20.30751,64.3281],[20.35697,64.32551],[20.432,64.32125],[20.43771,64.31408],[20.46665,64.31224],[20.48787,64.31869],[20.48949,64.31683],[20.49008,64.31521],[20.4912,64.31486],[20.49153,64.31493],[20.4928,64.31421],[20.4923,64.31366],[20.49157,64.31353],[20.49207,64.31316],[20.49141,64.31225],[20.49365,64.31146],[20.49361,64.31082],[20.49402,64.31045],[20.49478,64.31039],[20.49502,64.31061],[20.49546,64.31061],[20.49797,64.3099],[20.49847,64.30959],[20.50008,64.30988],[20.50047,64.31038],[20.50142,64.31022],[20.50201,64.31036],[20.50406,64.30961],[20.50414,64.30915],[20.50492,64.30888],[20.506,64.30858],[20.50661,64.30875],[20.5072,64.3086],[20.50955,64.30732],[20.50959,64.3068],[20.51044,64.30626],[20.51391,64.30504],[20.51333,64.30489],[20.51341,64.30463],[20.51475,64.30401],[20.51543,64.30261],[20.51683,64.30196],[20.51724,64.30142],[20.5169,64.30136],[20.51601,64.30177],[20.5154,64.30167],[20.51712,64.30108],[20.51959,64.30098],[20.52124,64.30033],[20.52225,64.30034],[20.52218,64.30017],[20.52419,64.29928],[20.52501,64.29862],[20.52558,64.29861],[20.52858,64.29933],[20.48861,64.31854],[20.49015,64.32214],[20.53676,64.31843],[20.53528,64.3162],[20.57434,64.31177],[20.58386,64.30556],[20.59336,64.29882],[20.59967,64.30068],[20.57029,64.3181],[20.60036,64.32636],[20.59756,64.32839],[20.60085,64.33023],[20.60463,64.32753],[20.6151,64.33037],[20.6138,64.33151],[20.60795,64.33153],[20.60735,64.3324],[20.60556,64.33311],[20.60994,64.33536],[20.62057,64.33188],[20.65549,64.34104],[20.66668,64.34458],[20.67539,64.3402],[20.69672,64.34624]],[[20.85759,64.20684],[20.85351,64.20664],[20.85017,64.20601],[20.84574,64.20682],[20.84122,64.20698],[20.83763,64.20666],[20.83398,64.20587],[20.8318,64.20506],[20.82977,64.20393],[20.82851,64.20281],[20.82768,64.20139],[20.82625,64.2002],[20.82536,64.19889],[20.82288,64.19815],[20.82114,64.19735],[20.81947,64.19613],[20.81871,64.1951],[20.81846,64.19332],[20.81987,64.19082],[20.82037,64.18786],[20.82216,64.18577],[20.82567,64.18404],[20.83048,64.18282],[20.83189,64.18207],[20.83369,64.18046],[20.83593,64.17937],[20.83883,64.17853],[20.84223,64.17802],[20.84636,64.17794],[20.84977,64.1783],[20.85289,64.17828],[20.85593,64.17853],[20.85963,64.17921],[20.8631,64.18062],[20.86708,64.18065],[20.87025,64.18108],[20.87306,64.18185],[20.87833,64.18387],[20.8803,64.18504],[20.88151,64.18638],[20.88191,64.18781],[20.88126,64.18954],[20.8791,64.19129],[20.87838,64.19344],[20.87583,64.19625],[20.87101,64.19934],[20.87123,64.20131],[20.87005,64.20305],[20.86828,64.20424],[20.86449,64.20581],[20.86155,64.20649],[20.85759,64.20684]]]}},{"type":"Feature","id":"2409R003","properties":{"code":"2409R003","name":"Robertsfors norra omland"},"geometry":{"type":"Polygon","coordinates":[[[20.88162,64.43965],[20.91622,64.4301],[20.99119,64.39388],[21.00397,64.38181],[21.01317,64.36949],[21.00946,64.37132],[21.00915,64.37122],[21.012,64.36947],[21.01344,64.36916],[21.01306,64.36908],[21.01397,64.36805],[21.01242,64.36783],[21.01267,64.36724],[21.01475,64.36768],[21.02013,64.3603],[21.05711,64.34838],[21.06542,64.3353],[21.1487,64.35924],[21.16975,64.33917],[21.17153,64.33886],[21.17161,64.3386],[21.17043,64.33841],[21.18169,64.32693],[21.18773,64.31796],[21.18526,64.3004],[21.21401,64.27548],[21.21703,64.27384],[21.22336,64.26824],[21.28,64.26899],[21.65285,64.10986],[21.50213,64.04151],[21.14909,64.15081],[21.08964,64.15667],[21.05492,64.17287],[21.03802,64.17379],[21.03596,64.17674],[21.03474,64.17722],[21.03344,64.18003],[21.03868,64.1822],[21.04143,64.18241],[20.99102,64.1936],[20.95098,64.20152],[20.94394,64.2075],[20.94526,64.20786],[20.94273,64.21012],[20.94128,64.20975],[20.89647,64.24768],[20.87298,64.25865],[20.85546,64.2628],[20.84604,64.27138],[20.80079,64.29234],[20.81692,64.29716],[20.77951,64.32241],[20.76473,64.31972],[20.69672,64.34624],[20.70398,64.34829],[20.67894,64.36132],[20.71228,64.39024],[20.74798,64.39173],[20.74991,64.41949],[20.77569,64.41455],[20.78854,64.41581],[20.78915,64.41589],[20.79375,64.42939],[20.82497,64.42389],[20.85353,64.43856],[20.88162,64.43965]]]}},{"type":"Feature","id":"2409R004","properties":{"code":"2409R004","name":"Robertsfors södra omland"},"geometry":{"type":"Polygon","coordinates":[[[20.79402,64.17469],[20.8136,64.17036],[20.81732,64.16895],[20.82299,64.16552],[20.82715,64.16209],[20.82776,64.16119],[20.86599,64.15387],[20.87479,64.15515],[20.88117,64.14959],[20.89013,64.14924],[20.89568,64.14874],[20.89812,64.14803],[20.89694,64.14263],[20.90601,64.14126],[20.91085,64.13765],[20.91866,64.13753],[20.92857,64.13943],[20.9309,64.13856],[20.93636,64.1312],[20.93588,64.1301],[20.93543,64.12636],[20.94658,64.12489],[20.94837,64.12504],[20.95454,64.12705],[20.95776,64.1279],[20.96852,64.12828],[20.97858,64.12941],[20.98456,64.12773],[20.98551,64.12774],[21.14909,64.15081],[21.50213,64.04151],[21.39706,63.95724],[21.41561,63.92693],[21.0409,63.88372],[20.84795,63.85167],[20.8117,63.84584],[20.78815,63.85082],[20.75007,63.85823],[20.742,63.86072],[20.73393,63.8613],[20.73149,63.86303],[20.72567,63.8634],[20.72599,63.86559],[20.72521,63.86675],[20.72344,63.86783],[20.72972,63.87471],[20.67726,63.88499],[20.63464,63.87937],[20.64626,63.89735],[20.66079,63.92117],[20.68786,63.97263],[20.66599,63.98604],[20.64198,64.0093],[20.57425,64.07304],[20.59325,64.07513],[20.63569,64.0883],[20.63727,64.09272],[20.63142,64.10061],[20.65114,64.12377],[20.65185,64.1243],[20.67892,64.12429],[20.68567,64.13134],[20.67572,64.13894],[20.6845,64.14478],[20.70887,64.15298],[20.69969,64.162],[20.70004,64.16226],[20.72061,64.17048],[20.73397,64.17021],[20.73809,64.17075],[20.75756,64.17838],[20.77822,64.1849],[20.79402,64.17469]]]}}]}