{"type":"FeatureCollection","features":[{"type":"Feature","id":"2417R001","properties":{"code":"2417R001","name":"Norsjö omland"},"geometry":{"type":"Polygon","coordinates":[[[19.59041,65.19426],[19.657,65.15132],[19.65845,65.15164],[19.66099,65.15276],[19.66189,65.15286],[19.66375,65.1527],[19.66538,65.1534],[19.66658,65.15323],[19.6679,65.15329],[19.67092,65.15284],[19.67256,65.15175],[19.67733,65.14988],[19.67787,65.14947],[19.6819,65.14826],[19.68211,65.14731],[19.68415,65.14574],[19.68551,65.14532],[19.68691,65.14439],[19.689,65.14354],[19.6893,65.14285],[19.69316,65.14168],[19.69381,65.14078],[19.69535,65.13991],[19.69576,65.13901],[19.69714,65.13862],[19.69859,65.1377],[19.69903,65.13689],[19.69786,65.13616],[19.6978,65.13585],[19.70091,65.13343],[19.70168,65.13322],[19.6988,65.13201],[19.69937,65.13148],[19.68311,65.12812],[19.68751,65.12662],[19.78531,65.06726],[19.8235,65.03085],[19.98041,64.99121],[20.09878,64.94205],[20.06173,64.92446],[20.08432,64.91617],[20.09584,64.91013],[20.11089,64.90677],[20.12452,64.89712],[20.13556,64.89207],[20.14498,64.89199],[20.14817,64.89066],[20.14962,64.88544],[20.15063,64.88539],[20.15652,64.88135],[20.15665,64.88078],[20.15425,64.87812],[20.15339,64.87636],[20.15398,64.8751],[20.15562,64.87335],[20.21616,64.85784],[20.19987,64.8512],[20.20152,64.84942],[20.20144,64.84791],[20.20319,64.84417],[20.20233,64.84282],[20.21837,64.83372],[20.21727,64.83254],[20.17341,64.84033],[20.14441,64.82843],[20.13036,64.83682],[20.10679,64.82799],[20.10638,64.82524],[20.12441,64.82279],[20.14494,64.81933],[20.12991,64.78961],[20.10081,64.79444],[20.0757,64.76695],[20.03555,64.74973],[20.03366,64.73878],[20.05902,64.72838],[20.04281,64.72297],[20.10582,64.68932],[20.11481,64.67243],[19.98399,64.66745],[19.95599,64.68267],[19.9592,64.68355],[19.95104,64.69165],[19.94296,64.691],[19.94108,64.69015],[19.89953,64.71284],[19.89701,64.71445],[19.81484,64.75885],[19.63101,64.75539],[19.50086,64.77624],[19.47319,64.78048],[19.43772,64.75129],[19.4227,64.75388],[19.41262,64.75322],[19.41202,64.75088],[19.36533,64.74753],[19.34704,64.74639],[19.28758,64.77776],[19.31166,64.80468],[19.18016,64.84688],[19.05316,64.88797],[18.87751,64.94478],[18.80173,64.96952],[18.75689,64.98442],[18.98224,65.03728],[19.00752,65.04303],[19.43081,65.15331],[19.43515,65.14871],[19.4836,65.16181],[19.47866,65.16561],[19.59041,65.19426]],[[19.46131,64.93263],[19.45788,64.93247],[19.45436,64.93191],[19.45168,64.93112],[19.44963,64.93017],[19.44826,64.9292],[19.44731,64.92811],[19.44675,64.92591],[19.44516,64.92495],[19.44275,64.92273],[19.44179,64.92099],[19.44186,64.91991],[19.44268,64.91854],[19.44382,64.91758],[19.44611,64.91628],[19.44395,64.91505],[19.44255,64.91361],[19.44211,64.91182],[19.44275,64.91028],[19.44529,64.90832],[19.45125,64.90587],[19.45266,64.90387],[19.4553,64.90217],[19.45846,64.90092],[19.46109,64.90021],[19.46346,64.89873],[19.46712,64.89752],[19.47214,64.89685],[19.47713,64.89693],[19.48213,64.89764],[19.48712,64.89923],[19.48978,64.90055],[19.49114,64.90185],[19.49523,64.90161],[19.49861,64.9018],[19.5017,64.90234],[19.50812,64.90394],[19.51046,64.90417],[19.51415,64.90398],[19.51756,64.90418],[19.52076,64.90473],[19.52369,64.90567],[19.52584,64.90681],[19.527,64.90783],[19.52831,64.90971],[19.52867,64.91082],[19.52788,64.91303],[19.52676,64.91405],[19.52466,64.91521],[19.52194,64.91611],[19.51848,64.91675],[19.5161,64.91752],[19.50985,64.91905],[19.50542,64.91973],[19.502,64.92163],[19.4986,64.92267],[19.49373,64.92326],[19.48918,64.92309],[19.48582,64.92458],[19.48288,64.92552],[19.47971,64.92609],[19.47558,64.92633],[19.47519,64.92776],[19.47424,64.92897],[19.47129,64.93082],[19.4669,64.93208],[19.46394,64.93249],[19.46131,64.93263]]]}},{"type":"Feature","id":"2417R002","properties":{"code":"2417R002","name":"Norsjö tätort"},"geometry":{"type":"Polygon","coordinates":[[[19.46234,64.9326],[19.46473,64.93241],[19.46763,64.93193],[19.4699,64.93134],[19.47184,64.93057],[19.47341,64.92967],[19.47468,64.92851],[19.47558,64.92633],[19.47971,64.92609],[19.48288,64.92552],[19.48582,64.92458],[19.48918,64.92309],[19.49373,64.92326],[19.4986,64.92267],[19.502,64.92163],[19.50542,64.91973],[19.50985,64.91905],[19.5161,64.91752],[19.51848,64.91675],[19.52194,64.91611],[19.52466,64.91521],[19.52676,64.91405],[19.52788,64.91303],[19.52867,64.91082],[19.52831,64.90971],[19.527,64.90783],[19.52584,64.90681],[19.52369,64.90567],[19.52076,64.90473],[19.51756,64.90418],[19.51415,64.90398],[19.51046,64.90417],[19.50812,64.90394],[19.5017,64.90234],[19.49861,64.9018],[19.49523,64.90161],[19.49114,64.90185],[19.48978,64.90055],[19.48712,64.89923],[19.48213,64.89764],[19.47713,64.89693],[19.47214,64.89685],[19.46712,64.89752],[19.46346,64.89873],[19.46109,64.90021],[19.45846,64.90092],[19.4553,64.90217],[19.45266,64.90387],[19.45125,64.90587],[19.44529,64.90832],[19.44275,64.91028],[19.44211,64.91182],[19.44255,64.91361],[19.44395,64.91505],[19.44611,64.91628],[19.44382,64.91758],[19.44268,64.91854],[19.44186,64.91991],[19.44179,64.92099],[19.44275,64.92273],[19.44516,64.92495],[19.44675,64.92591],[19.44731,64.92811],[19.44826,64.9292],[19.44963,64.93017],[19.4523,64.93134],[19.45537,64.93212],[19.45867,64.93254],[19.46234,64.9326]]]}}]}