{"type":"FeatureCollection","features":[{"type":"Feature","id":"2422R001","properties":{"code":"2422R001","name":"Sorsele centralort"},"geometry":{"type":"Polygon","coordinates":[[[17.54245,65.54972],[17.5467,65.54933],[17.54981,65.54863],[17.55385,65.54705],[17.55619,65.5457],[17.55984,65.54503],[17.56307,65.54385],[17.56489,65.54264],[17.56661,65.54069],[17.56702,65.53926],[17.56654,65.53783],[17.56523,65.53651],[17.56265,65.53517],[17.56272,65.5332],[17.56156,65.53115],[17.55929,65.52941],[17.55901,65.52802],[17.55778,65.52648],[17.55638,65.52552],[17.55305,65.52395],[17.55345,65.52284],[17.55321,65.52145],[17.55212,65.52012],[17.55029,65.51896],[17.54713,65.51785],[17.54324,65.51719],[17.5389,65.51706],[17.53439,65.51754],[17.53139,65.51665],[17.52647,65.51583],[17.52271,65.51566],[17.51908,65.51588],[17.5141,65.51682],[17.5109,65.51804],[17.509,65.51946],[17.50625,65.52102],[17.50443,65.52364],[17.50188,65.52484],[17.50007,65.52634],[17.49944,65.52741],[17.49936,65.52877],[17.50011,65.5301],[17.50154,65.53124],[17.49953,65.53201],[17.4976,65.53319],[17.4961,65.53486],[17.49561,65.53593],[17.49583,65.53774],[17.49705,65.53929],[17.49613,65.54115],[17.49669,65.54284],[17.49849,65.54438],[17.5016,65.54588],[17.50411,65.54676],[17.5072,65.54739],[17.51539,65.54803],[17.51869,65.54804],[17.52349,65.54741],[17.52706,65.54622],[17.52925,65.54754],[17.53296,65.54875],[17.53787,65.54953],[17.54245,65.54972]]]}},{"type":"Feature","id":"2422R002","properties":{"code":"2422R002","name":"Sorsele omland"},"geometry":{"type":"Polygon","coordinates":[[[15.55901,66.32831],[15.7714,66.29082],[16.23234,66.14069],[16.52919,66.05359],[16.60736,66.04403],[16.77195,66.03203],[16.93079,65.97012],[17.00066,65.94491],[17.10647,65.89933],[17.11635,65.89519],[17.12071,65.89359],[17.14866,65.88158],[17.15238,65.88023],[17.20517,65.8579],[17.21403,65.85438],[17.23928,65.84337],[17.35806,65.79293],[17.47127,65.74496],[17.54737,65.71223],[17.67562,65.65622],[17.72777,65.6467],[17.85142,65.6236],[18.0311,65.60253],[18.03396,65.58767],[18.0723,65.57671],[18.10157,65.59414],[18.14721,65.58873],[18.14433,65.57654],[18.15949,65.57443],[18.17796,65.57654],[18.18066,65.57264],[18.17798,65.56615],[18.19523,65.55488],[18.2024,65.55225],[18.23086,65.54329],[18.24865,65.53347],[18.26791,65.52453],[18.28451,65.48457],[18.2966,65.41894],[18.21392,65.31737],[18.16681,65.24417],[18.16806,65.24295],[18.09894,65.17996],[17.97434,65.06475],[18.01428,65.06458],[18.01559,65.06495],[18.01628,65.06455],[18.01609,65.06429],[18.03453,65.05595],[18.03477,65.05621],[18.03554,65.05574],[18.03536,65.05556],[18.04807,65.04982],[17.9825,65.03608],[17.95196,65.04388],[17.95723,65.04877],[17.83007,65.10289],[17.83156,65.10326],[17.83369,65.10312],[17.83703,65.10355],[17.84107,65.1038],[17.84375,65.10288],[17.84569,65.10154],[17.84862,65.10245],[17.8464,65.10489],[17.84781,65.10595],[17.85022,65.10626],[17.8534,65.10862],[17.84994,65.11213],[17.84922,65.11253],[17.84708,65.11309],[17.84173,65.11563],[17.83615,65.11698],[17.81812,65.12561],[17.80675,65.13243],[17.80184,65.13329],[17.79399,65.13631],[17.77216,65.12777],[17.71262,65.1534],[17.67256,65.17012],[17.51126,65.21055],[17.45106,65.22573],[17.30039,65.26442],[17.09161,65.30725],[17.01662,65.32272],[16.9379,65.34813],[16.82841,65.38375],[16.72927,65.43003],[16.72581,65.42924],[16.72516,65.42944],[16.72616,65.43065],[16.72682,65.4305],[16.72702,65.43015],[16.72858,65.43047],[16.71827,65.43512],[16.7176,65.43481],[16.71656,65.43466],[16.71518,65.43343],[16.71406,65.43329],[16.71392,65.43294],[16.71254,65.43375],[16.71137,65.43342],[16.71103,65.43369],[16.71653,65.43601],[16.62755,65.47716],[16.64803,65.4845],[16.64199,65.48857],[16.61988,65.48063],[16.60635,65.48692],[16.52814,65.54597],[16.50237,65.56591],[15.95704,65.71104],[15.53076,65.82276],[14.95137,66.15001],[15.03568,66.15356],[15.19541,66.19997],[15.30557,66.23274],[15.48473,66.28246],[15.45394,66.34535],[15.55901,66.32831]],[[17.54139,65.54973],[17.53744,65.54949],[17.53276,65.54871],[17.52925,65.54754],[17.52706,65.54622],[17.52349,65.54741],[17.51869,65.54804],[17.51539,65.54803],[17.5072,65.54739],[17.50411,65.54676],[17.5016,65.54588],[17.49849,65.54438],[17.49669,65.54284],[17.49613,65.54115],[17.49705,65.53929],[17.49583,65.53774],[17.49561,65.53593],[17.4961,65.53486],[17.4976,65.53319],[17.49953,65.53201],[17.50154,65.53124],[17.50011,65.5301],[17.49936,65.52877],[17.49944,65.52741],[17.50007,65.52634],[17.50188,65.52484],[17.50443,65.52364],[17.50625,65.52102],[17.509,65.51946],[17.5109,65.51804],[17.5141,65.51682],[17.51908,65.51588],[17.52271,65.51566],[17.52647,65.51583],[17.53139,65.51665],[17.53439,65.51754],[17.5389,65.51706],[17.54324,65.51719],[17.54713,65.51785],[17.55029,65.51896],[17.55212,65.52012],[17.55321,65.52145],[17.55345,65.52284],[17.55305,65.52395],[17.55638,65.52552],[17.55778,65.52648],[17.55901,65.52802],[17.55929,65.52941],[17.56156,65.53115],[17.56272,65.5332],[17.56265,65.53517],[17.56523,65.53651],[17.56656,65.53785],[17.56702,65.53926],[17.56661,65.54069],[17.56489,65.54264],[17.56303,65.54387],[17.55984,65.54503],[17.55619,65.5457],[17.55385,65.54705],[17.54912,65.54882],[17.54513,65.54954],[17.54139,65.54973]]]}}]}