{"type":"FeatureCollection","features":[{"type":"Feature","id":"2425R001","properties":{"code":"2425R001","name":"Dorotea omland"},"geometry":{"type":"Polygon","coordinates":[[[15.1224,64.92866],[15.48081,64.87209],[15.66578,64.80612],[15.94473,64.70434],[16.01136,64.65301],[16.13768,64.55443],[16.37215,64.47493],[16.6045,64.43318],[16.7149,64.37316],[16.72729,64.3535],[16.66784,64.33597],[16.65584,64.29665],[16.69771,64.2469],[16.74441,64.23401],[16.75464,64.22934],[16.71545,64.22602],[16.74069,64.19625],[16.76578,64.17546],[16.76166,64.17123],[16.8751,64.03733],[16.94541,64.00328],[16.87832,63.95069],[16.73417,64.02006],[16.7276,64.02304],[16.66707,64.05224],[16.66823,64.0527],[16.42383,64.16772],[16.41618,64.17164],[16.39627,64.18106],[16.33065,64.21162],[16.21925,64.26398],[16.16545,64.26123],[16.14477,64.26765],[16.13073,64.26279],[16.12727,64.2625],[16.1259,64.26169],[16.12226,64.26106],[16.11896,64.26085],[16.11471,64.26192],[16.11304,64.26214],[16.1098,64.263],[16.10947,64.26324],[16.10887,64.26262],[16.04255,64.24887],[16.01971,64.26909],[16.02278,64.26954],[16.02245,64.27589],[16.02235,64.3328],[15.85356,64.37561],[15.8691,64.38198],[15.79492,64.39821],[15.75359,64.40686],[15.7413,64.40374],[15.74025,64.404],[15.70437,64.538],[15.63617,64.5196],[15.64717,64.44798],[15.57952,64.44343],[15.57714,64.44491],[15.58003,64.44924],[15.57991,64.45034],[15.57757,64.45345],[15.57742,64.45453],[15.57876,64.45447],[15.58112,64.45389],[15.58247,64.45528],[15.58173,64.45538],[15.5795,64.45494],[15.57736,64.45496],[15.57647,64.46237],[15.57102,64.46526],[15.56695,64.46895],[15.56579,64.47051],[15.56615,64.47284],[15.56494,64.47632],[15.56353,64.4779],[15.55876,64.48006],[15.55688,64.48134],[15.55595,64.48244],[15.55582,64.48374],[15.55402,64.48517],[15.55337,64.48639],[15.55343,64.48805],[15.55411,64.48934],[15.55282,64.49116],[15.55336,64.49356],[15.55409,64.49418],[15.55537,64.4944],[15.55683,64.4952],[15.55731,64.49619],[15.5562,64.49707],[15.55306,64.49869],[15.54426,64.50127],[15.54045,64.50387],[15.53958,64.50577],[15.53847,64.50721],[15.53867,64.50799],[15.54118,64.51072],[15.54203,64.51434],[15.54361,64.51685],[15.54317,64.51858],[15.54083,64.52008],[15.53705,64.52166],[15.53314,64.52373],[15.53149,64.52483],[15.52971,64.52683],[15.52645,64.52838],[15.52245,64.5308],[15.52076,64.53215],[15.51593,64.53403],[15.50865,64.53594],[15.50277,64.5372],[15.50033,64.53718],[15.49928,64.53743],[15.49676,64.53843],[15.49422,64.53979],[15.48814,64.54126],[15.48602,64.54225],[15.48325,64.54252],[15.48197,64.54325],[15.47617,64.54444],[15.47527,64.54477],[15.47648,64.54698],[15.47465,64.54845],[15.47339,64.54886],[15.47003,64.54812],[15.46752,64.54813],[15.46623,64.54796],[15.46568,64.54825],[15.46354,64.54854],[15.46316,64.54874],[15.4639,64.54944],[15.46193,64.54956],[15.46155,64.54984],[15.46162,64.55064],[15.4571,64.55272],[15.45573,64.55413],[15.45393,64.55441],[15.45308,64.55487],[15.45068,64.55551],[15.44992,64.55608],[15.44891,64.5564],[15.44619,64.55647],[15.44302,64.5563],[15.44101,64.55663],[15.43962,64.5572],[15.43881,64.55788],[15.43862,64.55854],[15.4408,64.56017],[15.4399,64.56106],[15.43808,64.56202],[15.43777,64.56249],[15.43765,64.56948],[15.43467,64.57144],[15.43394,64.57232],[15.43216,64.57653],[15.43231,64.57905],[15.4299,64.58195],[15.42773,64.58343],[15.42575,64.58381],[15.42475,64.58366],[15.42397,64.58332],[15.42291,64.58234],[15.42004,64.58166],[15.41866,64.57986],[15.41751,64.57928],[15.41663,64.57931],[15.41401,64.5802],[15.4127,64.58107],[15.41156,64.58139],[15.40799,64.58186],[15.40703,64.58182],[15.40538,64.58123],[15.40362,64.58133],[15.40086,64.5811],[15.3986,64.58149],[15.39703,64.58211],[15.39556,64.58233],[15.39435,64.58236],[15.39122,64.58204],[15.38723,64.58201],[15.384,64.58313],[15.38158,64.58371],[15.3802,64.58381],[15.37461,64.58309],[15.37009,64.5837],[15.36933,64.58408],[15.36889,64.58494],[15.363,64.58691],[15.36166,64.5879],[15.36188,64.58843],[15.36449,64.58964],[15.36324,64.59036],[15.36044,64.59108],[15.35545,64.59344],[15.3528,64.59402],[15.34734,64.5967],[15.34543,64.59889],[15.33681,64.60471],[15.33266,64.60957],[15.32945,64.61136],[15.32702,64.61305],[15.32773,64.61415],[15.31558,64.62072],[15.31181,64.62166],[15.31163,64.62198],[15.31085,64.62227],[15.30118,64.62503],[15.29661,64.62526],[15.2926,64.62504],[15.28764,64.62546],[15.28145,64.62701],[15.2793,64.62623],[15.27591,64.62664],[15.27436,64.62648],[15.27084,64.62694],[15.27027,64.62687],[15.26994,64.62663],[15.27028,64.62658],[15.27017,64.62639],[15.26974,64.62635],[15.26827,64.62656],[15.26491,64.62654],[15.26482,64.62735],[15.26387,64.62794],[15.26018,64.62868],[15.25933,64.62927],[15.25538,64.63002],[15.25399,64.62986],[15.2512,64.63003],[15.24994,64.63065],[15.24838,64.631],[15.24804,64.63114],[15.24786,64.63236],[15.24814,64.6331],[15.24752,64.63378],[15.24379,64.63419],[15.24095,64.63483],[15.24045,64.63552],[15.24162,64.6362],[15.28303,64.63992],[15.34145,64.64671],[15.3408,64.6468],[15.33628,64.65032],[15.33535,64.65345],[15.33482,64.65398],[15.33544,64.65693],[15.33356,64.65889],[15.33445,64.66904],[15.32313,64.67422],[15.31832,64.67579],[15.30864,64.67829],[15.29553,64.67738],[15.29118,64.67749],[15.28435,64.68252],[15.2832,64.68421],[15.28057,64.68623],[15.28051,64.68893],[15.2755,64.68951],[15.27202,64.69152],[15.26539,64.69991],[15.23187,64.71634],[15.22475,64.72274],[15.19808,64.73302],[15.18624,64.74046],[15.18173,64.74135],[15.17683,64.74044],[15.17511,64.7404],[15.14658,64.74423],[15.13688,64.74681],[15.13554,64.75032],[15.1178,64.7528],[15.10864,64.75278],[15.10234,64.75305],[15.09786,64.75287],[15.08784,64.75185],[15.08423,64.75181],[15.08097,64.75214],[15.07093,64.75149],[15.06694,64.75168],[15.0624,64.75161],[15.05924,64.75358],[15.05361,64.75469],[15.04735,64.75536],[15.04482,64.75601],[15.0439,64.75653],[15.0417,64.75854],[15.03922,64.75925],[15.03447,64.75975],[15.03291,64.7604],[15.03135,64.76151],[15.02907,64.76374],[15.02723,64.76678],[15.02724,64.7678],[15.02778,64.76875],[15.03138,64.7694],[15.03259,64.77091],[15.03102,64.77321],[15.03024,64.77628],[15.0278,64.77741],[15.02687,64.77816],[15.02686,64.77915],[15.02798,64.78089],[15.03436,64.7839],[15.03568,64.78672],[15.03559,64.78773],[15.03621,64.78915],[15.03621,64.79],[15.03527,64.79141],[15.02552,64.79719],[15.02467,64.79812],[15.02491,64.79963],[15.02629,64.80166],[15.02436,64.80385],[14.97393,64.84614],[14.9359,64.85705],[14.87977,64.86457],[14.86395,64.86864],[14.85533,64.8748],[14.84116,64.87664],[14.83737,64.87815],[14.83748,64.87877],[14.83893,64.87964],[14.83917,64.88034],[14.84111,64.88082],[14.84239,64.88143],[14.84541,64.88204],[14.84655,64.88293],[14.84653,64.88324],[14.84537,64.88401],[14.84563,64.88527],[14.84284,64.88742],[14.84474,64.88981],[14.84175,64.89217],[14.83967,64.89308],[14.83816,64.89334],[14.83617,64.89463],[14.8345,64.89496],[14.83151,64.89606],[14.83025,64.89621],[14.82867,64.89588],[14.82735,64.89612],[14.8271,64.8965],[14.82771,64.89739],[14.82754,64.89771],[14.82573,64.89838],[14.82362,64.89988],[14.82298,64.89997],[14.82186,64.89976],[14.82134,64.89987],[14.82118,64.90067],[14.82004,64.90168],[14.81742,64.90207],[14.81562,64.90305],[14.8131,64.90374],[14.81256,64.90428],[14.80959,64.90595],[14.80891,64.90607],[14.8076,64.90599],[14.8023,64.90756],[14.79599,64.90769],[14.79414,64.90813],[14.79207,64.90839],[14.7905,64.90836],[14.78628,64.90904],[14.78308,64.91004],[14.77983,64.91275],[14.77865,64.91297],[14.77679,64.91303],[14.77501,64.91287],[14.77231,64.91355],[14.77357,64.91498],[14.77626,64.91625],[14.77926,64.91812],[14.77987,64.91895],[14.77997,64.91981],[14.7807,64.92047],[14.78057,64.92215],[14.77745,64.92316],[14.77786,64.92489],[14.77652,64.92552],[14.77558,64.92921],[14.77621,64.93153],[14.77911,64.93445],[14.77828,64.93566],[14.77869,64.93718],[14.77977,64.93827],[14.77914,64.93856],[14.77853,64.93983],[14.77672,64.94026],[14.77601,64.94084],[14.77474,64.94121],[14.77127,64.9435],[14.76804,64.94522],[14.76712,64.94607],[14.76607,64.9465],[14.7645,64.94665],[14.76354,64.94707],[14.76096,64.9476],[14.76016,64.94813],[14.75894,64.94822],[14.75796,64.94804],[14.75602,64.9487],[14.75545,64.95003],[14.75565,64.95167],[14.75474,64.9528],[14.75484,64.9537],[14.75434,64.95431],[14.75007,64.95501],[14.74418,64.95453],[14.74234,64.95348],[14.74086,64.95372],[14.73896,64.95432],[14.73629,64.95449],[14.73218,64.95427],[14.73074,64.95469],[14.72897,64.95493],[14.72695,64.95571],[14.72348,64.95607],[14.72299,64.95699],[14.72232,64.9574],[14.72042,64.958],[14.71954,64.95851],[14.71931,64.95982],[14.71825,64.96017],[14.71174,64.96075],[14.71136,64.96109],[14.71158,64.96141],[14.71433,64.96327],[14.71238,64.96576],[14.71261,64.967],[14.71407,64.96784],[14.7143,64.96879],[14.7106,64.9703],[14.70912,64.97302],[14.70685,64.97425],[14.70539,64.97569],[14.7058,64.97722],[14.7056,64.97783],[14.70278,64.97883],[14.70271,64.97971],[14.70511,64.98135],[15.1224,64.92866]],[[16.41887,64.27769],[16.41552,64.27755],[16.41248,64.27712],[16.41031,64.27661],[16.40786,64.27567],[16.40535,64.27382],[16.40457,64.27237],[16.40444,64.27125],[16.40362,64.27044],[16.40114,64.27088],[16.39782,64.27112],[16.39446,64.271],[16.39108,64.27048],[16.38752,64.26934],[16.38362,64.26723],[16.38199,64.26602],[16.38114,64.26474],[16.37665,64.2648],[16.37267,64.26436],[16.3698,64.26362],[16.36638,64.26218],[16.363,64.26027],[16.36211,64.25927],[16.36162,64.25786],[16.36181,64.25676],[16.36277,64.2554],[16.36562,64.25365],[16.36827,64.25263],[16.37116,64.25192],[16.37431,64.25155],[16.37725,64.25153],[16.38034,64.25076],[16.38438,64.25035],[16.38718,64.25038],[16.39248,64.25081],[16.39502,64.2512],[16.39814,64.25202],[16.40713,64.2515],[16.40973,64.2516],[16.41299,64.25205],[16.41671,64.25114],[16.41879,64.25029],[16.42159,64.2496],[16.42391,64.2493],[16.43203,64.24879],[16.43527,64.24896],[16.43761,64.24933],[16.44161,64.25059],[16.44355,64.25176],[16.44488,64.25335],[16.4475,64.25503],[16.44875,64.2572],[16.44834,64.25899],[16.447,64.26044],[16.44425,64.26191],[16.44088,64.26287],[16.4445,64.26461],[16.44613,64.26628],[16.4465,64.26735],[16.44645,64.26975],[16.44571,64.27163],[16.44459,64.27271],[16.44309,64.27362],[16.43905,64.27501],[16.43511,64.27558],[16.43002,64.27562],[16.42779,64.27649],[16.42523,64.27713],[16.42253,64.27752],[16.41887,64.27769]]]}},{"type":"Feature","id":"2425R002","properties":{"code":"2425R002","name":"Dorotea tätort"},"geometry":{"type":"Polygon","coordinates":[[[16.42045,64.27767],[16.42329,64.27744],[16.42598,64.27697],[16.43002,64.27562],[16.43511,64.27558],[16.43905,64.27501],[16.44309,64.27362],[16.44459,64.27271],[16.44571,64.27163],[16.44645,64.26975],[16.4465,64.26735],[16.44613,64.26628],[16.4445,64.26461],[16.44088,64.26287],[16.44425,64.26191],[16.447,64.26044],[16.44834,64.25899],[16.44875,64.2572],[16.4475,64.25503],[16.44488,64.25335],[16.44353,64.25174],[16.44157,64.25057],[16.4391,64.24968],[16.43689,64.24919],[16.43203,64.24879],[16.42391,64.2493],[16.42159,64.2496],[16.41879,64.25029],[16.41671,64.25114],[16.41299,64.25205],[16.40973,64.2516],[16.40713,64.2515],[16.39814,64.25202],[16.39502,64.2512],[16.39248,64.25081],[16.38718,64.25038],[16.38438,64.25035],[16.38034,64.25076],[16.37725,64.25153],[16.37431,64.25155],[16.37116,64.25192],[16.36827,64.25263],[16.36562,64.25365],[16.36357,64.25475],[16.36245,64.25574],[16.36169,64.25713],[16.36176,64.25857],[16.36236,64.25962],[16.36383,64.26089],[16.36857,64.26315],[16.37121,64.26404],[16.37421,64.2646],[16.3775,64.26482],[16.38114,64.26474],[16.38199,64.26602],[16.38362,64.26723],[16.38752,64.26934],[16.39108,64.27048],[16.39446,64.271],[16.39782,64.27112],[16.40114,64.27088],[16.40362,64.27044],[16.40444,64.27125],[16.40457,64.27237],[16.40535,64.27382],[16.4064,64.27479],[16.40839,64.27592],[16.41102,64.2768],[16.41393,64.27736],[16.41714,64.27766],[16.42045,64.27767]]]}}]}