{"type":"FeatureCollection","features":[{"type":"Feature","id":"2480R001","properties":{"code":"2480R001","name":"Berghem norra-Fridhem"},"geometry":{"type":"Polygon","coordinates":[[[20.30183,63.84427],[20.30651,63.84335],[20.30925,63.84309],[20.31478,63.84338],[20.3174,63.8401],[20.31849,63.83983],[20.31766,63.83556],[20.31927,63.83346],[20.31933,63.83283],[20.31778,63.83161],[20.31769,63.83072],[20.31434,63.83016],[20.31258,63.82836],[20.30905,63.82567],[20.30621,63.82667],[20.3037,63.8291],[20.29932,63.82812],[20.29401,63.82644],[20.29494,63.82521],[20.2941,63.82499],[20.29519,63.82413],[20.29593,63.82372],[20.29664,63.82406],[20.29957,63.82308],[20.30076,63.82241],[20.29679,63.82281],[20.29569,63.82275],[20.29184,63.82181],[20.28795,63.82494],[20.28514,63.8265],[20.28554,63.82704],[20.28476,63.82774],[20.28703,63.82798],[20.2872,63.82959],[20.2865,63.83098],[20.29322,63.83287],[20.29582,63.83493],[20.29479,63.83615],[20.29442,63.83789],[20.29472,63.83914],[20.29594,63.84071],[20.29937,63.84191],[20.30211,63.8424],[20.30293,63.84298],[20.30183,63.84427]]]}},{"type":"Feature","id":"2480R002","properties":{"code":"2480R002","name":"Berghem södra"},"geometry":{"type":"Polygon","coordinates":[[[20.30623,63.82397],[20.30253,63.8227],[20.30076,63.82241],[20.29957,63.82308],[20.29664,63.82406],[20.29593,63.82372],[20.29519,63.82413],[20.2941,63.82499],[20.29494,63.82521],[20.29401,63.82644],[20.29932,63.82812],[20.3037,63.8291],[20.30621,63.82667],[20.30905,63.82567],[20.30623,63.82397]]]}},{"type":"Feature","id":"2480R003","properties":{"code":"2480R003","name":"Carlshem norra"},"geometry":{"type":"Polygon","coordinates":[[[20.3265,63.81352],[20.33226,63.8126],[20.33352,63.81191],[20.33588,63.80677],[20.33846,63.80347],[20.33952,63.80305],[20.34434,63.80246],[20.3442,63.79913],[20.32001,63.7985],[20.32005,63.7999],[20.31881,63.7999],[20.31879,63.80087],[20.31677,63.80085],[20.31673,63.80217],[20.31724,63.80236],[20.3172,63.80301],[20.31612,63.80403],[20.32032,63.8053],[20.3222,63.80608],[20.32303,63.8067],[20.32437,63.80779],[20.32527,63.80907],[20.3265,63.81352]]]}},{"type":"Feature","id":"2480R004","properties":{"code":"2480R004","name":"Ersboda centrala-Ersboda sydöstra"},"geometry":{"type":"Polygon","coordinates":[[[20.33355,63.86646],[20.3309,63.85932],[20.33373,63.85703],[20.33749,63.85771],[20.33863,63.85847],[20.34133,63.85876],[20.35757,63.85811],[20.36323,63.85079],[20.35018,63.84814],[20.34562,63.84764],[20.34179,63.84744],[20.34387,63.85269],[20.33593,63.85299],[20.33497,63.85291],[20.33088,63.85184],[20.32935,63.85161],[20.31549,63.85217],[20.31513,63.85296],[20.31547,63.85493],[20.31533,63.8582],[20.31304,63.86132],[20.31577,63.86141],[20.31576,63.86526],[20.32129,63.86683],[20.33355,63.86646]]]}},{"type":"Feature","id":"2480R005","properties":{"code":"2480R005","name":"Ersboda nordöstra"},"geometry":{"type":"Polygon","coordinates":[[[20.34011,63.87175],[20.34739,63.87029],[20.34985,63.8693],[20.35132,63.86839],[20.35276,63.86672],[20.35404,63.86591],[20.35547,63.86435],[20.35589,63.86329],[20.35561,63.86139],[20.35712,63.85986],[20.35757,63.85811],[20.34133,63.85876],[20.33863,63.85847],[20.33749,63.85771],[20.33373,63.85703],[20.3309,63.85932],[20.33355,63.86646],[20.32216,63.86685],[20.3178,63.87139],[20.3308,63.87177],[20.34011,63.87175]]]}},{"type":"Feature","id":"2480R006","properties":{"code":"2480R006","name":"Ersboda västra"},"geometry":{"type":"Polygon","coordinates":[[[20.32216,63.86685],[20.32129,63.86683],[20.31576,63.86526],[20.31577,63.86141],[20.31304,63.86132],[20.31533,63.8582],[20.31547,63.85493],[20.31513,63.85296],[20.31549,63.85217],[20.32935,63.85161],[20.33088,63.85184],[20.33497,63.85291],[20.33593,63.85299],[20.34387,63.85269],[20.34179,63.84744],[20.33801,63.84745],[20.29592,63.84924],[20.28833,63.8523],[20.28484,63.85331],[20.28153,63.85387],[20.28305,63.85567],[20.28622,63.85729],[20.28787,63.86196],[20.28798,63.86708],[20.28981,63.86904],[20.29065,63.87116],[20.3178,63.87139],[20.32216,63.86685]]]}},{"type":"Feature","id":"2480R007","properties":{"code":"2480R007","name":"Ersmark"},"geometry":{"type":"Polygon","coordinates":[[[20.32777,63.90122],[20.33229,63.90049],[20.3349,63.89957],[20.33721,63.89814],[20.33827,63.89677],[20.33852,63.89536],[20.33803,63.89373],[20.33882,63.89261],[20.33903,63.89105],[20.34003,63.88893],[20.33975,63.88751],[20.33771,63.88424],[20.3386,63.8828],[20.33872,63.88159],[20.33816,63.88022],[20.33709,63.87907],[20.33791,63.87687],[20.33758,63.87509],[20.34011,63.87175],[20.3308,63.87177],[20.30248,63.87115],[20.29065,63.87116],[20.29098,63.87233],[20.29171,63.87297],[20.29118,63.87527],[20.29209,63.87732],[20.2897,63.87988],[20.28936,63.88125],[20.28963,63.8823],[20.29072,63.88369],[20.29196,63.88456],[20.29445,63.88563],[20.29699,63.88798],[20.29905,63.88945],[20.29852,63.89155],[20.29865,63.8926],[20.30179,63.89648],[20.3059,63.89895],[20.30989,63.90015],[20.31825,63.90125],[20.32777,63.90122]]]}},{"type":"Feature","id":"2480R008","properties":{"code":"2480R008","name":"Grisbacka-Grubbe-Västerhiske"},"geometry":{"type":"Polygon","coordinates":[[[20.234,63.83523],[20.23532,63.83432],[20.23439,63.83422],[20.23334,63.83374],[20.23267,63.83293],[20.23209,63.83266],[20.23076,63.83249],[20.22709,63.83044],[20.22543,63.83004],[20.22517,63.82959],[20.22331,63.82918],[20.22145,63.82922],[20.22008,63.82893],[20.21944,63.82839],[20.21743,63.82882],[20.21694,63.82823],[20.21565,63.8283],[20.21456,63.8287],[20.21271,63.82837],[20.21265,63.82747],[20.21199,63.82688],[20.2134,63.82669],[20.21413,63.82634],[20.21529,63.8246],[20.2052,63.82444],[20.19391,63.8253],[20.18108,63.82707],[20.1779,63.82811],[20.18078,63.83015],[20.18103,63.83293],[20.1848,63.83533],[20.18582,63.83557],[20.1874,63.83547],[20.18792,63.83637],[20.18524,63.83666],[20.18908,63.84175],[20.19072,63.84166],[20.20923,63.839],[20.21702,63.83703],[20.22196,63.83611],[20.22802,63.83553],[20.234,63.83523]]]}},{"type":"Feature","id":"2480R009","properties":{"code":"2480R009","name":"Haga"},"geometry":{"type":"Polygon","coordinates":[[[20.27707,63.83206],[20.27763,63.83198],[20.28523,63.83276],[20.2872,63.82959],[20.28703,63.82798],[20.28476,63.82774],[20.28554,63.82704],[20.28514,63.8265],[20.28335,63.82675],[20.28066,63.82679],[20.27302,63.82784],[20.26107,63.83162],[20.27068,63.83682],[20.27317,63.83616],[20.27687,63.83555],[20.28038,63.83529],[20.27707,63.83206]]]}},{"type":"Feature","id":"2480R032","properties":{"code":"2480R032","name":"Umedalen östra"},"geometry":{"type":"Polygon","coordinates":[[[20.16288,63.84438],[20.16491,63.84379],[20.16765,63.84214],[20.17157,63.84049],[20.17549,63.83922],[20.176,63.83881],[20.17791,63.83856],[20.17769,63.83833],[20.17585,63.8379],[20.17304,63.83751],[20.17477,63.83633],[20.17224,63.83563],[20.16809,63.83508],[20.16823,63.83476],[20.16655,63.83461],[20.16567,63.83547],[20.16504,63.83558],[20.16467,63.83772],[20.16089,63.84205],[20.1605,63.84395],[20.16288,63.84438]]]}},{"type":"Feature","id":"2480R033","properties":{"code":"2480R033","name":"Umeå centrum"},"geometry":{"type":"Polygon","coordinates":[[[20.26107,63.83162],[20.27302,63.82784],[20.26741,63.82133],[20.2541,63.82395],[20.2598,63.83069],[20.26107,63.83162]]]}},{"type":"Feature","id":"2480R034","properties":{"code":"2480R034","name":"Umeå norra landsbygd"},"geometry":{"type":"Polygon","coordinates":[[[20.17433,64.2428],[20.16629,64.21941],[20.1752,64.21418],[20.18454,64.21681],[20.21269,64.20508],[20.20498,64.20358],[20.20396,64.19493],[20.20996,64.18806],[20.23318,64.18941],[20.27602,64.14562],[20.28422,64.11591],[20.26508,64.11397],[20.25629,64.09996],[20.28809,64.10211],[20.29135,64.09056],[20.29556,64.08409],[20.30251,64.08563],[20.30719,64.08142],[20.30707,64.07564],[20.30036,64.07687],[20.38692,63.94579],[20.39247,63.92423],[20.39794,63.89874],[20.40939,63.90029],[20.41276,63.88147],[20.41936,63.88163],[20.42205,63.87993],[20.42266,63.87833],[20.41732,63.86892],[20.43004,63.86495],[20.42034,63.85002],[20.39464,63.83579],[20.36073,63.82669],[20.36141,63.82342],[20.36667,63.81816],[20.3664,63.81706],[20.36922,63.81398],[20.36523,63.81338],[20.36251,63.8134],[20.35965,63.81316],[20.35856,63.81429],[20.35669,63.81538],[20.3488,63.8179],[20.34076,63.83017],[20.34582,63.83261],[20.34605,63.83305],[20.34908,63.83331],[20.35192,63.8339],[20.35433,63.83478],[20.35619,63.83592],[20.35732,63.83721],[20.35768,63.83872],[20.35956,63.83987],[20.36072,63.84119],[20.36121,63.84334],[20.36059,63.84501],[20.36318,63.84686],[20.36416,63.84898],[20.36323,63.85079],[20.35757,63.85811],[20.35712,63.85986],[20.35561,63.86139],[20.35589,63.86329],[20.35475,63.86526],[20.35276,63.86672],[20.35132,63.86839],[20.34861,63.86986],[20.34518,63.87084],[20.34011,63.87175],[20.33758,63.87509],[20.33791,63.87687],[20.33709,63.87907],[20.33816,63.88022],[20.33873,63.88194],[20.33847,63.88313],[20.33771,63.88424],[20.33975,63.88751],[20.33999,63.88927],[20.33903,63.89105],[20.33882,63.89261],[20.33803,63.89373],[20.33852,63.89536],[20.33827,63.89677],[20.33721,63.89814],[20.3349,63.89957],[20.33229,63.90049],[20.32777,63.90122],[20.3191,63.90127],[20.31665,63.90114],[20.30989,63.90015],[20.30774,63.89962],[20.30533,63.89868],[20.30219,63.89681],[20.29879,63.89293],[20.29852,63.89155],[20.29905,63.88945],[20.29699,63.88798],[20.29445,63.88563],[20.29196,63.88456],[20.29072,63.88369],[20.2895,63.88196],[20.2897,63.87988],[20.29209,63.87732],[20.29118,63.87527],[20.29171,63.87297],[20.29098,63.87233],[20.28981,63.86904],[20.28798,63.86708],[20.28787,63.86196],[20.28622,63.85729],[20.28305,63.85567],[20.28199,63.85465],[20.28125,63.85297],[20.27715,63.85184],[20.27441,63.85076],[20.27068,63.84852],[20.26776,63.84598],[20.2652,63.84646],[20.26214,63.84668],[20.25322,63.84637],[20.24829,63.84637],[20.24496,63.84823],[20.24034,63.84976],[20.23806,63.85141],[20.23743,63.85263],[20.23637,63.85366],[20.2342,63.85505],[20.23022,63.85643],[20.22674,63.85697],[20.22042,63.86052],[20.21751,63.8614],[20.21514,63.86181],[20.20694,63.86233],[20.20065,63.86208],[20.19606,63.86133],[20.19278,63.86011],[20.19061,63.85859],[20.18873,63.85633],[20.18823,63.85488],[20.18882,63.85299],[20.19104,63.85106],[20.19061,63.84674],[20.17434,63.84852],[20.16507,63.84926],[20.16272,63.84976],[20.15432,63.85091],[20.15349,63.85096],[20.15719,63.84828],[20.15501,63.84837],[20.14574,63.84955],[20.14493,63.85173],[20.14647,63.85463],[20.14633,63.85497],[20.14776,63.85537],[20.14508,63.85776],[20.14465,63.85848],[20.1445,63.86405],[20.14583,63.86767],[20.14834,63.87042],[20.15105,63.87419],[20.15184,63.87632],[20.15188,63.87866],[20.15127,63.88025],[20.15127,63.88135],[20.15154,63.88552],[20.15208,63.88638],[20.14315,63.89115],[20.14381,63.89174],[20.14168,63.89581],[20.14246,63.89623],[20.14191,63.8968],[20.14419,63.90012],[20.14289,63.90094],[20.14248,63.90255],[20.14188,63.9031],[20.14128,63.90354],[20.1251,63.90517],[20.11891,63.90314],[20.1117,63.90163],[20.10268,63.90481],[20.08853,63.90787],[20.09142,63.91246],[20.08789,63.9171],[20.08306,63.92998],[20.06876,63.94122],[20.06114,63.95685],[20.03591,63.97418],[19.99863,63.99252],[19.98922,64.0044],[19.98583,64.01294],[19.9706,64.01336],[19.9706,64.01497],[19.95377,64.01763],[19.94808,64.01884],[19.95798,64.02793],[19.95092,64.02931],[19.95607,64.03999],[19.96205,64.04341],[19.94044,64.07684],[19.89048,64.07208],[19.86644,64.08552],[19.79266,64.08468],[19.80308,64.09554],[19.79768,64.09677],[19.79721,64.09725],[19.79448,64.09768],[19.79904,64.09958],[19.79963,64.09922],[19.79926,64.0969],[19.80373,64.09622],[19.82409,64.11756],[19.81788,64.12879],[19.82274,64.12907],[19.8305,64.12771],[19.83139,64.12707],[19.83117,64.12685],[19.84428,64.12383],[19.86145,64.13197],[19.8926,64.12876],[19.92573,64.13181],[19.94166,64.11266],[19.95503,64.11385],[19.95404,64.11547],[19.95307,64.11613],[19.95463,64.11624],[19.95526,64.11387],[19.96124,64.1144],[19.96134,64.11424],[19.98212,64.11537],[19.98683,64.12469],[19.98978,64.12525],[19.98626,64.11922],[19.9931,64.11721],[20.00603,64.11646],[20.01834,64.11704],[20.02739,64.13011],[20.02868,64.15413],[20.02049,64.16556],[20.0467,64.18494],[20.05437,64.19447],[20.05978,64.19475],[20.07085,64.20572],[20.07434,64.20419],[20.05785,64.21772],[20.08246,64.23855],[20.09931,64.24063],[20.09907,64.23549],[20.1488,64.23432],[20.15013,64.24064],[20.17433,64.2428]]]}},{"type":"Feature","id":"2480R010","properties":{"code":"2480R010","name":"Holmsund västra"},"geometry":{"type":"Polygon","coordinates":[[[20.37779,63.72902],[20.37865,63.7256],[20.37756,63.72314],[20.37902,63.7228],[20.38083,63.72196],[20.38286,63.72081],[20.385,63.71854],[20.38655,63.71838],[20.38646,63.71809],[20.38492,63.71812],[20.38445,63.71777],[20.38462,63.71669],[20.38309,63.71538],[20.38193,63.71525],[20.38136,63.71472],[20.37712,63.71274],[20.37685,63.71223],[20.37598,63.71213],[20.37534,63.71226],[20.37459,63.71179],[20.37461,63.71123],[20.37279,63.7105],[20.37269,63.71017],[20.37083,63.70904],[20.36955,63.7088],[20.3677,63.7072],[20.36642,63.70674],[20.36599,63.70581],[20.36439,63.70566],[20.36373,63.70542],[20.36387,63.70489],[20.36325,63.70419],[20.36158,63.70337],[20.36005,63.70329],[20.35912,63.70342],[20.35828,63.702],[20.35555,63.70203],[20.35445,63.6999],[20.35698,63.69932],[20.35786,63.69862],[20.35602,63.69608],[20.35438,63.69548],[20.35709,63.68854],[20.35722,63.68744],[20.35608,63.68718],[20.3548,63.68597],[20.35308,63.68501],[20.35538,63.68341],[20.35632,63.68138],[20.35613,63.67886],[20.35564,63.67783],[20.35391,63.67631],[20.35138,63.67516],[20.35121,63.67469],[20.35308,63.67271],[20.35333,63.67169],[20.35298,63.67033],[20.35097,63.66843],[20.34945,63.66765],[20.34696,63.66685],[20.34258,63.66622],[20.33788,63.66637],[20.33436,63.66706],[20.3314,63.66814],[20.32734,63.6689],[20.32448,63.67004],[20.32226,63.6719],[20.32084,63.67565],[20.32114,63.68053],[20.32058,63.68183],[20.32058,63.68366],[20.32424,63.68622],[20.32456,63.68725],[20.33516,63.69285],[20.33481,63.69444],[20.3372,63.69938],[20.33456,63.70164],[20.33451,63.70279],[20.33583,63.70454],[20.33623,63.70599],[20.33574,63.70713],[20.33607,63.70777],[20.33195,63.71189],[20.33099,63.71366],[20.33068,63.71514],[20.33408,63.7143],[20.33703,63.71296],[20.33883,63.71145],[20.33946,63.71],[20.34333,63.71141],[20.3446,63.71405],[20.34601,63.71519],[20.3487,63.71673],[20.34917,63.71799],[20.35057,63.71938],[20.35003,63.72166],[20.35031,63.72385],[20.35133,63.72514],[20.35305,63.72628],[20.35669,63.72753],[20.36083,63.72828],[20.36395,63.72859],[20.36865,63.72838],[20.37079,63.728],[20.37331,63.72723],[20.37258,63.72946],[20.37779,63.72902]]]}},{"type":"Feature","id":"2480R011","properties":{"code":"2480R011","name":"Holmsund östra"},"geometry":{"type":"Polygon","coordinates":[[[20.40708,63.71729],[20.40922,63.71631],[20.4105,63.71539],[20.41177,63.71332],[20.41121,63.71119],[20.40999,63.70993],[20.40853,63.70898],[20.41079,63.70808],[20.41248,63.70694],[20.41347,63.70564],[20.41372,63.70462],[20.41278,63.70061],[20.41197,63.6994],[20.41052,63.69815],[20.40926,63.69542],[20.40734,63.69293],[20.4084,63.69052],[20.41126,63.68977],[20.41341,63.68879],[20.4156,63.68715],[20.41678,63.68585],[20.41818,63.6831],[20.41784,63.68033],[20.41691,63.67896],[20.41485,63.67722],[20.41327,63.67539],[20.41107,63.67171],[20.40484,63.6678],[20.39936,63.66583],[20.39666,63.66517],[20.39351,63.66483],[20.38913,63.66405],[20.38453,63.66406],[20.38143,63.66453],[20.37884,63.66527],[20.37693,63.66614],[20.37523,63.66738],[20.37411,63.66898],[20.37377,63.67039],[20.37486,63.6729],[20.37509,63.67439],[20.37339,63.6756],[20.3725,63.67689],[20.37107,63.67808],[20.36986,63.68026],[20.36674,63.68081],[20.36373,63.68187],[20.36157,63.68334],[20.36003,63.68606],[20.35857,63.68719],[20.35629,63.68718],[20.35722,63.68744],[20.35709,63.68854],[20.35438,63.69548],[20.35602,63.69608],[20.35786,63.69862],[20.35698,63.69932],[20.35445,63.6999],[20.35555,63.70203],[20.35828,63.702],[20.35912,63.70342],[20.36005,63.70329],[20.36158,63.70337],[20.36325,63.70419],[20.36387,63.70489],[20.36373,63.70542],[20.36439,63.70566],[20.36599,63.70581],[20.36642,63.70674],[20.3677,63.7072],[20.36955,63.7088],[20.37083,63.70904],[20.37269,63.71017],[20.37279,63.7105],[20.37461,63.71123],[20.37459,63.71179],[20.37534,63.71226],[20.37598,63.71213],[20.37685,63.71223],[20.37712,63.71274],[20.38136,63.71472],[20.38193,63.71525],[20.38309,63.71538],[20.38462,63.71669],[20.38445,63.71777],[20.38492,63.71812],[20.38646,63.71809],[20.38655,63.71838],[20.385,63.71854],[20.38286,63.72081],[20.38083,63.72196],[20.37902,63.7228],[20.37756,63.72314],[20.37865,63.7256],[20.37779,63.72902],[20.37258,63.72946],[20.37305,63.73096],[20.37514,63.73328],[20.37696,63.73448],[20.37941,63.73544],[20.38387,63.73629],[20.38787,63.73658],[20.39107,63.73653],[20.39563,63.73578],[20.39759,63.73514],[20.39968,63.73406],[20.40154,63.73208],[20.40232,63.72949],[20.40205,63.72787],[20.40329,63.72656],[20.40369,63.72482],[20.40685,63.72335],[20.40869,63.72137],[20.40874,63.71922],[20.40708,63.71729]]]}},{"type":"Feature","id":"2480R012","properties":{"code":"2480R012","name":"Holmsund-Obbola omland"},"geometry":{"type":"Polygon","coordinates":[[[20.43303,63.84388],[20.44562,63.81873],[20.45954,63.80606],[20.48979,63.80314],[20.50829,63.80621],[20.50848,63.80603],[20.50764,63.79589],[20.49839,63.78079],[20.4798,63.76638],[20.48611,63.76057],[20.48454,63.73558],[20.49482,63.70709],[20.69287,63.48518],[20.46387,63.36817],[20.45959,63.3715],[20.20723,63.58445],[20.23183,63.62767],[20.23408,63.64862],[20.24015,63.65752],[20.237,63.66329],[20.24005,63.66927],[20.23778,63.67424],[20.23947,63.6838],[20.24408,63.68837],[20.24094,63.69504],[20.24682,63.7046],[20.25062,63.70934],[20.25201,63.70965],[20.25402,63.70915],[20.26028,63.71472],[20.26677,63.71884],[20.26833,63.72489],[20.27499,63.7258],[20.27925,63.7401],[20.2858,63.74893],[20.29394,63.75051],[20.30985,63.74184],[20.32037,63.74283],[20.3204,63.74674],[20.31646,63.76009],[20.31127,63.76504],[20.30962,63.76862],[20.30963,63.77081],[20.30868,63.77083],[20.30843,63.77435],[20.30929,63.7773],[20.30923,63.77825],[20.31112,63.77998],[20.31018,63.78193],[20.32209,63.78402],[20.32131,63.78497],[20.33329,63.78697],[20.33085,63.78953],[20.34299,63.79192],[20.35825,63.79461],[20.36721,63.79351],[20.36843,63.79543],[20.37361,63.7955],[20.3792,63.79635],[20.3855,63.79861],[20.38706,63.7995],[20.38853,63.80092],[20.39129,63.80102],[20.39498,63.8003],[20.39907,63.80008],[20.40151,63.80017],[20.4062,63.80083],[20.40853,63.80066],[20.41194,63.80075],[20.41561,63.80133],[20.42098,63.80297],[20.4235,63.80325],[20.42645,63.80386],[20.43077,63.80535],[20.43327,63.80711],[20.43492,63.81001],[20.43404,63.81513],[20.43338,63.81654],[20.43149,63.81812],[20.42655,63.82007],[20.42282,63.82074],[20.41729,63.82095],[20.41402,63.82082],[20.41026,63.82016],[20.40744,63.81996],[20.40051,63.82048],[20.39484,63.82026],[20.39096,63.81959],[20.38764,63.81838],[20.38534,63.81674],[20.38256,63.81557],[20.38036,63.81363],[20.37917,63.813],[20.37451,63.81393],[20.37125,63.81408],[20.36922,63.81398],[20.3664,63.81706],[20.36667,63.81816],[20.36141,63.82342],[20.36073,63.82669],[20.39464,63.83579],[20.42034,63.85002],[20.43303,63.84388]],[[20.39024,63.73658],[20.38703,63.73653],[20.38226,63.73608],[20.37936,63.73542],[20.37647,63.73422],[20.37482,63.73297],[20.37287,63.73062],[20.37259,63.72919],[20.37331,63.72723],[20.37079,63.728],[20.36865,63.72838],[20.36395,63.72859],[20.36083,63.72828],[20.35669,63.72753],[20.35305,63.72628],[20.35133,63.72514],[20.35031,63.72385],[20.35003,63.72166],[20.35057,63.71938],[20.34917,63.71799],[20.3487,63.71673],[20.34601,63.71519],[20.3446,63.71405],[20.34333,63.71141],[20.33946,63.71],[20.33883,63.71145],[20.33747,63.71268],[20.33467,63.71407],[20.33214,63.71485],[20.32924,63.71533],[20.32632,63.71547],[20.32211,63.71596],[20.31753,63.71599],[20.31363,63.71554],[20.31087,63.71482],[20.3082,63.71357],[20.30353,63.71222],[20.3012,63.71118],[20.29943,63.70984],[20.29862,63.7086],[20.29693,63.7077],[20.2955,63.70643],[20.2947,63.70472],[20.29459,63.70335],[20.29074,63.70204],[20.28823,63.70016],[20.28757,63.69877],[20.28777,63.69722],[20.28659,63.69523],[20.28507,63.69419],[20.2842,63.69318],[20.2835,63.69127],[20.28366,63.68979],[20.28122,63.68559],[20.28133,63.6826],[20.28306,63.68057],[20.28601,63.67894],[20.28936,63.67791],[20.29322,63.6774],[20.29725,63.67745],[20.30103,63.67806],[20.30392,63.67897],[20.30635,63.68007],[20.31019,63.6825],[20.31547,63.6827],[20.32051,63.68376],[20.32058,63.68183],[20.32114,63.68053],[20.3209,63.67531],[20.32175,63.67383],[20.32206,63.67223],[20.32283,63.67123],[20.32448,63.67004],[20.32671,63.66909],[20.32878,63.66854],[20.3314,63.66814],[20.33436,63.66706],[20.33714,63.66647],[20.34182,63.66619],[20.34628,63.66669],[20.35,63.6679],[20.35251,63.66968],[20.35325,63.671],[20.35321,63.67237],[20.35238,63.67373],[20.35121,63.67469],[20.35138,63.67516],[20.35391,63.67631],[20.35564,63.67783],[20.35613,63.67886],[20.35632,63.68138],[20.35538,63.68341],[20.35308,63.68501],[20.3548,63.68597],[20.35608,63.68718],[20.35857,63.68719],[20.36003,63.68606],[20.36157,63.68334],[20.36373,63.68187],[20.36674,63.68081],[20.36986,63.68026],[20.37107,63.67808],[20.3725,63.67689],[20.37339,63.6756],[20.37509,63.67439],[20.37486,63.6729],[20.37377,63.67039],[20.37395,63.66932],[20.37494,63.66769],[20.37647,63.66641],[20.37827,63.6655],[20.38074,63.66468],[20.38377,63.66414],[20.38605,63.66397],[20.38913,63.66405],[20.39351,63.66483],[20.39666,63.66517],[20.39936,63.66583],[20.40484,63.6678],[20.41107,63.67171],[20.41327,63.67539],[20.41744,63.67962],[20.41796,63.68067],[20.41818,63.6831],[20.41678,63.68585],[20.4156,63.68715],[20.41341,63.68879],[20.41126,63.68977],[20.4084,63.69052],[20.40734,63.69293],[20.40926,63.69542],[20.41052,63.69815],[20.41197,63.6994],[20.41277,63.70058],[20.4137,63.70428],[20.41347,63.70564],[20.41248,63.70694],[20.41079,63.70808],[20.40853,63.70898],[20.41095,63.71087],[20.4118,63.71295],[20.41154,63.71405],[20.4105,63.71539],[20.40922,63.71631],[20.40708,63.71729],[20.40874,63.71922],[20.40869,63.72137],[20.40685,63.72335],[20.40369,63.72482],[20.40329,63.72656],[20.40205,63.72787],[20.40232,63.72949],[20.40156,63.73205],[20.40012,63.73375],[20.39819,63.73488],[20.39563,63.73578],[20.3927,63.73636],[20.39024,63.73658]]]}},{"type":"Feature","id":"2480R013","properties":{"code":"2480R013","name":"Hörnefors omland"},"geometry":{"type":"Polygon","coordinates":[[[19.81881,63.82294],[19.81669,63.7896],[19.8653,63.73975],[19.89786,63.73321],[19.93296,63.74908],[19.96507,63.72936],[20.00932,63.72685],[20.01528,63.72704],[20.01539,63.72668],[20.03291,63.71463],[20.0369,63.71479],[20.03624,63.71239],[20.04508,63.70636],[20.03499,63.70488],[20.03636,63.70354],[20.03924,63.7016],[20.03923,63.69978],[20.05827,63.69831],[20.05969,63.69436],[20.07681,63.6919],[20.12393,63.68663],[20.12518,63.67901],[20.15675,63.67756],[20.1488,63.65792],[20.15047,63.65712],[20.17188,63.62757],[20.20723,63.58445],[20.45959,63.3715],[20.46387,63.36817],[20.39621,63.3335],[20.25789,63.23428],[19.84542,63.46671],[19.78739,63.5034],[19.75036,63.52741],[19.74722,63.53667],[19.74578,63.53606],[19.74444,63.53592],[19.74374,63.5361],[19.74294,63.53768],[19.74248,63.54074],[19.74116,63.54328],[19.73998,63.54361],[19.73769,63.54351],[19.73651,63.54408],[19.73602,63.54546],[19.73536,63.54609],[19.73446,63.54901],[19.73391,63.54945],[19.73393,63.55005],[19.73285,63.55115],[19.73554,63.55697],[19.73575,63.55778],[19.73518,63.55826],[19.73551,63.55871],[19.73378,63.56051],[19.73312,63.56203],[19.73193,63.56227],[19.73135,63.5622],[19.73087,63.56254],[19.73183,63.56302],[19.73211,63.56347],[19.73158,63.5639],[19.72915,63.56896],[19.72743,63.5698],[19.7268,63.57094],[19.72489,63.57151],[19.724,63.57216],[19.71931,63.5721],[19.71925,63.57268],[19.71864,63.57337],[19.71887,63.57425],[19.71939,63.5745],[19.71903,63.57446],[19.71879,63.57488],[19.71788,63.57527],[19.71682,63.57674],[19.71757,63.57694],[19.71907,63.57827],[19.71962,63.57827],[19.71985,63.57859],[19.72034,63.57848],[19.72078,63.57866],[19.72036,63.57982],[19.72068,63.57985],[19.72071,63.58103],[19.72029,63.58114],[19.72052,63.58164],[19.72011,63.58212],[19.72023,63.58393],[19.71978,63.58415],[19.72007,63.58434],[19.7195,63.58526],[19.71973,63.58543],[19.74994,63.58261],[19.75887,63.58458],[19.75796,63.58527],[19.75757,63.58609],[19.75761,63.58865],[19.75696,63.59052],[19.75767,63.59143],[19.75746,63.59195],[19.75671,63.59268],[19.75468,63.59305],[19.75404,63.59348],[19.75429,63.59376],[19.7535,63.59477],[19.75341,63.59619],[19.75292,63.59668],[19.75316,63.59876],[19.75188,63.59993],[19.75056,63.60194],[19.7493,63.6027],[19.74804,63.60296],[19.72307,63.64129],[19.72675,63.64848],[19.76065,63.67435],[19.76107,63.68351],[19.76354,63.70435],[19.77908,63.72973],[19.77708,63.73343],[19.77755,63.7338],[19.77498,63.73855],[19.76573,63.74264],[19.76335,63.74263],[19.7516,63.74976],[19.74548,63.75004],[19.68089,63.81025],[19.73154,63.81518],[19.73403,63.80169],[19.7292,63.80156],[19.7294,63.80011],[19.73433,63.80025],[19.7351,63.79572],[19.73416,63.79569],[19.73457,63.79298],[19.73554,63.79299],[19.73578,63.79169],[19.73474,63.79163],[19.73506,63.78948],[19.73595,63.78951],[19.73608,63.78846],[19.76601,63.7894],[19.76296,63.80936],[19.77156,63.81847],[19.81881,63.82294]],[[19.90552,63.64683],[19.90186,63.64658],[19.89658,63.64548],[19.89365,63.64423],[19.89191,63.64288],[19.89066,63.64065],[19.89041,63.63919],[19.89133,63.63724],[19.89266,63.63608],[19.89264,63.63325],[19.89071,63.63229],[19.88785,63.63132],[19.88553,63.62986],[19.88319,63.6271],[19.88282,63.62567],[19.88309,63.62425],[19.8844,63.62225],[19.88713,63.61994],[19.88919,63.61882],[19.89193,63.61794],[19.89341,63.61706],[19.89267,63.61525],[19.89307,63.61204],[19.89405,63.61066],[19.89579,63.6093],[19.89933,63.59903],[19.92219,63.59912],[19.93988,63.62134],[19.94018,63.62265],[19.93979,63.62396],[19.93979,63.62615],[19.94019,63.62882],[19.93962,63.6324],[19.93789,63.63525],[19.9369,63.6362],[19.93433,63.63761],[19.93176,63.63839],[19.93057,63.63991],[19.92824,63.64136],[19.925,63.64242],[19.92194,63.64291],[19.91912,63.64466],[19.91619,63.64557],[19.90954,63.6466],[19.90552,63.64683]]]}},{"type":"Feature","id":"2480R014","properties":{"code":"2480R014","name":"Hörnefors tätort"},"geometry":{"type":"Polygon","coordinates":[[[19.92219,63.59912],[19.89933,63.59903],[19.89579,63.6093],[19.89405,63.61066],[19.89307,63.61204],[19.89267,63.61525],[19.89341,63.61706],[19.89193,63.61794],[19.88919,63.61882],[19.88713,63.61994],[19.8844,63.62225],[19.88309,63.62425],[19.88282,63.62567],[19.88319,63.6271],[19.88553,63.62986],[19.88785,63.63132],[19.89071,63.63229],[19.89264,63.63325],[19.89266,63.63608],[19.89133,63.63724],[19.89041,63.63919],[19.89066,63.64065],[19.89191,63.64288],[19.89365,63.64423],[19.89658,63.64548],[19.90041,63.64634],[19.9036,63.64675],[19.90629,63.64683],[19.90879,63.64668],[19.91619,63.64557],[19.91912,63.64466],[19.92194,63.64291],[19.925,63.64242],[19.92763,63.64161],[19.93021,63.64021],[19.93176,63.63839],[19.93433,63.63761],[19.9369,63.6362],[19.93789,63.63525],[19.93962,63.6324],[19.94019,63.62882],[19.93979,63.62615],[19.93979,63.62396],[19.94018,63.62265],[19.93988,63.62134],[19.92219,63.59912]]]}},{"type":"Feature","id":"2480R015","properties":{"code":"2480R015","name":"Marieberg"},"geometry":{"type":"Polygon","coordinates":[[[20.36416,63.84898],[20.36318,63.84686],[20.36059,63.84501],[20.36121,63.84334],[20.36072,63.84119],[20.35956,63.83987],[20.35768,63.83872],[20.35767,63.83834],[20.35278,63.84176],[20.35268,63.84257],[20.34881,63.84274],[20.33675,63.84421],[20.33487,63.84405],[20.33296,63.8447],[20.3181,63.84362],[20.31601,63.84417],[20.31411,63.84417],[20.31361,63.84477],[20.3144,63.84844],[20.33801,63.84745],[20.34328,63.84748],[20.35018,63.84814],[20.36323,63.85079],[20.36416,63.84898]]]}},{"type":"Feature","id":"2480R016","properties":{"code":"2480R016","name":"Mariehem västra"},"geometry":{"type":"Polygon","coordinates":[[[20.31361,63.84477],[20.31411,63.84417],[20.31601,63.84417],[20.3181,63.84362],[20.32537,63.84416],[20.32459,63.83906],[20.32568,63.83905],[20.32462,63.83832],[20.32427,63.83725],[20.32429,63.83385],[20.32192,63.8339],[20.32179,63.83276],[20.31933,63.83283],[20.31927,63.83346],[20.31766,63.83556],[20.31849,63.83983],[20.3174,63.8401],[20.31478,63.84338],[20.31101,63.8431],[20.30823,63.84315],[20.30183,63.84427],[20.29982,63.84499],[20.29709,63.84685],[20.29525,63.84762],[20.29671,63.84824],[20.29592,63.84924],[20.3144,63.84844],[20.31361,63.84477]]]}},{"type":"Feature","id":"2480R017","properties":{"code":"2480R017","name":"Mariehem östra-Olofsdal"},"geometry":{"type":"Polygon","coordinates":[[[20.33242,63.8447],[20.33487,63.84405],[20.33675,63.84421],[20.34881,63.84274],[20.35268,63.84257],[20.35278,63.84176],[20.35767,63.83834],[20.35732,63.83721],[20.35619,63.83592],[20.35433,63.83478],[20.35192,63.8339],[20.34908,63.83331],[20.34605,63.83305],[20.34582,63.83261],[20.34076,63.83017],[20.33412,63.82913],[20.33316,63.82843],[20.33332,63.82794],[20.32873,63.82963],[20.32711,63.82984],[20.32662,63.82979],[20.3234,63.82787],[20.32092,63.82742],[20.32004,63.82789],[20.31871,63.82822],[20.3173,63.82831],[20.31427,63.82816],[20.31258,63.82836],[20.31434,63.83016],[20.31769,63.83072],[20.31778,63.83161],[20.31933,63.83283],[20.32179,63.83276],[20.32192,63.8339],[20.32429,63.83385],[20.32427,63.83725],[20.32462,63.83832],[20.32568,63.83905],[20.32459,63.83906],[20.32537,63.84416],[20.33242,63.8447]]]}},{"type":"Feature","id":"2480R018","properties":{"code":"2480R018","name":"Obbola"},"geometry":{"type":"Polygon","coordinates":[[[20.32225,63.71595],[20.33068,63.71514],[20.33099,63.71366],[20.33195,63.71189],[20.33607,63.70777],[20.33574,63.70713],[20.33623,63.70599],[20.33583,63.70454],[20.33451,63.70279],[20.33456,63.70164],[20.3372,63.69938],[20.33481,63.69444],[20.33516,63.69285],[20.32456,63.68725],[20.32424,63.68622],[20.32058,63.68366],[20.31999,63.68367],[20.31774,63.68306],[20.31547,63.6827],[20.31019,63.6825],[20.3058,63.67979],[20.30244,63.67845],[20.30029,63.67789],[20.29559,63.67736],[20.29316,63.67741],[20.29013,63.67776],[20.28663,63.67869],[20.28349,63.68028],[20.28171,63.68188],[20.28116,63.6833],[20.28122,63.68559],[20.28366,63.68979],[20.28346,63.69093],[20.284,63.69283],[20.28507,63.69419],[20.28659,63.69523],[20.28777,63.69722],[20.28757,63.69877],[20.28823,63.70016],[20.29074,63.70204],[20.29459,63.70335],[20.29492,63.70539],[20.2958,63.70678],[20.29696,63.70773],[20.29862,63.7086],[20.30021,63.71054],[20.30222,63.7117],[20.30416,63.71242],[20.30677,63.71304],[20.31023,63.71458],[20.31293,63.7154],[20.31676,63.71595],[20.32225,63.71595]]]}},{"type":"Feature","id":"2480R019","properties":{"code":"2480R019","name":"Röbäck"},"geometry":{"type":"Polygon","coordinates":[[[20.15533,63.82997],[20.16074,63.82941],[20.17248,63.82865],[20.1779,63.82811],[20.18108,63.82707],[20.18913,63.82596],[20.18899,63.82432],[20.19616,63.82105],[20.19603,63.82063],[20.19549,63.82041],[20.19893,63.81972],[20.23468,63.80079],[20.22581,63.79727],[20.22704,63.793],[20.22651,63.79208],[20.22471,63.79048],[20.22091,63.78848],[20.21938,63.7885],[20.21916,63.787],[20.21297,63.78709],[20.21357,63.78852],[20.19546,63.78887],[20.19106,63.79006],[20.18958,63.79131],[20.19168,63.79172],[20.19213,63.79303],[20.19295,63.79399],[20.19304,63.7949],[20.19228,63.79574],[20.18741,63.79787],[20.18199,63.79899],[20.17978,63.79891],[20.17509,63.79926],[20.17106,63.79922],[20.16786,63.79959],[20.16116,63.80107],[20.15927,63.80182],[20.15772,63.80273],[20.15608,63.80449],[20.15577,63.80629],[20.15651,63.80781],[20.15793,63.80954],[20.15806,63.81088],[20.15954,63.8133],[20.16097,63.81457],[20.16366,63.81621],[20.16624,63.8171],[20.16903,63.81765],[20.17089,63.81893],[20.16516,63.8221],[20.16202,63.82354],[20.15876,63.82447],[20.15225,63.82545],[20.14891,63.82619],[20.14517,63.82776],[20.14302,63.82945],[20.14817,63.82983],[20.15109,63.82973],[20.15533,63.82997]]]}},{"type":"Feature","id":"2480R020","properties":{"code":"2480R020","name":"Sandbacka"},"geometry":{"type":"Polygon","coordinates":[[[20.29982,63.84499],[20.30183,63.84427],[20.30293,63.84298],[20.30211,63.8424],[20.29937,63.84191],[20.29594,63.84071],[20.29511,63.83979],[20.2945,63.83853],[20.29442,63.83732],[20.29496,63.83584],[20.29582,63.83493],[20.29564,63.83473],[20.29322,63.83287],[20.2865,63.83098],[20.28523,63.83276],[20.27763,63.83198],[20.27707,63.83206],[20.28038,63.83529],[20.27687,63.83555],[20.27317,63.83616],[20.27068,63.83682],[20.27284,63.83825],[20.25789,63.84128],[20.25843,63.84348],[20.25832,63.84664],[20.26369,63.84661],[20.26776,63.84598],[20.27068,63.84852],[20.27388,63.85047],[20.27715,63.85184],[20.28125,63.85297],[20.28153,63.85387],[20.28484,63.85331],[20.28833,63.8523],[20.29592,63.84924],[20.29671,63.84824],[20.29525,63.84762],[20.29709,63.84685],[20.29982,63.84499]]]}},{"type":"Feature","id":"2480R021","properties":{"code":"2480R021","name":"Sofiehem-Gimonäs-Carlshem södra"},"geometry":{"type":"Polygon","coordinates":[[[20.30946,63.80514],[20.309,63.80329],[20.31065,63.80304],[20.31121,63.80264],[20.31612,63.80403],[20.3172,63.80301],[20.31724,63.80236],[20.31673,63.80217],[20.31677,63.80085],[20.31879,63.80087],[20.31881,63.7999],[20.32005,63.7999],[20.32001,63.7985],[20.3442,63.79913],[20.34431,63.79675],[20.34248,63.79642],[20.34318,63.79568],[20.34299,63.79192],[20.33085,63.78953],[20.33329,63.78697],[20.32131,63.78497],[20.32209,63.78402],[20.31018,63.78193],[20.30821,63.78614],[20.29702,63.79826],[20.29246,63.81183],[20.29533,63.81217],[20.2979,63.81224],[20.29912,63.81266],[20.29864,63.81321],[20.30172,63.81361],[20.30268,63.81402],[20.30608,63.81381],[20.3053,63.81272],[20.3054,63.81236],[20.3065,63.81092],[20.30788,63.80772],[20.3092,63.80584],[20.30946,63.80514]]]}},{"type":"Feature","id":"2480R022","properties":{"code":"2480R022","name":"Sävar omland"},"geometry":{"type":"Polygon","coordinates":[[[20.19262,64.37183],[20.1887,64.3686],[20.20087,64.36412],[20.2093,64.35406],[20.23019,64.34119],[20.24621,64.33711],[20.30896,64.31793],[20.31253,64.31412],[20.30514,64.31253],[20.33191,64.27076],[20.33754,64.257],[20.35683,64.25815],[20.45639,64.14045],[20.51964,64.11261],[20.52218,64.09814],[20.54845,64.06966],[20.55999,64.07137],[20.55241,64.07994],[20.56467,64.08196],[20.64198,64.0093],[20.66599,63.98604],[20.68786,63.97263],[20.66079,63.92117],[20.64626,63.89735],[20.63464,63.87937],[20.67726,63.88499],[20.72972,63.87471],[20.72344,63.86783],[20.72521,63.86675],[20.72599,63.86559],[20.72567,63.8634],[20.73149,63.86303],[20.73393,63.8613],[20.742,63.86072],[20.75007,63.85823],[20.78815,63.85082],[20.8117,63.84584],[20.84795,63.85167],[21.0409,63.88372],[21.41561,63.92693],[21.45603,63.86061],[21.46055,63.85249],[21.46373,63.84568],[21.46636,63.83881],[21.46844,63.83192],[21.46998,63.82499],[21.47097,63.81805],[21.47141,63.81109],[21.4713,63.80413],[21.47064,63.79718],[21.46943,63.79024],[21.46768,63.78332],[21.46397,63.77287],[21.46439,63.76274],[21.46401,63.75578],[21.46308,63.74884],[21.4616,63.74191],[21.45958,63.73501],[21.45702,63.72814],[21.45391,63.72132],[21.45028,63.71455],[21.44612,63.70784],[21.44143,63.7012],[21.43623,63.69463],[21.43051,63.68815],[21.42429,63.68177],[21.41758,63.67548],[21.41038,63.6693],[21.4027,63.66323],[21.39455,63.65729],[21.38595,63.65147],[21.37746,63.64614],[21.36738,63.63358],[21.1531,63.57811],[20.93621,63.52186],[20.69287,63.48518],[20.49482,63.70709],[20.48454,63.73558],[20.48611,63.76057],[20.4798,63.76638],[20.49839,63.78079],[20.50764,63.79589],[20.50848,63.80603],[20.50829,63.80621],[20.48979,63.80314],[20.45954,63.80606],[20.44562,63.81873],[20.43303,63.84388],[20.42034,63.85002],[20.43004,63.86495],[20.41732,63.86892],[20.42266,63.87833],[20.42205,63.87993],[20.41936,63.88163],[20.41276,63.88147],[20.40939,63.90029],[20.39794,63.89874],[20.39247,63.92423],[20.38692,63.94579],[20.30036,64.07687],[20.30707,64.07564],[20.30719,64.08142],[20.30251,64.08563],[20.29556,64.08409],[20.29135,64.09056],[20.28809,64.10211],[20.25629,64.09996],[20.26508,64.11397],[20.28422,64.11591],[20.27602,64.14562],[20.23318,64.18941],[20.20996,64.18806],[20.20396,64.19493],[20.20498,64.20358],[20.21269,64.20508],[20.18454,64.21681],[20.1752,64.21418],[20.16629,64.21941],[20.17433,64.2428],[20.15013,64.24064],[20.1488,64.23432],[20.09907,64.23549],[20.10052,64.2638],[20.10205,64.26887],[20.09013,64.26767],[20.08421,64.27358],[20.07955,64.27287],[20.08171,64.26682],[20.02451,64.27227],[20.03012,64.29948],[20.03048,64.29952],[20.03986,64.31554],[20.03844,64.32249],[20.03278,64.32273],[20.03187,64.32623],[20.05876,64.32483],[20.06885,64.32338],[20.04195,64.33595],[20.04974,64.33878],[20.06434,64.33633],[20.07665,64.34879],[20.11622,64.34027],[20.11705,64.34575],[20.14105,64.34204],[20.14205,64.34771],[20.11593,64.35401],[20.10085,64.36096],[20.11233,64.37282],[20.13324,64.3719],[20.13324,64.37408],[20.10323,64.39062],[20.10598,64.39202],[20.10878,64.39413],[20.19262,64.37183]],[[20.47395,63.82552],[20.47868,63.82551],[20.48265,63.82612],[20.48519,63.82693],[20.48727,63.82788],[20.50016,63.83226],[20.50444,63.83328],[20.50669,63.83434],[20.50793,63.83527],[20.5091,63.83733],[20.50901,63.83841],[20.50807,63.84016],[20.50841,63.84116],[20.50817,63.84405],[20.50746,63.84509],[20.50587,63.84632],[20.50296,63.84757],[20.49932,63.84835],[20.49608,63.84859],[20.49198,63.84855],[20.48984,63.84985],[20.4882,63.85048],[20.48667,63.85191],[20.48452,63.85302],[20.48092,63.85407],[20.47599,63.85457],[20.47342,63.85451],[20.47,63.85409],[20.46776,63.85355],[20.46527,63.85259],[20.46295,63.85099],[20.46096,63.8485],[20.45696,63.8477],[20.45352,63.84619],[20.45181,63.84457],[20.4512,63.84216],[20.45183,63.83936],[20.45379,63.83728],[20.45395,63.83505],[20.45583,63.83291],[20.45999,63.83053],[20.46119,63.82905],[20.46363,63.82762],[20.46771,63.82645],[20.47395,63.82552]],[[20.52109,63.89631],[20.5225,63.89428],[20.52554,63.8926],[20.52621,63.89166],[20.52479,63.89042],[20.52414,63.88926],[20.52342,63.88496],[20.52261,63.88382],[20.52234,63.88243],[20.52328,63.87963],[20.52507,63.87762],[20.5268,63.87639],[20.52714,63.87501],[20.52791,63.87402],[20.53075,63.87224],[20.53478,63.87108],[20.53713,63.87077],[20.54134,63.87058],[20.54614,63.87097],[20.54963,63.87188],[20.55231,63.87322],[20.55369,63.87453],[20.55437,63.87635],[20.55569,63.87777],[20.55608,63.87926],[20.55565,63.88063],[20.55339,63.88277],[20.55155,63.88392],[20.55219,63.88491],[20.5534,63.88561],[20.55667,63.88715],[20.56153,63.88687],[20.5656,63.88727],[20.57131,63.88706],[20.57528,63.88744],[20.57747,63.88793],[20.57995,63.88883],[20.58257,63.89065],[20.58404,63.89291],[20.58388,63.89463],[20.5825,63.89626],[20.57975,63.89796],[20.58117,63.89952],[20.58153,63.90112],[20.58319,63.90351],[20.58468,63.90722],[20.58448,63.90922],[20.58271,63.91124],[20.58017,63.91264],[20.57653,63.91366],[20.57297,63.91505],[20.56942,63.91576],[20.56708,63.91603],[20.56292,63.91626],[20.55982,63.91615],[20.55876,63.91636],[20.55663,63.91729],[20.55453,63.91789],[20.55151,63.91839],[20.54908,63.91853],[20.54458,63.9195],[20.5375,63.91997],[20.53437,63.91976],[20.52936,63.91897],[20.52669,63.91817],[20.52502,63.91738],[20.52143,63.91467],[20.51941,63.91394],[20.51779,63.91308],[20.51642,63.91194],[20.5155,63.91052],[20.51569,63.90829],[20.51695,63.90683],[20.51938,63.90541],[20.51937,63.90267],[20.52035,63.90127],[20.52173,63.90023],[20.52085,63.89862],[20.52109,63.89631]]]}},{"type":"Feature","id":"2480R026","properties":{"code":"2480R026","name":"Teg östra-Ön"},"geometry":{"type":"Polygon","coordinates":[[[20.26741,63.82133],[20.27702,63.81906],[20.28466,63.81663],[20.29118,63.81373],[20.29246,63.81183],[20.29702,63.79826],[20.30821,63.78614],[20.30989,63.78253],[20.30433,63.7825],[20.30244,63.78335],[20.2989,63.78267],[20.29401,63.78247],[20.29053,63.78278],[20.28755,63.78342],[20.28555,63.78414],[20.28333,63.78535],[20.28197,63.78668],[20.28143,63.78789],[20.27538,63.79112],[20.2725,63.79203],[20.2701,63.79323],[20.26894,63.79412],[20.26769,63.79567],[20.26325,63.79648],[20.25937,63.79783],[20.25621,63.79811],[20.25389,63.79856],[20.25131,63.7993],[20.24921,63.80017],[20.25067,63.80251],[20.25252,63.8027],[20.25411,63.80347],[20.25209,63.80426],[20.25104,63.80527],[20.24962,63.80704],[20.2488,63.80867],[20.24727,63.81009],[20.24821,63.81042],[20.24909,63.81116],[20.24969,63.81535],[20.25103,63.81534],[20.25239,63.81557],[20.26312,63.8186],[20.26557,63.81963],[20.26741,63.82133]]]}},{"type":"Feature","id":"2480R027","properties":{"code":"2480R027","name":"Tomtebo norra"},"geometry":{"type":"Polygon","coordinates":[[[20.3488,63.8179],[20.34894,63.81512],[20.35047,63.81124],[20.35084,63.80873],[20.33552,63.80744],[20.33396,63.81127],[20.33333,63.81208],[20.33128,63.81286],[20.3265,63.81352],[20.3276,63.81752],[20.33057,63.82392],[20.33175,63.82409],[20.33106,63.82442],[20.33224,63.82637],[20.33375,63.82641],[20.33316,63.82843],[20.33412,63.82913],[20.34076,63.83017],[20.3488,63.8179]]]}},{"type":"Feature","id":"2480R028","properties":{"code":"2480R028","name":"Tomtebo västra"},"geometry":{"type":"Polygon","coordinates":[[[20.35815,63.81458],[20.35965,63.81316],[20.36251,63.8134],[20.36523,63.81338],[20.36922,63.81398],[20.37273,63.80895],[20.37023,63.80854],[20.36727,63.80752],[20.36562,63.8063],[20.36433,63.80449],[20.36258,63.8031],[20.36093,63.80252],[20.36006,63.80246],[20.34434,63.80246],[20.33952,63.80305],[20.33882,63.80329],[20.33813,63.8037],[20.33552,63.80744],[20.35084,63.80873],[20.35047,63.81124],[20.34894,63.81512],[20.3488,63.8179],[20.35613,63.81562],[20.35815,63.81458]]]}},{"type":"Feature","id":"2480R023","properties":{"code":"2480R023","name":"Sävar tätort"},"geometry":{"type":"Polygon","coordinates":[[[20.54831,63.91871],[20.55453,63.91789],[20.55663,63.91729],[20.55876,63.91636],[20.55982,63.91615],[20.56292,63.91626],[20.56708,63.91603],[20.56942,63.91576],[20.57297,63.91505],[20.57653,63.91366],[20.58017,63.91264],[20.58271,63.91124],[20.58448,63.90922],[20.58468,63.90722],[20.58319,63.90351],[20.58153,63.90112],[20.58117,63.89952],[20.57975,63.89796],[20.5832,63.89563],[20.58401,63.89429],[20.58404,63.89291],[20.58285,63.891],[20.58146,63.88969],[20.57936,63.88857],[20.57605,63.88759],[20.57131,63.88706],[20.5656,63.88727],[20.56314,63.88695],[20.56076,63.88686],[20.55667,63.88715],[20.5534,63.88561],[20.55219,63.88491],[20.55155,63.88392],[20.55515,63.88128],[20.55608,63.87926],[20.55569,63.87777],[20.55437,63.87635],[20.55335,63.87412],[20.55136,63.87264],[20.54832,63.87146],[20.54454,63.87075],[20.54057,63.87059],[20.53713,63.87077],[20.53407,63.87122],[20.53198,63.87178],[20.52961,63.87278],[20.52761,63.87433],[20.5268,63.87639],[20.52507,63.87762],[20.52328,63.87963],[20.52239,63.88207],[20.52237,63.88311],[20.52342,63.88496],[20.52435,63.88974],[20.52621,63.89166],[20.52554,63.8926],[20.5225,63.89428],[20.52135,63.89563],[20.52081,63.89825],[20.52173,63.90023],[20.52035,63.90127],[20.51937,63.90267],[20.51938,63.90541],[20.51776,63.90625],[20.51621,63.90754],[20.51543,63.90897],[20.51539,63.91009],[20.51614,63.91162],[20.51779,63.91308],[20.51941,63.91394],[20.52143,63.91467],[20.52502,63.91738],[20.52802,63.91862],[20.53357,63.91965],[20.5375,63.91997],[20.54383,63.91959],[20.54831,63.91871]]]}},{"type":"Feature","id":"2480R024","properties":{"code":"2480R024","name":"Teg centrala"},"geometry":{"type":"Polygon","coordinates":[[[20.24777,63.82509],[20.26741,63.82133],[20.26557,63.81963],[20.26418,63.81896],[20.25239,63.81557],[20.25103,63.81534],[20.24969,63.81535],[20.24909,63.81116],[20.24821,63.81042],[20.24727,63.81009],[20.2488,63.80867],[20.24962,63.80704],[20.25104,63.80527],[20.25209,63.80426],[20.25411,63.80347],[20.25252,63.8027],[20.25169,63.80255],[20.24497,63.80278],[20.24085,63.80248],[20.23822,63.80195],[20.23468,63.80079],[20.21329,63.81222],[20.22321,63.81354],[20.22087,63.81546],[20.22318,63.81616],[20.2246,63.81644],[20.23187,63.81708],[20.23148,63.82007],[20.23468,63.82029],[20.23488,63.82108],[20.23597,63.8212],[20.23557,63.82269],[20.2381,63.82257],[20.23907,63.82467],[20.23977,63.82517],[20.23919,63.82531],[20.2404,63.82606],[20.24209,63.82562],[20.24777,63.82509]]]}},{"type":"Feature","id":"2480R025","properties":{"code":"2480R025","name":"Teg västra"},"geometry":{"type":"Polygon","coordinates":[[[20.23907,63.82467],[20.2381,63.82257],[20.23557,63.82269],[20.23597,63.8212],[20.23488,63.82108],[20.23468,63.82029],[20.23148,63.82007],[20.23187,63.81708],[20.2246,63.81644],[20.22318,63.81616],[20.22087,63.81546],[20.22321,63.81354],[20.21329,63.81222],[20.19893,63.81972],[20.19549,63.82041],[20.19603,63.82063],[20.19616,63.82105],[20.18899,63.82432],[20.18913,63.82596],[20.19391,63.8253],[20.2052,63.82444],[20.21529,63.8246],[20.22275,63.82737],[20.22944,63.8279],[20.23408,63.82731],[20.2404,63.82606],[20.23919,63.82531],[20.23977,63.82517],[20.23907,63.82467]]]}},{"type":"Feature","id":"2480R029","properties":{"code":"2480R029","name":"Tomtebo östra-Innertavle"},"geometry":{"type":"Polygon","coordinates":[[[20.42282,63.82074],[20.42655,63.82007],[20.43044,63.81866],[20.43238,63.81753],[20.43382,63.81583],[20.43492,63.81001],[20.43327,63.80711],[20.43175,63.80588],[20.42961,63.80487],[20.425,63.80351],[20.42098,63.80297],[20.41561,63.80133],[20.41194,63.80075],[20.40853,63.80066],[20.4062,63.80083],[20.40151,63.80017],[20.39907,63.80008],[20.39498,63.8003],[20.39129,63.80102],[20.38853,63.80092],[20.38706,63.7995],[20.3855,63.79861],[20.3792,63.79635],[20.37361,63.7955],[20.36843,63.79543],[20.36721,63.79351],[20.35825,63.79461],[20.34299,63.79192],[20.34318,63.79568],[20.34248,63.79642],[20.34431,63.79675],[20.34434,63.80246],[20.36006,63.80246],[20.36093,63.80252],[20.36258,63.8031],[20.36433,63.80449],[20.36562,63.8063],[20.36727,63.80752],[20.37023,63.80854],[20.37273,63.80895],[20.36922,63.81398],[20.37125,63.81408],[20.37451,63.81393],[20.37917,63.813],[20.38036,63.81363],[20.38256,63.81557],[20.38534,63.81674],[20.38764,63.81838],[20.39096,63.81959],[20.39409,63.82017],[20.3989,63.82051],[20.40425,63.82029],[20.40744,63.81996],[20.41026,63.82016],[20.41247,63.82062],[20.41561,63.82093],[20.42282,63.82074]]]}},{"type":"Feature","id":"2480R030","properties":{"code":"2480R030","name":"Täfteå tätort"},"geometry":{"type":"Polygon","coordinates":[[[20.47775,63.85449],[20.48092,63.85407],[20.48452,63.85302],[20.48667,63.85191],[20.4882,63.85048],[20.48984,63.84985],[20.49198,63.84855],[20.49608,63.84859],[20.49932,63.84835],[20.50296,63.84757],[20.50587,63.84632],[20.50746,63.84509],[20.50817,63.84405],[20.50841,63.84116],[20.50807,63.84016],[20.50901,63.83841],[20.5091,63.83733],[20.50793,63.83527],[20.50669,63.83434],[20.50444,63.83328],[20.50016,63.83226],[20.48727,63.82788],[20.48519,63.82693],[20.48265,63.82612],[20.47868,63.82551],[20.47549,63.82543],[20.47241,63.8257],[20.46554,63.82695],[20.46363,63.82762],[20.46161,63.82873],[20.45999,63.83053],[20.45693,63.83212],[20.45415,63.83472],[20.45368,63.83575],[20.45379,63.83728],[20.45183,63.83936],[20.4512,63.84216],[20.45181,63.84457],[20.45352,63.84619],[20.45696,63.8477],[20.46096,63.8485],[20.46295,63.85099],[20.46527,63.85259],[20.46776,63.85355],[20.47,63.85409],[20.47342,63.85451],[20.47775,63.85449]]]}},{"type":"Feature","id":"2480R031","properties":{"code":"2480R031","name":"Umedalen västra-Backen"},"geometry":{"type":"Polygon","coordinates":[[[20.17434,63.84852],[20.19061,63.84674],[20.19023,63.84394],[20.18784,63.84177],[20.18908,63.84175],[20.18524,63.83666],[20.18792,63.83637],[20.1874,63.83547],[20.18582,63.83557],[20.1848,63.83533],[20.18103,63.83293],[20.18078,63.83015],[20.1779,63.82811],[20.17248,63.82865],[20.16074,63.82941],[20.15533,63.82997],[20.15109,63.82973],[20.14817,63.82983],[20.14302,63.82945],[20.14205,63.83107],[20.14203,63.83333],[20.14703,63.84166],[20.14925,63.8477],[20.14589,63.84793],[20.14574,63.84955],[20.15501,63.84837],[20.15719,63.84828],[20.15349,63.85096],[20.16272,63.84976],[20.16507,63.84926],[20.17434,63.84852]],[[20.16567,63.83547],[20.16655,63.83461],[20.16823,63.83476],[20.16809,63.83508],[20.17224,63.83563],[20.17477,63.83633],[20.17304,63.83751],[20.17585,63.8379],[20.17769,63.83833],[20.17791,63.83856],[20.176,63.83881],[20.17549,63.83922],[20.17157,63.84049],[20.16801,63.84198],[20.16461,63.84391],[20.16234,63.8444],[20.1605,63.84395],[20.16089,63.84205],[20.16467,63.83772],[20.16504,63.83558],[20.16567,63.83547]]]}},{"type":"Feature","id":"2480R035","properties":{"code":"2480R035","name":"Umeå södra landsbygd"},"geometry":{"type":"Polygon","coordinates":[[[20.28436,63.78471],[20.28755,63.78342],[20.2898,63.7829],[20.29224,63.78257],[20.29478,63.78246],[20.2981,63.78259],[20.30244,63.78335],[20.30433,63.7825],[20.30989,63.78253],[20.31112,63.77998],[20.30923,63.77825],[20.30929,63.7773],[20.30843,63.77435],[20.30868,63.77083],[20.30963,63.77081],[20.30962,63.76862],[20.31127,63.76504],[20.31646,63.76009],[20.3204,63.74674],[20.32037,63.74283],[20.30985,63.74184],[20.29394,63.75051],[20.2858,63.74893],[20.27925,63.7401],[20.27499,63.7258],[20.26833,63.72489],[20.26677,63.71884],[20.26028,63.71472],[20.25402,63.70915],[20.25201,63.70965],[20.25062,63.70934],[20.24682,63.7046],[20.24094,63.69504],[20.24408,63.68837],[20.23947,63.6838],[20.23778,63.67424],[20.24005,63.66927],[20.237,63.66329],[20.24015,63.65752],[20.23408,63.64862],[20.23183,63.62767],[20.20723,63.58445],[20.17188,63.62757],[20.15047,63.65712],[20.1488,63.65792],[20.15675,63.67756],[20.12518,63.67901],[20.12393,63.68663],[20.07681,63.6919],[20.05969,63.69436],[20.05827,63.69831],[20.03923,63.69978],[20.03924,63.7016],[20.03636,63.70354],[20.03499,63.70488],[20.04508,63.70636],[20.03624,63.71239],[20.0369,63.71479],[20.03291,63.71463],[20.01539,63.72668],[20.06129,63.73231],[20.0686,63.72184],[20.08734,63.72728],[20.10942,63.73703],[20.11067,63.7393],[20.10656,63.74478],[20.10801,63.7454],[20.10447,63.75492],[20.10057,63.75585],[20.09982,63.75734],[20.10012,63.763],[20.11174,63.7681],[20.10203,63.77125],[20.09754,63.77449],[20.09671,63.7765],[20.09659,63.77947],[20.10402,63.77992],[20.11026,63.78633],[20.11469,63.78614],[20.11635,63.78679],[20.12803,63.78564],[20.1343,63.78915],[20.14395,63.78982],[20.14999,63.79004],[20.15147,63.78958],[20.16143,63.79058],[20.16775,63.78929],[20.17091,63.78934],[20.17135,63.78907],[20.18251,63.78744],[20.18564,63.78981],[20.1873,63.7906],[20.18958,63.79131],[20.19106,63.79006],[20.19546,63.78887],[20.21357,63.78852],[20.21297,63.78709],[20.21916,63.787],[20.21938,63.7885],[20.22091,63.78848],[20.22471,63.79048],[20.22651,63.79208],[20.22704,63.793],[20.22581,63.79727],[20.23468,63.80079],[20.23822,63.80195],[20.24191,63.8026],[20.24655,63.80279],[20.25067,63.80251],[20.24921,63.80017],[20.25131,63.7993],[20.25549,63.79822],[20.25937,63.79783],[20.26325,63.79648],[20.26769,63.79567],[20.26894,63.79412],[20.2707,63.79287],[20.27308,63.7918],[20.27538,63.79112],[20.28143,63.78789],[20.28222,63.78636],[20.28436,63.78471]]]}},{"type":"Feature","id":"2480R037","properties":{"code":"2480R037","name":"Universitetet-sjukhusområdet-Nydalahöjden"},"geometry":{"type":"Polygon","coordinates":[[[20.33332,63.82794],[20.33375,63.82641],[20.33224,63.82637],[20.33106,63.82442],[20.33175,63.82409],[20.33057,63.82392],[20.3276,63.81752],[20.3265,63.81352],[20.31997,63.81421],[20.31478,63.81441],[20.30682,63.81381],[20.30268,63.81402],[20.30172,63.81361],[20.29864,63.81321],[20.29912,63.81266],[20.2979,63.81224],[20.29533,63.81217],[20.29444,63.8187],[20.2937,63.82017],[20.29184,63.82181],[20.29569,63.82275],[20.29679,63.82281],[20.30076,63.82241],[20.30253,63.8227],[20.30446,63.8233],[20.30729,63.82449],[20.31258,63.82836],[20.31427,63.82816],[20.3173,63.82831],[20.31871,63.82822],[20.32004,63.82789],[20.32092,63.82742],[20.3234,63.82787],[20.32662,63.82979],[20.32711,63.82984],[20.32873,63.82963],[20.33332,63.82794]]]}},{"type":"Feature","id":"2480R038","properties":{"code":"2480R038","name":"Väst på stan"},"geometry":{"type":"Polygon","coordinates":[[[20.26016,63.83103],[20.2541,63.82395],[20.24777,63.82509],[20.24209,63.82562],[20.23408,63.82731],[20.22944,63.8279],[20.22275,63.82737],[20.21529,63.8246],[20.21413,63.82634],[20.2134,63.82669],[20.21199,63.82688],[20.21265,63.82747],[20.21254,63.82812],[20.21295,63.82849],[20.21456,63.8287],[20.21565,63.8283],[20.21694,63.82823],[20.21743,63.82882],[20.21944,63.82839],[20.22008,63.82893],[20.22145,63.82922],[20.22331,63.82918],[20.22517,63.82959],[20.22543,63.83004],[20.22709,63.83044],[20.23076,63.83249],[20.23209,63.83266],[20.23267,63.83293],[20.23334,63.83374],[20.23439,63.83422],[20.23532,63.83432],[20.23447,63.83509],[20.2429,63.83566],[20.24681,63.83556],[20.24992,63.83504],[20.26107,63.83162],[20.26016,63.83103]]]}},{"type":"Feature","id":"2480R036","properties":{"code":"2480R036","name":"Umeå västra landsbygd"},"geometry":{"type":"Polygon","coordinates":[[[19.9706,64.01497],[19.9706,64.01336],[19.98583,64.01294],[19.98922,64.0044],[19.99863,63.99252],[20.03591,63.97418],[20.06114,63.95685],[20.06876,63.94122],[20.08306,63.92998],[20.08789,63.9171],[20.09142,63.91246],[20.08853,63.90787],[20.10268,63.90481],[20.1117,63.90163],[20.11891,63.90314],[20.1251,63.90517],[20.14128,63.90354],[20.14248,63.90255],[20.14289,63.90094],[20.14419,63.90012],[20.14191,63.8968],[20.14246,63.89623],[20.14168,63.89581],[20.14381,63.89174],[20.14315,63.89115],[20.15208,63.88638],[20.15154,63.88552],[20.15127,63.88135],[20.15127,63.88025],[20.15188,63.87866],[20.15184,63.87632],[20.15105,63.87419],[20.14834,63.87042],[20.14583,63.86767],[20.1445,63.86405],[20.14465,63.85848],[20.14508,63.85776],[20.14776,63.85537],[20.14633,63.85497],[20.14647,63.85463],[20.14493,63.85173],[20.14574,63.84955],[20.14589,63.84793],[20.14925,63.8477],[20.14703,63.84166],[20.14203,63.83333],[20.14205,63.83107],[20.14302,63.82945],[20.14392,63.82866],[20.14517,63.82776],[20.1472,63.82681],[20.14977,63.82595],[20.15706,63.82481],[20.16202,63.82354],[20.16516,63.8221],[20.17089,63.81893],[20.16903,63.81765],[20.16624,63.8171],[20.16366,63.81621],[20.16097,63.81457],[20.15954,63.8133],[20.15806,63.81088],[20.15793,63.80954],[20.15651,63.80781],[20.15577,63.80629],[20.15608,63.80449],[20.15772,63.80273],[20.15927,63.80182],[20.16116,63.80107],[20.16786,63.79959],[20.17106,63.79922],[20.17509,63.79926],[20.17978,63.79891],[20.18199,63.79899],[20.18741,63.79787],[20.19228,63.79574],[20.19304,63.7949],[20.19295,63.79399],[20.19213,63.79303],[20.19168,63.79172],[20.18857,63.79104],[20.1867,63.79035],[20.18515,63.78951],[20.18251,63.78744],[20.17135,63.78907],[20.17091,63.78934],[20.16775,63.78929],[20.16143,63.79058],[20.15147,63.78958],[20.14999,63.79004],[20.14395,63.78982],[20.1343,63.78915],[20.12803,63.78564],[20.11635,63.78679],[20.11469,63.78614],[20.11026,63.78633],[20.10402,63.77992],[20.09659,63.77947],[20.09671,63.7765],[20.09754,63.77449],[20.10203,63.77125],[20.11174,63.7681],[20.10012,63.763],[20.09982,63.75734],[20.10057,63.75585],[20.10447,63.75492],[20.10801,63.7454],[20.10656,63.74478],[20.11067,63.7393],[20.10942,63.73703],[20.08734,63.72728],[20.0686,63.72184],[20.06129,63.73231],[20.01539,63.72668],[20.01528,63.72704],[20.00932,63.72685],[19.96507,63.72936],[19.93296,63.74908],[19.89786,63.73321],[19.8653,63.73975],[19.81669,63.7896],[19.81881,63.82294],[19.83398,63.83184],[19.85454,63.84473],[19.86004,63.84527],[19.8777,63.85273],[19.91353,63.86137],[19.97021,63.8661],[19.98279,63.88737],[19.98231,63.88814],[19.97995,63.88816],[19.97491,63.88734],[19.97141,63.88732],[19.96872,63.88692],[19.96512,63.88602],[19.96343,63.88592],[19.96196,63.88607],[19.96062,63.88644],[19.9588,63.88733],[19.95725,63.88776],[19.95459,63.88909],[19.951,63.88948],[19.94807,63.88931],[19.94402,63.88847],[19.93576,63.88722],[19.93415,63.88644],[19.9334,63.88503],[19.93195,63.88407],[19.93098,63.88277],[19.93064,63.88257],[19.92874,63.88224],[19.92682,63.88238],[19.92461,63.883],[19.91979,63.88364],[19.90829,63.88571],[19.9044,63.88686],[19.89774,63.89009],[19.88348,63.89814],[19.87586,63.90502],[19.86527,63.91356],[19.86211,63.91568],[19.85779,63.9176],[19.86144,63.91938],[19.85924,63.92135],[19.86101,63.92156],[19.85911,63.92146],[19.85768,63.92271],[19.85701,63.92334],[19.85539,63.92618],[19.85533,63.92682],[19.8744,63.93128],[19.8793,63.9314],[19.88184,63.9318],[19.89975,63.93707],[19.92463,63.94605],[19.93368,63.9495],[19.93976,63.94644],[19.95769,63.94744],[19.96755,63.96061],[19.95526,63.96222],[19.9524,63.95609],[19.94431,63.95318],[19.92156,63.96596],[19.92887,63.96783],[19.92595,63.9746],[19.90855,63.97353],[19.9123,63.97761],[19.92297,64.0031],[19.92719,64.00325],[19.9362,64.01502],[19.94623,64.01166],[19.95377,64.01763],[19.9706,64.01497]]]}},{"type":"Feature","id":"2480R039","properties":{"code":"2480R039","name":"Västerslätt-Rödäng"},"geometry":{"type":"Polygon","coordinates":[[[20.20969,63.86223],[20.21514,63.86181],[20.21903,63.861],[20.22151,63.86003],[20.22674,63.85697],[20.23022,63.85643],[20.23312,63.85554],[20.23637,63.85366],[20.23743,63.85263],[20.23806,63.85141],[20.24034,63.84976],[20.24496,63.84823],[20.24829,63.84637],[20.25322,63.84637],[20.25832,63.84664],[20.25843,63.84348],[20.25789,63.84128],[20.27284,63.83825],[20.27068,63.83682],[20.26107,63.83162],[20.24992,63.83504],[20.24799,63.83541],[20.24396,63.8357],[20.23447,63.83509],[20.22303,63.83597],[20.21702,63.83703],[20.20923,63.839],[20.19072,63.84166],[20.18784,63.84177],[20.19023,63.84394],[20.19104,63.85106],[20.18882,63.85299],[20.18823,63.85488],[20.18873,63.85633],[20.19061,63.85859],[20.19348,63.86044],[20.19749,63.86166],[20.20381,63.8623],[20.20969,63.86223]]]}},{"type":"Feature","id":"2480R040","properties":{"code":"2480R040","name":"Ålidhem norra"},"geometry":{"type":"Polygon","coordinates":[[[20.31997,63.81421],[20.3265,63.81352],[20.32548,63.80948],[20.30711,63.80935],[20.3053,63.81272],[20.30608,63.81381],[20.31478,63.81441],[20.31997,63.81421]]]}},{"type":"Feature","id":"2480R041","properties":{"code":"2480R041","name":"Ålidhem södra"},"geometry":{"type":"Polygon","coordinates":[[[20.32548,63.80948],[20.32437,63.80779],[20.3222,63.80608],[20.31938,63.80495],[20.31121,63.80264],[20.31065,63.80304],[20.309,63.80329],[20.30938,63.8054],[20.30711,63.80935],[20.32548,63.80948]]]}},{"type":"Feature","id":"2480R042","properties":{"code":"2480R042","name":"Öst på stan"},"geometry":{"type":"Polygon","coordinates":[[[20.27302,63.82784],[20.28066,63.82679],[20.28335,63.82675],[20.28514,63.8265],[20.28795,63.82494],[20.293,63.82091],[20.29444,63.8187],[20.29533,63.81217],[20.29246,63.81183],[20.29118,63.81373],[20.28466,63.81663],[20.27702,63.81906],[20.26741,63.82133],[20.27302,63.82784]]]}}]}