{"type":"FeatureCollection","features":[{"type":"Feature","id":"2481R001","properties":{"code":"2481R001","name":"Forsdala-Nydala"},"geometry":{"type":"Polygon","coordinates":[[[18.66254,64.58549],[18.66657,64.58436],[18.67159,64.58194],[18.67757,64.58142],[18.67898,64.5818],[18.67953,64.58251],[18.68033,64.58292],[18.68203,64.58307],[18.68214,64.58422],[18.68547,64.58458],[18.68971,64.58384],[18.69033,64.58266],[18.69987,64.57626],[18.70106,64.57234],[18.71063,64.56809],[18.7116,64.56714],[18.70729,64.56737],[18.70341,64.56822],[18.70121,64.56674],[18.698,64.56561],[18.69204,64.56465],[18.68763,64.56442],[18.68258,64.56495],[18.68031,64.56551],[18.67813,64.56634],[18.67532,64.56634],[18.67211,64.56667],[18.66784,64.56779],[18.6637,64.56964],[18.66134,64.57142],[18.66047,64.57283],[18.66053,64.57454],[18.65904,64.57702],[18.66422,64.58017],[18.66436,64.58087],[18.66093,64.58367],[18.66073,64.58464],[18.66123,64.58502],[18.66266,64.5852],[18.66254,64.58549]]]}},{"type":"Feature","id":"2481R002","properties":{"code":"2481R002","name":"Jonsta-Villaryd-Furuvik"},"geometry":{"type":"Polygon","coordinates":[[[18.68482,64.59289],[18.68704,64.59043],[18.68906,64.58647],[18.69303,64.58671],[18.6973,64.58747],[18.69859,64.5878],[18.69914,64.58828],[18.70229,64.58826],[18.70598,64.58696],[18.70773,64.58738],[18.70423,64.58938],[18.70415,64.58972],[18.70463,64.59014],[18.70854,64.59097],[18.70971,64.58834],[18.71384,64.589],[18.71848,64.58843],[18.72639,64.586],[18.72981,64.58336],[18.73145,64.58244],[18.73336,64.58076],[18.73411,64.57935],[18.73406,64.57781],[18.73302,64.57605],[18.73043,64.57439],[18.73043,64.57268],[18.72949,64.57129],[18.72726,64.56979],[18.72389,64.56849],[18.71941,64.56759],[18.7116,64.56714],[18.71063,64.56809],[18.70106,64.57234],[18.69987,64.57626],[18.69033,64.58266],[18.68971,64.58384],[18.68547,64.58458],[18.68214,64.58422],[18.68203,64.58307],[18.68033,64.58292],[18.67953,64.58251],[18.67898,64.5818],[18.67757,64.58142],[18.67159,64.58194],[18.66657,64.58436],[18.66254,64.58549],[18.6628,64.586],[18.66497,64.58753],[18.66474,64.58775],[18.66602,64.58817],[18.66614,64.58845],[18.66679,64.5886],[18.66791,64.58934],[18.67298,64.59143],[18.67669,64.59223],[18.68169,64.59243],[18.68482,64.59289]]]}},{"type":"Feature","id":"2481R005","properties":{"code":"2481R005","name":"Lugnet-Lycksele centrum"},"geometry":{"type":"Polygon","coordinates":[[[18.64809,64.61873],[18.65259,64.61811],[18.65237,64.61782],[18.65491,64.61532],[18.65491,64.61363],[18.65889,64.60999],[18.6606,64.61004],[18.66372,64.60976],[18.66679,64.60914],[18.6725,64.60955],[18.68158,64.60564],[18.68405,64.60545],[18.68585,64.60406],[18.68597,64.60232],[18.68717,64.60009],[18.69004,64.59685],[18.68937,64.595],[18.68894,64.59481],[18.68379,64.59457],[18.68482,64.59289],[18.68169,64.59243],[18.67669,64.59223],[18.67298,64.59143],[18.67106,64.59055],[18.66775,64.5962],[18.66695,64.59622],[18.66553,64.59682],[18.66565,64.59716],[18.66706,64.59715],[18.667,64.59744],[18.66341,64.60273],[18.66172,64.60389],[18.65916,64.6048],[18.65715,64.60528],[18.65006,64.60662],[18.65033,64.60508],[18.64368,64.60306],[18.63911,64.60319],[18.63591,64.6056],[18.63521,64.6066],[18.63498,64.60796],[18.63124,64.61107],[18.63056,64.61281],[18.63096,64.61424],[18.63308,64.61619],[18.63475,64.617],[18.63745,64.61784],[18.64212,64.61862],[18.64809,64.61873]]]}},{"type":"Feature","id":"2481R003","properties":{"code":"2481R003","name":"Norrmalm-Norräng-Solsidan"},"geometry":{"type":"Polygon","coordinates":[[[18.65259,64.61811],[18.65678,64.61664],[18.66253,64.61298],[18.66531,64.6122],[18.67208,64.61231],[18.67485,64.61203],[18.67703,64.61161],[18.67898,64.61102],[18.68174,64.60981],[18.68339,64.60864],[18.68419,64.6076],[18.68524,64.60879],[18.68533,64.61091],[18.68673,64.61259],[18.68929,64.614],[18.69337,64.61516],[18.69823,64.61568],[18.70449,64.61543],[18.70797,64.61615],[18.71209,64.61641],[18.71699,64.61598],[18.72118,64.6148],[18.72583,64.61259],[18.72798,64.61078],[18.72853,64.60935],[18.72825,64.6077],[18.72711,64.60634],[18.72489,64.60481],[18.72686,64.60252],[18.72851,64.6014],[18.73108,64.60031],[18.73294,64.59909],[18.73426,64.59767],[18.73496,64.59611],[18.73459,64.59364],[18.73373,64.59251],[18.73227,64.59137],[18.73042,64.59042],[18.72824,64.58965],[18.72473,64.58864],[18.72145,64.58806],[18.72432,64.58708],[18.72639,64.586],[18.71848,64.58843],[18.71384,64.589],[18.70971,64.58834],[18.70854,64.59097],[18.70463,64.59014],[18.70415,64.58972],[18.70423,64.58938],[18.70773,64.58738],[18.70598,64.58696],[18.70229,64.58826],[18.69914,64.58828],[18.69859,64.5878],[18.6973,64.58747],[18.69303,64.58671],[18.68906,64.58647],[18.68704,64.59043],[18.68544,64.592],[18.68379,64.59457],[18.68894,64.59481],[18.68937,64.595],[18.69004,64.59685],[18.68717,64.60009],[18.68597,64.60232],[18.68585,64.60406],[18.68405,64.60545],[18.68158,64.60564],[18.6725,64.60955],[18.66679,64.60914],[18.66372,64.60976],[18.6606,64.61004],[18.65889,64.60999],[18.65491,64.61363],[18.65491,64.61532],[18.65237,64.61782],[18.65259,64.61811]]]}},{"type":"Feature","id":"2481R004","properties":{"code":"2481R004","name":"Lyckseleomland"},"geometry":{"type":"Polygon","coordinates":[[[18.47992,65.11963],[18.55635,65.08306],[18.5608,65.08504],[18.58865,65.08337],[18.59866,65.08018],[18.61187,65.07841],[18.61162,65.07806],[18.61396,65.07771],[18.61688,65.07443],[18.6165,65.07389],[18.60572,65.07045],[18.59859,65.06847],[18.59466,65.06772],[18.5966,65.06359],[18.64018,65.0424],[18.75689,64.98442],[18.80173,64.96952],[18.87751,64.94478],[19.05316,64.88797],[19.18016,64.84688],[19.31166,64.80468],[19.17874,64.65521],[19.13767,64.60971],[19.06391,64.52891],[18.97277,64.42757],[19.00342,64.33171],[19.0373,64.22227],[19.07729,64.22935],[19.11671,64.22037],[19.17625,64.18663],[19.16967,64.18436],[19.1645,64.18521],[19.12743,64.18082],[19.12968,64.17183],[19.13532,64.16792],[19.1302,64.16683],[19.16052,64.13281],[19.12143,64.12136],[19.11246,64.12072],[19.1026,64.12967],[19.06186,64.1409],[19.07148,64.10896],[19.02739,64.10149],[19.02726,64.09945],[19.02658,64.09818],[19.02529,64.09702],[19.02387,64.09666],[19.01966,64.09727],[19.01871,64.09726],[19.01775,64.097],[19.01736,64.09666],[19.00936,64.09527],[19.00785,64.09697],[19.00723,64.09705],[19.00756,64.09813],[18.90944,64.08118],[18.91065,64.08089],[18.91276,64.07974],[18.8987,64.074],[18.89935,64.07361],[18.89743,64.07287],[18.89675,64.07317],[18.89549,64.07287],[18.89475,64.07294],[18.89444,64.07398],[18.89303,64.07448],[18.89584,64.07547],[18.89066,64.07802],[18.81528,64.06505],[18.78882,64.06064],[18.65164,64.13698],[18.41204,64.23813],[18.33787,64.27576],[18.29117,64.29901],[18.28211,64.30297],[18.18394,64.34355],[18.26868,64.35833],[18.26592,64.35957],[18.26518,64.35956],[18.26286,64.36124],[18.26288,64.36211],[18.26343,64.36222],[18.26416,64.36368],[18.26347,64.36459],[18.2637,64.36492],[18.26269,64.36579],[18.26274,64.36709],[18.26148,64.36763],[18.26208,64.3681],[18.26108,64.36977],[18.26146,64.37054],[18.25995,64.37124],[18.25823,64.37122],[18.25657,64.37198],[18.25537,64.37541],[18.25554,64.37678],[18.2543,64.37785],[18.25348,64.37809],[18.25205,64.37949],[18.25238,64.3804],[18.25338,64.3811],[18.2532,64.38155],[18.25371,64.38257],[18.25333,64.38291],[18.25393,64.38353],[18.25399,64.38435],[18.25315,64.38459],[18.25331,64.38532],[18.25234,64.38565],[18.25157,64.38686],[18.25116,64.38763],[18.25143,64.38781],[18.25074,64.38883],[18.25117,64.38911],[18.25084,64.38937],[18.24983,64.38946],[18.2494,64.3897],[18.24856,64.39059],[18.24529,64.39116],[18.24302,64.39089],[18.24144,64.3904],[18.24011,64.3904],[18.23661,64.39053],[18.2354,64.39083],[18.2261,64.39103],[18.22071,64.39151],[18.21801,64.3909],[18.21646,64.39108],[18.21462,64.39067],[18.2124,64.39067],[18.21088,64.39091],[18.20795,64.39199],[18.20416,64.39299],[18.20424,64.39377],[18.20317,64.39452],[18.20252,64.39465],[18.20116,64.39402],[18.20046,64.39414],[18.19974,64.39489],[18.19978,64.39527],[18.19797,64.3965],[18.19815,64.39682],[18.19767,64.39723],[18.19689,64.39737],[18.19601,64.39825],[18.05126,64.38367],[18.03783,64.38875],[18.02547,64.38091],[17.96936,64.4041],[17.96956,64.41472],[17.7885,64.48321],[17.84275,64.503],[17.8037,64.52229],[17.7405,64.49907],[17.71843,64.49986],[17.72366,64.50777],[17.71957,64.50932],[17.69957,64.52818],[17.69489,64.53304],[17.69065,64.53648],[17.62035,64.6021],[17.68154,64.62464],[17.6543,64.63779],[17.65385,64.66778],[17.58793,64.67919],[17.56837,64.6721],[17.54829,64.66923],[17.50482,64.7094],[17.76159,64.82278],[17.74272,64.83598],[17.91281,64.91895],[17.90768,64.94695],[17.90869,64.94732],[17.9076,64.94738],[17.90748,64.94815],[17.90814,64.9483],[17.90745,64.94848],[17.89894,64.99446],[17.95196,65.04388],[17.9825,65.03608],[18.04807,65.04982],[18.03536,65.05556],[18.03554,65.05574],[18.03477,65.05621],[18.03453,65.05595],[18.01609,65.06429],[18.01628,65.06455],[18.01559,65.06495],[18.01428,65.06458],[17.97434,65.06475],[18.09894,65.17996],[18.16806,65.24295],[18.30347,65.2027],[18.3658,65.1739],[18.42836,65.1445],[18.47992,65.11963]],[[18.65521,64.57754],[18.65877,64.57759],[18.66053,64.57454],[18.66039,64.57317],[18.66107,64.57174],[18.66269,64.57029],[18.66473,64.56911],[18.6685,64.56755],[18.6706,64.56696],[18.67453,64.56639],[18.67813,64.56634],[18.68117,64.56527],[18.68505,64.56458],[18.69024,64.56448],[18.69583,64.56515],[18.69867,64.56579],[18.70062,64.56647],[18.70341,64.56822],[18.70653,64.56748],[18.70963,64.56716],[18.71208,64.56715],[18.71941,64.56759],[18.72389,64.56849],[18.72781,64.57007],[18.73007,64.57199],[18.73053,64.57305],[18.73043,64.57439],[18.73227,64.57542],[18.7336,64.57675],[18.73411,64.57815],[18.734,64.57972],[18.73336,64.58076],[18.73187,64.58211],[18.72981,64.58336],[18.72678,64.58574],[18.72432,64.58708],[18.72145,64.58806],[18.72473,64.58864],[18.72824,64.58965],[18.73042,64.59042],[18.73227,64.59137],[18.73373,64.59251],[18.73459,64.59364],[18.73496,64.59611],[18.73426,64.59767],[18.73294,64.59909],[18.73108,64.60031],[18.72851,64.6014],[18.72686,64.60252],[18.72489,64.60481],[18.72711,64.60634],[18.72825,64.6077],[18.72853,64.60935],[18.72773,64.61111],[18.72536,64.61287],[18.71987,64.61528],[18.71542,64.61621],[18.71123,64.61641],[18.70791,64.61615],[18.70449,64.61543],[18.69823,64.61568],[18.69574,64.61552],[18.69266,64.61501],[18.68873,64.61376],[18.68634,64.61226],[18.6852,64.61054],[18.68524,64.60879],[18.68419,64.6076],[18.68222,64.60953],[18.67836,64.61124],[18.67559,64.61191],[18.67312,64.61224],[18.67018,64.61236],[18.66531,64.6122],[18.66253,64.61298],[18.65571,64.61714],[18.65139,64.61835],[18.64707,64.61877],[18.64128,64.61854],[18.63675,64.61766],[18.63308,64.61619],[18.63181,64.61526],[18.63079,64.61391],[18.63083,64.61173],[18.63189,64.61039],[18.63498,64.60796],[18.63521,64.6066],[18.63591,64.6056],[18.63967,64.60268],[18.6411,64.60006],[18.64232,64.59877],[18.6409,64.59724],[18.64048,64.59602],[18.64054,64.59335],[18.64221,64.59087],[18.64137,64.58907],[18.64132,64.58703],[18.64001,64.58509],[18.6404,64.58281],[18.64218,64.58108],[18.64516,64.57968],[18.64989,64.57822],[18.65521,64.57754]]]}},{"type":"Feature","id":"2481R006","properties":{"code":"2481R006","name":"Södermalm"},"geometry":{"type":"Polygon","coordinates":[[[18.65006,64.60662],[18.65916,64.6048],[18.66172,64.60389],[18.66341,64.60273],[18.667,64.59744],[18.66706,64.59715],[18.66565,64.59716],[18.66553,64.59682],[18.66695,64.59622],[18.66775,64.5962],[18.67106,64.59055],[18.66791,64.58934],[18.66679,64.5886],[18.66614,64.58845],[18.66602,64.58817],[18.66474,64.58775],[18.66497,64.58753],[18.6626,64.58582],[18.66266,64.5852],[18.66123,64.58502],[18.66084,64.58482],[18.66093,64.58367],[18.66436,64.58087],[18.66422,64.58017],[18.65904,64.57702],[18.65877,64.57759],[18.65436,64.57759],[18.65061,64.57807],[18.64516,64.57968],[18.64177,64.58137],[18.64069,64.58239],[18.64005,64.58362],[18.64003,64.58518],[18.64132,64.58703],[18.64137,64.58907],[18.64221,64.59087],[18.64054,64.59335],[18.64048,64.59602],[18.6409,64.59724],[18.64232,64.59877],[18.64133,64.59973],[18.63911,64.60319],[18.64368,64.60306],[18.65033,64.60508],[18.65006,64.60662]]]}}]}