{"type":"FeatureCollection","features":[{"type":"Feature","id":"2482R018","properties":{"code":"2482R018","name":"Morön"},"geometry":{"type":"Polygon","coordinates":[[[21.01134,64.75139],[21.03527,64.74764],[21.03672,64.7499],[21.04644,64.74885],[21.04737,64.75011],[21.0482,64.75038],[21.07422,64.74709],[21.07535,64.74677],[21.05673,64.73538],[21.05324,64.73241],[21.05147,64.73213],[21.0503,64.73117],[21.04524,64.7322],[21.04,64.73381],[21.0309,64.73714],[21.0246,64.73917],[21.01635,64.74139],[21.00512,64.74649],[21.0033,64.74707],[21.00118,64.74758],[20.99478,64.74799],[20.9912,64.74789],[20.98329,64.74707],[20.97632,64.74757],[20.9736,64.74753],[20.97248,64.75092],[20.97286,64.75096],[20.97337,64.75197],[20.98128,64.75141],[20.98132,64.75167],[20.99086,64.74976],[20.99233,64.75039],[20.99189,64.75079],[20.99197,64.75141],[20.99323,64.75138],[20.99367,64.75234],[20.99677,64.75471],[21.01134,64.75139]]]}},{"type":"Feature","id":"2482R001","properties":{"code":"2482R001","name":"Anderstorp"},"geometry":{"type":"Polygon","coordinates":[[[20.99708,64.74795],[21.00118,64.74758],[21.00512,64.74649],[21.01635,64.74139],[21.0246,64.73917],[21.03044,64.73727],[21.02448,64.73161],[21.0209,64.73211],[21.01556,64.73339],[21.01245,64.73358],[21.01016,64.73395],[21.00354,64.7359],[21.00005,64.73401],[20.99721,64.73288],[20.99506,64.73227],[20.99248,64.73183],[20.99095,64.73063],[20.99231,64.72888],[20.99272,64.72777],[20.992,64.72527],[20.99103,64.72431],[20.98911,64.72319],[20.98716,64.72247],[20.98441,64.72184],[20.98027,64.72752],[20.97858,64.72881],[20.97008,64.73371],[20.96681,64.73627],[20.96339,64.74061],[20.95997,64.74412],[20.95964,64.74554],[20.95988,64.74717],[20.96334,64.74667],[20.96547,64.74667],[20.97058,64.74729],[20.97487,64.7476],[20.98329,64.74707],[20.9924,64.74796],[20.99708,64.74795]]]}},{"type":"Feature","id":"2482R002","properties":{"code":"2482R002","name":"Bergsbyn"},"geometry":{"type":"Polygon","coordinates":[[[21.07537,64.74677],[21.07912,64.74564],[21.08142,64.74461],[21.08307,64.74335],[21.08391,64.74195],[21.08391,64.74053],[21.08305,64.73913],[21.08078,64.73704],[21.07788,64.73567],[21.08163,64.73541],[21.08646,64.73445],[21.08949,64.73318],[21.09135,64.73165],[21.09431,64.73116],[21.10025,64.7296],[21.10332,64.72828],[21.10703,64.72704],[21.1102,64.72671],[21.11246,64.72623],[21.11447,64.72557],[21.11638,64.72463],[21.12097,64.72603],[21.12434,64.72663],[21.12853,64.72682],[21.13251,64.72649],[21.12819,64.72335],[21.12542,64.72307],[21.1208,64.71944],[21.11921,64.7175],[21.11933,64.70878],[21.12612,64.70994],[21.13483,64.71038],[21.136,64.71024],[21.13677,64.71027],[21.13673,64.7104],[21.14165,64.71029],[21.14821,64.70919],[21.15839,64.70484],[21.15665,64.7046],[21.15342,64.70471],[21.14969,64.70527],[21.14736,64.7059],[21.14399,64.70463],[21.13804,64.70352],[21.13738,64.70134],[21.13558,64.6996],[21.1316,64.69741],[21.12753,64.69618],[21.1252,64.69584],[21.12199,64.69569],[21.11878,64.69589],[21.11647,64.69627],[21.11261,64.69753],[21.11116,64.69838],[21.10994,64.69952],[21.10713,64.70013],[21.1034,64.70145],[21.10005,64.70213],[21.09757,64.70305],[21.09433,64.70353],[21.09141,64.70434],[21.08764,64.70496],[21.08545,64.70554],[21.08231,64.70702],[21.07838,64.70797],[21.07534,64.70935],[21.07328,64.71141],[21.07309,64.71344],[21.06954,64.71367],[21.06579,64.7144],[21.06331,64.71531],[21.06155,64.7164],[21.05717,64.71748],[21.05471,64.71839],[21.05285,64.71954],[21.05163,64.72087],[21.04829,64.72189],[21.04464,64.72372],[21.04307,64.72539],[21.04278,64.72723],[21.03587,64.72883],[21.02834,64.73156],[21.02448,64.73161],[21.03044,64.73727],[21.04128,64.7334],[21.04599,64.732],[21.0503,64.73117],[21.05147,64.73213],[21.05324,64.73241],[21.05673,64.73538],[21.07537,64.74677]]]}},{"type":"Feature","id":"2482R003","properties":{"code":"2482R003","name":"Boliden tätort"},"geometry":{"type":"Polygon","coordinates":[[[20.38883,64.87746],[20.39208,64.87714],[20.39693,64.87606],[20.40239,64.87528],[20.40514,64.87447],[20.40689,64.87366],[20.40854,64.87242],[20.40943,64.87103],[20.40947,64.86961],[20.40865,64.86782],[20.40928,64.86577],[20.40701,64.86089],[20.40496,64.8594],[20.40148,64.85815],[20.39986,64.8555],[20.39763,64.8535],[20.39531,64.85245],[20.39244,64.85167],[20.38926,64.85124],[20.38587,64.85115],[20.37843,64.85195],[20.37467,64.85271],[20.37259,64.85333],[20.36986,64.85469],[20.36817,64.85654],[20.3654,64.85859],[20.36218,64.85861],[20.35961,64.85887],[20.35462,64.85982],[20.35245,64.86046],[20.35029,64.86142],[20.34849,64.86267],[20.34747,64.86406],[20.34725,64.86528],[20.34837,64.86751],[20.35103,64.86945],[20.35518,64.87082],[20.35764,64.87123],[20.36056,64.87147],[20.36228,64.87305],[20.36573,64.87453],[20.3732,64.87614],[20.37581,64.87688],[20.37818,64.87728],[20.38148,64.87749],[20.38883,64.87746]]]}},{"type":"Feature","id":"2482R004","properties":{"code":"2482R004","name":"Bureå omland"},"geometry":{"type":"Polygon","coordinates":[[[21.84816,64.79377],[21.93987,64.66912],[21.94926,64.65825],[21.95417,64.65162],[21.95976,64.64283],[22.02438,64.55967],[21.58994,64.50456],[21.52728,64.49679],[21.5099,64.50032],[21.49737,64.50761],[21.47943,64.51383],[21.46736,64.51385],[21.46038,64.51614],[21.45868,64.5217],[21.45567,64.52424],[21.43647,64.52171],[21.41509,64.51687],[21.41025,64.51747],[21.40781,64.51714],[21.36242,64.51784],[21.35999,64.52057],[21.35758,64.52217],[21.31206,64.52036],[21.31233,64.51587],[21.31062,64.51578],[21.28157,64.51004],[21.28018,64.51056],[21.27832,64.51067],[21.27663,64.51172],[21.27187,64.5121],[21.26937,64.51179],[21.26759,64.51208],[21.26593,64.51088],[21.26717,64.51011],[21.26602,64.50959],[21.26421,64.50989],[21.26434,64.50919],[21.26504,64.5084],[21.26641,64.50754],[21.26586,64.50696],[21.26063,64.50601],[21.23582,64.50633],[21.18879,64.51442],[21.20182,64.51936],[21.16749,64.54016],[21.13183,64.53543],[21.13609,64.52329],[21.08565,64.53115],[21.04952,64.53446],[21.01284,64.53819],[20.97179,64.54458],[20.95357,64.5449],[20.89932,64.55134],[20.86852,64.57192],[20.85589,64.58076],[20.8308,64.58383],[20.82262,64.58648],[20.81695,64.58576],[20.80966,64.58844],[20.81023,64.59074],[20.79076,64.59751],[20.74221,64.6138],[20.74832,64.63694],[20.83687,64.65166],[20.85999,64.64718],[20.871,64.66089],[20.85332,64.67139],[20.83615,64.67572],[20.8078,64.69514],[20.78314,64.71347],[20.78378,64.71481],[20.77939,64.71514],[20.78192,64.72037],[20.78625,64.71994],[20.7907,64.72959],[20.78816,64.72981],[20.79156,64.73792],[20.7957,64.73877],[20.79983,64.74043],[20.80199,64.74169],[20.80342,64.74339],[20.80364,64.74485],[20.80317,64.74611],[20.80151,64.74799],[20.79831,64.74964],[20.7983,64.75113],[20.79765,64.75234],[20.80041,64.75117],[20.80464,64.75002],[20.80703,64.74955],[20.81035,64.74925],[20.81289,64.74799],[20.81836,64.74614],[20.82123,64.74554],[20.82415,64.74527],[20.82699,64.74435],[20.83043,64.74362],[20.83437,64.74333],[20.83847,64.74354],[20.84458,64.7443],[20.84856,64.74552],[20.85045,64.74548],[20.85198,64.7441],[20.85365,64.74313],[20.85611,64.74223],[20.85902,64.74162],[20.86223,64.74134],[20.86605,64.74146],[20.8695,64.7407],[20.8771,64.74],[20.88127,64.74014],[20.88458,64.7407],[20.88491,64.73924],[20.88648,64.73759],[20.88918,64.73622],[20.89201,64.73542],[20.89897,64.73421],[20.903,64.73329],[20.9078,64.73289],[20.91063,64.73196],[20.91455,64.73133],[20.91769,64.73117],[20.92099,64.73133],[20.92338,64.73169],[20.92612,64.73241],[20.9279,64.73134],[20.93347,64.72911],[20.93651,64.72821],[20.94082,64.7273],[20.94316,64.72617],[20.94593,64.72538],[20.95878,64.72361],[20.96216,64.7235],[20.96517,64.72371],[20.96765,64.72346],[20.97086,64.72215],[20.97543,64.72133],[20.9787,64.72122],[20.98265,64.72157],[20.98649,64.72228],[20.98964,64.72345],[20.99173,64.72494],[20.9927,64.72699],[20.99249,64.72855],[20.99095,64.73063],[20.99248,64.73183],[20.99506,64.73227],[20.99721,64.73288],[21.00005,64.73401],[21.00354,64.7359],[21.01089,64.73381],[21.01556,64.73339],[21.0209,64.73211],[21.02326,64.73173],[21.02834,64.73156],[21.03587,64.72883],[21.04278,64.72723],[21.04307,64.72539],[21.04464,64.72372],[21.04829,64.72189],[21.05163,64.72087],[21.05326,64.71923],[21.05526,64.71814],[21.05895,64.71697],[21.06155,64.7164],[21.06387,64.71507],[21.06647,64.71422],[21.06954,64.71367],[21.07309,64.71344],[21.07302,64.71208],[21.07378,64.71066],[21.0749,64.70964],[21.07701,64.70849],[21.07904,64.70778],[21.08231,64.70702],[21.08419,64.706],[21.0862,64.70531],[21.09141,64.70434],[21.09433,64.70353],[21.09757,64.70305],[21.10005,64.70213],[21.1034,64.70145],[21.10713,64.70013],[21.10994,64.69952],[21.11116,64.69838],[21.11261,64.69753],[21.1165,64.69626],[21.11956,64.6958],[21.12359,64.69572],[21.12679,64.69605],[21.12975,64.69672],[21.13213,64.69766],[21.13611,64.69998],[21.13738,64.70134],[21.13804,64.70352],[21.14399,64.70463],[21.14736,64.7059],[21.14963,64.70528],[21.15258,64.7048],[21.155,64.70461],[21.15766,64.70464],[21.15914,64.70361],[21.16103,64.70278],[21.16048,64.70138],[21.16079,64.69993],[21.16243,64.69815],[21.16317,64.69657],[21.16472,64.69478],[21.15363,64.67947],[21.15097,64.67817],[21.14917,64.67658],[21.14866,64.67488],[21.14941,64.67321],[21.17335,64.66828],[21.19381,64.66182],[21.19441,64.66208],[21.19851,64.66158],[21.20253,64.6616],[21.2063,64.66216],[21.20982,64.66323],[21.21468,64.66566],[21.21624,64.66685],[21.21713,64.66828],[21.21898,64.66986],[21.21966,64.67164],[21.21937,64.67469],[21.21838,64.67598],[21.21701,64.67696],[21.22059,64.6769],[21.22374,64.67713],[21.22732,64.67786],[21.22998,64.67866],[21.27259,64.65685],[21.29395,64.6636],[21.27104,64.67833],[21.27486,64.68084],[21.27613,64.68218],[21.27647,64.68429],[21.2753,64.68603],[21.27237,64.68775],[21.27116,64.68905],[21.26829,64.69091],[21.26538,64.69354],[21.26309,64.69457],[21.25938,64.69549],[21.25801,64.69601],[21.25581,64.69717],[21.25409,64.69854],[21.25237,64.69938],[21.24851,64.70049],[21.24421,64.701],[21.24,64.70092],[21.2355,64.70016],[21.23138,64.70069],[21.22793,64.70225],[21.22575,64.70279],[21.22258,64.70322],[21.21834,64.70325],[21.2122,64.70256],[21.20959,64.704],[21.20807,64.70559],[21.20657,64.70651],[21.20381,64.70761],[21.20133,64.70822],[21.20007,64.71024],[21.19741,64.71183],[21.197,64.71302],[21.19577,64.71434],[21.19378,64.7155],[21.18995,64.71705],[21.18955,64.71886],[21.18786,64.72052],[21.18508,64.72185],[21.1799,64.72334],[21.17667,64.72378],[21.17257,64.72398],[21.16936,64.72378],[21.16709,64.72341],[21.16402,64.7242],[21.16164,64.72456],[21.15914,64.72472],[21.15649,64.72466],[21.15121,64.72561],[21.14874,64.72584],[21.14569,64.72583],[21.14246,64.72648],[21.13918,64.72673],[21.13666,64.72668],[21.13352,64.72632],[21.12956,64.72679],[21.12512,64.72671],[21.12097,64.72603],[21.11638,64.72463],[21.11447,64.72557],[21.11246,64.72623],[21.1102,64.72671],[21.10703,64.72704],[21.10332,64.72828],[21.10025,64.7296],[21.09431,64.73116],[21.09135,64.73165],[21.08949,64.73318],[21.08646,64.73445],[21.08163,64.73541],[21.07788,64.73567],[21.08078,64.73704],[21.08305,64.73913],[21.08391,64.74053],[21.08391,64.74195],[21.08307,64.74335],[21.08142,64.74461],[21.07912,64.74564],[21.07535,64.74677],[21.11689,64.77226],[21.14931,64.76696],[21.16479,64.77654],[21.17477,64.79797],[21.27934,64.80309],[21.84816,64.79377]],[[21.18502,64.63394],[21.18096,64.63315],[21.17756,64.63182],[21.17551,64.63024],[21.17466,64.62817],[21.1708,64.62819],[21.16692,64.62768],[21.16296,64.62637],[21.16003,64.62609],[21.15696,64.62545],[21.15322,64.6239],[21.15122,64.62213],[21.15071,64.61991],[21.15121,64.61881],[21.15248,64.61753],[21.15298,64.6159],[21.15468,64.61436],[21.1575,64.61308],[21.161,64.61227],[21.17155,64.61165],[21.17337,64.60998],[21.17736,64.60808],[21.17628,64.60609],[21.17637,64.60465],[21.17732,64.60326],[21.17915,64.60193],[21.17918,64.60025],[21.18009,64.5989],[21.18283,64.59719],[21.18696,64.59602],[21.19006,64.59565],[21.19249,64.5956],[21.19675,64.596],[21.20073,64.59582],[21.20508,64.5962],[21.20769,64.59675],[21.21043,64.59761],[21.21277,64.5988],[21.21422,64.6001],[21.21655,64.60051],[21.22163,64.60004],[21.22459,64.59942],[21.22793,64.59912],[21.23234,64.59927],[21.23621,64.59996],[21.23831,64.60063],[21.24052,64.60174],[21.2423,64.6032],[21.24302,64.60424],[21.24326,64.60531],[21.24285,64.60672],[21.242,64.60774],[21.24055,64.60876],[21.24558,64.61075],[21.2478,64.61235],[21.25093,64.61295],[21.25395,64.61406],[21.25752,64.61673],[21.25852,64.61803],[21.25875,64.61943],[21.25784,64.62127],[21.25626,64.6225],[21.25099,64.62519],[21.24991,64.62758],[21.24841,64.62892],[21.24622,64.63007],[21.24363,64.63086],[21.24066,64.63136],[21.2371,64.63161],[21.23296,64.63141],[21.22393,64.6298],[21.22027,64.62939],[21.21559,64.62987],[21.21096,64.62965],[21.20956,64.63092],[21.20754,64.63205],[21.20498,64.63295],[21.20267,64.63344],[21.19386,64.63429],[21.18502,64.63394]]]}},{"type":"Feature","id":"2482R005","properties":{"code":"2482R005","name":"Bureå tätort"},"geometry":{"type":"Polygon","coordinates":[[[21.19386,64.63429],[21.20267,64.63344],[21.20628,64.63255],[21.20907,64.63123],[21.21096,64.62965],[21.21559,64.62987],[21.22027,64.62939],[21.22393,64.6298],[21.23213,64.6313],[21.23544,64.6316],[21.24066,64.63136],[21.24432,64.63069],[21.24679,64.62983],[21.24841,64.62892],[21.24991,64.62758],[21.25099,64.62519],[21.25397,64.62379],[21.25716,64.62189],[21.2585,64.62029],[21.25874,64.61875],[21.25784,64.61704],[21.25444,64.61433],[21.2516,64.61314],[21.2478,64.61235],[21.24558,64.61075],[21.24055,64.60876],[21.242,64.60774],[21.24285,64.60672],[21.24314,64.60457],[21.24258,64.60352],[21.24107,64.60212],[21.2377,64.60041],[21.23311,64.59936],[21.22872,64.5991],[21.22535,64.59932],[21.22163,64.60004],[21.21655,64.60051],[21.21422,64.6001],[21.21318,64.59909],[21.21116,64.59792],[21.20919,64.59718],[21.20606,64.59638],[21.20175,64.59585],[21.19675,64.596],[21.19408,64.59567],[21.19086,64.59561],[21.1877,64.59589],[21.18474,64.59653],[21.18226,64.59745],[21.18043,64.59859],[21.17918,64.60025],[21.17915,64.60193],[21.17732,64.60326],[21.17637,64.60465],[21.17628,64.60609],[21.17736,64.60808],[21.17337,64.60998],[21.17155,64.61165],[21.161,64.61227],[21.1575,64.61308],[21.15468,64.61436],[21.15322,64.61557],[21.15248,64.61753],[21.15101,64.61914],[21.15072,64.62103],[21.15147,64.62246],[21.15265,64.62352],[21.15421,64.62444],[21.15678,64.6254],[21.16003,64.62609],[21.16296,64.62637],[21.1655,64.62733],[21.16844,64.62795],[21.1716,64.62823],[21.17466,64.62817],[21.17499,64.62949],[21.17626,64.63096],[21.17821,64.63215],[21.18096,64.63315],[21.18404,64.63381],[21.18738,64.63411],[21.19386,64.63429]]]}},{"type":"Feature","id":"2482R006","properties":{"code":"2482R006","name":"Burträsk omland"},"geometry":{"type":"Polygon","coordinates":[[[20.17341,64.84033],[20.21727,64.83254],[20.21837,64.83372],[20.22131,64.83302],[20.22263,64.83242],[20.22458,64.83052],[20.22483,64.82862],[20.22462,64.82828],[20.22323,64.82783],[20.22319,64.82755],[20.2258,64.82563],[20.22993,64.823],[20.23125,64.82247],[20.23364,64.82205],[20.23746,64.82035],[20.24354,64.81832],[20.24687,64.81748],[20.24735,64.81465],[20.24804,64.81447],[20.24929,64.81466],[20.25021,64.81521],[20.25153,64.81536],[20.25435,64.81477],[20.26187,64.8126],[20.26544,64.81189],[20.26963,64.81156],[20.27242,64.81058],[20.27349,64.81053],[20.2766,64.81084],[20.27958,64.81076],[20.28938,64.80857],[20.29327,64.8066],[20.29643,64.80562],[20.30504,64.80485],[20.31046,64.80484],[20.31179,64.80431],[20.31233,64.80327],[20.31191,64.80256],[20.30865,64.80085],[20.30883,64.80014],[20.31369,64.79859],[20.3175,64.79699],[20.32163,64.79587],[20.3257,64.79449],[20.3282,64.79313],[20.3301,64.79253],[20.3315,64.79269],[20.33428,64.79186],[20.33738,64.79173],[20.33936,64.79204],[20.34027,64.79246],[20.34221,64.79286],[20.34405,64.7928],[20.34721,64.79173],[20.35042,64.79098],[20.35323,64.78946],[20.35651,64.78804],[20.35841,64.78682],[20.36259,64.78557],[20.36692,64.78489],[20.36912,64.7841],[20.37058,64.78299],[20.37156,64.78259],[20.37816,64.78203],[20.38103,64.7824],[20.3846,64.78362],[20.38818,64.78312],[20.39169,64.78313],[20.39398,64.78285],[20.39872,64.78178],[20.40232,64.78153],[20.4032,64.78122],[20.40778,64.78102],[20.40996,64.78021],[20.41081,64.77947],[20.41189,64.779],[20.4132,64.77869],[20.41866,64.77801],[20.4199,64.77762],[20.42656,64.77671],[20.42963,64.77646],[20.43098,64.77603],[20.43213,64.77596],[20.43524,64.77653],[20.43998,64.77601],[20.44133,64.7756],[20.44558,64.77365],[20.45107,64.77045],[20.45384,64.76951],[20.4584,64.76652],[20.46099,64.76601],[20.46341,64.76453],[20.47371,64.76073],[20.47947,64.75732],[20.47493,64.75622],[20.47496,64.75546],[20.48364,64.75486],[20.48598,64.75503],[20.48808,64.75494],[20.4913,64.7558],[20.49334,64.75703],[20.49557,64.75789],[20.50343,64.7585],[20.5098,64.75862],[20.51469,64.75793],[20.518,64.75727],[20.52625,64.75623],[20.52758,64.75564],[20.52782,64.75438],[20.5284,64.75394],[20.52967,64.75351],[20.53277,64.75291],[20.55179,64.75095],[20.55517,64.75086],[20.55878,64.75012],[20.5608,64.74989],[20.56303,64.74987],[20.57185,64.74849],[20.57677,64.74713],[20.57762,64.7459],[20.58225,64.7442],[20.5887,64.74241],[20.59254,64.74212],[20.59554,64.7416],[20.60093,64.74005],[20.6034,64.7397],[20.6065,64.73962],[20.61361,64.73985],[20.61632,64.74096],[20.61768,64.74109],[20.619,64.74106],[20.62103,64.74065],[20.62551,64.74035],[20.62986,64.74138],[20.63067,64.74139],[20.6359,64.74011],[20.64444,64.73927],[20.64709,64.73858],[20.65421,64.73819],[20.66114,64.73558],[20.66329,64.73355],[20.66657,64.73201],[20.66917,64.73119],[20.67393,64.73009],[20.67476,64.72974],[20.67537,64.72799],[20.6787,64.72565],[20.67978,64.72543],[20.68559,64.72583],[20.68891,64.72581],[20.69077,64.72611],[20.69292,64.72904],[20.69475,64.72923],[20.69368,64.72749],[20.69385,64.726],[20.6935,64.72448],[20.69383,64.72341],[20.69496,64.7221],[20.69747,64.72019],[20.70024,64.71896],[20.70377,64.71817],[20.70936,64.71759],[20.71492,64.71763],[20.72483,64.71894],[20.7278,64.71985],[20.72998,64.72098],[20.73144,64.7223],[20.73237,64.72389],[20.73517,64.72422],[20.73755,64.72472],[20.74125,64.72615],[20.74451,64.72595],[20.74791,64.72612],[20.75093,64.72662],[20.75406,64.7275],[20.75683,64.72884],[20.75841,64.73035],[20.76048,64.73142],[20.76192,64.73273],[20.76253,64.73486],[20.76126,64.73694],[20.76574,64.73657],[20.76977,64.73682],[20.77343,64.73761],[20.77668,64.73901],[20.77993,64.73831],[20.78558,64.73775],[20.78845,64.7377],[20.79156,64.73792],[20.78816,64.72981],[20.7907,64.72959],[20.78625,64.71994],[20.78192,64.72037],[20.77939,64.71514],[20.78378,64.71481],[20.78314,64.71347],[20.8078,64.69514],[20.83615,64.67572],[20.85332,64.67139],[20.871,64.66089],[20.85999,64.64718],[20.83687,64.65166],[20.74832,64.63694],[20.74225,64.61376],[20.79076,64.59751],[20.81023,64.59074],[20.80966,64.58844],[20.81695,64.58576],[20.82262,64.58648],[20.8308,64.58383],[20.85589,64.58076],[20.86852,64.57192],[20.89932,64.55134],[20.95357,64.5449],[20.97179,64.54458],[21.01284,64.53819],[21.02405,64.51473],[21.01617,64.51224],[21.00469,64.5157],[20.99255,64.51232],[20.997,64.5062],[20.97636,64.49932],[20.97655,64.49922],[20.94783,64.48994],[20.93224,64.4794],[20.92634,64.46419],[20.88162,64.43965],[20.85353,64.43856],[20.82497,64.42389],[20.79375,64.42939],[20.78915,64.41589],[20.77569,64.41455],[20.74991,64.41949],[20.74798,64.39173],[20.71228,64.39024],[20.67894,64.36132],[20.70398,64.34829],[20.67539,64.3402],[20.66668,64.34458],[20.65549,64.34104],[20.62057,64.33188],[20.60994,64.33536],[20.60556,64.33311],[20.60735,64.3324],[20.60795,64.33153],[20.6138,64.33151],[20.6151,64.33037],[20.60463,64.32753],[20.60085,64.33023],[20.59756,64.32839],[20.60036,64.32636],[20.57029,64.3181],[20.59967,64.30068],[20.59336,64.29882],[20.58386,64.30556],[20.57434,64.31177],[20.53528,64.3162],[20.53676,64.31843],[20.49015,64.32214],[20.48861,64.31854],[20.52858,64.29933],[20.52558,64.29861],[20.52501,64.29862],[20.52419,64.29928],[20.52218,64.30017],[20.52225,64.30034],[20.52124,64.30033],[20.51959,64.30098],[20.51712,64.30108],[20.5154,64.30167],[20.51601,64.30177],[20.5169,64.30136],[20.51724,64.30142],[20.51683,64.30196],[20.51543,64.30261],[20.51475,64.30401],[20.51341,64.30463],[20.51333,64.30489],[20.51394,64.305],[20.51378,64.30515],[20.51044,64.30626],[20.50959,64.3068],[20.50955,64.30732],[20.5072,64.3086],[20.50661,64.30875],[20.50569,64.30864],[20.50414,64.30915],[20.50406,64.30961],[20.50305,64.31005],[20.50201,64.31036],[20.50142,64.31022],[20.50047,64.31038],[20.50008,64.30988],[20.49847,64.30959],[20.49797,64.3099],[20.49546,64.31061],[20.49502,64.31061],[20.49478,64.31039],[20.49402,64.31045],[20.49361,64.31082],[20.49365,64.31146],[20.49141,64.31225],[20.49207,64.31316],[20.49157,64.31353],[20.4923,64.31366],[20.4928,64.31421],[20.49153,64.31493],[20.4912,64.31486],[20.49008,64.31521],[20.48949,64.31683],[20.48787,64.31869],[20.46665,64.31224],[20.43771,64.31408],[20.432,64.32125],[20.35697,64.32551],[20.30751,64.3281],[20.30896,64.31793],[20.24621,64.33711],[20.23019,64.34119],[20.2093,64.35406],[20.20087,64.36412],[20.1887,64.3686],[20.19262,64.37183],[20.10878,64.39413],[20.10598,64.39202],[20.0893,64.40181],[20.08392,64.4071],[20.07037,64.41405],[20.08284,64.41478],[20.082,64.42139],[20.0731,64.42265],[20.06982,64.43986],[20.03996,64.45524],[20.01654,64.44174],[19.99678,64.45179],[19.9919,64.44859],[19.9411,64.47539],[19.94617,64.47793],[19.87896,64.51236],[19.85903,64.50389],[19.79134,64.53284],[19.80806,64.54401],[19.78934,64.55276],[19.79005,64.55306],[19.78433,64.55695],[19.77595,64.56192],[19.78826,64.56905],[19.75113,64.58288],[19.74835,64.58684],[19.71128,64.59752],[19.66189,64.62243],[19.50548,64.63761],[19.39597,64.68936],[19.40786,64.69357],[19.39277,64.69925],[19.392,64.69976],[19.38554,64.71741],[19.38811,64.71798],[19.38566,64.71893],[19.3831,64.72738],[19.34704,64.74639],[19.36533,64.74753],[19.41202,64.75088],[19.41262,64.75322],[19.4227,64.75388],[19.43772,64.75129],[19.47319,64.78048],[19.50086,64.77624],[19.63101,64.75539],[19.81484,64.75885],[19.89701,64.71445],[19.89953,64.71284],[19.94108,64.69015],[19.94296,64.691],[19.95104,64.69165],[19.9592,64.68355],[19.95599,64.68267],[19.98399,64.66745],[20.11481,64.67243],[20.10582,64.68932],[20.04281,64.72297],[20.05902,64.72838],[20.03366,64.73878],[20.03555,64.74973],[20.0757,64.76695],[20.10081,64.79444],[20.12991,64.78961],[20.14494,64.81933],[20.12441,64.82279],[20.10638,64.82524],[20.10679,64.82799],[20.13036,64.83682],[20.14441,64.82843],[20.17341,64.84033]],[[20.62742,64.52171],[20.62837,64.5191],[20.62409,64.51963],[20.61931,64.51976],[20.61682,64.51964],[20.61334,64.51912],[20.6106,64.51833],[20.60791,64.51693],[20.60602,64.51518],[20.60551,64.51341],[20.60614,64.51185],[20.60798,64.51022],[20.61152,64.50874],[20.61722,64.50747],[20.61944,64.50665],[20.62225,64.50592],[20.62789,64.50521],[20.63006,64.50419],[20.63282,64.50342],[20.64116,64.50231],[20.64536,64.50223],[20.64953,64.50269],[20.65287,64.50229],[20.65708,64.50225],[20.66024,64.50258],[20.66653,64.50387],[20.6695,64.50514],[20.67151,64.50682],[20.67215,64.50826],[20.67193,64.51069],[20.67495,64.51128],[20.67891,64.51267],[20.68104,64.51393],[20.68244,64.51563],[20.68267,64.51675],[20.68239,64.51792],[20.68164,64.51901],[20.68027,64.5201],[20.67932,64.52168],[20.67776,64.52289],[20.67628,64.52473],[20.67254,64.52671],[20.66811,64.52832],[20.66535,64.52905],[20.66305,64.52938],[20.66042,64.52953],[20.65772,64.53023],[20.65477,64.5307],[20.64879,64.53129],[20.64464,64.53131],[20.6414,64.53092],[20.63772,64.52999],[20.63533,64.52897],[20.63365,64.52775],[20.63271,64.52631],[20.62995,64.52505],[20.62818,64.52346],[20.62742,64.52171]]]}},{"type":"Feature","id":"2482R007","properties":{"code":"2482R007","name":"Burträsk tätort"},"geometry":{"type":"Polygon","coordinates":[[[20.648,64.53134],[20.65477,64.5307],[20.65772,64.53023],[20.66042,64.52953],[20.66305,64.52938],[20.66535,64.52905],[20.67156,64.52713],[20.67482,64.52563],[20.67665,64.52442],[20.67776,64.52289],[20.67962,64.52134],[20.68027,64.5201],[20.68192,64.51868],[20.68254,64.51754],[20.68244,64.51563],[20.68052,64.51355],[20.67891,64.51267],[20.67627,64.51169],[20.67193,64.51069],[20.67195,64.50758],[20.67093,64.50619],[20.6695,64.50514],[20.66716,64.50408],[20.66499,64.50345],[20.6602,64.50258],[20.65708,64.50225],[20.65287,64.50229],[20.64953,64.50269],[20.64536,64.50223],[20.642,64.50225],[20.63282,64.50342],[20.63006,64.50419],[20.62789,64.50521],[20.62225,64.50592],[20.61944,64.50665],[20.61722,64.50747],[20.61082,64.50896],[20.60751,64.51053],[20.60642,64.5115],[20.60569,64.51268],[20.60565,64.51446],[20.60658,64.51585],[20.60888,64.51755],[20.61191,64.51876],[20.61568,64.51952],[20.61924,64.51976],[20.62492,64.51958],[20.62837,64.5191],[20.62743,64.52134],[20.62792,64.52311],[20.62992,64.52502],[20.63271,64.52631],[20.63334,64.5274],[20.63487,64.52869],[20.63705,64.52975],[20.64068,64.53077],[20.64458,64.5313],[20.648,64.53134]]]}},{"type":"Feature","id":"2482R008","properties":{"code":"2482R008","name":"Byske omland"},"geometry":{"type":"Polygon","coordinates":[[[20.80554,65.20928],[21.19894,65.17208],[21.23006,65.16882],[21.2659,65.16349],[21.31877,65.1359],[21.48798,65.08557],[21.54404,65.06311],[21.55592,65.05969],[21.94545,64.90236],[21.90554,64.89022],[21.81681,64.83612],[21.24957,64.86614],[21.23505,64.87609],[21.22101,64.88225],[21.21857,64.8863],[21.21722,64.8904],[21.21229,64.89746],[21.21669,64.90355],[21.21496,64.90788],[21.20066,64.91258],[21.20162,64.91902],[21.11016,64.94508],[21.08751,64.95126],[21.06995,64.95761],[20.90325,65.02052],[20.80499,64.95025],[20.72924,64.9427],[20.72484,64.96241],[20.59331,65.0125],[20.63744,65.03616],[20.64992,65.06232],[20.58854,65.07708],[20.59,65.08008],[20.6349,65.0764],[20.64664,65.10303],[20.62105,65.10943],[20.61132,65.1091],[20.59268,65.11243],[20.59333,65.11522],[20.62351,65.1177],[20.66215,65.11476],[20.66904,65.13018],[20.6813,65.12919],[20.7258,65.22435],[20.80554,65.20928]],[[21.16972,64.96891],[21.16552,64.96872],[21.1623,64.96815],[21.15903,64.96702],[21.15572,64.96492],[21.153,64.96473],[21.15062,64.96435],[21.14783,64.96356],[21.14607,64.96279],[21.14333,64.96081],[21.14226,64.95908],[21.14252,64.9573],[21.14413,64.95527],[21.1464,64.95377],[21.14946,64.95262],[21.15225,64.95193],[21.15573,64.95146],[21.16115,64.95122],[21.166,64.95173],[21.1722,64.95181],[21.17248,64.9501],[21.17422,64.94832],[21.17496,64.94706],[21.17611,64.94604],[21.17869,64.94454],[21.18115,64.94352],[21.18414,64.94278],[21.18768,64.94237],[21.19167,64.94238],[21.19369,64.94134],[21.19824,64.93976],[21.19796,64.93845],[21.19827,64.93738],[21.19908,64.93633],[21.2008,64.93511],[21.20385,64.93376],[21.20731,64.93295],[21.21002,64.93205],[21.21306,64.93151],[21.21551,64.93132],[21.22049,64.93154],[21.22346,64.93212],[21.22601,64.93298],[21.22949,64.93472],[21.23132,64.93657],[21.23425,64.93604],[21.23755,64.93584],[21.24076,64.93598],[21.24378,64.93647],[21.24648,64.93727],[21.24861,64.93835],[21.25001,64.93958],[21.25067,64.94128],[21.25493,64.94168],[21.25869,64.94255],[21.26157,64.94371],[21.26391,64.94503],[21.2653,64.94663],[21.26532,64.94867],[21.26431,64.94999],[21.26023,64.95312],[21.25772,64.9541],[21.25445,64.95495],[21.25125,64.95538],[21.2474,64.95543],[21.24287,64.95738],[21.2395,64.95831],[21.23619,64.95885],[21.23287,64.95902],[21.23198,64.96049],[21.2305,64.96182],[21.22876,64.96275],[21.22607,64.96369],[21.22194,64.96443],[21.21667,64.96454],[21.21168,64.9638],[21.20802,64.96252],[21.20713,64.96238],[21.20397,64.96302],[21.2002,64.96409],[21.19446,64.9649],[21.19007,64.9665],[21.18307,64.96798],[21.1807,64.96826],[21.16972,64.96891]]]}},{"type":"Feature","id":"2482R009","properties":{"code":"2482R009","name":"Byske tätort"},"geometry":{"type":"Polygon","coordinates":[[[21.17177,64.96882],[21.17772,64.96834],[21.1807,64.96826],[21.18382,64.96785],[21.18651,64.96715],[21.19007,64.9665],[21.19446,64.9649],[21.2002,64.96409],[21.20397,64.96302],[21.20713,64.96238],[21.20802,64.96252],[21.21168,64.9638],[21.21667,64.96454],[21.22194,64.96443],[21.22607,64.96369],[21.22876,64.96275],[21.2305,64.96182],[21.23198,64.96049],[21.23287,64.95902],[21.23619,64.95885],[21.2395,64.95831],[21.24287,64.95738],[21.2474,64.95543],[21.25125,64.95538],[21.25445,64.95495],[21.25772,64.9541],[21.26023,64.95312],[21.26431,64.94999],[21.26532,64.94867],[21.2653,64.94663],[21.26349,64.94473],[21.26052,64.94322],[21.25801,64.94237],[21.25493,64.94168],[21.25067,64.94128],[21.25001,64.93958],[21.24861,64.93835],[21.24648,64.93727],[21.24378,64.93647],[21.24076,64.93598],[21.23755,64.93584],[21.23425,64.93604],[21.23132,64.93657],[21.22949,64.93472],[21.22601,64.93298],[21.22346,64.93212],[21.22049,64.93154],[21.21551,64.93132],[21.21306,64.93151],[21.21002,64.93205],[21.20731,64.93295],[21.20385,64.93376],[21.2008,64.93511],[21.19908,64.93633],[21.19827,64.93738],[21.19796,64.93845],[21.19824,64.93976],[21.19369,64.94134],[21.19167,64.94238],[21.18768,64.94237],[21.18414,64.94278],[21.18115,64.94352],[21.17869,64.94454],[21.17611,64.94604],[21.17496,64.94706],[21.17422,64.94832],[21.17248,64.9501],[21.1722,64.95181],[21.166,64.95173],[21.16115,64.95122],[21.15573,64.95146],[21.15225,64.95193],[21.14946,64.95262],[21.1464,64.95377],[21.14413,64.95527],[21.14236,64.95763],[21.14236,64.95942],[21.14368,64.96112],[21.14659,64.96305],[21.15062,64.96435],[21.153,64.96473],[21.15572,64.96492],[21.15903,64.96702],[21.16236,64.96816],[21.1671,64.96886],[21.17177,64.96882]]]}},{"type":"Feature","id":"2482R010","properties":{"code":"2482R010","name":"Degerbyn-Prästbordet"},"geometry":{"type":"Polygon","coordinates":[[[20.91479,64.76019],[20.93798,64.75529],[20.94616,64.75441],[20.94367,64.74684],[20.94266,64.74675],[20.94095,64.74601],[20.93926,64.74575],[20.93261,64.74601],[20.93078,64.7464],[20.92598,64.74861],[20.92355,64.7492],[20.92072,64.74939],[20.91771,64.74873],[20.9159,64.74881],[20.91217,64.74978],[20.90453,64.75074],[20.89504,64.75235],[20.88776,64.75265],[20.88263,64.75317],[20.88102,64.75316],[20.86962,64.75189],[20.86842,64.75213],[20.86779,64.75261],[20.86806,64.75325],[20.86992,64.7545],[20.87006,64.75538],[20.87044,64.75555],[20.87118,64.75533],[20.87151,64.75547],[20.87109,64.75672],[20.87201,64.75724],[20.87348,64.75761],[20.87337,64.75777],[20.87236,64.75772],[20.87054,64.75813],[20.87278,64.75861],[20.87482,64.75882],[20.8812,64.75883],[20.8965,64.75763],[20.90562,64.75768],[20.90616,64.75823],[20.90753,64.75888],[20.90849,64.76069],[20.91082,64.76065],[20.91479,64.76019]]]}},{"type":"Feature","id":"2482R011","properties":{"code":"2482R011","name":"Ersmark-Kåge tätort"},"geometry":{"type":"Polygon","coordinates":[[[20.90667,64.85472],[20.91051,64.85437],[20.91592,64.85346],[20.92349,64.85047],[20.92915,64.84873],[20.93205,64.84706],[20.93289,64.84608],[20.93329,64.84487],[20.93725,64.84516],[20.94447,64.84486],[20.94553,64.845],[20.94787,64.84614],[20.95058,64.84691],[20.95538,64.84746],[20.95763,64.84816],[20.95988,64.8486],[20.9647,64.84904],[20.96994,64.84895],[20.97399,64.84835],[20.97867,64.84888],[20.98179,64.84893],[20.98972,64.84852],[20.99291,64.8481],[20.9958,64.84734],[20.99859,64.84601],[21.00003,64.84473],[21.00064,64.8435],[21.00377,64.84073],[21.01028,64.84031],[21.01335,64.84048],[21.01762,64.84028],[21.02149,64.83958],[21.02465,64.83841],[21.02671,64.83695],[21.02759,64.83529],[21.02735,64.83211],[21.02611,64.83035],[21.02348,64.82873],[21.02027,64.82764],[21.01908,64.82648],[21.01756,64.82556],[21.01436,64.82438],[21.01025,64.82365],[21.00402,64.82337],[21.00176,64.82296],[20.99887,64.82176],[20.99385,64.82068],[20.98927,64.82017],[20.98549,64.82019],[20.98213,64.82047],[20.97965,64.82088],[20.97337,64.82267],[20.96698,64.82264],[20.9616,64.82291],[20.95829,64.8233],[20.95597,64.82383],[20.95285,64.82505],[20.95047,64.82635],[20.94887,64.82757],[20.94778,64.82961],[20.94843,64.83157],[20.94493,64.83133],[20.94248,64.83137],[20.9401,64.83162],[20.93764,64.83211],[20.93412,64.83231],[20.93108,64.83285],[20.92849,64.83368],[20.92691,64.83448],[20.92421,64.83713],[20.92164,64.83657],[20.91919,64.83628],[20.91302,64.83625],[20.90596,64.83706],[20.90372,64.83757],[20.90136,64.83841],[20.89841,64.83852],[20.89593,64.83885],[20.89284,64.83806],[20.89031,64.83668],[20.88691,64.83572],[20.88301,64.83525],[20.87872,64.83533],[20.87493,64.83595],[20.87191,64.83696],[20.86839,64.83741],[20.86609,64.83793],[20.86323,64.83895],[20.86153,64.83996],[20.85829,64.84068],[20.85573,64.84153],[20.85306,64.84305],[20.85186,64.84442],[20.8515,64.84597],[20.85204,64.84742],[20.8536,64.84892],[20.85559,64.85004],[20.85818,64.85101],[20.8607,64.85158],[20.86462,64.85209],[20.86565,64.85324],[20.86703,64.85415],[20.86988,64.85547],[20.87258,64.85624],[20.87651,64.85676],[20.88081,64.8568],[20.8895,64.85772],[20.89442,64.85786],[20.89764,64.85753],[20.9016,64.85674],[20.90372,64.85607],[20.90667,64.85472]]]}},{"type":"Feature","id":"2482R012","properties":{"code":"2482R012","name":"Jörn-Boliden omland"},"geometry":{"type":"Polygon","coordinates":[[[20.7258,65.22435],[20.6813,65.12919],[20.66904,65.13018],[20.66215,65.11476],[20.62351,65.1177],[20.59333,65.11522],[20.59268,65.11243],[20.61132,65.1091],[20.62105,65.10943],[20.64664,65.10303],[20.6349,65.0764],[20.59,65.08008],[20.58854,65.07708],[20.64992,65.06232],[20.63744,65.03616],[20.59331,65.0125],[20.72484,64.96241],[20.72924,64.9427],[20.80499,64.95025],[20.84113,64.92748],[20.8356,64.92594],[20.8519,64.91593],[20.86004,64.91585],[20.86972,64.91035],[20.86928,64.90715],[20.87374,64.90168],[20.86439,64.89088],[20.85141,64.87727],[20.83982,64.86306],[20.8081,64.85643],[20.76562,64.84789],[20.7538,64.84853],[20.74949,64.84797],[20.69354,64.84751],[20.67916,64.85156],[20.67329,64.85292],[20.67151,64.85373],[20.61253,64.86777],[20.54632,64.8344],[20.54841,64.83228],[20.51904,64.81898],[20.50463,64.82662],[20.47152,64.8126],[20.47072,64.81289],[20.45804,64.8076],[20.43191,64.8134],[20.41344,64.79624],[20.43647,64.79113],[20.4277,64.78404],[20.44786,64.77981],[20.44891,64.77858],[20.4508,64.77715],[20.44879,64.77308],[20.44743,64.77261],[20.44133,64.7756],[20.43929,64.77615],[20.43524,64.77653],[20.43213,64.77596],[20.43098,64.77603],[20.42963,64.77646],[20.42656,64.77671],[20.4199,64.77762],[20.41866,64.77801],[20.4132,64.77869],[20.41189,64.779],[20.41081,64.77947],[20.40996,64.78021],[20.40778,64.78102],[20.4032,64.78122],[20.40232,64.78153],[20.39872,64.78178],[20.39352,64.78292],[20.39125,64.78317],[20.38818,64.78312],[20.3846,64.78362],[20.38141,64.78249],[20.3795,64.78211],[20.37668,64.78207],[20.37156,64.78259],[20.37058,64.78299],[20.36912,64.7841],[20.36692,64.78489],[20.36259,64.78557],[20.35841,64.78682],[20.35651,64.78804],[20.35323,64.78946],[20.35042,64.79098],[20.34721,64.79173],[20.34405,64.7928],[20.34221,64.79286],[20.34027,64.79246],[20.33936,64.79204],[20.33738,64.79173],[20.33428,64.79186],[20.3315,64.79269],[20.3301,64.79253],[20.3282,64.79313],[20.32538,64.79461],[20.3175,64.79699],[20.31369,64.79859],[20.3099,64.79969],[20.30866,64.80025],[20.30855,64.80073],[20.30938,64.80136],[20.31191,64.80256],[20.31233,64.80327],[20.31179,64.80431],[20.31046,64.80484],[20.30504,64.80485],[20.29643,64.80562],[20.29423,64.80621],[20.28971,64.80844],[20.28782,64.80899],[20.27925,64.81081],[20.2766,64.81084],[20.27349,64.81053],[20.27242,64.81058],[20.26963,64.81156],[20.26544,64.81189],[20.26187,64.8126],[20.25435,64.81477],[20.25153,64.81536],[20.25021,64.81521],[20.24929,64.81466],[20.24804,64.81447],[20.24735,64.81465],[20.24687,64.81748],[20.24354,64.81832],[20.23746,64.82035],[20.23364,64.82205],[20.2316,64.82238],[20.22993,64.823],[20.22319,64.82755],[20.22323,64.82783],[20.22462,64.82828],[20.22482,64.8295],[20.22405,64.83128],[20.22263,64.83242],[20.22131,64.83302],[20.21837,64.83372],[20.21708,64.83435],[20.20233,64.84282],[20.20319,64.84417],[20.20144,64.84791],[20.20152,64.84942],[20.19987,64.8512],[20.21616,64.85784],[20.15562,64.87335],[20.15398,64.8751],[20.15339,64.87636],[20.15425,64.87812],[20.15665,64.88078],[20.15652,64.88135],[20.15063,64.88539],[20.14962,64.88544],[20.14817,64.89066],[20.14498,64.89199],[20.13556,64.89207],[20.12452,64.89712],[20.11089,64.90677],[20.09584,64.91013],[20.08432,64.91617],[20.06173,64.92446],[20.09878,64.94205],[19.98041,64.99121],[19.8235,65.03085],[19.78531,65.06726],[19.68751,65.12662],[19.68311,65.12812],[19.69937,65.13148],[19.6988,65.13201],[19.70168,65.13322],[19.70091,65.13343],[19.6978,65.13585],[19.69786,65.13616],[19.69903,65.13689],[19.69859,65.1377],[19.69714,65.13862],[19.69576,65.13901],[19.69535,65.13991],[19.69381,65.14078],[19.69316,65.14168],[19.6893,65.14285],[19.689,65.14354],[19.68691,65.14439],[19.68551,65.14532],[19.68415,65.14574],[19.68211,65.14731],[19.6819,65.14826],[19.67787,65.14947],[19.67733,65.14988],[19.67256,65.15175],[19.67092,65.15284],[19.6679,65.15329],[19.66658,65.15323],[19.66538,65.1534],[19.66375,65.1527],[19.66189,65.15286],[19.66099,65.15276],[19.65845,65.15164],[19.657,65.15132],[19.59041,65.19426],[19.60757,65.19864],[19.69572,65.25462],[19.70295,65.25226],[19.70494,65.25342],[19.71155,65.25748],[19.70381,65.25974],[19.76369,65.29756],[19.77353,65.30347],[19.89482,65.38095],[20.10996,65.34571],[20.20884,65.32606],[20.3441,65.29952],[20.42121,65.2841],[20.59912,65.24799],[20.7258,65.22435]],[[20.36218,64.85861],[20.3654,64.85859],[20.36633,64.85808],[20.36817,64.85654],[20.36908,64.85532],[20.37086,64.85408],[20.37398,64.85289],[20.37843,64.85195],[20.38421,64.85125],[20.38754,64.85115],[20.3917,64.85154],[20.39531,64.85245],[20.3971,64.85321],[20.39888,64.85441],[20.40148,64.85815],[20.40383,64.85889],[20.40545,64.85967],[20.40756,64.86162],[20.40792,64.8633],[20.40921,64.86542],[20.40926,64.8665],[20.40865,64.86782],[20.40946,64.86958],[20.40952,64.87066],[20.40854,64.87242],[20.40635,64.87394],[20.40239,64.87528],[20.39693,64.87606],[20.39126,64.87725],[20.38796,64.87749],[20.37981,64.87743],[20.37581,64.87688],[20.3732,64.87614],[20.36642,64.87471],[20.36276,64.87333],[20.36056,64.87147],[20.35666,64.87109],[20.35295,64.87022],[20.34992,64.86882],[20.34803,64.86706],[20.34725,64.86518],[20.34784,64.8634],[20.34981,64.86169],[20.35309,64.86024],[20.35885,64.85899],[20.36218,64.85861]]]}},{"type":"Feature","id":"2482R013","properties":{"code":"2482R013","name":"Klutmark-Medle-Myckle-Stämningsgården"},"geometry":{"type":"Polygon","coordinates":[[[20.91338,64.77851],[20.91438,64.77638],[20.91759,64.77622],[20.91998,64.77587],[20.92467,64.77452],[20.92681,64.77344],[20.92829,64.77226],[20.92903,64.7712],[20.92926,64.76996],[20.9309,64.76978],[20.93434,64.76796],[20.93641,64.76752],[20.90562,64.76657],[20.90651,64.76494],[20.90768,64.76396],[20.90428,64.76336],[20.90767,64.7616],[20.90852,64.76055],[20.90784,64.75989],[20.90753,64.75888],[20.90616,64.75823],[20.90562,64.75768],[20.90049,64.75758],[20.89473,64.7577],[20.88018,64.75885],[20.87482,64.75882],[20.87278,64.75861],[20.87054,64.75813],[20.87236,64.75772],[20.87337,64.75777],[20.87348,64.75761],[20.87201,64.75724],[20.87109,64.75672],[20.87147,64.75541],[20.87115,64.75533],[20.87044,64.75555],[20.87006,64.75538],[20.86992,64.7545],[20.86777,64.75293],[20.86811,64.75225],[20.86946,64.75195],[20.86531,64.75036],[20.86264,64.75002],[20.8571,64.74876],[20.85521,64.74855],[20.85161,64.74943],[20.84499,64.74907],[20.83768,64.74761],[20.83391,64.74845],[20.82936,64.75027],[20.82629,64.75042],[20.82299,64.74955],[20.81582,64.74943],[20.81311,64.74958],[20.80811,64.75057],[20.80645,64.75023],[20.80609,64.74971],[20.80041,64.75117],[20.79765,64.75234],[20.7983,64.75113],[20.79831,64.74964],[20.80051,64.74865],[20.80188,64.74769],[20.80317,64.74611],[20.80363,64.74495],[20.80357,64.74382],[20.80302,64.74272],[20.80158,64.7414],[20.79983,64.74043],[20.79503,64.73858],[20.79012,64.73778],[20.7874,64.73768],[20.78479,64.73781],[20.77993,64.73831],[20.77668,64.73901],[20.77343,64.73761],[20.76977,64.73682],[20.76574,64.73657],[20.76126,64.73694],[20.76253,64.73486],[20.76215,64.73306],[20.76092,64.73174],[20.75841,64.73035],[20.75727,64.72915],[20.75585,64.72826],[20.75337,64.72728],[20.75018,64.72646],[20.74538,64.72596],[20.74125,64.72615],[20.73755,64.72472],[20.73517,64.72422],[20.73237,64.72389],[20.73117,64.72198],[20.72953,64.7207],[20.72702,64.71956],[20.72412,64.71879],[20.71571,64.71771],[20.71095,64.71754],[20.70377,64.71817],[20.70024,64.71896],[20.69846,64.71966],[20.69663,64.72078],[20.69431,64.72273],[20.69356,64.72411],[20.69393,64.72817],[20.695,64.72945],[20.69666,64.73051],[20.68909,64.73079],[20.68524,64.73136],[20.68126,64.73263],[20.67895,64.73415],[20.67775,64.73624],[20.6782,64.73835],[20.68048,64.74027],[20.68426,64.74168],[20.69066,64.743],[20.69418,64.74322],[20.69873,64.74297],[20.70804,64.74445],[20.71272,64.74477],[20.71404,64.74565],[20.71646,64.74669],[20.71887,64.74734],[20.72135,64.74774],[20.7257,64.74795],[20.73164,64.74741],[20.7335,64.74857],[20.73639,64.74961],[20.73853,64.75104],[20.74198,64.75225],[20.74646,64.75306],[20.75402,64.75318],[20.75565,64.75435],[20.75733,64.7551],[20.76003,64.75588],[20.76232,64.75626],[20.76473,64.75644],[20.76831,64.7564],[20.77425,64.75568],[20.78121,64.75654],[20.78527,64.75663],[20.7892,64.75617],[20.7932,64.75514],[20.79271,64.75619],[20.79276,64.75785],[20.79316,64.75906],[20.79426,64.76037],[20.79726,64.762],[20.80164,64.76345],[20.80454,64.76407],[20.80855,64.76438],[20.81188,64.76423],[20.81567,64.76356],[20.82029,64.76206],[20.82605,64.76189],[20.82921,64.76156],[20.83275,64.7607],[20.83672,64.75885],[20.83748,64.75898],[20.83966,64.76078],[20.84237,64.76196],[20.84596,64.76279],[20.85042,64.76311],[20.85289,64.76403],[20.85517,64.76456],[20.85838,64.76494],[20.86302,64.76504],[20.8663,64.7648],[20.86903,64.76429],[20.86992,64.7646],[20.87016,64.76618],[20.86667,64.76736],[20.86423,64.76895],[20.86311,64.77078],[20.86314,64.77272],[20.86516,64.77586],[20.86779,64.77757],[20.86873,64.77958],[20.86825,64.7809],[20.86839,64.78197],[20.86961,64.78376],[20.87261,64.78583],[20.87512,64.78676],[20.87735,64.78727],[20.88142,64.7877],[20.88481,64.78763],[20.88799,64.78721],[20.89248,64.78615],[20.89786,64.78406],[20.9012,64.78352],[20.90454,64.78261],[20.91052,64.78039],[20.91338,64.77851]]]}},{"type":"Feature","id":"2482R014","properties":{"code":"2482R014","name":"Kåge omland"},"geometry":{"type":"Polygon","coordinates":[[[20.90325,65.02052],[21.06995,64.95761],[21.08751,64.95126],[21.11016,64.94508],[21.20162,64.91902],[21.20066,64.91258],[21.21496,64.90788],[21.21669,64.90355],[21.21229,64.89746],[21.21722,64.8904],[21.21857,64.8863],[21.22101,64.88225],[21.23505,64.87609],[21.24957,64.86614],[21.81681,64.83612],[21.84816,64.79377],[21.27934,64.80309],[21.17477,64.79797],[21.16479,64.77654],[21.14931,64.76696],[21.11689,64.77226],[21.07535,64.74677],[21.07331,64.74732],[21.07098,64.74922],[21.06957,64.75091],[21.06574,64.75297],[21.06626,64.7542],[21.06619,64.75526],[21.06565,64.75627],[21.06426,64.75752],[21.06215,64.7586],[21.05823,64.75998],[21.05676,64.76161],[21.05475,64.76278],[21.05183,64.76392],[21.04905,64.76466],[21.01739,64.76887],[21.0141,64.76912],[21.00911,64.76882],[21.00475,64.76774],[21.00163,64.76606],[20.99983,64.76384],[20.99862,64.76396],[20.99355,64.76549],[20.98928,64.76609],[20.98729,64.76692],[20.98507,64.76754],[20.98045,64.76819],[20.97704,64.76915],[20.97352,64.76961],[20.97073,64.76969],[20.96633,64.76951],[20.96191,64.76901],[20.95817,64.76908],[20.95297,64.76865],[20.95031,64.76882],[20.94669,64.76874],[20.94423,64.76848],[20.94158,64.76794],[20.93581,64.76922],[20.92926,64.76996],[20.92859,64.77191],[20.92586,64.77399],[20.92337,64.77497],[20.91998,64.77587],[20.91759,64.77622],[20.91438,64.77638],[20.91395,64.77777],[20.91257,64.77922],[20.91052,64.78039],[20.90706,64.7818],[20.9019,64.78335],[20.89786,64.78406],[20.89317,64.78593],[20.88877,64.78705],[20.88481,64.78763],[20.88056,64.78765],[20.87735,64.78727],[20.87442,64.78655],[20.87205,64.78555],[20.86998,64.78409],[20.86839,64.78197],[20.86825,64.7809],[20.86873,64.77958],[20.86779,64.77757],[20.86516,64.77586],[20.86329,64.77306],[20.86311,64.77078],[20.86423,64.76895],[20.86667,64.76736],[20.87016,64.76618],[20.86992,64.7646],[20.86903,64.76429],[20.8663,64.7648],[20.86302,64.76504],[20.85838,64.76494],[20.85517,64.76456],[20.85289,64.76403],[20.85042,64.76311],[20.84596,64.76279],[20.84237,64.76196],[20.83966,64.76078],[20.83748,64.75898],[20.83672,64.75885],[20.83275,64.7607],[20.82921,64.76156],[20.82605,64.76189],[20.82029,64.76206],[20.81567,64.76356],[20.81188,64.76423],[20.80855,64.76438],[20.80534,64.76418],[20.80098,64.76325],[20.79667,64.76177],[20.79465,64.76067],[20.79336,64.7594],[20.79279,64.75799],[20.79266,64.75653],[20.7932,64.75514],[20.7892,64.75617],[20.78527,64.75663],[20.78121,64.75654],[20.77425,64.75568],[20.76831,64.7564],[20.76473,64.75644],[20.76232,64.75626],[20.76003,64.75588],[20.75733,64.7551],[20.75565,64.75435],[20.75402,64.75318],[20.74646,64.75306],[20.74198,64.75225],[20.73853,64.75104],[20.73639,64.74961],[20.7335,64.74857],[20.73164,64.74741],[20.7257,64.74795],[20.72135,64.74774],[20.71887,64.74734],[20.71646,64.74669],[20.71404,64.74565],[20.71272,64.74477],[20.70804,64.74445],[20.69873,64.74297],[20.69314,64.74319],[20.68818,64.7426],[20.68221,64.74105],[20.67912,64.73936],[20.67774,64.73729],[20.67776,64.73621],[20.67837,64.73481],[20.6807,64.73291],[20.68453,64.73152],[20.68909,64.73079],[20.69666,64.73051],[20.69475,64.72923],[20.69292,64.72904],[20.69077,64.72611],[20.68891,64.72581],[20.68559,64.72583],[20.67978,64.72543],[20.6787,64.72565],[20.67537,64.72799],[20.67476,64.72974],[20.67393,64.73009],[20.66917,64.73119],[20.66657,64.73201],[20.66329,64.73355],[20.66114,64.73558],[20.65421,64.73819],[20.64709,64.73858],[20.64444,64.73927],[20.6359,64.74011],[20.63067,64.74139],[20.62986,64.74138],[20.62551,64.74035],[20.62103,64.74065],[20.619,64.74106],[20.61768,64.74109],[20.61632,64.74096],[20.61361,64.73985],[20.6065,64.73962],[20.6034,64.7397],[20.60093,64.74005],[20.59554,64.7416],[20.59254,64.74212],[20.5887,64.74241],[20.58225,64.7442],[20.57762,64.7459],[20.57677,64.74713],[20.57185,64.74849],[20.56303,64.74987],[20.5608,64.74989],[20.55878,64.75012],[20.55517,64.75086],[20.55179,64.75095],[20.53277,64.75291],[20.52967,64.75351],[20.5284,64.75394],[20.52782,64.75438],[20.52758,64.75564],[20.52625,64.75623],[20.518,64.75727],[20.51469,64.75793],[20.5098,64.75862],[20.50343,64.7585],[20.49557,64.75789],[20.49334,64.75703],[20.4913,64.7558],[20.48808,64.75494],[20.48598,64.75503],[20.48364,64.75486],[20.47496,64.75546],[20.47493,64.75622],[20.47947,64.75732],[20.47371,64.76073],[20.46341,64.76453],[20.46099,64.76601],[20.4584,64.76652],[20.45434,64.76925],[20.45323,64.76982],[20.45107,64.77045],[20.44743,64.77261],[20.44879,64.77308],[20.4508,64.77715],[20.44891,64.77858],[20.44786,64.77981],[20.4277,64.78404],[20.43647,64.79113],[20.41344,64.79624],[20.43191,64.8134],[20.45804,64.8076],[20.47072,64.81289],[20.47152,64.8126],[20.50463,64.82662],[20.51904,64.81898],[20.54841,64.83228],[20.54632,64.8344],[20.61253,64.86777],[20.67151,64.85373],[20.67329,64.85292],[20.67916,64.85156],[20.69354,64.84751],[20.74949,64.84797],[20.7538,64.84853],[20.76562,64.84789],[20.8081,64.85643],[20.83982,64.86306],[20.85141,64.87727],[20.86439,64.89088],[20.87374,64.90168],[20.86928,64.90715],[20.86972,64.91035],[20.86004,64.91585],[20.8519,64.91593],[20.8356,64.92594],[20.84113,64.92748],[20.80499,64.95025],[20.90325,65.02052]],[[20.85181,64.84452],[20.85306,64.84305],[20.85502,64.84185],[20.85808,64.84074],[20.86153,64.83996],[20.86323,64.83895],[20.86505,64.83824],[20.86833,64.83742],[20.87191,64.83696],[20.87564,64.83578],[20.87872,64.83533],[20.88301,64.83525],[20.88691,64.83572],[20.89031,64.83668],[20.89284,64.83806],[20.89593,64.83885],[20.89841,64.83852],[20.90136,64.83841],[20.90372,64.83757],[20.90596,64.83706],[20.91302,64.83625],[20.91919,64.83628],[20.92164,64.83657],[20.92421,64.83713],[20.92691,64.83448],[20.92849,64.83368],[20.93108,64.83285],[20.93412,64.83231],[20.93764,64.83211],[20.9401,64.83162],[20.94248,64.83137],[20.94493,64.83133],[20.94843,64.83157],[20.94778,64.82961],[20.94887,64.82757],[20.95047,64.82635],[20.95285,64.82505],[20.95597,64.82383],[20.95829,64.8233],[20.9616,64.82291],[20.96698,64.82264],[20.97337,64.82267],[20.97965,64.82088],[20.98213,64.82047],[20.98549,64.82019],[20.98927,64.82017],[20.99385,64.82068],[20.99887,64.82176],[21.00176,64.82296],[21.00402,64.82337],[21.01025,64.82365],[21.01436,64.82438],[21.01821,64.8259],[21.02027,64.82764],[21.02266,64.82838],[21.02471,64.82934],[21.02611,64.83035],[21.02722,64.83177],[21.02762,64.83495],[21.02739,64.83597],[21.02639,64.83727],[21.02465,64.83841],[21.02149,64.83958],[21.01762,64.84028],[21.01335,64.84048],[21.01028,64.84031],[21.00377,64.84073],[21.00064,64.8435],[21.00003,64.84473],[20.99859,64.84601],[20.9958,64.84734],[20.99291,64.8481],[20.98972,64.84852],[20.98179,64.84893],[20.97867,64.84888],[20.97399,64.84835],[20.96994,64.84895],[20.9647,64.84904],[20.95988,64.8486],[20.95763,64.84816],[20.95538,64.84746],[20.95058,64.84691],[20.94787,64.84614],[20.94553,64.845],[20.94447,64.84486],[20.93725,64.84516],[20.93329,64.84487],[20.93237,64.84674],[20.93027,64.84823],[20.92012,64.85168],[20.91729,64.85305],[20.91364,64.85393],[20.90621,64.85479],[20.90446,64.85577],[20.90179,64.85669],[20.89764,64.85753],[20.89525,64.85781],[20.89116,64.85784],[20.88686,64.85735],[20.88375,64.85721],[20.88081,64.8568],[20.87566,64.85669],[20.87258,64.85624],[20.8705,64.85568],[20.86651,64.85385],[20.86462,64.85209],[20.8607,64.85158],[20.85837,64.85106],[20.85615,64.85029],[20.85417,64.8493],[20.85268,64.84816],[20.85184,64.84709],[20.8515,64.84597],[20.85181,64.84452]]]}},{"type":"Feature","id":"2482R015","properties":{"code":"2482R015","name":"Lund-Sunnanå"},"geometry":{"type":"Polygon","coordinates":[[[20.89504,64.75235],[20.91217,64.74978],[20.91533,64.74888],[20.91701,64.74871],[20.92044,64.74938],[20.92378,64.74916],[20.92598,64.74861],[20.93078,64.7464],[20.93261,64.74601],[20.93845,64.74572],[20.94095,64.74601],[20.94112,64.74294],[20.94306,64.73696],[20.94255,64.73578],[20.94037,64.73393],[20.94508,64.73257],[20.95298,64.73159],[20.95137,64.73029],[20.94981,64.72485],[20.94522,64.72554],[20.94257,64.7264],[20.94082,64.7273],[20.93419,64.72886],[20.92845,64.73109],[20.92612,64.73241],[20.92338,64.73169],[20.92099,64.73133],[20.91769,64.73117],[20.91448,64.73134],[20.91063,64.73196],[20.9078,64.73289],[20.90225,64.73341],[20.89897,64.73421],[20.89124,64.7356],[20.88854,64.73647],[20.88609,64.73789],[20.88491,64.73924],[20.88458,64.7407],[20.88127,64.74014],[20.8771,64.74],[20.8695,64.7407],[20.86605,64.74146],[20.86223,64.74134],[20.85902,64.74162],[20.85611,64.74223],[20.85365,64.74313],[20.85198,64.7441],[20.85045,64.74548],[20.84856,64.74552],[20.84458,64.7443],[20.83847,64.74354],[20.83437,64.74333],[20.8312,64.74352],[20.82767,64.74417],[20.82415,64.74527],[20.82123,64.74554],[20.81836,64.74614],[20.81289,64.74799],[20.81035,64.74925],[20.80609,64.74971],[20.80645,64.75023],[20.80811,64.75057],[20.81311,64.74958],[20.81582,64.74943],[20.82299,64.74955],[20.82629,64.75042],[20.82936,64.75027],[20.83391,64.74845],[20.83768,64.74761],[20.84499,64.74907],[20.85161,64.74943],[20.85521,64.74855],[20.8571,64.74876],[20.86264,64.75002],[20.86531,64.75036],[20.86946,64.75195],[20.88102,64.75316],[20.88263,64.75317],[20.88776,64.75265],[20.89504,64.75235]]]}},{"type":"Feature","id":"2482R016","properties":{"code":"2482R016","name":"Lövånger"},"geometry":{"type":"Polygon","coordinates":[[[22.07754,64.47752],[22.07911,64.4706],[22.08012,64.46365],[22.08057,64.4567],[22.08045,64.44974],[22.07977,64.44279],[22.07856,64.43597],[22.07364,64.41339],[22.07071,64.40289],[22.06808,64.39603],[22.0649,64.38921],[22.06118,64.38244],[22.05691,64.37573],[22.05211,64.36909],[22.04678,64.36253],[22.04092,64.35605],[22.03477,64.34987],[21.93521,64.25398],[21.92423,64.24409],[21.91664,64.23797],[21.90856,64.23197],[21.90001,64.22609],[21.89099,64.22034],[21.88153,64.21474],[21.87162,64.20928],[21.86129,64.20397],[21.84539,64.19648],[21.65285,64.10986],[21.28,64.26899],[21.22336,64.26824],[21.21703,64.27384],[21.21401,64.27548],[21.18526,64.3004],[21.18773,64.31796],[21.18169,64.32693],[21.17043,64.33841],[21.17161,64.3386],[21.17153,64.33886],[21.16975,64.33917],[21.1487,64.35924],[21.06542,64.3353],[21.05711,64.34838],[21.02013,64.3603],[21.01475,64.36768],[21.01267,64.36724],[21.01242,64.36783],[21.01397,64.36805],[21.01306,64.36908],[21.01344,64.36916],[21.012,64.36947],[21.00915,64.37122],[21.00946,64.37132],[21.01317,64.36949],[21.00397,64.38181],[20.99119,64.39388],[20.91622,64.4301],[20.88162,64.43965],[20.92634,64.46419],[20.93224,64.4794],[20.94783,64.48994],[20.97655,64.49922],[20.97636,64.49932],[20.997,64.5062],[20.99255,64.51232],[21.00469,64.5157],[21.01617,64.51224],[21.02405,64.51473],[21.01284,64.53819],[21.04952,64.53446],[21.08565,64.53115],[21.13609,64.52329],[21.13183,64.53543],[21.16749,64.54016],[21.20182,64.51936],[21.18879,64.51442],[21.23582,64.50633],[21.26063,64.50601],[21.26586,64.50696],[21.26641,64.50754],[21.26504,64.5084],[21.26434,64.50919],[21.26421,64.50989],[21.26602,64.50959],[21.26717,64.51011],[21.26593,64.51088],[21.26759,64.51208],[21.26937,64.51179],[21.27187,64.5121],[21.27663,64.51172],[21.27832,64.51067],[21.28018,64.51056],[21.28157,64.51004],[21.31062,64.51578],[21.31233,64.51587],[21.31206,64.52036],[21.35758,64.52217],[21.35999,64.52057],[21.36242,64.51784],[21.40781,64.51714],[21.41025,64.51747],[21.41509,64.51687],[21.43647,64.52171],[21.45567,64.52424],[21.45868,64.5217],[21.46038,64.51614],[21.46736,64.51385],[21.47943,64.51383],[21.49737,64.50761],[21.5099,64.50032],[21.52728,64.49679],[21.58994,64.50456],[22.02438,64.55967],[22.05628,64.51872],[22.06117,64.51209],[22.06551,64.50539],[22.06931,64.49862],[22.07255,64.49181],[22.07524,64.48495],[22.07754,64.47752]]]}},{"type":"Feature","id":"2482R017","properties":{"code":"2482R017","name":"Moröhöjden-Morö backe centrum"},"geometry":{"type":"Polygon","coordinates":[[[21.02654,64.7549],[21.03769,64.7528],[21.03685,64.75184],[21.0482,64.75038],[21.04737,64.75011],[21.04644,64.74885],[21.03672,64.7499],[21.03527,64.74764],[21.01415,64.75084],[20.99928,64.7542],[21.00076,64.75498],[21.00049,64.75561],[21.00152,64.75618],[21.00356,64.7564],[21.00706,64.75594],[21.0085,64.75592],[21.01079,64.75682],[21.0166,64.75383],[21.01831,64.75422],[21.02046,64.75393],[21.02225,64.75666],[21.02434,64.75562],[21.02654,64.7549]]]}},{"type":"Feature","id":"2482R019","properties":{"code":"2482R019","name":"Norra Morö backe"},"geometry":{"type":"Polygon","coordinates":[[[21.06626,64.75492],[21.06574,64.75297],[21.06916,64.7512],[21.07098,64.74922],[21.07331,64.74732],[21.07422,64.74709],[21.03685,64.75184],[21.03769,64.7528],[21.02654,64.7549],[21.02434,64.75562],[21.02225,64.75666],[21.02046,64.75393],[21.01831,64.75422],[21.0166,64.75383],[21.00946,64.75759],[21.00757,64.759],[21.00443,64.76212],[21.00859,64.76305],[21.01247,64.76449],[21.01513,64.7661],[21.01782,64.76881],[21.04743,64.76493],[21.05119,64.76413],[21.05586,64.76221],[21.05715,64.76129],[21.05823,64.75998],[21.06378,64.75782],[21.06538,64.7566],[21.06626,64.75492]]]}},{"type":"Feature","id":"2482R025","properties":{"code":"2482R025","name":"Östra Norrböle"},"geometry":{"type":"Polygon","coordinates":[[[21.01079,64.75682],[21.0085,64.75592],[21.00706,64.75594],[21.00356,64.7564],[21.00216,64.75632],[21.00068,64.75582],[21.00044,64.7554],[21.00076,64.75498],[20.99928,64.7542],[20.99677,64.75471],[20.99367,64.75234],[20.99323,64.75138],[20.99197,64.75141],[20.99189,64.75079],[20.99233,64.75039],[20.99086,64.74976],[20.98132,64.75167],[20.98128,64.75141],[20.96156,64.75292],[20.96223,64.75491],[20.96364,64.75704],[20.96475,64.75793],[20.96702,64.75897],[20.96989,64.7596],[20.97819,64.76019],[20.98646,64.76118],[20.99807,64.76156],[21.00443,64.76212],[21.00757,64.759],[21.01079,64.75682]]]}},{"type":"Feature","id":"2482R020","properties":{"code":"2482R020","name":"Sjungande dalen-Västra Norrböle"},"geometry":{"type":"Polygon","coordinates":[[[21.01247,64.76449],[21.00716,64.76265],[21.0033,64.76193],[20.99807,64.76156],[20.98646,64.76118],[20.97934,64.7603],[20.97148,64.75978],[20.96834,64.75932],[20.96588,64.75851],[20.96376,64.75717],[20.96251,64.75546],[20.96156,64.75292],[20.94061,64.75496],[20.93674,64.75551],[20.91479,64.76019],[20.912,64.76058],[20.90849,64.76069],[20.90767,64.7616],[20.90428,64.76336],[20.90768,64.76396],[20.90651,64.76494],[20.90562,64.76657],[20.93641,64.76752],[20.93434,64.76796],[20.9309,64.76978],[20.93587,64.76921],[20.94158,64.76794],[20.94423,64.76848],[20.94669,64.76874],[20.95031,64.76882],[20.95297,64.76865],[20.95817,64.76908],[20.96191,64.76901],[20.96633,64.76951],[20.97098,64.76969],[20.97377,64.76959],[20.97704,64.76915],[20.98045,64.76819],[20.98507,64.76754],[20.98729,64.76692],[20.98928,64.76609],[20.99355,64.76549],[20.99862,64.76396],[20.99983,64.76384],[21.00205,64.76638],[21.00411,64.76749],[21.00607,64.76817],[21.00905,64.76881],[21.01157,64.76907],[21.0149,64.76909],[21.01782,64.76881],[21.01513,64.7661],[21.01247,64.76449]]]}},{"type":"Feature","id":"2482R021","properties":{"code":"2482R021","name":"Skelleftehamn"},"geometry":{"type":"Polygon","coordinates":[[[21.23523,64.70022],[21.24,64.70092],[21.24341,64.70103],[21.24777,64.70062],[21.2516,64.69967],[21.25396,64.69862],[21.25581,64.69717],[21.25801,64.69601],[21.25938,64.69549],[21.26309,64.69457],[21.26538,64.69354],[21.26829,64.69091],[21.27116,64.68905],[21.27237,64.68775],[21.27447,64.68667],[21.27564,64.68569],[21.27654,64.68395],[21.27613,64.68218],[21.27486,64.68084],[21.27104,64.67833],[21.29395,64.6636],[21.27259,64.65685],[21.22998,64.67866],[21.22732,64.67786],[21.22374,64.67713],[21.22059,64.6769],[21.21701,64.67696],[21.21765,64.67655],[21.21138,64.67938],[21.20492,64.68136],[21.20387,64.68224],[21.20318,64.68385],[21.2015,64.68586],[21.20006,64.68693],[21.19728,64.68797],[21.19472,64.68856],[21.19822,64.6919],[21.20207,64.69387],[21.20586,64.69744],[21.21179,64.70055],[21.21239,64.70258],[21.2184,64.70326],[21.22336,64.70315],[21.22793,64.70225],[21.23138,64.70069],[21.23523,64.70022]]]}},{"type":"Feature","id":"2482R022","properties":{"code":"2482R022","name":"Skellefteå centrala stan"},"geometry":{"type":"Polygon","coordinates":[[[20.9736,64.74753],[20.96583,64.74668],[20.96334,64.74667],[20.95988,64.74717],[20.95969,64.74489],[20.96074,64.74322],[20.94365,64.74311],[20.94112,64.74294],[20.94095,64.74601],[20.94266,64.74675],[20.94367,64.74684],[20.94616,64.75441],[20.96634,64.75245],[20.97337,64.75197],[20.97286,64.75096],[20.97248,64.75092],[20.9736,64.74753]]]}},{"type":"Feature","id":"2482R023","properties":{"code":"2482R023","name":"Sörböle"},"geometry":{"type":"Polygon","coordinates":[[[20.96275,64.74123],[20.96615,64.73699],[20.96829,64.73496],[20.97133,64.73295],[20.97858,64.72881],[20.98027,64.72752],[20.98441,64.72184],[20.9795,64.72125],[20.97543,64.72133],[20.97086,64.72215],[20.96765,64.72346],[20.96517,64.72371],[20.96216,64.7235],[20.95885,64.72361],[20.94981,64.72485],[20.95137,64.73029],[20.95298,64.73159],[20.94508,64.73257],[20.94037,64.73393],[20.94255,64.73578],[20.94306,64.73696],[20.94112,64.74294],[20.94365,64.74311],[20.96074,64.74322],[20.96275,64.74123]]]}},{"type":"Feature","id":"2482R024","properties":{"code":"2482R024","name":"Ursviken-Örviken"},"geometry":{"type":"Polygon","coordinates":[[[21.14553,64.72588],[21.15038,64.72571],[21.15649,64.72466],[21.15914,64.72472],[21.16164,64.72456],[21.16402,64.7242],[21.16709,64.72341],[21.17177,64.72396],[21.17751,64.7237],[21.18067,64.72318],[21.18508,64.72185],[21.18741,64.7208],[21.18901,64.71956],[21.18973,64.7185],[21.18995,64.71705],[21.19435,64.71523],[21.19614,64.71403],[21.19702,64.71299],[21.19741,64.71183],[21.20007,64.71024],[21.20133,64.70822],[21.20381,64.70761],[21.20657,64.70651],[21.20807,64.70559],[21.20959,64.704],[21.21118,64.70301],[21.21239,64.70258],[21.21179,64.70055],[21.20586,64.69744],[21.20207,64.69387],[21.19822,64.6919],[21.19472,64.68856],[21.19728,64.68797],[21.20006,64.68693],[21.2015,64.68586],[21.20318,64.68385],[21.20387,64.68224],[21.20492,64.68136],[21.21138,64.67938],[21.21765,64.67655],[21.21937,64.67469],[21.21966,64.67164],[21.21939,64.67052],[21.21863,64.66945],[21.21713,64.66828],[21.21591,64.66654],[21.21468,64.66566],[21.2104,64.66347],[21.20766,64.66251],[21.20484,64.66187],[21.20014,64.66152],[21.19772,64.66164],[21.19441,64.66208],[21.19381,64.66182],[21.17335,64.66828],[21.14941,64.67321],[21.14866,64.67488],[21.14917,64.67658],[21.15097,64.67817],[21.15363,64.67947],[21.16472,64.69478],[21.16317,64.69657],[21.16243,64.69815],[21.16079,64.69993],[21.16048,64.70138],[21.16103,64.70278],[21.15914,64.70361],[21.15785,64.70447],[21.15766,64.70464],[21.15839,64.70484],[21.14821,64.70919],[21.14165,64.71029],[21.13673,64.7104],[21.13677,64.71027],[21.136,64.71024],[21.13483,64.71038],[21.12612,64.70994],[21.11933,64.70878],[21.11921,64.7175],[21.1208,64.71944],[21.12542,64.72307],[21.12819,64.72335],[21.13251,64.72649],[21.13352,64.72632],[21.13666,64.72668],[21.13998,64.7267],[21.14251,64.72647],[21.14553,64.72588]]]}}]}