{"type":"FeatureCollection","features":[{"type":"Feature","id":"2510R001","properties":{"code":"2510R001","name":"Jokkmokk centralort östra"},"geometry":{"type":"Polygon","coordinates":[[[19.81051,66.61817],[19.82231,66.61693],[19.82607,66.61612],[19.83076,66.61602],[19.8353,66.61534],[19.83797,66.61586],[19.84156,66.61619],[19.84463,66.61619],[19.84822,66.61586],[19.85434,66.61462],[19.85943,66.61308],[19.86204,66.61163],[19.86333,66.61006],[19.86703,66.61031],[19.87065,66.61018],[19.87407,66.60968],[19.87823,66.6086],[19.88076,66.60759],[19.88392,66.60582],[19.88508,66.60481],[19.88581,66.60342],[19.88565,66.60201],[19.88421,66.59903],[19.88147,66.59675],[19.8799,66.59581],[19.87632,66.59456],[19.87133,66.59376],[19.86655,66.59369],[19.86108,66.59433],[19.85716,66.59365],[19.8527,66.59348],[19.84648,66.59409],[19.84293,66.59381],[19.83857,66.59397],[19.83383,66.59487],[19.83055,66.59619],[19.82272,66.59657],[19.81917,66.59416],[19.81506,66.59276],[19.81004,66.59195],[19.80734,66.59185],[19.80407,66.592],[19.80509,66.59338],[19.81276,66.59914],[19.81503,66.60071],[19.82005,66.6032],[19.82498,66.60902],[19.8245,66.61104],[19.81051,66.61817]]]}},{"type":"Feature","id":"2510R002","properties":{"code":"2510R002","name":"Jokkmokk centralort västra"},"geometry":{"type":"Polygon","coordinates":[[[19.8103,66.61819],[19.8245,66.61104],[19.82498,66.60902],[19.82005,66.6032],[19.81503,66.60071],[19.81276,66.59914],[19.80509,66.59338],[19.80407,66.592],[19.80117,66.5924],[19.79645,66.59346],[19.79341,66.59458],[19.79122,66.59594],[19.78972,66.59763],[19.78955,66.59912],[19.78619,66.60044],[19.78356,66.60258],[19.7829,66.60432],[19.78098,66.60656],[19.78079,66.60801],[19.78223,66.61008],[19.78632,66.6133],[19.78915,66.61468],[19.79215,66.6155],[19.79666,66.61614],[19.80001,66.61725],[19.80238,66.61778],[19.80587,66.61818],[19.8103,66.61819]]]}},{"type":"Feature","id":"2510R003","properties":{"code":"2510R003","name":"Jokkmokk östra omland"},"geometry":{"type":"Polygon","coordinates":[[[20.44279,66.78713],[20.57424,66.75126],[20.63276,66.73601],[20.66426,66.72472],[20.76866,66.68804],[20.86312,66.65566],[20.96153,66.6225],[21.05422,66.51997],[21.17801,66.38364],[21.19493,66.36506],[21.19753,66.364],[21.19966,66.3623],[21.19954,66.36111],[21.19867,66.36095],[21.24317,66.3122],[21.24433,66.31215],[21.24637,66.31167],[21.2488,66.31031],[21.25094,66.30999],[21.25498,66.30854],[21.25698,66.30821],[21.25773,66.30763],[21.25769,66.30739],[21.25687,66.30778],[21.25529,66.3078],[21.25192,66.30917],[21.24676,66.30975],[21.24556,66.3096],[21.27413,66.27859],[21.23313,66.29591],[21.18261,66.3168],[21.14364,66.33242],[21.08811,66.35529],[20.99805,66.39264],[20.97089,66.38934],[20.89403,66.37697],[20.77221,66.35786],[20.71791,66.31325],[20.70347,66.31599],[20.70438,66.30919],[20.71268,66.30912],[20.60708,66.22268],[20.58035,66.20019],[20.52351,66.21126],[20.46321,66.24896],[20.30031,66.281],[20.26354,66.29108],[20.18062,66.31306],[20.16944,66.30709],[20.07183,66.32652],[20.07325,66.37897],[20.18612,66.4266],[20.08863,66.46175],[20.19793,66.4993],[20.20054,66.47862],[20.24045,66.47394],[20.2672,66.48913],[20.30272,66.49443],[20.29766,66.49765],[20.32682,66.50561],[20.29234,66.51771],[20.28455,66.52091],[20.27273,66.52344],[20.42431,66.61686],[20.42574,66.61935],[20.42689,66.61962],[20.42614,66.62006],[20.46165,66.68802],[20.4053,66.70429],[20.40256,66.70448],[20.40275,66.70472],[20.32423,66.72709],[20.28245,66.76799],[20.32378,66.78697],[20.42098,66.77952],[20.44279,66.78713]]]}},{"type":"Feature","id":"2510R004","properties":{"code":"2510R004","name":"Jokkmokk västra omland"},"geometry":{"type":"Polygon","coordinates":[[[16.73253,67.90578],[16.73813,67.9056],[16.73907,67.90526],[16.74178,67.905],[16.74191,67.9045],[16.7409,67.90376],[16.74312,67.90282],[16.74457,67.90181],[16.74751,67.90123],[16.75222,67.90087],[16.75375,67.90094],[16.75633,67.90132],[16.75677,67.90199],[16.75859,67.90216],[16.76257,67.90139],[16.76455,67.90054],[16.76874,67.9001],[16.77076,67.89921],[16.77408,67.89826],[16.77728,67.89867],[16.77933,67.89862],[16.78044,67.89937],[16.78202,67.8998],[16.7835,67.89979],[16.78602,67.89948],[16.79778,67.89529],[16.80249,67.89333],[16.80774,67.89197],[16.81151,67.8901],[16.81506,67.88959],[16.81865,67.88844],[16.82032,67.88838],[16.82366,67.88862],[16.82532,67.88827],[16.82788,67.88808],[16.83034,67.88721],[16.83257,67.88715],[16.83406,67.88747],[16.8352,67.88728],[16.83661,67.88692],[16.8367,67.8848],[16.83745,67.88442],[16.84781,67.88194],[16.8545,67.88094],[16.8621,67.88035],[16.86362,67.88006],[16.86719,67.87848],[16.87211,67.87588],[16.87722,67.87451],[16.89033,67.87036],[16.90284,67.86359],[16.90752,67.8626],[16.91263,67.8619],[16.9222,67.85887],[16.9252,67.85755],[16.92681,67.85725],[16.93179,67.85698],[16.93311,67.85647],[16.93443,67.85467],[16.94237,67.85296],[16.94554,67.85252],[16.9462,67.85221],[16.94971,67.85182],[16.95177,67.85098],[16.95607,67.85012],[16.96102,67.84864],[16.96275,67.84628],[16.96618,67.84508],[16.97814,67.84452],[16.98018,67.84426],[16.98201,67.84366],[16.98379,67.8413],[16.98734,67.8409],[16.99066,67.83997],[16.9952,67.83682],[16.99429,67.83641],[16.99381,67.83573],[17.01072,67.82559],[17.01422,67.82404],[17.0154,67.82395],[17.01769,67.82448],[17.01987,67.82439],[17.02428,67.82304],[17.02297,67.82108],[17.0233,67.82045],[17.02514,67.81966],[17.02903,67.81897],[17.03532,67.81705],[17.05418,67.81341],[17.05888,67.81342],[17.06045,67.81365],[17.06449,67.81329],[17.07251,67.81327],[17.07493,67.81303],[17.07621,67.81273],[17.07836,67.81058],[17.08578,67.80802],[17.09102,67.80262],[17.10611,67.80498],[17.1134,67.8041],[17.12034,67.80445],[17.1277,67.80423],[17.15426,67.80592],[17.2524,67.77444],[17.29018,67.74897],[17.29867,67.73932],[17.30024,67.73331],[17.3087,67.73082],[17.32981,67.72899],[17.36524,67.71778],[17.40569,67.71612],[17.43287,67.71407],[17.43408,67.6936],[17.45129,67.6763],[17.54682,67.66253],[17.55011,67.6607],[17.55384,67.65944],[17.55774,67.65874],[17.5785,67.6574],[17.59445,67.65102],[17.62877,67.64286],[17.7083,67.63549],[17.74853,67.63486],[17.82428,67.62154],[17.86152,67.61179],[17.90142,67.5868],[17.95822,67.5835],[17.96968,67.58603],[18.04129,67.57897],[18.10474,67.57305],[18.14592,67.56111],[18.15397,67.5567],[18.17506,67.54299],[18.19616,67.53312],[18.20115,67.53177],[18.20604,67.52626],[18.20858,67.52223],[18.25392,67.49913],[18.30877,67.48327],[18.31006,67.48275],[18.31038,67.48162],[18.30985,67.47921],[18.31077,67.47874],[18.32387,67.47625],[18.32523,67.47624],[18.3282,67.47972],[18.32981,67.48005],[18.33597,67.4806],[18.33988,67.48011],[18.36049,67.45779],[18.38949,67.44154],[18.41714,67.4328],[18.43754,67.41887],[18.48807,67.40278],[18.5059,67.40079],[18.57294,67.41044],[18.61827,67.40496],[18.63439,67.39686],[18.67129,67.39865],[18.68848,67.40107],[18.70353,67.40509],[18.78263,67.38562],[18.8783,67.35234],[18.89372,67.32826],[18.92463,67.30671],[18.9353,67.30635],[18.94142,67.30674],[18.94611,67.30649],[18.95426,67.30728],[18.95602,67.30725],[18.96445,67.30538],[18.96865,67.3049],[18.97425,67.30446],[18.98212,67.30468],[18.98593,67.30455],[18.98975,67.30404],[19.02802,67.29365],[19.03933,67.29264],[19.05282,67.29073],[19.08825,67.27977],[19.0898,67.27911],[19.27039,67.1779],[19.31301,67.15419],[19.51016,67.14563],[19.66209,67.0946],[19.78415,67.04373],[19.78608,67.04103],[19.787,67.04112],[19.78826,67.04043],[19.78684,67.04001],[19.8312,66.97531],[19.92457,66.94534],[20.28985,66.82929],[20.44279,66.78713],[20.42098,66.77952],[20.32378,66.78697],[20.28245,66.76799],[20.32423,66.72709],[20.40275,66.70472],[20.40256,66.70448],[20.4053,66.70429],[20.46165,66.68802],[20.42614,66.62006],[20.42689,66.61962],[20.42574,66.61935],[20.42431,66.61686],[20.27273,66.52344],[20.28455,66.52091],[20.29234,66.51771],[20.32682,66.50561],[20.29766,66.49765],[20.30272,66.49443],[20.2672,66.48913],[20.24045,66.47394],[20.20054,66.47862],[20.19793,66.4993],[20.08863,66.46175],[20.18612,66.4266],[20.07325,66.37897],[20.07183,66.32652],[20.16944,66.30709],[20.18062,66.31306],[20.26354,66.29108],[20.30031,66.281],[20.46321,66.24896],[20.52351,66.21126],[20.58035,66.20019],[20.47494,66.11056],[20.40432,66.0495],[20.36229,66.01454],[20.29713,65.96982],[20.22826,65.92425],[20.20493,65.90918],[20.20264,65.90939],[20.20076,65.90932],[20.19709,65.91006],[20.19441,65.91176],[20.19445,65.91274],[20.19758,65.91487],[20.19783,65.91553],[20.19738,65.91595],[20.19308,65.91702],[20.19303,65.91735],[20.19342,65.91752],[20.19546,65.91773],[20.19523,65.9186],[20.19227,65.91946],[20.18621,65.91966],[20.17862,65.92023],[20.17479,65.92106],[20.17424,65.92144],[20.17439,65.92174],[20.17527,65.92208],[20.17921,65.9225],[20.18003,65.9229],[20.18005,65.92324],[20.17976,65.92353],[20.17891,65.92357],[20.1768,65.9232],[20.17459,65.9233],[20.17024,65.92607],[20.16985,65.92739],[20.16854,65.92794],[20.16329,65.92846],[20.15555,65.9272],[20.15371,65.92704],[20.15208,65.92752],[20.15055,65.92858],[20.14608,65.92927],[20.14553,65.93005],[20.1432,65.93082],[20.14155,65.9306],[20.13853,65.92973],[20.13772,65.92936],[20.13702,65.9285],[20.13507,65.92811],[20.1333,65.92854],[20.1313,65.92985],[20.12945,65.93015],[20.12645,65.93027],[20.12395,65.93078],[20.12144,65.9319],[20.11763,65.93309],[20.11635,65.93401],[20.11488,65.93438],[20.10968,65.93521],[20.1067,65.93506],[20.0976,65.93566],[20.09662,65.93644],[20.08954,65.93871],[20.08619,65.93922],[20.08332,65.93943],[20.07964,65.94018],[20.0756,65.94135],[20.07139,65.94176],[20.06809,65.94136],[20.06614,65.94169],[20.0639,65.94128],[20.05619,65.94197],[20.05455,65.94225],[20.05348,65.94412],[20.05363,65.94534],[20.05338,65.94574],[20.05211,65.94636],[20.049,65.94705],[20.04706,65.94717],[20.04333,65.94699],[20.04114,65.94722],[20.04017,65.94869],[20.03747,65.94963],[20.03608,65.95053],[20.03569,65.95104],[20.03589,65.95226],[20.03553,65.95297],[20.03488,65.95382],[20.03359,65.95434],[20.03236,65.95614],[20.03342,65.95794],[20.03303,65.96087],[20.03154,65.96274],[20.02768,65.96436],[20.02709,65.96621],[20.0243,65.96823],[20.02258,65.96998],[20.01988,65.97066],[20.01611,65.97219],[20.01391,65.97265],[20.01037,65.97386],[20.00848,65.97537],[19.9969,65.97964],[19.99487,65.9801],[19.99181,65.98006],[19.99029,65.98111],[19.98562,65.98337],[19.98307,65.98403],[19.98223,65.98451],[19.97986,65.9864],[19.97955,65.98758],[19.97867,65.98852],[19.97245,65.99198],[19.96447,65.99349],[19.96271,65.9934],[19.96138,65.99356],[19.9582,65.99486],[19.95018,65.99721],[19.9492,65.99784],[19.94671,65.9982],[19.94453,65.99882],[19.93674,66.00186],[19.93694,66.00356],[19.93154,66.00675],[19.92481,66.00883],[19.92117,66.00952],[19.91934,66.01005],[19.91483,66.01176],[19.91025,66.01282],[19.90815,66.01281],[19.90665,66.01302],[19.90524,66.01376],[19.90423,66.01535],[19.90266,66.01574],[19.894,66.01647],[19.88909,66.01719],[19.8869,66.01662],[19.87996,66.01539],[19.87604,66.015],[19.86771,66.0146],[19.86464,66.01465],[19.86069,66.01432],[19.85331,66.01459],[19.85005,66.0145],[19.84647,66.01401],[19.84449,66.01402],[19.83963,66.01315],[19.83359,66.01278],[19.832,66.01287],[19.82173,66.01246],[19.81233,66.01329],[19.80927,66.01481],[19.80636,66.0158],[19.80279,66.01672],[19.79655,66.01727],[19.79388,66.01844],[19.7847,66.02109],[19.78182,66.02253],[19.77776,66.0232],[19.77666,66.02373],[19.77306,66.02473],[19.76887,66.02505],[19.7666,66.02496],[19.75559,66.02549],[19.74816,66.02737],[19.74482,66.02856],[19.7405,66.02945],[19.73888,66.02967],[19.73626,66.02963],[19.73402,66.02994],[19.72904,66.03132],[19.72318,66.03222],[19.7177,66.03364],[19.71459,66.03422],[19.71125,66.034],[19.70469,66.03495],[19.69912,66.03622],[19.6931,66.03788],[19.68821,66.03886],[19.68174,66.04146],[19.67601,66.0431],[19.67337,66.04322],[19.66786,66.04413],[19.65762,66.04446],[19.65435,66.04502],[19.65266,66.04477],[19.64865,66.04464],[19.64747,66.04468],[19.64419,66.04536],[19.63514,66.04546],[19.63115,66.0446],[19.63058,66.04399],[19.62985,66.04386],[19.62771,66.04373],[19.62577,66.04426],[19.6171,66.04291],[19.61019,66.04257],[19.60681,66.04149],[19.59024,66.04062],[19.58508,66.03952],[19.57951,66.04249],[19.57326,66.04387],[19.52654,66.04112],[19.5135,66.04145],[19.50095,66.04205],[19.49697,66.04158],[19.49413,66.04091],[19.49348,66.0396],[19.49211,66.03855],[19.48708,66.03611],[19.48446,66.03519],[19.48296,66.03509],[19.4815,66.03559],[19.47916,66.03604],[19.47795,66.03687],[19.47354,66.03869],[19.46744,66.04048],[19.46532,66.04255],[19.46447,66.04292],[19.45797,66.04316],[19.45495,66.04307],[19.45213,66.04357],[19.44922,66.04369],[19.44565,66.04466],[19.44024,66.04487],[19.43764,66.04538],[19.43405,66.04574],[19.42983,66.04556],[19.42784,66.04577],[19.42254,66.04699],[19.41892,66.04742],[19.4139,66.0484],[19.41161,66.04987],[19.407,66.05179],[19.40648,66.0523],[19.39916,66.05464],[19.38323,66.05669],[19.37821,66.05933],[19.37875,66.06127],[19.37813,66.06341],[19.37838,66.06437],[19.37518,66.06804],[19.3743,66.06834],[19.37239,66.06808],[19.3713,66.0684],[19.36951,66.0695],[19.36763,66.06983],[19.36634,66.06984],[19.36447,66.0694],[19.36098,66.07002],[19.35798,66.06986],[19.35629,66.07028],[19.3515,66.07336],[19.35016,66.07471],[19.34799,66.07624],[19.34779,66.0768],[19.34609,66.0782],[19.34624,66.07965],[19.34532,66.08047],[19.34248,66.08169],[19.34161,66.08229],[19.32654,66.08642],[19.32505,66.08647],[19.32228,66.08576],[19.31565,66.08649],[19.31282,66.08771],[19.29599,66.0908],[19.28039,66.09331],[19.2787,66.09394],[19.27831,66.09495],[19.27577,66.09551],[19.27367,66.09558],[19.26844,66.0952],[19.26408,66.09541],[19.26091,66.09537],[19.25918,66.09519],[19.25782,66.09451],[19.25251,66.09408],[19.24935,66.09412],[19.24769,66.09388],[19.24215,66.09442],[19.23945,66.09503],[19.23583,66.09438],[19.23317,66.09337],[19.23034,66.0931],[19.22915,66.09323],[19.22509,66.09424],[19.22451,66.09458],[19.22503,66.09533],[19.22324,66.09574],[19.21954,66.09578],[19.21824,66.0953],[19.2125,66.09507],[19.21031,66.09468],[19.19885,66.09567],[19.1949,66.09661],[19.19425,66.09725],[19.19391,66.0986],[19.19187,66.0997],[19.1895,66.10047],[19.18536,66.101],[19.18127,66.10092],[19.17888,66.10051],[19.17761,66.09993],[19.17626,66.09989],[19.1745,66.09946],[19.17061,66.09904],[19.16852,66.10025],[19.16654,66.10064],[19.16705,66.10231],[19.16642,66.10259],[19.16025,66.10407],[19.15546,66.1045],[19.15268,66.10556],[19.14881,66.10633],[19.14704,66.10697],[19.14547,66.10715],[19.14326,66.10782],[19.14149,66.10886],[19.13827,66.10921],[19.1349,66.10982],[19.13057,66.11173],[19.12901,66.11319],[19.12464,66.11489],[19.11328,66.11862],[19.10691,66.12261],[19.11581,66.12988],[19.07666,66.14531],[19.03235,66.1755],[18.7392,66.3011],[18.78343,66.39294],[18.69145,66.51401],[18.3123,66.604],[18.21944,66.63045],[18.13756,66.65065],[18.06684,66.66207],[17.92569,66.68328],[17.64018,66.72514],[17.40486,66.85494],[17.26202,66.91506],[17.06424,66.99851],[16.95282,67.0273],[16.71344,67.08915],[16.54591,67.14428],[16.40248,67.19042],[16.4041,67.20497],[16.32998,67.26205],[16.17996,67.37122],[16.08983,67.43528],[16.158,67.51916],[16.2856,67.52799],[16.40757,67.53403],[16.49488,67.59446],[16.55628,67.64719],[16.58052,67.68001],[16.63792,67.76701],[16.67893,67.82442],[16.73253,67.90578]],[[19.80858,66.61825],[19.80581,66.61818],[19.80238,66.61778],[19.80001,66.61725],[19.79666,66.61614],[19.79215,66.6155],[19.78915,66.61468],[19.78628,66.61327],[19.78223,66.61008],[19.78104,66.60871],[19.78097,66.60659],[19.7829,66.60432],[19.78384,66.60225],[19.78619,66.60044],[19.78955,66.59912],[19.78972,66.59763],[19.7908,66.59627],[19.79285,66.59487],[19.79533,66.59381],[19.80203,66.59225],[19.80549,66.5919],[19.80827,66.59186],[19.81265,66.59226],[19.81727,66.59339],[19.81973,66.59446],[19.82272,66.59657],[19.83055,66.59619],[19.83383,66.59487],[19.83857,66.59397],[19.84293,66.59381],[19.84648,66.59409],[19.8527,66.59348],[19.85716,66.59365],[19.86108,66.59433],[19.86655,66.59369],[19.87133,66.59376],[19.87632,66.59456],[19.8799,66.59581],[19.88147,66.59675],[19.88421,66.59903],[19.88565,66.60201],[19.88581,66.60342],[19.88508,66.60481],[19.88392,66.60582],[19.88076,66.60759],[19.87823,66.6086],[19.87407,66.60968],[19.87065,66.61018],[19.86703,66.61031],[19.86333,66.61006],[19.86204,66.61163],[19.85943,66.61308],[19.85434,66.61462],[19.84822,66.61586],[19.84463,66.61619],[19.84156,66.61619],[19.83797,66.61586],[19.8353,66.61534],[19.83076,66.61602],[19.82607,66.61612],[19.82318,66.61679],[19.81985,66.61724],[19.80858,66.61825]]]}}]}