{"type":"FeatureCollection","features":[{"type":"Feature","id":"2513R001","properties":{"code":"2513R001","name":"Överkalix omland"},"geometry":{"type":"Polygon","coordinates":[[[22.13422,66.8432],[22.38879,66.7922],[22.41733,66.79445],[22.41982,66.80791],[22.42706,66.80861],[22.46977,66.77583],[22.66163,66.73579],[22.68169,66.73135],[22.68307,66.73119],[22.68303,66.73105],[22.78645,66.70795],[22.76973,66.71828],[22.78683,66.72155],[22.80959,66.70268],[22.91758,66.6778],[22.93348,66.65958],[22.94612,66.66153],[22.93579,66.6737],[22.99954,66.65899],[23.02796,66.66091],[23.0401,66.65292],[23.05376,66.65382],[23.06331,66.61967],[23.08283,66.54129],[23.09341,66.50208],[23.1032,66.47201],[23.10489,66.46538],[23.11419,66.44933],[23.11226,66.4471],[23.11243,66.44449],[23.10964,66.44421],[23.10939,66.44397],[23.11033,66.44289],[23.10931,66.44128],[23.11161,66.44022],[23.11229,66.43963],[23.1128,66.43863],[23.11291,66.43701],[23.11339,66.43656],[23.11472,66.43615],[23.11516,66.43553],[23.11417,66.43466],[23.11483,66.43393],[23.11615,66.43378],[23.11593,66.43267],[23.11822,66.43063],[23.11701,66.42864],[23.11629,66.4284],[23.11563,66.42646],[23.1158,66.42585],[23.11654,66.42536],[23.11819,66.42498],[23.11783,66.42362],[23.11851,66.42253],[23.11796,66.42168],[23.12047,66.41979],[23.12032,66.41948],[23.1196,66.41926],[23.11716,66.41905],[23.11599,66.41875],[23.11425,66.41711],[23.1129,66.41647],[23.11222,66.41549],[23.11235,66.41394],[23.11419,66.4128],[23.11444,66.41175],[23.11338,66.4111],[23.11142,66.41086],[23.11124,66.41045],[23.11405,66.40948],[23.11501,66.40863],[23.11477,66.40755],[23.11217,66.40611],[23.11135,66.40414],[23.11382,66.40164],[23.11512,66.40098],[23.1614,66.363],[23.19332,66.36875],[23.21694,66.34707],[23.19981,66.3439],[23.13807,66.33348],[23.17585,66.2886],[23.18717,66.28605],[23.18825,66.28654],[23.18903,66.28664],[23.1927,66.28543],[23.1932,66.28538],[23.19473,66.28581],[23.1958,66.28569],[23.19694,66.28524],[23.20008,66.28545],[23.1973,66.27927],[23.19788,66.27823],[23.20057,66.27729],[23.20443,66.27533],[23.2038,66.27495],[23.19923,66.27452],[23.19881,66.27413],[23.19869,66.27259],[23.21654,66.25306],[23.21551,66.24501],[23.21884,66.24303],[23.22366,66.24124],[23.22688,66.24102],[23.23447,66.23977],[23.24259,66.2298],[23.24003,66.22763],[23.23984,66.22603],[23.23838,66.18809],[23.22698,66.16126],[23.22588,66.15994],[23.21813,66.16005],[23.21443,66.16438],[23.19122,66.1646],[23.19159,66.16273],[23.19616,66.16054],[23.19476,66.16002],[23.18465,66.16471],[22.9749,66.16749],[22.97477,66.16407],[22.98102,66.14589],[22.95589,66.13581],[22.93709,66.14161],[22.93775,66.14084],[22.93722,66.1407],[22.93623,66.14083],[22.93543,66.14174],[22.93557,66.14207],[22.90157,66.1525],[22.91896,66.16823],[22.81314,66.16979],[22.63079,66.21549],[22.53508,66.2388],[22.40937,66.17277],[22.3871,66.16966],[22.38313,66.16727],[22.36657,66.15839],[22.37369,66.15445],[22.33804,66.13621],[22.19475,66.24678],[22.10066,66.31763],[22.06603,66.343],[21.99065,66.39915],[21.94666,66.43231],[22.10969,66.45651],[22.11171,66.48645],[22.12203,66.59984],[22.11794,66.60013],[22.11642,66.60004],[22.1145,66.60046],[22.11226,66.60008],[22.11214,66.60036],[22.11276,66.60228],[22.11423,66.60416],[22.11395,66.60499],[22.11453,66.60508],[22.1166,66.60464],[22.11799,66.60503],[22.12098,66.60428],[22.12224,66.6037],[22.12247,66.60571],[21.97078,66.66927],[22.04422,66.73198],[22.10705,66.80965],[22.11011,66.80958],[22.11336,66.80887],[22.11757,66.80849],[22.12008,66.80712],[22.12159,66.8068],[22.12611,66.80696],[22.12814,66.80669],[22.13137,66.80563],[22.13344,66.80365],[22.13562,66.80322],[22.1379,66.80308],[22.14152,66.80356],[22.14306,66.80412],[22.14325,66.80496],[22.14273,66.80576],[22.14173,66.80607],[22.13922,66.80639],[22.13853,66.80691],[22.14051,66.80833],[22.14424,66.80977],[22.14732,66.81005],[22.15053,66.80991],[22.155,66.81097],[22.15679,66.81112],[22.1581,66.81102],[22.15862,66.81145],[22.16176,66.81185],[22.16306,66.81185],[22.16315,66.81215],[22.1639,66.81225],[22.16367,66.81276],[22.16193,66.81385],[22.16206,66.81437],[22.16166,66.81453],[22.15683,66.81507],[22.15467,66.81555],[22.15375,66.81603],[22.1524,66.81777],[22.14699,66.82221],[22.14661,66.82331],[22.14432,66.82478],[22.14309,66.82708],[22.1422,66.82786],[22.14159,66.8282],[22.13693,66.82702],[22.12671,66.8339],[22.13422,66.8432]],[[22.82412,66.35568],[22.82052,66.35561],[22.81651,66.35506],[22.81333,66.35521],[22.8099,66.3551],[22.80731,66.35481],[22.80419,66.35414],[22.80155,66.35315],[22.79927,66.35162],[22.79802,66.34996],[22.79784,66.348],[22.79917,66.34618],[22.80162,66.34473],[22.80153,66.34274],[22.80245,66.34134],[22.82452,66.33345],[22.82429,66.3182],[22.81547,66.31023],[22.81569,66.30883],[22.81664,66.30744],[22.8208,66.30481],[22.82482,66.3035],[22.82975,66.30288],[22.84038,66.30269],[22.84384,66.30308],[22.84689,66.30379],[22.84945,66.30481],[22.85125,66.30602],[22.85249,66.30732],[22.85299,66.30838],[22.8525,66.31217],[22.85319,66.3144],[22.85666,66.31375],[22.86106,66.3135],[22.86741,66.31382],[22.87155,66.31446],[22.875,66.31559],[22.87762,66.31703],[22.879,66.31872],[22.87911,66.32017],[22.87791,66.3223],[22.87528,66.32409],[22.8694,66.32677],[22.8618,66.3287],[22.86568,66.3297],[22.86807,66.33078],[22.87014,66.3323],[22.87126,66.33413],[22.87279,66.33548],[22.87327,66.33649],[22.87316,66.33786],[22.87234,66.33906],[22.87056,66.34054],[22.86716,66.34206],[22.86421,66.34275],[22.86126,66.34309],[22.85699,66.34491],[22.85408,66.34579],[22.84759,66.34676],[22.8421,66.34679],[22.84134,66.34836],[22.83938,66.35041],[22.8341,66.35355],[22.83157,66.35454],[22.82929,66.35511],[22.82412,66.35568]]]}},{"type":"Feature","id":"2513R002","properties":{"code":"2513R002","name":"Överkalix tätort"},"geometry":{"type":"Polygon","coordinates":[[[22.82504,66.35564],[22.83004,66.35495],[22.8341,66.35355],[22.83938,66.35041],[22.84134,66.34836],[22.8421,66.34679],[22.84759,66.34676],[22.85408,66.34579],[22.85699,66.34491],[22.86126,66.34309],[22.86421,66.34275],[22.86716,66.34206],[22.87056,66.34054],[22.87234,66.33906],[22.87316,66.33786],[22.87327,66.33649],[22.87279,66.33548],[22.87126,66.33413],[22.87014,66.3323],[22.86807,66.33078],[22.86568,66.3297],[22.8618,66.3287],[22.8694,66.32677],[22.87528,66.32409],[22.87791,66.3223],[22.87911,66.32017],[22.879,66.31872],[22.87762,66.31703],[22.875,66.31559],[22.87155,66.31446],[22.86741,66.31382],[22.86106,66.3135],[22.85666,66.31375],[22.85319,66.3144],[22.8525,66.31217],[22.85299,66.30838],[22.85249,66.30732],[22.85125,66.30602],[22.84945,66.30481],[22.84689,66.30379],[22.84384,66.30308],[22.84038,66.30269],[22.82975,66.30288],[22.82482,66.3035],[22.8208,66.30481],[22.81664,66.30744],[22.81569,66.30883],[22.81547,66.31023],[22.82429,66.3182],[22.82452,66.33345],[22.80245,66.34134],[22.80153,66.34274],[22.80162,66.34473],[22.79917,66.34618],[22.79784,66.348],[22.79802,66.34996],[22.79927,66.35162],[22.80155,66.35315],[22.80419,66.35414],[22.80731,66.35481],[22.8099,66.3551],[22.81333,66.35521],[22.81651,66.35506],[22.82052,66.35561],[22.82504,66.35564]]]}}]}