{"type":"FeatureCollection","features":[{"type":"Feature","id":"2518R004","properties":{"code":"2518R004","name":"Övertorneå-Södra"},"geometry":{"type":"Polygon","coordinates":[[[23.30116,66.45634],[23.31567,66.46047],[23.30886,66.46394],[23.38712,66.468],[23.39175,66.44891],[23.43599,66.45112],[23.4837,66.4538],[23.48442,66.45146],[23.49499,66.4449],[23.4968,66.44209],[23.50003,66.43986],[23.50438,66.43857],[23.51447,66.43372],[23.51918,66.43234],[23.53233,66.42668],[23.53651,66.42625],[23.54015,66.42522],[23.54554,66.42274],[23.54886,66.42158],[23.55314,66.42086],[23.55641,66.42073],[23.56401,66.42094],[23.57018,66.41978],[23.57448,66.41824],[23.57839,66.41468],[23.5829,66.41227],[23.59596,66.40748],[23.6534,66.40944],[23.65947,66.41011],[23.66046,66.40755],[23.66656,66.39923],[23.66834,66.39759],[23.66388,66.39831],[23.6577,66.40013],[23.65041,66.40115],[23.64427,66.40141],[23.6403,66.40122],[23.63337,66.40138],[23.62962,66.40119],[23.62533,66.40066],[23.62165,66.39971],[23.61865,66.3984],[23.6165,66.39667],[23.61577,66.39467],[23.61228,66.39338],[23.60879,66.39116],[23.60233,66.38907],[23.5982,66.38712],[23.59634,66.38547],[23.59588,66.38369],[23.59682,66.38195],[23.59906,66.38041],[23.60351,66.37863],[23.60748,66.37782],[23.6101,66.37759],[23.61364,66.37759],[23.61713,66.37796],[23.62078,66.37872],[23.62406,66.37832],[23.6276,66.37823],[23.63032,66.37841],[23.63345,66.37892],[23.6359,66.37633],[23.63643,66.37472],[23.63764,66.37345],[23.63769,66.37219],[23.63828,66.3711],[23.6403,66.36948],[23.64295,66.36834],[23.64682,66.36743],[23.65061,66.36704],[23.65441,66.36706],[23.65794,66.36743],[23.66113,66.36814],[23.66397,66.36921],[23.6667,66.37077],[23.66792,66.37207],[23.66829,66.37344],[23.66641,66.37842],[23.6694,66.3791],[23.67195,66.38009],[23.67384,66.38125],[23.67517,66.3825],[23.67847,66.38397],[23.67989,66.38523],[23.68047,66.38658],[23.68069,66.39049],[23.67995,66.39229],[23.67774,66.39464],[23.68128,66.39402],[23.68392,66.39312],[23.68693,66.39075],[23.68871,66.38854],[23.68922,66.38742],[23.68916,66.38627],[23.68694,66.38093],[23.68563,66.37895],[23.68605,66.37777],[23.68579,66.37721],[23.682,66.37482],[23.6771,66.37079],[23.6684,66.36071],[23.65774,66.3531],[23.65659,66.35197],[23.65611,66.35088],[23.65761,66.34694],[23.65784,66.34065],[23.65829,66.33928],[23.6595,66.33789],[23.6599,66.33544],[23.65905,66.3319],[23.65913,66.32859],[23.65777,66.32473],[23.65785,66.32093],[23.65726,66.31781],[23.65626,66.31504],[23.6548,66.31274],[23.65145,66.30909],[23.64817,66.30643],[23.64645,66.30423],[23.6456,66.30141],[23.64745,66.29892],[23.65275,66.29576],[23.65575,66.29331],[23.65856,66.2893],[23.66103,66.28793],[23.66425,66.28552],[23.66734,66.27865],[23.67201,66.27456],[23.67314,66.27294],[23.67309,66.27174],[23.67124,66.26848],[23.6701,66.26416],[23.66686,66.261],[23.66688,66.2603],[23.66744,66.25964],[23.67075,66.25811],[23.67455,66.25519],[23.67633,66.25428],[23.67826,66.25373],[23.68607,66.25232],[23.69055,66.25042],[23.6994,66.24445],[23.7011,66.24294],[23.7014,66.24216],[23.70096,66.24103],[23.69429,66.23371],[23.6933,66.23086],[23.69423,66.22851],[23.69851,66.22476],[23.7015,66.22134],[23.70401,66.21951],[23.70681,66.21797],[23.71105,66.21669],[23.71908,66.21575],[23.72113,66.21538],[23.7239,66.21454],[23.72619,66.21311],[23.73038,66.20938],[23.73322,66.20623],[23.73391,66.20454],[23.73299,66.20335],[23.72851,66.20134],[23.72657,66.19995],[23.72609,66.19925],[23.72602,66.19758],[23.72657,66.19623],[23.72711,66.19568],[23.72895,66.19482],[23.73248,66.19382],[23.73796,66.1929],[23.74214,66.1926],[23.74722,66.19261],[23.75819,66.1913],[23.78292,66.1868],[23.79604,66.18252],[23.80318,66.17987],[23.80759,66.17858],[23.81672,66.17649],[23.82244,66.17285],[23.82729,66.17169],[23.83112,66.17038],[23.83307,66.17015],[23.83614,66.17022],[23.83855,66.17044],[23.84235,66.17109],[23.84793,66.17115],[23.85145,66.17077],[23.85315,66.17076],[23.85518,66.171],[23.85672,66.17159],[23.85779,66.1717],[23.85882,66.1715],[23.85979,66.17024],[23.86221,66.1688],[23.86507,66.16605],[23.86653,66.16535],[23.86808,66.1653],[23.87136,66.16568],[23.87382,66.16557],[23.87884,66.16585],[23.8791,66.16523],[23.8579,66.16237],[23.75005,66.13933],[23.77473,66.11268],[23.68448,66.09845],[23.68535,66.09725],[23.68524,66.09667],[23.68702,66.09574],[23.68718,66.09506],[23.6881,66.09474],[23.68878,66.09367],[23.691,66.09264],[23.69254,66.09035],[23.69882,66.09068],[23.69935,66.09035],[23.70166,66.09065],[23.70223,66.09017],[23.6923,66.08874],[23.69002,66.0925],[23.68815,66.09359],[23.68671,66.09492],[23.68628,66.09581],[23.68445,66.09647],[23.68465,66.09725],[23.68392,66.09837],[23.68303,66.09822],[23.66581,66.11576],[23.66424,66.11643],[23.66224,66.11807],[23.66088,66.11879],[23.66009,66.11881],[23.6596,66.11969],[23.60013,66.10655],[23.60566,66.10275],[23.60364,66.10205],[23.59908,66.10631],[23.57192,66.10024],[23.57791,66.09588],[23.56041,66.09163],[23.55392,66.09622],[23.54643,66.09455],[23.54857,66.09287],[23.55085,66.08984],[23.55494,66.08842],[23.55765,66.08827],[23.55757,66.08798],[23.55062,66.08791],[23.547,66.08901],[23.54906,66.08691],[23.53316,66.08427],[23.52677,66.09019],[23.42235,66.06681],[23.41946,66.06828],[23.41843,66.06803],[23.42083,66.06647],[23.38658,66.05888],[23.3867,66.06045],[23.38717,66.06098],[23.38613,66.06098],[23.38572,66.05868],[23.3793,66.05722],[23.37958,66.05544],[23.37812,66.05516],[23.3777,66.05688],[23.35853,66.05256],[23.30529,66.06871],[23.30506,66.06912],[23.30455,66.06893],[23.30266,66.0695],[23.30321,66.06957],[23.30255,66.07041],[23.30164,66.07042],[23.30144,66.06987],[23.29866,66.0707],[23.29841,66.07104],[23.29882,66.07132],[23.30245,66.07128],[23.30286,66.07139],[23.30276,66.07187],[23.30356,66.07205],[23.29783,66.07208],[23.29722,66.07177],[23.297,66.07124],[23.29416,66.07211],[23.29014,66.07216],[23.29397,66.07324],[23.29368,66.07347],[23.28887,66.07216],[23.27646,66.07224],[23.26063,66.07954],[23.26486,66.07897],[23.26653,66.07907],[23.26824,66.07966],[23.27647,66.07924],[23.27636,66.07956],[23.27972,66.07971],[23.28067,66.08115],[23.27913,66.08164],[23.27892,66.08049],[23.27703,66.08032],[23.27289,66.0806],[23.27148,66.08305],[23.26834,66.08287],[23.26582,66.08414],[23.26352,66.08364],[23.26712,66.081],[23.27031,66.08087],[23.27068,66.08042],[23.26762,66.08018],[23.26651,66.07943],[23.26129,66.07998],[23.26007,66.08089],[23.25248,66.08404],[23.25063,66.08414],[23.20392,66.10556],[23.2117,66.12434],[23.21284,66.12496],[23.21266,66.12579],[23.21193,66.12642],[23.21264,66.12656],[23.2136,66.12876],[23.21312,66.129],[23.21373,66.12917],[23.21421,66.13043],[23.21275,66.1307],[23.21306,66.13094],[23.21444,66.13081],[23.21807,66.13967],[23.2158,66.13939],[23.21453,66.13903],[23.21457,66.13865],[23.2136,66.13862],[23.2134,66.13898],[23.21827,66.14012],[23.22633,66.15939],[23.22518,66.15879],[23.22698,66.16126],[23.23838,66.18809],[23.23984,66.22603],[23.24003,66.22763],[23.24259,66.2298],[23.23447,66.23977],[23.22688,66.24102],[23.22366,66.24124],[23.21884,66.24303],[23.21551,66.24501],[23.21654,66.25306],[23.19869,66.27259],[23.19881,66.27413],[23.19923,66.27452],[23.2038,66.27495],[23.20443,66.27533],[23.20057,66.27729],[23.19788,66.27823],[23.1973,66.27927],[23.20008,66.28545],[23.19694,66.28524],[23.1958,66.28569],[23.19473,66.28581],[23.1932,66.28538],[23.1927,66.28543],[23.18903,66.28664],[23.18825,66.28654],[23.18717,66.28605],[23.17585,66.2886],[23.13807,66.33348],[23.19981,66.3439],[23.21694,66.34707],[23.19332,66.36875],[23.1614,66.363],[23.11512,66.40098],[23.11382,66.40164],[23.11135,66.40414],[23.11217,66.40611],[23.11477,66.40755],[23.11501,66.40863],[23.11405,66.40948],[23.11124,66.41045],[23.11142,66.41086],[23.11338,66.4111],[23.11444,66.41175],[23.11419,66.4128],[23.11235,66.41394],[23.11222,66.41549],[23.1129,66.41647],[23.11425,66.41711],[23.11599,66.41875],[23.11716,66.41905],[23.1196,66.41926],[23.12032,66.41948],[23.12047,66.41979],[23.11796,66.42168],[23.11851,66.42253],[23.11783,66.42362],[23.11819,66.42498],[23.11654,66.42536],[23.1158,66.42585],[23.11563,66.42646],[23.11629,66.4284],[23.11701,66.42864],[23.11822,66.43063],[23.11593,66.43267],[23.11615,66.43378],[23.11483,66.43393],[23.11417,66.43466],[23.11516,66.43553],[23.11472,66.43615],[23.11339,66.43656],[23.11291,66.43701],[23.1128,66.43863],[23.11229,66.43963],[23.11161,66.44022],[23.10934,66.44117],[23.11033,66.44289],[23.10939,66.44397],[23.10964,66.44421],[23.11243,66.44449],[23.11226,66.4471],[23.11419,66.44933],[23.10489,66.46538],[23.10102,66.47886],[23.12183,66.47987],[23.12429,66.47515],[23.24869,66.48215],[23.30116,66.45634]]]}},{"type":"Feature","id":"2518R001","properties":{"code":"2518R001","name":"Övertorneå centralort"},"geometry":{"type":"Polygon","coordinates":[[[23.65125,66.40108],[23.6577,66.40013],[23.66388,66.39831],[23.66834,66.39759],[23.67112,66.39632],[23.67471,66.39528],[23.67774,66.39464],[23.67995,66.39229],[23.68074,66.39014],[23.6804,66.38624],[23.67929,66.38459],[23.67744,66.38339],[23.67517,66.3825],[23.67384,66.38125],[23.67195,66.38009],[23.6694,66.3791],[23.66641,66.37842],[23.66829,66.37347],[23.66809,66.3724],[23.66708,66.37108],[23.66397,66.36921],[23.66113,66.36814],[23.65714,66.36731],[23.65245,66.367],[23.64867,66.36719],[23.64527,66.36772],[23.64213,66.36864],[23.63982,66.36977],[23.63799,66.37152],[23.63764,66.37345],[23.63643,66.37472],[23.63557,66.37682],[23.63345,66.37892],[23.63032,66.37841],[23.6276,66.37823],[23.62406,66.37832],[23.62078,66.37872],[23.61713,66.37796],[23.61364,66.37759],[23.6101,66.37759],[23.60748,66.37782],[23.60283,66.37884],[23.59854,66.38068],[23.59651,66.3823],[23.59586,66.38406],[23.59661,66.38582],[23.5982,66.38712],[23.60233,66.38907],[23.60879,66.39116],[23.61228,66.39338],[23.61577,66.39467],[23.61604,66.39598],[23.61747,66.39758],[23.61972,66.39897],[23.6223,66.39992],[23.62618,66.4008],[23.63252,66.40136],[23.6403,66.40122],[23.64427,66.40141],[23.65125,66.40108]]]}},{"type":"Feature","id":"2518R002","properties":{"code":"2518R002","name":"Övertorneå-Centrala"},"geometry":{"type":"Polygon","coordinates":[[[23.2177,66.67352],[23.41951,66.68568],[23.48869,66.67857],[23.51638,66.68032],[23.50822,66.66619],[23.4986,66.65175],[23.50249,66.64172],[23.54375,66.64178],[23.62011,66.62652],[23.67752,66.6462],[23.73799,66.65987],[23.75784,66.63681],[23.87011,66.62943],[23.87109,66.62864],[23.87234,66.62809],[23.87543,66.62488],[23.87768,66.6203],[23.8791,66.61936],[23.88345,66.61759],[23.88443,66.61692],[23.8851,66.61571],[23.88487,66.61353],[23.88393,66.61135],[23.88122,66.60791],[23.87659,66.60388],[23.87601,66.60206],[23.87603,66.60004],[23.87727,66.59683],[23.87572,66.59363],[23.87604,66.58903],[23.87508,66.58693],[23.87557,66.58621],[23.87776,66.58478],[23.87831,66.58379],[23.8782,66.58286],[23.87697,66.58169],[23.87627,66.57934],[23.8748,66.57812],[23.87459,66.57621],[23.87401,66.57533],[23.87106,66.57271],[23.864,66.5692],[23.86266,66.56812],[23.86164,66.56637],[23.86091,66.56269],[23.85824,66.5598],[23.85799,66.55788],[23.85664,66.5569],[23.85291,66.55582],[23.8489,66.55531],[23.8397,66.55503],[23.83664,66.5543],[23.83264,66.55291],[23.82592,66.54881],[23.82246,66.54771],[23.81616,66.54612],[23.80951,66.54315],[23.79964,66.54016],[23.79525,66.53789],[23.79345,66.53749],[23.79052,66.53747],[23.78813,66.53723],[23.78598,66.53631],[23.78448,66.53383],[23.78477,66.5327],[23.79034,66.52874],[23.79107,66.52669],[23.79167,66.52607],[23.79543,66.52428],[23.79734,66.52297],[23.79614,66.51855],[23.79539,66.51742],[23.79369,66.51652],[23.79086,66.51592],[23.77965,66.51502],[23.7761,66.51433],[23.76991,66.51192],[23.76305,66.51085],[23.76186,66.51049],[23.75745,66.50728],[23.75291,66.50526],[23.75118,66.50484],[23.74354,66.50377],[23.74178,66.50371],[23.73911,66.50407],[23.73736,66.50529],[23.73536,66.50788],[23.73395,66.50857],[23.73197,66.50894],[23.73096,66.5089],[23.72966,66.50837],[23.72744,66.50617],[23.72642,66.50331],[23.72534,66.50218],[23.72628,66.49859],[23.72569,66.49778],[23.72343,66.49655],[23.71591,66.49407],[23.71435,66.49296],[23.71441,66.48856],[23.71546,66.48513],[23.72027,66.47849],[23.71987,66.47725],[23.71928,66.47681],[23.7143,66.47484],[23.71025,66.47366],[23.70767,66.47372],[23.70268,66.47513],[23.69958,66.47545],[23.6975,66.47536],[23.69492,66.47499],[23.68992,66.47389],[23.6864,66.47271],[23.68394,66.47158],[23.67478,66.4655],[23.67242,66.46465],[23.65971,66.46139],[23.65512,66.45942],[23.65344,66.45729],[23.65155,66.45637],[23.65022,66.45498],[23.6498,66.44986],[23.64902,66.4471],[23.64917,66.44471],[23.64878,66.44234],[23.64777,66.43957],[23.6471,66.43898],[23.64477,66.43781],[23.64366,66.43633],[23.64289,66.43082],[23.64302,66.42604],[23.64343,66.42459],[23.64425,66.42369],[23.64934,66.42049],[23.65306,66.41754],[23.65877,66.41135],[23.65947,66.41011],[23.6534,66.40944],[23.59596,66.40748],[23.5829,66.41227],[23.57839,66.41468],[23.57448,66.41824],[23.57018,66.41978],[23.56401,66.42094],[23.55641,66.42073],[23.55314,66.42086],[23.54886,66.42158],[23.54554,66.42274],[23.54015,66.42522],[23.53651,66.42625],[23.53233,66.42668],[23.51918,66.43234],[23.51447,66.43372],[23.50438,66.43857],[23.50003,66.43986],[23.4968,66.44209],[23.49499,66.4449],[23.48442,66.45146],[23.4837,66.4538],[23.43599,66.45112],[23.39175,66.44891],[23.38712,66.468],[23.30886,66.46394],[23.31567,66.46047],[23.30116,66.45634],[23.24869,66.48215],[23.12429,66.47515],[23.12183,66.47987],[23.10102,66.47886],[23.09341,66.50208],[23.09031,66.51307],[23.08283,66.54129],[23.06331,66.61967],[23.05376,66.65382],[23.0401,66.65292],[23.03173,66.65847],[23.04647,66.66223],[23.1678,66.6703],[23.16685,66.67299],[23.17464,66.67355],[23.17597,66.67087],[23.20549,66.67278],[23.18126,66.69935],[23.18755,66.70034],[23.2177,66.67352]]]}},{"type":"Feature","id":"2518R003","properties":{"code":"2518R003","name":"Övertorneå-Norra"},"geometry":{"type":"Polygon","coordinates":[[[23.25318,66.97379],[23.46322,66.95216],[23.47399,66.93577],[23.48524,66.93609],[23.47422,66.95101],[23.69065,66.92861],[23.88926,66.90723],[23.89112,66.90642],[23.89401,66.90436],[23.9015,66.9008],[23.90927,66.89536],[23.91121,66.89365],[23.91207,66.89081],[23.91318,66.88899],[23.91581,66.88739],[23.91881,66.88644],[23.92328,66.88603],[23.92886,66.88578],[23.93206,66.8854],[23.93621,66.88356],[23.94043,66.8788],[23.94278,66.87705],[23.94362,66.87597],[23.9437,66.87504],[23.94239,66.87353],[23.94301,66.87249],[23.9525,66.86698],[23.9534,66.86273],[23.95842,66.85832],[23.96276,66.8553],[23.9697,66.84933],[23.97059,66.84713],[23.97072,66.84399],[23.97207,66.84183],[23.97192,66.84056],[23.9723,66.83999],[23.97425,66.8388],[23.97926,66.83659],[23.982,66.83466],[23.99159,66.82512],[23.99438,66.8231],[23.99529,66.82177],[23.99516,66.81971],[23.99244,66.81584],[23.98962,66.81385],[23.98791,66.81202],[23.98782,66.81113],[23.98934,66.80911],[23.98931,66.80848],[23.98861,66.80726],[23.98725,66.80204],[23.98575,66.80132],[23.98161,66.80023],[23.97853,66.79919],[23.97705,66.79856],[23.97655,66.79788],[23.97631,66.79696],[23.97661,66.79618],[23.98177,66.79126],[23.98333,66.78921],[23.98345,66.7882],[23.98294,66.787],[23.98097,66.78559],[23.97605,66.78366],[23.97225,66.78287],[23.96665,66.78242],[23.95886,66.78233],[23.9569,66.78245],[23.95382,66.78308],[23.95179,66.78386],[23.94526,66.78721],[23.93643,66.78973],[23.93523,66.79023],[23.932,66.79305],[23.92978,66.79408],[23.9272,66.79483],[23.92376,66.79547],[23.91891,66.79594],[23.91403,66.79593],[23.91113,66.79541],[23.90941,66.79478],[23.90778,66.79373],[23.90796,66.79163],[23.90922,66.78917],[23.91142,66.78759],[23.91164,66.78468],[23.91532,66.77902],[23.91617,66.77499],[23.91619,66.77307],[23.91574,66.77187],[23.91442,66.77101],[23.91155,66.77037],[23.90772,66.77017],[23.90222,66.77057],[23.89908,66.77061],[23.89416,66.7699],[23.88992,66.76895],[23.88774,66.76794],[23.88641,66.76631],[23.88482,66.76584],[23.88315,66.76569],[23.88124,66.76502],[23.87957,66.76324],[23.87933,66.76261],[23.88034,66.76035],[23.8802,66.75926],[23.87938,66.75811],[23.87719,66.75669],[23.87632,66.75508],[23.87658,66.7535],[23.87854,66.75276],[23.8829,66.7518],[23.88617,66.75019],[23.88784,66.74821],[23.88848,66.74672],[23.88837,66.74123],[23.8894,66.73904],[23.89458,66.73312],[23.89813,66.73038],[23.90246,66.72617],[23.90664,66.72315],[23.90782,66.72143],[23.90648,66.71951],[23.90308,66.71784],[23.90186,66.71698],[23.89997,66.71418],[23.89839,66.7125],[23.8952,66.71134],[23.89492,66.71102],[23.89541,66.70817],[23.89756,66.7071],[23.89808,66.70648],[23.89523,66.70429],[23.89351,66.69991],[23.8916,66.69855],[23.89034,66.69662],[23.8885,66.6955],[23.88773,66.69345],[23.88748,66.69216],[23.88845,66.68929],[23.88813,66.68631],[23.88781,66.68531],[23.88626,66.68371],[23.8859,66.68245],[23.88766,66.67795],[23.88688,66.67548],[23.88587,66.67444],[23.88459,66.6739],[23.88255,66.67335],[23.87799,66.67274],[23.87603,66.67218],[23.87463,66.67144],[23.87216,66.66767],[23.87184,66.66624],[23.87245,66.66305],[23.87163,66.662],[23.86857,66.65989],[23.86867,66.6582],[23.86818,66.65718],[23.86471,66.65489],[23.86571,66.64968],[23.86946,66.64518],[23.87183,66.64342],[23.87231,66.6427],[23.87019,66.63944],[23.87053,66.63588],[23.869,66.63281],[23.87011,66.62943],[23.75784,66.63681],[23.73799,66.65987],[23.67752,66.6462],[23.62011,66.62652],[23.54375,66.64178],[23.50249,66.64172],[23.4986,66.65175],[23.50822,66.66619],[23.51638,66.68032],[23.48869,66.67857],[23.41951,66.68568],[23.38389,66.74807],[23.31329,66.86877],[23.25318,66.97379]]]}}]}