{"type":"FeatureCollection","features":[{"type":"Feature","id":"2523R010","properties":{"code":"2523R010","name":"Vassara Älv"},"geometry":{"type":"Polygon","coordinates":[[[20.72267,67.14281],[20.72315,67.14137],[20.72274,67.13997],[20.72118,67.13829],[20.71893,67.13711],[20.71895,67.13467],[20.71758,67.13284],[20.71556,67.13161],[20.71351,67.13082],[20.70543,67.12908],[20.70421,67.12828],[20.70417,67.12702],[20.70299,67.12411],[20.70143,67.12243],[20.69723,67.12047],[20.69255,67.11933],[20.68817,67.11896],[20.68271,67.12167],[20.67445,67.12488],[20.67167,67.12547],[20.66545,67.12605],[20.66235,67.12654],[20.65945,67.12749],[20.65482,67.13096],[20.65157,67.13274],[20.65079,67.13364],[20.65267,67.13434],[20.65297,67.13512],[20.65539,67.13567],[20.66375,67.13357],[20.66446,67.13264],[20.67272,67.13332],[20.6889,67.13431],[20.68847,67.13527],[20.69489,67.1353],[20.69491,67.13953],[20.71005,67.14067],[20.72267,67.14281]]]}},{"type":"Feature","id":"2523R001","properties":{"code":"2523R001","name":"Andra sidan"},"geometry":{"type":"Polygon","coordinates":[[[20.59601,67.1487],[20.61146,67.14802],[20.62294,67.14666],[20.62681,67.14545],[20.63654,67.14314],[20.63863,67.14288],[20.6414,67.1431],[20.6423,67.14206],[20.64466,67.14046],[20.64616,67.14069],[20.64756,67.14122],[20.65763,67.13901],[20.65951,67.13842],[20.65547,67.13606],[20.6551,67.13578],[20.65539,67.13567],[20.65297,67.13512],[20.65267,67.13434],[20.65079,67.13364],[20.65157,67.13274],[20.65482,67.13096],[20.65945,67.12749],[20.66345,67.12631],[20.66797,67.12586],[20.66573,67.1245],[20.66227,67.12359],[20.65868,67.12344],[20.64672,67.12467],[20.64194,67.1256],[20.63884,67.11998],[20.63595,67.12073],[20.63347,67.12181],[20.63179,67.12307],[20.63092,67.12471],[20.62798,67.12482],[20.62532,67.12513],[20.62175,67.12597],[20.61765,67.12663],[20.61518,67.12731],[20.61218,67.12868],[20.61055,67.13011],[20.60995,67.13189],[20.6106,67.1335],[20.61325,67.13584],[20.61583,67.13722],[20.61868,67.13807],[20.62376,67.13889],[20.6241,67.14002],[20.62513,67.14119],[20.62402,67.14197],[20.61817,67.142],[20.61364,67.14269],[20.60756,67.143],[20.60333,67.14374],[20.59986,67.14488],[20.59734,67.14639],[20.59641,67.14746],[20.59601,67.1487]]]}},{"type":"Feature","id":"2523R002","properties":{"code":"2523R002","name":"Gällivare centrum"},"geometry":{"type":"Polygon","coordinates":[[[20.66017,67.13751],[20.66153,67.13704],[20.66523,67.13633],[20.66732,67.13764],[20.66832,67.13779],[20.67294,67.1376],[20.67561,67.13637],[20.67724,67.13597],[20.67744,67.13541],[20.68194,67.13555],[20.68834,67.13529],[20.6889,67.13431],[20.67272,67.13332],[20.66446,67.13264],[20.66375,67.13357],[20.6551,67.13578],[20.65902,67.13822],[20.66036,67.1385],[20.66017,67.13751]]]}},{"type":"Feature","id":"2523R003","properties":{"code":"2523R003","name":"Gällivare norra"},"geometry":{"type":"Polygon","coordinates":[[[17.28152,68.11881],[17.49538,68.07483],[17.66475,68.03838],[17.89976,67.96937],[18.18652,67.89515],[18.35186,67.85431],[18.78256,67.85206],[18.78597,67.85235],[18.78943,67.85215],[18.79391,67.85082],[18.79577,67.85089],[18.79879,67.85145],[18.80685,67.8507],[18.81201,67.85085],[18.81423,67.85068],[18.81611,67.8504],[18.8214,67.84911],[18.82254,67.84909],[18.8292,67.84993],[18.83188,67.8492],[18.8347,67.84882],[18.83737,67.84881],[18.83877,67.84861],[18.85256,67.84447],[19.00505,67.85719],[19.02321,67.85593],[19.08185,67.85136],[19.13,67.85016],[19.18066,67.85081],[19.23701,67.84809],[19.2492,67.84844],[19.32165,67.85628],[19.40816,67.85218],[19.45101,67.84644],[19.4663,67.84358],[19.48212,67.83934],[19.48443,67.83762],[19.49815,67.83627],[19.50627,67.83607],[19.51578,67.83477],[19.53831,67.83231],[19.56071,67.83089],[19.60422,67.8296],[19.63579,67.82808],[19.63405,67.8247],[19.64187,67.82095],[19.65343,67.82229],[19.65937,67.82088],[19.66376,67.81923],[19.67735,67.8174],[19.70199,67.81322],[19.78131,67.8149],[19.79402,67.81131],[19.80095,67.80731],[19.80904,67.80559],[19.81163,67.8034],[19.81321,67.80138],[19.82064,67.8007],[19.82244,67.79943],[19.83575,67.79591],[19.85247,67.79417],[19.87296,67.7866],[19.92398,67.78054],[19.95181,67.77371],[19.9639,67.7666],[19.97738,67.76334],[20.00913,67.74582],[20.02725,67.7442],[20.03317,67.74492],[20.03836,67.74405],[20.04219,67.74271],[20.05187,67.74445],[20.05549,67.74576],[20.06531,67.74744],[20.08275,67.74998],[20.09621,67.7497],[20.10161,67.74855],[20.11795,67.74754],[20.12865,67.74267],[20.13537,67.74103],[20.14116,67.73904],[20.15151,67.73639],[20.15905,67.73235],[20.16474,67.73079],[20.16718,67.73049],[20.16923,67.73051],[20.17132,67.73167],[20.17568,67.73235],[20.17851,67.73226],[20.1855,67.73058],[20.18882,67.72951],[20.20211,67.72689],[20.20347,67.72641],[20.21111,67.72465],[20.22039,67.72309],[20.22286,67.72176],[20.22575,67.72176],[20.22981,67.72237],[20.23552,67.72247],[20.24009,67.72279],[20.24166,67.72283],[20.24884,67.72231],[20.251,67.72244],[20.25315,67.72297],[20.2555,67.72286],[20.25805,67.72326],[20.26416,67.72477],[20.26666,67.72517],[20.27003,67.72629],[20.273,67.72647],[20.27582,67.72721],[20.2785,67.72842],[20.28049,67.73019],[20.28085,67.73099],[20.2816,67.73115],[20.28314,67.73126],[20.28421,67.73116],[20.28867,67.73032],[20.29452,67.73041],[20.30616,67.73113],[20.31542,67.73074],[20.31639,67.73082],[20.32573,67.73425],[20.3292,67.73482],[20.332,67.73485],[20.33303,67.73425],[20.33469,67.73221],[20.33537,67.73204],[20.33798,67.73233],[20.34,67.73224],[20.34214,67.73173],[20.34546,67.73021],[20.34879,67.72978],[20.35105,67.7297],[20.35182,67.72948],[20.35383,67.72758],[20.3614,67.72388],[20.36698,67.72152],[20.37116,67.72033],[20.37235,67.71879],[20.37517,67.71742],[20.37763,67.71434],[20.37834,67.71407],[20.38192,67.71369],[20.38368,67.71324],[20.38717,67.71033],[20.38946,67.70941],[20.39687,67.70568],[20.40117,67.70402],[20.4056,67.70322],[20.40898,67.7019],[20.43278,67.69761],[20.44048,67.69527],[20.44283,67.69428],[20.4444,67.69405],[20.4486,67.69285],[20.45425,67.69225],[20.45705,67.69225],[20.4597,67.69178],[20.46044,67.69146],[20.46587,67.69094],[20.46708,67.69039],[20.46888,67.68904],[20.47062,67.6885],[20.47759,67.68785],[20.48091,67.68786],[20.488,67.68737],[20.4904,67.68748],[20.49338,67.68791],[20.49758,67.68783],[20.51286,67.6844],[20.515,67.68376],[20.52063,67.68306],[20.52421,67.68232],[20.5278,67.6814],[20.53091,67.68032],[20.53206,67.67862],[20.53327,67.678],[20.54176,67.6766],[20.54837,67.67658],[20.5515,67.67639],[20.55316,67.6759],[20.55468,67.67467],[20.55661,67.67386],[20.56086,67.67256],[20.56461,67.67192],[20.56833,67.6716],[20.57294,67.67175],[20.57752,67.67094],[20.58035,67.67013],[20.5828,67.66913],[20.58654,67.66588],[20.5893,67.66494],[20.59569,67.66378],[20.60013,67.66351],[20.60697,67.66345],[20.61103,67.66295],[20.61375,67.66235],[20.62108,67.66012],[20.62457,67.65833],[20.62689,67.65785],[20.63119,67.65736],[20.63563,67.65612],[20.63984,67.65468],[20.65398,67.65204],[20.66288,67.64991],[20.6654,67.64949],[20.67224,67.64772],[20.67895,67.64531],[20.69066,67.64333],[20.69219,67.64296],[20.69696,67.64123],[20.70429,67.63933],[20.70903,67.63774],[20.71326,67.63565],[20.71531,67.63383],[20.71612,67.63192],[20.71485,67.63093],[20.71461,67.63043],[20.71497,67.63012],[20.71707,67.62952],[20.72231,67.62853],[20.72477,67.6283],[20.72842,67.62765],[20.73367,67.62556],[20.74172,67.62325],[20.75304,67.61944],[20.75717,67.61864],[20.76017,67.61764],[20.76346,67.61734],[20.76468,67.61705],[20.76865,67.61498],[20.77308,67.61379],[20.77431,67.61289],[20.77462,67.6116],[20.7735,67.60955],[20.77345,67.60798],[20.77481,67.60732],[20.78022,67.60608],[20.78417,67.60402],[20.78807,67.60347],[20.79036,67.60238],[20.79345,67.6013],[20.80009,67.59982],[20.80416,67.5982],[20.81248,67.59584],[20.8141,67.59497],[20.81919,67.59375],[20.82425,67.59044],[20.82657,67.5898],[20.8297,67.58986],[20.83074,67.58965],[20.83614,67.58712],[20.83804,67.58671],[20.8426,67.58622],[20.84331,67.58595],[20.8445,67.58457],[20.84816,67.58331],[20.85252,67.58249],[20.85463,67.58169],[20.85786,67.57941],[20.8623,67.57754],[20.86694,67.5762],[20.87095,67.57458],[20.87542,67.57335],[20.87725,67.57237],[20.87902,67.57081],[20.8883,67.56891],[20.89042,67.5682],[20.89201,67.56722],[20.89461,67.56651],[20.89996,67.56647],[20.90458,67.56578],[20.91334,67.56294],[20.91582,67.56145],[20.91697,67.56012],[20.91673,67.55959],[20.91445,67.5583],[20.91465,67.55598],[20.91599,67.55486],[20.92157,67.55289],[20.9308,67.55127],[20.93439,67.55086],[20.93609,67.55043],[20.93885,67.54845],[20.94336,67.5465],[20.95499,67.53993],[20.95712,67.53906],[20.96279,67.53801],[20.96728,67.5364],[20.96857,67.53504],[20.96996,67.53256],[20.97443,67.53184],[20.97902,67.53075],[20.9948,67.52606],[21.00189,67.52504],[21.00545,67.52398],[21.01029,67.52422],[21.01507,67.5219],[21.01545,67.51907],[21.01652,67.51802],[21.01826,67.51702],[21.02131,67.51595],[21.02824,67.51435],[21.03103,67.51316],[21.03353,67.51248],[21.0368,67.51187],[21.0423,67.5119],[21.04325,67.51171],[21.0492,67.50849],[21.05295,67.50682],[21.06388,67.50446],[21.06567,67.50346],[21.06861,67.50023],[21.06866,67.49946],[21.06751,67.49851],[21.06786,67.49488],[21.08821,67.49105],[21.09133,67.49032],[21.10059,67.48936],[21.10526,67.48922],[21.11067,67.48847],[21.11697,67.48912],[21.12697,67.48833],[21.13267,67.48721],[21.13435,67.48675],[21.13615,67.48579],[21.13688,67.48568],[21.13866,67.48548],[21.14283,67.48587],[21.14376,67.48583],[21.15506,67.48415],[21.16111,67.48393],[21.16755,67.48398],[21.17023,67.48378],[21.17581,67.48296],[21.18196,67.48111],[21.18564,67.48059],[21.20518,67.48063],[21.20818,67.48081],[21.21381,67.48154],[21.21684,67.48144],[21.22531,67.47983],[21.23101,67.47916],[21.23457,67.47784],[21.23656,67.47733],[21.25197,67.47514],[21.25806,67.4738],[21.26239,67.47328],[21.26566,67.47323],[21.26941,67.47355],[21.27635,67.47317],[21.28154,67.47381],[21.28854,67.47419],[21.2942,67.47376],[21.29657,67.47386],[21.30575,67.476],[21.31223,67.47637],[21.31873,67.47733],[21.32223,67.47819],[21.32411,67.47891],[21.32681,67.48158],[21.33481,67.48248],[21.32821,67.41011],[21.32402,67.37204],[21.32439,67.37186],[21.324,67.37188],[21.32074,67.34217],[21.32205,67.34295],[21.3241,67.34274],[21.32487,67.34305],[21.32637,67.34289],[21.32849,67.34571],[21.32974,67.34545],[21.32979,67.34489],[21.32973,67.34464],[21.32869,67.34457],[21.32803,67.34418],[21.32895,67.34334],[21.32835,67.34259],[21.32703,67.34231],[21.32619,67.34254],[21.32615,67.34234],[21.32687,67.34185],[21.32801,67.34173],[21.32906,67.34103],[21.32746,67.34098],[21.32663,67.34164],[21.32452,67.34179],[21.32542,67.34123],[21.32414,67.34095],[21.3231,67.34112],[21.32183,67.34183],[21.32074,67.34176],[21.31828,67.32049],[21.31106,67.23976],[21.30536,67.23918],[21.13078,67.29037],[21.01049,67.29658],[20.92744,67.29026],[20.92139,67.27605],[20.94764,67.25856],[21.22775,67.21956],[21.25029,67.22113],[21.24927,67.21959],[21.22221,67.14418],[21.20025,67.12268],[21.19261,67.11885],[21.09472,67.12893],[21.07743,67.13421],[21.04314,67.13406],[20.99766,67.14274],[20.96483,67.12707],[20.9038,67.12371],[20.89886,67.12215],[20.90967,67.08174],[20.8714,67.0698],[20.84394,67.05737],[20.84515,67.05294],[20.80499,67.03448],[20.79045,67.02017],[20.78395,67.00794],[20.79916,66.99604],[20.88799,66.98094],[20.9357,66.97738],[21.01521,66.99054],[21.04603,66.98886],[21.05246,66.98644],[20.94588,66.97285],[20.9656,66.95294],[20.96713,66.9533],[20.96699,66.95355],[20.96774,66.95426],[20.96962,66.95441],[20.97062,66.95545],[20.9717,66.95563],[20.97228,66.95539],[20.97235,66.9544],[20.97158,66.95382],[20.96946,66.95356],[20.96797,66.9529],[20.96809,66.95236],[20.96672,66.95184],[20.96769,66.95073],[20.96895,66.95023],[20.96848,66.94989],[20.9713,66.94723],[20.97359,66.94792],[20.9743,66.94853],[20.97784,66.94976],[20.97928,66.94992],[20.97951,66.94913],[20.97895,66.94909],[20.9789,66.94882],[20.97592,66.94792],[20.97462,66.94717],[20.97273,66.94666],[20.97271,66.94629],[20.97381,66.94581],[20.97281,66.94566],[20.99576,66.92256],[20.9965,66.92284],[20.99801,66.92255],[20.99882,66.92281],[20.99965,66.92427],[21.00058,66.92475],[21.00035,66.92351],[21.00213,66.92245],[21.00281,66.92128],[21.00219,66.91942],[21.0014,66.91904],[21.0003,66.91915],[20.9996,66.91869],[21.00809,66.91009],[20.97979,66.90091],[20.97268,66.89452],[20.89662,66.87969],[20.89446,66.87792],[20.85927,66.88064],[20.81154,66.87237],[20.81263,66.86219],[20.81503,66.85754],[20.81111,66.84401],[20.77964,66.84077],[20.7595,66.8484],[20.67257,66.87191],[20.59875,66.85214],[20.58619,66.85366],[20.50789,66.86601],[20.46784,66.89715],[20.4105,66.9117],[20.1507,66.87367],[19.92457,66.94534],[19.8312,66.97531],[19.78684,67.04001],[19.78826,67.04043],[19.787,67.04112],[19.78608,67.04103],[19.78415,67.04373],[19.66209,67.0946],[19.51016,67.14563],[19.31301,67.15419],[19.27039,67.1779],[19.0898,67.27911],[19.08825,67.27977],[19.05282,67.29073],[19.03933,67.29264],[19.02802,67.29365],[18.98975,67.30404],[18.98593,67.30455],[18.98212,67.30468],[18.97425,67.30446],[18.96865,67.3049],[18.96445,67.30538],[18.95602,67.30725],[18.95426,67.30728],[18.94611,67.30649],[18.94142,67.30674],[18.9353,67.30635],[18.92463,67.30671],[18.89372,67.32826],[18.8783,67.35234],[18.78263,67.38562],[18.70353,67.40509],[18.68848,67.40107],[18.67129,67.39865],[18.63439,67.39686],[18.61827,67.40496],[18.57294,67.41044],[18.5059,67.40079],[18.48807,67.40278],[18.43754,67.41887],[18.41714,67.4328],[18.38949,67.44154],[18.36049,67.45779],[18.33988,67.48011],[18.33597,67.4806],[18.32981,67.48005],[18.3282,67.47972],[18.32523,67.47624],[18.32387,67.47625],[18.31077,67.47874],[18.30985,67.47921],[18.31038,67.48162],[18.31006,67.48275],[18.30877,67.48327],[18.25392,67.49913],[18.20858,67.52223],[18.20604,67.52626],[18.20115,67.53177],[18.19616,67.53312],[18.17506,67.54299],[18.15397,67.5567],[18.14592,67.56111],[18.10474,67.57305],[18.04129,67.57897],[17.96968,67.58603],[17.95822,67.5835],[17.90142,67.5868],[17.86152,67.61179],[17.82428,67.62154],[17.74853,67.63486],[17.7083,67.63549],[17.62877,67.64286],[17.59445,67.65102],[17.5785,67.6574],[17.55774,67.65874],[17.55384,67.65944],[17.55011,67.6607],[17.54682,67.66253],[17.45129,67.6763],[17.43408,67.6936],[17.43287,67.71407],[17.40569,67.71612],[17.36524,67.71778],[17.32981,67.72899],[17.3087,67.73082],[17.30024,67.73331],[17.29867,67.73932],[17.29018,67.74897],[17.2524,67.77444],[17.15426,67.80592],[17.1277,67.80423],[17.12034,67.80445],[17.1134,67.8041],[17.10611,67.80498],[17.09102,67.80262],[17.08578,67.80802],[17.07836,67.81058],[17.07621,67.81273],[17.07493,67.81303],[17.07251,67.81327],[17.06449,67.81329],[17.06045,67.81365],[17.05888,67.81342],[17.05418,67.81341],[17.03532,67.81705],[17.02903,67.81897],[17.02514,67.81966],[17.0233,67.82045],[17.02297,67.82108],[17.02428,67.82304],[17.01987,67.82439],[17.01769,67.82448],[17.0154,67.82395],[17.01422,67.82404],[17.01072,67.82559],[16.99381,67.83573],[16.99429,67.83641],[16.9952,67.83682],[16.99066,67.83997],[16.98734,67.8409],[16.98379,67.8413],[16.98201,67.84366],[16.98018,67.84426],[16.97814,67.84452],[16.96618,67.84508],[16.96275,67.84628],[16.96102,67.84864],[16.95607,67.85012],[16.95177,67.85098],[16.94971,67.85182],[16.9462,67.85221],[16.94554,67.85252],[16.94237,67.85296],[16.93443,67.85467],[16.93311,67.85647],[16.93179,67.85698],[16.92681,67.85725],[16.9252,67.85755],[16.9222,67.85887],[16.91263,67.8619],[16.90752,67.8626],[16.90284,67.86359],[16.89033,67.87036],[16.87722,67.87451],[16.87211,67.87588],[16.86719,67.87848],[16.86362,67.88006],[16.8621,67.88035],[16.8545,67.88094],[16.84781,67.88194],[16.83745,67.88442],[16.8367,67.8848],[16.83661,67.88692],[16.8352,67.88728],[16.83406,67.88747],[16.83257,67.88715],[16.83034,67.88721],[16.82788,67.88808],[16.82532,67.88827],[16.82366,67.88862],[16.82032,67.88838],[16.81865,67.88844],[16.81506,67.88959],[16.81151,67.8901],[16.80774,67.89197],[16.80249,67.89333],[16.79778,67.89529],[16.78602,67.89948],[16.7835,67.89979],[16.78202,67.8998],[16.78044,67.89937],[16.77933,67.89862],[16.77728,67.89867],[16.77408,67.89826],[16.77076,67.89921],[16.76874,67.9001],[16.76455,67.90054],[16.76257,67.90139],[16.75859,67.90216],[16.75677,67.90199],[16.75633,67.90132],[16.75375,67.90094],[16.75222,67.90087],[16.74751,67.90123],[16.74457,67.90181],[16.74312,67.90282],[16.7409,67.90376],[16.74191,67.9045],[16.74178,67.905],[16.73907,67.90526],[16.73813,67.9056],[16.73617,67.90554],[16.73253,67.90578],[16.73812,67.91421],[16.83339,67.94522],[16.92985,67.97732],[17.04724,68.01211],[17.18051,68.05046],[17.25263,68.10158],[17.28152,68.11881]],[[20.74676,67.20179],[20.74387,67.20173],[20.74023,67.20134],[20.73673,67.20056],[20.73436,67.1997],[20.73144,67.19777],[20.72972,67.19423],[20.72654,67.19265],[20.72274,67.19114],[20.71874,67.19061],[20.71509,67.1896],[20.71103,67.18751],[20.70925,67.18615],[20.70842,67.18472],[20.70845,67.18305],[20.71062,67.17899],[20.7119,67.17798],[20.71538,67.17607],[20.71812,67.17515],[20.72132,67.17454],[20.7249,67.17426],[20.72939,67.1744],[20.73193,67.17475],[20.73465,67.17539],[20.73922,67.17543],[20.74772,67.17618],[20.75471,67.17738],[20.75904,67.1786],[20.76161,67.17965],[20.7637,67.18124],[20.76439,67.18265],[20.76787,67.18411],[20.76966,67.18537],[20.77143,67.18755],[20.77166,67.18899],[20.77096,67.19038],[20.76926,67.19186],[20.76881,67.19292],[20.76744,67.19424],[20.76359,67.19607],[20.759,67.199],[20.75624,67.20027],[20.75155,67.20139],[20.74676,67.20179]],[[20.71241,67.1748],[20.71154,67.17691],[20.70883,67.17879],[20.70309,67.18064],[20.69931,67.1815],[20.69442,67.18302],[20.68931,67.18363],[20.68662,67.18365],[20.6835,67.18342],[20.68172,67.18393],[20.67807,67.18555],[20.67086,67.1873],[20.66734,67.18782],[20.66278,67.18808],[20.65889,67.18881],[20.65626,67.18902],[20.65269,67.18899],[20.64751,67.18828],[20.64402,67.18718],[20.64214,67.18614],[20.6409,67.18507],[20.63846,67.18417],[20.63393,67.18436],[20.62994,67.18412],[20.62572,67.18336],[20.62272,67.18233],[20.62024,67.18081],[20.6192,67.17942],[20.61593,67.17753],[20.61474,67.17566],[20.61186,67.17399],[20.61054,67.17211],[20.6102,67.17085],[20.60836,67.16976],[20.60507,67.16879],[20.60191,67.16717],[20.59946,67.16431],[20.59954,67.16067],[20.60066,67.15864],[20.60375,67.15604],[20.60192,67.1552],[20.59781,67.1526],[20.59653,67.15122],[20.596,67.14965],[20.59619,67.14789],[20.59734,67.14639],[20.59929,67.14514],[20.6024,67.144],[20.60671,67.1431],[20.61364,67.14269],[20.61731,67.14208],[20.62005,67.1419],[20.62402,67.14197],[20.62513,67.14119],[20.6241,67.14002],[20.62376,67.13889],[20.61945,67.13824],[20.61654,67.13747],[20.61415,67.13643],[20.61229,67.13515],[20.61012,67.13268],[20.61033,67.13044],[20.61266,67.1284],[20.61606,67.12704],[20.62532,67.12513],[20.62798,67.12482],[20.63092,67.12471],[20.63179,67.12307],[20.63347,67.12181],[20.63595,67.12073],[20.63884,67.11998],[20.63721,67.11703],[20.63656,67.11708],[20.62443,67.11362],[20.62294,67.11228],[20.64856,67.10265],[20.65083,67.10232],[20.65178,67.103],[20.65321,67.10355],[20.65332,67.10376],[20.65279,67.10377],[20.65274,67.10403],[20.66084,67.10563],[20.66339,67.11015],[20.6654,67.10952],[20.66908,67.10793],[20.67996,67.10586],[20.68132,67.10522],[20.6858,67.10462],[20.69163,67.10452],[20.6965,67.10294],[20.69725,67.10282],[20.6983,67.10295],[20.7,67.10263],[20.7021,67.10064],[20.70197,67.09969],[20.70276,67.09919],[20.70558,67.09835],[20.71164,67.10141],[20.71227,67.10252],[20.71182,67.10365],[20.70531,67.10748],[20.6969,67.11532],[20.68817,67.11896],[20.69165,67.11921],[20.69427,67.11964],[20.69723,67.12047],[20.69987,67.12154],[20.70143,67.12243],[20.70278,67.12375],[20.70417,67.12702],[20.70421,67.12828],[20.70543,67.12908],[20.71281,67.13061],[20.71556,67.13161],[20.71718,67.13253],[20.71832,67.13357],[20.71895,67.13467],[20.71893,67.13711],[20.72118,67.13829],[20.72255,67.13963],[20.72313,67.14103],[20.72288,67.14245],[20.72163,67.14404],[20.71984,67.14528],[20.71726,67.14633],[20.71343,67.14729],[20.70827,67.14789],[20.69196,67.14802],[20.68821,67.1494],[20.68584,67.15],[20.68242,67.1505],[20.67706,67.1509],[20.67704,67.15312],[20.67602,67.1546],[20.67478,67.15565],[20.67444,67.15795],[20.67362,67.15938],[20.67257,67.16035],[20.6817,67.16018],[20.68641,67.1608],[20.69052,67.1619],[20.69433,67.16252],[20.69755,67.16275],[20.70635,67.16277],[20.70883,67.16349],[20.71075,67.16433],[20.71282,67.16583],[20.71601,67.16737],[20.71772,67.16941],[20.7177,67.17083],[20.71676,67.17222],[20.71547,67.17318],[20.71241,67.1748]]]}},{"type":"Feature","id":"2523R004","properties":{"code":"2523R004","name":"Gällivare södra"},"geometry":{"type":"Polygon","coordinates":[[[21.29046,67.04702],[21.38015,67.01903],[21.4463,67.02925],[21.45168,67.02683],[21.453,67.02662],[21.45627,67.02666],[21.45704,67.02617],[21.45831,67.02615],[21.46116,67.02474],[21.46232,67.02477],[21.46389,67.02402],[21.46504,67.02388],[21.4659,67.023],[21.46548,67.02128],[21.47126,67.01783],[21.47282,67.01734],[21.47417,67.01612],[21.47803,67.0137],[21.48061,67.01324],[21.4855,67.01139],[21.48695,67.01112],[21.49024,67.01084],[21.49358,67.01113],[21.49478,67.01107],[21.49548,67.01058],[21.49557,67.01007],[21.49618,67.00985],[21.59952,67.02937],[21.68944,67.00311],[21.66844,66.97632],[21.69406,66.95876],[21.74083,66.97058],[21.74096,66.9677],[21.68395,66.93666],[21.69749,66.92619],[21.72944,66.92329],[21.76001,66.92904],[21.75989,66.95511],[21.83694,66.93483],[21.83496,66.92769],[21.83871,66.92328],[21.79752,66.90751],[21.81505,66.9013],[21.85046,66.91756],[21.85733,66.91473],[21.86485,66.91209],[21.85931,66.90651],[21.82077,66.89612],[21.82161,66.88959],[21.83327,66.88751],[21.84956,66.88097],[21.87911,66.86421],[21.88225,66.85578],[21.88839,66.84733],[21.94108,66.84432],[21.95855,66.84122],[22.04899,66.82398],[22.08089,66.81729],[22.15333,66.81599],[22.13693,66.82702],[22.14159,66.8282],[22.14309,66.82708],[22.14432,66.82478],[22.14661,66.82331],[22.14699,66.82221],[22.1524,66.81777],[22.15375,66.81603],[22.15467,66.81555],[22.15683,66.81507],[22.16166,66.81453],[22.16206,66.81437],[22.16193,66.81385],[22.16395,66.81236],[22.16315,66.81215],[22.16323,66.81188],[22.15862,66.81145],[22.1581,66.81102],[22.15679,66.81112],[22.155,66.81097],[22.15053,66.80991],[22.14732,66.81005],[22.14424,66.80977],[22.14051,66.80833],[22.13853,66.80691],[22.13922,66.80639],[22.14173,66.80607],[22.14273,66.80576],[22.14325,66.80496],[22.14306,66.80412],[22.14152,66.80356],[22.1379,66.80308],[22.13562,66.80322],[22.13344,66.80365],[22.13137,66.80563],[22.12814,66.80669],[22.12611,66.80696],[22.12159,66.8068],[22.12008,66.80712],[22.11757,66.80849],[22.11336,66.80887],[22.11011,66.80958],[22.10705,66.80965],[22.04422,66.73198],[21.97078,66.66927],[22.12247,66.60571],[22.12224,66.6037],[22.12098,66.60428],[22.11799,66.60503],[22.1166,66.60464],[22.11453,66.60508],[22.11395,66.60499],[22.11423,66.60416],[22.11276,66.60228],[22.11214,66.60036],[22.11226,66.60008],[22.1145,66.60046],[22.11642,66.60004],[22.11794,66.60013],[22.12203,66.59984],[22.11171,66.48645],[22.10969,66.45651],[21.84645,66.41717],[21.77695,66.40598],[21.73433,66.39876],[21.63894,66.38445],[21.57772,66.3653],[21.54845,66.35668],[21.45192,66.32504],[21.37852,66.30025],[21.30704,66.28557],[21.27413,66.27859],[21.24556,66.3096],[21.24676,66.30975],[21.25192,66.30917],[21.25529,66.3078],[21.25687,66.30778],[21.25769,66.30739],[21.25773,66.30763],[21.25698,66.30821],[21.25498,66.30854],[21.25094,66.30999],[21.2488,66.31031],[21.24637,66.31167],[21.24433,66.31215],[21.24317,66.3122],[21.19867,66.36095],[21.19954,66.36111],[21.19966,66.3623],[21.19753,66.364],[21.19493,66.36506],[21.17801,66.38364],[21.05422,66.51997],[20.96153,66.6225],[20.86312,66.65566],[20.76866,66.68804],[20.66426,66.72472],[20.63276,66.73601],[20.57424,66.75126],[20.46449,66.78113],[20.28985,66.82929],[20.1507,66.87367],[20.4105,66.9117],[20.46784,66.89715],[20.50789,66.86601],[20.58619,66.85366],[20.59875,66.85214],[20.67257,66.87191],[20.7595,66.8484],[20.77964,66.84077],[20.81111,66.84401],[20.81503,66.85754],[20.81263,66.86219],[20.81154,66.87237],[20.85927,66.88064],[20.89446,66.87792],[20.89662,66.87969],[20.97268,66.89452],[20.97979,66.90091],[21.00809,66.91009],[20.9996,66.91869],[21.0003,66.91915],[21.0014,66.91904],[21.00219,66.91942],[21.00281,66.92128],[21.00213,66.92245],[21.00035,66.92351],[21.00058,66.92475],[20.99965,66.92427],[20.99882,66.92281],[20.99801,66.92255],[20.9965,66.92284],[20.99576,66.92256],[20.97281,66.94566],[20.97381,66.94581],[20.97271,66.94629],[20.97273,66.94666],[20.97462,66.94717],[20.97592,66.94792],[20.9789,66.94882],[20.97895,66.94909],[20.97951,66.94913],[20.97928,66.94992],[20.97784,66.94976],[20.9743,66.94853],[20.97359,66.94792],[20.9713,66.94723],[20.96848,66.94989],[20.96895,66.95023],[20.96769,66.95073],[20.96672,66.95184],[20.96809,66.95236],[20.96797,66.9529],[20.96946,66.95356],[20.97158,66.95382],[20.97235,66.9544],[20.97228,66.95539],[20.9717,66.95563],[20.97062,66.95545],[20.96962,66.95441],[20.96774,66.95426],[20.96699,66.95355],[20.96713,66.9533],[20.9656,66.95294],[20.94588,66.97285],[21.23137,67.00907],[21.28376,67.04277],[21.2842,67.04197],[21.28278,67.04109],[21.2831,67.0408],[21.28284,67.04043],[21.28133,67.04006],[21.27931,67.03913],[21.27929,67.03889],[21.28096,67.03876],[21.28167,67.03798],[21.28284,67.03836],[21.28468,67.03833],[21.28512,67.03863],[21.28589,67.03875],[21.28602,67.0389],[21.28462,67.03933],[21.28482,67.03947],[21.29056,67.03845],[21.29236,67.0383],[21.29559,67.03615],[21.29714,67.0357],[21.29826,67.03509],[21.29762,67.03388],[21.29649,67.03344],[21.2959,67.0324],[21.29469,67.03183],[21.29433,67.03118],[21.29345,67.03103],[21.29196,67.0312],[21.29122,67.03102],[21.28861,67.0315],[21.28819,67.03144],[21.28771,67.03116],[21.28927,67.03102],[21.28924,67.03042],[21.28868,67.02992],[21.28688,67.02944],[21.28678,67.0292],[21.28867,67.02886],[21.29069,67.02939],[21.29231,67.02955],[21.29293,67.02914],[21.29526,67.02909],[21.2965,67.02945],[21.29674,67.03008],[21.29511,67.03095],[21.29551,67.03181],[21.29639,67.03232],[21.29858,67.03284],[21.29922,67.03323],[21.30526,67.03234],[21.30695,67.03276],[21.30911,67.03302],[21.30546,67.03324],[21.30209,67.03376],[21.30065,67.03466],[21.30063,67.03539],[21.29607,67.03706],[21.2933,67.039],[21.2884,67.03994],[21.28672,67.03989],[21.28551,67.04005],[21.28394,67.04059],[21.28399,67.04108],[21.28521,67.04136],[21.2848,67.0416],[21.28553,67.04268],[21.28484,67.04346],[21.29046,67.04702]]]}},{"type":"Feature","id":"2523R005","properties":{"code":"2523R005","name":"Gällivare väst"},"geometry":{"type":"Polygon","coordinates":[[[20.59939,67.1641],[20.61261,67.16214],[20.61316,67.16063],[20.61665,67.15783],[20.61719,67.15791],[20.61793,67.15732],[20.61738,67.15723],[20.61808,67.1567],[20.62078,67.15664],[20.62179,67.15629],[20.62248,67.15651],[20.62405,67.15648],[20.62523,67.15627],[20.62979,67.15607],[20.63354,67.15547],[20.63544,67.15543],[20.63759,67.15472],[20.64113,67.15416],[20.64207,67.15426],[20.64304,67.15403],[20.64819,67.15402],[20.64959,67.15363],[20.65115,67.1527],[20.65185,67.15258],[20.65592,67.15267],[20.65588,67.15291],[20.66009,67.15402],[20.66113,67.1539],[20.66214,67.15354],[20.66288,67.15357],[20.6638,67.15002],[20.66345,67.14644],[20.662,67.14044],[20.66036,67.1385],[20.65951,67.13842],[20.65763,67.13901],[20.64756,67.14122],[20.64616,67.14069],[20.64466,67.14046],[20.6423,67.14206],[20.6414,67.1431],[20.63863,67.14288],[20.63654,67.14314],[20.62681,67.14545],[20.62294,67.14666],[20.61146,67.14802],[20.59601,67.1487],[20.5963,67.15078],[20.59734,67.1522],[20.60192,67.1552],[20.60375,67.15604],[20.60066,67.15864],[20.59973,67.15996],[20.59939,67.1641]]]}},{"type":"Feature","id":"2523R006","properties":{"code":"2523R006","name":"Gällivare öst"},"geometry":{"type":"Polygon","coordinates":[[[20.67257,67.16035],[20.67444,67.15795],[20.67478,67.15565],[20.67602,67.1546],[20.67704,67.15312],[20.67706,67.1509],[20.68242,67.1505],[20.68584,67.15],[20.68821,67.1494],[20.69196,67.14802],[20.70732,67.14791],[20.7119,67.14754],[20.7151,67.14694],[20.71861,67.14585],[20.72037,67.14498],[20.72196,67.1437],[20.7226,67.14291],[20.71005,67.14067],[20.69491,67.13953],[20.69489,67.1353],[20.68741,67.13526],[20.68573,67.13547],[20.68538,67.13533],[20.68194,67.13555],[20.67744,67.13541],[20.67724,67.13597],[20.67561,67.13637],[20.67294,67.1376],[20.66832,67.13779],[20.66732,67.13764],[20.66523,67.13633],[20.66153,67.13704],[20.66017,67.13751],[20.66036,67.1385],[20.66169,67.13991],[20.66233,67.14133],[20.6638,67.15002],[20.66318,67.15292],[20.66123,67.15624],[20.66433,67.15833],[20.66646,67.15929],[20.66885,67.15992],[20.67179,67.16031],[20.67257,67.16035]]]}},{"type":"Feature","id":"2523R007","properties":{"code":"2523R007","name":"Gällivare östra omland"},"geometry":{"type":"Polygon","coordinates":[[[21.36043,67.48314],[21.35927,67.4826],[21.35997,67.48213],[21.36126,67.48224],[21.3621,67.48264],[21.36558,67.48161],[21.36213,67.48009],[21.36261,67.47943],[21.36395,67.47887],[21.36645,67.47872],[21.36987,67.48034],[21.38292,67.47649],[21.38271,67.47568],[21.38396,67.47577],[21.38425,67.47645],[21.3857,67.4764],[21.38586,67.47602],[21.38776,67.47593],[21.38816,67.47549],[21.38762,67.4752],[21.38779,67.47498],[21.39079,67.47404],[21.39189,67.47393],[21.39255,67.4743],[21.39398,67.47383],[21.39526,67.47417],[21.39579,67.47396],[21.3952,67.47348],[21.39588,67.4732],[21.3976,67.47295],[21.39905,67.47333],[21.40047,67.47314],[21.40038,67.47281],[21.40134,67.47232],[21.40051,67.47183],[21.40071,67.4717],[21.40295,67.47239],[21.40489,67.47228],[21.40735,67.47177],[21.40759,67.47108],[21.40815,67.47089],[21.41115,67.47141],[21.41234,67.47131],[21.414,67.47198],[21.41541,67.47189],[21.41389,67.47041],[21.41742,67.46988],[21.41756,67.46935],[21.41809,67.4692],[21.42252,67.46887],[21.42706,67.46738],[21.42991,67.4675],[21.43146,67.46733],[21.43497,67.46784],[21.43705,67.46787],[21.4388,67.46827],[21.44398,67.46709],[21.44554,67.46646],[21.44609,67.4657],[21.44545,67.46558],[21.44554,67.46539],[21.4496,67.46547],[21.45026,67.46582],[21.44995,67.46608],[21.44681,67.46664],[21.44613,67.46742],[21.44448,67.4681],[21.43943,67.4687],[21.42937,67.46832],[21.4273,67.46865],[21.42613,67.4692],[21.42545,67.4691],[21.42605,67.4681],[21.42447,67.46912],[21.42283,67.46949],[21.41863,67.46967],[21.41911,67.47006],[21.4188,67.47033],[21.42109,67.47062],[21.42338,67.46981],[21.42461,67.46966],[21.42235,67.47077],[21.42235,67.47155],[21.43148,67.4728],[21.43273,67.47177],[21.43428,67.47161],[21.43416,67.47136],[21.43473,67.47133],[21.4359,67.47168],[21.43409,67.47316],[21.43502,67.47329],[21.43659,67.47174],[21.43709,67.47172],[21.43841,67.4721],[21.43845,67.47261],[21.43634,67.47347],[21.43994,67.47396],[21.44082,67.4739],[21.44117,67.47277],[21.44379,67.4729],[21.44389,67.47369],[21.44919,67.47332],[21.44728,67.47253],[21.44752,67.47211],[21.44836,67.47191],[21.44913,67.47203],[21.45138,67.47317],[21.45436,67.47296],[21.45552,67.47104],[21.45729,67.47109],[21.45868,67.4716],[21.45917,67.47122],[21.45964,67.47121],[21.46069,67.472],[21.45901,67.473],[21.46076,67.47348],[21.46174,67.47292],[21.46322,67.47321],[21.46429,67.4736],[21.46482,67.47462],[21.46616,67.47499],[21.46804,67.4745],[21.46738,67.47331],[21.46775,67.47314],[21.46807,67.47308],[21.46974,67.47405],[21.47108,67.4737],[21.46979,67.4727],[21.47047,67.47223],[21.47106,67.47213],[21.47237,67.47228],[21.47373,67.47212],[21.47519,67.47263],[21.47793,67.47191],[21.47638,67.47138],[21.47853,67.47022],[21.47747,67.47011],[21.47316,67.47034],[21.47385,67.46964],[21.48117,67.46969],[21.48141,67.46924],[21.48294,67.46934],[21.48389,67.46903],[21.48527,67.46891],[21.48645,67.46908],[21.4866,67.46878],[21.48761,67.46907],[21.48899,67.46912],[21.48958,67.47023],[21.48928,67.47043],[21.49539,67.47068],[21.4954,67.4702],[21.49597,67.46994],[21.49776,67.46994],[21.50076,67.46961],[21.50244,67.46976],[21.5034,67.47029],[21.50531,67.4698],[21.50399,67.46901],[21.5042,67.46875],[21.50601,67.4686],[21.50725,67.4693],[21.51905,67.46666],[21.51851,67.46568],[21.51928,67.46494],[21.52777,67.46423],[21.52927,67.46446],[21.5302,67.46554],[21.53166,67.46498],[21.53048,67.46417],[21.53232,67.4637],[21.53401,67.46407],[21.5352,67.46361],[21.53399,67.46337],[21.53363,67.46311],[21.53457,67.46297],[21.53594,67.46333],[21.53689,67.46309],[21.53551,67.46283],[21.53546,67.46264],[21.53564,67.46242],[21.53764,67.46201],[21.53901,67.46221],[21.53969,67.46262],[21.54032,67.46259],[21.53983,67.46222],[21.54041,67.46203],[21.54185,67.46251],[21.74386,67.45248],[21.74323,67.45206],[21.74197,67.45182],[21.74133,67.45127],[21.74152,67.44958],[21.74101,67.44922],[21.73969,67.44897],[21.73858,67.44816],[21.73857,67.44735],[21.73973,67.44697],[21.74136,67.4473],[21.74147,67.44854],[21.74236,67.44893],[21.74395,67.44898],[21.74673,67.44862],[21.74808,67.44798],[21.74871,67.44811],[21.74882,67.44863],[21.75005,67.44867],[21.74948,67.44921],[21.7483,67.44955],[21.7475,67.45109],[21.74626,67.45236],[21.76993,67.45118],[21.77026,67.45097],[21.77189,67.4507],[21.77233,67.45076],[21.77234,67.45106],[21.77424,67.45096],[21.77422,67.45052],[21.77479,67.45037],[21.77505,67.45092],[21.7849,67.45043],[21.79381,67.4489],[21.80216,67.44819],[21.80888,67.44627],[21.81765,67.44342],[21.82185,67.44234],[21.82712,67.4398],[21.83203,67.43824],[21.83328,67.43748],[21.83797,67.432],[21.84159,67.43013],[21.84317,67.42967],[21.85022,67.42953],[21.85569,67.42966],[21.86043,67.42948],[21.86338,67.42912],[21.88795,67.42054],[21.89108,67.41982],[21.89618,67.41722],[21.90072,67.41557],[21.8998,67.41515],[21.90735,67.413],[21.90946,67.41196],[21.90985,67.41119],[21.90954,67.4103],[21.90739,67.4077],[21.90801,67.40569],[21.90869,67.40486],[21.91038,67.40379],[21.91654,67.40157],[21.91871,67.39946],[21.91889,67.39863],[21.91835,67.39779],[21.91508,67.39578],[21.90788,67.3941],[21.90407,67.39371],[21.8981,67.39371],[21.89693,67.39355],[21.89496,67.3932],[21.89155,67.39204],[21.88875,67.39147],[21.8872,67.39239],[21.88427,67.39272],[21.88398,67.39258],[21.88538,67.3912],[21.88509,67.39082],[21.88599,67.38885],[21.88807,67.38739],[21.8895,67.38585],[21.89434,67.3841],[21.89665,67.38289],[21.8977,67.38224],[21.8981,67.38136],[21.90174,67.38043],[21.90288,67.38056],[21.90942,67.3795],[21.91023,67.3795],[21.9123,67.37875],[21.91497,67.37841],[21.91622,67.37789],[21.9212,67.37432],[21.92179,67.37345],[21.9247,67.37164],[21.92539,67.37081],[21.92801,67.36976],[21.93144,67.36707],[21.93284,67.36678],[21.93491,67.36683],[21.93675,67.36662],[21.94122,67.36487],[21.9417,67.36372],[21.94365,67.36244],[21.95086,67.36021],[21.95305,67.35912],[21.9539,67.3581],[21.95618,67.35776],[21.96226,67.35616],[21.8452,67.27088],[21.98396,67.13458],[21.98667,67.135],[21.98765,67.13404],[21.98903,67.13063],[21.98845,67.13021],[22.19898,66.91931],[22.16315,66.87756],[22.12671,66.8339],[22.15333,66.81599],[22.08089,66.81729],[22.04899,66.82398],[21.95855,66.84122],[21.94108,66.84432],[21.88839,66.84733],[21.88225,66.85578],[21.87911,66.86421],[21.84956,66.88097],[21.83327,66.88751],[21.82161,66.88959],[21.82077,66.89612],[21.85931,66.90651],[21.86485,66.91209],[21.85733,66.91473],[21.85046,66.91756],[21.81505,66.9013],[21.79752,66.90751],[21.83871,66.92328],[21.83496,66.92769],[21.83694,66.93483],[21.75989,66.95511],[21.76001,66.92904],[21.72944,66.92329],[21.69749,66.92619],[21.68395,66.93666],[21.74096,66.9677],[21.74083,66.97058],[21.69406,66.95876],[21.66844,66.97632],[21.68944,67.00311],[21.59952,67.02937],[21.49618,67.00985],[21.49557,67.01007],[21.49548,67.01058],[21.49478,67.01107],[21.49358,67.01113],[21.49024,67.01084],[21.48695,67.01112],[21.4855,67.01139],[21.48061,67.01324],[21.47803,67.0137],[21.47417,67.01612],[21.47282,67.01734],[21.47126,67.01783],[21.46548,67.02128],[21.4659,67.023],[21.46504,67.02388],[21.46389,67.02402],[21.46232,67.02477],[21.46116,67.02474],[21.45831,67.02615],[21.45704,67.02617],[21.45627,67.02666],[21.453,67.02662],[21.45168,67.02683],[21.4463,67.02925],[21.38015,67.01903],[21.29046,67.04702],[21.28484,67.04346],[21.28553,67.04268],[21.2848,67.0416],[21.28521,67.04136],[21.28399,67.04108],[21.28394,67.04059],[21.28551,67.04005],[21.28672,67.03989],[21.2884,67.03994],[21.2933,67.039],[21.29607,67.03706],[21.30063,67.03539],[21.30065,67.03466],[21.30209,67.03376],[21.30546,67.03324],[21.30911,67.03302],[21.30695,67.03276],[21.30526,67.03234],[21.29922,67.03323],[21.29858,67.03284],[21.29639,67.03232],[21.29551,67.03181],[21.29511,67.03095],[21.29674,67.03008],[21.2965,67.02945],[21.29526,67.02909],[21.29293,67.02914],[21.29231,67.02955],[21.29069,67.02939],[21.28867,67.02886],[21.28678,67.0292],[21.28688,67.02944],[21.28868,67.02992],[21.28924,67.03042],[21.28927,67.03102],[21.28771,67.03116],[21.28819,67.03144],[21.28861,67.0315],[21.29122,67.03102],[21.29196,67.0312],[21.29345,67.03103],[21.29433,67.03118],[21.29469,67.03183],[21.2959,67.0324],[21.29649,67.03344],[21.29762,67.03388],[21.29826,67.03509],[21.29714,67.0357],[21.29559,67.03615],[21.29236,67.0383],[21.29056,67.03845],[21.28482,67.03947],[21.28462,67.03933],[21.28602,67.0389],[21.28589,67.03875],[21.28512,67.03863],[21.28468,67.03833],[21.28284,67.03836],[21.28167,67.03798],[21.28096,67.03876],[21.27929,67.03889],[21.27931,67.03913],[21.28133,67.04006],[21.28284,67.04043],[21.2831,67.0408],[21.28278,67.04109],[21.2842,67.04197],[21.28376,67.04277],[21.23137,67.00907],[21.05246,66.98644],[21.04603,66.98886],[21.01521,66.99054],[20.9357,66.97738],[20.88799,66.98094],[20.79916,66.99604],[20.78395,67.00794],[20.79045,67.02017],[20.80499,67.03448],[20.84515,67.05294],[20.84394,67.05737],[20.8714,67.0698],[20.90967,67.08174],[20.89886,67.12215],[20.9038,67.12371],[20.96483,67.12707],[20.99766,67.14274],[21.04314,67.13406],[21.07743,67.13421],[21.09472,67.12893],[21.19261,67.11885],[21.20025,67.12268],[21.22221,67.14418],[21.24927,67.21959],[21.25029,67.22113],[21.22775,67.21956],[20.94764,67.25856],[20.92139,67.27605],[20.92744,67.29026],[21.01049,67.29658],[21.13078,67.29037],[21.30536,67.23918],[21.31106,67.23976],[21.31828,67.32049],[21.32074,67.34176],[21.32183,67.34183],[21.3231,67.34112],[21.32414,67.34095],[21.32542,67.34123],[21.32452,67.34179],[21.32663,67.34164],[21.32746,67.34098],[21.32906,67.34103],[21.32801,67.34173],[21.32687,67.34185],[21.32615,67.34234],[21.32619,67.34254],[21.32703,67.34231],[21.32835,67.34259],[21.32895,67.34334],[21.32803,67.34418],[21.32869,67.34457],[21.32973,67.34464],[21.32979,67.34489],[21.32974,67.34545],[21.32849,67.34571],[21.32637,67.34289],[21.32487,67.34305],[21.3241,67.34274],[21.32205,67.34295],[21.32074,67.34217],[21.324,67.37188],[21.32439,67.37186],[21.32402,67.37204],[21.32821,67.41011],[21.33481,67.48248],[21.355,67.48475],[21.36043,67.48314]]]}},{"type":"Feature","id":"2523R008","properties":{"code":"2523R008","name":"Koskullskulle"},"geometry":{"type":"Polygon","coordinates":[[[20.74852,67.20171],[20.75316,67.20111],[20.75707,67.19995],[20.76219,67.19716],[20.76359,67.19607],[20.76641,67.19486],[20.76785,67.19394],[20.76926,67.19186],[20.77096,67.19038],[20.77166,67.18899],[20.77143,67.18755],[20.76964,67.18535],[20.76787,67.18411],[20.76439,67.18265],[20.7637,67.18124],[20.76161,67.17965],[20.75904,67.1786],[20.75465,67.17736],[20.74772,67.17618],[20.73922,67.17543],[20.73465,67.17539],[20.73193,67.17475],[20.72853,67.17433],[20.7249,67.17426],[20.72049,67.17467],[20.71739,67.17535],[20.71538,67.17607],[20.7119,67.17798],[20.71053,67.17908],[20.70839,67.18339],[20.70852,67.18506],[20.70957,67.18647],[20.71222,67.18819],[20.71509,67.1896],[20.71874,67.19061],[20.72274,67.19114],[20.72654,67.19265],[20.72972,67.19423],[20.73144,67.19777],[20.73279,67.19887],[20.73515,67.20002],[20.73767,67.20082],[20.74105,67.20147],[20.74475,67.20177],[20.74852,67.20171]]]}},{"type":"Feature","id":"2523R009","properties":{"code":"2523R009","name":"Malmberget-Mosebacke"},"geometry":{"type":"Polygon","coordinates":[[[20.65713,67.18897],[20.65973,67.1887],[20.66278,67.18808],[20.66734,67.18782],[20.67086,67.1873],[20.67807,67.18555],[20.68172,67.18393],[20.6835,67.18342],[20.68843,67.18366],[20.69363,67.18317],[20.70684,67.17954],[20.70942,67.1785],[20.71121,67.17726],[20.71202,67.1762],[20.71226,67.17486],[20.71547,67.17318],[20.71708,67.17188],[20.7178,67.16978],[20.71712,67.16836],[20.71553,67.16705],[20.71282,67.16583],[20.71021,67.16406],[20.70746,67.16306],[20.70635,67.16277],[20.69755,67.16275],[20.69433,67.16252],[20.69052,67.1619],[20.68641,67.1608],[20.6817,67.16018],[20.67921,67.16013],[20.67332,67.16039],[20.66885,67.15992],[20.66519,67.15883],[20.66123,67.15624],[20.66288,67.15357],[20.66214,67.15354],[20.66113,67.1539],[20.66009,67.15402],[20.65588,67.15291],[20.65592,67.15267],[20.65386,67.15253],[20.65115,67.1527],[20.65011,67.1534],[20.64819,67.15402],[20.64304,67.15403],[20.64207,67.15426],[20.64113,67.15416],[20.63759,67.15472],[20.63544,67.15543],[20.63354,67.15547],[20.62979,67.15607],[20.62523,67.15627],[20.62405,67.15648],[20.62248,67.15651],[20.62179,67.15629],[20.62078,67.15664],[20.61808,67.1567],[20.61738,67.15723],[20.61793,67.15732],[20.61719,67.15791],[20.61665,67.15783],[20.61316,67.16063],[20.61261,67.16214],[20.59939,67.1641],[20.60017,67.16541],[20.60234,67.16747],[20.60507,67.16879],[20.60836,67.16976],[20.6102,67.17085],[20.61054,67.17211],[20.61186,67.17399],[20.61474,67.17566],[20.61593,67.17753],[20.6192,67.17942],[20.62062,67.18112],[20.62288,67.1824],[20.62572,67.18336],[20.62994,67.18412],[20.63393,67.18436],[20.63846,67.18417],[20.6409,67.18507],[20.64346,67.18691],[20.64671,67.18809],[20.65178,67.18893],[20.65713,67.18897]]]}},{"type":"Feature","id":"2523R011","properties":{"code":"2523R011","name":"Repisvaara-Dundret"},"geometry":{"type":"Polygon","coordinates":[[[20.66797,67.12586],[20.67263,67.12531],[20.67652,67.12414],[20.68271,67.12167],[20.68905,67.11854],[20.69616,67.11572],[20.69753,67.11488],[20.70531,67.10748],[20.71145,67.10401],[20.71225,67.10291],[20.71219,67.10215],[20.71122,67.10108],[20.70558,67.09835],[20.70276,67.09919],[20.70197,67.09969],[20.7021,67.10064],[20.7,67.10263],[20.6983,67.10295],[20.69725,67.10282],[20.6965,67.10294],[20.69163,67.10452],[20.6858,67.10462],[20.68132,67.10522],[20.67996,67.10586],[20.66908,67.10793],[20.6654,67.10952],[20.66339,67.11015],[20.66084,67.10563],[20.65274,67.10403],[20.65279,67.10377],[20.65332,67.10376],[20.65321,67.10355],[20.65178,67.103],[20.65083,67.10232],[20.64856,67.10265],[20.62294,67.11228],[20.62443,67.11362],[20.63656,67.11708],[20.63721,67.11703],[20.64194,67.1256],[20.64778,67.12454],[20.65868,67.12344],[20.66059,67.12344],[20.66227,67.12359],[20.66469,67.12412],[20.66797,67.12586]]]}}]}