{"type":"FeatureCollection","features":[{"type":"Feature","id":"2560R001","properties":{"code":"2560R001","name":"Älvsbyn norra"},"geometry":{"type":"Polygon","coordinates":[[[20.98111,65.7125],[20.98605,65.71186],[20.9899,65.71058],[20.99621,65.70556],[20.99741,65.70417],[21.01018,65.70532],[21.0111,65.70326],[20.99928,65.70071],[21.00385,65.69528],[21.00679,65.69232],[21.00999,65.69044],[21.01088,65.68608],[21.00927,65.68337],[21.01042,65.68319],[21.01243,65.68251],[21.01121,65.68176],[21.01249,65.67978],[21.01513,65.67682],[21.01615,65.67459],[21.01628,65.6742],[21.01008,65.6718],[21.00702,65.67166],[21.00676,65.67176],[21.00624,65.6722],[21.00551,65.67436],[21.00601,65.67481],[20.99534,65.6785],[20.98104,65.67463],[20.96862,65.67164],[20.96666,65.67217],[20.9655,65.67276],[20.96253,65.67526],[20.95683,65.67708],[20.95346,65.67978],[20.95296,65.68192],[20.95442,65.68398],[20.95731,65.68603],[20.96174,65.68769],[20.96432,65.68913],[20.96196,65.69008],[20.96048,65.69103],[20.95933,65.69233],[20.95901,65.69337],[20.95671,65.69522],[20.95615,65.69702],[20.95697,65.69877],[20.95811,65.69975],[20.96122,65.70164],[20.96315,65.70237],[20.96594,65.70304],[20.96452,65.70486],[20.96441,65.70632],[20.96572,65.70857],[20.96752,65.70999],[20.97054,65.7113],[20.97383,65.71209],[20.97733,65.71248],[20.98111,65.7125]]]}},{"type":"Feature","id":"2560R002","properties":{"code":"2560R002","name":"Älvsbyn omland"},"geometry":{"type":"Polygon","coordinates":[[[21.20658,65.73626],[21.3231,65.67893],[21.35833,65.65836],[21.23165,65.62422],[21.14419,65.60029],[21.18877,65.5689],[21.17659,65.56588],[21.1876,65.55808],[21.18353,65.55717],[21.17215,65.55961],[21.16948,65.55884],[21.16294,65.56153],[21.16085,65.56206],[21.12356,65.55046],[21.12148,65.53594],[21.09568,65.55297],[21.07771,65.53637],[21.05325,65.52887],[21.05881,65.52368],[21.0509,65.52251],[21.01142,65.51587],[20.99543,65.50996],[20.98562,65.51779],[20.9857,65.52346],[20.9785,65.52367],[20.96867,65.53168],[20.96771,65.53085],[20.96948,65.53048],[20.9687,65.52993],[20.96748,65.53065],[20.95894,65.52328],[20.96266,65.52292],[20.96251,65.5226],[20.95974,65.52259],[20.95844,65.52283],[20.94622,65.5122],[20.94436,65.50989],[20.9427,65.50941],[20.94219,65.5096],[20.94459,65.51111],[20.93632,65.51273],[20.93266,65.51185],[20.93214,65.51208],[20.93688,65.51454],[20.91083,65.5211],[20.87874,65.53298],[20.88323,65.53543],[20.76478,65.55316],[20.75771,65.5598],[20.75619,65.55966],[20.73994,65.55399],[20.69262,65.5702],[20.70395,65.57637],[20.65945,65.58332],[20.65817,65.58219],[20.65545,65.58311],[20.63876,65.58397],[20.61932,65.59068],[20.60894,65.59919],[20.52502,65.62786],[20.4903,65.60014],[20.45867,65.61165],[20.40342,65.5968],[20.39332,65.59249],[20.38028,65.59493],[20.3791,65.59665],[20.37806,65.59657],[20.37734,65.59612],[20.35108,65.59626],[20.35157,65.5993],[20.33495,65.60091],[20.32201,65.60387],[20.31573,65.60898],[20.31132,65.60808],[20.30875,65.61023],[20.30786,65.61225],[20.31192,65.61213],[20.29994,65.62203],[20.30049,65.62533],[20.29974,65.62536],[20.30037,65.6259],[20.29941,65.62658],[20.29869,65.62677],[20.29887,65.62712],[20.29935,65.62713],[20.29884,65.62752],[20.29968,65.62799],[20.29844,65.62869],[20.29886,65.62925],[20.29781,65.62981],[20.29728,65.62986],[20.29621,65.62958],[20.29541,65.62983],[20.29598,65.63053],[20.29816,65.63078],[20.29781,65.6312],[20.29636,65.63185],[20.29723,65.63259],[20.29696,65.63323],[20.29625,65.63231],[20.29393,65.63183],[20.29374,65.63101],[20.29481,65.63063],[20.29511,65.62958],[20.29647,65.62933],[20.29623,65.62866],[20.29714,65.62827],[20.29735,65.62776],[20.29869,65.6274],[20.29828,65.62649],[20.29935,65.62632],[20.30005,65.62581],[20.29939,65.62538],[20.29176,65.62566],[20.28809,65.60341],[20.25553,65.59716],[20.25122,65.59886],[20.24884,65.59626],[20.20608,65.59392],[20.16234,65.70571],[20.1536,65.72851],[20.15066,65.73754],[20.14569,65.7493],[20.10841,65.8475],[20.15923,65.87956],[20.22826,65.92425],[20.29713,65.96982],[20.36229,66.01454],[20.44942,65.99157],[20.52432,65.97127],[20.56571,65.95995],[20.7017,65.92182],[20.76733,65.90215],[20.82985,65.88247],[20.89966,65.8597],[20.98977,65.82685],[21.04351,65.80596],[21.13475,65.76723],[21.20658,65.73626]],[[20.98043,65.65993],[20.98543,65.66002],[20.98945,65.66073],[20.99427,65.66055],[21.00058,65.6598],[21.00409,65.65978],[21.0082,65.66024],[21.01125,65.66103],[21.01725,65.66157],[21.01969,65.66199],[21.02245,65.66112],[21.02383,65.65982],[21.02596,65.6587],[21.03082,65.65719],[21.03288,65.65477],[21.03425,65.65389],[21.03662,65.65288],[21.04098,65.65184],[21.04707,65.65115],[21.04967,65.65103],[21.05315,65.65118],[21.05637,65.65169],[21.06202,65.65357],[21.0643,65.65516],[21.06654,65.65775],[21.06697,65.65911],[21.06647,65.66066],[21.06487,65.6626],[21.0626,65.66413],[21.06109,65.66579],[21.05872,65.66707],[21.05849,65.66825],[21.05768,65.66939],[21.05809,65.67074],[21.05785,65.67181],[21.05581,65.67416],[21.05758,65.6758],[21.0579,65.67788],[21.05677,65.68018],[21.05531,65.68146],[21.05249,65.68275],[21.04641,65.68433],[21.04309,65.68485],[21.03889,65.68508],[21.03535,65.68497],[21.03175,65.68446],[21.02856,65.68359],[21.0258,65.68226],[21.02532,65.68231],[21.02469,65.68421],[21.02279,65.68572],[21.01909,65.6872],[21.01485,65.68824],[21.01458,65.68888],[21.00999,65.69044],[21.00679,65.69232],[21.00385,65.69528],[20.99928,65.70071],[21.0111,65.70326],[21.01018,65.70532],[20.99741,65.70417],[20.99621,65.70556],[20.9899,65.71058],[20.98813,65.7113],[20.9853,65.71202],[20.98275,65.71238],[20.97922,65.71254],[20.9757,65.71234],[20.97284,65.7119],[20.96989,65.71108],[20.96752,65.70999],[20.96572,65.70857],[20.96441,65.70632],[20.96452,65.70486],[20.96594,65.70304],[20.96315,65.70237],[20.96122,65.70164],[20.95811,65.69975],[20.95697,65.69877],[20.95615,65.69702],[20.95671,65.69522],[20.95901,65.69337],[20.95933,65.69233],[20.96048,65.69103],[20.96196,65.69008],[20.96432,65.68913],[20.96174,65.68769],[20.9585,65.68658],[20.95633,65.68544],[20.95372,65.68332],[20.9529,65.68121],[20.95346,65.67978],[20.95445,65.67876],[20.9579,65.67639],[20.95947,65.67562],[20.9573,65.67461],[20.95602,65.67367],[20.9552,65.67265],[20.95475,65.67123],[20.95531,65.66943],[20.95822,65.66667],[20.96015,65.66552],[20.96308,65.66452],[20.96492,65.66343],[20.96689,65.66268],[20.9706,65.66183],[20.97456,65.6606],[20.98043,65.65993]]]}},{"type":"Feature","id":"2560R003","properties":{"code":"2560R003","name":"Älvsbyn västra"},"geometry":{"type":"Polygon","coordinates":[[[20.99534,65.6785],[21.00546,65.67502],[21.00435,65.6748],[21.00292,65.67516],[21.00244,65.67502],[21.00102,65.67535],[20.99951,65.67469],[20.99962,65.67452],[20.99856,65.67447],[20.99773,65.67387],[20.99597,65.67349],[20.995,65.6737],[20.99376,65.67368],[20.99324,65.67402],[20.99329,65.67453],[20.9922,65.67419],[20.99209,65.67442],[20.99254,65.67466],[20.98985,65.67497],[20.98958,65.67425],[20.99059,65.6739],[20.99057,65.67371],[20.98668,65.67235],[20.98532,65.67198],[20.98434,65.67197],[20.98351,65.67125],[20.98535,65.67064],[21.0033,65.66643],[21.0144,65.66128],[21.01125,65.66103],[21.00664,65.66],[21.0032,65.65975],[20.9997,65.65986],[20.99427,65.66055],[20.98945,65.66073],[20.98627,65.66012],[20.98292,65.65988],[20.97788,65.66013],[20.97456,65.6606],[20.9706,65.66183],[20.96756,65.66248],[20.96496,65.66341],[20.96308,65.66452],[20.96072,65.66528],[20.95908,65.66608],[20.95591,65.66877],[20.95481,65.67052],[20.9552,65.67265],[20.95682,65.6743],[20.95947,65.67562],[20.95683,65.67708],[20.96253,65.67526],[20.9655,65.67276],[20.96666,65.67217],[20.96862,65.67164],[20.98104,65.67463],[20.99534,65.6785]]]}},{"type":"Feature","id":"2560R004","properties":{"code":"2560R004","name":"Älvsbyn östra"},"geometry":{"type":"Polygon","coordinates":[[[21.01458,65.68888],[21.01485,65.68824],[21.01909,65.6872],[21.0217,65.68626],[21.02326,65.68544],[21.02492,65.68388],[21.02532,65.68231],[21.0258,65.68226],[21.0292,65.68381],[21.03274,65.68465],[21.037,65.68507],[21.04122,65.68498],[21.04567,65.68448],[21.05074,65.68328],[21.05374,65.68228],[21.05613,65.68084],[21.05725,65.67939],[21.05801,65.67717],[21.05734,65.67547],[21.05581,65.67416],[21.05785,65.67181],[21.05809,65.67074],[21.05768,65.66939],[21.05849,65.66825],[21.05872,65.66707],[21.06109,65.66579],[21.0626,65.66413],[21.06487,65.6626],[21.06647,65.66066],[21.06697,65.65911],[21.06631,65.65742],[21.063,65.65412],[21.06024,65.65285],[21.05563,65.65154],[21.05228,65.65111],[21.04795,65.65108],[21.04098,65.65184],[21.03794,65.65246],[21.03538,65.65336],[21.03331,65.65445],[21.03082,65.65719],[21.02538,65.65895],[21.02383,65.65982],[21.02245,65.66112],[21.01969,65.66199],[21.0144,65.66128],[21.0033,65.66643],[20.98535,65.67064],[20.98351,65.67125],[20.98434,65.67197],[20.98532,65.67198],[20.98668,65.67235],[20.99057,65.67371],[20.99059,65.6739],[20.98958,65.67425],[20.98985,65.67497],[20.99254,65.67466],[20.99209,65.67442],[20.9922,65.67419],[20.99329,65.67453],[20.99324,65.67402],[20.99376,65.67368],[20.995,65.6737],[20.99597,65.67349],[20.99773,65.67387],[20.99856,65.67447],[20.99962,65.67452],[20.99951,65.67469],[21.00102,65.67535],[21.00244,65.67502],[21.00292,65.67516],[21.00435,65.6748],[21.00546,65.67502],[21.00601,65.67481],[21.00551,65.67436],[21.00624,65.6722],[21.00702,65.67166],[21.01055,65.67189],[21.01628,65.6742],[21.01513,65.67682],[21.01249,65.67978],[21.01121,65.68176],[21.01243,65.68251],[21.01042,65.68319],[21.00927,65.68337],[21.01088,65.68608],[21.00999,65.69044],[21.01458,65.68888]]]}}]}