{"type":"FeatureCollection","features":[{"type":"Feature","id":"2580R005","properties":{"code":"2580R005","name":"Bergviken"},"geometry":{"type":"Polygon","coordinates":[[[22.15833,65.60902],[22.16565,65.60594],[22.16763,65.60606],[22.17201,65.60138],[22.17042,65.59697],[22.17183,65.59574],[22.1707,65.59477],[22.16899,65.59489],[22.16708,65.59476],[22.15912,65.59326],[22.15509,65.59299],[22.15468,65.59524],[22.15104,65.59779],[22.15539,65.5991],[22.15812,65.60031],[22.15811,65.60061],[22.1593,65.60098],[22.1602,65.60102],[22.15792,65.60374],[22.15489,65.60512],[22.15698,65.60491],[22.15318,65.607],[22.15833,65.60902]]]}},{"type":"Feature","id":"2580R001","properties":{"code":"2580R001","name":"Antnäs"},"geometry":{"type":"Polygon","coordinates":[[[21.77188,65.59248],[21.77992,65.59201],[21.784,65.59114],[21.78967,65.58861],[21.79153,65.58739],[21.79277,65.5853],[21.79265,65.58422],[21.79186,65.58276],[21.79503,65.58189],[21.79741,65.58083],[21.79906,65.57956],[21.79988,65.57818],[21.79993,65.57708],[21.79923,65.57569],[21.79556,65.5728],[21.79841,65.57204],[21.80074,65.57101],[21.80387,65.56866],[21.80525,65.56728],[21.81049,65.56624],[21.81392,65.56535],[21.81661,65.56596],[21.81911,65.56626],[21.8217,65.56637],[21.82499,65.56625],[21.82996,65.56581],[21.83506,65.56496],[21.83804,65.56434],[21.84038,65.56359],[21.84435,65.56353],[21.84753,65.56311],[21.85269,65.56155],[21.85824,65.55858],[21.86179,65.55769],[21.86437,65.55655],[21.86615,65.55519],[21.867,65.55377],[21.86638,65.54982],[21.86559,65.54875],[21.86384,65.54748],[21.8588,65.54557],[21.85505,65.54474],[21.85073,65.54351],[21.84634,65.54283],[21.84198,65.54271],[21.83555,65.54333],[21.83328,65.54377],[21.83064,65.54462],[21.82607,65.54687],[21.82455,65.54792],[21.82046,65.54958],[21.81649,65.54927],[21.81301,65.54941],[21.80979,65.54989],[21.80736,65.55054],[21.8044,65.55083],[21.80175,65.55134],[21.79954,65.55201],[21.79769,65.55283],[21.79624,65.55378],[21.79516,65.55498],[21.79198,65.55614],[21.78912,65.55683],[21.78592,65.55653],[21.7834,65.55653],[21.78013,65.55683],[21.77785,65.55727],[21.77344,65.55717],[21.77098,65.55729],[21.76645,65.5581],[21.76308,65.55944],[21.76097,65.5611],[21.76015,65.56273],[21.75629,65.56412],[21.75401,65.56562],[21.75181,65.56977],[21.75173,65.57128],[21.7481,65.57251],[21.74563,65.57412],[21.74356,65.57713],[21.74361,65.57886],[21.74537,65.5808],[21.74881,65.58241],[21.74965,65.58333],[21.75058,65.58549],[21.75176,65.5865],[21.75397,65.58764],[21.75754,65.58888],[21.76053,65.58948],[21.76356,65.59096],[21.76702,65.59195],[21.77188,65.59248]]]}},{"type":"Feature","id":"2580R002","properties":{"code":"2580R002","name":"Antnäs omland"},"geometry":{"type":"Polygon","coordinates":[[[21.5345,65.71747],[21.53576,65.71707],[21.53576,65.7164],[21.53647,65.7162],[21.53637,65.71535],[21.53711,65.71497],[21.53942,65.71462],[21.54029,65.71482],[21.55125,65.71231],[21.5529,65.71154],[21.55282,65.71081],[21.55354,65.7107],[21.5544,65.71027],[21.55429,65.71001],[21.55496,65.70979],[21.55613,65.70969],[21.55776,65.70924],[21.56033,65.70928],[21.5628,65.70896],[21.56351,65.70848],[21.5637,65.70763],[21.56329,65.70719],[21.56756,65.70428],[21.56773,65.70303],[21.57014,65.70178],[21.56995,65.70135],[21.57039,65.70108],[21.57026,65.70071],[21.5697,65.70062],[21.56968,65.70006],[21.572,65.69921],[21.57292,65.69913],[21.57335,65.6993],[21.57541,65.69903],[21.57702,65.69911],[21.57699,65.69793],[21.58245,65.69588],[21.59489,65.68409],[21.60313,65.68025],[21.64621,65.66836],[21.74584,65.68775],[21.74719,65.6868],[21.8001,65.69717],[21.81988,65.68805],[21.8272,65.67537],[21.8272,65.67298],[21.83324,65.67014],[21.86126,65.66307],[21.87011,65.66916],[21.89228,65.66846],[21.89357,65.66673],[21.89613,65.66525],[21.90068,65.66365],[21.90346,65.66305],[21.90631,65.66269],[21.90859,65.66152],[21.9153,65.65909],[21.91585,65.65843],[21.91601,65.65659],[21.91798,65.65438],[21.92059,65.65305],[21.92563,65.65157],[21.92687,65.6501],[21.92941,65.64863],[21.93149,65.64791],[21.93457,65.64724],[21.93486,65.64609],[21.93562,65.64508],[21.93839,65.64336],[21.95191,65.64104],[21.95463,65.64097],[21.96049,65.64128],[21.96339,65.64178],[21.96636,65.64263],[21.96947,65.64311],[21.97165,65.64368],[21.97294,65.64344],[21.97693,65.63995],[21.97921,65.63871],[21.98201,65.6378],[21.98452,65.6373],[21.98715,65.63702],[21.99047,65.63696],[21.99153,65.63572],[21.99464,65.63373],[22.00193,65.63054],[21.99735,65.61145],[21.93713,65.58962],[21.90311,65.60139],[21.89943,65.60176],[21.88804,65.6065],[21.88023,65.60557],[21.8612,65.59144],[21.82619,65.56616],[21.81992,65.56632],[21.81661,65.56596],[21.81392,65.56535],[21.81049,65.56624],[21.80525,65.56728],[21.80387,65.56866],[21.80074,65.57101],[21.79841,65.57204],[21.79556,65.5728],[21.79718,65.57386],[21.79949,65.57604],[21.79997,65.57745],[21.79958,65.57888],[21.79835,65.5802],[21.79687,65.58112],[21.79503,65.58189],[21.79186,65.58276],[21.79265,65.58422],[21.79277,65.5853],[21.79217,65.5867],[21.79113,65.58772],[21.78602,65.59039],[21.78332,65.59134],[21.77992,65.59201],[21.77441,65.59245],[21.77106,65.59245],[21.76856,65.59221],[21.76421,65.5912],[21.76053,65.58948],[21.75681,65.58867],[21.75235,65.58687],[21.7503,65.58515],[21.74965,65.58333],[21.74881,65.58241],[21.74587,65.58111],[21.74427,65.57986],[21.74342,65.57782],[21.74391,65.57645],[21.74597,65.5738],[21.74866,65.57226],[21.75173,65.57128],[21.75172,65.57011],[21.75259,65.56788],[21.75437,65.56529],[21.75685,65.56387],[21.76015,65.56273],[21.76072,65.56143],[21.76176,65.56031],[21.76308,65.55944],[21.76515,65.55853],[21.76715,65.55792],[21.77018,65.55738],[21.77344,65.55717],[21.77688,65.55726],[21.77713,65.55628],[21.78092,65.5526],[21.78483,65.55],[21.79001,65.54465],[21.80412,65.53618],[21.82804,65.52513],[21.86067,65.52],[21.86562,65.51665],[21.88233,65.51876],[21.88463,65.52462],[21.89481,65.52343],[21.90807,65.52482],[21.92137,65.52277],[21.94509,65.52234],[21.94656,65.52184],[21.95142,65.51947],[21.95277,65.51911],[21.95523,65.51881],[21.9555,65.51902],[21.95753,65.51915],[21.95925,65.51968],[21.96025,65.51977],[21.96108,65.51962],[21.96091,65.51927],[21.96405,65.51866],[21.96735,65.51752],[21.96892,65.51718],[21.9707,65.51738],[21.97206,65.51788],[21.97165,65.51909],[21.97057,65.51882],[21.96978,65.5196],[21.97141,65.52015],[21.97254,65.52006],[21.97236,65.52035],[21.97409,65.52094],[21.97484,65.52149],[21.97562,65.52178],[21.97653,65.52176],[21.97914,65.5206],[21.97785,65.51993],[21.97862,65.51746],[21.98194,65.51652],[21.98563,65.51591],[21.99208,65.5142],[21.99508,65.5132],[22.00033,65.51228],[22.00249,65.51398],[22.0053,65.51406],[22.00703,65.51387],[22.01018,65.51305],[22.01491,65.51329],[22.01563,65.51445],[22.0166,65.51503],[22.01941,65.51482],[22.0216,65.5142],[22.02085,65.51548],[22.02158,65.51633],[22.02347,65.51731],[22.02519,65.5177],[22.02807,65.51746],[22.02947,65.51688],[22.03022,65.51719],[22.03245,65.51749],[22.03349,65.51794],[22.03465,65.51786],[22.03422,65.51874],[22.03639,65.5195],[22.03778,65.51967],[22.03735,65.51321],[22.04734,65.50994],[22.049,65.50599],[22.05833,65.50087],[22.06622,65.49825],[22.08585,65.48829],[22.10577,65.48581],[22.13742,65.50731],[22.17023,65.5059],[22.21091,65.48614],[22.24802,65.46744],[22.2827,65.42023],[22.31267,65.41655],[22.37916,65.42606],[22.46206,65.45484],[22.51873,65.45232],[22.89908,65.36025],[23.08975,65.28446],[23.08971,65.27561],[23.08901,65.26866],[23.08772,65.26173],[23.08587,65.25481],[23.08343,65.24793],[23.08043,65.24109],[23.07686,65.23429],[23.07273,65.22755],[23.06805,65.22088],[23.06281,65.21428],[23.05704,65.20776],[23.05072,65.20133],[23.04388,65.19499],[23.03652,65.18876],[23.02865,65.18263],[23.02028,65.17663],[23.01142,65.17075],[23.00209,65.16501],[22.99228,65.15941],[22.98202,65.15395],[22.97132,65.14864],[22.96019,65.1435],[22.94864,65.13852],[22.9367,65.13371],[22.92436,65.12908],[22.91165,65.12464],[22.89859,65.12038],[22.88518,65.11631],[22.87146,65.11245],[22.85742,65.10878],[22.84309,65.10533],[22.82849,65.10208],[22.81363,65.09905],[22.79853,65.09624],[22.78322,65.09365],[22.7677,65.09129],[22.75199,65.08915],[22.73613,65.08725],[22.72011,65.08558],[22.70397,65.08414],[22.68772,65.08294],[22.67139,65.08198],[22.65498,65.08126],[22.63853,65.08078],[22.62204,65.08053],[22.60555,65.08053],[22.58907,65.08078],[22.57261,65.08126],[22.55621,65.08198],[22.53987,65.08294],[22.52362,65.08414],[22.49896,65.08643],[22.45128,65.06965],[22.32007,65.14664],[21.93748,65.36231],[21.91506,65.39814],[21.89654,65.40987],[21.89688,65.41024],[21.89618,65.41092],[21.89471,65.41103],[21.82611,65.45475],[21.7345,65.47983],[21.70064,65.49507],[21.70606,65.4952],[21.70804,65.49618],[21.70672,65.49719],[21.70112,65.49784],[21.69708,65.49666],[21.68599,65.50157],[21.68641,65.50175],[21.68514,65.50231],[21.68426,65.50234],[21.67275,65.50746],[21.56336,65.55656],[21.5045,65.58412],[21.48987,65.59132],[21.39599,65.61944],[21.38643,65.61782],[21.37999,65.6457],[21.33572,65.67162],[21.46423,65.69056],[21.46898,65.68511],[21.47409,65.68271],[21.47891,65.67904],[21.47919,65.67809],[21.47772,65.67726],[21.47758,65.6769],[21.47442,65.67727],[21.47277,65.67765],[21.47074,65.67707],[21.4682,65.67436],[21.46788,65.67306],[21.47053,65.67075],[21.47042,65.67017],[21.47131,65.66866],[21.47196,65.66802],[21.47435,65.66702],[21.47533,65.66552],[21.47666,65.66518],[21.47828,65.66439],[21.48226,65.66329],[21.51295,65.68909],[21.5139,65.68837],[21.53027,65.69908],[21.52944,65.6993],[21.52824,65.69933],[21.52744,65.69978],[21.5242,65.69951],[21.51996,65.70014],[21.51846,65.70178],[21.51447,65.7036],[21.51423,65.70438],[21.51236,65.70497],[21.51173,65.70548],[21.51204,65.70556],[21.51255,65.7051],[21.51465,65.70438],[21.51502,65.7035],[21.51842,65.70203],[21.52018,65.70066],[21.52326,65.70038],[21.54479,65.7125],[21.54409,65.71264],[21.54285,65.71335],[21.54297,65.71362],[21.5392,65.71457],[21.53669,65.71498],[21.536,65.71546],[21.53633,65.7162],[21.53504,65.71647],[21.53546,65.71691],[21.53481,65.71737],[21.53373,65.71742],[21.53199,65.71711],[21.52991,65.71704],[21.52919,65.71705],[21.52848,65.71728],[21.52947,65.71711],[21.53278,65.71739],[21.5345,65.71747]]]}},{"type":"Feature","id":"2580R003","properties":{"code":"2580R003","name":"Bergnäset-Bergstaden"},"geometry":{"type":"Polygon","coordinates":[[[22.07793,65.58396],[22.07417,65.58037],[22.08346,65.57821],[22.08699,65.57761],[22.10404,65.57719],[22.10476,65.57614],[22.10613,65.57522],[22.10818,65.57448],[22.10537,65.57144],[22.1039,65.57206],[22.10067,65.57064],[22.09559,65.5695],[22.09442,65.56948],[22.09396,65.56699],[22.11006,65.55967],[22.10779,65.55873],[22.10483,65.558],[22.10244,65.55767],[22.09911,65.55755],[22.09661,65.55768],[22.09274,65.5582],[22.08962,65.55886],[22.08311,65.56082],[22.07633,65.5622],[22.07357,65.56311],[22.07134,65.56435],[22.06703,65.56578],[22.06552,65.56666],[22.06222,65.56933],[22.06097,65.5712],[22.06055,65.57329],[22.06142,65.57572],[22.06058,65.57704],[22.06047,65.57816],[22.06178,65.58033],[22.06462,65.58203],[22.06824,65.58321],[22.07256,65.58384],[22.07662,65.58399],[22.07793,65.58396]]]}},{"type":"Feature","id":"2580R004","properties":{"code":"2580R004","name":"Bergnäset-Trollstaden"},"geometry":{"type":"Polygon","coordinates":[[[22.10832,65.58702],[22.11792,65.58396],[22.12489,65.57571],[22.14157,65.57239],[22.14318,65.57098],[22.14368,65.56997],[22.14378,65.56792],[22.14297,65.56399],[22.14179,65.56171],[22.13996,65.56024],[22.13831,65.55941],[22.13626,65.5587],[22.13321,65.55806],[22.12981,65.55775],[22.12572,65.55781],[22.12163,65.55837],[22.11826,65.55934],[22.11508,65.55931],[22.11006,65.55967],[22.09396,65.56699],[22.09442,65.56948],[22.09559,65.5695],[22.10067,65.57064],[22.1039,65.57206],[22.10537,65.57144],[22.10583,65.57186],[22.10818,65.57448],[22.10613,65.57522],[22.10476,65.57614],[22.10404,65.57719],[22.08699,65.57761],[22.08346,65.57821],[22.07417,65.58037],[22.07793,65.58396],[22.08252,65.58389],[22.08583,65.58354],[22.08927,65.58492],[22.09372,65.58609],[22.10053,65.58708],[22.10315,65.58718],[22.10832,65.58702]]]}},{"type":"Feature","id":"2580R006","properties":{"code":"2580R006","name":"Björkskatan-Hällbacken"},"geometry":{"type":"Polygon","coordinates":[[[22.21359,65.62886],[22.21949,65.62856],[22.22352,65.62782],[22.22806,65.62624],[22.22981,65.62507],[22.23064,65.62406],[22.231,65.62269],[22.23071,65.62165],[22.22893,65.61955],[22.22771,65.61861],[22.22814,65.61711],[22.22763,65.61567],[22.22558,65.61371],[22.22259,65.61239],[22.21887,65.61154],[22.21545,65.61123],[22.21196,65.61128],[22.20734,65.61182],[22.20554,65.61159],[22.2031,65.60993],[22.20257,65.60811],[22.20045,65.60633],[22.18642,65.60739],[22.18115,65.60705],[22.1788,65.61158],[22.17568,65.61171],[22.1748,65.61199],[22.17401,65.61291],[22.17266,65.61321],[22.17284,65.61354],[22.1629,65.61322],[22.16154,65.61434],[22.1618,65.61518],[22.15793,65.62048],[22.1559,65.62261],[22.16744,65.62555],[22.16504,65.62715],[22.16829,65.62759],[22.1724,65.62765],[22.17258,65.62901],[22.17371,65.6305],[22.17559,65.63174],[22.1783,65.63279],[22.18241,65.63366],[22.18829,65.63424],[22.19096,65.63434],[22.19437,65.63415],[22.19905,65.63322],[22.20573,65.63046],[22.20964,65.62989],[22.21359,65.62886]]]}},{"type":"Feature","id":"2580R007","properties":{"code":"2580R007","name":"Gammelstad"},"geometry":{"type":"Polygon","coordinates":[[[22.05001,65.65298],[22.05201,65.65165],[22.05305,65.65025],[22.05321,65.64879],[22.05258,65.64747],[22.05413,65.64638],[22.05504,65.64526],[22.05698,65.64446],[22.05875,65.64328],[22.05957,65.64229],[22.05994,65.64092],[22.05903,65.6385],[22.05696,65.63661],[22.054,65.63508],[22.04969,65.63359],[22.04353,65.63552],[22.0405,65.63494],[22.03875,65.63424],[22.03679,65.63437],[22.03583,65.63421],[22.02719,65.63805],[22.02579,65.6372],[22.02577,65.63658],[22.02455,65.63585],[22.02222,65.63506],[22.01918,65.63516],[22.01555,65.63345],[22.017,65.63301],[22.00193,65.63054],[21.99464,65.63373],[21.99153,65.63572],[21.99047,65.63696],[21.98531,65.63719],[21.98277,65.63762],[21.98034,65.63829],[21.98066,65.63896],[21.97542,65.64232],[21.97303,65.64777],[21.97272,65.65095],[21.97437,65.65127],[21.97549,65.6519],[21.97573,65.65321],[21.98306,65.65468],[21.98593,65.65494],[21.98833,65.6546],[21.99212,65.6544],[21.99989,65.65238],[22.00214,65.65363],[22.0091,65.65111],[22.01177,65.6526],[22.01524,65.65358],[22.01932,65.65407],[22.02339,65.65404],[22.0277,65.65535],[22.03211,65.65589],[22.03566,65.65588],[22.03999,65.65543],[22.04578,65.65444],[22.04802,65.65381],[22.05001,65.65298]]]}},{"type":"Feature","id":"2580R008","properties":{"code":"2580R008","name":"Gammelstad-Ektjärn"},"geometry":{"type":"Polygon","coordinates":[[[22.02719,65.63805],[22.03583,65.63421],[22.03679,65.63437],[22.03875,65.63424],[22.0405,65.63494],[22.04353,65.63552],[22.04969,65.63359],[22.04861,65.63311],[22.04955,65.63201],[22.04992,65.63081],[22.05264,65.63048],[22.05629,65.62969],[22.05917,65.6288],[22.06111,65.62793],[22.05838,65.62259],[22.0545,65.60919],[22.05146,65.60454],[22.04833,65.60122],[22.04294,65.59702],[22.0358,65.59313],[22.02805,65.59054],[22.01278,65.59562],[22.00459,65.60709],[21.99735,65.61145],[22.00193,65.63054],[22.017,65.63301],[22.01555,65.63345],[22.01918,65.63516],[22.02222,65.63506],[22.02455,65.63585],[22.02577,65.63658],[22.02579,65.6372],[22.02719,65.63805]]]}},{"type":"Feature","id":"2580R009","properties":{"code":"2580R009","name":"Hertsön"},"geometry":{"type":"Polygon","coordinates":[[[22.26689,65.5917],[22.27073,65.59058],[22.27399,65.58915],[22.27748,65.58716],[22.2786,65.58621],[22.2831,65.58416],[22.28568,65.58208],[22.28627,65.57986],[22.28517,65.57802],[22.2823,65.57622],[22.27791,65.57452],[22.2677,65.57105],[22.26475,65.57032],[22.26227,65.56999],[22.25916,65.56983],[22.25564,65.56998],[22.26089,65.56391],[22.25953,65.56354],[22.2349,65.56669],[22.23131,65.56862],[22.22998,65.57014],[22.22732,65.57127],[22.2276,65.57222],[22.22685,65.5752],[22.22912,65.57911],[22.2218,65.58062],[22.22075,65.58534],[22.22371,65.5866],[22.22649,65.58861],[22.22648,65.58949],[22.2277,65.59024],[22.23263,65.59196],[22.23558,65.59249],[22.23785,65.59277],[22.24126,65.59291],[22.24523,65.59276],[22.24804,65.59244],[22.26114,65.59429],[22.26689,65.5917]]]}},{"type":"Feature","id":"2580R010","properties":{"code":"2580R010","name":"Kallax-Gäddvik-Hertsölandet"},"geometry":{"type":"Polygon","coordinates":[[[22.21488,65.63087],[22.23254,65.62909],[22.24727,65.62833],[22.2532,65.61436],[22.28388,65.60527],[22.28864,65.60708],[22.29781,65.60904],[22.31383,65.60395],[22.31912,65.60047],[22.32644,65.59935],[22.34954,65.59323],[22.40134,65.58228],[22.42009,65.56719],[22.40402,65.55627],[22.40716,65.5504],[22.40187,65.54659],[22.40873,65.54689],[22.41182,65.54593],[22.42971,65.54168],[22.43202,65.53743],[22.42978,65.53311],[22.42114,65.53342],[22.40738,65.53604],[22.4038,65.52247],[22.42063,65.51594],[22.41845,65.50746],[22.41266,65.47798],[22.40997,65.47552],[22.31621,65.47534],[22.31261,65.46306],[22.24802,65.46744],[22.21091,65.48614],[22.17023,65.5059],[22.13742,65.50731],[22.10577,65.48581],[22.08585,65.48829],[22.06622,65.49825],[22.05833,65.50087],[22.049,65.50599],[22.04734,65.50994],[22.03735,65.51321],[22.03797,65.51944],[22.03701,65.52064],[22.04447,65.55005],[21.97102,65.57013],[21.94456,65.58818],[21.94241,65.58737],[21.93709,65.58961],[21.99735,65.61145],[22.00459,65.60709],[22.01278,65.59562],[22.03552,65.58806],[22.05319,65.58557],[22.06284,65.58975],[22.06658,65.5902],[22.07101,65.58974],[22.07556,65.58875],[22.08046,65.58855],[22.09294,65.58589],[22.08862,65.58471],[22.08583,65.58354],[22.08252,65.58389],[22.07579,65.58398],[22.07153,65.58375],[22.06824,65.58321],[22.06538,65.58235],[22.06256,65.58093],[22.0611,65.5796],[22.06047,65.57816],[22.06058,65.57704],[22.06142,65.57572],[22.06057,65.57373],[22.06111,65.57086],[22.06222,65.56933],[22.06599,65.56634],[22.06823,65.56527],[22.07134,65.56435],[22.07301,65.56336],[22.07497,65.56259],[22.08311,65.56082],[22.09031,65.55868],[22.09661,65.55768],[22.10162,65.55761],[22.10636,65.55832],[22.11019,65.55974],[22.11508,65.55931],[22.11826,65.55934],[22.12238,65.55822],[22.12654,65.55777],[22.13157,65.55786],[22.13557,65.55852],[22.13831,65.55941],[22.14076,65.56078],[22.14204,65.56204],[22.14281,65.56362],[22.14378,65.56792],[22.14374,65.56963],[22.14318,65.57098],[22.14157,65.57239],[22.14768,65.57314],[22.15166,65.57422],[22.15581,65.57444],[22.15691,65.57429],[22.15777,65.57171],[22.16046,65.5678],[22.16148,65.56687],[22.16348,65.56578],[22.16601,65.56494],[22.1684,65.56323],[22.17103,65.56187],[22.17599,65.55986],[22.17904,65.55833],[22.18123,65.55759],[22.18413,65.5549],[22.18612,65.55381],[22.21053,65.55233],[22.258,65.54122],[22.2621,65.54111],[22.26694,65.54169],[22.26987,65.54168],[22.27246,65.54189],[22.27894,65.54003],[22.28906,65.53905],[22.29818,65.53917],[22.3048,65.53995],[22.30868,65.54077],[22.3136,65.54224],[22.31691,65.54379],[22.31795,65.54472],[22.31864,65.54606],[22.31789,65.54965],[22.28021,65.56088],[22.25953,65.56354],[22.26089,65.56391],[22.25564,65.56998],[22.26104,65.5699],[22.26392,65.57019],[22.26628,65.57065],[22.27791,65.57452],[22.28278,65.57645],[22.28517,65.57802],[22.28632,65.5802],[22.28568,65.58208],[22.28355,65.58387],[22.2786,65.58621],[22.27509,65.58859],[22.27197,65.59009],[22.27008,65.5908],[22.26748,65.59142],[22.26115,65.59428],[22.25609,65.59585],[22.25339,65.59767],[22.24932,65.59957],[22.24619,65.60058],[22.24196,65.60134],[22.23566,65.60168],[22.22674,65.60138],[22.22134,65.60101],[22.21788,65.60212],[22.21291,65.60409],[22.20894,65.6049],[22.20338,65.60538],[22.20045,65.60633],[22.20257,65.60811],[22.2031,65.60993],[22.20554,65.61159],[22.20734,65.61182],[22.21367,65.61121],[22.21796,65.61142],[22.22193,65.61219],[22.22558,65.61371],[22.22712,65.61498],[22.22799,65.61637],[22.22813,65.61745],[22.22771,65.61861],[22.22923,65.61987],[22.23086,65.622],[22.23081,65.62373],[22.22945,65.62537],[22.2269,65.62676],[22.22202,65.62817],[22.21741,65.62874],[22.21314,65.62889],[22.20964,65.62989],[22.20573,65.63046],[22.19971,65.63301],[22.196,65.63393],[22.1935,65.63424],[22.19006,65.63433],[22.18195,65.63359],[22.17849,65.63484],[22.17816,65.63553],[22.17972,65.63643],[22.17639,65.63634],[22.17606,65.63698],[22.17441,65.63832],[22.19364,65.64047],[22.21488,65.63087]]]}},{"type":"Feature","id":"2580R011","properties":{"code":"2580R011","name":"Kallkällan"},"geometry":{"type":"Polygon","coordinates":[[[22.132,65.61578],[22.1342,65.61289],[22.13951,65.61346],[22.14409,65.61457],[22.14518,65.61454],[22.15832,65.60902],[22.15318,65.607],[22.15698,65.60491],[22.15489,65.60512],[22.15792,65.60374],[22.1602,65.60102],[22.1593,65.60098],[22.15811,65.60061],[22.15812,65.60031],[22.15539,65.5991],[22.15104,65.59779],[22.15468,65.59524],[22.15509,65.59299],[22.15182,65.59337],[22.14558,65.59533],[22.1415,65.59528],[22.13777,65.59945],[22.13424,65.60168],[22.13605,65.60265],[22.13757,65.60465],[22.11948,65.6105],[22.11621,65.61171],[22.11399,65.61338],[22.11961,65.61392],[22.12217,65.61471],[22.13085,65.61544],[22.132,65.61578]]]}},{"type":"Feature","id":"2580R015","properties":{"code":"2580R015","name":"Lulsundet"},"geometry":{"type":"Polygon","coordinates":[[[22.17266,65.61321],[22.17401,65.61291],[22.1748,65.61199],[22.17568,65.61171],[22.1788,65.61158],[22.18115,65.60705],[22.18642,65.60739],[22.18443,65.60491],[22.18672,65.59989],[22.18509,65.59898],[22.18233,65.5983],[22.18412,65.59743],[22.18245,65.59651],[22.17654,65.59657],[22.17542,65.59632],[22.17526,65.59571],[22.17461,65.59537],[22.17522,65.59452],[22.17414,65.59387],[22.17284,65.59437],[22.1707,65.59477],[22.17183,65.59574],[22.17042,65.59697],[22.17201,65.60138],[22.16763,65.60606],[22.16565,65.60594],[22.15773,65.60924],[22.16213,65.61202],[22.1629,65.61322],[22.17284,65.61354],[22.17266,65.61321]]]}},{"type":"Feature","id":"2580R012","properties":{"code":"2580R012","name":"Kronan"},"geometry":{"type":"Polygon","coordinates":[[[22.20308,65.60551],[22.20894,65.6049],[22.2122,65.60427],[22.21435,65.60366],[22.21788,65.60212],[22.22135,65.60101],[22.21491,65.59658],[22.21469,65.59482],[22.20355,65.59311],[22.19156,65.59068],[22.19347,65.58967],[22.18841,65.58848],[22.18779,65.5887],[22.18638,65.58835],[22.18766,65.58647],[22.18616,65.58491],[22.18215,65.58786],[22.18014,65.59112],[22.17852,65.59208],[22.17414,65.59387],[22.17522,65.59452],[22.17461,65.59537],[22.17526,65.59571],[22.17542,65.59632],[22.17654,65.59657],[22.18245,65.59651],[22.18412,65.59743],[22.18233,65.5983],[22.18509,65.59898],[22.18665,65.59981],[22.18443,65.60491],[22.18642,65.60739],[22.20045,65.60633],[22.20308,65.60551]]]}},{"type":"Feature","id":"2580R013","properties":{"code":"2580R013","name":"Lerbäcken-Bredviken"},"geometry":{"type":"Polygon","coordinates":[[[22.23991,65.6015],[22.24454,65.60096],[22.24854,65.59987],[22.25393,65.59741],[22.25609,65.59585],[22.26114,65.59429],[22.24804,65.59244],[22.24346,65.59287],[22.23962,65.59289],[22.23558,65.59249],[22.23263,65.59196],[22.2277,65.59024],[22.22648,65.58949],[22.22649,65.58861],[22.22371,65.5866],[22.22075,65.58534],[22.21881,65.58494],[22.21546,65.58466],[22.20781,65.58324],[22.20499,65.5857],[22.20258,65.58703],[22.20317,65.58735],[22.20257,65.58754],[22.20307,65.58788],[22.20178,65.58827],[22.20232,65.5886],[22.20296,65.58842],[22.20328,65.58865],[22.20664,65.58823],[22.20673,65.58786],[22.20793,65.58769],[22.21026,65.58819],[22.21035,65.58895],[22.20792,65.58965],[22.20602,65.58959],[22.20548,65.58986],[22.20065,65.59053],[22.20095,65.59133],[22.19935,65.59226],[22.20355,65.59311],[22.21469,65.59482],[22.21491,65.59658],[22.22135,65.60101],[22.23339,65.60168],[22.23991,65.6015]]]}},{"type":"Feature","id":"2580R014","properties":{"code":"2580R014","name":"Luleå centrum"},"geometry":{"type":"Polygon","coordinates":[[[22.17035,65.59295],[22.1767,65.59037],[22.17118,65.58185],[22.16766,65.57832],[22.15691,65.57421],[22.15581,65.57444],[22.15166,65.57422],[22.14768,65.57314],[22.14242,65.57246],[22.14157,65.57239],[22.13904,65.57285],[22.12489,65.57571],[22.11792,65.58396],[22.10832,65.58702],[22.10988,65.58696],[22.11079,65.589],[22.144,65.59266],[22.1415,65.59528],[22.14558,65.59533],[22.15182,65.59337],[22.15509,65.59299],[22.15912,65.59326],[22.16708,65.59476],[22.17012,65.59484],[22.17284,65.59437],[22.17414,65.59387],[22.17035,65.59295]]]}},{"type":"Feature","id":"2580R016","properties":{"code":"2580R016","name":"Lövskatan-Svartöstaden"},"geometry":{"type":"Polygon","coordinates":[[[22.17064,65.58128],[22.17936,65.57941],[22.18341,65.57887],[22.18417,65.57852],[22.19372,65.5801],[22.19813,65.57815],[22.19968,65.57722],[22.20087,65.5762],[22.20138,65.57509],[22.20398,65.5739],[22.21023,65.56968],[22.21719,65.56863],[22.22597,65.56672],[22.22732,65.57127],[22.22998,65.57014],[22.23131,65.56862],[22.2349,65.56669],[22.28021,65.56088],[22.31789,65.54965],[22.31864,65.54606],[22.31795,65.54472],[22.31691,65.54379],[22.31429,65.54248],[22.30868,65.54077],[22.30403,65.53983],[22.29736,65.53913],[22.28823,65.53907],[22.28049,65.53979],[22.27748,65.54034],[22.27246,65.54189],[22.26987,65.54168],[22.26694,65.54169],[22.26292,65.54115],[22.25881,65.54116],[22.21053,65.55233],[22.18612,65.55381],[22.18413,65.5549],[22.18123,65.55759],[22.17904,65.55833],[22.17599,65.55986],[22.17103,65.56187],[22.1684,65.56323],[22.16601,65.56494],[22.16348,65.56578],[22.16192,65.56658],[22.16046,65.5678],[22.15758,65.57204],[22.15691,65.57421],[22.16766,65.57832],[22.17064,65.58128]]]}},{"type":"Feature","id":"2580R017","properties":{"code":"2580R017","name":"Mjölkudden-Munkeberg"},"geometry":{"type":"Polygon","coordinates":[[[22.13427,65.60166],[22.13824,65.59902],[22.144,65.59266],[22.11079,65.589],[22.11333,65.59136],[22.11475,65.59223],[22.10964,65.59385],[22.12264,65.59681],[22.12573,65.59884],[22.12345,65.59964],[22.12828,65.60181],[22.13086,65.6016],[22.13211,65.60108],[22.13427,65.60166]]]}},{"type":"Feature","id":"2580R018","properties":{"code":"2580R018","name":"Mjölkudden-Notviken-Karlsvik"},"geometry":{"type":"Polygon","coordinates":[[[22.0658,65.6259],[22.0684,65.62348],[22.07299,65.62407],[22.0773,65.62401],[22.08532,65.62291],[22.09274,65.62151],[22.09506,65.62083],[22.09977,65.61825],[22.11399,65.61338],[22.11621,65.61171],[22.13757,65.60465],[22.13605,65.60265],[22.13424,65.60168],[22.13211,65.60108],[22.13086,65.6016],[22.12828,65.60181],[22.12345,65.59964],[22.12573,65.59884],[22.12264,65.59681],[22.10964,65.59385],[22.11475,65.59223],[22.11333,65.59136],[22.11074,65.58895],[22.10988,65.58696],[22.10135,65.58714],[22.09645,65.58659],[22.09294,65.58589],[22.08046,65.58855],[22.07556,65.58875],[22.07101,65.58974],[22.06658,65.5902],[22.06284,65.58975],[22.05319,65.58557],[22.03552,65.58806],[22.02805,65.59054],[22.0358,65.59313],[22.04294,65.59702],[22.04833,65.60122],[22.05146,65.60454],[22.0545,65.60919],[22.05838,65.62259],[22.06111,65.62793],[22.06034,65.62835],[22.0658,65.6259]],[[22.09836,65.60934],[22.09876,65.60907],[22.09814,65.6089],[22.0977,65.60931],[22.09367,65.60861],[22.0828,65.60726],[22.08316,65.60423],[22.08963,65.6028],[22.09643,65.59969],[22.10731,65.6047],[22.11698,65.60205],[22.11801,65.6028],[22.12032,65.60365],[22.12004,65.60395],[22.11535,65.60493],[22.1108,65.6063],[22.1105,65.60616],[22.10263,65.60886],[22.1008,65.60985],[22.09836,65.60934]]]}},{"type":"Feature","id":"2580R019","properties":{"code":"2580R019","name":"Måttsund"},"geometry":{"type":"Polygon","coordinates":[[[21.89943,65.60176],[21.90311,65.60139],[21.93713,65.58962],[21.94241,65.58737],[21.94456,65.58818],[21.97102,65.57013],[22.04447,65.55005],[22.03701,65.52064],[22.03778,65.51967],[22.03639,65.5195],[22.03422,65.51874],[22.03465,65.51786],[22.03349,65.51794],[22.03245,65.51749],[22.03022,65.51719],[22.02947,65.51688],[22.02807,65.51746],[22.02519,65.5177],[22.02347,65.51731],[22.02158,65.51633],[22.02085,65.51548],[22.0216,65.5142],[22.01941,65.51482],[22.0166,65.51503],[22.01563,65.51445],[22.01491,65.51329],[22.01018,65.51305],[22.00703,65.51387],[22.0053,65.51406],[22.00249,65.51398],[22.00033,65.51228],[21.99508,65.5132],[21.99208,65.5142],[21.98563,65.51591],[21.98194,65.51652],[21.97862,65.51746],[21.97785,65.51993],[21.97914,65.5206],[21.97653,65.52176],[21.97562,65.52178],[21.97484,65.52149],[21.97409,65.52094],[21.97236,65.52035],[21.97254,65.52006],[21.97141,65.52015],[21.96978,65.5196],[21.97057,65.51882],[21.97165,65.51909],[21.97206,65.51788],[21.9707,65.51738],[21.96892,65.51718],[21.96735,65.51752],[21.96405,65.51866],[21.96091,65.51927],[21.96108,65.51962],[21.96025,65.51977],[21.95925,65.51968],[21.95753,65.51915],[21.9555,65.51902],[21.95523,65.51881],[21.95277,65.51911],[21.95142,65.51947],[21.94656,65.52184],[21.94509,65.52234],[21.92137,65.52277],[21.90807,65.52482],[21.89481,65.52343],[21.88463,65.52462],[21.88233,65.51876],[21.86562,65.51665],[21.86067,65.52],[21.82804,65.52513],[21.80412,65.53618],[21.79001,65.54465],[21.78483,65.55],[21.78092,65.5526],[21.77713,65.55628],[21.77688,65.55726],[21.77785,65.55727],[21.78013,65.55683],[21.7834,65.55653],[21.78592,65.55653],[21.78912,65.55683],[21.79198,65.55614],[21.79516,65.55498],[21.79624,65.55378],[21.79769,65.55283],[21.79954,65.55201],[21.80175,65.55134],[21.8044,65.55083],[21.80736,65.55054],[21.80979,65.54989],[21.81301,65.54941],[21.81649,65.54927],[21.82046,65.54958],[21.82455,65.54792],[21.82607,65.54687],[21.83064,65.54462],[21.83328,65.54377],[21.83634,65.54322],[21.84287,65.54269],[21.84799,65.54303],[21.85165,65.54372],[21.85505,65.54474],[21.85875,65.54555],[21.86369,65.5474],[21.86524,65.54844],[21.86619,65.54949],[21.86711,65.55299],[21.86615,65.55519],[21.86371,65.5569],[21.86114,65.5579],[21.85824,65.55858],[21.85332,65.56129],[21.84902,65.56277],[21.84516,65.56346],[21.84038,65.56359],[21.83582,65.56482],[21.82996,65.56581],[21.82619,65.56616],[21.8612,65.59144],[21.88023,65.60557],[21.88804,65.6065],[21.89943,65.60176]]]}},{"type":"Feature","id":"2580R020","properties":{"code":"2580R020","name":"Persön-Persön omland"},"geometry":{"type":"Polygon","coordinates":[[[22.01355,65.87317],[22.10792,65.84497],[22.11481,65.84851],[22.12846,65.84209],[22.17539,65.82786],[22.1751,65.82915],[22.17577,65.82927],[22.1769,65.82778],[22.17777,65.82764],[22.17812,65.82739],[22.17795,65.82688],[22.17872,65.82699],[22.1844,65.82281],[22.18613,65.82313],[22.19538,65.81574],[22.19487,65.81554],[22.196,65.81472],[22.30423,65.79542],[22.32418,65.78757],[22.32395,65.78693],[22.32423,65.78674],[22.3306,65.78491],[22.35895,65.76447],[22.36096,65.76331],[22.46517,65.74551],[22.61869,65.75607],[22.61959,65.756],[22.6042,65.74897],[22.63687,65.73791],[22.65199,65.7256],[22.69221,65.73394],[22.71079,65.7308],[22.71697,65.71032],[22.73547,65.71119],[22.73904,65.71102],[22.74542,65.70911],[22.74724,65.70655],[22.74772,65.69814],[22.80195,65.69809],[22.83463,65.69117],[23.04395,65.41744],[23.13834,65.28809],[23.08975,65.28446],[22.89908,65.36025],[22.51873,65.45232],[22.46206,65.45484],[22.37916,65.42606],[22.31267,65.41655],[22.2827,65.42023],[22.24802,65.46744],[22.31261,65.46306],[22.31621,65.47534],[22.40997,65.47552],[22.41266,65.47798],[22.41845,65.50746],[22.42063,65.51594],[22.4038,65.52247],[22.40738,65.53604],[22.42114,65.53342],[22.42978,65.53311],[22.43202,65.53743],[22.42971,65.54168],[22.41182,65.54593],[22.40873,65.54689],[22.40187,65.54659],[22.40716,65.5504],[22.40402,65.55627],[22.42009,65.56719],[22.40134,65.58228],[22.34954,65.59323],[22.32644,65.59935],[22.31912,65.60047],[22.31383,65.60395],[22.29781,65.60904],[22.28864,65.60708],[22.28388,65.60527],[22.2532,65.61436],[22.24727,65.62833],[22.23254,65.62909],[22.21488,65.63087],[22.19364,65.64047],[22.17441,65.63832],[22.17606,65.63698],[22.17639,65.63634],[22.17972,65.63643],[22.17816,65.63553],[22.17849,65.63484],[22.18195,65.63359],[22.17753,65.63254],[22.1745,65.6311],[22.1728,65.62944],[22.1724,65.62765],[22.16829,65.62759],[22.16472,65.62714],[22.16323,65.62921],[22.16172,65.63015],[22.15933,65.6311],[22.15265,65.63311],[22.14903,65.63387],[22.14583,65.63421],[22.1417,65.63417],[22.13931,65.63388],[22.13246,65.63253],[22.13026,65.63181],[22.12543,65.63063],[22.12266,65.62936],[22.11657,65.62936],[22.11396,65.62906],[22.1114,65.62852],[22.10795,65.62725],[22.10591,65.62585],[22.10325,65.62513],[22.10003,65.62376],[22.09852,65.62282],[22.09743,65.62173],[22.09238,65.62146],[22.08532,65.62291],[22.0773,65.62401],[22.07299,65.62407],[22.0684,65.62348],[22.0674,65.62472],[22.0658,65.6259],[22.05978,65.62857],[22.0555,65.62989],[22.05264,65.63048],[22.04992,65.63081],[22.04955,65.63201],[22.04861,65.63311],[22.054,65.63508],[22.05696,65.63661],[22.05924,65.63886],[22.0599,65.64058],[22.05986,65.6416],[22.05838,65.64359],[22.05696,65.64447],[22.05504,65.64526],[22.05413,65.64638],[22.05258,65.64747],[22.05323,65.64957],[22.05191,65.65174],[22.04883,65.65351],[22.04428,65.65474],[22.03648,65.65583],[22.03294,65.65592],[22.03025,65.65574],[22.02625,65.65502],[22.02339,65.65404],[22.01843,65.65402],[22.01451,65.65343],[22.01119,65.65235],[22.0091,65.65111],[21.99604,65.65583],[21.99087,65.65738],[21.98624,65.65845],[21.98377,65.65882],[21.97995,65.65906],[21.97713,65.65901],[21.97482,65.65989],[21.96553,65.66237],[21.9654,65.66387],[21.96401,65.66552],[21.96101,65.6673],[21.95785,65.66835],[21.95552,65.66885],[21.95289,65.66916],[21.94971,65.67029],[21.9457,65.67101],[21.94029,65.67115],[21.93525,65.67056],[21.93467,65.67176],[21.93362,65.67279],[21.9321,65.67373],[21.92953,65.67473],[21.92529,65.67563],[21.91951,65.67604],[21.91562,65.67719],[21.9114,65.6777],[21.90708,65.67764],[21.90374,65.67719],[21.9008,65.6764],[21.89714,65.67476],[21.89565,65.67383],[21.89296,65.67129],[21.89223,65.66985],[21.89228,65.66846],[21.87011,65.66916],[21.86126,65.66307],[21.83324,65.67014],[21.8272,65.67298],[21.8272,65.67537],[21.81988,65.68805],[21.79802,65.69801],[21.7845,65.71154],[21.78943,65.71298],[21.79182,65.71285],[21.79455,65.71334],[21.79527,65.71283],[21.79703,65.71225],[21.83234,65.72769],[21.85935,65.73661],[21.92858,65.75292],[21.89277,65.78259],[21.88933,65.78278],[21.88983,65.80121],[21.89352,65.8015],[21.9118,65.805],[21.91017,65.80524],[21.91012,65.80542],[21.90621,65.80648],[21.90506,65.80702],[21.90295,65.80736],[21.90186,65.80778],[21.90326,65.80831],[21.91073,65.80613],[21.91136,65.80611],[21.91195,65.80636],[21.91253,65.8063],[21.91396,65.80679],[21.91604,65.80583],[21.97542,65.81698],[21.97131,65.81893],[21.97077,65.81945],[21.97013,65.81944],[21.96995,65.81979],[21.97047,65.81986],[21.96976,65.82117],[21.96846,65.82127],[21.96561,65.8221],[21.96492,65.82218],[21.96414,65.82203],[21.9611,65.82359],[21.95724,65.82459],[21.95692,65.8248],[21.96087,65.82625],[21.98226,65.81827],[21.98767,65.81928],[21.98748,65.81978],[21.98883,65.8202],[21.98944,65.82152],[21.99284,65.82379],[21.99355,65.82411],[21.99687,65.82467],[21.99942,65.82578],[22.0001,65.82636],[22.00139,65.82642],[22.00752,65.82566],[22.01301,65.82541],[22.01641,65.82542],[22.01808,65.82523],[22.02094,65.82536],[22.02733,65.82524],[22.02901,65.82595],[22.02794,65.8275],[22.02833,65.82812],[22.02967,65.82891],[22.03156,65.82912],[22.03336,65.82901],[22.03684,65.82925],[22.03805,65.83049],[22.03718,65.8326],[22.0385,65.83309],[22.04111,65.83343],[22.04142,65.83381],[22.04111,65.83439],[22.04052,65.83465],[22.04046,65.83535],[22.03965,65.83574],[22.0398,65.83637],[22.03886,65.8373],[22.03996,65.83819],[22.03793,65.83817],[22.0372,65.83862],[22.03836,65.83955],[22.03929,65.83978],[22.03941,65.84046],[22.04116,65.84138],[22.04205,65.84238],[22.04185,65.84292],[22.03963,65.84565],[22.03794,65.84669],[22.03702,65.84909],[22.03268,65.8539],[22.02663,65.85833],[22.02338,65.8622],[22.02253,65.86267],[22.02291,65.86323],[22.02236,65.86433],[22.02118,65.86444],[22.02102,65.86396],[22.0196,65.8641],[22.0169,65.86919],[22.01124,65.87255],[22.01355,65.87317]]]}},{"type":"Feature","id":"2580R021","properties":{"code":"2580R021","name":"Porsön-Berget-Stranden"},"geometry":{"type":"Polygon","coordinates":[[[22.14418,65.63426],[22.14903,65.63387],[22.15265,65.63311],[22.16059,65.63066],[22.16323,65.62921],[22.16472,65.62714],[22.16504,65.62715],[22.16744,65.62555],[22.1559,65.62261],[22.15226,65.62146],[22.1445,65.62025],[22.14316,65.62183],[22.13676,65.62118],[22.1354,65.6217],[22.13002,65.6241],[22.12783,65.62772],[22.12266,65.62937],[22.12608,65.63085],[22.13397,65.63288],[22.14089,65.63409],[22.14418,65.63426]]]}},{"type":"Feature","id":"2580R022","properties":{"code":"2580R022","name":"Porsön-Porsögården"},"geometry":{"type":"Polygon","coordinates":[[[22.12266,65.62936],[22.12783,65.62772],[22.13002,65.6241],[22.13676,65.62118],[22.14316,65.62183],[22.14572,65.61909],[22.14841,65.61507],[22.14503,65.61452],[22.14409,65.61457],[22.13951,65.61346],[22.1342,65.61289],[22.132,65.61578],[22.13085,65.61544],[22.12217,65.61471],[22.11961,65.61392],[22.11396,65.61337],[22.09977,65.61825],[22.09506,65.62083],[22.09274,65.62151],[22.09743,65.62173],[22.09852,65.62282],[22.10003,65.62376],[22.10325,65.62513],[22.10591,65.62585],[22.10795,65.62725],[22.1114,65.62852],[22.11396,65.62906],[22.11657,65.62936],[22.12266,65.62936]]]}},{"type":"Feature","id":"2580R023","properties":{"code":"2580R023","name":"Porsön-Udden"},"geometry":{"type":"Polygon","coordinates":[[[22.15793,65.62048],[22.1618,65.61518],[22.16154,65.61434],[22.16296,65.61332],[22.16213,65.61202],[22.15773,65.60924],[22.14518,65.61454],[22.14841,65.61507],[22.14572,65.61909],[22.1445,65.62025],[22.15226,65.62146],[22.1559,65.62261],[22.15793,65.62048]]]}},{"type":"Feature","id":"2580R024","properties":{"code":"2580R024","name":"Råneå"},"geometry":{"type":"Polygon","coordinates":[[[22.30509,65.87303],[22.30843,65.87257],[22.31127,65.87182],[22.31356,65.8708],[22.31539,65.86927],[22.31858,65.86892],[22.32324,65.86803],[22.32533,65.86743],[22.32761,65.86641],[22.32922,65.86517],[22.33005,65.86351],[22.33674,65.86096],[22.33825,65.86002],[22.34003,65.85838],[22.34094,65.85705],[22.34116,65.85554],[22.34085,65.85447],[22.33991,65.85322],[22.33598,65.85047],[22.33398,65.8497],[22.33137,65.84903],[22.32611,65.84841],[22.3208,65.84862],[22.31748,65.84724],[22.31443,65.8465],[22.3102,65.84606],[22.30629,65.84615],[22.30387,65.8456],[22.30022,65.84517],[22.2984,65.8439],[22.29534,65.84272],[22.29233,65.84209],[22.2892,65.84175],[22.28672,65.84099],[22.28423,65.84052],[22.27884,65.84019],[22.27424,65.84057],[22.27085,65.84129],[22.26773,65.84241],[22.26568,65.84372],[22.26454,65.84509],[22.26116,65.84626],[22.25871,65.84787],[22.25791,65.84894],[22.25763,65.8504],[22.25805,65.85159],[22.25941,65.85302],[22.25652,65.85444],[22.25462,65.85613],[22.25369,65.85823],[22.25459,65.86026],[22.25678,65.8618],[22.25975,65.8629],[22.26048,65.86395],[22.26209,65.86517],[22.2658,65.8666],[22.27003,65.86751],[22.27334,65.86794],[22.2768,65.86803],[22.27992,65.86779],[22.28151,65.86925],[22.28422,65.87062],[22.28733,65.87167],[22.29049,65.87236],[22.29572,65.87299],[22.30255,65.87313],[22.30509,65.87303]]]}},{"type":"Feature","id":"2580R025","properties":{"code":"2580R025","name":"Råneå omland"},"geometry":{"type":"Polygon","coordinates":[[[22.19475,66.24678],[22.33906,66.13541],[22.41222,66.07625],[22.41792,66.06914],[22.4252,66.0644],[22.42612,66.06473],[22.46896,66.01549],[22.48887,65.99187],[22.542,65.95629],[22.5387,65.94169],[22.53776,65.93377],[22.54335,65.92657],[22.54147,65.92642],[22.54081,65.92614],[22.54071,65.92524],[22.54254,65.92443],[22.54505,65.92436],[22.55804,65.90731],[22.57732,65.87511],[22.57597,65.87484],[22.57586,65.87467],[22.57671,65.87438],[22.57751,65.87477],[22.59457,65.84516],[22.60465,65.82942],[22.62092,65.80538],[22.62047,65.8035],[22.62156,65.8029],[22.62243,65.80309],[22.6313,65.79034],[22.63999,65.78703],[22.64539,65.78236],[22.65757,65.77561],[22.6466,65.76752],[22.62963,65.76058],[22.61959,65.756],[22.61869,65.75607],[22.46517,65.74551],[22.36096,65.76331],[22.35895,65.76447],[22.3306,65.78491],[22.32423,65.78674],[22.32395,65.78693],[22.32418,65.78757],[22.30423,65.79542],[22.196,65.81472],[22.19487,65.81554],[22.19538,65.81574],[22.18613,65.82313],[22.1844,65.82281],[22.17872,65.82699],[22.17795,65.82688],[22.17812,65.82739],[22.17777,65.82764],[22.1769,65.82778],[22.17577,65.82927],[22.1751,65.82915],[22.17539,65.82786],[22.12846,65.84209],[22.04947,65.87945],[22.00722,65.91896],[22.00194,65.92241],[22.00213,65.92304],[22.00176,65.92351],[22.00208,65.9238],[21.99968,65.92414],[21.99849,65.92463],[21.96822,65.94444],[21.87758,65.95551],[21.86835,65.9573],[21.86575,65.96055],[21.86885,65.96096],[21.86787,65.9623],[21.8667,65.96365],[21.86444,65.96335],[21.86386,65.96407],[21.86303,65.96396],[21.85129,65.97851],[21.85618,65.98996],[21.88187,65.99107],[21.89114,66.0017],[21.90418,65.99793],[21.90937,66.00145],[21.93978,66.03731],[21.97695,66.056],[22.01363,66.06059],[22.00823,66.07322],[22.03626,66.07013],[22.03111,66.08466],[22.07524,66.08688],[22.07072,66.11074],[22.02316,66.10848],[22.01977,66.12223],[22.0114,66.13033],[21.98966,66.14999],[21.96931,66.15473],[21.97783,66.16047],[21.99115,66.15458],[22.01862,66.15718],[22.0256,66.17362],[22.02453,66.17404],[22.06148,66.18343],[22.03156,66.20274],[22.03229,66.20919],[22.02653,66.24008],[22.08244,66.2547],[22.06426,66.26794],[22.06674,66.26846],[22.06903,66.26687],[22.1464,66.28328],[22.19475,66.24678]],[[22.30343,65.87312],[22.29572,65.87299],[22.29049,65.87236],[22.28733,65.87167],[22.28422,65.87062],[22.28151,65.86925],[22.27992,65.86779],[22.2768,65.86803],[22.27334,65.86794],[22.27003,65.86751],[22.2658,65.8666],[22.26209,65.86517],[22.26048,65.86395],[22.25975,65.8629],[22.25678,65.8618],[22.25459,65.86026],[22.25369,65.85823],[22.25462,65.85613],[22.25652,65.85444],[22.25941,65.85302],[22.25805,65.85159],[22.25763,65.8504],[22.25791,65.84894],[22.25871,65.84787],[22.26116,65.84626],[22.26454,65.84509],[22.26568,65.84372],[22.26773,65.84241],[22.27085,65.84129],[22.27424,65.84057],[22.27884,65.84019],[22.28423,65.84052],[22.28672,65.84099],[22.2892,65.84175],[22.29233,65.84209],[22.29534,65.84272],[22.2984,65.8439],[22.30022,65.84517],[22.30387,65.8456],[22.30629,65.84615],[22.3102,65.84606],[22.31443,65.8465],[22.31748,65.84724],[22.3208,65.84862],[22.32611,65.84841],[22.33137,65.84903],[22.33398,65.8497],[22.33651,65.85074],[22.34022,65.85354],[22.341,65.85481],[22.34115,65.85589],[22.34094,65.85705],[22.34003,65.85838],[22.33825,65.86002],[22.33674,65.86096],[22.33005,65.86351],[22.32922,65.86517],[22.32711,65.86668],[22.32468,65.86765],[22.32205,65.8683],[22.31779,65.86904],[22.31539,65.86927],[22.31305,65.87107],[22.30989,65.87224],[22.30682,65.87284],[22.30343,65.87312]]]}},{"type":"Feature","id":"2580R026","properties":{"code":"2580R026","name":"Skurholmen-Malmudden"},"geometry":{"type":"Polygon","coordinates":[[[22.18616,65.58492],[22.18766,65.58647],[22.18638,65.58835],[22.18779,65.5887],[22.18841,65.58848],[22.19347,65.58967],[22.19156,65.59068],[22.19935,65.59226],[22.20095,65.59133],[22.20065,65.59053],[22.20548,65.58986],[22.20602,65.58959],[22.20792,65.58965],[22.21035,65.58895],[22.21026,65.58819],[22.20793,65.58769],[22.20673,65.58786],[22.20664,65.58823],[22.20328,65.58865],[22.20296,65.58842],[22.20232,65.5886],[22.20178,65.58827],[22.20307,65.58788],[22.20257,65.58754],[22.20317,65.58735],[22.20258,65.58703],[22.20499,65.5857],[22.20781,65.58324],[22.19494,65.58084],[22.19327,65.58025],[22.19371,65.58008],[22.18417,65.57852],[22.18341,65.57887],[22.17936,65.57941],[22.17063,65.58128],[22.1767,65.59037],[22.17035,65.59295],[22.17414,65.59387],[22.17852,65.59208],[22.18057,65.59071],[22.18215,65.58786],[22.18616,65.58492]]]}},{"type":"Feature","id":"2580R027","properties":{"code":"2580R027","name":"Sunderbyn"},"geometry":{"type":"Polygon","coordinates":[[[21.91918,65.67618],[21.92607,65.67552],[21.93019,65.67452],[21.93362,65.67279],[21.93467,65.67176],[21.93525,65.67056],[21.94029,65.67115],[21.9457,65.67101],[21.94971,65.67029],[21.95289,65.66916],[21.95552,65.66885],[21.95785,65.66835],[21.96101,65.6673],[21.96401,65.66552],[21.9654,65.66387],[21.96553,65.66237],[21.97482,65.65989],[21.97713,65.65901],[21.97995,65.65906],[21.98371,65.65883],[21.98886,65.65787],[21.99386,65.65653],[22.00214,65.65363],[21.99989,65.65238],[21.99212,65.6544],[21.98833,65.6546],[21.98593,65.65494],[21.98306,65.65468],[21.97573,65.65321],[21.97549,65.6519],[21.97437,65.65127],[21.97272,65.65095],[21.97303,65.64777],[21.97542,65.64232],[21.98066,65.63896],[21.98034,65.63829],[21.97704,65.63987],[21.97294,65.64344],[21.97165,65.64368],[21.96947,65.64311],[21.96636,65.64263],[21.96212,65.64152],[21.95926,65.64115],[21.95583,65.64097],[21.95191,65.64104],[21.93839,65.64336],[21.93562,65.64508],[21.93486,65.64609],[21.93457,65.64724],[21.93149,65.64791],[21.92941,65.64863],[21.92687,65.6501],[21.92563,65.65157],[21.92059,65.65305],[21.91798,65.65438],[21.91601,65.65659],[21.91585,65.65843],[21.9153,65.65909],[21.90859,65.66152],[21.90631,65.66269],[21.90346,65.66305],[21.89998,65.66383],[21.89613,65.66525],[21.89447,65.66609],[21.89293,65.66736],[21.89229,65.66843],[21.89216,65.66951],[21.89273,65.67094],[21.89609,65.67415],[21.90018,65.67618],[21.90456,65.67734],[21.90968,65.67775],[21.9148,65.67734],[21.91918,65.67618]]]}},{"type":"Feature","id":"2580R028","properties":{"code":"2580R028","name":"Tuna"},"geometry":{"type":"Polygon","coordinates":[[[22.10087,65.6098],[22.10263,65.60886],[22.1105,65.60616],[22.1108,65.6063],[22.11535,65.60493],[22.12004,65.60395],[22.12032,65.60365],[22.11801,65.6028],[22.11698,65.60205],[22.10731,65.6047],[22.09644,65.59969],[22.08963,65.6028],[22.08316,65.60423],[22.0828,65.60726],[22.09367,65.60861],[22.0977,65.60931],[22.09814,65.6089],[22.09876,65.60907],[22.09836,65.60934],[22.10087,65.6098]]]}},{"type":"Feature","id":"2580R029","properties":{"code":"2580R029","name":"Örnäset"},"geometry":{"type":"Polygon","coordinates":[[[22.22075,65.58534],[22.2218,65.58062],[22.22912,65.57911],[22.22685,65.5752],[22.2276,65.57222],[22.22597,65.56672],[22.21719,65.56863],[22.21023,65.56968],[22.20398,65.5739],[22.20138,65.57509],[22.20087,65.5762],[22.19968,65.57722],[22.19813,65.57815],[22.19327,65.58025],[22.19494,65.58084],[22.21546,65.58466],[22.21881,65.58494],[22.22075,65.58534]]]}}]}