{"type":"FeatureCollection","features":[{"type":"Feature","id":"2581R001","properties":{"code":"2581R001","name":"Annelund-Backen"},"geometry":{"type":"Polygon","coordinates":[[[21.44547,65.33207],[21.45095,65.33117],[21.45636,65.33076],[21.45548,65.32987],[21.45445,65.32937],[21.47032,65.3237],[21.4646,65.32089],[21.46317,65.31936],[21.46477,65.31825],[21.45541,65.31749],[21.45065,65.31689],[21.44666,65.31695],[21.44691,65.31155],[21.46175,65.30749],[21.45999,65.30646],[21.45236,65.30382],[21.44759,65.3035],[21.44415,65.30356],[21.44055,65.304],[21.44203,65.3047],[21.42757,65.3074],[21.42898,65.31225],[21.42627,65.31465],[21.4266,65.31698],[21.42852,65.31712],[21.42833,65.31928],[21.42885,65.31927],[21.42902,65.32014],[21.42517,65.32089],[21.42731,65.32152],[21.42435,65.3232],[21.42034,65.32764],[21.42218,65.32901],[21.42362,65.32967],[21.4254,65.33031],[21.42988,65.33114],[21.43634,65.332],[21.44155,65.33233],[21.44547,65.33207]]]}},{"type":"Feature","id":"2581R002","properties":{"code":"2581R002","name":"Bergsviken"},"geometry":{"type":"Polygon","coordinates":[[[21.39081,65.32057],[21.39436,65.31938],[21.40087,65.31989],[21.40541,65.31535],[21.41676,65.30942],[21.44203,65.3047],[21.44055,65.304],[21.438,65.30459],[21.42646,65.30586],[21.42817,65.30473],[21.429,65.30374],[21.4294,65.30237],[21.42913,65.3013],[21.42621,65.3022],[21.42059,65.30295],[21.41828,65.30283],[21.41588,65.30166],[21.41562,65.30054],[21.41351,65.29934],[21.41355,65.29697],[21.40811,65.29607],[21.40684,65.29624],[21.39796,65.29282],[21.38818,65.2895],[21.38756,65.28982],[21.38834,65.29041],[21.38342,65.29238],[21.38165,65.29355],[21.38053,65.29483],[21.37765,65.29503],[21.37461,65.29557],[21.37257,65.29619],[21.37005,65.2973],[21.36807,65.29881],[21.36733,65.30034],[21.36367,65.30017],[21.35903,65.30039],[21.35516,65.30114],[21.35256,65.3021],[21.35066,65.30327],[21.34971,65.30427],[21.34918,65.30582],[21.34717,65.30778],[21.34692,65.30956],[21.3484,65.31162],[21.35233,65.31367],[21.35522,65.31447],[21.35849,65.31494],[21.36187,65.31504],[21.36505,65.31481],[21.36658,65.31622],[21.3711,65.31898],[21.37379,65.32008],[21.37619,65.32068],[21.38174,65.32132],[21.38601,65.32129],[21.39081,65.32057]]]}},{"type":"Feature","id":"2581R003","properties":{"code":"2581R003","name":"Djupviken-Fårön södra-Berget"},"geometry":{"type":"Polygon","coordinates":[[[21.48653,65.34423],[21.48945,65.34438],[21.49318,65.34536],[21.49716,65.34574],[21.50026,65.34573],[21.50371,65.34546],[21.50757,65.34489],[21.51086,65.34383],[21.5129,65.34266],[21.51415,65.34131],[21.51452,65.33954],[21.51609,65.33798],[21.51715,65.33538],[21.51723,65.33425],[21.5162,65.33241],[21.51361,65.33021],[21.51392,65.32874],[21.51765,65.3285],[21.52044,65.32806],[21.51082,65.32659],[21.49889,65.32061],[21.49327,65.32168],[21.48106,65.32475],[21.48083,65.32486],[21.48126,65.32523],[21.48047,65.32584],[21.477,65.32763],[21.47418,65.32676],[21.47215,65.3248],[21.47032,65.3237],[21.45445,65.32937],[21.45548,65.32987],[21.45636,65.33076],[21.45095,65.33117],[21.44547,65.33207],[21.44155,65.33233],[21.4413,65.33499],[21.44063,65.33688],[21.44461,65.33847],[21.44748,65.33688],[21.45082,65.33666],[21.45163,65.33768],[21.44772,65.33912],[21.44457,65.34155],[21.44382,65.34359],[21.44463,65.3453],[21.44722,65.34707],[21.45009,65.34812],[21.45371,65.3499],[21.45688,65.35099],[21.4607,65.35178],[21.46409,65.35207],[21.46829,65.35191],[21.47152,65.35139],[21.47551,65.35002],[21.47747,65.34904],[21.47988,65.34738],[21.48412,65.34584],[21.48653,65.34423]]]}},{"type":"Feature","id":"2581R004","properties":{"code":"2581R004","name":"Hortlax-Hemlunda-Hemmingsmark"},"geometry":{"type":"Polygon","coordinates":[[[21.39325,65.3217],[21.39436,65.31938],[21.39081,65.32057],[21.38601,65.32129],[21.38174,65.32132],[21.37694,65.32083],[21.37379,65.32008],[21.37125,65.31906],[21.36658,65.31622],[21.36505,65.31481],[21.36105,65.31505],[21.35763,65.31485],[21.35374,65.31412],[21.35111,65.31317],[21.34801,65.31129],[21.34704,65.30993],[21.34686,65.30885],[21.34739,65.30742],[21.34918,65.30582],[21.34996,65.30394],[21.35204,65.30236],[21.35516,65.30114],[21.35903,65.30039],[21.36367,65.30017],[21.36733,65.30034],[21.36807,65.29881],[21.37005,65.2973],[21.37257,65.29619],[21.37461,65.29557],[21.37765,65.29503],[21.38053,65.29483],[21.38165,65.29355],[21.38342,65.29238],[21.38834,65.29041],[21.38756,65.28982],[21.38818,65.2895],[21.39796,65.29282],[21.40684,65.29624],[21.40811,65.29607],[21.41355,65.29697],[21.41351,65.29934],[21.41562,65.30054],[21.41588,65.30166],[21.41828,65.30283],[21.42059,65.30295],[21.42621,65.3022],[21.42913,65.3013],[21.4294,65.30237],[21.429,65.30374],[21.42817,65.30473],[21.42646,65.30586],[21.438,65.30459],[21.44055,65.304],[21.44334,65.30362],[21.44759,65.3035],[21.45236,65.30383],[21.45345,65.30216],[21.45511,65.30099],[21.45742,65.30002],[21.46248,65.2987],[21.44895,65.2906],[21.45386,65.28815],[21.46271,65.28702],[21.46992,65.28488],[21.47553,65.27403],[21.48006,65.27312],[21.4826,65.27137],[21.48307,65.27022],[21.48396,65.26927],[21.48666,65.26737],[21.48822,65.26658],[21.49152,65.26558],[21.49608,65.26502],[21.49894,65.26355],[21.503,65.26246],[21.5082,65.262],[21.51083,65.26207],[21.51422,65.2625],[21.5176,65.26169],[21.5188,65.26121],[21.51879,65.25717],[21.51803,65.2552],[21.51872,65.25345],[21.51487,65.25084],[21.51258,65.24978],[21.50859,65.24734],[21.50618,65.24497],[21.5043,65.24502],[21.50442,65.24444],[21.50358,65.24393],[21.5035,65.24278],[21.50236,65.24253],[21.50257,65.24207],[21.49816,65.2393],[21.49877,65.23896],[21.49821,65.23635],[21.49493,65.23233],[21.49266,65.23128],[21.494,65.2283],[21.48755,65.22227],[21.47693,65.21662],[21.4769,65.21566],[21.47434,65.21319],[21.47658,65.20949],[21.45653,65.19693],[21.43695,65.2006],[21.43252,65.20001],[21.42047,65.19393],[21.41733,65.19157],[21.40207,65.18898],[21.39885,65.18416],[21.40029,65.18158],[21.39526,65.1721],[21.38011,65.16563],[21.36212,65.15942],[21.33509,65.16369],[21.28286,65.15465],[21.2659,65.16349],[21.23006,65.16882],[21.19894,65.17208],[20.8872,65.20162],[20.90513,65.21469],[20.9266,65.20992],[20.94772,65.22181],[20.95555,65.21884],[20.96605,65.21691],[20.96842,65.21833],[20.98682,65.21447],[21.11323,65.21742],[21.11628,65.21947],[21.15536,65.20846],[21.1795,65.21169],[21.18926,65.2091],[21.21975,65.22277],[21.23967,65.22221],[21.25267,65.23054],[21.25376,65.23253],[21.26853,65.23484],[21.27589,65.23746],[21.27671,65.23753],[21.29504,65.23447],[21.29669,65.23444],[21.29939,65.22983],[21.3083,65.22821],[21.30926,65.22774],[21.31484,65.22753],[21.31806,65.22917],[21.30596,65.23312],[21.30289,65.23541],[21.30534,65.23632],[21.32542,65.23147],[21.34409,65.23338],[21.345,65.23384],[21.34358,65.23566],[21.32942,65.2457],[21.32823,65.25126],[21.33091,65.2546],[21.33275,65.25517],[21.33075,65.26845],[21.33007,65.26956],[21.31993,65.27299],[21.31822,65.27499],[21.30859,65.27672],[21.30344,65.27929],[21.30242,65.28389],[21.30184,65.28453],[21.31123,65.28601],[21.31707,65.30166],[21.33207,65.31417],[21.33236,65.31412],[21.34359,65.32428],[21.32945,65.33247],[21.3305,65.34096],[21.37148,65.33529],[21.37362,65.33448],[21.37331,65.33316],[21.37361,65.33208],[21.37564,65.33012],[21.3785,65.32886],[21.38228,65.32802],[21.38705,65.32649],[21.39176,65.32387],[21.39325,65.3217]]]}},{"type":"Feature","id":"2581R005","properties":{"code":"2581R005","name":"Klubbgärdet-Munksund-Skuthamn"},"geometry":{"type":"Polygon","coordinates":[[[21.48297,65.31265],[21.48415,65.31255],[21.48504,65.31275],[21.49156,65.31229],[21.49116,65.31159],[21.49656,65.31032],[21.50446,65.30752],[21.50758,65.30577],[21.50888,65.30455],[21.51117,65.30429],[21.51875,65.30197],[21.52053,65.30178],[21.5222,65.30092],[21.52236,65.30075],[21.52101,65.29984],[21.52081,65.29938],[21.5211,65.29859],[21.52269,65.29792],[21.52104,65.29683],[21.52014,65.29468],[21.52039,65.29332],[21.52474,65.29153],[21.52618,65.2917],[21.53068,65.28948],[21.52811,65.28913],[21.52818,65.28736],[21.52685,65.28555],[21.52437,65.28407],[21.52141,65.28309],[21.52409,65.28202],[21.52664,65.28142],[21.53089,65.27993],[21.53369,65.27859],[21.53521,65.27723],[21.53584,65.27553],[21.53671,65.27453],[21.54037,65.27283],[21.54204,65.2712],[21.54631,65.26844],[21.54824,65.26634],[21.54903,65.26485],[21.54983,65.26115],[21.54916,65.25897],[21.54784,65.25743],[21.54771,65.25293],[21.54685,65.25004],[21.54586,65.24869],[21.54406,65.24732],[21.54041,65.24535],[21.53886,65.24414],[21.53656,65.243],[21.53515,65.24158],[21.53264,65.24008],[21.53099,65.23764],[21.52756,65.23428],[21.52387,65.23267],[21.52147,65.2321],[21.51812,65.23166],[21.51522,65.23158],[21.51177,65.2318],[21.50856,65.23238],[21.50639,65.23304],[21.50408,65.23414],[21.5027,65.23518],[21.50187,65.23626],[21.50155,65.23772],[21.50212,65.23949],[21.50461,65.24386],[21.50615,65.24493],[21.50859,65.24734],[21.51258,65.24978],[21.51487,65.25084],[21.51872,65.25345],[21.51803,65.2552],[21.51879,65.25717],[21.5188,65.26121],[21.5176,65.26169],[21.51422,65.2625],[21.51083,65.26207],[21.5082,65.262],[21.503,65.26246],[21.49894,65.26355],[21.49608,65.26502],[21.49152,65.26558],[21.48822,65.26658],[21.48666,65.26737],[21.48396,65.26927],[21.48307,65.27022],[21.4826,65.27137],[21.48006,65.27312],[21.47553,65.27403],[21.46992,65.28488],[21.46271,65.28702],[21.45386,65.28815],[21.44895,65.2906],[21.46248,65.2987],[21.45742,65.30002],[21.45511,65.30099],[21.45345,65.30216],[21.45236,65.30382],[21.45999,65.30646],[21.46915,65.3115],[21.46981,65.31005],[21.47828,65.31154],[21.48068,65.31291],[21.48164,65.31303],[21.48297,65.31265]]]}},{"type":"Feature","id":"2581R006","properties":{"code":"2581R006","name":"Markbygden-Sikfors-Sjulsmark"},"geometry":{"type":"Polygon","coordinates":[[[21.37999,65.6457],[21.38643,65.61782],[21.39599,65.61944],[21.48987,65.59132],[21.5045,65.58412],[21.56336,65.55656],[21.67096,65.50826],[21.66371,65.50199],[21.64922,65.49936],[21.64565,65.50143],[21.63393,65.50453],[21.61827,65.50323],[21.61742,65.50279],[21.61543,65.50092],[21.60782,65.49935],[21.6004,65.49724],[21.59562,65.4953],[21.5993,65.49015],[21.5984,65.48805],[21.57702,65.48688],[21.57109,65.48733],[21.56811,65.47867],[21.56628,65.47773],[21.52412,65.48579],[21.4816,65.49431],[21.46024,65.4989],[21.44486,65.49008],[21.44395,65.48797],[21.44512,65.4862],[21.44726,65.48439],[21.43293,65.47728],[21.43535,65.47413],[21.4312,65.47069],[21.43067,65.47076],[21.4287,65.47045],[21.42261,65.46707],[21.42151,65.46612],[21.42058,65.4661],[21.41983,65.46574],[21.41801,65.4642],[21.41049,65.45988],[21.39019,65.44895],[21.37578,65.44053],[21.35225,65.45338],[21.34011,65.47089],[21.25438,65.44247],[21.25444,65.44054],[21.25203,65.44035],[21.245,65.4393],[21.24257,65.4408],[21.24049,65.44142],[21.23775,65.44192],[21.23587,65.44196],[21.23569,65.44394],[21.23266,65.44513],[21.23029,65.4455],[21.2285,65.44558],[21.22525,65.44615],[21.22065,65.44649],[21.22191,65.44778],[21.22593,65.45339],[21.22437,65.45433],[21.21725,65.45544],[21.21716,65.45902],[21.21505,65.46139],[21.19736,65.46148],[21.19002,65.46114],[21.20501,65.46786],[21.20724,65.46807],[21.21263,65.47014],[21.20933,65.47372],[21.2063,65.47471],[21.20301,65.47748],[21.20019,65.47908],[21.17318,65.47728],[21.17502,65.48429],[21.16584,65.48821],[21.1509,65.48875],[21.13992,65.48646],[21.12948,65.48678],[21.12464,65.48317],[21.10457,65.48129],[21.10154,65.47918],[21.08964,65.48011],[21.07343,65.47842],[21.06133,65.4704],[21.08878,65.46629],[21.08447,65.45665],[21.06934,65.45144],[21.04954,65.4526],[21.05088,65.44056],[21.0607,65.43723],[21.06243,65.43528],[21.08203,65.43391],[21.09056,65.43064],[21.09103,65.42865],[21.09759,65.4229],[21.09975,65.42189],[21.10532,65.42114],[21.1075,65.41972],[21.12143,65.41668],[21.12217,65.41417],[21.12835,65.40877],[21.131,65.4082],[21.14437,65.40116],[21.14327,65.39998],[21.14524,65.39622],[21.15337,65.39214],[21.16877,65.38956],[21.17183,65.38356],[21.17517,65.38153],[21.17736,65.37918],[21.18631,65.37763],[21.19337,65.37673],[21.19748,65.3743],[21.18603,65.3697],[21.18483,65.36679],[21.18702,65.36611],[21.18837,65.36596],[21.20424,65.37203],[21.20872,65.37106],[21.20649,65.36684],[21.20176,65.3646],[21.19765,65.3639],[21.19465,65.36156],[21.18579,65.35889],[21.18518,65.3576],[21.19132,65.35625],[21.19784,65.35518],[21.19451,65.35451],[21.19113,65.35449],[21.18861,65.35423],[21.18498,65.35344],[21.18148,65.3539],[21.17797,65.35398],[21.17212,65.35372],[21.1687,65.35322],[21.16224,65.35296],[21.15895,65.3525],[21.1499,65.35237],[21.14594,65.35189],[21.14316,65.35215],[21.13669,65.35232],[21.13198,65.35182],[21.12834,65.35257],[21.11956,65.35334],[21.11692,65.35411],[21.11413,65.35457],[21.11193,65.35529],[21.10891,65.35587],[21.10561,65.35612],[21.1023,65.35601],[21.09991,65.3557],[21.09703,65.35501],[21.0951,65.35427],[21.09318,65.35311],[21.09131,65.35123],[21.09053,65.3498],[21.09062,65.34833],[21.09166,65.34684],[21.09398,65.34532],[21.09736,65.34371],[21.0993,65.34305],[21.10319,65.34228],[21.1104,65.34149],[21.11109,65.34024],[21.11234,65.33914],[21.11452,65.33799],[21.11661,65.33728],[21.11994,65.3366],[21.12622,65.33584],[21.13337,65.33559],[21.1362,65.33483],[21.13953,65.33435],[21.14394,65.33425],[21.14833,65.33475],[21.15211,65.3358],[21.15493,65.33733],[21.15786,65.3379],[21.16303,65.33933],[21.16495,65.33944],[21.16684,65.3382],[21.16933,65.33717],[21.17178,65.33653],[21.1751,65.33604],[21.17942,65.33592],[21.18402,65.33526],[21.18819,65.33528],[21.19259,65.3358],[21.19483,65.33626],[21.19746,65.33715],[21.19908,65.338],[21.20363,65.33687],[21.20703,65.33647],[21.20939,65.33563],[21.21283,65.33483],[21.20969,65.33497],[21.2091,65.33435],[21.20195,65.33352],[21.1993,65.33305],[21.19832,65.33268],[21.19856,65.33212],[21.19224,65.32921],[21.17876,65.32726],[21.17605,65.32759],[21.1689,65.32732],[21.16383,65.32624],[21.15619,65.32517],[21.15528,65.32439],[21.14227,65.31766],[21.12595,65.31469],[21.10967,65.32874],[21.07541,65.32858],[21.06115,65.32951],[21.06751,65.31479],[21.0658,65.30695],[21.0654,65.30182],[21.07209,65.30177],[21.07828,65.28502],[21.08142,65.27895],[21.07803,65.27792],[21.07799,65.27757],[21.07885,65.27553],[21.08196,65.27412],[21.08296,65.27275],[21.08215,65.26864],[21.08234,65.25316],[20.99996,65.21478],[20.98682,65.21447],[20.96842,65.21833],[20.96605,65.21691],[20.95555,65.21884],[20.94772,65.22181],[20.9266,65.20992],[20.90513,65.21469],[20.8872,65.20162],[20.80554,65.20928],[20.59912,65.24799],[20.42121,65.2841],[20.3441,65.29952],[20.20884,65.32606],[20.10996,65.34571],[19.89482,65.38095],[19.8138,65.4031],[19.74704,65.42092],[19.6288,65.4516],[19.68661,65.51451],[19.68968,65.5144],[19.69129,65.51677],[19.6893,65.51724],[19.69758,65.52626],[19.75739,65.53587],[20.02503,65.50329],[20.13444,65.53899],[20.15925,65.54725],[20.1891,65.55672],[20.21717,65.56505],[20.20608,65.59392],[20.24884,65.59626],[20.25122,65.59886],[20.25553,65.59716],[20.28809,65.60341],[20.29176,65.62566],[20.29939,65.62538],[20.30005,65.62581],[20.29935,65.62632],[20.29828,65.62649],[20.29869,65.6274],[20.29735,65.62776],[20.29714,65.62827],[20.29623,65.62866],[20.29647,65.62933],[20.29511,65.62958],[20.29481,65.63063],[20.29374,65.63101],[20.29393,65.63183],[20.29625,65.63231],[20.29696,65.63323],[20.29723,65.63259],[20.29636,65.63185],[20.29781,65.6312],[20.29816,65.63078],[20.29598,65.63053],[20.29541,65.62983],[20.29621,65.62958],[20.29728,65.62986],[20.29781,65.62981],[20.29886,65.62925],[20.29844,65.62869],[20.29968,65.62799],[20.29884,65.62752],[20.29935,65.62713],[20.29887,65.62712],[20.29869,65.62677],[20.29941,65.62658],[20.30037,65.6259],[20.29974,65.62536],[20.30049,65.62533],[20.29994,65.62203],[20.31192,65.61213],[20.30786,65.61225],[20.30875,65.61023],[20.31132,65.60808],[20.31573,65.60898],[20.32201,65.60387],[20.33495,65.60091],[20.35157,65.5993],[20.35108,65.59626],[20.37734,65.59612],[20.37806,65.59657],[20.3791,65.59665],[20.38028,65.59493],[20.39332,65.59249],[20.40342,65.5968],[20.45867,65.61165],[20.4903,65.60014],[20.52502,65.62786],[20.60894,65.59919],[20.61932,65.59068],[20.63876,65.58397],[20.65545,65.58311],[20.65817,65.58219],[20.65945,65.58332],[20.70395,65.57637],[20.69262,65.5702],[20.73994,65.55399],[20.75619,65.55966],[20.75771,65.5598],[20.76478,65.55316],[20.88323,65.53543],[20.87874,65.53298],[20.91083,65.5211],[20.93688,65.51454],[20.93214,65.51208],[20.93266,65.51185],[20.93632,65.51273],[20.94459,65.51111],[20.94219,65.5096],[20.9427,65.50941],[20.94436,65.50989],[20.94622,65.5122],[20.95844,65.52283],[20.95974,65.52259],[20.96251,65.5226],[20.96266,65.52292],[20.95894,65.52328],[20.96748,65.53065],[20.9687,65.52993],[20.96948,65.53048],[20.96771,65.53085],[20.96867,65.53168],[20.9785,65.52367],[20.9857,65.52346],[20.98562,65.51779],[20.99543,65.50996],[21.01142,65.51587],[21.0509,65.52251],[21.05881,65.52368],[21.05325,65.52887],[21.07771,65.53637],[21.09568,65.55297],[21.12148,65.53594],[21.12356,65.55046],[21.16085,65.56206],[21.16294,65.56153],[21.16948,65.55884],[21.17215,65.55961],[21.18353,65.55717],[21.1876,65.55808],[21.17659,65.56588],[21.18877,65.5689],[21.14419,65.60029],[21.23165,65.62422],[21.35833,65.65836],[21.37999,65.6457]]]}},{"type":"Feature","id":"2581R007","properties":{"code":"2581R007","name":"Norrfjärden"},"geometry":{"type":"Polygon","coordinates":[[[21.52055,65.42554],[21.52117,65.42537],[21.52424,65.42561],[21.52765,65.42554],[21.53073,65.42518],[21.53304,65.4247],[21.53514,65.42402],[21.53731,65.42292],[21.53872,65.4218],[21.53942,65.42076],[21.53961,65.41934],[21.53911,65.41815],[21.53969,65.41611],[21.53874,65.41442],[21.53656,65.41294],[21.53095,65.41097],[21.52976,65.4102],[21.53177,65.409],[21.53279,65.40801],[21.53342,65.4066],[21.53324,65.40532],[21.5363,65.4029],[21.53715,65.40148],[21.53721,65.40036],[21.53652,65.39893],[21.53543,65.3979],[21.53382,65.39694],[21.53187,65.39615],[21.52888,65.39539],[21.52128,65.39444],[21.51882,65.39444],[21.51501,65.39475],[21.512,65.39529],[21.50992,65.39592],[21.50777,65.39409],[21.50298,65.39209],[21.49924,65.39122],[21.49361,65.39066],[21.48936,65.39088],[21.48618,65.39144],[21.48348,65.39231],[21.48165,65.39325],[21.47721,65.3943],[21.47486,65.39515],[21.46957,65.39517],[21.46692,65.39537],[21.46367,65.39595],[21.46131,65.39665],[21.45574,65.39928],[21.45364,65.40092],[21.45176,65.40186],[21.45048,65.40285],[21.44922,65.40489],[21.44975,65.40702],[21.45173,65.40874],[21.45499,65.41014],[21.45882,65.41097],[21.46388,65.41129],[21.45974,65.41283],[21.45749,65.41468],[21.45706,65.41675],[21.45895,65.41933],[21.4605,65.42056],[21.46273,65.42158],[21.46506,65.42225],[21.46861,65.42289],[21.47296,65.42449],[21.47428,65.42587],[21.47613,65.42712],[21.47968,65.42882],[21.47988,65.43063],[21.48135,65.43244],[21.48652,65.43517],[21.49081,65.43652],[21.49595,65.43715],[21.50326,65.43713],[21.50575,65.43683],[21.50875,65.43615],[21.51213,65.43497],[21.51451,65.43351],[21.51703,65.43026],[21.51744,65.42878],[21.51889,65.42765],[21.52055,65.42554]]]}},{"type":"Feature","id":"2581R008","properties":{"code":"2581R008","name":"Pite älvdal-Infjärden-Blåsmark"},"geometry":{"type":"Polygon","coordinates":[[[21.17502,65.48429],[21.17318,65.47728],[21.20019,65.47908],[21.20301,65.47748],[21.2063,65.47471],[21.20933,65.47372],[21.21266,65.47019],[21.20724,65.46807],[21.20501,65.46786],[21.19002,65.46114],[21.19736,65.46148],[21.21505,65.46139],[21.21716,65.45902],[21.21725,65.45544],[21.22437,65.45433],[21.22593,65.45339],[21.22191,65.44778],[21.22065,65.44649],[21.22525,65.44615],[21.2285,65.44558],[21.23029,65.4455],[21.23266,65.44513],[21.23569,65.44394],[21.23587,65.44196],[21.23775,65.44192],[21.24049,65.44142],[21.24257,65.4408],[21.245,65.4393],[21.25203,65.44035],[21.25444,65.44054],[21.25438,65.44247],[21.34011,65.47089],[21.35266,65.45279],[21.34855,65.44115],[21.38365,65.41387],[21.40931,65.39801],[21.40204,65.39999],[21.3973,65.40098],[21.39664,65.4005],[21.40355,65.3975],[21.40889,65.39623],[21.4076,65.3955],[21.4027,65.39568],[21.4021,65.39458],[21.40969,65.39435],[21.41037,65.39473],[21.41399,65.39487],[21.4165,65.39366],[21.41707,65.3912],[21.42105,65.39039],[21.42141,65.39059],[21.42673,65.38802],[21.42729,65.38824],[21.44022,65.38299],[21.44282,65.38408],[21.45367,65.38509],[21.4629,65.38364],[21.48078,65.37253],[21.48154,65.37129],[21.48182,65.36991],[21.48821,65.36597],[21.493,65.36798],[21.49907,65.368],[21.50642,65.36621],[21.52226,65.35722],[21.50438,65.35684],[21.48941,65.35699],[21.4752,65.3533],[21.47695,65.34961],[21.47673,65.34943],[21.47433,65.35054],[21.47229,65.35121],[21.46749,65.35199],[21.46234,65.35197],[21.45987,65.35165],[21.45688,65.35099],[21.45371,65.3499],[21.45009,65.34812],[21.44668,65.34681],[21.44496,65.34563],[21.44399,65.34429],[21.44386,65.34291],[21.44457,65.34155],[21.44772,65.33912],[21.45163,65.33768],[21.45071,65.33666],[21.44748,65.33688],[21.44577,65.33796],[21.44391,65.33873],[21.44119,65.34053],[21.43798,65.34173],[21.43549,65.34232],[21.43227,65.34405],[21.43422,65.34581],[21.43466,65.34776],[21.43326,65.35054],[21.43369,65.35218],[21.43347,65.35325],[21.43241,65.35463],[21.43059,65.35583],[21.42662,65.3572],[21.42151,65.35818],[21.41902,65.35848],[21.41387,65.35845],[21.41145,65.35814],[21.40889,65.35757],[21.40725,65.35942],[21.40487,65.36088],[21.4023,65.36176],[21.39725,65.363],[21.39377,65.36335],[21.39026,65.36333],[21.38764,65.36308],[21.38347,65.36233],[21.37962,65.36362],[21.37418,65.36463],[21.36795,65.36497],[21.36366,65.36467],[21.35919,65.3636],[21.3552,65.36163],[21.35249,65.36087],[21.34676,65.35852],[21.34334,65.3574],[21.33926,65.35503],[21.33772,65.35345],[21.33742,65.35163],[21.3386,65.34968],[21.3415,65.34736],[21.34383,65.3464],[21.34696,65.34554],[21.35005,65.34508],[21.3533,65.34496],[21.35804,65.34296],[21.36079,65.34215],[21.36225,65.34096],[21.36444,65.33992],[21.36723,65.33914],[21.36996,65.33872],[21.3718,65.33721],[21.37487,65.33587],[21.37362,65.33448],[21.37148,65.33529],[21.3305,65.34096],[21.32945,65.33247],[21.34359,65.32428],[21.33236,65.31412],[21.33207,65.31417],[21.31707,65.30166],[21.31123,65.28601],[21.30184,65.28453],[21.30242,65.28389],[21.30344,65.27929],[21.30859,65.27672],[21.31822,65.27499],[21.31993,65.27299],[21.33007,65.26956],[21.33075,65.26845],[21.33275,65.25517],[21.33091,65.2546],[21.32823,65.25126],[21.32942,65.2457],[21.34358,65.23566],[21.345,65.23384],[21.34409,65.23338],[21.32542,65.23147],[21.30534,65.23632],[21.30289,65.23541],[21.30596,65.23312],[21.31806,65.22917],[21.31484,65.22753],[21.30926,65.22774],[21.3083,65.22821],[21.29939,65.22983],[21.29669,65.23444],[21.29504,65.23447],[21.27671,65.23753],[21.27589,65.23746],[21.26853,65.23484],[21.25376,65.23253],[21.25267,65.23054],[21.23967,65.22221],[21.21975,65.22277],[21.18926,65.2091],[21.1795,65.21169],[21.15536,65.20846],[21.11628,65.21947],[21.11323,65.21742],[20.99996,65.21478],[21.08234,65.25316],[21.08215,65.26864],[21.08296,65.27275],[21.08196,65.27412],[21.07885,65.27553],[21.07799,65.27757],[21.07803,65.27792],[21.08142,65.27895],[21.07828,65.28502],[21.07209,65.30177],[21.0654,65.30182],[21.0658,65.30695],[21.06751,65.31479],[21.06115,65.32951],[21.07541,65.32858],[21.10967,65.32874],[21.12595,65.31469],[21.14227,65.31766],[21.15528,65.32439],[21.15619,65.32517],[21.16383,65.32624],[21.1689,65.32732],[21.17605,65.32759],[21.17876,65.32726],[21.19224,65.32921],[21.19856,65.33212],[21.19832,65.33268],[21.1993,65.33305],[21.20195,65.33352],[21.2091,65.33435],[21.20969,65.33497],[21.21283,65.33483],[21.20939,65.33563],[21.20703,65.33647],[21.20363,65.33687],[21.19908,65.338],[21.19746,65.33715],[21.19483,65.33626],[21.19259,65.3358],[21.18819,65.33528],[21.18402,65.33526],[21.17942,65.33592],[21.1751,65.33604],[21.17178,65.33653],[21.16933,65.33717],[21.16684,65.3382],[21.16495,65.33944],[21.16303,65.33933],[21.15786,65.3379],[21.15493,65.33733],[21.15211,65.3358],[21.14833,65.33475],[21.14394,65.33425],[21.13953,65.33435],[21.1362,65.33483],[21.13337,65.33559],[21.12622,65.33584],[21.11994,65.3366],[21.11731,65.3371],[21.11512,65.33776],[21.11279,65.33885],[21.11117,65.34015],[21.1104,65.34149],[21.10319,65.34228],[21.0993,65.34305],[21.09677,65.34397],[21.09253,65.34615],[21.09102,65.34757],[21.09047,65.34936],[21.09105,65.3509],[21.09283,65.3528],[21.09453,65.35398],[21.09639,65.35479],[21.09916,65.35556],[21.1023,65.35601],[21.10561,65.35612],[21.10891,65.35587],[21.11193,65.35529],[21.11413,65.35457],[21.11692,65.35411],[21.11956,65.35334],[21.12834,65.35257],[21.13198,65.35182],[21.13669,65.35232],[21.14316,65.35215],[21.14594,65.35189],[21.1499,65.35237],[21.15895,65.3525],[21.16224,65.35296],[21.1687,65.35322],[21.17212,65.35372],[21.17797,65.35398],[21.18148,65.3539],[21.18498,65.35344],[21.18861,65.35423],[21.19113,65.35449],[21.19451,65.35451],[21.19784,65.35518],[21.19132,65.35625],[21.18518,65.3576],[21.18579,65.35889],[21.19465,65.36156],[21.19765,65.3639],[21.20176,65.3646],[21.20649,65.36684],[21.20872,65.37106],[21.20424,65.37203],[21.18837,65.36596],[21.18702,65.36611],[21.18483,65.36679],[21.18603,65.3697],[21.19748,65.3743],[21.19337,65.37673],[21.18631,65.37763],[21.17736,65.37918],[21.17517,65.38153],[21.17183,65.38356],[21.16877,65.38956],[21.15337,65.39214],[21.14524,65.39622],[21.14327,65.39998],[21.14437,65.40116],[21.131,65.4082],[21.12835,65.40877],[21.12217,65.41417],[21.12143,65.41668],[21.1075,65.41972],[21.10532,65.42114],[21.09975,65.42189],[21.09759,65.4229],[21.09103,65.42865],[21.09056,65.43064],[21.08203,65.43391],[21.06243,65.43528],[21.0607,65.43723],[21.05088,65.44056],[21.04954,65.4526],[21.06934,65.45144],[21.08447,65.45665],[21.08878,65.46629],[21.06133,65.4704],[21.07343,65.47842],[21.08964,65.48011],[21.10154,65.47918],[21.10457,65.48129],[21.12464,65.48317],[21.12948,65.48678],[21.13992,65.48646],[21.1509,65.48875],[21.16584,65.48821],[21.17502,65.48429]]]}},{"type":"Feature","id":"2581R009","properties":{"code":"2581R009","name":"Piteå centrum"},"geometry":{"type":"Polygon","coordinates":[[[21.49097,65.31279],[21.49025,65.31233],[21.48504,65.31275],[21.48415,65.31255],[21.48297,65.31265],[21.48164,65.31303],[21.48068,65.31291],[21.47828,65.31154],[21.46981,65.31005],[21.46915,65.3115],[21.46175,65.30749],[21.44691,65.31155],[21.44666,65.31695],[21.45065,65.31689],[21.45541,65.31749],[21.46477,65.31825],[21.46317,65.31936],[21.4646,65.32089],[21.47145,65.32431],[21.47418,65.32676],[21.477,65.32763],[21.48047,65.32584],[21.48126,65.32523],[21.48083,65.32486],[21.48106,65.32475],[21.49327,65.32168],[21.49889,65.32061],[21.49624,65.31929],[21.49083,65.31512],[21.49141,65.31393],[21.49097,65.31279]]]}},{"type":"Feature","id":"2581R010","properties":{"code":"2581R010","name":"Piteå kustnära områden"},"geometry":{"type":"Polygon","coordinates":[[[21.67096,65.50826],[21.68426,65.50234],[21.68514,65.50231],[21.68641,65.50175],[21.68599,65.50157],[21.69708,65.49666],[21.70112,65.49784],[21.70672,65.49719],[21.70804,65.49618],[21.70606,65.4952],[21.70064,65.49507],[21.7345,65.47983],[21.82611,65.45475],[21.89471,65.41103],[21.89618,65.41092],[21.89688,65.41024],[21.89654,65.40987],[21.91506,65.39814],[21.93748,65.36231],[22.32007,65.14664],[22.45128,65.06965],[22.18266,64.97451],[22.16069,64.96747],[21.94545,64.90236],[21.55592,65.05969],[21.54404,65.06311],[21.48798,65.08557],[21.31877,65.1359],[21.28286,65.15465],[21.33509,65.16369],[21.36212,65.15942],[21.38011,65.16563],[21.39526,65.1721],[21.40029,65.18158],[21.39885,65.18416],[21.40207,65.18898],[21.41733,65.19157],[21.42047,65.19393],[21.43252,65.20001],[21.43695,65.2006],[21.45653,65.19693],[21.47658,65.20949],[21.47434,65.21319],[21.4769,65.21566],[21.47693,65.21662],[21.48755,65.22227],[21.494,65.2283],[21.49266,65.23128],[21.49493,65.23233],[21.49821,65.23635],[21.49877,65.23896],[21.49816,65.2393],[21.50257,65.24207],[21.50236,65.24253],[21.5035,65.24278],[21.50358,65.24393],[21.50442,65.24444],[21.5043,65.24502],[21.50618,65.24497],[21.50404,65.24321],[21.50172,65.23849],[21.50168,65.23669],[21.5027,65.23518],[21.50508,65.23359],[21.50928,65.23222],[21.51359,65.23164],[21.51892,65.23173],[21.52147,65.2321],[21.52387,65.23267],[21.52756,65.23428],[21.53099,65.23764],[21.53264,65.24008],[21.53515,65.24158],[21.53656,65.243],[21.53839,65.24386],[21.54041,65.24535],[21.54406,65.24732],[21.54641,65.24935],[21.54771,65.25293],[21.54766,65.25686],[21.54916,65.25897],[21.54983,65.26115],[21.54903,65.26485],[21.54824,65.26634],[21.54631,65.26844],[21.54204,65.2712],[21.54037,65.27283],[21.53671,65.27453],[21.53584,65.27553],[21.53521,65.27723],[21.53369,65.27859],[21.53089,65.27993],[21.52664,65.28142],[21.52409,65.28202],[21.52141,65.28309],[21.52437,65.28407],[21.52685,65.28555],[21.52818,65.28736],[21.52811,65.28913],[21.53171,65.28969],[21.5356,65.28861],[21.54089,65.28781],[21.54336,65.28762],[21.54681,65.28767],[21.55146,65.28811],[21.55403,65.28864],[21.5589,65.29001],[21.56279,65.29137],[21.56527,65.29285],[21.56659,65.2949],[21.566,65.29703],[21.56283,65.2998],[21.55629,65.30253],[21.55123,65.30354],[21.54964,65.3048],[21.54715,65.30618],[21.54479,65.30713],[21.54194,65.30871],[21.53987,65.30946],[21.53781,65.31092],[21.53502,65.31198],[21.53728,65.31268],[21.54041,65.31405],[21.54186,65.31504],[21.54282,65.31609],[21.54321,65.31832],[21.54265,65.31942],[21.54118,65.32075],[21.53754,65.32239],[21.53247,65.32343],[21.52873,65.3258],[21.52625,65.32678],[21.51921,65.32829],[21.51392,65.32874],[21.51361,65.33021],[21.51649,65.33273],[21.51724,65.33494],[21.51608,65.338],[21.51452,65.33954],[21.51414,65.34134],[21.51199,65.34326],[21.50962,65.34431],[21.50683,65.34505],[21.50026,65.34573],[21.49473,65.34557],[21.4917,65.34506],[21.48945,65.34438],[21.48653,65.34422],[21.48412,65.34584],[21.47988,65.34738],[21.47673,65.34943],[21.47695,65.34961],[21.4752,65.3533],[21.48941,65.35699],[21.50438,65.35684],[21.52226,65.35722],[21.50642,65.36621],[21.49907,65.368],[21.493,65.36798],[21.48821,65.36597],[21.48182,65.36991],[21.48154,65.37129],[21.48078,65.37253],[21.4629,65.38364],[21.45367,65.38509],[21.44282,65.38408],[21.44022,65.38299],[21.42729,65.38824],[21.42673,65.38802],[21.42141,65.39059],[21.42105,65.39039],[21.41707,65.3912],[21.4165,65.39366],[21.41399,65.39487],[21.41037,65.39473],[21.40969,65.39435],[21.4021,65.39458],[21.4027,65.39568],[21.4076,65.3955],[21.40889,65.39623],[21.40355,65.3975],[21.39664,65.4005],[21.3973,65.40098],[21.40204,65.39999],[21.40931,65.39801],[21.38365,65.41387],[21.34855,65.44115],[21.35266,65.45279],[21.35225,65.45338],[21.37578,65.44053],[21.39019,65.44895],[21.41049,65.45988],[21.41801,65.4642],[21.41983,65.46574],[21.42058,65.4661],[21.42151,65.46612],[21.42261,65.46707],[21.4287,65.47045],[21.43067,65.47076],[21.4312,65.47069],[21.43535,65.47413],[21.43293,65.47728],[21.44726,65.48439],[21.44512,65.4862],[21.44395,65.48797],[21.44486,65.49008],[21.46024,65.4989],[21.4816,65.49431],[21.52412,65.48579],[21.56628,65.47773],[21.56811,65.47867],[21.57109,65.48733],[21.57702,65.48688],[21.5984,65.48805],[21.5993,65.49015],[21.59562,65.4953],[21.6004,65.49724],[21.60782,65.49935],[21.61543,65.50092],[21.61742,65.50279],[21.61827,65.50323],[21.63393,65.50453],[21.64565,65.50143],[21.64922,65.49936],[21.66371,65.50199],[21.67096,65.50826]],[[21.65455,65.4306],[21.65181,65.42909],[21.64944,65.42627],[21.64863,65.42352],[21.64913,65.42215],[21.65004,65.42118],[21.65246,65.41978],[21.65584,65.41876],[21.65978,65.41823],[21.66395,65.41822],[21.665,65.41691],[21.66675,65.41551],[21.66831,65.41471],[21.6709,65.41387],[21.67319,65.41343],[21.6764,65.41314],[21.67968,65.41319],[21.68233,65.41349],[21.68469,65.4125],[21.67701,65.40791],[21.68821,65.40317],[21.6991,65.40523],[21.70178,65.40459],[21.70494,65.40421],[21.7074,65.40415],[21.71064,65.40437],[21.71472,65.40522],[21.71906,65.40684],[21.72627,65.40609],[21.72878,65.4061],[21.73235,65.40642],[21.7377,65.40748],[21.74023,65.40843],[21.74173,65.40931],[21.74305,65.41065],[21.74351,65.41242],[21.74242,65.41469],[21.7405,65.41629],[21.73812,65.41735],[21.73449,65.41825],[21.73112,65.41861],[21.72749,65.41859],[21.72643,65.41964],[21.72448,65.42077],[21.7205,65.42225],[21.71822,65.42288],[21.71782,65.4244],[21.71663,65.42572],[21.7168,65.42694],[21.71642,65.42801],[21.71565,65.42913],[21.71415,65.43029],[21.7159,65.43158],[21.71666,65.43261],[21.7167,65.43519],[21.71568,65.43654],[21.71365,65.43786],[21.71292,65.43896],[21.71175,65.43992],[21.70954,65.44104],[21.7054,65.44226],[21.70272,65.44459],[21.70052,65.4457],[21.69697,65.44671],[21.69264,65.44722],[21.6905,65.44848],[21.68617,65.45022],[21.67947,65.45194],[21.67463,65.45245],[21.67212,65.45241],[21.6689,65.45206],[21.66456,65.4509],[21.6619,65.44956],[21.66064,65.44864],[21.65954,65.44697],[21.65982,65.44513],[21.65785,65.44367],[21.65698,65.4419],[21.65727,65.44049],[21.6586,65.43861],[21.65698,65.43665],[21.65668,65.43491],[21.65738,65.43356],[21.65905,65.43222],[21.65819,65.43165],[21.65455,65.4306]],[[21.53911,65.41815],[21.53955,65.42042],[21.53872,65.4218],[21.53681,65.42323],[21.53448,65.42427],[21.53154,65.42504],[21.52852,65.42546],[21.52506,65.42563],[21.52117,65.42537],[21.52052,65.42555],[21.51889,65.42765],[21.51744,65.42878],[21.51703,65.43026],[21.5157,65.43166],[21.51486,65.43317],[21.51368,65.43414],[21.51152,65.43523],[21.5073,65.43653],[21.50326,65.43713],[21.49677,65.43719],[21.49207,65.43675],[21.48938,65.43618],[21.48726,65.43549],[21.48176,65.43273],[21.48004,65.43097],[21.47968,65.42882],[21.47613,65.42712],[21.47428,65.42587],[21.47296,65.42449],[21.46861,65.42289],[21.46506,65.42225],[21.46273,65.42158],[21.45962,65.41996],[21.45717,65.41709],[21.45729,65.41501],[21.4584,65.41371],[21.45974,65.41283],[21.46388,65.41129],[21.46063,65.41118],[21.4573,65.41072],[21.45416,65.40986],[21.45173,65.40874],[21.45008,65.40744],[21.44923,65.40592],[21.44933,65.40446],[21.45048,65.40285],[21.45176,65.40186],[21.45364,65.40092],[21.45574,65.39928],[21.46194,65.39643],[21.46439,65.39579],[21.46772,65.39529],[21.47486,65.39515],[21.47721,65.3943],[21.48165,65.39325],[21.48344,65.39233],[21.48543,65.39164],[21.49016,65.39079],[21.49537,65.39074],[21.49924,65.39122],[21.50158,65.39169],[21.50722,65.3938],[21.50867,65.39466],[21.50992,65.39592],[21.51346,65.39498],[21.51882,65.39444],[21.5229,65.39456],[21.52888,65.39539],[21.53187,65.39615],[21.53433,65.39721],[21.53581,65.3982],[21.53694,65.39959],[21.53724,65.4008],[21.5368,65.40225],[21.53589,65.4033],[21.53324,65.40532],[21.53335,65.40694],[21.53251,65.40834],[21.52976,65.4102],[21.53095,65.41097],[21.536,65.41268],[21.5384,65.41411],[21.53969,65.4161],[21.53911,65.41815]]]}},{"type":"Feature","id":"2581R011","properties":{"code":"2581R011","name":"Rosvik"},"geometry":{"type":"Polygon","coordinates":[[[21.67626,65.45237],[21.67947,65.45194],[21.68547,65.45045],[21.6905,65.44848],[21.69264,65.44722],[21.69615,65.44686],[21.6999,65.44593],[21.70272,65.44459],[21.7054,65.44226],[21.70959,65.44102],[21.7122,65.4396],[21.71365,65.43786],[21.71568,65.43654],[21.7167,65.43519],[21.71666,65.43261],[21.7159,65.43158],[21.71415,65.43029],[21.71565,65.42913],[21.71642,65.42801],[21.7168,65.42694],[21.71663,65.42572],[21.71782,65.4244],[21.71822,65.42288],[21.7205,65.42225],[21.72448,65.42077],[21.72643,65.41964],[21.72749,65.41859],[21.7328,65.41847],[21.73524,65.41811],[21.73812,65.41735],[21.7405,65.41629],[21.74242,65.41469],[21.74351,65.41242],[21.74279,65.4103],[21.74023,65.40843],[21.73624,65.40712],[21.73235,65.40642],[21.72792,65.40607],[21.72461,65.4062],[21.71906,65.40684],[21.71364,65.40492],[21.71064,65.40437],[21.70822,65.40417],[21.70333,65.40436],[21.6991,65.40523],[21.68821,65.40317],[21.67701,65.40791],[21.68469,65.4125],[21.68233,65.41349],[21.67968,65.41319],[21.6764,65.41314],[21.67319,65.41343],[21.6709,65.41387],[21.66831,65.41471],[21.66675,65.41551],[21.665,65.41691],[21.66395,65.41822],[21.65978,65.41823],[21.65584,65.41876],[21.65306,65.41955],[21.65043,65.42088],[21.64913,65.42215],[21.64863,65.42355],[21.64983,65.42695],[21.65144,65.42878],[21.65278,65.42975],[21.65516,65.43083],[21.65819,65.43165],[21.65905,65.43222],[21.65738,65.43356],[21.65668,65.43491],[21.65698,65.43665],[21.6586,65.43861],[21.65727,65.44049],[21.65698,65.4419],[21.65785,65.44367],[21.65982,65.44513],[21.65948,65.44662],[21.66031,65.44831],[21.66141,65.44925],[21.66342,65.45038],[21.66655,65.45155],[21.67131,65.45236],[21.67626,65.45237]]]}},{"type":"Feature","id":"2581R012","properties":{"code":"2581R012","name":"Svartudden-Strömnäs-Pitholm norra"},"geometry":{"type":"Polygon","coordinates":[[[21.5612,65.29078],[21.55319,65.28844],[21.55069,65.288],[21.546,65.28763],[21.54089,65.28781],[21.53486,65.28875],[21.53171,65.28969],[21.53068,65.28948],[21.52618,65.2917],[21.52474,65.29153],[21.52039,65.29332],[21.52014,65.29468],[21.52104,65.29683],[21.52269,65.29792],[21.5211,65.29859],[21.52081,65.29938],[21.52101,65.29984],[21.52236,65.30075],[21.52155,65.30134],[21.52053,65.30178],[21.51875,65.30197],[21.51571,65.30281],[21.51117,65.30429],[21.50888,65.30455],[21.50631,65.30659],[21.5029,65.30819],[21.49656,65.31032],[21.49116,65.31159],[21.49156,65.31229],[21.49052,65.31238],[21.49141,65.31393],[21.49082,65.31509],[21.49187,65.31596],[21.49624,65.31929],[21.51082,65.32659],[21.52044,65.32806],[21.5269,65.32657],[21.52928,65.32551],[21.53247,65.32343],[21.53754,65.32239],[21.54118,65.32075],[21.54265,65.31942],[21.54321,65.31832],[21.54282,65.31609],[21.54186,65.31504],[21.54041,65.31405],[21.53728,65.31268],[21.53502,65.31198],[21.53781,65.31092],[21.53987,65.30946],[21.54194,65.30871],[21.54479,65.30713],[21.54715,65.30618],[21.54964,65.3048],[21.55123,65.30354],[21.55491,65.3029],[21.55694,65.30232],[21.56179,65.30033],[21.56371,65.29922],[21.56622,65.2967],[21.5665,65.29456],[21.56486,65.29253],[21.56339,65.29164],[21.5612,65.29078]]]}},{"type":"Feature","id":"2581R013","properties":{"code":"2581R013","name":"Öjebyn"},"geometry":{"type":"Polygon","coordinates":[[[21.36795,65.36497],[21.37422,65.36462],[21.37812,65.36396],[21.38347,65.36233],[21.38764,65.36308],[21.39026,65.36333],[21.39377,65.36335],[21.39725,65.363],[21.4023,65.36176],[21.40487,65.36088],[21.40725,65.35942],[21.40889,65.35757],[21.41145,65.35814],[21.41474,65.35851],[21.41814,65.35853],[21.42074,65.3583],[21.42662,65.3572],[21.42876,65.35659],[21.43109,65.35556],[21.43276,65.35429],[21.43367,65.35255],[21.43326,65.35054],[21.43407,65.34937],[21.43469,65.34725],[21.43398,65.34548],[21.43227,65.34405],[21.43549,65.34232],[21.43798,65.34173],[21.44119,65.34053],[21.44461,65.33847],[21.44063,65.33688],[21.4413,65.33499],[21.44155,65.33233],[21.43634,65.332],[21.42988,65.33114],[21.4254,65.33031],[21.42265,65.32926],[21.42034,65.32764],[21.42435,65.3232],[21.42731,65.32152],[21.42517,65.32089],[21.42902,65.32014],[21.42885,65.31927],[21.42833,65.31928],[21.42852,65.31712],[21.4266,65.31698],[21.42627,65.31465],[21.42898,65.31225],[21.42757,65.3074],[21.41676,65.30942],[21.40541,65.31535],[21.40087,65.31989],[21.39436,65.31938],[21.3919,65.32374],[21.38973,65.32504],[21.38546,65.32713],[21.37781,65.32909],[21.37481,65.33071],[21.37381,65.33174],[21.37331,65.33316],[21.37364,65.33452],[21.37487,65.33587],[21.3718,65.33721],[21.36996,65.33872],[21.36723,65.33914],[21.36444,65.33992],[21.36225,65.34096],[21.36079,65.34215],[21.35804,65.34296],[21.3533,65.34496],[21.35005,65.34508],[21.34771,65.34539],[21.34319,65.34661],[21.34055,65.34794],[21.3386,65.34968],[21.33742,65.35163],[21.33772,65.35345],[21.33886,65.35473],[21.34261,65.35709],[21.34676,65.35852],[21.35249,65.36087],[21.3552,65.36163],[21.35797,65.36311],[21.3606,65.36405],[21.36537,65.36486],[21.36795,65.36497]]]}}]}