{"type":"FeatureCollection","features":[{"type":"Feature","id":"2584R008","properties":{"code":"2584R008","name":"Lombolo västra"},"geometry":{"type":"Polygon","coordinates":[[[20.26459,67.84468],[20.26641,67.8443],[20.26808,67.84369],[20.27029,67.84368],[20.27275,67.8433],[20.27466,67.84273],[20.27854,67.84203],[20.27164,67.84011],[20.26777,67.84026],[20.26456,67.83998],[20.26504,67.83933],[20.26628,67.83873],[20.26332,67.83553],[20.26052,67.83387],[20.26433,67.83319],[20.26399,67.83277],[20.27011,67.83227],[20.26937,67.8312],[20.26229,67.82647],[20.26003,67.82743],[20.25656,67.82747],[20.2533,67.82779],[20.24706,67.83091],[20.24829,67.83503],[20.24954,67.83649],[20.25208,67.83739],[20.25412,67.83859],[20.25341,67.83991],[20.25078,67.84164],[20.25167,67.84249],[20.2547,67.84311],[20.25738,67.84415],[20.26277,67.84474],[20.26459,67.84468]]]}},{"type":"Feature","id":"2584R002","properties":{"code":"2584R002","name":"Högalid"},"geometry":{"type":"Polygon","coordinates":[[[20.24543,67.87028],[20.24823,67.86863],[20.24926,67.86716],[20.25117,67.86658],[20.25414,67.86672],[20.257,67.86665],[20.26386,67.86572],[20.25204,67.86284],[20.24601,67.8617],[20.24617,67.86108],[20.24119,67.8593],[20.24064,67.85832],[20.2424,67.85792],[20.24361,67.85732],[20.24188,67.85674],[20.24178,67.85602],[20.2402,67.85439],[20.23399,67.85255],[20.23544,67.85195],[20.23701,67.85178],[20.23475,67.84977],[20.23583,67.84871],[20.23607,67.8475],[20.23473,67.84735],[20.23237,67.84751],[20.23097,67.84627],[20.23089,67.84441],[20.23011,67.84367],[20.22936,67.8434],[20.22774,67.83834],[20.22461,67.83893],[20.22297,67.84057],[20.21979,67.84871],[20.21894,67.85009],[20.21706,67.85189],[20.22353,67.85329],[20.22236,67.85561],[20.22234,67.85664],[20.22391,67.85918],[20.22673,67.86146],[20.22812,67.8637],[20.23141,67.86352],[20.23383,67.86315],[20.24084,67.86441],[20.24119,67.86543],[20.24543,67.87028]]]}},{"type":"Feature","id":"2584R003","properties":{"code":"2584R003","name":"Jukkasjärvi"},"geometry":{"type":"Polygon","coordinates":[[[20.39318,68.25579],[20.97369,68.10911],[20.97236,68.10418],[20.92803,67.98335],[20.89424,67.95759],[20.81635,67.97057],[20.81793,67.96949],[20.81868,67.96854],[20.81884,67.96716],[20.81834,67.96612],[20.82003,67.96553],[20.82005,67.96499],[20.82131,67.96336],[20.82021,67.96296],[20.81969,67.96246],[20.82017,67.96211],[20.81964,67.9619],[20.81981,67.96093],[20.81854,67.96046],[20.8172,67.95959],[20.81656,67.95938],[20.81549,67.95941],[20.81482,67.95913],[20.81438,67.95641],[20.81497,67.95528],[20.85875,67.94707],[20.89178,67.92528],[20.95912,67.90824],[20.95266,67.85106],[20.90085,67.71096],[20.81269,67.71743],[20.73871,67.70469],[20.70208,67.63994],[20.69696,67.64123],[20.69219,67.64296],[20.69066,67.64333],[20.67895,67.64531],[20.67224,67.64772],[20.6654,67.64949],[20.66288,67.64991],[20.65398,67.65204],[20.63984,67.65468],[20.63563,67.65612],[20.63119,67.65736],[20.62689,67.65785],[20.62457,67.65833],[20.62108,67.66012],[20.61375,67.66235],[20.61103,67.66295],[20.60697,67.66345],[20.60013,67.66351],[20.59569,67.66378],[20.5893,67.66494],[20.58654,67.66588],[20.5828,67.66913],[20.58035,67.67013],[20.57752,67.67094],[20.57294,67.67175],[20.56833,67.6716],[20.56461,67.67192],[20.56086,67.67256],[20.55661,67.67386],[20.55468,67.67467],[20.55316,67.6759],[20.5515,67.67639],[20.54837,67.67658],[20.54176,67.6766],[20.53327,67.678],[20.53206,67.67862],[20.53091,67.68032],[20.5278,67.6814],[20.52421,67.68232],[20.52063,67.68306],[20.515,67.68376],[20.51286,67.6844],[20.49758,67.68783],[20.49338,67.68791],[20.4904,67.68748],[20.488,67.68737],[20.48091,67.68786],[20.47759,67.68785],[20.47062,67.6885],[20.46888,67.68904],[20.46708,67.69039],[20.46587,67.69094],[20.46044,67.69146],[20.4597,67.69178],[20.45705,67.69225],[20.45425,67.69225],[20.4486,67.69285],[20.4444,67.69405],[20.44283,67.69428],[20.44048,67.69527],[20.43278,67.69761],[20.40898,67.7019],[20.4056,67.70322],[20.40117,67.70402],[20.39687,67.70568],[20.38946,67.70941],[20.38717,67.71033],[20.38368,67.71324],[20.38192,67.71369],[20.37834,67.71407],[20.37763,67.71434],[20.37517,67.71742],[20.37235,67.71879],[20.37116,67.72033],[20.36698,67.72152],[20.3614,67.72388],[20.35383,67.72758],[20.35182,67.72948],[20.35105,67.7297],[20.34879,67.72978],[20.34546,67.73021],[20.34214,67.73173],[20.34,67.73224],[20.33798,67.73233],[20.33537,67.73204],[20.33469,67.73221],[20.33303,67.73425],[20.332,67.73485],[20.3292,67.73482],[20.32573,67.73425],[20.31639,67.73082],[20.31353,67.73076],[20.30616,67.73113],[20.30116,67.7309],[20.31512,67.79375],[20.31635,67.79361],[20.37369,67.82951],[20.37438,67.82938],[20.37931,67.83277],[20.38623,67.83509],[20.39199,67.83896],[20.39442,67.84513],[20.40155,67.85256],[20.39364,67.85662],[20.41007,67.8632],[20.40848,67.86438],[20.40803,67.8702],[20.41394,67.8737],[20.43922,67.88676],[20.43498,67.89041],[20.44044,67.89528],[20.44541,67.90158],[20.44474,67.90554],[20.46788,67.91117],[20.48361,67.91389],[20.49444,67.92699],[20.48695,67.93592],[20.48618,67.94151],[20.55451,67.95928],[20.57245,67.97133],[20.56304,67.9786],[20.51517,68.00178],[20.46857,68.04169],[20.45868,68.05289],[20.44664,68.05695],[20.26144,68.21036],[20.29804,68.26674],[20.2988,68.26743],[20.39318,68.25579]]]}},{"type":"Feature","id":"2584R004","properties":{"code":"2584R004","name":"Kiruna nordost"},"geometry":{"type":"Polygon","coordinates":[[[20.5489,69.05929],[20.55013,69.05884],[20.55383,69.05831],[20.55472,69.05832],[20.55594,69.05759],[20.55765,69.05738],[20.55919,69.05655],[20.56081,69.05631],[20.56328,69.05641],[20.5666,69.05711],[20.56828,69.05687],[20.56983,69.05601],[20.57035,69.05497],[20.57282,69.0544],[20.57662,69.05313],[20.57676,69.05284],[20.57764,69.05268],[20.57817,69.05265],[20.58093,69.05349],[20.58146,69.05405],[20.58307,69.05371],[20.58433,69.05368],[20.58563,69.05306],[20.58754,69.05354],[20.5907,69.05349],[20.59341,69.05278],[20.59369,69.05255],[20.59273,69.05195],[20.59499,69.05122],[20.59651,69.05102],[20.60116,69.05095],[20.60096,69.05029],[20.60186,69.05],[20.60268,69.05001],[20.60359,69.0503],[20.60666,69.05003],[20.61231,69.04873],[20.61609,69.04746],[20.62197,69.04668],[20.62388,69.04661],[20.62754,69.04584],[20.63476,69.04527],[20.63869,69.04478],[20.64524,69.04444],[20.65907,69.04324],[20.66236,69.04312],[20.67049,69.04345],[20.68014,69.04284],[20.68868,69.04305],[20.69274,69.04367],[20.70274,69.04448],[20.71663,69.04032],[20.71889,69.03978],[20.7286,69.03813],[20.73584,69.03701],[20.76457,69.03412],[20.77492,69.03265],[20.77676,69.0319],[20.77958,69.02987],[20.7833,69.02826],[20.80812,69.02006],[20.81114,69.01884],[20.81345,69.01719],[20.82037,69.0059],[20.82605,69.00294],[20.8333,68.99755],[20.83466,68.99622],[20.83862,68.99493],[20.84089,68.99361],[20.84678,68.99168],[20.8488,68.99118],[20.8512,68.99146],[20.85234,68.99134],[20.85347,68.99093],[20.85991,68.9895],[20.86672,68.98713],[20.86908,68.98692],[20.87729,68.98692],[20.87994,68.98665],[20.88104,68.98604],[20.88355,68.98324],[20.888,68.98145],[20.89271,68.97897],[20.90582,68.97325],[20.91167,68.96874],[20.91296,68.96356],[20.91376,68.96196],[20.91371,68.96033],[20.91191,68.95722],[20.90634,68.95317],[20.901,68.95014],[20.89515,68.94739],[20.8935,68.94515],[20.89345,68.94341],[20.89235,68.94167],[20.89175,68.94147],[20.89031,68.94141],[20.87497,68.94301],[20.86632,68.94362],[20.86451,68.94261],[20.85795,68.94074],[20.85418,68.94012],[20.85227,68.93881],[20.84964,68.93824],[20.84788,68.93753],[20.84451,68.93703],[20.84354,68.93646],[20.84512,68.93559],[20.84478,68.93514],[20.8456,68.93471],[20.84533,68.93374],[20.84618,68.93281],[20.84613,68.932],[20.84909,68.9281],[20.85153,68.92578],[20.85185,68.92377],[20.85278,68.92323],[20.85627,68.92302],[20.8603,68.92328],[20.86258,68.92322],[20.87372,68.92028],[20.87674,68.91989],[20.87876,68.91894],[20.88023,68.91859],[20.88134,68.91788],[20.8824,68.91618],[20.88542,68.91291],[20.88999,68.91007],[20.88962,68.9094],[20.8906,68.90815],[20.89242,68.90692],[20.89717,68.90455],[20.9034,68.90028],[20.90292,68.89955],[20.90136,68.89879],[20.89644,68.89799],[20.89376,68.89709],[20.88758,68.89643],[20.8843,68.89688],[20.87921,68.89598],[20.87806,68.89557],[20.87723,68.89458],[20.87805,68.89352],[20.87985,68.89294],[20.88829,68.89163],[20.89558,68.89124],[20.90239,68.89112],[20.90693,68.89181],[20.9083,68.89379],[20.91264,68.89516],[20.91532,68.8971],[20.92687,68.8978],[20.93277,68.89862],[20.93532,68.89838],[20.93973,68.89714],[20.94507,68.89633],[20.94932,68.8965],[20.95413,68.89712],[20.95578,68.89711],[20.95694,68.8969],[20.95836,68.89627],[20.95762,68.89313],[20.95814,68.89228],[20.95889,68.89191],[20.96532,68.89113],[20.96611,68.89127],[20.96939,68.89276],[20.97604,68.89304],[20.98069,68.89126],[20.98724,68.89226],[20.98974,68.89396],[20.9907,68.89498],[20.9904,68.89612],[20.99094,68.89738],[20.99354,68.89728],[20.99667,68.89675],[21.00073,68.8955],[21.00488,68.89333],[21.00996,68.89223],[21.01407,68.89033],[21.01878,68.88956],[21.02035,68.88874],[21.02463,68.88737],[21.02573,68.88663],[21.0288,68.88586],[21.02964,68.88542],[21.02984,68.88485],[21.02831,68.88366],[21.02621,68.88264],[21.02625,68.8821],[21.02786,68.88199],[21.03058,68.88253],[21.03204,68.88264],[21.03783,68.8821],[21.04497,68.88196],[21.04715,68.88163],[21.04955,68.88096],[21.05173,68.87902],[21.05705,68.87752],[21.06156,68.87655],[21.06497,68.87484],[21.06553,68.8743],[21.07098,68.8732],[21.07672,68.87148],[21.07715,68.8712],[21.077,68.8708],[21.07573,68.87003],[21.078,68.8674],[21.07811,68.86695],[21.07679,68.86585],[21.07805,68.86492],[21.08784,68.86228],[21.09067,68.86169],[21.09277,68.86152],[21.09321,68.86111],[21.09413,68.86085],[21.09943,68.86046],[21.10296,68.85925],[21.10435,68.85922],[21.10602,68.85967],[21.10712,68.85963],[21.11653,68.85705],[21.11872,68.85592],[21.12036,68.85544],[21.12635,68.8543],[21.12862,68.85358],[21.13045,68.85196],[21.12956,68.85015],[21.13005,68.84924],[21.13236,68.84822],[21.14107,68.84656],[21.14352,68.84544],[21.14398,68.84452],[21.1421,68.84371],[21.14424,68.84203],[21.14356,68.84113],[21.14479,68.84005],[21.14664,68.8397],[21.14848,68.83971],[21.15063,68.83936],[21.15714,68.8373],[21.16164,68.83619],[21.16511,68.83477],[21.16823,68.8341],[21.17143,68.83366],[21.17483,68.83168],[21.17645,68.83105],[21.17786,68.83079],[21.1798,68.82966],[21.18328,68.82958],[21.18466,68.82803],[21.1844,68.82711],[21.18316,68.82612],[21.18323,68.82579],[21.18427,68.82523],[21.18709,68.82489],[21.18915,68.82384],[21.19138,68.82358],[21.19402,68.82365],[21.19583,68.82345],[21.19619,68.82289],[21.19841,68.82197],[21.20168,68.82142],[21.20315,68.82089],[21.20488,68.81947],[21.20691,68.81911],[21.21124,68.81783],[21.21712,68.8169],[21.22042,68.81707],[21.22519,68.81618],[21.2259,68.81603],[21.22541,68.81551],[21.22622,68.81504],[21.22758,68.8148],[21.23029,68.81476],[21.23149,68.81419],[21.23441,68.81373],[21.23665,68.81296],[21.23829,68.81057],[21.24023,68.80901],[21.24249,68.80794],[21.24527,68.80732],[21.24716,68.80527],[21.24948,68.80466],[21.2537,68.80226],[21.25378,68.80187],[21.25174,68.7995],[21.25172,68.79886],[21.25331,68.79724],[21.2622,68.79221],[21.26199,68.79153],[21.26027,68.79147],[21.25964,68.79118],[21.26159,68.78729],[21.26214,68.78685],[21.26306,68.78666],[21.26547,68.78472],[21.26696,68.78264],[21.26797,68.78208],[21.27023,68.77976],[21.27259,68.77921],[21.27551,68.77801],[21.28371,68.77386],[21.2854,68.77198],[21.29342,68.76745],[21.29428,68.76593],[21.29611,68.76434],[21.29593,68.76353],[21.29797,68.76298],[21.29899,68.76239],[21.30874,68.76029],[21.31771,68.75938],[21.32581,68.75919],[21.32765,68.75962],[21.33011,68.75981],[21.33215,68.76019],[21.33837,68.76308],[21.34346,68.76306],[21.34562,68.76356],[21.34784,68.76458],[21.35285,68.76513],[21.35587,68.76597],[21.35836,68.76614],[21.35992,68.76683],[21.36167,68.76718],[21.36685,68.76721],[21.37136,68.76647],[21.37919,68.76576],[21.38387,68.76475],[21.38805,68.76497],[21.39042,68.76477],[21.39113,68.76451],[21.39158,68.76396],[21.39128,68.76323],[21.38963,68.7624],[21.39,68.76186],[21.39645,68.75886],[21.40066,68.75799],[21.40202,68.75751],[21.40464,68.75505],[21.40506,68.75319],[21.40742,68.75081],[21.40963,68.74956],[21.41255,68.74836],[21.4087,68.74431],[21.40682,68.74295],[21.40697,68.73957],[21.40562,68.73678],[21.40561,68.7357],[21.4075,68.7342],[21.41355,68.73172],[21.41465,68.73086],[21.41507,68.72974],[21.41461,68.72871],[21.41319,68.72753],[21.4102,68.72615],[21.40983,68.72526],[21.41014,68.7247],[21.41224,68.72367],[21.42074,68.71701],[21.4221,68.71514],[21.42112,68.71403],[21.41793,68.71354],[21.41426,68.71235],[21.41276,68.71137],[21.41268,68.71093],[21.41376,68.70951],[21.416,68.70775],[21.41917,68.70684],[21.4206,68.70599],[21.42274,68.702],[21.42242,68.70108],[21.41949,68.69972],[21.41846,68.69873],[21.41808,68.69817],[21.41852,68.69722],[21.42064,68.69564],[21.42809,68.6936],[21.42914,68.69189],[21.42981,68.69159],[21.43595,68.68998],[21.43827,68.68966],[21.44566,68.68943],[21.44856,68.68807],[21.44964,68.6878],[21.45617,68.68706],[21.457,68.68682],[21.4598,68.68495],[21.46231,68.68397],[21.4655,68.68189],[21.46732,68.68165],[21.47068,68.68204],[21.47362,68.68213],[21.47795,68.68138],[21.48,68.68134],[21.48197,68.68108],[21.48496,68.68029],[21.48979,68.67972],[21.4945,68.6787],[21.49632,68.67818],[21.49828,68.67711],[21.5008,68.6766],[21.50439,68.67634],[21.50779,68.67645],[21.50993,68.6758],[21.51175,68.67573],[21.51615,68.67626],[21.5213,68.67724],[21.52366,68.67731],[21.52492,68.6771],[21.52668,68.67589],[21.52943,68.67537],[21.53783,68.67551],[21.54002,68.6759],[21.54413,68.67611],[21.54565,68.67612],[21.54707,68.67554],[21.55014,68.67617],[21.5512,68.67679],[21.55326,68.67725],[21.55383,68.67767],[21.55498,68.67763],[21.55558,68.67735],[21.5556,68.6768],[21.55666,68.67665],[21.55777,68.67606],[21.56066,68.67561],[21.56359,68.67564],[21.56586,68.67498],[21.56718,68.6743],[21.56764,68.67368],[21.5674,68.67202],[21.57107,68.67064],[21.57836,68.66921],[21.58417,68.66782],[21.58912,68.66743],[21.59547,68.6665],[21.59784,68.66634],[21.60396,68.66677],[21.60635,68.66659],[21.61775,68.66435],[21.62091,68.66291],[21.62371,68.66234],[21.62417,68.66172],[21.62375,68.6612],[21.62258,68.66074],[21.62287,68.65913],[21.62554,68.65629],[21.62834,68.65429],[21.62928,68.65408],[21.63132,68.65422],[21.63408,68.65399],[21.63779,68.65278],[21.64068,68.65117],[21.64182,68.65085],[21.65132,68.65063],[21.65269,68.65042],[21.65361,68.64933],[21.65257,68.64813],[21.65292,68.64749],[21.65735,68.64542],[21.66186,68.64369],[21.66274,68.64285],[21.66345,68.6408],[21.66389,68.64059],[21.66596,68.63995],[21.6709,68.63901],[21.67829,68.63726],[21.68105,68.6364],[21.68449,68.63474],[21.68659,68.63416],[21.68827,68.63401],[21.69314,68.63256],[21.69586,68.63251],[21.69724,68.63227],[21.70198,68.62996],[21.70485,68.62733],[21.70951,68.62546],[21.71025,68.62462],[21.70993,68.62341],[21.7108,68.62291],[21.71017,68.62205],[21.71031,68.62004],[21.71103,68.61947],[21.71247,68.61933],[21.71272,68.61914],[21.71124,68.6183],[21.71207,68.61783],[21.71213,68.61745],[21.70957,68.61679],[21.70535,68.61617],[21.70326,68.61568],[21.69916,68.61434],[21.6984,68.61329],[21.69866,68.611],[21.69789,68.61068],[21.69634,68.6107],[21.69585,68.61049],[21.69633,68.61007],[21.69914,68.60893],[21.69994,68.60724],[21.69952,68.60561],[21.70036,68.60473],[21.70084,68.60324],[21.70028,68.60268],[21.70001,68.59767],[21.7006,68.59666],[21.70219,68.59553],[21.704,68.59495],[21.71007,68.59435],[21.71391,68.5934],[21.71493,68.59243],[21.71503,68.59134],[21.71743,68.5903],[21.72163,68.59074],[21.72603,68.59029],[21.72743,68.58988],[21.73056,68.58942],[21.7374,68.58923],[21.74109,68.58867],[21.74379,68.58857],[21.74847,68.58773],[21.7573,68.58711],[21.7628,68.58728],[21.76529,68.58664],[21.77079,68.5857],[21.77698,68.58555],[21.78418,68.58579],[21.78841,68.58667],[21.79329,68.58626],[21.79858,68.58651],[21.79992,68.58693],[21.80207,68.58825],[21.80426,68.58869],[21.81718,68.58985],[21.81847,68.5898],[21.82211,68.58902],[21.82307,68.58901],[21.82703,68.58994],[21.8319,68.59071],[21.83932,68.59122],[21.84213,68.59122],[21.84363,68.59106],[21.84694,68.59017],[21.85074,68.58954],[21.85377,68.58919],[21.85993,68.58897],[21.86323,68.58838],[21.86399,68.58788],[21.86391,68.58737],[21.86173,68.5861],[21.86143,68.58538],[21.86323,68.58413],[21.86466,68.58377],[21.86657,68.58396],[21.87002,68.58482],[21.87478,68.58532],[21.8797,68.58484],[21.88609,68.585],[21.88784,68.58475],[21.88894,68.58438],[21.89481,68.58212],[21.8958,68.58135],[21.89763,68.58076],[21.89892,68.57999],[21.90533,68.57807],[21.90571,68.57754],[21.90537,68.57596],[21.90713,68.57459],[21.91476,68.57178],[21.91979,68.56941],[21.92473,68.56833],[21.92842,68.56716],[21.93037,68.56605],[21.93555,68.56116],[21.93726,68.56011],[21.94265,68.55822],[21.94602,68.55641],[21.94825,68.55573],[21.95412,68.55487],[21.95638,68.55433],[21.96177,68.5528],[21.96554,68.55202],[21.96836,68.55112],[21.9695,68.55043],[21.97084,68.549],[21.96951,68.54704],[21.97039,68.54605],[21.97576,68.5433],[21.98071,68.54182],[21.98131,68.54052],[21.9837,68.53789],[21.99178,68.53404],[21.9934,68.5336],[21.99446,68.53362],[21.99796,68.53408],[21.99895,68.53454],[22.00014,68.53465],[22.00314,68.53433],[22.00629,68.53307],[22.00762,68.53092],[22.00269,68.52903],[22.00281,68.52683],[22.00191,68.52585],[21.99652,68.52256],[21.996,68.52171],[21.99716,68.52049],[22.00389,68.51613],[22.00888,68.51013],[22.00952,68.50885],[22.00931,68.50502],[22.01071,68.50236],[22.01099,68.50001],[22.01485,68.49777],[22.01571,68.4962],[22.02049,68.49389],[22.02354,68.49139],[22.02719,68.48995],[22.02769,68.48934],[22.03012,68.4878],[22.03141,68.48555],[22.03324,68.48474],[22.0371,68.48356],[22.03954,68.48105],[22.04344,68.47963],[22.04609,68.47905],[22.05037,68.47952],[22.05763,68.47899],[22.07214,68.48109],[22.07484,68.48227],[22.07693,68.48237],[22.08077,68.48178],[22.08216,68.48184],[22.08381,68.48217],[22.08543,68.4822],[22.09099,68.48196],[22.09756,68.48123],[22.09854,68.48068],[22.09871,68.47987],[22.09948,68.47911],[22.10042,68.47864],[22.1012,68.47856],[22.10308,68.4788],[22.10736,68.47986],[22.10907,68.48099],[22.11545,68.48214],[22.12104,68.48101],[22.12301,68.48016],[22.12326,68.47712],[22.12536,68.47472],[22.12638,68.47236],[22.12742,68.47186],[22.12989,68.47121],[22.13203,68.47096],[22.14013,68.47067],[22.14676,68.47083],[22.15064,68.47021],[22.15246,68.47011],[22.15794,68.47147],[22.16238,68.47291],[22.16679,68.47369],[22.16954,68.47461],[22.17122,68.47562],[22.17507,68.47654],[22.17831,68.4777],[22.18377,68.47849],[22.19274,68.48022],[22.19417,68.48019],[22.19602,68.47975],[22.19761,68.47965],[22.1994,68.47969],[22.20247,68.4801],[22.20403,68.48009],[22.2079,68.47755],[22.20957,68.47697],[22.21324,68.47614],[22.21945,68.47351],[22.22237,68.47299],[22.22411,68.47324],[22.23614,68.47764],[22.24276,68.47917],[22.24405,68.47964],[22.24746,68.48161],[22.25103,68.48229],[22.25322,68.48234],[22.25617,68.48193],[22.26141,68.47985],[22.26688,68.47882],[22.26836,68.47898],[22.27149,68.47982],[22.27839,68.47878],[22.28244,68.47851],[22.28455,68.47874],[22.28698,68.47956],[22.28832,68.48023],[22.29162,68.48297],[22.2939,68.48363],[22.29671,68.48391],[22.29993,68.48379],[22.32315,68.48128],[22.32982,68.48096],[22.33462,68.48122],[22.3389,68.48247],[22.33982,68.48255],[22.34333,68.48223],[22.34718,68.48219],[22.3501,68.48175],[22.35137,68.48123],[22.35111,68.48059],[22.34886,68.47909],[22.34734,68.47719],[22.34722,68.47616],[22.34826,68.47458],[22.34817,68.47413],[22.347,68.47306],[22.34109,68.46987],[22.3407,68.46928],[22.34147,68.46855],[22.3468,68.46584],[22.34854,68.46446],[22.34895,68.46357],[22.34814,68.46256],[22.34513,68.46144],[22.34361,68.46056],[22.34357,68.45985],[22.3444,68.45864],[22.3429,68.45728],[22.34238,68.4557],[22.34269,68.45483],[22.34529,68.45304],[22.34546,68.45248],[22.34343,68.44877],[22.34058,68.44755],[22.34066,68.44591],[22.34147,68.44502],[22.34261,68.44465],[22.34445,68.44458],[22.35035,68.44483],[22.35267,68.44473],[22.35477,68.44497],[22.35758,68.44575],[22.36441,68.4483],[22.36687,68.45039],[22.3771,68.45379],[22.38147,68.45583],[22.38526,68.45805],[22.38865,68.45905],[22.39042,68.4598],[22.39112,68.46015],[22.3934,68.46263],[22.39811,68.46455],[22.4035,68.46623],[22.40792,68.4667],[22.41192,68.46681],[22.41409,68.4665],[22.41609,68.46483],[22.41724,68.46429],[22.42092,68.46333],[22.42327,68.46336],[22.42693,68.46438],[22.43075,68.46488],[22.43347,68.46483],[22.43688,68.46419],[22.43788,68.46346],[22.4364,68.46107],[22.43718,68.45978],[22.44406,68.45609],[22.44955,68.45264],[22.45911,68.4479],[22.46318,68.44507],[22.46602,68.44243],[22.46829,68.4413],[22.47071,68.4413],[22.47322,68.44211],[22.47712,68.44291],[22.48225,68.44325],[22.49424,68.44292],[22.50615,68.44222],[22.51033,68.44157],[22.51739,68.43972],[22.52382,68.43853],[22.52717,68.43736],[22.53173,68.43537],[22.53549,68.43442],[22.53957,68.43416],[22.54423,68.43471],[22.54988,68.43488],[22.55275,68.43464],[22.55567,68.43414],[22.55776,68.43328],[22.5593,68.43233],[22.56468,68.42766],[22.56725,68.42591],[22.56927,68.42384],[22.57153,68.4224],[22.57241,68.42217],[22.57528,68.42186],[22.57818,68.42208],[22.58371,68.42327],[22.58591,68.42442],[22.58874,68.42513],[22.6032,68.42565],[22.61011,68.42682],[22.61679,68.42755],[22.61823,68.42785],[22.61909,68.42834],[22.619,68.43201],[22.62009,68.43309],[22.62194,68.43403],[22.62475,68.43454],[22.62925,68.43444],[22.63371,68.43486],[22.63805,68.43458],[22.64158,68.43339],[22.643,68.43261],[22.64355,68.43184],[22.6433,68.43029],[22.64177,68.42764],[22.63943,68.42132],[22.64093,68.41984],[22.64536,68.41706],[22.65398,68.41483],[22.65968,68.41419],[22.66206,68.41373],[22.66881,68.41194],[22.67054,68.41195],[22.6733,68.41236],[22.67525,68.41233],[22.67851,68.41158],[22.68237,68.40968],[22.68977,68.40684],[22.69183,68.40569],[22.69192,68.4048],[22.69089,68.40374],[22.6864,68.40216],[22.68522,68.40143],[22.68558,68.40056],[22.68665,68.39988],[22.69011,68.39913],[22.69403,68.39865],[22.70503,68.39796],[22.71318,68.39714],[22.71804,68.39616],[22.72473,68.3945],[22.72657,68.39376],[22.72654,68.39034],[22.72707,68.38947],[22.72996,68.38664],[22.73204,68.3857],[22.73429,68.38507],[22.73743,68.38471],[22.74521,68.385],[22.75822,68.38449],[22.76279,68.38483],[22.76699,68.38541],[22.76971,68.38611],[22.77939,68.3903],[22.789,68.39197],[22.79449,68.39323],[22.79978,68.39358],[22.80102,68.39349],[22.80339,68.39276],[22.80542,68.39131],[22.80804,68.39013],[22.81389,68.38873],[22.8165,68.38827],[22.82328,68.38797],[22.82886,68.38714],[22.83393,68.386],[22.8392,68.38425],[22.84366,68.38359],[22.84539,68.38308],[22.84616,68.3826],[22.84625,68.3813],[22.84423,68.37983],[22.84181,68.3786],[22.83987,68.37708],[22.83936,68.37631],[22.83993,68.37524],[22.83879,68.3744],[22.8364,68.37354],[22.83577,68.37298],[22.83436,68.36928],[22.8349,68.36607],[22.84,68.36377],[22.84185,68.36268],[22.84436,68.36175],[22.84526,68.3607],[22.84642,68.36054],[22.84808,68.36092],[22.84979,68.36096],[22.8557,68.36009],[22.85811,68.35933],[22.87142,68.35388],[22.87595,68.35174],[22.88145,68.3512],[22.88581,68.35007],[22.8905,68.34954],[22.89415,68.34845],[22.89545,68.34758],[22.896,68.3464],[22.89741,68.3454],[22.90096,68.34398],[22.90602,68.34242],[22.90741,68.3412],[22.9107,68.33635],[22.91543,68.33403],[22.91735,68.33357],[22.92941,68.33299],[22.93265,68.33302],[22.93564,68.3334],[22.94841,68.33288],[22.9541,68.33306],[22.96408,68.33249],[22.96897,68.3326],[22.97251,68.3321],[22.97415,68.33151],[22.97501,68.3307],[22.9754,68.32857],[22.97709,68.32644],[22.97676,68.3252],[22.97714,68.32434],[22.97848,68.32369],[22.98191,68.32281],[22.98675,68.32014],[22.98815,68.31973],[22.99425,68.31863],[23.00397,68.31575],[23.00694,68.31468],[23.01049,68.31383],[23.01364,68.31272],[23.01847,68.31163],[23.02715,68.30921],[23.03204,68.3083],[23.03694,68.30697],[23.04803,68.30706],[23.05344,68.30773],[23.0561,68.30753],[23.06079,68.30526],[23.06558,68.30137],[23.06693,68.30102],[23.06907,68.30083],[23.06991,68.30055],[23.0701,68.29989],[23.0694,68.29886],[23.06929,68.29773],[23.07031,68.29409],[23.0693,68.29267],[23.06613,68.29039],[23.0653,68.28924],[23.06512,68.28771],[23.06395,68.28569],[23.06504,68.28401],[23.06417,68.28269],[23.06398,68.28097],[23.06523,68.27888],[23.06769,68.27792],[23.06895,68.27671],[23.07263,68.27459],[23.07694,68.26715],[23.0803,68.2655],[23.08092,68.2649],[23.08277,68.26417],[23.08809,68.26229],[23.09951,68.25899],[23.1076,68.2539],[23.11057,68.25229],[23.11283,68.25149],[23.11859,68.25023],[23.13031,68.24841],[23.13454,68.24876],[23.13729,68.24881],[23.14186,68.24793],[23.14349,68.24683],[23.14448,68.24573],[23.14633,68.24008],[23.14719,68.23872],[23.1508,68.23567],[23.15162,68.23437],[23.15195,68.23194],[23.15158,68.23004],[23.14724,68.22413],[23.14321,68.22048],[23.14193,68.21856],[23.14204,68.21684],[23.1425,68.21619],[23.14458,68.21484],[23.14538,68.21187],[23.1449,68.2105],[23.14086,68.20799],[23.14204,68.20613],[23.14182,68.20378],[23.14286,68.20258],[23.14489,68.20166],[23.14704,68.20102],[23.14917,68.20078],[23.15269,68.20102],[23.15463,68.20082],[23.15794,68.20012],[23.16067,68.1991],[23.16207,68.19787],[23.16206,68.19529],[23.16174,68.1947],[23.16084,68.19424],[23.15537,68.19286],[23.15011,68.19109],[23.14627,68.18747],[23.14625,68.1851],[23.1456,68.18416],[23.14299,68.18292],[23.14162,68.18185],[23.14197,68.17575],[23.14297,68.17453],[23.14627,68.17241],[23.147,68.17156],[23.14522,68.16862],[23.14516,68.16645],[23.14425,68.16355],[23.14314,68.16167],[23.14189,68.1604],[23.1401,68.1553],[23.14485,68.14937],[23.14678,68.1462],[23.14924,68.14459],[23.14987,68.14213],[23.15245,68.13944],[23.15169,68.13762],[23.15185,68.13707],[23.15273,68.13661],[23.15472,68.13629],[23.16378,68.1333],[23.16586,68.13293],[23.16986,68.13307],[23.17239,68.13371],[23.18447,68.13764],[23.18821,68.13816],[23.194,68.13816],[23.20332,68.14078],[23.2067,68.14267],[23.20799,68.14493],[23.20846,68.1454],[23.20949,68.14579],[23.21216,68.14615],[23.22186,68.14655],[23.22378,68.14684],[23.22693,68.14789],[23.22861,68.14817],[23.23405,68.1486],[23.2425,68.14837],[23.24591,68.14852],[23.2511,68.14931],[23.25339,68.15016],[23.25629,68.15176],[23.25712,68.1533],[23.25679,68.1545],[23.25734,68.15569],[23.25934,68.15677],[23.26145,68.157],[23.26508,68.15678],[23.26997,68.15674],[23.27496,68.15735],[23.27818,68.15738],[23.28373,68.15575],[23.28645,68.15446],[22.81309,67.83866],[22.67399,67.80169],[22.53991,67.85291],[22.4667,67.87846],[22.40975,67.90982],[22.38455,67.92513],[22.38239,67.92723],[22.3716,67.93252],[22.35616,67.94154],[22.40959,67.95105],[22.34391,67.95582],[22.23133,67.96111],[22.21651,67.95391],[22.02051,67.96551],[21.92551,67.8568],[21.91897,67.85562],[21.69938,67.91794],[21.63576,67.94451],[21.43461,67.96452],[21.36925,67.99178],[21.32602,68.00929],[21.15814,68.06169],[20.39318,68.25579],[20.2988,68.26743],[20.29897,68.26759],[19.94745,68.34978],[19.9214,68.35601],[19.97796,68.38816],[20.11057,68.44382],[20.22654,68.49081],[20.02588,68.53081],[19.9375,68.55794],[20.05225,68.59107],[20.20284,68.66592],[20.27385,68.74027],[20.33587,68.80231],[20.32185,68.85561],[20.30659,68.92618],[20.26291,68.94476],[20.23787,68.95607],[20.10836,69.02192],[20.06005,69.04576],[20.30308,69.05266],[20.54864,69.05997],[20.5489,69.05929]]]}},{"type":"Feature","id":"2584R005","properties":{"code":"2584R005","name":"Kiruna sydost"},"geometry":{"type":"Polygon","coordinates":[[[21.15814,68.06169],[21.32602,68.00929],[21.36925,67.99178],[21.43461,67.96452],[21.63576,67.94451],[21.69938,67.91794],[21.91897,67.85562],[21.92551,67.8568],[22.02051,67.96551],[22.21651,67.95391],[22.23133,67.96111],[22.34391,67.95582],[22.40959,67.95105],[22.35616,67.94154],[22.3716,67.93252],[22.38239,67.92723],[22.38455,67.92513],[22.40975,67.90982],[22.4667,67.87846],[22.53991,67.85291],[22.67399,67.80169],[22.5926,67.7799],[22.46464,67.74589],[22.3253,67.64666],[22.34183,67.64323],[22.33293,67.63674],[22.31599,67.64017],[22.22551,67.57543],[22.21512,67.57751],[22.21017,67.57396],[22.22052,67.5718],[22.19509,67.55364],[22.05892,67.42624],[21.99401,67.37927],[21.99445,67.37832],[21.99654,67.37735],[21.9971,67.37678],[21.99862,67.37664],[22.00043,67.37671],[22.00307,67.37617],[22.00145,67.3761],[22.00062,67.37579],[22.00052,67.37518],[21.99979,67.37474],[21.99626,67.3744],[21.9959,67.37412],[21.99632,67.37398],[21.99421,67.37334],[21.99278,67.37412],[21.99318,67.37493],[21.99247,67.37545],[21.99264,67.37603],[21.99171,67.3776],[21.96226,67.35616],[21.95618,67.35776],[21.9539,67.3581],[21.95305,67.35912],[21.95086,67.36021],[21.94365,67.36244],[21.9417,67.36372],[21.94122,67.36487],[21.93675,67.36662],[21.93491,67.36683],[21.93284,67.36678],[21.93144,67.36707],[21.92801,67.36976],[21.92539,67.37081],[21.9247,67.37164],[21.92179,67.37345],[21.9212,67.37432],[21.91622,67.37789],[21.91497,67.37841],[21.9123,67.37875],[21.91023,67.3795],[21.90942,67.3795],[21.90288,67.38056],[21.90174,67.38043],[21.8981,67.38136],[21.8977,67.38224],[21.89665,67.38289],[21.89434,67.3841],[21.8895,67.38585],[21.88807,67.38739],[21.88599,67.38885],[21.88509,67.39082],[21.88538,67.3912],[21.88398,67.39258],[21.88427,67.39272],[21.8872,67.39239],[21.88875,67.39147],[21.89155,67.39204],[21.89496,67.3932],[21.89693,67.39355],[21.8981,67.39371],[21.90407,67.39371],[21.90788,67.3941],[21.91508,67.39578],[21.91835,67.39779],[21.91889,67.39863],[21.91871,67.39946],[21.91654,67.40157],[21.91038,67.40379],[21.90869,67.40486],[21.90801,67.40569],[21.90739,67.4077],[21.90954,67.4103],[21.90985,67.41119],[21.90946,67.41196],[21.9084,67.41261],[21.8998,67.41515],[21.90072,67.41557],[21.89618,67.41722],[21.89108,67.41982],[21.88795,67.42054],[21.86338,67.42912],[21.86043,67.42948],[21.85569,67.42966],[21.85022,67.42953],[21.84317,67.42967],[21.84159,67.43013],[21.83797,67.432],[21.83328,67.43748],[21.83203,67.43824],[21.82712,67.4398],[21.82185,67.44234],[21.81765,67.44342],[21.80888,67.44627],[21.80216,67.44819],[21.79381,67.4489],[21.7849,67.45043],[21.77505,67.45092],[21.77479,67.45037],[21.77422,67.45052],[21.77424,67.45096],[21.77234,67.45106],[21.77233,67.45076],[21.77189,67.4507],[21.77026,67.45097],[21.76993,67.45118],[21.74626,67.45236],[21.7475,67.45109],[21.7483,67.44955],[21.74948,67.44921],[21.75005,67.44867],[21.74882,67.44863],[21.74871,67.44811],[21.74808,67.44798],[21.74673,67.44862],[21.74395,67.44898],[21.74236,67.44893],[21.74147,67.44854],[21.74136,67.4473],[21.73973,67.44697],[21.73857,67.44735],[21.73858,67.44816],[21.73969,67.44897],[21.74101,67.44922],[21.74152,67.44958],[21.74133,67.45127],[21.74197,67.45182],[21.74323,67.45206],[21.74386,67.45248],[21.54185,67.46251],[21.54041,67.46203],[21.53983,67.46222],[21.54032,67.46259],[21.53969,67.46262],[21.53901,67.46221],[21.53764,67.46201],[21.53564,67.46242],[21.53546,67.46264],[21.53551,67.46283],[21.53689,67.46309],[21.53594,67.46333],[21.53457,67.46297],[21.53363,67.46311],[21.53399,67.46337],[21.5352,67.46361],[21.53401,67.46407],[21.53232,67.4637],[21.53048,67.46417],[21.53166,67.46498],[21.5302,67.46554],[21.52927,67.46446],[21.52777,67.46423],[21.51928,67.46494],[21.51851,67.46568],[21.51905,67.46666],[21.50725,67.4693],[21.50601,67.4686],[21.5042,67.46875],[21.50399,67.46901],[21.50531,67.4698],[21.5034,67.47029],[21.50244,67.46976],[21.50076,67.46961],[21.49776,67.46994],[21.49597,67.46994],[21.4954,67.4702],[21.49539,67.47068],[21.48928,67.47043],[21.48958,67.47023],[21.48899,67.46912],[21.48761,67.46907],[21.4866,67.46878],[21.48645,67.46908],[21.48527,67.46891],[21.48389,67.46903],[21.48294,67.46934],[21.48141,67.46924],[21.48117,67.46969],[21.47385,67.46964],[21.47316,67.47034],[21.47747,67.47011],[21.47853,67.47022],[21.47638,67.47138],[21.47793,67.47191],[21.47519,67.47263],[21.47373,67.47212],[21.47237,67.47228],[21.47106,67.47213],[21.47047,67.47223],[21.46979,67.4727],[21.47108,67.4737],[21.46974,67.47405],[21.46807,67.47308],[21.46775,67.47314],[21.46738,67.47331],[21.46804,67.4745],[21.46616,67.47499],[21.46482,67.47462],[21.46429,67.4736],[21.46322,67.47321],[21.46174,67.47292],[21.46076,67.47348],[21.45901,67.473],[21.46069,67.472],[21.45964,67.47121],[21.45917,67.47122],[21.45868,67.4716],[21.45729,67.47109],[21.45552,67.47104],[21.45436,67.47296],[21.45138,67.47317],[21.44913,67.47203],[21.44836,67.47191],[21.44752,67.47211],[21.44728,67.47253],[21.44919,67.47332],[21.44389,67.47369],[21.44379,67.4729],[21.44117,67.47277],[21.44082,67.4739],[21.43994,67.47396],[21.43634,67.47347],[21.43845,67.47261],[21.43841,67.4721],[21.43709,67.47172],[21.43659,67.47174],[21.43502,67.47329],[21.43409,67.47316],[21.4359,67.47168],[21.43473,67.47133],[21.43416,67.47136],[21.43428,67.47161],[21.43273,67.47177],[21.43148,67.4728],[21.42235,67.47155],[21.42235,67.47077],[21.42461,67.46966],[21.42338,67.46981],[21.42109,67.47062],[21.4188,67.47033],[21.41911,67.47006],[21.41863,67.46967],[21.42283,67.46949],[21.42447,67.46912],[21.42605,67.4681],[21.42545,67.4691],[21.42613,67.4692],[21.4273,67.46865],[21.42937,67.46832],[21.43943,67.4687],[21.44448,67.4681],[21.44613,67.46742],[21.44681,67.46664],[21.44995,67.46608],[21.45026,67.46582],[21.4496,67.46547],[21.44554,67.46539],[21.44545,67.46558],[21.44609,67.4657],[21.44554,67.46646],[21.44398,67.46709],[21.4388,67.46827],[21.43705,67.46787],[21.43497,67.46784],[21.43146,67.46733],[21.42991,67.4675],[21.42706,67.46738],[21.42252,67.46887],[21.41809,67.4692],[21.41756,67.46935],[21.41742,67.46988],[21.41389,67.47041],[21.41541,67.47189],[21.414,67.47198],[21.41234,67.47131],[21.41115,67.47141],[21.40815,67.47089],[21.40759,67.47108],[21.40735,67.47177],[21.40489,67.47228],[21.40295,67.47239],[21.40071,67.4717],[21.40051,67.47183],[21.40134,67.47232],[21.40038,67.47281],[21.40047,67.47314],[21.39905,67.47333],[21.3976,67.47295],[21.39588,67.4732],[21.3952,67.47348],[21.39579,67.47396],[21.39526,67.47417],[21.39398,67.47383],[21.39255,67.4743],[21.39189,67.47393],[21.39079,67.47404],[21.38779,67.47498],[21.38762,67.4752],[21.38816,67.47549],[21.38776,67.47593],[21.38586,67.47602],[21.3857,67.4764],[21.38425,67.47645],[21.38396,67.47577],[21.38271,67.47568],[21.38292,67.47649],[21.36987,67.48034],[21.36645,67.47872],[21.36395,67.47887],[21.36261,67.47943],[21.36213,67.48009],[21.36558,67.48161],[21.3621,67.48264],[21.36126,67.48224],[21.35997,67.48213],[21.35927,67.4826],[21.36043,67.48314],[21.355,67.48475],[21.32681,67.48158],[21.32456,67.47922],[21.32223,67.47819],[21.31728,67.47701],[21.31094,67.47625],[21.30575,67.476],[21.29657,67.47386],[21.2942,67.47376],[21.28854,67.47419],[21.28154,67.47381],[21.27635,67.47317],[21.26941,67.47355],[21.26566,67.47323],[21.26239,67.47328],[21.25806,67.4738],[21.25197,67.47514],[21.23656,67.47733],[21.23457,67.47784],[21.23101,67.47916],[21.22531,67.47983],[21.21684,67.48144],[21.21381,67.48154],[21.20818,67.48081],[21.20518,67.48063],[21.18564,67.48059],[21.18196,67.48111],[21.17581,67.48296],[21.17023,67.48378],[21.16755,67.48398],[21.16111,67.48393],[21.15506,67.48415],[21.14376,67.48583],[21.14283,67.48587],[21.13866,67.48548],[21.13688,67.48568],[21.13615,67.48579],[21.13435,67.48675],[21.13267,67.48721],[21.12697,67.48833],[21.11697,67.48912],[21.11067,67.48847],[21.10526,67.48922],[21.10059,67.48936],[21.09133,67.49032],[21.08821,67.49105],[21.06786,67.49488],[21.06751,67.49851],[21.06866,67.49946],[21.06861,67.50023],[21.06567,67.50346],[21.06388,67.50446],[21.05295,67.50682],[21.0492,67.50849],[21.04325,67.51171],[21.0423,67.5119],[21.0368,67.51187],[21.03353,67.51248],[21.03103,67.51316],[21.02824,67.51435],[21.02131,67.51595],[21.01826,67.51702],[21.01652,67.51802],[21.01545,67.51907],[21.01507,67.5219],[21.01029,67.52422],[21.00545,67.52398],[21.00189,67.52504],[20.9948,67.52606],[20.97902,67.53075],[20.97443,67.53184],[20.96996,67.53256],[20.96857,67.53504],[20.96728,67.5364],[20.96279,67.53801],[20.95712,67.53906],[20.95499,67.53993],[20.94336,67.5465],[20.93885,67.54845],[20.93609,67.55043],[20.93439,67.55086],[20.9308,67.55127],[20.92157,67.55289],[20.91599,67.55486],[20.91465,67.55598],[20.91445,67.5583],[20.91673,67.55959],[20.91697,67.56012],[20.91582,67.56145],[20.91334,67.56294],[20.90458,67.56578],[20.89996,67.56647],[20.89461,67.56651],[20.89201,67.56722],[20.89042,67.5682],[20.8883,67.56891],[20.87902,67.57081],[20.87725,67.57237],[20.87542,67.57335],[20.87095,67.57458],[20.86694,67.5762],[20.8623,67.57754],[20.85786,67.57941],[20.85463,67.58169],[20.85252,67.58249],[20.84816,67.58331],[20.8445,67.58457],[20.84331,67.58595],[20.8426,67.58622],[20.83804,67.58671],[20.83614,67.58712],[20.83074,67.58965],[20.8297,67.58986],[20.82657,67.5898],[20.82425,67.59044],[20.81919,67.59375],[20.8141,67.59497],[20.81248,67.59584],[20.80416,67.5982],[20.80009,67.59982],[20.79345,67.6013],[20.79036,67.60238],[20.78807,67.60347],[20.78417,67.60402],[20.78022,67.60608],[20.77481,67.60732],[20.77345,67.60798],[20.7735,67.60955],[20.77462,67.6116],[20.77431,67.61289],[20.77308,67.61379],[20.76865,67.61498],[20.76468,67.61705],[20.76346,67.61734],[20.76017,67.61764],[20.75717,67.61864],[20.75304,67.61944],[20.74172,67.62325],[20.73367,67.62556],[20.72842,67.62765],[20.72477,67.6283],[20.72231,67.62853],[20.71707,67.62952],[20.71497,67.63012],[20.71461,67.63043],[20.71485,67.63093],[20.71612,67.63192],[20.71531,67.63383],[20.71326,67.63565],[20.70903,67.63774],[20.70208,67.63994],[20.73871,67.70469],[20.81269,67.71743],[20.90085,67.71096],[20.95266,67.85106],[20.95912,67.90824],[20.89178,67.92528],[20.85875,67.94707],[20.81497,67.95528],[20.81438,67.95641],[20.81482,67.95913],[20.81549,67.95941],[20.81656,67.95938],[20.8172,67.95959],[20.81854,67.96046],[20.81981,67.96093],[20.81964,67.9619],[20.82017,67.96211],[20.81969,67.96246],[20.82021,67.96296],[20.82131,67.96336],[20.82005,67.96499],[20.82003,67.96553],[20.81834,67.96612],[20.81884,67.96716],[20.81868,67.96854],[20.81793,67.96949],[20.81635,67.97057],[20.89424,67.95759],[20.92803,67.98335],[20.97236,68.10418],[20.97369,68.10911],[21.15814,68.06169]]]}},{"type":"Feature","id":"2584R006","properties":{"code":"2584R006","name":"Kiruna väst"},"geometry":{"type":"Polygon","coordinates":[[[18.48553,68.55649],[18.5526,68.53278],[18.62122,68.50696],[18.68496,68.50851],[18.74031,68.51045],[18.9838,68.51696],[19.23154,68.47515],[19.70759,68.39391],[19.9214,68.35601],[19.94745,68.34978],[20.29897,68.26759],[20.29804,68.26674],[20.26144,68.21036],[20.44664,68.05695],[20.45868,68.05289],[20.46857,68.04169],[20.51517,68.00178],[20.56304,67.9786],[20.57245,67.97133],[20.55451,67.95928],[20.48618,67.94151],[20.48695,67.93592],[20.49444,67.92699],[20.48361,67.91389],[20.46788,67.91117],[20.44474,67.90554],[20.44541,67.90158],[20.44044,67.89528],[20.43498,67.89041],[20.43922,67.88676],[20.41394,67.8737],[20.40803,67.8702],[20.40848,67.86438],[20.41007,67.8632],[20.39364,67.85662],[20.40155,67.85256],[20.39442,67.84513],[20.39199,67.83896],[20.38623,67.83509],[20.37931,67.83277],[20.37438,67.82938],[20.37369,67.82951],[20.31635,67.79361],[20.31512,67.79375],[20.30116,67.7309],[20.29452,67.73041],[20.28867,67.73032],[20.28421,67.73116],[20.28314,67.73126],[20.2816,67.73115],[20.28085,67.73099],[20.28049,67.73019],[20.2785,67.72842],[20.27582,67.72721],[20.273,67.72647],[20.27003,67.72629],[20.26666,67.72517],[20.26416,67.72477],[20.25805,67.72326],[20.2555,67.72286],[20.25315,67.72297],[20.251,67.72244],[20.24884,67.72231],[20.24166,67.72283],[20.24009,67.72279],[20.23552,67.72247],[20.22981,67.72237],[20.22575,67.72176],[20.22286,67.72176],[20.22039,67.72309],[20.21111,67.72465],[20.20347,67.72641],[20.20211,67.72689],[20.18882,67.72951],[20.1855,67.73058],[20.17851,67.73226],[20.17568,67.73235],[20.17132,67.73167],[20.16923,67.73051],[20.16718,67.73049],[20.16474,67.73079],[20.15905,67.73235],[20.15151,67.73639],[20.14116,67.73904],[20.13537,67.74103],[20.12865,67.74267],[20.11795,67.74754],[20.10161,67.74855],[20.09621,67.7497],[20.08275,67.74998],[20.06531,67.74744],[20.05549,67.74576],[20.05187,67.74445],[20.04219,67.74271],[20.03836,67.74405],[20.03317,67.74492],[20.02725,67.7442],[20.00913,67.74582],[19.97738,67.76334],[19.9639,67.7666],[19.95181,67.77371],[19.92398,67.78054],[19.87296,67.7866],[19.85247,67.79417],[19.83575,67.79591],[19.82244,67.79943],[19.82064,67.8007],[19.81321,67.80138],[19.81163,67.8034],[19.80904,67.80559],[19.80095,67.80731],[19.79402,67.81131],[19.78131,67.8149],[19.70199,67.81322],[19.67735,67.8174],[19.66376,67.81923],[19.65937,67.82088],[19.65343,67.82229],[19.64187,67.82095],[19.63405,67.8247],[19.63579,67.82808],[19.60422,67.8296],[19.56071,67.83089],[19.53831,67.83231],[19.51578,67.83477],[19.50627,67.83607],[19.49815,67.83627],[19.48443,67.83762],[19.48212,67.83934],[19.4663,67.84358],[19.45101,67.84644],[19.40816,67.85218],[19.32165,67.85628],[19.2492,67.84844],[19.23701,67.84809],[19.18066,67.85081],[19.13,67.85016],[19.08185,67.85136],[19.02321,67.85593],[19.00505,67.85719],[18.85256,67.84447],[18.83877,67.84861],[18.83737,67.84881],[18.8347,67.84882],[18.83188,67.8492],[18.8292,67.84993],[18.82254,67.84909],[18.8214,67.84911],[18.81611,67.8504],[18.81423,67.85068],[18.81201,67.85085],[18.80685,67.8507],[18.79879,67.85145],[18.79577,67.85089],[18.79391,67.85082],[18.78943,67.85215],[18.78597,67.85235],[18.78256,67.85206],[18.35186,67.85431],[18.18652,67.89515],[17.89976,67.96937],[18.05233,68.10822],[18.09581,68.14616],[18.15136,68.19879],[18.13889,68.24902],[18.11462,68.34053],[18.10109,68.40604],[18.11774,68.48981],[18.12592,68.53651],[18.29992,68.56454],[18.40569,68.58188],[18.48553,68.55649]],[[20.19902,67.8834],[20.19208,67.88304],[20.18753,67.88223],[20.18464,67.88125],[20.18268,67.88017],[20.18007,67.87963],[20.17698,67.8787],[20.1751,67.87783],[20.17359,67.87674],[20.18317,67.87607],[20.18608,67.87565],[20.18936,67.87479],[20.19234,67.87338],[20.19791,67.86954],[20.20262,67.86511],[20.20599,67.86246],[20.20379,67.8602],[20.21185,67.85846],[20.21111,67.85834],[20.21275,67.85718],[20.2137,67.85535],[20.21894,67.85009],[20.22272,67.84098],[20.22461,67.83893],[20.22774,67.83834],[20.23418,67.83751],[20.24099,67.83712],[20.24044,67.8352],[20.24157,67.8327],[20.2449,67.83009],[20.24683,67.82924],[20.24923,67.82852],[20.25478,67.82761],[20.26003,67.82743],[20.26222,67.82649],[20.26475,67.82574],[20.2676,67.8252],[20.27165,67.82476],[20.27424,67.82395],[20.27835,67.82321],[20.28436,67.82288],[20.28928,67.82319],[20.29394,67.8239],[20.2998,67.82539],[20.30184,67.82615],[20.30592,67.82822],[20.30822,67.83018],[20.30912,67.83172],[20.30932,67.83297],[20.31192,67.83511],[20.31421,67.83879],[20.32001,67.83984],[20.3244,67.8412],[20.32922,67.84125],[20.33507,67.84039],[20.34175,67.84002],[20.34548,67.84019],[20.34914,67.84064],[20.35355,67.84079],[20.36274,67.84227],[20.36564,67.84318],[20.36739,67.84403],[20.36898,67.84531],[20.36961,67.8464],[20.36989,67.84833],[20.36923,67.84979],[20.36777,67.85113],[20.36433,67.85275],[20.36256,67.85392],[20.35835,67.85536],[20.35391,67.85604],[20.34438,67.85632],[20.34101,67.85679],[20.33824,67.85693],[20.32785,67.85661],[20.32358,67.85611],[20.31701,67.85647],[20.31352,67.85644],[20.31047,67.85677],[20.30771,67.85684],[20.29847,67.85615],[20.29524,67.85683],[20.29317,67.85675],[20.29144,67.85698],[20.28943,67.85769],[20.28402,67.85859],[20.28149,67.8597],[20.27576,67.86149],[20.27258,67.86222],[20.26976,67.86408],[20.26594,67.86532],[20.25789,67.86658],[20.25414,67.86672],[20.25117,67.86658],[20.24926,67.86716],[20.24826,67.8686],[20.24636,67.86986],[20.24211,67.87181],[20.23916,67.87269],[20.23565,67.87328],[20.23096,67.87351],[20.22717,67.87329],[20.22358,67.8727],[20.21983,67.87373],[20.21464,67.87453],[20.2149,67.87654],[20.2146,67.87761],[20.213,67.87936],[20.21075,67.88093],[20.20833,67.88199],[20.20531,67.88278],[20.20187,67.88326],[20.19902,67.8834]]]}},{"type":"Feature","id":"2584R007","properties":{"code":"2584R007","name":"Lombolo mellersta"},"geometry":{"type":"Polygon","coordinates":[[[20.27854,67.84203],[20.27889,67.84122],[20.28127,67.83938],[20.28175,67.83718],[20.28092,67.83662],[20.27964,67.83348],[20.2806,67.83316],[20.28416,67.8326],[20.28332,67.83206],[20.2834,67.83159],[20.28286,67.83135],[20.28181,67.82968],[20.27828,67.82848],[20.27107,67.8248],[20.26633,67.8254],[20.26229,67.82647],[20.26937,67.8312],[20.27011,67.83227],[20.26399,67.83277],[20.26433,67.83319],[20.26052,67.83387],[20.26332,67.83553],[20.26628,67.83873],[20.26504,67.83933],[20.26456,67.83998],[20.26777,67.84026],[20.27164,67.84011],[20.27854,67.84203]]]}},{"type":"Feature","id":"2584R009","properties":{"code":"2584R009","name":"Lombolo östra"},"geometry":{"type":"Polygon","coordinates":[[[20.30162,67.84348],[20.31466,67.83886],[20.31421,67.83879],[20.31192,67.83511],[20.30932,67.83297],[20.30912,67.83172],[20.30822,67.83018],[20.30592,67.82822],[20.30184,67.82615],[20.29987,67.82541],[20.29394,67.8239],[20.29014,67.8233],[20.28624,67.82292],[20.28113,67.82296],[20.2775,67.82332],[20.27424,67.82395],[20.27107,67.8248],[20.27828,67.82848],[20.28181,67.82968],[20.28286,67.83135],[20.2834,67.83159],[20.28332,67.83206],[20.28416,67.8326],[20.2806,67.83316],[20.27964,67.83348],[20.28092,67.83662],[20.28175,67.83718],[20.28127,67.83938],[20.27889,67.84122],[20.27854,67.84203],[20.28242,67.84329],[20.28519,67.84344],[20.29269,67.84333],[20.30162,67.84348]]]}},{"type":"Feature","id":"2584R010","properties":{"code":"2584R010","name":"Luossavaara"},"geometry":{"type":"Polygon","coordinates":[[[20.19714,67.88338],[20.20275,67.88317],[20.20611,67.88261],[20.20899,67.88175],[20.21075,67.88093],[20.213,67.87936],[20.2146,67.87761],[20.2149,67.87654],[20.21464,67.87453],[20.21983,67.87373],[20.22358,67.8727],[20.2255,67.87307],[20.22317,67.87044],[20.22497,67.86739],[20.22608,67.8664],[20.22462,67.86611],[20.22399,67.86655],[20.22178,67.8661],[20.22075,67.86509],[20.22142,67.86464],[20.213,67.86294],[20.21097,67.86314],[20.21067,67.86273],[20.21099,67.86236],[20.21001,67.8621],[20.21411,67.85889],[20.21185,67.85846],[20.20379,67.8602],[20.20599,67.86246],[20.20262,67.86511],[20.19791,67.86954],[20.19071,67.87426],[20.18784,67.87525],[20.18422,67.87594],[20.17359,67.87674],[20.1751,67.87783],[20.17698,67.8787],[20.18007,67.87963],[20.18268,67.88017],[20.18464,67.88125],[20.18774,67.88228],[20.19296,67.88313],[20.19714,67.88338]]]}},{"type":"Feature","id":"2584R011","properties":{"code":"2584R011","name":"Nya Kiruna centrum-Tuolluvaara"},"geometry":{"type":"Polygon","coordinates":[[[20.29298,67.85675],[20.29524,67.85683],[20.29847,67.85615],[20.30771,67.85684],[20.31047,67.85677],[20.31352,67.85644],[20.31701,67.85647],[20.32358,67.85611],[20.32785,67.85661],[20.33815,67.85693],[20.34101,67.85679],[20.34438,67.85632],[20.35204,67.85616],[20.35662,67.8557],[20.35916,67.85516],[20.36195,67.8542],[20.36433,67.85275],[20.36729,67.85142],[20.36863,67.85046],[20.36993,67.84798],[20.36946,67.84603],[20.36868,67.84499],[20.36684,67.84372],[20.36355,67.84248],[20.36103,67.84192],[20.35442,67.84089],[20.34914,67.84064],[20.34548,67.84019],[20.34175,67.84002],[20.33507,67.84039],[20.32922,67.84125],[20.3244,67.8412],[20.32001,67.83984],[20.31466,67.83886],[20.30162,67.84348],[20.29269,67.84333],[20.28519,67.84344],[20.28242,67.84329],[20.27854,67.84203],[20.27466,67.84273],[20.27275,67.8433],[20.27029,67.84368],[20.26808,67.84369],[20.26641,67.8443],[20.26459,67.84468],[20.26277,67.84474],[20.25738,67.84415],[20.2547,67.84311],[20.25167,67.84249],[20.25089,67.84186],[20.2498,67.84221],[20.25044,67.84441],[20.252,67.8456],[20.25379,67.84644],[20.25164,67.8487],[20.25695,67.849],[20.25577,67.84986],[20.25664,67.85071],[20.25877,67.85189],[20.25975,67.85326],[20.25937,67.85424],[20.26241,67.85684],[20.27343,67.8588],[20.27048,67.8614],[20.2673,67.86497],[20.27033,67.86382],[20.27258,67.86222],[20.27576,67.86149],[20.28149,67.8597],[20.28402,67.85859],[20.28943,67.85769],[20.29116,67.85704],[20.29298,67.85675]]]}},{"type":"Feature","id":"2584R012","properties":{"code":"2584R012","name":"Sandstensberget"},"geometry":{"type":"Polygon","coordinates":[[[20.2641,67.86568],[20.2673,67.86497],[20.27048,67.8614],[20.27343,67.8588],[20.26241,67.85684],[20.26027,67.85525],[20.25845,67.85504],[20.25589,67.85508],[20.25365,67.85484],[20.24167,67.85603],[20.24188,67.85674],[20.24361,67.85732],[20.2424,67.85792],[20.24064,67.85832],[20.24119,67.8593],[20.24617,67.86108],[20.24601,67.8617],[20.25204,67.86284],[20.2641,67.86568]]]}},{"type":"Feature","id":"2584R013","properties":{"code":"2584R013","name":"Triangeln"},"geometry":{"type":"Polygon","coordinates":[[[20.23701,67.85178],[20.25577,67.84986],[20.25695,67.849],[20.25164,67.8487],[20.25379,67.84644],[20.252,67.8456],[20.25044,67.84441],[20.2498,67.84221],[20.25089,67.84186],[20.25078,67.84164],[20.25341,67.83991],[20.25412,67.83859],[20.25208,67.83739],[20.24954,67.83649],[20.24829,67.83503],[20.24706,67.83091],[20.2533,67.82779],[20.25001,67.82834],[20.2475,67.82901],[20.24383,67.83076],[20.24157,67.8327],[20.24079,67.83378],[20.24043,67.83554],[20.24099,67.83712],[20.23434,67.8375],[20.22774,67.83834],[20.22936,67.8434],[20.23011,67.84367],[20.23089,67.84441],[20.23097,67.84627],[20.23237,67.84751],[20.23473,67.84735],[20.23607,67.8475],[20.23583,67.84871],[20.23475,67.84977],[20.23701,67.85178]]]}},{"type":"Feature","id":"2584R014","properties":{"code":"2584R014","name":"Östermalm"},"geometry":{"type":"Polygon","coordinates":[[[20.24178,67.85602],[20.25365,67.85484],[20.26027,67.85525],[20.25937,67.85424],[20.25975,67.85326],[20.25877,67.85189],[20.25664,67.85071],[20.25577,67.84986],[20.23544,67.85195],[20.23435,67.85232],[20.23399,67.85255],[20.2402,67.85439],[20.24178,67.85602]]]}},{"type":"Feature","id":"2584R015","properties":{"code":"2584R015","name":"Norrmalm"},"geometry":{"type":"Polygon","coordinates":[[[20.23291,67.87348],[20.23658,67.87316],[20.23992,67.87251],[20.24215,67.87179],[20.24543,67.87028],[20.24119,67.86543],[20.24084,67.86441],[20.23383,67.86315],[20.23141,67.86352],[20.22812,67.8637],[20.22673,67.86146],[20.22391,67.85918],[20.22234,67.85664],[20.22236,67.85561],[20.22353,67.85329],[20.21706,67.85189],[20.2137,67.85535],[20.21275,67.85718],[20.21111,67.85834],[20.21411,67.85889],[20.21001,67.8621],[20.21099,67.86236],[20.21067,67.86273],[20.21097,67.86314],[20.213,67.86294],[20.22142,67.86464],[20.22075,67.86509],[20.22178,67.8661],[20.22399,67.86655],[20.22462,67.86611],[20.22608,67.8664],[20.22497,67.86739],[20.22317,67.87044],[20.2255,67.87307],[20.22908,67.87345],[20.23291,67.87348]]]}}]}